{"zip_code":[
{"zip_code":"8800000","kana_pref":"ﾐﾔｻﾞｷｹﾝ","kana_city":"ﾐﾔｻﾞｷｼ","kana_address":"","pref":"宮崎県","city":"宮崎市","address":""},
{"zip_code":"8800842","kana_pref":"ﾐﾔｻﾞｷｹﾝ","kana_city":"ﾐﾔｻﾞｷｼ","kana_address":"ｱｵﾊﾞﾁｮｳ","pref":"宮崎県","city":"宮崎市","address":"青葉町"},
{"zip_code":"8800912","kana_pref":"ﾐﾔｻﾞｷｹﾝ","kana_city":"ﾐﾔｻﾞｷｼ","kana_address":"ｱｶｴ","pref":"宮崎県","city":"宮崎市","address":"赤江"},
{"zip_code":"8800803","kana_pref":"ﾐﾔｻﾞｷｹﾝ","kana_city":"ﾐﾔｻﾞｷｼ","kana_address":"ｱｻﾋ","pref":"宮崎県","city":"宮崎市","address":"旭"},
{"zip_code":"8800864","kana_pref":"ﾐﾔｻﾞｷｹﾝ","kana_city":"ﾐﾔｻﾞｷｼ","kana_address":"ｱﾂﾞﾏﾁｮｳ","pref":"宮崎県","city":"宮崎市","address":"吾妻町"},
{"zip_code":"8802101","kana_pref":"ﾐﾔｻﾞｷｹﾝ","kana_city":"ﾐﾔｻﾞｷｼ","kana_address":"ｱﾄｴ","pref":"宮崎県","city":"宮崎市","address":"跡江"},
{"zip_code":"8802102","kana_pref":"ﾐﾔｻﾞｷｹﾝ","kana_city":"ﾐﾔｻﾞｷｼ","kana_address":"ｱﾘﾀ","pref":"宮崎県","city":"宮崎市","address":"有田"},
{"zip_code":"8800835","kana_pref":"ﾐﾔｻﾞｷｹﾝ","kana_city":"ﾐﾔｻﾞｷｼ","kana_address":"ｱﾜｷﾞｶﾞﾊﾗﾁｮｳ","pref":"宮崎県","city":"宮崎市","address":"阿波岐原町"},
{"zip_code":"8802103","kana_pref":"ﾐﾔｻﾞｷｹﾝ","kana_city":"ﾐﾔｻﾞｷｼ","kana_address":"ｲｷﾒ","pref":"宮崎県","city":"宮崎市","address":"生目"},
{"zip_code":"8800942","kana_pref":"ﾐﾔｻﾞｷｹﾝ","kana_city":"ﾐﾔｻﾞｷｼ","kana_address":"ｲｷﾒﾀﾞｲﾋｶﾞｼ","pref":"宮崎県","city":"宮崎市","address":"生目台東"},
{"zip_code":"8800943","kana_pref":"ﾐﾔｻﾞｷｹﾝ","kana_city":"ﾐﾔｻﾞｷｼ","kana_address":"ｲｷﾒﾀﾞｲﾆｼ","pref":"宮崎県","city":"宮崎市","address":"生目台西"},
{"zip_code":"8800041","kana_pref":"ﾐﾔｻﾞｷｹﾝ","kana_city":"ﾐﾔｻﾞｷｼ","kana_address":"ｲｹｳﾁﾁｮｳ","pref":"宮崎県","city":"宮崎市","address":"池内町"},
{"zip_code":"8800854","kana_pref":"ﾐﾔｻﾞｷｹﾝ","kana_city":"ﾐﾔｻﾞｷｼ","kana_address":"ｲﾁﾉﾐﾔﾁｮｳ","pref":"宮崎県","city":"宮崎市","address":"一の宮町"},
{"zip_code":"8802231","kana_pref":"ﾐﾔｻﾞｷｹﾝ","kana_city":"ﾐﾔｻﾞｷｼ","kana_address":"ｲﾄﾊﾞﾙ","pref":"宮崎県","city":"宮崎市","address":"糸原"},
{"zip_code":"8802104","kana_pref":"ﾐﾔｻﾞｷｹﾝ","kana_city":"ﾐﾔｻﾞｷｼ","kana_address":"ｳｷﾀ","pref":"宮崎県","city":"宮崎市","address":"浮田"},
{"zip_code":"8800821","kana_pref":"ﾐﾔｻﾞｷｹﾝ","kana_city":"ﾐﾔｻﾞｷｼ","kana_address":"ｳｷﾉｼﾞｮｳﾁｮｳ","pref":"宮崎県","city":"宮崎市","address":"浮城町"},
{"zip_code":"8800344","kana_pref":"ﾐﾔｻﾞｷｹﾝ","kana_city":"ﾐﾔｻﾞｷｼ","kana_address":"ｳﾘｭｳﾉ","pref":"宮崎県","city":"宮崎市","address":"瓜生野"},
{"zip_code":"8800044","kana_pref":"ﾐﾔｻﾞｷｹﾝ","kana_city":"ﾐﾔｻﾞｷｼ","kana_address":"ｳﾘｭｳﾉ","pref":"宮崎県","city":"宮崎市","address":"瓜生野"},
{"zip_code":"8800872","kana_pref":"ﾐﾔｻﾞｷｹﾝ","kana_city":"ﾐﾔｻﾞｷｼ","kana_address":"ｴｲﾗｸﾁｮｳ","pref":"宮崎県","city":"宮崎市","address":"永楽町"},
{"zip_code":"8800814","kana_pref":"ﾐﾔｻﾞｷｹﾝ","kana_city":"ﾐﾔｻﾞｷｼ","kana_address":"ｴﾋﾗﾅｶﾏﾁ","pref":"宮崎県","city":"宮崎市","address":"江平中町"},
{"zip_code":"8800817","kana_pref":"ﾐﾔｻﾞｷｹﾝ","kana_city":"ﾐﾔｻﾞｷｼ","kana_address":"ｴﾋﾗﾋｶﾞｼﾏﾁ","pref":"宮崎県","city":"宮崎市","address":"江平東町"},
{"zip_code":"8800816","kana_pref":"ﾐﾔｻﾞｷｹﾝ","kana_city":"ﾐﾔｻﾞｷｼ","kana_address":"ｴﾋﾗﾋｶﾞｼ","pref":"宮崎県","city":"宮崎市","address":"江平東"},
{"zip_code":"8800051","kana_pref":"ﾐﾔｻﾞｷｹﾝ","kana_city":"ﾐﾔｻﾞｷｼ","kana_address":"ｴﾋﾗﾆｼ","pref":"宮崎県","city":"宮崎市","address":"江平西"},
{"zip_code":"8800815","kana_pref":"ﾐﾔｻﾞｷｹﾝ","kana_city":"ﾐﾔｻﾞｷｼ","kana_address":"ｴﾋﾗﾁｮｳ","pref":"宮崎県","city":"宮崎市","address":"江平町"},
{"zip_code":"8800801","kana_pref":"ﾐﾔｻﾞｷｹﾝ","kana_city":"ﾐﾔｻﾞｷｼ","kana_address":"ｵｲﾏﾂ","pref":"宮崎県","city":"宮崎市","address":"老松"},
{"zip_code":"8800824","kana_pref":"ﾐﾔｻﾞｷｹﾝ","kana_city":"ﾐﾔｻﾞｷｼ","kana_address":"ｵｵｼﾏﾁｮｳ","pref":"宮崎県","city":"宮崎市","address":"大島町"},
{"zip_code":"8800345","kana_pref":"ﾐﾔｻﾞｷｹﾝ","kana_city":"ﾐﾔｻﾞｷｼ","kana_address":"ｵｵｾﾏﾁ","pref":"宮崎県","city":"宮崎市","address":"大瀬町"},
{"zip_code":"8800045","kana_pref":"ﾐﾔｻﾞｷｹﾝ","kana_city":"ﾐﾔｻﾞｷｼ","kana_address":"ｵｵｾﾏﾁ","pref":"宮崎県","city":"宮崎市","address":"大瀬町"},
{"zip_code":"8800903","kana_pref":"ﾐﾔｻﾞｷｹﾝ","kana_city":"ﾐﾔｻﾞｷｼ","kana_address":"ｵｵﾀ","pref":"宮崎県","city":"宮崎市","address":"太田"},
{"zip_code":"8800952","kana_pref":"ﾐﾔｻﾞｷｹﾝ","kana_city":"ﾐﾔｻﾞｷｼ","kana_address":"ｵｵﾂｶﾀﾞｲﾋｶﾞｼ","pref":"宮崎県","city":"宮崎市","address":"大塚台東"},
{"zip_code":"8802105","kana_pref":"ﾐﾔｻﾞｷｹﾝ","kana_city":"ﾐﾔｻﾞｷｼ","kana_address":"ｵｵﾂｶﾀﾞｲﾆｼ","pref":"宮崎県","city":"宮崎市","address":"大塚台西"},
{"zip_code":"8800951","kana_pref":"ﾐﾔｻﾞｷｹﾝ","kana_city":"ﾐﾔｻﾞｷｼ","kana_address":"ｵｵﾂｶﾁｮｳ","pref":"宮崎県","city":"宮崎市","address":"大塚町"},
{"zip_code":"8800933","kana_pref":"ﾐﾔｻﾞｷｹﾝ","kana_city":"ﾐﾔｻﾞｷｼ","kana_address":"ｵｵﾂﾎﾞﾁｮｳ","pref":"宮崎県","city":"宮崎市","address":"大坪町"},
{"zip_code":"8800934","kana_pref":"ﾐﾔｻﾞｷｹﾝ","kana_city":"ﾐﾔｻﾞｷｼ","kana_address":"ｵｵﾂﾎﾞﾋｶﾞｼ","pref":"宮崎県","city":"宮崎市","address":"大坪東"},
{"zip_code":"8800932","kana_pref":"ﾐﾔｻﾞｷｹﾝ","kana_city":"ﾐﾔｻﾞｷｼ","kana_address":"ｵｵﾂﾎﾞﾆｼ","pref":"宮崎県","city":"宮崎市","address":"大坪西"},
{"zip_code":"8800022","kana_pref":"ﾐﾔｻﾞｷｹﾝ","kana_city":"ﾐﾔｻﾞｷｼ","kana_address":"ｵｵﾊｼ","pref":"宮崎県","city":"宮崎市","address":"大橋"},
{"zip_code":"8800902","kana_pref":"ﾐﾔｻﾞｷｹﾝ","kana_city":"ﾐﾔｻﾞｷｼ","kana_address":"ｵｵﾖﾄﾞ","pref":"宮崎県","city":"宮崎市","address":"大淀"},
{"zip_code":"8800857","kana_pref":"ﾐﾔｻﾞｷｹﾝ","kana_city":"ﾐﾔｻﾞｷｼ","kana_address":"ｵﾄﾞﾁｮｳ","pref":"宮崎県","city":"宮崎市","address":"小戸町"},
{"zip_code":"8800947","kana_pref":"ﾐﾔｻﾞｷｹﾝ","kana_city":"ﾐﾔｻﾞｷｼ","kana_address":"ｶｵﾙｻﾞｶ","pref":"宮崎県","city":"宮崎市","address":"薫る坂"},
{"zip_code":"8802111","kana_pref":"ﾐﾔｻﾞｷｹﾝ","kana_city":"ﾐﾔｻﾞｷｼ","kana_address":"ｶｼﾜﾊﾞﾙ","pref":"宮崎県","city":"宮崎市","address":"柏原"},
{"zip_code":"8802234","kana_pref":"ﾐﾔｻﾞｷｹﾝ","kana_city":"ﾐﾔｻﾞｷｼ","kana_address":"ｶﾈｻﾞｷ","pref":"宮崎県","city":"宮崎市","address":"金崎"},
{"zip_code":"8800043","kana_pref":"ﾐﾔｻﾞｷｹﾝ","kana_city":"ﾐﾔｻﾞｷｼ","kana_address":"ｶﾐｷﾀｶﾀ","pref":"宮崎県","city":"宮崎市","address":"上北方"},
{"zip_code":"8800011","kana_pref":"ﾐﾔｻﾞｷｹﾝ","kana_city":"ﾐﾔｻﾞｷｼ","kana_address":"ｶﾐﾉﾏﾁ","pref":"宮崎県","city":"宮崎市","address":"上野町"},
{"zip_code":"8800866","kana_pref":"ﾐﾔｻﾞｷｹﾝ","kana_city":"ﾐﾔｻﾞｷｼ","kana_address":"ｶﾜﾗﾏﾁ","pref":"宮崎県","city":"宮崎市","address":"川原町"},
{"zip_code":"8800024","kana_pref":"ﾐﾔｻﾞｷｹﾝ","kana_city":"ﾐﾔｻﾞｷｼ","kana_address":"ｷﾞｵﾝ","pref":"宮崎県","city":"宮崎市","address":"祗園"},
{"zip_code":"8800941","kana_pref":"ﾐﾔｻﾞｷｹﾝ","kana_city":"ﾐﾔｻﾞｷｼ","kana_address":"ｷﾀｶﾜｳﾁﾁｮｳ","pref":"宮崎県","city":"宮崎市","address":"北川内町"},
{"zip_code":"8800823","kana_pref":"ﾐﾔｻﾞｷｹﾝ","kana_city":"ﾐﾔｻﾞｷｼ","kana_address":"ｷﾀｺﾞﾝｹﾞﾝﾁｮｳ","pref":"宮崎県","city":"宮崎市","address":"北権現町"},
{"zip_code":"8800017","kana_pref":"ﾐﾔｻﾞｷｹﾝ","kana_city":"ﾐﾔｻﾞｷｼ","kana_address":"ｷﾀﾀｶﾏﾂﾁｮｳ","pref":"宮崎県","city":"宮崎市","address":"北高松町"},
{"zip_code":"8800923","kana_pref":"ﾐﾔｻﾞｷｹﾝ","kana_city":"ﾐﾔｻﾞｷｼ","kana_address":"ｷﾎﾞｳｶﾞｵｶ","pref":"宮崎県","city":"宮崎市","address":"希望ケ丘"},
{"zip_code":"8800937","kana_pref":"ﾐﾔｻﾞｷｹﾝ","kana_city":"ﾐﾔｻﾞｷｼ","kana_address":"ｷｮｳﾂｶ","pref":"宮崎県","city":"宮崎市","address":"京塚"},
{"zip_code":"8800938","kana_pref":"ﾐﾔｻﾞｷｹﾝ","kana_city":"ﾐﾔｻﾞｷｼ","kana_address":"ｷｮｳﾂﾞｶﾁｮｳ","pref":"宮崎県","city":"宮崎市","address":"京塚町"},
{"zip_code":"8800032","kana_pref":"ﾐﾔｻﾞｷｹﾝ","kana_city":"ﾐﾔｻﾞｷｼ","kana_address":"ｷﾘｼﾏ","pref":"宮崎県","city":"宮崎市","address":"霧島"},
{"zip_code":"8800924","kana_pref":"ﾐﾔｻﾞｷｹﾝ","kana_city":"ﾐﾔｻﾞｷｼ","kana_address":"ｸﾞｼﾞﾌﾞﾝ","pref":"宮崎県","city":"宮崎市","address":"郡司分"},
{"zip_code":"8800927","kana_pref":"ﾐﾔｻﾞｷｹﾝ","kana_city":"ﾐﾔｻﾞｷｼ","kana_address":"ｹﾞﾝﾄﾞｳﾁｮｳ","pref":"宮崎県","city":"宮崎市","address":"源藤町"},
{"zip_code":"8800944","kana_pref":"ﾐﾔｻﾞｷｹﾝ","kana_city":"ﾐﾔｻﾞｷｼ","kana_address":"ｺｳﾅﾝ","pref":"宮崎県","city":"宮崎市","address":"江南"},
{"zip_code":"8802112","kana_pref":"ﾐﾔｻﾞｷｹﾝ","kana_city":"ﾐﾔｻﾞｷｼ","kana_address":"ｺﾏﾂ","pref":"宮崎県","city":"宮崎市","address":"小松"},
{"zip_code":"8802113","kana_pref":"ﾐﾔｻﾞｷｹﾝ","kana_city":"ﾐﾔｻﾞｷｼ","kana_address":"ｺﾏﾂﾀﾞｲｷﾀﾏﾁ","pref":"宮崎県","city":"宮崎市","address":"小松台北町"},
{"zip_code":"8800954","kana_pref":"ﾐﾔｻﾞｷｹﾝ","kana_city":"ﾐﾔｻﾞｷｼ","kana_address":"ｺﾏﾂﾀﾞｲﾆｼ","pref":"宮崎県","city":"宮崎市","address":"小松台西"},
{"zip_code":"8800953","kana_pref":"ﾐﾔｻﾞｷｹﾝ","kana_city":"ﾐﾔｻﾞｷｼ","kana_address":"ｺﾏﾂﾀﾞｲﾋｶﾞｼ","pref":"宮崎県","city":"宮崎市","address":"小松台東"},
{"zip_code":"8800956","kana_pref":"ﾐﾔｻﾞｷｹﾝ","kana_city":"ﾐﾔｻﾞｷｼ","kana_address":"ｺﾏﾂﾀﾞｲﾐﾅﾐﾏﾁ","pref":"宮崎県","city":"宮崎市","address":"小松台南町"},
{"zip_code":"8800822","kana_pref":"ﾐﾔｻﾞｷｹﾝ","kana_city":"ﾐﾔｻﾞｷｼ","kana_address":"ｺﾞﾝｹﾞﾝﾁｮｳ","pref":"宮崎県","city":"宮崎市","address":"権現町"},
{"zip_code":"8800955","kana_pref":"ﾐﾔｻﾞｷｹﾝ","kana_city":"ﾐﾔｻﾞｷｼ","kana_address":"ｻｸﾗｶﾞｵｶﾁｮｳ","pref":"宮崎県","city":"宮崎市","address":"桜ケ丘町"},
{"zip_code":"8800057","kana_pref":"ﾐﾔｻﾞｷｹﾝ","kana_city":"ﾐﾔｻﾞｷｼ","kana_address":"ｻｸﾗﾏﾁ","pref":"宮崎県","city":"宮崎市","address":"桜町"},
{"zip_code":"8800213","kana_pref":"ﾐﾔｻﾞｷｹﾝ","kana_city":"ﾐﾔｻﾞｷｼ","kana_address":"ｻﾄﾞﾜﾗﾁｮｳｲｼｻﾞｷ","pref":"宮崎県","city":"宮崎市","address":"佐土原町石崎"},
{"zip_code":"8800301","kana_pref":"ﾐﾔｻﾞｷｹﾝ","kana_city":"ﾐﾔｻﾞｷｼ","kana_address":"ｻﾄﾞﾜﾗﾁｮｳｶﾐﾀｼﾞﾏ","pref":"宮崎県","city":"宮崎市","address":"佐土原町上田島"},
{"zip_code":"8800211","kana_pref":"ﾐﾔｻﾞｷｹﾝ","kana_city":"ﾐﾔｻﾞｷｼ","kana_address":"ｻﾄﾞﾜﾗﾁｮｳｼﾓﾀｼﾞﾏ","pref":"宮崎県","city":"宮崎市","address":"佐土原町下田島"},
{"zip_code":"8800204","kana_pref":"ﾐﾔｻﾞｷｹﾝ","kana_city":"ﾐﾔｻﾞｷｼ","kana_address":"ｻﾄﾞﾜﾗﾁｮｳｼﾓﾄﾝﾀﾞ","pref":"宮崎県","city":"宮崎市","address":"佐土原町下富田"},
{"zip_code":"8800212","kana_pref":"ﾐﾔｻﾞｷｹﾝ","kana_city":"ﾐﾔｻﾞｷｼ","kana_address":"ｻﾄﾞﾜﾗﾁｮｳｼﾓﾅｶ","pref":"宮崎県","city":"宮崎市","address":"佐土原町下那珂"},
{"zip_code":"8800302","kana_pref":"ﾐﾔｻﾞｷｹﾝ","kana_city":"ﾐﾔｻﾞｷｼ","kana_address":"ｻﾄﾞﾜﾗﾁｮｳﾆｼｶﾐﾅｶ","pref":"宮崎県","city":"宮崎市","address":"佐土原町西上那珂"},
{"zip_code":"8800303","kana_pref":"ﾐﾔｻﾞｷｹﾝ","kana_city":"ﾐﾔｻﾞｷｼ","kana_address":"ｻﾄﾞﾜﾗﾁｮｳﾋｶﾞｼｶﾐﾅｶ","pref":"宮崎県","city":"宮崎市","address":"佐土原町東上那珂"},
{"zip_code":"8800214","kana_pref":"ﾐﾔｻﾞｷｹﾝ","kana_city":"ﾐﾔｻﾞｷｼ","kana_address":"ｻﾄﾞﾜﾗﾁｮｳﾏﾂｺｳｼﾞ","pref":"宮崎県","city":"宮崎市","address":"佐土原町松小路"},
{"zip_code":"8800122","kana_pref":"ﾐﾔｻﾞｷｹﾝ","kana_city":"ﾐﾔｻﾞｷｼ","kana_address":"ｼｵｼﾞ","pref":"宮崎県","city":"宮崎市","address":"塩路"},
{"zip_code":"8800862","kana_pref":"ﾐﾔｻﾞｷｹﾝ","kana_city":"ﾐﾔｻﾞｷｼ","kana_address":"ｼｵﾐﾁｮｳ","pref":"宮崎県","city":"宮崎市","address":"潮見町"},
{"zip_code":"8800121","kana_pref":"ﾐﾔｻﾞｷｹﾝ","kana_city":"ﾐﾔｻﾞｷｼ","kana_address":"ｼﾏﾉｳﾁ","pref":"宮崎県","city":"宮崎市","address":"島之内"},
{"zip_code":"8800021","kana_pref":"ﾐﾔｻﾞｷｹﾝ","kana_city":"ﾐﾔｻﾞｷｼ","kana_address":"ｼﾐｽﾞ","pref":"宮崎県","city":"宮崎市","address":"清水"},
{"zip_code":"8800035","kana_pref":"ﾐﾔｻﾞｷｹﾝ","kana_city":"ﾐﾔｻﾞｷｼ","kana_address":"ｼﾓｷﾀｶﾀﾏﾁ","pref":"宮崎県","city":"宮崎市","address":"下北方町"},
{"zip_code":"8800843","kana_pref":"ﾐﾔｻﾞｷｹﾝ","kana_city":"ﾐﾔｻﾞｷｼ","kana_address":"ｼﾓﾊﾗﾁｮｳ","pref":"宮崎県","city":"宮崎市","address":"下原町"},
{"zip_code":"8800833","kana_pref":"ﾐﾔｻﾞｷｹﾝ","kana_city":"ﾐﾔｻﾞｷｼ","kana_address":"ｼｮｳｴｲﾁｮｳ","pref":"宮崎県","city":"宮崎市","address":"昭栄町"},
{"zip_code":"8800917","kana_pref":"ﾐﾔｻﾞｷｹﾝ","kana_city":"ﾐﾔｻﾞｷｼ","kana_address":"ｼﾞｮｳｶﾞｻｷ","pref":"宮崎県","city":"宮崎市","address":"城ケ崎"},
{"zip_code":"8800876","kana_pref":"ﾐﾔｻﾞｷｹﾝ","kana_city":"ﾐﾔｻﾞｷｼ","kana_address":"ｼﾞｮｳﾄﾞｴﾁｮｳ","pref":"宮崎県","city":"宮崎市","address":"浄土江町"},
{"zip_code":"8800874","kana_pref":"ﾐﾔｻﾞｷｹﾝ","kana_city":"ﾐﾔｻﾞｷｼ","kana_address":"ｼｮｳﾜﾁｮｳ","pref":"宮崎県","city":"宮崎市","address":"昭和町"},
{"zip_code":"8800831","kana_pref":"ﾐﾔｻﾞｷｹﾝ","kana_city":"ﾐﾔｻﾞｷｼ","kana_address":"ｼﾝｴｲﾁｮｳ","pref":"宮崎県","city":"宮崎市","address":"新栄町"},
{"zip_code":"8800053","kana_pref":"ﾐﾔｻﾞｷｹﾝ","kana_city":"ﾐﾔｻﾞｷｼ","kana_address":"ｼﾞﾝｸﾞｳ","pref":"宮崎県","city":"宮崎市","address":"神宮"},
{"zip_code":"8800033","kana_pref":"ﾐﾔｻﾞｷｹﾝ","kana_city":"ﾐﾔｻﾞｷｼ","kana_address":"ｼﾞﾝｸﾞｳﾆｼ","pref":"宮崎県","city":"宮崎市","address":"神宮西"},
{"zip_code":"8800056","kana_pref":"ﾐﾔｻﾞｷｹﾝ","kana_city":"ﾐﾔｻﾞｷｼ","kana_address":"ｼﾞﾝｸﾞｳﾋｶﾞｼ","pref":"宮崎県","city":"宮崎市","address":"神宮東"},
{"zip_code":"8800054","kana_pref":"ﾐﾔｻﾞｷｹﾝ","kana_city":"ﾐﾔｻﾞｷｼ","kana_address":"ｼﾞﾝｸﾞｳﾁｮｳ","pref":"宮崎県","city":"宮崎市","address":"神宮町"},
{"zip_code":"8800845","kana_pref":"ﾐﾔｻﾞｷｹﾝ","kana_city":"ﾐﾔｻﾞｷｼ","kana_address":"ｼﾝｼﾞｮｳﾁｮｳ","pref":"宮崎県","city":"宮崎市","address":"新城町"},
{"zip_code":"8800834","kana_pref":"ﾐﾔｻﾞｷｹﾝ","kana_city":"ﾐﾔｻﾞｷｼ","kana_address":"ｼﾝﾍﾞｯﾌﾟﾁｮｳ","pref":"宮崎県","city":"宮崎市","address":"新別府町"},
{"zip_code":"8800012","kana_pref":"ﾐﾔｻﾞｷｹﾝ","kana_city":"ﾐﾔｻﾞｷｼ","kana_address":"ｽｴﾋﾛ","pref":"宮崎県","city":"宮崎市","address":"末広"},
{"zip_code":"8800867","kana_pref":"ﾐﾔｻﾞｷｹﾝ","kana_city":"ﾐﾔｻﾞｷｼ","kana_address":"ｾｶﾞｼﾗ","pref":"宮崎県","city":"宮崎市","address":"瀬頭"},
{"zip_code":"8800868","kana_pref":"ﾐﾔｻﾞｷｹﾝ","kana_city":"ﾐﾔｻﾞｷｼ","kana_address":"ｾｶﾞｼﾗﾁｮｳ","pref":"宮崎県","city":"宮崎市","address":"瀬頭町"},
{"zip_code":"8800875","kana_pref":"ﾐﾔｻﾞｷｹﾝ","kana_city":"ﾐﾔｻﾞｷｼ","kana_address":"ｿｼﾁｮｳ","pref":"宮崎県","city":"宮崎市","address":"曽師町"},
{"zip_code":"8800871","kana_pref":"ﾐﾔｻﾞｷｹﾝ","kana_city":"ﾐﾔｻﾞｷｼ","kana_address":"ﾀﾞｲｵｳﾁｮｳ","pref":"宮崎県","city":"宮崎市","address":"大王町"},
{"zip_code":"8800015","kana_pref":"ﾐﾔｻﾞｷｹﾝ","kana_city":"ﾐﾔｻﾞｷｼ","kana_address":"ﾀﾞｲｸ","pref":"宮崎県","city":"宮崎市","address":"大工"},
{"zip_code":"8802224","kana_pref":"ﾐﾔｻﾞｷｹﾝ","kana_city":"ﾐﾔｻﾞｷｼ","kana_address":"ﾀｶｵｶﾁｮｳｲｲﾀﾞ","pref":"宮崎県","city":"宮崎市","address":"高岡町飯田"},
{"zip_code":"8802221","kana_pref":"ﾐﾔｻﾞｷｹﾝ","kana_city":"ﾐﾔｻﾞｷｼ","kana_address":"ﾀｶｵｶﾁｮｳｳﾁﾔﾏ","pref":"宮崎県","city":"宮崎市","address":"高岡町内山"},
{"zip_code":"8802321","kana_pref":"ﾐﾔｻﾞｷｹﾝ","kana_city":"ﾐﾔｻﾞｷｼ","kana_address":"ﾀｶｵｶﾁｮｳｳﾁﾔﾏ","pref":"宮崎県","city":"宮崎市","address":"高岡町内山"},
{"zip_code":"8802223","kana_pref":"ﾐﾔｻﾞｷｹﾝ","kana_city":"ﾐﾔｻﾞｷｼ","kana_address":"ﾀｶｵｶﾁｮｳｳﾗﾉﾐｮｳ","pref":"宮崎県","city":"宮崎市","address":"高岡町浦之名"},
{"zip_code":"8802323","kana_pref":"ﾐﾔｻﾞｷｹﾝ","kana_city":"ﾐﾔｻﾞｷｼ","kana_address":"ﾀｶｵｶﾁｮｳｳﾗﾉﾐｮｳ","pref":"宮崎県","city":"宮崎市","address":"高岡町浦之名"},
{"zip_code":"8802214","kana_pref":"ﾐﾔｻﾞｷｹﾝ","kana_city":"ﾐﾔｻﾞｷｼ","kana_address":"ﾀｶｵｶﾁｮｳｵﾔﾏﾀﾞ","pref":"宮崎県","city":"宮崎市","address":"高岡町小山田"},
{"zip_code":"8802213","kana_pref":"ﾐﾔｻﾞｷｹﾝ","kana_city":"ﾐﾔｻﾞｷｼ","kana_address":"ﾀｶｵｶﾁｮｳｶﾐｸﾗﾅｶﾞ","pref":"宮崎県","city":"宮崎市","address":"高岡町上倉永"},
{"zip_code":"8802325","kana_pref":"ﾐﾔｻﾞｷｹﾝ","kana_city":"ﾐﾔｻﾞｷｼ","kana_address":"ﾀｶｵｶﾁｮｳｶﾐﾔ","pref":"宮崎県","city":"宮崎市","address":"高岡町紙屋"},
{"zip_code":"8802222","kana_pref":"ﾐﾔｻﾞｷｹﾝ","kana_city":"ﾐﾔｻﾞｷｼ","kana_address":"ﾀｶｵｶﾁｮｳｺﾞﾁｮｳ","pref":"宮崎県","city":"宮崎市","address":"高岡町五町"},
{"zip_code":"8802322","kana_pref":"ﾐﾔｻﾞｷｹﾝ","kana_city":"ﾐﾔｻﾞｷｼ","kana_address":"ﾀｶｵｶﾁｮｳｺﾞﾁｮｳ","pref":"宮崎県","city":"宮崎市","address":"高岡町五町"},
{"zip_code":"8802212","kana_pref":"ﾐﾔｻﾞｷｹﾝ","kana_city":"ﾐﾔｻﾞｷｼ","kana_address":"ﾀｶｵｶﾁｮｳｼﾓｸﾗﾅｶﾞ","pref":"宮崎県","city":"宮崎市","address":"高岡町下倉永"},
{"zip_code":"8802215","kana_pref":"ﾐﾔｻﾞｷｹﾝ","kana_city":"ﾐﾔｻﾞｷｼ","kana_address":"ﾀｶｵｶﾁｮｳﾀｶﾊﾏ","pref":"宮崎県","city":"宮崎市","address":"高岡町高浜"},
{"zip_code":"8802211","kana_pref":"ﾐﾔｻﾞｷｹﾝ","kana_city":"ﾐﾔｻﾞｷｼ","kana_address":"ﾀｶｵｶﾁｮｳﾊﾅﾐ","pref":"宮崎県","city":"宮崎市","address":"高岡町花見"},
{"zip_code":"8800852","kana_pref":"ﾐﾔｻﾞｷｹﾝ","kana_city":"ﾐﾔｻﾞｷｼ","kana_address":"ﾀｶｽﾁｮｳ","pref":"宮崎県","city":"宮崎市","address":"高洲町"},
{"zip_code":"8800812","kana_pref":"ﾐﾔｻﾞｷｹﾝ","kana_city":"ﾐﾔｻﾞｷｼ","kana_address":"ﾀｶﾁﾎﾄﾞｵﾘ","pref":"宮崎県","city":"宮崎市","address":"高千穂通"},
{"zip_code":"8800003","kana_pref":"ﾐﾔｻﾞｷｹﾝ","kana_city":"ﾐﾔｻﾞｷｼ","kana_address":"ﾀｶﾏﾂﾁｮｳ","pref":"宮崎県","city":"宮崎市","address":"高松町"},
{"zip_code":"8800855","kana_pref":"ﾐﾔｻﾞｷｹﾝ","kana_city":"ﾐﾔｻﾞｷｼ","kana_address":"ﾀｼﾛﾁｮｳ","pref":"宮崎県","city":"宮崎市","address":"田代町"},
{"zip_code":"8800001","kana_pref":"ﾐﾔｻﾞｷｹﾝ","kana_city":"ﾐﾔｻﾞｷｼ","kana_address":"ﾀﾁﾊﾞﾅﾄﾞｵﾘﾆｼ","pref":"宮崎県","city":"宮崎市","address":"橘通西"},
{"zip_code":"8800805","kana_pref":"ﾐﾔｻﾞｷｹﾝ","kana_city":"ﾐﾔｻﾞｷｼ","kana_address":"ﾀﾁﾊﾞﾅﾄﾞｵﾘﾋｶﾞｼ","pref":"宮崎県","city":"宮崎市","address":"橘通東"},
{"zip_code":"8800908","kana_pref":"ﾐﾔｻﾞｷｹﾝ","kana_city":"ﾐﾔｻﾞｷｼ","kana_address":"ﾀﾆｶﾞﾜ","pref":"宮崎県","city":"宮崎市","address":"谷川"},
{"zip_code":"8800909","kana_pref":"ﾐﾔｻﾞｷｹﾝ","kana_city":"ﾐﾔｻﾞｷｼ","kana_address":"ﾀﾆｶﾞﾜﾁｮｳ","pref":"宮崎県","city":"宮崎市","address":"谷川町"},
{"zip_code":"8800911","kana_pref":"ﾐﾔｻﾞｷｹﾝ","kana_city":"ﾐﾔｻﾞｷｼ","kana_address":"ﾀﾖｼ","pref":"宮崎県","city":"宮崎市","address":"田吉"},
{"zip_code":"8800006","kana_pref":"ﾐﾔｻﾞｷｹﾝ","kana_city":"ﾐﾔｻﾞｷｼ","kana_address":"ﾁｸﾞｻﾁｮｳ","pref":"宮崎県","city":"宮崎市","address":"千草町"},
{"zip_code":"8800002","kana_pref":"ﾐﾔｻﾞｷｹﾝ","kana_city":"ﾐﾔｻﾞｷｼ","kana_address":"ﾁｭｳｵｳﾄﾞｵﾘ","pref":"宮崎県","city":"宮崎市","address":"中央通"},
{"zip_code":"8800926","kana_pref":"ﾐﾔｻﾞｷｹﾝ","kana_city":"ﾐﾔｻﾞｷｼ","kana_address":"ﾂｷﾐｶﾞｵｶ","pref":"宮崎県","city":"宮崎市","address":"月見ケ丘"},
{"zip_code":"8802232","kana_pref":"ﾐﾔｻﾞｷｹﾝ","kana_city":"ﾐﾔｻﾞｷｼ","kana_address":"ﾂﾂﾐｳﾁ","pref":"宮崎県","city":"宮崎市","address":"堤内"},
{"zip_code":"8800913","kana_pref":"ﾐﾔｻﾞｷｹﾝ","kana_city":"ﾐﾔｻﾞｷｼ","kana_address":"ﾂﾈﾋｻ","pref":"宮崎県","city":"宮崎市","address":"恒久"},
{"zip_code":"8800916","kana_pref":"ﾐﾔｻﾞｷｹﾝ","kana_city":"ﾐﾔｻﾞｷｼ","kana_address":"ﾂﾈﾋｻ","pref":"宮崎県","city":"宮崎市","address":"恒久"},
{"zip_code":"8800915","kana_pref":"ﾐﾔｻﾞｷｹﾝ","kana_city":"ﾐﾔｻﾞｷｼ","kana_address":"ﾂﾈﾋｻﾐﾅﾐ","pref":"宮崎県","city":"宮崎市","address":"恒久南"},
{"zip_code":"8800014","kana_pref":"ﾐﾔｻﾞｷｹﾝ","kana_city":"ﾐﾔｻﾞｷｼ","kana_address":"ﾂﾙﾉｼﾏ","pref":"宮崎県","city":"宮崎市","address":"鶴島"},
{"zip_code":"8800861","kana_pref":"ﾐﾔｻﾞｷｹﾝ","kana_city":"ﾐﾔｻﾞｷｼ","kana_address":"ﾃﾞｷｼﾞﾏﾁｮｳ","pref":"宮崎県","city":"宮崎市","address":"出来島町"},
{"zip_code":"8800936","kana_pref":"ﾐﾔｻﾞｷｹﾝ","kana_city":"ﾐﾔｻﾞｷｼ","kana_address":"ﾃﾝﾏﾝ","pref":"宮崎県","city":"宮崎市","address":"天満"},
{"zip_code":"8800935","kana_pref":"ﾐﾔｻﾞｷｹﾝ","kana_city":"ﾐﾔｻﾞｷｼ","kana_address":"ﾃﾝﾏﾝﾁｮｳ","pref":"宮崎県","city":"宮崎市","address":"天満町"},
{"zip_code":"8800928","kana_pref":"ﾐﾔｻﾞｷｹﾝ","kana_city":"ﾐﾔｻﾞｷｼ","kana_address":"ﾄｳｸﾞｳ","pref":"宮崎県","city":"宮崎市","address":"東宮"},
{"zip_code":"8802114","kana_pref":"ﾐﾔｻﾞｷｹﾝ","kana_city":"ﾐﾔｻﾞｷｼ","kana_address":"ﾄﾐﾖｼ","pref":"宮崎県","city":"宮崎市","address":"富吉"},
{"zip_code":"8800025","kana_pref":"ﾐﾔｻﾞｷｹﾝ","kana_city":"ﾐﾔｻﾞｷｼ","kana_address":"ﾅｶﾂｾﾁｮｳ","pref":"宮崎県","city":"宮崎市","address":"中津瀬町"},
{"zip_code":"8800853","kana_pref":"ﾐﾔｻﾞｷｹﾝ","kana_city":"ﾐﾔｻﾞｷｼ","kana_address":"ﾅｶﾆｼﾁｮｳ","pref":"宮崎県","city":"宮崎市","address":"中西町"},
{"zip_code":"8800904","kana_pref":"ﾐﾔｻﾞｷｹﾝ","kana_city":"ﾐﾔｻﾞｷｼ","kana_address":"ﾅｶﾑﾗﾋｶﾞｼ","pref":"宮崎県","city":"宮崎市","address":"中村東"},
{"zip_code":"8800905","kana_pref":"ﾐﾔｻﾞｷｹﾝ","kana_city":"ﾐﾔｻﾞｷｼ","kana_address":"ﾅｶﾑﾗﾆｼ","pref":"宮崎県","city":"宮崎市","address":"中村西"},
{"zip_code":"8802115","kana_pref":"ﾐﾔｻﾞｷｹﾝ","kana_city":"ﾐﾔｻﾞｷｼ","kana_address":"ﾅｶﾞﾐﾈ","pref":"宮崎県","city":"宮崎市","address":"長嶺"},
{"zip_code":"8800826","kana_pref":"ﾐﾔｻﾞｷｹﾝ","kana_city":"ﾐﾔｻﾞｷｼ","kana_address":"ﾅﾐｼﾏ","pref":"宮崎県","city":"宮崎市","address":"波島"},
{"zip_code":"8800124","kana_pref":"ﾐﾔｻﾞｷｹﾝ","kana_city":"ﾐﾔｻﾞｷｼ","kana_address":"ﾆｲﾅﾂﾞﾒ","pref":"宮崎県","city":"宮崎市","address":"新名爪"},
{"zip_code":"8800027","kana_pref":"ﾐﾔｻﾞｷｹﾝ","kana_city":"ﾐﾔｻﾞｷｼ","kana_address":"ﾆｼｲｹﾁｮｳ","pref":"宮崎県","city":"宮崎市","address":"西池町"},
{"zip_code":"8800818","kana_pref":"ﾐﾔｻﾞｷｹﾝ","kana_city":"ﾐﾔｻﾞｷｼ","kana_address":"ﾆｼｷﾎﾝﾏﾁ","pref":"宮崎県","city":"宮崎市","address":"錦本町"},
{"zip_code":"8800811","kana_pref":"ﾐﾔｻﾞｷｹﾝ","kana_city":"ﾐﾔｻﾞｷｼ","kana_address":"ﾆｼｷﾏﾁ","pref":"宮崎県","city":"宮崎市","address":"錦町"},
{"zip_code":"8800016","kana_pref":"ﾐﾔｻﾞｷｹﾝ","kana_city":"ﾐﾔｻﾞｷｼ","kana_address":"ﾆｼﾀｶﾏﾂﾁｮｳ","pref":"宮崎県","city":"宮崎市","address":"西高松町"},
{"zip_code":"8800036","kana_pref":"ﾐﾔｻﾞｷｹﾝ","kana_city":"ﾐﾔｻﾞｷｼ","kana_address":"ﾊﾅｶﾞｼﾏﾁｮｳ","pref":"宮崎県","city":"宮崎市","address":"花ケ島町"},
{"zip_code":"8800026","kana_pref":"ﾐﾔｻﾞｷｹﾝ","kana_city":"ﾐﾔｻﾞｷｼ","kana_address":"ﾊﾅﾄﾞﾉﾁｮｳ","pref":"宮崎県","city":"宮崎市","address":"花殿町"},
{"zip_code":"8800939","kana_pref":"ﾐﾔｻﾞｷｹﾝ","kana_city":"ﾐﾔｻﾞｷｼ","kana_address":"ﾊﾅﾔﾏﾃﾆｼ","pref":"宮崎県","city":"宮崎市","address":"花山手西"},
{"zip_code":"8800930","kana_pref":"ﾐﾔｻﾞｷｹﾝ","kana_city":"ﾐﾔｻﾞｷｼ","kana_address":"ﾊﾅﾔﾏﾃﾋｶﾞｼ","pref":"宮崎県","city":"宮崎市","address":"花山手東"},
{"zip_code":"8800007","kana_pref":"ﾐﾔｻﾞｷｹﾝ","kana_city":"ﾐﾔｻﾞｷｼ","kana_address":"ﾊﾗﾏﾁ","pref":"宮崎県","city":"宮崎市","address":"原町"},
{"zip_code":"8800832","kana_pref":"ﾐﾔｻﾞｷｹﾝ","kana_city":"ﾐﾔｻﾞｷｼ","kana_address":"ﾋｴﾊﾞﾙﾁｮｳ","pref":"宮崎県","city":"宮崎市","address":"稗原町"},
{"zip_code":"8800825","kana_pref":"ﾐﾔｻﾞｷｹﾝ","kana_city":"ﾐﾔｻﾞｷｼ","kana_address":"ﾋｶﾞｼｵｵﾐﾔ","pref":"宮崎県","city":"宮崎市","address":"東大宮"},
{"zip_code":"8800901","kana_pref":"ﾐﾔｻﾞｷｹﾝ","kana_city":"ﾐﾔｻﾞｷｼ","kana_address":"ﾋｶﾞｼｵｵﾖﾄﾞ","pref":"宮崎県","city":"宮崎市","address":"東大淀"},
{"zip_code":"8800856","kana_pref":"ﾐﾔｻﾞｷｹﾝ","kana_city":"ﾐﾔｻﾞｷｼ","kana_address":"ﾋﾉﾃﾞﾁｮｳ","pref":"宮崎県","city":"宮崎市","address":"日ノ出町"},
{"zip_code":"8800806","kana_pref":"ﾐﾔｻﾞｷｹﾝ","kana_city":"ﾐﾔｻﾞｷｼ","kana_address":"ﾋﾛｼﾏ","pref":"宮崎県","city":"宮崎市","address":"広島"},
{"zip_code":"8800125","kana_pref":"ﾐﾔｻﾞｷｹﾝ","kana_city":"ﾐﾔｻﾞｷｼ","kana_address":"ﾋﾛﾊﾗ","pref":"宮崎県","city":"宮崎市","address":"広原"},
{"zip_code":"8800946","kana_pref":"ﾐﾔｻﾞｷｹﾝ","kana_city":"ﾐﾔｻﾞｷｼ","kana_address":"ﾌｸｼﾏﾁｮｳ","pref":"宮崎県","city":"宮崎市","address":"福島町"},
{"zip_code":"8800945","kana_pref":"ﾐﾔｻﾞｷｹﾝ","kana_city":"ﾐﾔｻﾞｷｼ","kana_address":"ﾌｸｼﾏﾁｮｳ","pref":"宮崎県","city":"宮崎市","address":"福島町"},
{"zip_code":"8800031","kana_pref":"ﾐﾔｻﾞｷｹﾝ","kana_city":"ﾐﾔｻﾞｷｼ","kana_address":"ﾌﾅﾂｶ","pref":"宮崎県","city":"宮崎市","address":"船塚"},
{"zip_code":"8800931","kana_pref":"ﾐﾔｻﾞｷｹﾝ","kana_city":"ﾐﾔｻﾞｷｼ","kana_address":"ﾌﾙｼﾞｮｳﾁｮｳ","pref":"宮崎県","city":"宮崎市","address":"古城町"},
{"zip_code":"8800046","kana_pref":"ﾐﾔｻﾞｷｹﾝ","kana_city":"ﾐﾔｻﾞｷｼ","kana_address":"ﾍｲﾜｶﾞｵｶｷﾀﾏﾁ","pref":"宮崎県","city":"宮崎市","address":"平和が丘北町"},
{"zip_code":"8800047","kana_pref":"ﾐﾔｻﾞｷｹﾝ","kana_city":"ﾐﾔｻﾞｷｼ","kana_address":"ﾍｲﾜｶﾞｵｶﾆｼﾏﾁ","pref":"宮崎県","city":"宮崎市","address":"平和が丘西町"},
{"zip_code":"8800042","kana_pref":"ﾐﾔｻﾞｷｹﾝ","kana_city":"ﾐﾔｻﾞｷｼ","kana_address":"ﾍｲﾜｶﾞｵｶﾋｶﾞｼﾏﾁ","pref":"宮崎県","city":"宮崎市","address":"平和が丘東町"},
{"zip_code":"8800802","kana_pref":"ﾐﾔｻﾞｷｹﾝ","kana_city":"ﾐﾔｻﾞｷｼ","kana_address":"ﾍﾞｯﾌﾟﾁｮｳ","pref":"宮崎県","city":"宮崎市","address":"別府町"},
{"zip_code":"8800123","kana_pref":"ﾐﾔｻﾞｷｹﾝ","kana_city":"ﾐﾔｻﾞｷｼ","kana_address":"ﾎｳｼﾞ","pref":"宮崎県","city":"宮崎市","address":"芳士"},
{"zip_code":"8802116","kana_pref":"ﾐﾔｻﾞｷｹﾝ","kana_city":"ﾐﾔｻﾞｷｼ","kana_address":"ﾎｿｴ","pref":"宮崎県","city":"宮崎市","address":"細江"},
{"zip_code":"8800873","kana_pref":"ﾐﾔｻﾞｷｹﾝ","kana_city":"ﾐﾔｻﾞｷｼ","kana_address":"ﾎﾘｶﾜﾁｮｳ","pref":"宮崎県","city":"宮崎市","address":"堀川町"},
{"zip_code":"8800922","kana_pref":"ﾐﾔｻﾞｷｹﾝ","kana_city":"ﾐﾔｻﾞｷｼ","kana_address":"ﾎﾝｺﾞｳ","pref":"宮崎県","city":"宮崎市","address":"本郷"},
{"zip_code":"8800925","kana_pref":"ﾐﾔｻﾞｷｹﾝ","kana_city":"ﾐﾔｻﾞｷｼ","kana_address":"ﾎﾝｺﾞｳｷﾀｶﾀ","pref":"宮崎県","city":"宮崎市","address":"本郷北方"},
{"zip_code":"8800921","kana_pref":"ﾐﾔｻﾞｷｹﾝ","kana_city":"ﾐﾔｻﾞｷｼ","kana_address":"ﾎﾝｺﾞｳﾐﾅﾐｶﾀ","pref":"宮崎県","city":"宮崎市","address":"本郷南方"},
{"zip_code":"8800863","kana_pref":"ﾐﾔｻﾞｷｹﾝ","kana_city":"ﾐﾔｻﾞｷｼ","kana_address":"ﾏｴﾊﾞﾙﾁｮｳ","pref":"宮崎県","city":"宮崎市","address":"前原町"},
{"zip_code":"8800013","kana_pref":"ﾐﾔｻﾞｷｹﾝ","kana_city":"ﾐﾔｻﾞｷｼ","kana_address":"ﾏﾂﾊﾞｼ","pref":"宮崎県","city":"宮崎市","address":"松橋"},
{"zip_code":"8800865","kana_pref":"ﾐﾔｻﾞｷｹﾝ","kana_city":"ﾐﾔｻﾞｷｼ","kana_address":"ﾏﾂﾔﾏ","pref":"宮崎県","city":"宮崎市","address":"松山"},
{"zip_code":"8800929","kana_pref":"ﾐﾔｻﾞｷｹﾝ","kana_city":"ﾐﾔｻﾞｷｼ","kana_address":"ﾏﾅﾋﾞﾉ","pref":"宮崎県","city":"宮崎市","address":"まなび野"},
{"zip_code":"8800813","kana_pref":"ﾐﾔｻﾞｷｹﾝ","kana_city":"ﾐﾔｻﾞｷｼ","kana_address":"ﾏﾙｼﾏﾁｮｳ","pref":"宮崎県","city":"宮崎市","address":"丸島町"},
{"zip_code":"8800052","kana_pref":"ﾐﾔｻﾞｷｹﾝ","kana_city":"ﾐﾔｻﾞｷｼ","kana_address":"ﾏﾙﾔﾏ","pref":"宮崎県","city":"宮崎市","address":"丸山"},
{"zip_code":"8800858","kana_pref":"ﾐﾔｻﾞｷｹﾝ","kana_city":"ﾐﾔｻﾞｷｼ","kana_address":"ﾐﾅﾄ","pref":"宮崎県","city":"宮崎市","address":"港"},
{"zip_code":"8800851","kana_pref":"ﾐﾔｻﾞｷｹﾝ","kana_city":"ﾐﾔｻﾞｷｼ","kana_address":"ﾐﾅﾄﾋｶﾞｼ","pref":"宮崎県","city":"宮崎市","address":"港東"},
{"zip_code":"8800037","kana_pref":"ﾐﾔｻﾞｷｹﾝ","kana_city":"ﾐﾔｻﾞｷｼ","kana_address":"ﾐﾅﾐｶﾀﾁｮｳ","pref":"宮崎県","city":"宮崎市","address":"南方町"},
{"zip_code":"8800005","kana_pref":"ﾐﾔｻﾞｷｹﾝ","kana_city":"ﾐﾔｻﾞｷｼ","kana_address":"ﾐﾅﾐﾀｶﾏﾂﾁｮｳ","pref":"宮崎県","city":"宮崎市","address":"南高松町"},
{"zip_code":"8800055","kana_pref":"ﾐﾔｻﾞｷｹﾝ","kana_city":"ﾐﾔｻﾞｷｼ","kana_address":"ﾐﾅﾐﾊﾅｶﾞｼﾏﾁｮｳ","pref":"宮崎県","city":"宮崎市","address":"南花ケ島町"},
{"zip_code":"8800906","kana_pref":"ﾐﾔｻﾞｷｹﾝ","kana_city":"ﾐﾔｻﾞｷｼ","kana_address":"ﾐﾅﾐﾏﾁ","pref":"宮崎県","city":"宮崎市","address":"南町"},
{"zip_code":"8800879","kana_pref":"ﾐﾔｻﾞｷｹﾝ","kana_city":"ﾐﾔｻﾞｷｼ","kana_address":"ﾐﾔｻﾞｷｴｷﾋｶﾞｼ","pref":"宮崎県","city":"宮崎市","address":"宮崎駅東"},
{"zip_code":"8800804","kana_pref":"ﾐﾔｻﾞｷｹﾝ","kana_city":"ﾐﾔｻﾞｷｼ","kana_address":"ﾐﾔﾀﾁｮｳ","pref":"宮崎県","city":"宮崎市","address":"宮田町"},
{"zip_code":"8800914","kana_pref":"ﾐﾔｻﾞｷｹﾝ","kana_city":"ﾐﾔｻﾞｷｼ","kana_address":"ﾐﾔﾉﾓﾄﾏﾁ","pref":"宮崎県","city":"宮崎市","address":"宮の元町"},
{"zip_code":"8800877","kana_pref":"ﾐﾔｻﾞｷｹﾝ","kana_city":"ﾐﾔｻﾞｷｼ","kana_address":"ﾐﾔﾜｷﾁｮｳ","pref":"宮崎県","city":"宮崎市","address":"宮脇町"},
{"zip_code":"8800837","kana_pref":"ﾐﾔｻﾞｷｹﾝ","kana_city":"ﾐﾔｻﾞｷｼ","kana_address":"ﾑﾗｽﾐﾁｮｳ","pref":"宮崎県","city":"宮崎市","address":"村角町"},
{"zip_code":"8800004","kana_pref":"ﾐﾔｻﾞｷｹﾝ","kana_city":"ﾐﾔｻﾞｷｼ","kana_address":"ﾓﾄﾐﾔﾁｮｳ","pref":"宮崎県","city":"宮崎市","address":"元宮町"},
{"zip_code":"8800844","kana_pref":"ﾐﾔｻﾞｷｹﾝ","kana_city":"ﾐﾔｻﾞｷｼ","kana_address":"ﾔﾅｷﾞﾏﾙﾁｮｳ","pref":"宮崎県","city":"宮崎市","address":"柳丸町"},
{"zip_code":"8800034","kana_pref":"ﾐﾔｻﾞｷｹﾝ","kana_city":"ﾐﾔｻﾞｷｼ","kana_address":"ﾔﾉｻｷﾁｮｳ","pref":"宮崎県","city":"宮崎市","address":"矢の先町"},
{"zip_code":"8800836","kana_pref":"ﾐﾔｻﾞｷｹﾝ","kana_city":"ﾐﾔｻﾞｷｼ","kana_address":"ﾔﾏｻｷﾁｮｳ","pref":"宮崎県","city":"宮崎市","address":"山崎町"},
{"zip_code":"8800878","kana_pref":"ﾐﾔｻﾞｷｹﾝ","kana_city":"ﾐﾔｻﾞｷｼ","kana_address":"ﾔﾏﾄﾁｮｳ","pref":"宮崎県","city":"宮崎市","address":"大和町"},
{"zip_code":"8802233","kana_pref":"ﾐﾔｻﾞｷｹﾝ","kana_city":"ﾐﾔｻﾞｷｼ","kana_address":"ﾖｼﾉ","pref":"宮崎県","city":"宮崎市","address":"吉野"},
{"zip_code":"8800841","kana_pref":"ﾐﾔｻﾞｷｹﾝ","kana_city":"ﾐﾔｻﾞｷｼ","kana_address":"ﾖｼﾑﾗﾁｮｳ","pref":"宮崎県","city":"宮崎市","address":"吉村町"},
{"zip_code":"8800907","kana_pref":"ﾐﾔｻﾞｷｹﾝ","kana_city":"ﾐﾔｻﾞｷｼ","kana_address":"ﾖﾄﾞｶﾞﾜ","pref":"宮崎県","city":"宮崎市","address":"淀川"},
{"zip_code":"8800023","kana_pref":"ﾐﾔｻﾞｷｹﾝ","kana_city":"ﾐﾔｻﾞｷｼ","kana_address":"ﾜﾁｶﾞﾜﾗ","pref":"宮崎県","city":"宮崎市","address":"和知川原"},
{"zip_code":"8802303","kana_pref":"ﾐﾔｻﾞｷｹﾝ","kana_city":"ﾐﾔｺﾉｼﾞｮｳｼ","kana_address":"ﾔﾏﾉｸﾁﾁｮｳﾔﾏﾉｸﾁ","pref":"宮崎県","city":"都城市","address":"山之口町山之口"},
{"zip_code":"8800341","kana_pref":"ﾐﾔｻﾞｷｹﾝ","kana_city":"ｻｲﾄｼ","kana_address":"ｹﾞﾝﾉｳｼﾞﾏ","pref":"宮崎県","city":"西都市","address":"現王島"},
{"zip_code":"8801100","kana_pref":"ﾐﾔｻﾞｷｹﾝ","kana_city":"ﾋｶﾞｼﾓﾛｶﾀｸﾞﾝｸﾆﾄﾐﾁｮｳ","kana_address":"","pref":"宮崎県","city":"東諸県郡国富町","address":""},
{"zip_code":"8801103","kana_pref":"ﾐﾔｻﾞｷｹﾝ","kana_city":"ﾋｶﾞｼﾓﾛｶﾀｸﾞﾝｸﾆﾄﾐﾁｮｳ","kana_address":"ｱﾗｼﾀﾞ","pref":"宮崎県","city":"東諸県郡国富町","address":"嵐田"},
{"zip_code":"8801121","kana_pref":"ﾐﾔｻﾞｷｹﾝ","kana_city":"ﾋｶﾞｼﾓﾛｶﾀｸﾞﾝｸﾆﾄﾐﾁｮｳ","kana_address":"ｲｻﾞｵ","pref":"宮崎県","city":"東諸県郡国富町","address":"伊佐生"},
{"zip_code":"8801221","kana_pref":"ﾐﾔｻﾞｷｹﾝ","kana_city":"ﾋｶﾞｼﾓﾛｶﾀｸﾞﾝｸﾆﾄﾐﾁｮｳ","kana_address":"ｲｻﾞｵ","pref":"宮崎県","city":"東諸県郡国富町","address":"伊佐生"},
{"zip_code":"8801111","kana_pref":"ﾐﾔｻﾞｷｹﾝ","kana_city":"ﾋｶﾞｼﾓﾛｶﾀｸﾞﾝｸﾆﾄﾐﾁｮｳ","kana_address":"ｲﾜﾁﾉ","pref":"宮崎県","city":"東諸県郡国富町","address":"岩知野"},
{"zip_code":"8801113","kana_pref":"ﾐﾔｻﾞｷｹﾝ","kana_city":"ﾋｶﾞｼﾓﾛｶﾀｸﾞﾝｸﾆﾄﾐﾁｮｳ","kana_address":"ｷﾜｷ","pref":"宮崎県","city":"東諸県郡国富町","address":"木脇"},
{"zip_code":"8801114","kana_pref":"ﾐﾔｻﾞｷｹﾝ","kana_city":"ﾋｶﾞｼﾓﾛｶﾀｸﾞﾝｸﾆﾄﾐﾁｮｳ","kana_address":"ｻﾝﾐｮｳ","pref":"宮崎県","city":"東諸県郡国富町","address":"三名"},
{"zip_code":"8801108","kana_pref":"ﾐﾔｻﾞｷｹﾝ","kana_city":"ﾋｶﾞｼﾓﾛｶﾀｸﾞﾝｸﾆﾄﾐﾁｮｳ","kana_address":"ｽｼﾀﾞ","pref":"宮崎県","city":"東諸県郡国富町","address":"須志田"},
{"zip_code":"8801107","kana_pref":"ﾐﾔｻﾞｷｹﾝ","kana_city":"ﾋｶﾞｼﾓﾛｶﾀｸﾞﾝｸﾆﾄﾐﾁｮｳ","kana_address":"ﾀｹﾀﾞ","pref":"宮崎県","city":"東諸県郡国富町","address":"竹田"},
{"zip_code":"8801104","kana_pref":"ﾐﾔｻﾞｷｹﾝ","kana_city":"ﾋｶﾞｼﾓﾛｶﾀｸﾞﾝｸﾆﾄﾐﾁｮｳ","kana_address":"ﾀｼﾞﾘ","pref":"宮崎県","city":"東諸県郡国富町","address":"田尻"},
{"zip_code":"8801112","kana_pref":"ﾐﾔｻﾞｷｹﾝ","kana_city":"ﾋｶﾞｼﾓﾛｶﾀｸﾞﾝｸﾆﾄﾐﾁｮｳ","kana_address":"ﾂｶﾊﾞﾙ","pref":"宮崎県","city":"東諸県郡国富町","address":"塚原"},
{"zip_code":"8801224","kana_pref":"ﾐﾔｻﾞｷｹﾝ","kana_city":"ﾋｶﾞｼﾓﾛｶﾀｸﾞﾝｸﾆﾄﾐﾁｮｳ","kana_address":"ﾌｶﾄﾞｼ","pref":"宮崎県","city":"東諸県郡国富町","address":"深年"},
{"zip_code":"8801101","kana_pref":"ﾐﾔｻﾞｷｹﾝ","kana_city":"ﾋｶﾞｼﾓﾛｶﾀｸﾞﾝｸﾆﾄﾐﾁｮｳ","kana_address":"ﾎﾝｼﾞｮｳ","pref":"宮崎県","city":"東諸県郡国富町","address":"本庄"},
{"zip_code":"8801102","kana_pref":"ﾐﾔｻﾞｷｹﾝ","kana_city":"ﾋｶﾞｼﾓﾛｶﾀｸﾞﾝｸﾆﾄﾐﾁｮｳ","kana_address":"ﾐﾔｵｳﾏﾙ","pref":"宮崎県","city":"東諸県郡国富町","address":"宮王丸"},
{"zip_code":"8801105","kana_pref":"ﾐﾔｻﾞｷｹﾝ","kana_city":"ﾋｶﾞｼﾓﾛｶﾀｸﾞﾝｸﾆﾄﾐﾁｮｳ","kana_address":"ﾑｺｳﾀｶ","pref":"宮崎県","city":"東諸県郡国富町","address":"向高"},
{"zip_code":"8801106","kana_pref":"ﾐﾔｻﾞｷｹﾝ","kana_city":"ﾋｶﾞｼﾓﾛｶﾀｸﾞﾝｸﾆﾄﾐﾁｮｳ","kana_address":"ﾓﾘﾅｶﾞ","pref":"宮崎県","city":"東諸県郡国富町","address":"森永"},
{"zip_code":"8801222","kana_pref":"ﾐﾔｻﾞｷｹﾝ","kana_city":"ﾋｶﾞｼﾓﾛｶﾀｸﾞﾝｸﾆﾄﾐﾁｮｳ","kana_address":"ﾔﾂｼﾛｷﾀﾏﾀ","pref":"宮崎県","city":"東諸県郡国富町","address":"八代北俣"},
{"zip_code":"8801223","kana_pref":"ﾐﾔｻﾞｷｹﾝ","kana_city":"ﾋｶﾞｼﾓﾛｶﾀｸﾞﾝｸﾆﾄﾐﾁｮｳ","kana_address":"ﾔﾂｼﾛﾐﾅﾐﾏﾀ","pref":"宮崎県","city":"東諸県郡国富町","address":"八代南俣"},
{"zip_code":"8801300","kana_pref":"ﾐﾔｻﾞｷｹﾝ","kana_city":"ﾋｶﾞｼﾓﾛｶﾀｸﾞﾝｱﾔﾁｮｳ","kana_address":"","pref":"宮崎県","city":"東諸県郡綾町","address":""},
{"zip_code":"8801301","kana_pref":"ﾐﾔｻﾞｷｹﾝ","kana_city":"ﾋｶﾞｼﾓﾛｶﾀｸﾞﾝｱﾔﾁｮｳ","kana_address":"ｲﾘﾉ","pref":"宮崎県","city":"東諸県郡綾町","address":"入野"},
{"zip_code":"8801302","kana_pref":"ﾐﾔｻﾞｷｹﾝ","kana_city":"ﾋｶﾞｼﾓﾛｶﾀｸﾞﾝｱﾔﾁｮｳ","kana_address":"ｷﾀﾏﾀ","pref":"宮崎県","city":"東諸県郡綾町","address":"北俣"},
{"zip_code":"8801303","kana_pref":"ﾐﾔｻﾞｷｹﾝ","kana_city":"ﾋｶﾞｼﾓﾛｶﾀｸﾞﾝｱﾔﾁｮｳ","kana_address":"ﾐﾅﾐﾏﾀ","pref":"宮崎県","city":"東諸県郡綾町","address":"南俣"}]}