{"zip_code":[
{"zip_code":"8810000","kana_pref":"ﾐﾔｻﾞｷｹﾝ","kana_city":"ｻｲﾄｼ","kana_address":"","pref":"宮崎県","city":"西都市","address":""},
{"zip_code":"8810031","kana_pref":"ﾐﾔｻﾞｷｹﾝ","kana_city":"ｻｲﾄｼ","kana_address":"ｱｻﾋ","pref":"宮崎県","city":"西都市","address":"旭"},
{"zip_code":"8810111","kana_pref":"ﾐﾔｻﾞｷｹﾝ","kana_city":"ｻｲﾄｼ","kana_address":"ｱﾗﾀｹ","pref":"宮崎県","city":"西都市","address":"荒武"},
{"zip_code":"8810011","kana_pref":"ﾐﾔｻﾞｷｹﾝ","kana_city":"ｻｲﾄｼ","kana_address":"ｱﾘﾖｼﾁｮｳ","pref":"宮崎県","city":"西都市","address":"有吉町"},
{"zip_code":"8810106","kana_pref":"ﾐﾔｻﾞｷｹﾝ","kana_city":"ｻｲﾄｼ","kana_address":"ｲﾜﾂﾞﾒ","pref":"宮崎県","city":"西都市","address":"岩爪"},
{"zip_code":"8810001","kana_pref":"ﾐﾔｻﾞｷｹﾝ","kana_city":"ｻｲﾄｼ","kana_address":"ｵｶﾄﾞﾐ","pref":"宮崎県","city":"西都市","address":"岡富"},
{"zip_code":"8810012","kana_pref":"ﾐﾔｻﾞｷｹﾝ","kana_city":"ｻｲﾄｼ","kana_address":"ｵﾉｻﾞｷ","pref":"宮崎県","city":"西都市","address":"小野崎"},
{"zip_code":"8810013","kana_pref":"ﾐﾔｻﾞｷｹﾝ","kana_city":"ｻｲﾄｼ","kana_address":"ｵﾉｻﾞｷﾁｮｳ","pref":"宮崎県","city":"西都市","address":"小野崎町"},
{"zip_code":"8811121","kana_pref":"ﾐﾔｻﾞｷｹﾝ","kana_city":"ｻｲﾄｼ","kana_address":"ｵﾊｴ","pref":"宮崎県","city":"西都市","address":"尾八重"},
{"zip_code":"8810103","kana_pref":"ﾐﾔｻﾞｷｹﾝ","kana_city":"ｻｲﾄｼ","kana_address":"ｶｾﾞ","pref":"宮崎県","city":"西都市","address":"加勢"},
{"zip_code":"8811122","kana_pref":"ﾐﾔｻﾞｷｹﾝ","kana_city":"ｻｲﾄｼ","kana_address":"ｶﾀｳﾁ","pref":"宮崎県","city":"西都市","address":"片内"},
{"zip_code":"8810104","kana_pref":"ﾐﾔｻﾞｷｹﾝ","kana_city":"ｻｲﾄｼ","kana_address":"ｶﾉﾀﾞ","pref":"宮崎県","city":"西都市","address":"鹿野田"},
{"zip_code":"8811231","kana_pref":"ﾐﾔｻﾞｷｹﾝ","kana_city":"ｻｲﾄｼ","kana_address":"ｶﾐｱｹﾞ","pref":"宮崎県","city":"西都市","address":"上揚"},
{"zip_code":"8810115","kana_pref":"ﾐﾔｻﾞｷｹﾝ","kana_city":"ｻｲﾄｼ","kana_address":"ｶﾐｻﾝｻﾞｲ","pref":"宮崎県","city":"西都市","address":"上三財"},
{"zip_code":"8810021","kana_pref":"ﾐﾔｻﾞｷｹﾝ","kana_city":"ｻｲﾄｼ","kana_address":"ｶﾐﾏﾁ","pref":"宮崎県","city":"西都市","address":"上町"},
{"zip_code":"8810004","kana_pref":"ﾐﾔｻﾞｷｹﾝ","kana_city":"ｻｲﾄｼ","kana_address":"ｷﾖﾐｽﾞ","pref":"宮崎県","city":"西都市","address":"清水"},
{"zip_code":"8810002","kana_pref":"ﾐﾔｻﾞｷｹﾝ","kana_city":"ｻｲﾄｼ","kana_address":"ｸﾛｳﾉ","pref":"宮崎県","city":"西都市","address":"黒生野"},
{"zip_code":"8810022","kana_pref":"ﾐﾔｻﾞｷｹﾝ","kana_city":"ｻｲﾄｼ","kana_address":"ｻｸﾗｶﾞﾜﾁｮｳ","pref":"宮崎県","city":"西都市","address":"桜川町"},
{"zip_code":"8810116","kana_pref":"ﾐﾔｻﾞｷｹﾝ","kana_city":"ｻｲﾄｼ","kana_address":"ｻﾌﾞｶﾜ","pref":"宮崎県","city":"西都市","address":"寒川"},
{"zip_code":"8810113","kana_pref":"ﾐﾔｻﾞｷｹﾝ","kana_city":"ｻｲﾄｼ","kana_address":"ｼﾓｻﾝｻﾞｲ","pref":"宮崎県","city":"西都市","address":"下三財"},
{"zip_code":"8810014","kana_pref":"ﾐﾔｻﾞｷｹﾝ","kana_city":"ｻｲﾄｼ","kana_address":"ｼﾓﾂﾞﾏ","pref":"宮崎県","city":"西都市","address":"下妻"},
{"zip_code":"8810032","kana_pref":"ﾐﾔｻﾞｷｹﾝ","kana_city":"ｻｲﾄｼ","kana_address":"ｼﾗｳﾏﾁｮｳ","pref":"宮崎県","city":"西都市","address":"白馬町"},
{"zip_code":"8811232","kana_pref":"ﾐﾔｻﾞｷｹﾝ","kana_city":"ｻｲﾄｼ","kana_address":"ｼﾛﾐ","pref":"宮崎県","city":"西都市","address":"銀鏡"},
{"zip_code":"8810006","kana_pref":"ﾐﾔｻﾞｷｹﾝ","kana_city":"ｻｲﾄｼ","kana_address":"ｼﾝﾏﾁ","pref":"宮崎県","city":"西都市","address":"新町"},
{"zip_code":"8810015","kana_pref":"ﾐﾔｻﾞｷｹﾝ","kana_city":"ｻｲﾄｼ","kana_address":"ｾｲﾘｮｳﾁｮｳ","pref":"宮崎県","city":"西都市","address":"聖陵町"},
{"zip_code":"8810037","kana_pref":"ﾐﾔｻﾞｷｹﾝ","kana_city":"ｻｲﾄｼ","kana_address":"ﾁｬｳｽﾊﾞﾙ","pref":"宮崎県","city":"西都市","address":"茶臼原"},
{"zip_code":"8810035","kana_pref":"ﾐﾔｻﾞｷｹﾝ","kana_city":"ｻｲﾄｼ","kana_address":"ﾁｭｳｵｳﾁｮｳ","pref":"宮崎県","city":"西都市","address":"中央町"},
{"zip_code":"8810023","kana_pref":"ﾐﾔｻﾞｷｹﾝ","kana_city":"ｻｲﾄｼ","kana_address":"ﾂｷﾄﾞﾉ","pref":"宮崎県","city":"西都市","address":"調殿"},
{"zip_code":"8810033","kana_pref":"ﾐﾔｻﾞｷｹﾝ","kana_city":"ｻｲﾄｼ","kana_address":"ﾂﾏ","pref":"宮崎県","city":"西都市","address":"妻"},
{"zip_code":"8810034","kana_pref":"ﾐﾔｻﾞｷｹﾝ","kana_city":"ｻｲﾄｼ","kana_address":"ﾂﾏﾁｮｳ","pref":"宮崎県","city":"西都市","address":"妻町"},
{"zip_code":"8810036","kana_pref":"ﾐﾔｻﾞｷｹﾝ","kana_city":"ｻｲﾄｼ","kana_address":"ﾂﾙｻｷﾁｮｳ","pref":"宮崎県","city":"西都市","address":"水流崎町"},
{"zip_code":"8810025","kana_pref":"ﾐﾔｻﾞｷｹﾝ","kana_city":"ｻｲﾄｼ","kana_address":"ﾄﾞｳｼﾞﾏﾙ","pref":"宮崎県","city":"西都市","address":"童子丸"},
{"zip_code":"8810114","kana_pref":"ﾐﾔｻﾞｷｹﾝ","kana_city":"ｻｲﾄｼ","kana_address":"ﾄｳﾀﾞ","pref":"宮崎県","city":"西都市","address":"藤田"},
{"zip_code":"8810105","kana_pref":"ﾐﾔｻﾞｷｹﾝ","kana_city":"ｻｲﾄｼ","kana_address":"ﾄﾉｺｵﾘﾏﾁ","pref":"宮崎県","city":"西都市","address":"都於郡町"},
{"zip_code":"8811123","kana_pref":"ﾐﾔｻﾞｷｹﾝ","kana_city":"ｻｲﾄｼ","kana_address":"ﾅｶｵ","pref":"宮崎県","city":"西都市","address":"中尾"},
{"zip_code":"8810024","kana_pref":"ﾐﾔｻﾞｷｹﾝ","kana_city":"ｻｲﾄｼ","kana_address":"ﾅｶﾂﾞﾏ","pref":"宮崎県","city":"西都市","address":"中妻"},
{"zip_code":"8811233","kana_pref":"ﾐﾔｻﾞｷｹﾝ","kana_city":"ｻｲﾄｼ","kana_address":"ﾊｴ","pref":"宮崎県","city":"西都市","address":"八重"},
{"zip_code":"8810102","kana_pref":"ﾐﾔｻﾞｷｹﾝ","kana_city":"ｻｲﾄｼ","kana_address":"ﾍｺﾞｵﾘ","pref":"宮崎県","city":"西都市","address":"平郡"},
{"zip_code":"8810026","kana_pref":"ﾐﾔｻﾞｷｹﾝ","kana_city":"ｻｲﾄｼ","kana_address":"ﾎｷﾀ","pref":"宮崎県","city":"西都市","address":"穂北"},
{"zip_code":"8810003","kana_pref":"ﾐﾔｻﾞｷｹﾝ","kana_city":"ｻｲﾄｼ","kana_address":"ﾐｷﾞﾏﾂ","pref":"宮崎県","city":"西都市","address":"右松"},
{"zip_code":"8810027","kana_pref":"ﾐﾔｻﾞｷｹﾝ","kana_city":"ｻｲﾄｼ","kana_address":"ﾐﾅﾐｶﾀ","pref":"宮崎県","city":"西都市","address":"南方"},
{"zip_code":"8810101","kana_pref":"ﾐﾔｻﾞｷｹﾝ","kana_city":"ｻｲﾄｼ","kana_address":"ﾐﾉｳ","pref":"宮崎県","city":"西都市","address":"三納"},
{"zip_code":"8810016","kana_pref":"ﾐﾔｻﾞｷｹﾝ","kana_city":"ｻｲﾄｼ","kana_address":"ﾐﾌﾈﾁｮｳ","pref":"宮崎県","city":"西都市","address":"御舟町"},
{"zip_code":"8810005","kana_pref":"ﾐﾔｻﾞｷｹﾝ","kana_city":"ｻｲﾄｼ","kana_address":"ﾐﾔｹ","pref":"宮崎県","city":"西都市","address":"三宅"},
{"zip_code":"8810112","kana_pref":"ﾐﾔｻﾞｷｹﾝ","kana_city":"ｻｲﾄｼ","kana_address":"ﾔﾏﾀﾞ","pref":"宮崎県","city":"西都市","address":"山田"},
{"zip_code":"8811400","kana_pref":"ﾐﾔｻﾞｷｹﾝ","kana_city":"ｺﾕｸﾞﾝﾆｼﾒﾗｿﾝ","kana_address":"","pref":"宮崎県","city":"児湯郡西米良村","address":""},
{"zip_code":"8811412","kana_pref":"ﾐﾔｻﾞｷｹﾝ","kana_city":"ｺﾕｸﾞﾝﾆｼﾒﾗｿﾝ","kana_address":"ｲﾀﾔ","pref":"宮崎県","city":"児湯郡西米良村","address":"板谷"},
{"zip_code":"8811302","kana_pref":"ﾐﾔｻﾞｷｹﾝ","kana_city":"ｺﾕｸﾞﾝﾆｼﾒﾗｿﾝ","kana_address":"ｵｶﾞﾜ","pref":"宮崎県","city":"児湯郡西米良村","address":"小川"},
{"zip_code":"8811413","kana_pref":"ﾐﾔｻﾞｷｹﾝ","kana_city":"ｺﾕｸﾞﾝﾆｼﾒﾗｿﾝ","kana_address":"ｶﾝﾒﾗ","pref":"宮崎県","city":"児湯郡西米良村","address":"上米良"},
{"zip_code":"8811301","kana_pref":"ﾐﾔｻﾞｷｹﾝ","kana_city":"ｺﾕｸﾞﾝﾆｼﾒﾗｿﾝ","kana_address":"ｺｼﾉｵ","pref":"宮崎県","city":"児湯郡西米良村","address":"越野尾"},
{"zip_code":"8811414","kana_pref":"ﾐﾔｻﾞｷｹﾝ","kana_city":"ｺﾕｸﾞﾝﾆｼﾒﾗｿﾝ","kana_address":"ﾀｹﾜﾗ","pref":"宮崎県","city":"児湯郡西米良村","address":"竹原"},
{"zip_code":"8811411","kana_pref":"ﾐﾔｻﾞｷｹﾝ","kana_city":"ｺﾕｸﾞﾝﾆｼﾒﾗｿﾝ","kana_address":"ﾑﾗｼｮ","pref":"宮崎県","city":"児湯郡西米良村","address":"村所"},
{"zip_code":"8811303","kana_pref":"ﾐﾔｻﾞｷｹﾝ","kana_city":"ｺﾕｸﾞﾝﾆｼﾒﾗｿﾝ","kana_address":"ﾖｺﾉ","pref":"宮崎県","city":"児湯郡西米良村","address":"横野"}]}