{"zip_code":[
{"zip_code":"8820000","kana_pref":"ﾐﾔｻﾞｷｹﾝ","kana_city":"ﾉﾍﾞｵｶｼ","kana_address":"","pref":"宮崎県","city":"延岡市","address":""},
{"zip_code":"8820845","kana_pref":"ﾐﾔｻﾞｷｹﾝ","kana_city":"ﾉﾍﾞｵｶｼ","kana_address":"ｱｶﾞﾀﾏﾁ","pref":"宮崎県","city":"延岡市","address":"安賀多町"},
{"zip_code":"8820847","kana_pref":"ﾐﾔｻﾞｷｹﾝ","kana_city":"ﾉﾍﾞｵｶｼ","kana_address":"ｱｻﾋﾏﾁ","pref":"宮崎県","city":"延岡市","address":"旭町"},
{"zip_code":"8820872","kana_pref":"ﾐﾔｻﾞｷｹﾝ","kana_city":"ﾉﾍﾞｵｶｼ","kana_address":"ｱﾀｺﾞﾏﾁ","pref":"宮崎県","city":"延岡市","address":"愛宕町"},
{"zip_code":"8820871","kana_pref":"ﾐﾔｻﾞｷｹﾝ","kana_city":"ﾉﾍﾞｵｶｼ","kana_address":"ｱﾀｺﾞﾔﾏ","pref":"宮崎県","city":"延岡市","address":"愛宕山"},
{"zip_code":"8820071","kana_pref":"ﾐﾔｻﾞｷｹﾝ","kana_city":"ﾉﾍﾞｵｶｼ","kana_address":"ｱﾓﾘﾏﾁ","pref":"宮崎県","city":"延岡市","address":"天下町"},
{"zip_code":"8820025","kana_pref":"ﾐﾔｻﾞｷｹﾝ","kana_city":"ﾉﾍﾞｵｶｼ","kana_address":"ｱﾜﾉﾐｮｳﾏﾁ","pref":"宮崎県","city":"延岡市","address":"粟野名町"},
{"zip_code":"8820831","kana_pref":"ﾐﾔｻﾞｷｹﾝ","kana_city":"ﾉﾍﾞｵｶｼ","kana_address":"ｲﾃﾞｸﾞﾁﾏﾁ","pref":"宮崎県","city":"延岡市","address":"出口町"},
{"zip_code":"8820856","kana_pref":"ﾐﾔｻﾞｷｹﾝ","kana_city":"ﾉﾍﾞｵｶｼ","kana_address":"ｲﾃﾞｷﾀ","pref":"宮崎県","city":"延岡市","address":"出北"},
{"zip_code":"8820003","kana_pref":"ﾐﾔｻﾞｷｹﾝ","kana_city":"ﾉﾍﾞｵｶｼ","kana_address":"ｲﾅﾊﾞｻﾞｷﾏﾁ","pref":"宮崎県","city":"延岡市","address":"稲葉崎町"},
{"zip_code":"8820095","kana_pref":"ﾐﾔｻﾞｷｹﾝ","kana_city":"ﾉﾍﾞｵｶｼ","kana_address":"ｳﾗｼﾛﾏﾁ","pref":"宮崎県","city":"延岡市","address":"浦城町"},
{"zip_code":"8820084","kana_pref":"ﾐﾔｻﾞｷｹﾝ","kana_city":"ﾉﾍﾞｵｶｼ","kana_address":"ｳﾜﾀﾞﾏﾁ","pref":"宮崎県","city":"延岡市","address":"宇和田町"},
{"zip_code":"8820046","kana_pref":"ﾐﾔｻﾞｷｹﾝ","kana_city":"ﾉﾍﾞｵｶｼ","kana_address":"ｴﾋﾞｽﾏﾁ","pref":"宮崎県","city":"延岡市","address":"恵比須町"},
{"zip_code":"8820013","kana_pref":"ﾐﾔｻﾞｷｹﾝ","kana_city":"ﾉﾍﾞｵｶｼ","kana_address":"ｵｲｳﾁﾏﾁ","pref":"宮崎県","city":"延岡市","address":"追内町"},
{"zip_code":"8820001","kana_pref":"ﾐﾔｻﾞｷｹﾝ","kana_city":"ﾉﾍﾞｵｶｼ","kana_address":"ｵｵｶｲﾏﾁ","pref":"宮崎県","city":"延岡市","address":"大峡町"},
{"zip_code":"8820027","kana_pref":"ﾐﾔｻﾞｷｹﾝ","kana_city":"ﾉﾍﾞｵｶｼ","kana_address":"ｵｵｶﾄﾞﾏﾁ","pref":"宮崎県","city":"延岡市","address":"大門町"},
{"zip_code":"8820841","kana_pref":"ﾐﾔｻﾞｷｹﾝ","kana_city":"ﾉﾍﾞｵｶｼ","kana_address":"ｵｵｾﾏﾁ","pref":"宮崎県","city":"延岡市","address":"大瀬町"},
{"zip_code":"8820024","kana_pref":"ﾐﾔｻﾞｷｹﾝ","kana_city":"ﾉﾍﾞｵｶｼ","kana_address":"ｵｵﾀﾞｹﾏﾁ","pref":"宮崎県","city":"延岡市","address":"大武町"},
{"zip_code":"8820803","kana_pref":"ﾐﾔｻﾞｷｹﾝ","kana_city":"ﾉﾍﾞｵｶｼ","kana_address":"ｵｵﾇｷﾏﾁ","pref":"宮崎県","city":"延岡市","address":"大貫町"},
{"zip_code":"8820086","kana_pref":"ﾐﾔｻﾞｷｹﾝ","kana_city":"ﾉﾍﾞｵｶｼ","kana_address":"ｵｵﾉﾏﾁ","pref":"宮崎県","city":"延岡市","address":"大野町"},
{"zip_code":"8820056","kana_pref":"ﾐﾔｻﾞｷｹﾝ","kana_city":"ﾉﾍﾞｵｶｼ","kana_address":"ｵｶﾄﾐﾏﾁ","pref":"宮崎県","city":"延岡市","address":"岡富町"},
{"zip_code":"8820057","kana_pref":"ﾐﾔｻﾞｷｹﾝ","kana_city":"ﾉﾍﾞｵｶｼ","kana_address":"ｵｶﾄﾐﾔﾏ","pref":"宮崎県","city":"延岡市","address":"岡富山"},
{"zip_code":"8820075","kana_pref":"ﾐﾔｻﾞｷｹﾝ","kana_city":"ﾉﾍﾞｵｶｼ","kana_address":"ｵｶﾓﾄﾏﾁ","pref":"宮崎県","city":"延岡市","address":"岡元町"},
{"zip_code":"8820876","kana_pref":"ﾐﾔｻﾞｷｹﾝ","kana_city":"ﾉﾍﾞｵｶｼ","kana_address":"ｵｷﾀﾏﾁ","pref":"宮崎県","city":"延岡市","address":"沖田町"},
{"zip_code":"8820006","kana_pref":"ﾐﾔｻﾞｷｹﾝ","kana_city":"ﾉﾍﾞｵｶｼ","kana_address":"ｵｻﾞｷﾏﾁ","pref":"宮崎県","city":"延岡市","address":"尾崎町"},
{"zip_code":"8820855","kana_pref":"ﾐﾔｻﾞｷｹﾝ","kana_city":"ﾉﾍﾞｵｶｼ","kana_address":"ｵﾛｼﾎﾝﾏﾁ","pref":"宮崎県","city":"延岡市","address":"卸本町"},
{"zip_code":"8820073","kana_pref":"ﾐﾔｻﾞｷｹﾝ","kana_city":"ﾉﾍﾞｵｶｼ","kana_address":"ｶｲﾉﾊﾀﾏﾁ","pref":"宮崎県","city":"延岡市","address":"貝の畑町"},
{"zip_code":"8820085","kana_pref":"ﾐﾔｻﾞｷｹﾝ","kana_city":"ﾉﾍﾞｵｶｼ","kana_address":"ｶｶﾞｾﾏﾁ","pref":"宮崎県","city":"延岡市","address":"鹿狩瀬町"},
{"zip_code":"8820004","kana_pref":"ﾐﾔｻﾞｷｹﾝ","kana_city":"ﾉﾍﾞｵｶｼ","kana_address":"ｶｼﾔﾏﾏﾁ","pref":"宮崎県","city":"延岡市","address":"樫山町"},
{"zip_code":"8820012","kana_pref":"ﾐﾔｻﾞｷｹﾝ","kana_city":"ﾉﾍﾞｵｶｼ","kana_address":"ｶｼｮｳｼﾞ","pref":"宮崎県","city":"延岡市","address":"鹿小路"},
{"zip_code":"8820844","kana_pref":"ﾐﾔｻﾞｷｹﾝ","kana_city":"ﾉﾍﾞｵｶｼ","kana_address":"ｶｽｶﾞﾏﾁ","pref":"宮崎県","city":"延岡市","address":"春日町"},
{"zip_code":"8820877","kana_pref":"ﾐﾔｻﾞｷｹﾝ","kana_city":"ﾉﾍﾞｵｶｼ","kana_address":"ｶﾀﾀﾏﾁ","pref":"宮崎県","city":"延岡市","address":"片田町"},
{"zip_code":"8820867","kana_pref":"ﾐﾔｻﾞｷｹﾝ","kana_city":"ﾉﾍﾞｵｶｼ","kana_address":"ｶﾏｴｸﾞﾁﾏﾁ","pref":"宮崎県","city":"延岡市","address":"構口町"},
{"zip_code":"8820833","kana_pref":"ﾐﾔｻﾞｷｹﾝ","kana_city":"ﾉﾍﾞｵｶｼ","kana_address":"ｶﾐｵｵｾﾏﾁ","pref":"宮崎県","city":"延岡市","address":"上大瀬町"},
{"zip_code":"8820885","kana_pref":"ﾐﾔｻﾞｷｹﾝ","kana_city":"ﾉﾍﾞｵｶｼ","kana_address":"ｶﾐﾐﾜﾏﾁ","pref":"宮崎県","city":"延岡市","address":"上三輪町"},
{"zip_code":"8820017","kana_pref":"ﾐﾔｻﾞｷｹﾝ","kana_city":"ﾉﾍﾞｵｶｼ","kana_address":"ｶﾜｼﾏﾏﾁ","pref":"宮崎県","city":"延岡市","address":"川島町"},
{"zip_code":"8820033","kana_pref":"ﾐﾔｻﾞｷｹﾝ","kana_city":"ﾉﾍﾞｵｶｼ","kana_address":"ｶﾜﾗｻｷﾏﾁ","pref":"宮崎県","city":"延岡市","address":"川原崎町"},
{"zip_code":"8820043","kana_pref":"ﾐﾔｻﾞｷｹﾝ","kana_city":"ﾉﾍﾞｵｶｼ","kana_address":"ｷﾞｵﾝﾏﾁ","pref":"宮崎県","city":"延岡市","address":"祗園町"},
{"zip_code":"8820121","kana_pref":"ﾐﾔｻﾞｷｹﾝ","kana_city":"ﾉﾍﾞｵｶｼ","kana_address":"ｷﾀｶﾀﾏﾁｲﾀｶﾐ","pref":"宮崎県","city":"延岡市","address":"北方町板上"},
{"zip_code":"8820122","kana_pref":"ﾐﾔｻﾞｷｹﾝ","kana_city":"ﾉﾍﾞｵｶｼ","kana_address":"ｷﾀｶﾀﾏﾁｲﾀｼﾓ","pref":"宮崎県","city":"延岡市","address":"北方町板下"},
{"zip_code":"8820123","kana_pref":"ﾐﾔｻﾞｷｹﾝ","kana_city":"ﾉﾍﾞｵｶｼ","kana_address":"ｷﾀｶﾀﾏﾁｳｿｺﾞｴ","pref":"宮崎県","city":"延岡市","address":"北方町うそ越"},
{"zip_code":"8820106","kana_pref":"ﾐﾔｻﾞｷｹﾝ","kana_city":"ﾉﾍﾞｵｶｼ","kana_address":"ｷﾀｶﾀﾏﾁｶｻｼﾀ","pref":"宮崎県","city":"延岡市","address":"北方町笠下"},
{"zip_code":"8820126","kana_pref":"ﾐﾔｻﾞｷｹﾝ","kana_city":"ﾉﾍﾞｵｶｼ","kana_address":"ｷﾀｶﾀﾏﾁｶﾐｻﾞｷ","pref":"宮崎県","city":"延岡市","address":"北方町上崎"},
{"zip_code":"8820231","kana_pref":"ﾐﾔｻﾞｷｹﾝ","kana_city":"ﾉﾍﾞｵｶｼ","kana_address":"ｷﾀｶﾀﾏﾁｶﾐｼｼｶﾞﾜ","pref":"宮崎県","city":"延岡市","address":"北方町上鹿川"},
{"zip_code":"8820125","kana_pref":"ﾐﾔｻﾞｷｹﾝ","kana_city":"ﾉﾍﾞｵｶｼ","kana_address":"ｷﾀｶﾀﾏﾁｶﾜｽﾞﾙ","pref":"宮崎県","city":"延岡市","address":"北方町川水流"},
{"zip_code":"8820129","kana_pref":"ﾐﾔｻﾞｷｹﾝ","kana_city":"ﾉﾍﾞｵｶｼ","kana_address":"ｷﾀｶﾀﾏﾁｷﾀｸﾎﾞﾔﾏ","pref":"宮崎県","city":"延岡市","address":"北方町北久保山"},
{"zip_code":"8820127","kana_pref":"ﾐﾔｻﾞｷｹﾝ","kana_city":"ﾉﾍﾞｵｶｼ","kana_address":"ｷﾀｶﾀﾏﾁｸﾗﾀ","pref":"宮崎県","city":"延岡市","address":"北方町蔵田"},
{"zip_code":"8820241","kana_pref":"ﾐﾔｻﾞｷｹﾝ","kana_city":"ﾉﾍﾞｵｶｼ","kana_address":"ｷﾀｶﾀﾏﾁｻﾝｶﾞﾑﾗ","pref":"宮崎県","city":"延岡市","address":"北方町三ケ村"},
{"zip_code":"8820237","kana_pref":"ﾐﾔｻﾞｷｹﾝ","kana_city":"ﾉﾍﾞｵｶｼ","kana_address":"ｷﾀｶﾀﾏﾁｼｲﾊﾞﾀ","pref":"宮崎県","city":"延岡市","address":"北方町椎畑"},
{"zip_code":"8820232","kana_pref":"ﾐﾔｻﾞｷｹﾝ","kana_city":"ﾉﾍﾞｵｶｼ","kana_address":"ｷﾀｶﾀﾏﾁｼﾓｼｼｶﾞﾜ","pref":"宮崎県","city":"延岡市","address":"北方町下鹿川"},
{"zip_code":"8820233","kana_pref":"ﾐﾔｻﾞｷｹﾝ","kana_city":"ﾉﾍﾞｵｶｼ","kana_address":"ｷﾀｶﾀﾏﾁｽｹﾞﾊﾞﾙ","pref":"宮崎県","city":"延岡市","address":"北方町菅原"},
{"zip_code":"8820124","kana_pref":"ﾐﾔｻﾞｷｹﾝ","kana_city":"ﾉﾍﾞｵｶｼ","kana_address":"ｷﾀｶﾀﾏﾁｿｷ","pref":"宮崎県","city":"延岡市","address":"北方町曽木"},
{"zip_code":"8820238","kana_pref":"ﾐﾔｻﾞｷｹﾝ","kana_city":"ﾉﾍﾞｵｶｼ","kana_address":"ｷﾀｶﾀﾏﾁﾀｷｼﾀ","pref":"宮崎県","city":"延岡市","address":"北方町滝下"},
{"zip_code":"8820104","kana_pref":"ﾐﾔｻﾞｷｹﾝ","kana_city":"ﾉﾍﾞｵｶｼ","kana_address":"ｷﾀｶﾀﾏﾁﾂﾉﾀﾞ","pref":"宮崎県","city":"延岡市","address":"北方町角田"},
{"zip_code":"8820245","kana_pref":"ﾐﾔｻﾞｷｹﾝ","kana_city":"ﾉﾍﾞｵｶｼ","kana_address":"ｷﾀｶﾀﾏﾁﾊﾔｶﾐ","pref":"宮崎県","city":"延岡市","address":"北方町早上"},
{"zip_code":"8820244","kana_pref":"ﾐﾔｻﾞｷｹﾝ","kana_city":"ﾉﾍﾞｵｶｼ","kana_address":"ｷﾀｶﾀﾏﾁﾊﾔﾅｶ","pref":"宮崎県","city":"延岡市","address":"北方町早中"},
{"zip_code":"8820243","kana_pref":"ﾐﾔｻﾞｷｹﾝ","kana_city":"ﾉﾍﾞｵｶｼ","kana_address":"ｷﾀｶﾀﾏﾁﾊﾔﾋﾄ","pref":"宮崎県","city":"延岡市","address":"北方町早日渡"},
{"zip_code":"8820236","kana_pref":"ﾐﾔｻﾞｷｹﾝ","kana_city":"ﾉﾍﾞｵｶｼ","kana_address":"ｷﾀｶﾀﾏﾁﾋﾋﾞﾗ","pref":"宮崎県","city":"延岡市","address":"北方町日平"},
{"zip_code":"8820107","kana_pref":"ﾐﾔｻﾞｷｹﾝ","kana_city":"ﾉﾍﾞｵｶｼ","kana_address":"ｷﾀｶﾀﾏﾁﾌｼﾞﾉｷ","pref":"宮崎県","city":"延岡市","address":"北方町藤の木"},
{"zip_code":"8820101","kana_pref":"ﾐﾔｻﾞｷｹﾝ","kana_city":"ﾉﾍﾞｵｶｼ","kana_address":"ｷﾀｶﾀﾏﾁﾌﾀﾏﾀ","pref":"宮崎県","city":"延岡市","address":"北方町二股"},
{"zip_code":"8820235","kana_pref":"ﾐﾔｻﾞｷｹﾝ","kana_city":"ﾉﾍﾞｵｶｼ","kana_address":"ｷﾀｶﾀﾏﾁﾏｷﾐﾈ","pref":"宮崎県","city":"延岡市","address":"北方町槇峰"},
{"zip_code":"8820128","kana_pref":"ﾐﾔｻﾞｷｹﾝ","kana_city":"ﾉﾍﾞｵｶｼ","kana_address":"ｷﾀｶﾀﾏﾁﾐﾅﾐｸﾎﾞﾔﾏ","pref":"宮崎県","city":"延岡市","address":"北方町南久保山"},
{"zip_code":"8820234","kana_pref":"ﾐﾔｻﾞｷｹﾝ","kana_city":"ﾉﾍﾞｵｶｼ","kana_address":"ｷﾀｶﾀﾏﾁﾐﾐﾁ","pref":"宮崎県","city":"延岡市","address":"北方町美々地"},
{"zip_code":"8820242","kana_pref":"ﾐﾔｻﾞｷｹﾝ","kana_city":"ﾉﾍﾞｵｶｼ","kana_address":"ｷﾀｶﾀﾏﾁﾔｶｲ","pref":"宮崎県","city":"延岡市","address":"北方町八峡"},
{"zip_code":"8820097","kana_pref":"ﾐﾔｻﾞｷｹﾝ","kana_city":"ﾉﾍﾞｵｶｼ","kana_address":"ｷﾀｶﾞﾜﾏﾁｶﾜﾁﾐｮｳ","pref":"宮崎県","city":"延岡市","address":"北川町川内名"},
{"zip_code":"8820041","kana_pref":"ﾐﾔｻﾞｷｹﾝ","kana_city":"ﾉﾍﾞｵｶｼ","kana_address":"ｷﾀｺｳｼﾞ","pref":"宮崎県","city":"延岡市","address":"北小路"},
{"zip_code":"8820834","kana_pref":"ﾐﾔｻﾞｷｹﾝ","kana_city":"ﾉﾍﾞｵｶｼ","kana_address":"ｷﾀｼﾝｺｳｼﾞ","pref":"宮崎県","city":"延岡市","address":"北新小路"},
{"zip_code":"8820814","kana_pref":"ﾐﾔｻﾞｷｹﾝ","kana_city":"ﾉﾍﾞｵｶｼ","kana_address":"ｷﾀﾏﾁ","pref":"宮崎県","city":"延岡市","address":"北町"},
{"zip_code":"8820873","kana_pref":"ﾐﾔｻﾞｷｹﾝ","kana_city":"ﾉﾍﾞｵｶｼ","kana_address":"ｷｮｳｴｲﾏﾁ","pref":"宮崎県","city":"延岡市","address":"共栄町"},
{"zip_code":"8820091","kana_pref":"ﾐﾔｻﾞｷｹﾝ","kana_city":"ﾉﾍﾞｵｶｼ","kana_address":"ｸﾜﾋﾗﾏﾁ","pref":"宮崎県","city":"延岡市","address":"桑平町"},
{"zip_code":"8820093","kana_pref":"ﾐﾔｻﾞｷｹﾝ","kana_city":"ﾉﾍﾞｵｶｼ","kana_address":"ｺｳﾍﾞﾏﾁ","pref":"宮崎県","city":"延岡市","address":"神戸町"},
{"zip_code":"8820076","kana_pref":"ﾐﾔｻﾞｷｹﾝ","kana_city":"ﾉﾍﾞｵｶｼ","kana_address":"ｺｶﾞﾜﾏﾁ","pref":"宮崎県","city":"延岡市","address":"小川町"},
{"zip_code":"8820882","kana_pref":"ﾐﾔｻﾞｷｹﾝ","kana_city":"ﾉﾍﾞｵｶｼ","kana_address":"ｺﾉﾏﾁ","pref":"宮崎県","city":"延岡市","address":"小野町"},
{"zip_code":"8820061","kana_pref":"ﾐﾔｻﾞｷｹﾝ","kana_city":"ﾉﾍﾞｵｶｼ","kana_address":"ｺﾐﾈﾏﾁ","pref":"宮崎県","city":"延岡市","address":"小峯町"},
{"zip_code":"8820047","kana_pref":"ﾐﾔｻﾞｷｹﾝ","kana_city":"ﾉﾍﾞｵｶｼ","kana_address":"ｺﾝﾔﾏﾁ","pref":"宮崎県","city":"延岡市","address":"紺屋町"},
{"zip_code":"8820832","kana_pref":"ﾐﾔｻﾞｷｹﾝ","kana_city":"ﾉﾍﾞｵｶｼ","kana_address":"ｻｲｺｳｼﾞ","pref":"宮崎県","city":"延岡市","address":"西小路"},
{"zip_code":"8820053","kana_pref":"ﾐﾔｻﾞｷｹﾝ","kana_city":"ﾉﾍﾞｵｶｼ","kana_address":"ｻｲﾜｲﾏﾁ","pref":"宮崎県","city":"延岡市","address":"幸町"},
{"zip_code":"8820054","kana_pref":"ﾐﾔｻﾞｷｹﾝ","kana_city":"ﾉﾍﾞｵｶｼ","kana_address":"ｻｶｴﾏﾁ","pref":"宮崎県","city":"延岡市","address":"栄町"},
{"zip_code":"8820007","kana_pref":"ﾐﾔｻﾞｷｹﾝ","kana_city":"ﾉﾍﾞｵｶｼ","kana_address":"ｻｸﾗｶﾞｵｶ","pref":"宮崎県","city":"延岡市","address":"桜ケ丘"},
{"zip_code":"8820816","kana_pref":"ﾐﾔｻﾞｷｹﾝ","kana_city":"ﾉﾍﾞｵｶｼ","kana_address":"ｻｸﾗｺｳｼﾞ","pref":"宮崎県","city":"延岡市","address":"桜小路"},
{"zip_code":"8820036","kana_pref":"ﾐﾔｻﾞｷｹﾝ","kana_city":"ﾉﾍﾞｵｶｼ","kana_address":"ｻｸﾗｿﾞﾉﾏﾁ","pref":"宮崎県","city":"延岡市","address":"桜園町"},
{"zip_code":"8820002","kana_pref":"ﾐﾔｻﾞｷｹﾝ","kana_city":"ﾉﾍﾞｵｶｼ","kana_address":"ｻｼｷﾉﾏﾁ","pref":"宮崎県","city":"延岡市","address":"差木野町"},
{"zip_code":"8820081","kana_pref":"ﾐﾔｻﾞｷｹﾝ","kana_city":"ﾉﾍﾞｵｶｼ","kana_address":"ｻﾉﾏﾁ","pref":"宮崎県","city":"延岡市","address":"佐野町"},
{"zip_code":"8820864","kana_pref":"ﾐﾔｻﾞｷｹﾝ","kana_city":"ﾉﾍﾞｵｶｼ","kana_address":"ｼｵﾊﾏﾏﾁ","pref":"宮崎県","city":"延岡市","address":"塩浜町"},
{"zip_code":"8820096","kana_pref":"ﾐﾔｻﾞｷｹﾝ","kana_city":"ﾉﾍﾞｵｶｼ","kana_address":"ｼﾏｳﾗﾏﾁ","pref":"宮崎県","city":"延岡市","address":"島浦町"},
{"zip_code":"8820883","kana_pref":"ﾐﾔｻﾞｷｹﾝ","kana_city":"ﾉﾍﾞｵｶｼ","kana_address":"ｼﾓﾐﾜﾏﾁ","pref":"宮崎県","city":"延岡市","address":"下三輪町"},
{"zip_code":"8820034","kana_pref":"ﾐﾔｻﾞｷｹﾝ","kana_city":"ﾉﾍﾞｵｶｼ","kana_address":"ｼｮｳﾜﾏﾁ","pref":"宮崎県","city":"延岡市","address":"昭和町"},
{"zip_code":"8820014","kana_pref":"ﾐﾔｻﾞｷｹﾝ","kana_city":"ﾉﾍﾞｵｶｼ","kana_address":"ｼﾛｲｼﾏﾁ","pref":"宮崎県","city":"延岡市","address":"白石町"},
{"zip_code":"8820835","kana_pref":"ﾐﾔｻﾞｷｹﾝ","kana_city":"ﾉﾍﾞｵｶｼ","kana_address":"ｼﾝｺｳｼﾞ","pref":"宮崎県","city":"延岡市","address":"新小路"},
{"zip_code":"8820827","kana_pref":"ﾐﾔｻﾞｷｹﾝ","kana_city":"ﾉﾍﾞｵｶｼ","kana_address":"ｼﾝﾏﾁ","pref":"宮崎県","city":"延岡市","address":"新町"},
{"zip_code":"8820011","kana_pref":"ﾐﾔｻﾞｷｹﾝ","kana_city":"ﾉﾍﾞｵｶｼ","kana_address":"ｽｻﾏﾁ","pref":"宮崎県","city":"延岡市","address":"須佐町"},
{"zip_code":"8820825","kana_pref":"ﾐﾔｻﾞｷｹﾝ","kana_city":"ﾉﾍﾞｵｶｼ","kana_address":"ｽｻﾞｷﾏﾁ","pref":"宮崎県","city":"延岡市","address":"須崎町"},
{"zip_code":"8820045","kana_pref":"ﾐﾔｻﾞｷｹﾝ","kana_city":"ﾉﾍﾞｵｶｼ","kana_address":"ｾﾉｸﾁﾏﾁ","pref":"宮崎県","city":"延岡市","address":"瀬之口町"},
{"zip_code":"8820857","kana_pref":"ﾐﾔｻﾞｷｹﾝ","kana_city":"ﾉﾍﾞｵｶｼ","kana_address":"ｿｳﾘｮｳﾏﾁ","pref":"宮崎県","city":"延岡市","address":"惣領町"},
{"zip_code":"8820042","kana_pref":"ﾐﾔｻﾞｷｹﾝ","kana_city":"ﾉﾍﾞｵｶｼ","kana_address":"ﾀｶﾁﾎﾄﾞｵﾘ","pref":"宮崎県","city":"延岡市","address":"高千穂通"},
{"zip_code":"8820064","kana_pref":"ﾐﾔｻﾞｷｹﾝ","kana_city":"ﾉﾍﾞｵｶｼ","kana_address":"ﾀｶﾉﾏﾁ","pref":"宮崎県","city":"延岡市","address":"高野町"},
{"zip_code":"8820874","kana_pref":"ﾐﾔｻﾞｷｹﾝ","kana_city":"ﾉﾍﾞｵｶｼ","kana_address":"ﾀﾞﾃﾏﾁ","pref":"宮崎県","city":"延岡市","address":"伊達町"},
{"zip_code":"8820824","kana_pref":"ﾐﾔｻﾞｷｹﾝ","kana_city":"ﾉﾍﾞｵｶｼ","kana_address":"ﾁｭｳｵｳﾄﾞｵﾘ","pref":"宮崎県","city":"延岡市","address":"中央通"},
{"zip_code":"8820836","kana_pref":"ﾐﾔｻﾞｷｹﾝ","kana_city":"ﾉﾍﾞｵｶｼ","kana_address":"ﾂﾈﾄﾐﾏﾁ","pref":"宮崎県","city":"延岡市","address":"恒富町"},
{"zip_code":"8820865","kana_pref":"ﾐﾔｻﾞｷｹﾝ","kana_city":"ﾉﾍﾞｵｶｼ","kana_address":"ﾂﾙｶﾞｵｶ","pref":"宮崎県","city":"延岡市","address":"鶴ケ丘"},
{"zip_code":"8820811","kana_pref":"ﾐﾔｻﾞｷｹﾝ","kana_city":"ﾉﾍﾞｵｶｼ","kana_address":"ﾃﾝｼﾞﾝｺｳｼﾞ","pref":"宮崎県","city":"延岡市","address":"天神小路"},
{"zip_code":"8820016","kana_pref":"ﾐﾔｻﾞｷｹﾝ","kana_city":"ﾉﾍﾞｵｶｼ","kana_address":"ﾄｳﾐﾏﾁ","pref":"宮崎県","city":"延岡市","address":"東海町"},
{"zip_code":"8820051","kana_pref":"ﾐﾔｻﾞｷｹﾝ","kana_city":"ﾉﾍﾞｵｶｼ","kana_address":"ﾄﾐﾔﾏﾏﾁ","pref":"宮崎県","city":"延岡市","address":"富美山町"},
{"zip_code":"8820031","kana_pref":"ﾐﾔｻﾞｷｹﾝ","kana_city":"ﾉﾍﾞｵｶｼ","kana_address":"ﾅｶｶﾞﾜﾗﾏﾁ","pref":"宮崎県","city":"延岡市","address":"中川原町"},
{"zip_code":"8820846","kana_pref":"ﾐﾔｻﾞｷｹﾝ","kana_city":"ﾉﾍﾞｵｶｼ","kana_address":"ﾅｶｼﾏﾏﾁ","pref":"宮崎県","city":"延岡市","address":"中島町"},
{"zip_code":"8820032","kana_pref":"ﾐﾔｻﾞｷｹﾝ","kana_city":"ﾉﾍﾞｵｶｼ","kana_address":"ﾅｶﾉｾﾁｮｳ","pref":"宮崎県","city":"延岡市","address":"中の瀬町"},
{"zip_code":"8820823","kana_pref":"ﾐﾔｻﾞｷｹﾝ","kana_city":"ﾉﾍﾞｵｶｼ","kana_address":"ﾅｶﾏﾁ","pref":"宮崎県","city":"延岡市","address":"中町"},
{"zip_code":"8820884","kana_pref":"ﾐﾔｻﾞｷｹﾝ","kana_city":"ﾉﾍﾞｵｶｼ","kana_address":"ﾅｶﾐﾜﾏﾁ","pref":"宮崎県","city":"延岡市","address":"中三輪町"},
{"zip_code":"8820843","kana_pref":"ﾐﾔｻﾞｷｹﾝ","kana_city":"ﾉﾍﾞｵｶｼ","kana_address":"ﾅｶﾞｲｹﾏﾁ","pref":"宮崎県","city":"延岡市","address":"永池町"},
{"zip_code":"8820854","kana_pref":"ﾐﾔｻﾞｷｹﾝ","kana_city":"ﾉﾍﾞｵｶｼ","kana_address":"ﾅｶﾞﾊﾏﾏﾁ","pref":"宮崎県","city":"延岡市","address":"長浜町"},
{"zip_code":"8820005","kana_pref":"ﾐﾔｻﾞｷｹﾝ","kana_city":"ﾉﾍﾞｵｶｼ","kana_address":"ﾅﾂﾀﾏﾁ","pref":"宮崎県","city":"延岡市","address":"夏田町"},
{"zip_code":"8820804","kana_pref":"ﾐﾔｻﾞｷｹﾝ","kana_city":"ﾉﾍﾞｵｶｼ","kana_address":"ﾆｼｼﾅﾏﾁ","pref":"宮崎県","city":"延岡市","address":"西階町"},
{"zip_code":"8820802","kana_pref":"ﾐﾔｻﾞｷｹﾝ","kana_city":"ﾉﾍﾞｵｶｼ","kana_address":"ﾉｼﾞﾏﾁ","pref":"宮崎県","city":"延岡市","address":"野地町"},
{"zip_code":"8820805","kana_pref":"ﾐﾔｻﾞｷｹﾝ","kana_city":"ﾉﾍﾞｵｶｼ","kana_address":"ﾉﾀ","pref":"宮崎県","city":"延岡市","address":"野田"},
{"zip_code":"8820801","kana_pref":"ﾐﾔｻﾞｷｹﾝ","kana_city":"ﾉﾍﾞｵｶｼ","kana_address":"ﾉﾀﾏﾁ","pref":"宮崎県","city":"延岡市","address":"野田町"},
{"zip_code":"8820052","kana_pref":"ﾐﾔｻﾞｷｹﾝ","kana_city":"ﾉﾍﾞｵｶｼ","kana_address":"ﾊｷﾞﾏﾁ","pref":"宮崎県","city":"延岡市","address":"萩町"},
{"zip_code":"8820044","kana_pref":"ﾐﾔｻﾞｷｹﾝ","kana_city":"ﾉﾍﾞｵｶｼ","kana_address":"ﾊﾞｸﾛｳﾏﾁ","pref":"宮崎県","city":"延岡市","address":"博労町"},
{"zip_code":"8820851","kana_pref":"ﾐﾔｻﾞｷｹﾝ","kana_city":"ﾉﾍﾞｵｶｼ","kana_address":"ﾊﾏｺﾞ","pref":"宮崎県","city":"延岡市","address":"浜砂"},
{"zip_code":"8820862","kana_pref":"ﾐﾔｻﾞｷｹﾝ","kana_city":"ﾉﾍﾞｵｶｼ","kana_address":"ﾊﾏﾏﾁ","pref":"宮崎県","city":"延岡市","address":"浜町"},
{"zip_code":"8820852","kana_pref":"ﾐﾔｻﾞｷｹﾝ","kana_city":"ﾉﾍﾞｵｶｼ","kana_address":"ﾋｶﾞｼﾊﾏｺﾞﾏﾁ","pref":"宮崎県","city":"延岡市","address":"東浜砂町"},
{"zip_code":"8820813","kana_pref":"ﾐﾔｻﾞｷｹﾝ","kana_city":"ﾉﾍﾞｵｶｼ","kana_address":"ﾋｶﾞｼﾎﾝｺｳｼﾞ","pref":"宮崎県","city":"延岡市","address":"東本小路"},
{"zip_code":"8820035","kana_pref":"ﾐﾔｻﾞｷｹﾝ","kana_city":"ﾉﾍﾞｵｶｼ","kana_address":"ﾋﾉﾃﾞﾏﾁ","pref":"宮崎県","city":"延岡市","address":"日の出町"},
{"zip_code":"8820861","kana_pref":"ﾐﾔｻﾞｷｹﾝ","kana_city":"ﾉﾍﾞｵｶｼ","kana_address":"ﾋﾞｭｳﾏﾁ","pref":"宮崎県","city":"延岡市","address":"別府町"},
{"zip_code":"8820065","kana_pref":"ﾐﾔｻﾞｷｹﾝ","kana_city":"ﾉﾍﾞｵｶｼ","kana_address":"ﾋﾗﾀﾏﾁ","pref":"宮崎県","city":"延岡市","address":"平田町"},
{"zip_code":"8820866","kana_pref":"ﾐﾔｻﾞｷｹﾝ","kana_city":"ﾉﾍﾞｵｶｼ","kana_address":"ﾋﾗﾊﾞﾙﾏﾁ","pref":"宮崎県","city":"延岡市","address":"平原町"},
{"zip_code":"8820022","kana_pref":"ﾐﾔｻﾞｷｹﾝ","kana_city":"ﾉﾍﾞｵｶｼ","kana_address":"ﾌﾀﾂｼﾏﾏﾁ","pref":"宮崎県","city":"延岡市","address":"二ツ島町"},
{"zip_code":"8820826","kana_pref":"ﾐﾔｻﾞｷｹﾝ","kana_city":"ﾉﾍﾞｵｶｼ","kana_address":"ﾌﾅｸﾞﾗﾏﾁ","pref":"宮崎県","city":"延岡市","address":"船倉町"},
{"zip_code":"8820063","kana_pref":"ﾐﾔｻﾞｷｹﾝ","kana_city":"ﾉﾍﾞｵｶｼ","kana_address":"ﾌﾙｶﾜﾏﾁ","pref":"宮崎県","city":"延岡市","address":"古川町"},
{"zip_code":"8820837","kana_pref":"ﾐﾔｻﾞｷｹﾝ","kana_city":"ﾉﾍﾞｵｶｼ","kana_address":"ﾌﾙｼﾛﾏﾁ","pref":"宮崎県","city":"延岡市","address":"古城町"},
{"zip_code":"8820853","kana_pref":"ﾐﾔｻﾞｷｹﾝ","kana_city":"ﾉﾍﾞｵｶｼ","kana_address":"ﾎｳｻﾞｲﾏﾁ","pref":"宮崎県","city":"延岡市","address":"方財町"},
{"zip_code":"8820082","kana_pref":"ﾐﾔｻﾞｷｹﾝ","kana_city":"ﾉﾍﾞｵｶｼ","kana_address":"ﾎｳﾘﾏﾁ","pref":"宮崎県","city":"延岡市","address":"祝子町"},
{"zip_code":"8820074","kana_pref":"ﾐﾔｻﾞｷｹﾝ","kana_city":"ﾉﾍﾞｵｶｼ","kana_address":"ﾎｿﾐﾏﾁ","pref":"宮崎県","city":"延岡市","address":"細見町"},
{"zip_code":"8820812","kana_pref":"ﾐﾔｻﾞｷｹﾝ","kana_city":"ﾉﾍﾞｵｶｼ","kana_address":"ﾎﾝｺｳｼﾞ","pref":"宮崎県","city":"延岡市","address":"本小路"},
{"zip_code":"8820821","kana_pref":"ﾐﾔｻﾞｷｹﾝ","kana_city":"ﾉﾍﾞｵｶｼ","kana_address":"ﾎﾝﾏﾁ","pref":"宮崎県","city":"延岡市","address":"本町"},
{"zip_code":"8820066","kana_pref":"ﾐﾔｻﾞｷｹﾝ","kana_city":"ﾉﾍﾞｵｶｼ","kana_address":"ﾏｲﾉﾏﾁ","pref":"宮崎県","city":"延岡市","address":"舞野町"},
{"zip_code":"8820023","kana_pref":"ﾐﾔｻﾞｷｹﾝ","kana_city":"ﾉﾍﾞｵｶｼ","kana_address":"ﾏｷﾏﾁ","pref":"宮崎県","city":"延岡市","address":"牧町"},
{"zip_code":"8820062","kana_pref":"ﾐﾔｻﾞｷｹﾝ","kana_city":"ﾉﾍﾞｵｶｼ","kana_address":"ﾏﾂﾔﾏﾏﾁ","pref":"宮崎県","city":"延岡市","address":"松山町"},
{"zip_code":"8820881","kana_pref":"ﾐﾔｻﾞｷｹﾝ","kana_city":"ﾉﾍﾞｵｶｼ","kana_address":"ﾐｽﾏﾁ","pref":"宮崎県","city":"延岡市","address":"三須町"},
{"zip_code":"8820015","kana_pref":"ﾐﾔｻﾞｷｹﾝ","kana_city":"ﾉﾍﾞｵｶｼ","kana_address":"ﾐｽﾞｼﾘﾏﾁ","pref":"宮崎県","city":"延岡市","address":"水尻町"},
{"zip_code":"8820842","kana_pref":"ﾐﾔｻﾞｷｹﾝ","kana_city":"ﾉﾍﾞｵｶｼ","kana_address":"ﾐﾂｾﾞﾏﾁ","pref":"宮崎県","city":"延岡市","address":"三ツ瀬町"},
{"zip_code":"8820863","kana_pref":"ﾐﾔｻﾞｷｹﾝ","kana_city":"ﾉﾍﾞｵｶｼ","kana_address":"ﾐﾄﾞﾘｶﾞｵｶ","pref":"宮崎県","city":"延岡市","address":"緑ケ丘"},
{"zip_code":"8820822","kana_pref":"ﾐﾔｻﾞｷｹﾝ","kana_city":"ﾉﾍﾞｵｶｼ","kana_address":"ﾐﾅﾐﾏﾁ","pref":"宮崎県","city":"延岡市","address":"南町"},
{"zip_code":"8820092","kana_pref":"ﾐﾔｻﾞｷｹﾝ","kana_city":"ﾉﾍﾞｵｶｼ","kana_address":"ﾐﾔﾅｶﾞﾏﾁ","pref":"宮崎県","city":"延岡市","address":"宮長町"},
{"zip_code":"8820087","kana_pref":"ﾐﾔｻﾞｷｹﾝ","kana_city":"ﾉﾍﾞｵｶｼ","kana_address":"ﾐｮｳﾏﾁ","pref":"宮崎県","city":"延岡市","address":"妙町"},
{"zip_code":"8820077","kana_pref":"ﾐﾔｻﾞｷｹﾝ","kana_city":"ﾉﾍﾞｵｶｼ","kana_address":"ﾑｶﾊﾞｷﾏﾁ","pref":"宮崎県","city":"延岡市","address":"行縢町"},
{"zip_code":"8820021","kana_pref":"ﾐﾔｻﾞｷｹﾝ","kana_city":"ﾉﾍﾞｵｶｼ","kana_address":"ﾑｼｶﾏﾁ","pref":"宮崎県","city":"延岡市","address":"無鹿町"},
{"zip_code":"8820094","kana_pref":"ﾐﾔｻﾞｷｹﾝ","kana_city":"ﾉﾍﾞｵｶｼ","kana_address":"ﾔｽｲﾏﾁ","pref":"宮崎県","city":"延岡市","address":"安井町"},
{"zip_code":"8820815","kana_pref":"ﾐﾔｻﾞｷｹﾝ","kana_city":"ﾉﾍﾞｵｶｼ","kana_address":"ﾔﾅｻﾞﾜﾏﾁ","pref":"宮崎県","city":"延岡市","address":"柳沢町"},
{"zip_code":"8820055","kana_pref":"ﾐﾔｻﾞｷｹﾝ","kana_city":"ﾉﾍﾞｵｶｼ","kana_address":"ﾔﾏｼﾀﾏﾁ","pref":"宮崎県","city":"延岡市","address":"山下町"},
{"zip_code":"8820037","kana_pref":"ﾐﾔｻﾞｷｹﾝ","kana_city":"ﾉﾍﾞｵｶｼ","kana_address":"ﾔﾏﾂｷﾏﾁ","pref":"宮崎県","city":"延岡市","address":"山月町"},
{"zip_code":"8820083","kana_pref":"ﾐﾔｻﾞｷｹﾝ","kana_city":"ﾉﾍﾞｵｶｼ","kana_address":"ﾕｳｷﾞﾏﾁ","pref":"宮崎県","city":"延岡市","address":"柚木町"},
{"zip_code":"8820026","kana_pref":"ﾐﾔｻﾞｷｹﾝ","kana_city":"ﾉﾍﾞｵｶｼ","kana_address":"ﾕﾉｷﾀﾞﾏﾁ","pref":"宮崎県","city":"延岡市","address":"柚の木田町"},
{"zip_code":"8820072","kana_pref":"ﾐﾔｻﾞｷｹﾝ","kana_city":"ﾉﾍﾞｵｶｼ","kana_address":"ﾖｼﾉﾏﾁ","pref":"宮崎県","city":"延岡市","address":"吉野町"},
{"zip_code":"8820875","kana_pref":"ﾐﾔｻﾞｷｹﾝ","kana_city":"ﾉﾍﾞｵｶｼ","kana_address":"ﾜｶﾊﾞﾏﾁ","pref":"宮崎県","city":"延岡市","address":"若葉町"},
{"zip_code":"8821100","kana_pref":"ﾐﾔｻﾞｷｹﾝ","kana_city":"ﾆｼｳｽｷｸﾞﾝﾀｶﾁﾎﾁｮｳ","kana_address":"","pref":"宮崎県","city":"西臼杵郡高千穂町","address":""},
{"zip_code":"8821621","kana_pref":"ﾐﾔｻﾞｷｹﾝ","kana_city":"ﾆｼｳｽｷｸﾞﾝﾀｶﾁﾎﾁｮｳ","kana_address":"ｲﾜﾄ","pref":"宮崎県","city":"西臼杵郡高千穂町","address":"岩戸"},
{"zip_code":"8821102","kana_pref":"ﾐﾔｻﾞｷｹﾝ","kana_city":"ﾆｼｳｽｷｸﾞﾝﾀｶﾁﾎﾁｮｳ","kana_address":"ｵｼｶﾀ","pref":"宮崎県","city":"西臼杵郡高千穂町","address":"押方"},
{"zip_code":"8821622","kana_pref":"ﾐﾔｻﾞｷｹﾝ","kana_city":"ﾆｼｳｽｷｸﾞﾝﾀｶﾁﾎﾁｮｳ","kana_address":"ｶﾐｲﾜﾄ","pref":"宮崎県","city":"西臼杵郡高千穂町","address":"上岩戸"},
{"zip_code":"8821411","kana_pref":"ﾐﾔｻﾞｷｹﾝ","kana_city":"ﾆｼｳｽｷｸﾞﾝﾀｶﾁﾎﾁｮｳ","kana_address":"ｶﾐﾉ","pref":"宮崎県","city":"西臼杵郡高千穂町","address":"上野"},
{"zip_code":"8821414","kana_pref":"ﾐﾔｻﾞｷｹﾝ","kana_city":"ﾆｼｳｽｷｸﾞﾝﾀｶﾁﾎﾁｮｳ","kana_address":"ｶﾜﾁ","pref":"宮崎県","city":"西臼杵郡高千穂町","address":"河内"},
{"zip_code":"8821415","kana_pref":"ﾐﾔｻﾞｷｹﾝ","kana_city":"ﾆｼｳｽｷｸﾞﾝﾀｶﾁﾎﾁｮｳ","kana_address":"ｺﾞｶｼｮ","pref":"宮崎県","city":"西臼杵郡高千穂町","address":"五ケ所"},
{"zip_code":"8821412","kana_pref":"ﾐﾔｻﾞｷｹﾝ","kana_city":"ﾆｼｳｽｷｸﾞﾝﾀｶﾁﾎﾁｮｳ","kana_address":"ｼﾓﾉ","pref":"宮崎県","city":"西臼杵郡高千穂町","address":"下野"},
{"zip_code":"8821413","kana_pref":"ﾐﾔｻﾞｷｹﾝ","kana_city":"ﾆｼｳｽｷｸﾞﾝﾀｶﾁﾎﾁｮｳ","kana_address":"ﾀﾊﾞﾙ","pref":"宮崎県","city":"西臼杵郡高千穂町","address":"田原"},
{"zip_code":"8821101","kana_pref":"ﾐﾔｻﾞｷｹﾝ","kana_city":"ﾆｼｳｽｷｸﾞﾝﾀｶﾁﾎﾁｮｳ","kana_address":"ﾐﾀｲ","pref":"宮崎県","city":"西臼杵郡高千穂町","address":"三田井"},
{"zip_code":"8821103","kana_pref":"ﾐﾔｻﾞｷｹﾝ","kana_city":"ﾆｼｳｽｷｸﾞﾝﾀｶﾁﾎﾁｮｳ","kana_address":"ﾑｺｳﾔﾏ","pref":"宮崎県","city":"西臼杵郡高千穂町","address":"向山"},
{"zip_code":"8820400","kana_pref":"ﾐﾔｻﾞｷｹﾝ","kana_city":"ﾆｼｳｽｷｸﾞﾝﾋﾉｶｹﾞﾁｮｳ","kana_address":"","pref":"宮崎県","city":"西臼杵郡日之影町","address":""},
{"zip_code":"8820302","kana_pref":"ﾐﾔｻﾞｷｹﾝ","kana_city":"ﾆｼｳｽｷｸﾞﾝﾋﾉｶｹﾞﾁｮｳ","kana_address":"ｲﾜｲｶﾜ","pref":"宮崎県","city":"西臼杵郡日之影町","address":"岩井川"},
{"zip_code":"8820402","kana_pref":"ﾐﾔｻﾞｷｹﾝ","kana_city":"ﾆｼｳｽｷｸﾞﾝﾋﾉｶｹﾞﾁｮｳ","kana_address":"ｲﾜｲｶﾜ","pref":"宮崎県","city":"西臼杵郡日之影町","address":"岩井川"},
{"zip_code":"8820301","kana_pref":"ﾐﾔｻﾞｷｹﾝ","kana_city":"ﾆｼｳｽｷｸﾞﾝﾋﾉｶｹﾞﾁｮｳ","kana_address":"ﾅﾅｵﾘ","pref":"宮崎県","city":"西臼杵郡日之影町","address":"七折"},
{"zip_code":"8820401","kana_pref":"ﾐﾔｻﾞｷｹﾝ","kana_city":"ﾆｼｳｽｷｸﾞﾝﾋﾉｶｹﾞﾁｮｳ","kana_address":"ﾅﾅｵﾘ","pref":"宮崎県","city":"西臼杵郡日之影町","address":"七折"},
{"zip_code":"8820403","kana_pref":"ﾐﾔｻﾞｷｹﾝ","kana_city":"ﾆｼｳｽｷｸﾞﾝﾋﾉｶｹﾞﾁｮｳ","kana_address":"ﾐﾀﾃ","pref":"宮崎県","city":"西臼杵郡日之影町","address":"見立"},
{"zip_code":"8820304","kana_pref":"ﾐﾔｻﾞｷｹﾝ","kana_city":"ﾆｼｳｽｷｸﾞﾝﾋﾉｶｹﾞﾁｮｳ","kana_address":"ﾜｹｼﾞｮｳ","pref":"宮崎県","city":"西臼杵郡日之影町","address":"分城"},
{"zip_code":"8821200","kana_pref":"ﾐﾔｻﾞｷｹﾝ","kana_city":"ﾆｼｳｽｷｸﾞﾝｺﾞｶｾﾁｮｳ","kana_address":"","pref":"宮崎県","city":"西臼杵郡五ヶ瀬町","address":""},
{"zip_code":"8821201","kana_pref":"ﾐﾔｻﾞｷｹﾝ","kana_city":"ﾆｼｳｽｷｸﾞﾝｺﾞｶｾﾁｮｳ","kana_address":"ｸﾗｵｶ","pref":"宮崎県","city":"西臼杵郡五ヶ瀬町","address":"鞍岡"},
{"zip_code":"8821202","kana_pref":"ﾐﾔｻﾞｷｹﾝ","kana_city":"ﾆｼｳｽｷｸﾞﾝｺﾞｶｾﾁｮｳ","kana_address":"ｸﾜﾉｳﾁ","pref":"宮崎県","city":"西臼杵郡五ヶ瀬町","address":"桑野内"},
{"zip_code":"8821203","kana_pref":"ﾐﾔｻﾞｷｹﾝ","kana_city":"ﾆｼｳｽｷｸﾞﾝｺﾞｶｾﾁｮｳ","kana_address":"ｻﾝｶｼｮ","pref":"宮崎県","city":"西臼杵郡五ヶ瀬町","address":"三ヶ所"}]}