{"zip_code":[
{"zip_code":"8830000","kana_pref":"ﾐﾔｻﾞｷｹﾝ","kana_city":"ﾋｭｳｶﾞｼ","kana_address":"","pref":"宮崎県","city":"日向市","address":""},
{"zip_code":"8830003","kana_pref":"ﾐﾔｻﾞｷｹﾝ","kana_city":"ﾋｭｳｶﾞｼ","kana_address":"ｲｾｶﾞﾊﾏ","pref":"宮崎県","city":"日向市","address":"伊勢ケ浜"},
{"zip_code":"8830044","kana_pref":"ﾐﾔｻﾞｷｹﾝ","kana_city":"ﾋｭｳｶﾞｼ","kana_address":"ｳｴﾏﾁ","pref":"宮崎県","city":"日向市","address":"上町"},
{"zip_code":"8830012","kana_pref":"ﾐﾔｻﾞｷｹﾝ","kana_city":"ﾋｭｳｶﾞｼ","kana_address":"ｴﾗﾁｮｳ","pref":"宮崎県","city":"日向市","address":"江良町"},
{"zip_code":"8830053","kana_pref":"ﾐﾔｻﾞｷｹﾝ","kana_city":"ﾋｭｳｶﾞｼ","kana_address":"ｶｼﾞｷﾁｮｳ","pref":"宮崎県","city":"日向市","address":"梶木町"},
{"zip_code":"8830066","kana_pref":"ﾐﾔｻﾞｷｹﾝ","kana_city":"ﾋｭｳｶﾞｼ","kana_address":"ｶﾒｻﾞｷ","pref":"宮崎県","city":"日向市","address":"亀崎"},
{"zip_code":"8830068","kana_pref":"ﾐﾔｻﾞｷｹﾝ","kana_city":"ﾋｭｳｶﾞｼ","kana_address":"ｶﾒｻﾞｷﾆｼ","pref":"宮崎県","city":"日向市","address":"亀崎西"},
{"zip_code":"8830067","kana_pref":"ﾐﾔｻﾞｷｹﾝ","kana_city":"ﾋｭｳｶﾞｼ","kana_address":"ｶﾒｻﾞｷﾋｶﾞｼ","pref":"宮崎県","city":"日向市","address":"亀崎東"},
{"zip_code":"8830041","kana_pref":"ﾐﾔｻﾞｷｹﾝ","kana_city":"ﾋｭｳｶﾞｼ","kana_address":"ｷﾀﾏﾁ","pref":"宮崎県","city":"日向市","address":"北町"},
{"zip_code":"8830038","kana_pref":"ﾐﾔｻﾞｷｹﾝ","kana_city":"ﾋｭｳｶﾞｼ","kana_address":"ｹﾞｲﾖｳｴﾝ","pref":"宮崎県","city":"日向市","address":"迎洋園"},
{"zip_code":"8830021","kana_pref":"ﾐﾔｻﾞｷｹﾝ","kana_city":"ﾋｭｳｶﾞｼ","kana_address":"ｻﾞｲｺｳｼﾞ","pref":"宮崎県","city":"日向市","address":"財光寺"},
{"zip_code":"8830024","kana_pref":"ﾐﾔｻﾞｷｹﾝ","kana_city":"ﾋｭｳｶﾞｼ","kana_address":"ｻﾞｲｺｳｼﾞｵｳｶﾝﾁｮｳ","pref":"宮崎県","city":"日向市","address":"財光寺往還町"},
{"zip_code":"8830023","kana_pref":"ﾐﾔｻﾞｷｹﾝ","kana_city":"ﾋｭｳｶﾞｼ","kana_address":"ｻﾞｲｺｳｼﾞｵｷﾏﾁ","pref":"宮崎県","city":"日向市","address":"財光寺沖町"},
{"zip_code":"8830033","kana_pref":"ﾐﾔｻﾞｷｹﾝ","kana_city":"ﾋｭｳｶﾞｼ","kana_address":"ｼｵﾐ","pref":"宮崎県","city":"日向市","address":"塩見"},
{"zip_code":"8830013","kana_pref":"ﾐﾔｻﾞｷｹﾝ","kana_city":"ﾋｭｳｶﾞｼ","kana_address":"ｼﾝｾｲﾁｮｳ","pref":"宮崎県","city":"日向市","address":"新生町"},
{"zip_code":"8830011","kana_pref":"ﾐﾔｻﾞｷｹﾝ","kana_city":"ﾋｭｳｶﾞｼ","kana_address":"ｿﾈﾁｮｳ","pref":"宮崎県","city":"日向市","address":"曽根町"},
{"zip_code":"8830061","kana_pref":"ﾐﾔｻﾞｷｹﾝ","kana_city":"ﾋｭｳｶﾞｼ","kana_address":"ﾀﾞｲｵｳﾁｮｳ","pref":"宮崎県","city":"日向市","address":"大王町"},
{"zip_code":"8830042","kana_pref":"ﾐﾔｻﾞｷｹﾝ","kana_city":"ﾋｭｳｶﾞｼ","kana_address":"ﾀｶｻｺﾞﾁｮｳ","pref":"宮崎県","city":"日向市","address":"高砂町"},
{"zip_code":"8830063","kana_pref":"ﾐﾔｻﾞｷｹﾝ","kana_city":"ﾋｭｳｶﾞｼ","kana_address":"ﾀｹｼﾏﾁｮｳ","pref":"宮崎県","city":"日向市","address":"竹島町"},
{"zip_code":"8830052","kana_pref":"ﾐﾔｻﾞｷｹﾝ","kana_city":"ﾋｭｳｶﾞｼ","kana_address":"ﾂﾙﾏﾁ","pref":"宮崎県","city":"日向市","address":"鶴町"},
{"zip_code":"8830213","kana_pref":"ﾐﾔｻﾞｷｹﾝ","kana_city":"ﾋｭｳｶﾞｼ","kana_address":"ﾄｳｺﾞｳﾁｮｳｼﾓｻﾝｹﾞ","pref":"宮崎県","city":"日向市","address":"東郷町下三ケ"},
{"zip_code":"8830211","kana_pref":"ﾐﾔｻﾞｷｹﾝ","kana_city":"ﾋｭｳｶﾞｼ","kana_address":"ﾄｳｺﾞｳﾁｮｳﾂﾎﾞﾔ","pref":"宮崎県","city":"日向市","address":"東郷町坪谷"},
{"zip_code":"8830108","kana_pref":"ﾐﾔｻﾞｷｹﾝ","kana_city":"ﾋｭｳｶﾞｼ","kana_address":"ﾄｳｺﾞｳﾁｮｳﾊｴﾊﾞﾙｻｺﾉｳﾁ","pref":"宮崎県","city":"日向市","address":"東郷町八重原迫野内"},
{"zip_code":"8830109","kana_pref":"ﾐﾔｻﾞｷｹﾝ","kana_city":"ﾋｭｳｶﾞｼ","kana_address":"ﾄｳｺﾞｳﾁｮｳﾔﾏｹﾞ","pref":"宮崎県","city":"日向市","address":"東郷町山陰"},
{"zip_code":"8830101","kana_pref":"ﾐﾔｻﾞｷｹﾝ","kana_city":"ﾋｭｳｶﾞｼ","kana_address":"ﾄｳｺﾞｳﾁｮｳﾔﾏｹﾞｵﾂ","pref":"宮崎県","city":"日向市","address":"東郷町山陰乙"},
{"zip_code":"8830105","kana_pref":"ﾐﾔｻﾞｷｹﾝ","kana_city":"ﾋｭｳｶﾞｼ","kana_address":"ﾄｳｺﾞｳﾁｮｳﾔﾏｹﾞｷ","pref":"宮崎県","city":"日向市","address":"東郷町山陰己"},
{"zip_code":"8830107","kana_pref":"ﾐﾔｻﾞｷｹﾝ","kana_city":"ﾋｭｳｶﾞｼ","kana_address":"ﾄｳｺﾞｳﾁｮｳﾔﾏｹﾞｺｳ","pref":"宮崎県","city":"日向市","address":"東郷町山陰庚"},
{"zip_code":"8830106","kana_pref":"ﾐﾔｻﾞｷｹﾝ","kana_city":"ﾋｭｳｶﾞｼ","kana_address":"ﾄｳｺﾞｳﾁｮｳﾔﾏｹﾞｼﾝ","pref":"宮崎県","city":"日向市","address":"東郷町山陰辛"},
{"zip_code":"8830103","kana_pref":"ﾐﾔｻﾞｷｹﾝ","kana_city":"ﾋｭｳｶﾞｼ","kana_address":"ﾄｳｺﾞｳﾁｮｳﾔﾏｹﾞﾃｲ","pref":"宮崎県","city":"日向市","address":"東郷町山陰丁"},
{"zip_code":"8830102","kana_pref":"ﾐﾔｻﾞｷｹﾝ","kana_city":"ﾋｭｳｶﾞｼ","kana_address":"ﾄｳｺﾞｳﾁｮｳﾔﾏｹﾞﾍｲ","pref":"宮崎県","city":"日向市","address":"東郷町山陰丙"},
{"zip_code":"8830104","kana_pref":"ﾐﾔｻﾞｷｹﾝ","kana_city":"ﾋｭｳｶﾞｼ","kana_address":"ﾄｳｺﾞｳﾁｮｳﾔﾏｹﾞﾎﾞ","pref":"宮崎県","city":"日向市","address":"東郷町山陰戊"},
{"zip_code":"8830212","kana_pref":"ﾐﾔｻﾞｷｹﾝ","kana_city":"ﾋｭｳｶﾞｼ","kana_address":"ﾄｳｺﾞｳﾁｮｳﾔﾏｹﾞﾎﾞ","pref":"宮崎県","city":"日向市","address":"東郷町山陰戊"},
{"zip_code":"8830034","kana_pref":"ﾐﾔｻﾞｷｹﾝ","kana_city":"ﾋｭｳｶﾞｼ","kana_address":"ﾄﾐﾀｶ","pref":"宮崎県","city":"日向市","address":"富高"},
{"zip_code":"8830005","kana_pref":"ﾐﾔｻﾞｷｹﾝ","kana_city":"ﾋｭｳｶﾞｼ","kana_address":"ﾅｶﾎﾘﾁｮｳ","pref":"宮崎県","city":"日向市","address":"中堀町"},
{"zip_code":"8830046","kana_pref":"ﾐﾔｻﾞｷｹﾝ","kana_city":"ﾋｭｳｶﾞｼ","kana_address":"ﾅｶﾏﾁ","pref":"宮崎県","city":"日向市","address":"中町"},
{"zip_code":"8830015","kana_pref":"ﾐﾔｻﾞｷｹﾝ","kana_city":"ﾋｭｳｶﾞｼ","kana_address":"ﾅｶﾞｴﾁｮｳ","pref":"宮崎県","city":"日向市","address":"永江町"},
{"zip_code":"8830004","kana_pref":"ﾐﾔｻﾞｷｹﾝ","kana_city":"ﾋｭｳｶﾞｼ","kana_address":"ﾊﾏﾏﾁ","pref":"宮崎県","city":"日向市","address":"浜町"},
{"zip_code":"8830014","kana_pref":"ﾐﾔｻﾞｷｹﾝ","kana_city":"ﾋｭｳｶﾞｼ","kana_address":"ﾊﾗﾏﾁ","pref":"宮崎県","city":"日向市","address":"原町"},
{"zip_code":"8830035","kana_pref":"ﾐﾔｻﾞｷｹﾝ","kana_city":"ﾋｭｳｶﾞｼ","kana_address":"ﾊﾙﾊﾗﾁｮｳ","pref":"宮崎県","city":"日向市","address":"春原町"},
{"zip_code":"8830062","kana_pref":"ﾐﾔｻﾞｷｹﾝ","kana_city":"ﾋｭｳｶﾞｼ","kana_address":"ﾋﾁﾔ","pref":"宮崎県","city":"日向市","address":"日知屋"},
{"zip_code":"8830064","kana_pref":"ﾐﾔｻﾞｷｹﾝ","kana_city":"ﾋｭｳｶﾞｼ","kana_address":"ﾋﾁﾔﾌﾙﾀﾁｮｳ","pref":"宮崎県","city":"日向市","address":"日知屋古田町"},
{"zip_code":"8830022","kana_pref":"ﾐﾔｻﾞｷｹﾝ","kana_city":"ﾋｭｳｶﾞｼ","kana_address":"ﾋﾗｲﾜ","pref":"宮崎県","city":"日向市","address":"平岩"},
{"zip_code":"8830031","kana_pref":"ﾐﾔｻﾞｷｹﾝ","kana_city":"ﾋｭｳｶﾞｼ","kana_address":"ﾋﾗﾁｮｳ","pref":"宮崎県","city":"日向市","address":"比良町"},
{"zip_code":"8830002","kana_pref":"ﾐﾔｻﾞｷｹﾝ","kana_city":"ﾋｭｳｶﾞｼ","kana_address":"ﾋﾗﾉﾁｮｳ","pref":"宮崎県","city":"日向市","address":"平野町"},
{"zip_code":"8830037","kana_pref":"ﾐﾔｻﾞｷｹﾝ","kana_city":"ﾋｭｳｶﾞｼ","kana_address":"ﾌﾄﾞｳｼﾞ","pref":"宮崎県","city":"日向市","address":"不動寺"},
{"zip_code":"8830065","kana_pref":"ﾐﾔｻﾞｷｹﾝ","kana_city":"ﾋｭｳｶﾞｼ","kana_address":"ﾌﾅﾊﾞﾁｮｳ","pref":"宮崎県","city":"日向市","address":"船場町"},
{"zip_code":"8830001","kana_pref":"ﾐﾔｻﾞｷｹﾝ","kana_city":"ﾋｭｳｶﾞｼ","kana_address":"ﾎｿｼﾏ","pref":"宮崎県","city":"日向市","address":"細島"},
{"zip_code":"8830045","kana_pref":"ﾐﾔｻﾞｷｹﾝ","kana_city":"ﾋｭｳｶﾞｼ","kana_address":"ﾎﾝﾏﾁ","pref":"宮崎県","city":"日向市","address":"本町"},
{"zip_code":"8830036","kana_pref":"ﾐﾔｻﾞｷｹﾝ","kana_city":"ﾋｭｳｶﾞｼ","kana_address":"ﾐﾅﾐﾏﾁ","pref":"宮崎県","city":"日向市","address":"南町"},
{"zip_code":"8830043","kana_pref":"ﾐﾔｻﾞｷｹﾝ","kana_city":"ﾋｭｳｶﾞｼ","kana_address":"ﾐﾔｺﾏﾁ","pref":"宮崎県","city":"日向市","address":"都町"},
{"zip_code":"8830051","kana_pref":"ﾐﾔｻﾞｷｹﾝ","kana_city":"ﾋｭｳｶﾞｼ","kana_address":"ﾑｶｴﾁｮｳ","pref":"宮崎県","city":"日向市","address":"向江町"},
{"zip_code":"8830032","kana_pref":"ﾐﾔｻﾞｷｹﾝ","kana_city":"ﾋｭｳｶﾞｼ","kana_address":"ﾔﾏｼﾀﾁｮｳ","pref":"宮崎県","city":"日向市","address":"山下町"},
{"zip_code":"8830006","kana_pref":"ﾐﾔｻﾞｷｹﾝ","kana_city":"ﾋｭｳｶﾞｼ","kana_address":"ﾔﾏﾃﾁｮｳ","pref":"宮崎県","city":"日向市","address":"山手町"},
{"zip_code":"8831300","kana_pref":"ﾐﾔｻﾞｷｹﾝ","kana_city":"ﾋｶﾞｼｳｽｷｸﾞﾝﾓﾛﾂｶｿﾝ","kana_address":"","pref":"宮崎県","city":"東臼杵郡諸塚村","address":""},
{"zip_code":"8831301","kana_pref":"ﾐﾔｻﾞｷｹﾝ","kana_city":"ﾋｶﾞｼｳｽｷｸﾞﾝﾓﾛﾂｶｿﾝ","kana_address":"ｴｼﾛ","pref":"宮崎県","city":"東臼杵郡諸塚村","address":"家代"},
{"zip_code":"8831402","kana_pref":"ﾐﾔｻﾞｷｹﾝ","kana_city":"ﾋｶﾞｼｳｽｷｸﾞﾝﾓﾛﾂｶｿﾝ","kana_address":"ﾅﾅﾂﾔﾏ","pref":"宮崎県","city":"東臼杵郡諸塚村","address":"七ツ山"},
{"zip_code":"8831302","kana_pref":"ﾐﾔｻﾞｷｹﾝ","kana_city":"ﾋｶﾞｼｳｽｷｸﾞﾝﾓﾛﾂｶｿﾝ","kana_address":"ﾅﾅﾂﾔﾏ","pref":"宮崎県","city":"東臼杵郡諸塚村","address":"七ツ山"},
{"zip_code":"8831600","kana_pref":"ﾐﾔｻﾞｷｹﾝ","kana_city":"ﾋｶﾞｼｳｽｷｸﾞﾝｼｲﾊﾞｿﾝ","kana_address":"","pref":"宮崎県","city":"東臼杵郡椎葉村","address":""},
{"zip_code":"8830402","kana_pref":"ﾐﾔｻﾞｷｹﾝ","kana_city":"ﾋｶﾞｼｳｽｷｸﾞﾝｼｲﾊﾞｿﾝ","kana_address":"ｵｵｶﾜｳﾁ","pref":"宮崎県","city":"東臼杵郡椎葉村","address":"大河内"},
{"zip_code":"8831602","kana_pref":"ﾐﾔｻﾞｷｹﾝ","kana_city":"ﾋｶﾞｼｳｽｷｸﾞﾝｼｲﾊﾞｿﾝ","kana_address":"ｵｵｶﾜｳﾁ","pref":"宮崎県","city":"東臼杵郡椎葉村","address":"大河内"},
{"zip_code":"8831601","kana_pref":"ﾐﾔｻﾞｷｹﾝ","kana_city":"ﾋｶﾞｼｳｽｷｸﾞﾝｼｲﾊﾞｿﾝ","kana_address":"ｼﾓﾌｸﾗ","pref":"宮崎県","city":"東臼杵郡椎葉村","address":"下福良"},
{"zip_code":"8831603","kana_pref":"ﾐﾔｻﾞｷｹﾝ","kana_city":"ﾋｶﾞｼｳｽｷｸﾞﾝｼｲﾊﾞｿﾝ","kana_address":"ﾌﾄﾞﾉ","pref":"宮崎県","city":"東臼杵郡椎葉村","address":"不土野"},
{"zip_code":"8831604","kana_pref":"ﾐﾔｻﾞｷｹﾝ","kana_city":"ﾋｶﾞｼｳｽｷｸﾞﾝｼｲﾊﾞｿﾝ","kana_address":"ﾏﾂｵ","pref":"宮崎県","city":"東臼杵郡椎葉村","address":"松尾"},
{"zip_code":"8831100","kana_pref":"ﾐﾔｻﾞｷｹﾝ","kana_city":"ﾋｶﾞｼｳｽｷｸﾞﾝﾐｻﾄﾁｮｳ","kana_address":"","pref":"宮崎県","city":"東臼杵郡美郷町","address":""},
{"zip_code":"8831212","kana_pref":"ﾐﾔｻﾞｷｹﾝ","kana_city":"ﾋｶﾞｼｳｽｷｸﾞﾝﾐｻﾄﾁｮｳ","kana_address":"ｻｲｺﾞｳｸｵﾊﾞﾙ","pref":"宮崎県","city":"東臼杵郡美郷町","address":"西郷区小原"},
{"zip_code":"8831101","kana_pref":"ﾐﾔｻﾞｷｹﾝ","kana_city":"ﾋｶﾞｼｳｽｷｸﾞﾝﾐｻﾄﾁｮｳ","kana_address":"ｻｲｺﾞｳｸﾀｼﾛ","pref":"宮崎県","city":"東臼杵郡美郷町","address":"西郷区田代"},
{"zip_code":"8831102","kana_pref":"ﾐﾔｻﾞｷｹﾝ","kana_city":"ﾋｶﾞｼｳｽｷｸﾞﾝﾐｻﾄﾁｮｳ","kana_address":"ｻｲｺﾞｳｸﾀﾃｲｼ","pref":"宮崎県","city":"東臼杵郡美郷町","address":"西郷区立石"},
{"zip_code":"8831211","kana_pref":"ﾐﾔｻﾞｷｹﾝ","kana_city":"ﾋｶﾞｼｳｽｷｸﾞﾝﾐｻﾄﾁｮｳ","kana_address":"ｻｲｺﾞｳｸﾔﾏｻﾝｶﾞ","pref":"宮崎県","city":"東臼杵郡美郷町","address":"西郷区山三ケ"},
{"zip_code":"8830303","kana_pref":"ﾐﾔｻﾞｷｹﾝ","kana_city":"ﾋｶﾞｼｳｽｷｸﾞﾝﾐｻﾄﾁｮｳ","kana_address":"ﾅﾝｺﾞｳｸｶﾐﾄﾞｶﾞﾜ","pref":"宮崎県","city":"東臼杵郡美郷町","address":"南郷区上渡川"},
{"zip_code":"8830304","kana_pref":"ﾐﾔｻﾞｷｹﾝ","kana_city":"ﾋｶﾞｼｳｽｷｸﾞﾝﾐｻﾄﾁｮｳ","kana_address":"ﾅﾝｺﾞｳｸｷｼﾞﾉ","pref":"宮崎県","city":"東臼杵郡美郷町","address":"南郷区鬼神野"},
{"zip_code":"8830302","kana_pref":"ﾐﾔｻﾞｷｹﾝ","kana_city":"ﾋｶﾞｼｳｽｷｸﾞﾝﾐｻﾄﾁｮｳ","kana_address":"ﾅﾝｺﾞｳｸﾅｶﾄﾞｶﾞﾜ","pref":"宮崎県","city":"東臼杵郡美郷町","address":"南郷区中渡川"},
{"zip_code":"8830306","kana_pref":"ﾐﾔｻﾞｷｹﾝ","kana_city":"ﾋｶﾞｼｳｽｷｸﾞﾝﾐｻﾄﾁｮｳ","kana_address":"ﾅﾝｺﾞｳｸﾐｶﾄﾞ","pref":"宮崎県","city":"東臼杵郡美郷町","address":"南郷区神門"},
{"zip_code":"8830301","kana_pref":"ﾐﾔｻﾞｷｹﾝ","kana_city":"ﾋｶﾞｼｳｽｷｸﾞﾝﾐｻﾄﾁｮｳ","kana_address":"ﾅﾝｺﾞｳｸﾐｽﾞｼﾀﾞﾆ","pref":"宮崎県","city":"東臼杵郡美郷町","address":"南郷区水清谷"},
{"zip_code":"8830305","kana_pref":"ﾐﾔｻﾞｷｹﾝ","kana_city":"ﾋｶﾞｼｳｽｷｸﾞﾝﾐｻﾄﾁｮｳ","kana_address":"ﾅﾝｺﾞｳｸﾔﾏｻﾝｶﾞ","pref":"宮崎県","city":"東臼杵郡美郷町","address":"南郷区山三ケ"}]}