{"zip_code":[
{"zip_code":"8840000","kana_pref":"ﾐﾔｻﾞｷｹﾝ","kana_city":"ｺﾕｸﾞﾝﾀｶﾅﾍﾞﾁｮｳ","kana_address":"","pref":"宮崎県","city":"児湯郡高鍋町","address":""},
{"zip_code":"8840006","kana_pref":"ﾐﾔｻﾞｷｹﾝ","kana_city":"ｺﾕｸﾞﾝﾀｶﾅﾍﾞﾁｮｳ","kana_address":"ｳﾜｴ","pref":"宮崎県","city":"児湯郡高鍋町","address":"上江"},
{"zip_code":"8840004","kana_pref":"ﾐﾔｻﾞｷｹﾝ","kana_city":"ｺﾕｸﾞﾝﾀｶﾅﾍﾞﾁｮｳ","kana_address":"ｶｸﾞﾁｳﾗ","pref":"宮崎県","city":"児湯郡高鍋町","address":"蚊口浦"},
{"zip_code":"8840002","kana_pref":"ﾐﾔｻﾞｷｹﾝ","kana_city":"ｺﾕｸﾞﾝﾀｶﾅﾍﾞﾁｮｳ","kana_address":"ｷﾀﾀｶﾅﾍﾞ","pref":"宮崎県","city":"児湯郡高鍋町","address":"北高鍋"},
{"zip_code":"8840001","kana_pref":"ﾐﾔｻﾞｷｹﾝ","kana_city":"ｺﾕｸﾞﾝﾀｶﾅﾍﾞﾁｮｳ","kana_address":"ﾀｶﾅﾍﾞﾏﾁ","pref":"宮崎県","city":"児湯郡高鍋町","address":"高鍋町"},
{"zip_code":"8840003","kana_pref":"ﾐﾔｻﾞｷｹﾝ","kana_city":"ｺﾕｸﾞﾝﾀｶﾅﾍﾞﾁｮｳ","kana_address":"ﾐﾅﾐﾀｶﾅﾍﾞ","pref":"宮崎県","city":"児湯郡高鍋町","address":"南高鍋"},
{"zip_code":"8840005","kana_pref":"ﾐﾔｻﾞｷｹﾝ","kana_city":"ｺﾕｸﾞﾝﾀｶﾅﾍﾞﾁｮｳ","kana_address":"ﾓﾁﾀﾞ","pref":"宮崎県","city":"児湯郡高鍋町","address":"持田"},
{"zip_code":"8840100","kana_pref":"ﾐﾔｻﾞｷｹﾝ","kana_city":"ｺﾕｸﾞﾝｷｼﾞｮｳﾁｮｳ","kana_address":"","pref":"宮崎県","city":"児湯郡木城町","address":""},
{"zip_code":"8840104","kana_pref":"ﾐﾔｻﾞｷｹﾝ","kana_city":"ｺﾕｸﾞﾝｷｼﾞｮｳﾁｮｳ","kana_address":"ｲｼｶﾜｳﾁ","pref":"宮崎県","city":"児湯郡木城町","address":"石河内"},
{"zip_code":"8840103","kana_pref":"ﾐﾔｻﾞｷｹﾝ","kana_city":"ｺﾕｸﾞﾝｷｼﾞｮｳﾁｮｳ","kana_address":"ｶﾜﾊﾞﾙ","pref":"宮崎県","city":"児湯郡木城町","address":"川原"},
{"zip_code":"8840102","kana_pref":"ﾐﾔｻﾞｷｹﾝ","kana_city":"ｺﾕｸﾞﾝｷｼﾞｮｳﾁｮｳ","kana_address":"ｼｲﾉｷ","pref":"宮崎県","city":"児湯郡木城町","address":"椎木"},
{"zip_code":"8840101","kana_pref":"ﾐﾔｻﾞｷｹﾝ","kana_city":"ｺﾕｸﾞﾝｷｼﾞｮｳﾁｮｳ","kana_address":"ﾀｶｼﾞｮｳ","pref":"宮崎県","city":"児湯郡木城町","address":"高城"},
{"zip_code":"8840105","kana_pref":"ﾐﾔｻﾞｷｹﾝ","kana_city":"ｺﾕｸﾞﾝｷｼﾞｮｳﾁｮｳ","kana_address":"ﾅｶﾉﾏﾀ","pref":"宮崎県","city":"児湯郡木城町","address":"中之又"}]}