{"zip_code":[
{"zip_code":"8850000","kana_pref":"ﾐﾔｻﾞｷｹﾝ","kana_city":"ﾐﾔｺﾉｼﾞｮｳｼ","kana_address":"","pref":"宮崎県","city":"都城市","address":""},
{"zip_code":"8850034","kana_pref":"ﾐﾔｻﾞｷｹﾝ","kana_city":"ﾐﾔｺﾉｼﾞｮｳｼ","kana_address":"ｱﾔﾒﾊﾞﾙﾁｮｳ","pref":"宮崎県","city":"都城市","address":"菖蒲原町"},
{"zip_code":"8850041","kana_pref":"ﾐﾔｻﾞｷｹﾝ","kana_city":"ﾐﾔｺﾉｼﾞｮｳｼ","kana_address":"ｲﾁﾏﾝｼﾞｮｳﾁｮｳ","pref":"宮崎県","city":"都城市","address":"一万城町"},
{"zip_code":"8850064","kana_pref":"ﾐﾔｻﾞｷｹﾝ","kana_city":"ﾐﾔｺﾉｼﾞｮｳｼ","kana_address":"ｲﾏﾏﾁ","pref":"宮崎県","city":"都城市","address":"今町"},
{"zip_code":"8851101","kana_pref":"ﾐﾔｻﾞｷｹﾝ","kana_city":"ﾐﾔｺﾉｼﾞｮｳｼ","kana_address":"ｲﾜﾐﾂﾁｮｳ","pref":"宮崎県","city":"都城市","address":"岩満町"},
{"zip_code":"8850019","kana_pref":"ﾐﾔｻﾞｷｹﾝ","kana_city":"ﾐﾔｺﾉｼﾞｮｳｼ","kana_address":"ｲﾜﾖｼ","pref":"宮崎県","city":"都城市","address":"祝吉"},
{"zip_code":"8850014","kana_pref":"ﾐﾔｻﾞｷｹﾝ","kana_city":"ﾐﾔｺﾉｼﾞｮｳｼ","kana_address":"ｲﾜﾖｼﾁｮｳ","pref":"宮崎県","city":"都城市","address":"祝吉町"},
{"zip_code":"8850063","kana_pref":"ﾐﾔｻﾞｷｹﾝ","kana_city":"ﾐﾔｺﾉｼﾞｮｳｼ","kana_address":"ｳﾒｷﾀﾁｮｳ","pref":"宮崎県","city":"都城市","address":"梅北町"},
{"zip_code":"8850062","kana_pref":"ﾐﾔｻﾞｷｹﾝ","kana_city":"ﾐﾔｺﾉｼﾞｮｳｼ","kana_address":"ｵｵｲﾜﾀﾞﾁｮｳ","pref":"宮崎県","city":"都城市","address":"大岩田町"},
{"zip_code":"8850112","kana_pref":"ﾐﾔｻﾞｷｹﾝ","kana_city":"ﾐﾔｺﾉｼﾞｮｳｼ","kana_address":"ｵﾄﾎﾞｳﾁｮｳ","pref":"宮崎県","city":"都城市","address":"乙房町"},
{"zip_code":"8850074","kana_pref":"ﾐﾔｻﾞｷｹﾝ","kana_city":"ﾐﾔｺﾉｼﾞｮｳｼ","kana_address":"ｶｲﾓﾄﾁｮｳ","pref":"宮崎県","city":"都城市","address":"甲斐元町"},
{"zip_code":"8850111","kana_pref":"ﾐﾔｻﾞｷｹﾝ","kana_city":"ﾐﾔｺﾉｼﾞｮｳｼ","kana_address":"ｶｼﾉﾁｮｳ","pref":"宮崎県","city":"都城市","address":"菓子野町"},
{"zip_code":"8850001","kana_pref":"ﾐﾔｻﾞｷｹﾝ","kana_city":"ﾐﾔｺﾉｼﾞｮｳｼ","kana_address":"ｶﾅﾀﾞﾁｮｳ","pref":"宮崎県","city":"都城市","address":"金田町"},
{"zip_code":"8850012","kana_pref":"ﾐﾔｻﾞｷｹﾝ","kana_city":"ﾐﾔｺﾉｼﾞｮｳｼ","kana_address":"ｶﾐｶﾜﾋｶﾞｼ","pref":"宮崎県","city":"都城市","address":"上川東"},
{"zip_code":"8851103","kana_pref":"ﾐﾔｻﾞｷｹﾝ","kana_city":"ﾐﾔｺﾉｼﾞｮｳｼ","kana_address":"ｶﾐｽﾞﾙﾁｮｳ","pref":"宮崎県","city":"都城市","address":"上水流町"},
{"zip_code":"8850042","kana_pref":"ﾐﾔｻﾞｷｹﾝ","kana_city":"ﾐﾔｺﾉｼﾞｮｳｼ","kana_address":"ｶﾐﾅｶﾞｴﾁｮｳ","pref":"宮崎県","city":"都城市","address":"上長飯町"},
{"zip_code":"8850053","kana_pref":"ﾐﾔｻﾞｷｹﾝ","kana_city":"ﾐﾔｺﾉｼﾞｮｳｼ","kana_address":"ｶﾐﾋｶﾞｼﾁｮｳ","pref":"宮崎県","city":"都城市","address":"上東町"},
{"zip_code":"8850072","kana_pref":"ﾐﾔｻﾞｷｹﾝ","kana_city":"ﾐﾔｺﾉｼﾞｮｳｼ","kana_address":"ｶﾝﾏﾁ","pref":"宮崎県","city":"都城市","address":"上町"},
{"zip_code":"8850024","kana_pref":"ﾐﾔｻﾞｷｹﾝ","kana_city":"ﾐﾔｺﾉｼﾞｮｳｼ","kana_address":"ｷﾀﾊﾗﾁｮｳ","pref":"宮崎県","city":"都城市","address":"北原町"},
{"zip_code":"8850086","kana_pref":"ﾐﾔｻﾞｷｹﾝ","kana_city":"ﾐﾔｺﾉｼﾞｮｳｼ","kana_address":"ｸﾎﾞﾊﾞﾙﾁｮｳ","pref":"宮崎県","city":"都城市","address":"久保原町"},
{"zip_code":"8850051","kana_pref":"ﾐﾔｻﾞｷｹﾝ","kana_city":"ﾐﾔｺﾉｼﾞｮｳｼ","kana_address":"ｸﾗﾊﾗﾁｮｳ","pref":"宮崎県","city":"都城市","address":"蔵原町"},
{"zip_code":"8850018","kana_pref":"ﾐﾔｻﾞｷｹﾝ","kana_city":"ﾐﾔｺﾉｼﾞｮｳｼ","kana_address":"ｺｵﾘﾓﾄ","pref":"宮崎県","city":"都城市","address":"郡元"},
{"zip_code":"8850013","kana_pref":"ﾐﾔｻﾞｷｹﾝ","kana_city":"ﾐﾔｺﾉｼﾞｮｳｼ","kana_address":"ｺｵﾘﾓﾄﾁｮｳ","pref":"宮崎県","city":"都城市","address":"郡元町"},
{"zip_code":"8850084","kana_pref":"ﾐﾔｻﾞｷｹﾝ","kana_city":"ﾐﾔｺﾉｼﾞｮｳｼ","kana_address":"ｺﾞｼﾞｯﾁｮｳ","pref":"宮崎県","city":"都城市","address":"五十町"},
{"zip_code":"8850022","kana_pref":"ﾐﾔｻﾞｷｹﾝ","kana_city":"ﾐﾔｺﾉｼﾞｮｳｼ","kana_address":"ｺﾏﾂﾊﾞﾗﾁｮｳ","pref":"宮崎県","city":"都城市","address":"小松原町"},
{"zip_code":"8850023","kana_pref":"ﾐﾔｻﾞｷｹﾝ","kana_city":"ﾐﾔｺﾉｼﾞｮｳｼ","kana_address":"ｻｶｴﾏﾁ","pref":"宮崎県","city":"都城市","address":"栄町"},
{"zip_code":"8850093","kana_pref":"ﾐﾔｻﾞｷｹﾝ","kana_city":"ﾐﾔｺﾉｼﾞｮｳｼ","kana_address":"ｼﾋﾞﾀﾁｮｳ","pref":"宮崎県","city":"都城市","address":"志比田町"},
{"zip_code":"8850011","kana_pref":"ﾐﾔｻﾞｷｹﾝ","kana_city":"ﾐﾔｺﾉｼﾞｮｳｼ","kana_address":"ｼﾓｶﾜﾋｶﾞｼ","pref":"宮崎県","city":"都城市","address":"下川東"},
{"zip_code":"8851102","kana_pref":"ﾐﾔｻﾞｷｹﾝ","kana_city":"ﾐﾔｺﾉｼﾞｮｳｼ","kana_address":"ｼﾓｽﾞﾙﾁｮｳ","pref":"宮崎県","city":"都城市","address":"下水流町"},
{"zip_code":"8850061","kana_pref":"ﾐﾔｻﾞｷｹﾝ","kana_city":"ﾐﾔｺﾉｼﾞｮｳｼ","kana_address":"ｼﾓﾅｶﾞｴﾁｮｳ","pref":"宮崎県","city":"都城市","address":"下長飯町"},
{"zip_code":"8850114","kana_pref":"ﾐﾔｻﾞｷｹﾝ","kana_city":"ﾐﾔｺﾉｼﾞｮｳｼ","kana_address":"ｼｮｳﾅｲﾁｮｳ","pref":"宮崎県","city":"都城市","address":"庄内町"},
{"zip_code":"8850005","kana_pref":"ﾐﾔｻﾞｷｹﾝ","kana_city":"ﾐﾔｺﾉｼﾞｮｳｼ","kana_address":"ｼﾞﾝﾉﾔﾏﾁｮｳ","pref":"宮崎県","city":"都城市","address":"神之山町"},
{"zip_code":"8850113","kana_pref":"ﾐﾔｻﾞｷｹﾝ","kana_city":"ﾐﾔｺﾉｼﾞｮｳｼ","kana_address":"ｾｷﾉｵﾁｮｳ","pref":"宮崎県","city":"都城市","address":"関之尾町"},
{"zip_code":"8850015","kana_pref":"ﾐﾔｻﾞｷｹﾝ","kana_city":"ﾐﾔｺﾉｼﾞｮｳｼ","kana_address":"ｾﾝﾁｮｳ","pref":"宮崎県","city":"都城市","address":"千町"},
{"zip_code":"8850026","kana_pref":"ﾐﾔｻﾞｷｹﾝ","kana_city":"ﾐﾔｺﾉｼﾞｮｳｼ","kana_address":"ﾀﾞｲｵｳﾁｮｳ","pref":"宮崎県","city":"都城市","address":"大王町"},
{"zip_code":"8850081","kana_pref":"ﾐﾔｻﾞｷｹﾝ","kana_city":"ﾐﾔｺﾉｼﾞｮｳｼ","kana_address":"ﾀｶｵ","pref":"宮崎県","city":"都城市","address":"鷹尾"},
{"zip_code":"8850003","kana_pref":"ﾐﾔｻﾞｷｹﾝ","kana_city":"ﾐﾔｺﾉｼﾞｮｳｼ","kana_address":"ﾀｶｷﾞﾁｮｳ","pref":"宮崎県","city":"都城市","address":"高木町"},
{"zip_code":"8851311","kana_pref":"ﾐﾔｻﾞｷｹﾝ","kana_city":"ﾐﾔｺﾉｼﾞｮｳｼ","kana_address":"ﾀｶｼﾞｮｳﾁｮｳｱﾘﾐｽﾞ","pref":"宮崎県","city":"都城市","address":"高城町有水"},
{"zip_code":"8851205","kana_pref":"ﾐﾔｻﾞｷｹﾝ","kana_city":"ﾐﾔｺﾉｼﾞｮｳｼ","kana_address":"ﾀｶｼﾞｮｳﾁｮｳｲｼﾔﾏ","pref":"宮崎県","city":"都城市","address":"高城町石山"},
{"zip_code":"8851203","kana_pref":"ﾐﾔｻﾞｷｹﾝ","kana_city":"ﾐﾔｺﾉｼﾞｮｳｼ","kana_address":"ﾀｶｼﾞｮｳﾁｮｳｵｵｲﾃﾞ","pref":"宮崎県","city":"都城市","address":"高城町大井手"},
{"zip_code":"8851204","kana_pref":"ﾐﾔｻﾞｷｹﾝ","kana_city":"ﾐﾔｺﾉｼﾞｮｳｼ","kana_address":"ﾀｶｼﾞｮｳﾁｮｳｻｸﾗｷﾞ","pref":"宮崎県","city":"都城市","address":"高城町桜木"},
{"zip_code":"8851312","kana_pref":"ﾐﾔｻﾞｷｹﾝ","kana_city":"ﾐﾔｺﾉｼﾞｮｳｼ","kana_address":"ﾀｶｼﾞｮｳﾁｮｳｼｶ","pref":"宮崎県","city":"都城市","address":"高城町四家"},
{"zip_code":"8851201","kana_pref":"ﾐﾔｻﾞｷｹﾝ","kana_city":"ﾐﾔｺﾉｼﾞｮｳｼ","kana_address":"ﾀｶｼﾞｮｳﾁｮｳﾀｶｼﾞｮｳ","pref":"宮崎県","city":"都城市","address":"高城町高城"},
{"zip_code":"8851202","kana_pref":"ﾐﾔｻﾞｷｹﾝ","kana_city":"ﾐﾔｺﾉｼﾞｮｳｼ","kana_address":"ﾀｶｼﾞｮｳﾁｮｳﾎﾏﾝﾎﾞｳ","pref":"宮崎県","city":"都城市","address":"高城町穂満坊"},
{"zip_code":"8850221","kana_pref":"ﾐﾔｻﾞｷｹﾝ","kana_city":"ﾐﾔｺﾉｼﾞｮｳｼ","kana_address":"ﾀｶﾉﾁｮｳ","pref":"宮崎県","city":"都城市","address":"高野町"},
{"zip_code":"8850035","kana_pref":"ﾐﾔｻﾞｷｹﾝ","kana_city":"ﾐﾔｺﾉｼﾞｮｳｼ","kana_address":"ﾀﾃﾉﾁｮｳ","pref":"宮崎県","city":"都城市","address":"立野町"},
{"zip_code":"8850002","kana_pref":"ﾐﾔｻﾞｷｹﾝ","kana_city":"ﾐﾔｺﾉｼﾞｮｳｼ","kana_address":"ﾀﾛﾎﾞｳﾁｮｳ","pref":"宮崎県","city":"都城市","address":"太郎坊町"},
{"zip_code":"8850033","kana_pref":"ﾐﾔｻﾞｷｹﾝ","kana_city":"ﾐﾔｺﾉｼﾞｮｳｼ","kana_address":"ﾂﾏｶﾞｵｶﾁｮｳ","pref":"宮崎県","city":"都城市","address":"妻ケ丘町"},
{"zip_code":"8850031","kana_pref":"ﾐﾔｻﾞｷｹﾝ","kana_city":"ﾐﾔｺﾉｼﾞｮｳｼ","kana_address":"ﾃﾝｼﾞﾝﾁｮｳ","pref":"宮崎県","city":"都城市","address":"天神町"},
{"zip_code":"8850017","kana_pref":"ﾐﾔｻﾞｷｹﾝ","kana_city":"ﾐﾔｺﾉｼﾞｮｳｼ","kana_address":"ﾄｼﾐﾁｮｳ","pref":"宮崎県","city":"都城市","address":"年見町"},
{"zip_code":"8850004","kana_pref":"ﾐﾔｻﾞｷｹﾝ","kana_city":"ﾐﾔｺﾉｼﾞｮｳｼ","kana_address":"ﾄﾎｸﾁｮｳ","pref":"宮崎県","city":"都城市","address":"都北町"},
{"zip_code":"8850043","kana_pref":"ﾐﾔｻﾞｷｹﾝ","kana_city":"ﾐﾔｺﾉｼﾞｮｳｼ","kana_address":"ﾄﾖﾐﾂﾁｮｳ","pref":"宮崎県","city":"都城市","address":"豊満町"},
{"zip_code":"8850032","kana_pref":"ﾐﾔｻﾞｷｹﾝ","kana_city":"ﾐﾔｺﾉｼﾞｮｳｼ","kana_address":"ﾅｶﾊﾗﾁｮｳ","pref":"宮崎県","city":"都城市","address":"中原町"},
{"zip_code":"8850071","kana_pref":"ﾐﾔｻﾞｷｹﾝ","kana_city":"ﾐﾔｺﾉｼﾞｮｳｼ","kana_address":"ﾅｶﾏﾁ","pref":"宮崎県","city":"都城市","address":"中町"},
{"zip_code":"8850225","kana_pref":"ﾐﾔｻﾞｷｹﾝ","kana_city":"ﾐﾔｺﾉｼﾞｮｳｼ","kana_address":"ﾅﾂｵﾁｮｳ","pref":"宮崎県","city":"都城市","address":"夏尾町"},
{"zip_code":"8850076","kana_pref":"ﾐﾔｻﾞｷｹﾝ","kana_city":"ﾐﾔｺﾉｼﾞｮｳｼ","kana_address":"ﾆｼﾏﾁ","pref":"宮崎県","city":"都城市","address":"西町"},
{"zip_code":"8851104","kana_pref":"ﾐﾔｻﾞｷｹﾝ","kana_city":"ﾐﾔｺﾉｼﾞｮｳｼ","kana_address":"ﾉﾉﾐﾀﾆﾁｮｳ","pref":"宮崎県","city":"都城市","address":"野々美谷町"},
{"zip_code":"8850075","kana_pref":"ﾐﾔｻﾞｷｹﾝ","kana_city":"ﾐﾔｺﾉｼﾞｮｳｼ","kana_address":"ﾊﾁﾏﾝﾁｮｳ","pref":"宮崎県","city":"都城市","address":"八幡町"},
{"zip_code":"8850037","kana_pref":"ﾐﾔｻﾞｷｹﾝ","kana_city":"ﾐﾔｺﾉｼﾞｮｳｼ","kana_address":"ﾊﾅｸﾞﾘﾁｮｳ","pref":"宮崎県","city":"都城市","address":"花繰町"},
{"zip_code":"8850055","kana_pref":"ﾐﾔｻﾞｷｹﾝ","kana_city":"ﾐﾔｺﾉｼﾞｮｳｼ","kana_address":"ﾊﾔｽｽﾞﾁｮｳ","pref":"宮崎県","city":"都城市","address":"早鈴町"},
{"zip_code":"8850016","kana_pref":"ﾐﾔｻﾞｷｹﾝ","kana_city":"ﾐﾔｺﾉｼﾞｮｳｼ","kana_address":"ﾊﾔﾐｽﾞﾁｮｳ","pref":"宮崎県","city":"都城市","address":"早水町"},
{"zip_code":"8850052","kana_pref":"ﾐﾔｻﾞｷｹﾝ","kana_city":"ﾐﾔｺﾉｼﾞｮｳｼ","kana_address":"ﾋｶﾞｼﾏﾁ","pref":"宮崎県","city":"都城市","address":"東町"},
{"zip_code":"8850073","kana_pref":"ﾐﾔｻﾞｷｹﾝ","kana_city":"ﾐﾔｺﾉｼﾞｮｳｼ","kana_address":"ﾋﾒｷﾞﾁｮｳ","pref":"宮崎県","city":"都城市","address":"姫城町"},
{"zip_code":"8850021","kana_pref":"ﾐﾔｻﾞｷｹﾝ","kana_city":"ﾐﾔｺﾉｼﾞｮｳｼ","kana_address":"ﾋﾗｴﾁｮｳ","pref":"宮崎県","city":"都城市","address":"平江町"},
{"zip_code":"8850085","kana_pref":"ﾐﾔｻﾞｷｹﾝ","kana_city":"ﾐﾔｺﾉｼﾞｮｳｼ","kana_address":"ﾋﾗﾂｶﾁｮｳ","pref":"宮崎県","city":"都城市","address":"平塚町"},
{"zip_code":"8850036","kana_pref":"ﾐﾔｻﾞｷｹﾝ","kana_city":"ﾐﾔｺﾉｼﾞｮｳｼ","kana_address":"ﾋﾛﾊﾗﾁｮｳ","pref":"宮崎県","city":"都城市","address":"広原町"},
{"zip_code":"8850025","kana_pref":"ﾐﾔｻﾞｷｹﾝ","kana_city":"ﾐﾔｺﾉｼﾞｮｳｼ","kana_address":"ﾏｴﾀﾞﾁｮｳ","pref":"宮崎県","city":"都城市","address":"前田町"},
{"zip_code":"8850077","kana_pref":"ﾐﾔｻﾞｷｹﾝ","kana_city":"ﾐﾔｺﾉｼﾞｮｳｼ","kana_address":"ﾏﾂﾓﾄﾁｮｳ","pref":"宮崎県","city":"都城市","address":"松元町"},
{"zip_code":"8851105","kana_pref":"ﾐﾔｻﾞｷｹﾝ","kana_city":"ﾐﾔｺﾉｼﾞｮｳｼ","kana_address":"ﾏﾙﾀﾆﾁｮｳ","pref":"宮崎県","city":"都城市","address":"丸谷町"},
{"zip_code":"8850224","kana_pref":"ﾐﾔｻﾞｷｹﾝ","kana_city":"ﾐﾔｺﾉｼﾞｮｳｼ","kana_address":"ﾐｲｹﾁｮｳ","pref":"宮崎県","city":"都城市","address":"御池町"},
{"zip_code":"8850222","kana_pref":"ﾐﾔｻﾞｷｹﾝ","kana_city":"ﾐﾔｺﾉｼﾞｮｳｼ","kana_address":"ﾐｶﾜﾁｮｳ","pref":"宮崎県","city":"都城市","address":"美川町"},
{"zip_code":"8850082","kana_pref":"ﾐﾔｻﾞｷｹﾝ","kana_city":"ﾐﾔｺﾉｼﾞｮｳｼ","kana_address":"ﾐﾅﾐﾀｶｵﾁｮｳ","pref":"宮崎県","city":"都城市","address":"南鷹尾町"},
{"zip_code":"8850092","kana_pref":"ﾐﾔｻﾞｷｹﾝ","kana_city":"ﾐﾔｺﾉｼﾞｮｳｼ","kana_address":"ﾐﾅﾐﾖｺｲﾁﾁｮｳ","pref":"宮崎県","city":"都城市","address":"南横市町"},
{"zip_code":"8850095","kana_pref":"ﾐﾔｻﾞｷｹﾝ","kana_city":"ﾐﾔｺﾉｼﾞｮｳｼ","kana_address":"ﾐﾉﾊﾞﾙﾁｮｳ","pref":"宮崎県","city":"都城市","address":"蓑原町"},
{"zip_code":"8850083","kana_pref":"ﾐﾔｻﾞｷｹﾝ","kana_city":"ﾐﾔｺﾉｼﾞｮｳｼ","kana_address":"ﾐﾔｺｼﾞﾏﾁｮｳ","pref":"宮崎県","city":"都城市","address":"都島町"},
{"zip_code":"8850094","kana_pref":"ﾐﾔｻﾞｷｹﾝ","kana_city":"ﾐﾔｺﾉｼﾞｮｳｼ","kana_address":"ﾐﾔｺﾊﾞﾙﾁｮｳ","pref":"宮崎県","city":"都城市","address":"都原町"},
{"zip_code":"8850078","kana_pref":"ﾐﾔｻﾞｷｹﾝ","kana_city":"ﾐﾔｺﾉｼﾞｮｳｼ","kana_address":"ﾐﾔﾏﾙﾁｮｳ","pref":"宮崎県","city":"都城市","address":"宮丸町"},
{"zip_code":"8850079","kana_pref":"ﾐﾔｻﾞｷｹﾝ","kana_city":"ﾐﾔｺﾉｼﾞｮｳｼ","kana_address":"ﾑﾀﾁｮｳ","pref":"宮崎県","city":"都城市","address":"牟田町"},
{"zip_code":"8850044","kana_pref":"ﾐﾔｻﾞｷｹﾝ","kana_city":"ﾐﾔｺﾉｼﾞｮｳｼ","kana_address":"ﾔｽﾋｻﾁｮｳ","pref":"宮崎県","city":"都城市","address":"安久町"},
{"zip_code":"8850091","kana_pref":"ﾐﾔｻﾞｷｹﾝ","kana_city":"ﾐﾔｺﾉｼﾞｮｳｼ","kana_address":"ﾖｺｲﾁﾁｮｳ","pref":"宮崎県","city":"都城市","address":"横市町"},
{"zip_code":"8850006","kana_pref":"ﾐﾔｻﾞｷｹﾝ","kana_city":"ﾐﾔｺﾉｼﾞｮｳｼ","kana_address":"ﾖｼｵﾁｮｳ","pref":"宮崎県","city":"都城市","address":"吉尾町"},
{"zip_code":"8850223","kana_pref":"ﾐﾔｻﾞｷｹﾝ","kana_city":"ﾐﾔｺﾉｼﾞｮｳｼ","kana_address":"ﾖｼﾉﾓﾄﾁｮｳ","pref":"宮崎県","city":"都城市","address":"吉之元町"},
{"zip_code":"8850054","kana_pref":"ﾐﾔｻﾞｷｹﾝ","kana_city":"ﾐﾔｺﾉｼﾞｮｳｼ","kana_address":"ﾜｶﾊﾞﾁｮｳ","pref":"宮崎県","city":"都城市","address":"若葉町"}]}