{"zip_code":[
{"zip_code":"8860000","kana_pref":"ﾐﾔｻﾞｷｹﾝ","kana_city":"ｺﾊﾞﾔｼｼ","kana_address":"","pref":"宮崎県","city":"小林市","address":""},
{"zip_code":"8860006","kana_pref":"ﾐﾔｻﾞｷｹﾝ","kana_city":"ｺﾊﾞﾔｼｼ","kana_address":"ｷﾀﾆｼｶﾀ","pref":"宮崎県","city":"小林市","address":"北西方"},
{"zip_code":"8860115","kana_pref":"ﾐﾔｻﾞｷｹﾝ","kana_city":"ｺﾊﾞﾔｼｼ","kana_address":"ｽｷｳﾁﾔﾏ","pref":"宮崎県","city":"小林市","address":"須木内山"},
{"zip_code":"8860112","kana_pref":"ﾐﾔｻﾞｷｹﾝ","kana_city":"ｺﾊﾞﾔｼｼ","kana_address":"ｽｷｼﾓﾀﾞ","pref":"宮崎県","city":"小林市","address":"須木下田"},
{"zip_code":"8860113","kana_pref":"ﾐﾔｻﾞｷｹﾝ","kana_city":"ｺﾊﾞﾔｼｼ","kana_address":"ｽｷﾄﾘﾀﾞﾏﾁ","pref":"宮崎県","city":"小林市","address":"須木鳥田町"},
{"zip_code":"8860111","kana_pref":"ﾐﾔｻﾞｷｹﾝ","kana_city":"ｺﾊﾞﾔｼｼ","kana_address":"ｽｷﾅｶﾊﾗ","pref":"宮崎県","city":"小林市","address":"須木中原"},
{"zip_code":"8860114","kana_pref":"ﾐﾔｻﾞｷｹﾝ","kana_city":"ｺﾊﾞﾔｼｼ","kana_address":"ｽｷﾅｻｷ","pref":"宮崎県","city":"小林市","address":"須木奈佐木"},
{"zip_code":"8860003","kana_pref":"ﾐﾔｻﾞｷｹﾝ","kana_city":"ｺﾊﾞﾔｼｼ","kana_address":"ﾂﾂﾐ","pref":"宮崎県","city":"小林市","address":"堤"},
{"zip_code":"8860002","kana_pref":"ﾐﾔｻﾞｷｹﾝ","kana_city":"ｺﾊﾞﾔｼｼ","kana_address":"ﾂﾙｻﾞｺ","pref":"宮崎県","city":"小林市","address":"水流迫"},
{"zip_code":"8860211","kana_pref":"ﾐﾔｻﾞｷｹﾝ","kana_city":"ｺﾊﾞﾔｼｼ","kana_address":"ﾉｼﾞﾘﾁｮｳｶﾐﾔ","pref":"宮崎県","city":"小林市","address":"野尻町紙屋"},
{"zip_code":"8860212","kana_pref":"ﾐﾔｻﾞｷｹﾝ","kana_city":"ｺﾊﾞﾔｼｼ","kana_address":"ﾉｼﾞﾘﾁｮｳﾋｶﾞｼﾌﾓﾄ","pref":"宮崎県","city":"小林市","address":"野尻町東麓"},
{"zip_code":"8860213","kana_pref":"ﾐﾔｻﾞｷｹﾝ","kana_city":"ｺﾊﾞﾔｼｼ","kana_address":"ﾉｼﾞﾘﾁｮｳﾐｶﾉﾔﾏ","pref":"宮崎県","city":"小林市","address":"野尻町三ケ野山"},
{"zip_code":"8860101","kana_pref":"ﾐﾔｻﾞｷｹﾝ","kana_city":"ｺﾊﾞﾔｼｼ","kana_address":"ﾋｶﾞｼｶﾀ","pref":"宮崎県","city":"小林市","address":"東方"},
{"zip_code":"8860001","kana_pref":"ﾐﾔｻﾞｷｹﾝ","kana_city":"ｺﾊﾞﾔｼｼ","kana_address":"ﾋｶﾞｼｶﾀ","pref":"宮崎県","city":"小林市","address":"東方"},
{"zip_code":"8860004","kana_pref":"ﾐﾔｻﾞｷｹﾝ","kana_city":"ｺﾊﾞﾔｼｼ","kana_address":"ﾎｿﾉ","pref":"宮崎県","city":"小林市","address":"細野"},
{"zip_code":"8860008","kana_pref":"ﾐﾔｻﾞｷｹﾝ","kana_city":"ｺﾊﾞﾔｼｼ","kana_address":"ﾎﾝﾏﾁ","pref":"宮崎県","city":"小林市","address":"本町"},
{"zip_code":"8860007","kana_pref":"ﾐﾔｻﾞｷｹﾝ","kana_city":"ｺﾊﾞﾔｼｼ","kana_address":"ﾏｶﾞﾀ","pref":"宮崎県","city":"小林市","address":"真方"},
{"zip_code":"8860005","kana_pref":"ﾐﾔｻﾞｷｹﾝ","kana_city":"ｺﾊﾞﾔｼｼ","kana_address":"ﾐﾅﾐﾆｼｶﾀ","pref":"宮崎県","city":"小林市","address":"南西方"},
{"zip_code":"8860203","kana_pref":"ﾐﾔｻﾞｷｹﾝ","kana_city":"ﾋｶﾞｼﾓﾛｶﾀｸﾞﾝｱﾔﾁｮｳ","kana_address":"ﾐﾅﾐﾏﾀ","pref":"宮崎県","city":"東諸県郡綾町","address":"南俣"}]}