{"zip_code":[
{"zip_code":"8870000","kana_pref":"ﾐﾔｻﾞｷｹﾝ","kana_city":"ﾆﾁﾅﾝｼ","kana_address":"","pref":"宮崎県","city":"日南市","address":""},
{"zip_code":"8870041","kana_pref":"ﾐﾔｻﾞｷｹﾝ","kana_city":"ﾆﾁﾅﾝｼ","kana_address":"ｱｶﾞﾀﾋｶﾞｼ","pref":"宮崎県","city":"日南市","address":"吾田東"},
{"zip_code":"8870001","kana_pref":"ﾐﾔｻﾞｷｹﾝ","kana_city":"ﾆﾁﾅﾝｼ","kana_address":"ｱﾌﾞﾗﾂ","pref":"宮崎県","city":"日南市","address":"油津"},
{"zip_code":"8870014","kana_pref":"ﾐﾔｻﾞｷｹﾝ","kana_city":"ﾆﾁﾅﾝｼ","kana_address":"ｲﾜｻｷ","pref":"宮崎県","city":"日南市","address":"岩崎"},
{"zip_code":"8870017","kana_pref":"ﾐﾔｻﾞｷｹﾝ","kana_city":"ﾆﾁﾅﾝｼ","kana_address":"ｳﾒｶﾞﾊﾏ","pref":"宮崎県","city":"日南市","address":"梅ケ浜"},
{"zip_code":"8870007","kana_pref":"ﾐﾔｻﾞｷｹﾝ","kana_city":"ﾆﾁﾅﾝｼ","kana_address":"ｵﾄﾋﾒﾁｮｳ","pref":"宮崎県","city":"日南市","address":"乙姫町"},
{"zip_code":"8870006","kana_pref":"ﾐﾔｻﾞｷｹﾝ","kana_city":"ﾆﾁﾅﾝｼ","kana_address":"ｶｽｶﾞﾁｮｳ","pref":"宮崎県","city":"日南市","address":"春日町"},
{"zip_code":"8870034","kana_pref":"ﾐﾔｻﾞｷｹﾝ","kana_city":"ﾆﾁﾅﾝｼ","kana_address":"ｶｾﾞﾀﾞ","pref":"宮崎県","city":"日南市","address":"風田"},
{"zip_code":"8870022","kana_pref":"ﾐﾔｻﾞｷｹﾝ","kana_city":"ﾆﾁﾅﾝｼ","kana_address":"ｶﾐﾋﾗﾉﾁｮｳ","pref":"宮崎県","city":"日南市","address":"上平野町"},
{"zip_code":"8870013","kana_pref":"ﾐﾔｻﾞｷｹﾝ","kana_city":"ﾆﾁﾅﾝｼ","kana_address":"ｷﾔﾏ","pref":"宮崎県","city":"日南市","address":"木山"},
{"zip_code":"8870023","kana_pref":"ﾐﾔｻﾞｷｹﾝ","kana_city":"ﾆﾁﾅﾝｼ","kana_address":"ｸﾏﾔ","pref":"宮崎県","city":"日南市","address":"隈谷"},
{"zip_code":"8870005","kana_pref":"ﾐﾔｻﾞｷｹﾝ","kana_city":"ﾆﾁﾅﾝｼ","kana_address":"ｻﾞｲﾓｸﾁｮｳ","pref":"宮崎県","city":"日南市","address":"材木町"},
{"zip_code":"8870011","kana_pref":"ﾐﾔｻﾞｷｹﾝ","kana_city":"ﾆﾁﾅﾝｼ","kana_address":"ｾｶﾞｲ","pref":"宮崎県","city":"日南市","address":"瀬貝"},
{"zip_code":"8870003","kana_pref":"ﾐﾔｻﾞｷｹﾝ","kana_city":"ﾆﾁﾅﾝｼ","kana_address":"ｾﾆｼ","pref":"宮崎県","city":"日南市","address":"瀬西"},
{"zip_code":"8870012","kana_pref":"ﾐﾔｻﾞｷｹﾝ","kana_city":"ﾆﾁﾅﾝｼ","kana_address":"ｿﾉﾀﾞ","pref":"宮崎県","city":"日南市","address":"園田"},
{"zip_code":"8870021","kana_pref":"ﾐﾔｻﾞｷｹﾝ","kana_city":"ﾆﾁﾅﾝｼ","kana_address":"ﾁｭｳｵｳﾄﾞｵﾘ","pref":"宮崎県","city":"日南市","address":"中央通"},
{"zip_code":"8870004","kana_pref":"ﾐﾔｻﾞｷｹﾝ","kana_city":"ﾆﾁﾅﾝｼ","kana_address":"ﾃﾝﾌﾟｸ","pref":"宮崎県","city":"日南市","address":"天福"},
{"zip_code":"8870031","kana_pref":"ﾐﾔｻﾞｷｹﾝ","kana_city":"ﾆﾁﾅﾝｼ","kana_address":"ﾄﾀﾞｶ","pref":"宮崎県","city":"日南市","address":"戸高"},
{"zip_code":"8870016","kana_pref":"ﾐﾔｻﾞｷｹﾝ","kana_city":"ﾆﾁﾅﾝｼ","kana_address":"ﾅｶﾋﾗﾉ","pref":"宮崎県","city":"日南市","address":"中平野"},
{"zip_code":"8870024","kana_pref":"ﾐﾔｻﾞｷｹﾝ","kana_city":"ﾆﾁﾅﾝｼ","kana_address":"ﾆｼﾍﾞﾝﾌﾞﾝ","pref":"宮崎県","city":"日南市","address":"西弁分"},
{"zip_code":"8870002","kana_pref":"ﾐﾔｻﾞｷｹﾝ","kana_city":"ﾆﾁﾅﾝｼ","kana_address":"ﾆｼﾏﾁ","pref":"宮崎県","city":"日南市","address":"西町"},
{"zip_code":"8870015","kana_pref":"ﾐﾔｻﾞｷｹﾝ","kana_city":"ﾆﾁﾅﾝｼ","kana_address":"ﾋﾗﾉ","pref":"宮崎県","city":"日南市","address":"平野"},
{"zip_code":"8870033","kana_pref":"ﾐﾔｻﾞｷｹﾝ","kana_city":"ﾆﾁﾅﾝｼ","kana_address":"ﾋﾗﾔﾏ","pref":"宮崎県","city":"日南市","address":"平山"},
{"zip_code":"8870102","kana_pref":"ﾐﾔｻﾞｷｹﾝ","kana_city":"ﾆﾁﾅﾝｼ","kana_address":"ﾌﾄ","pref":"宮崎県","city":"日南市","address":"富土"},
{"zip_code":"8870032","kana_pref":"ﾐﾔｻﾞｷｹﾝ","kana_city":"ﾆﾁﾅﾝｼ","kana_address":"ﾏｽﾔｽ","pref":"宮崎県","city":"日南市","address":"益安"},
{"zip_code":"8870101","kana_pref":"ﾐﾔｻﾞｷｹﾝ","kana_city":"ﾆﾁﾅﾝｼ","kana_address":"ﾐﾔｳﾗ","pref":"宮崎県","city":"日南市","address":"宮浦"}]}