{"zip_code":[
{"zip_code":"8880000","kana_pref":"ﾐﾔｻﾞｷｹﾝ","kana_city":"ｸｼﾏｼ","kana_address":"","pref":"宮崎県","city":"串間市","address":""},
{"zip_code":"8880006","kana_pref":"ﾐﾔｻﾞｷｹﾝ","kana_city":"ｸｼﾏｼ","kana_address":"ｱｷﾔﾏ","pref":"宮崎県","city":"串間市","address":"秋山"},
{"zip_code":"8880221","kana_pref":"ﾐﾔｻﾞｷｹﾝ","kana_city":"ｸｼﾏｼ","kana_address":"ｵｵﾉ","pref":"宮崎県","city":"串間市","address":"大納"},
{"zip_code":"8880005","kana_pref":"ﾐﾔｻﾞｷｹﾝ","kana_city":"ｸｼﾏｼ","kana_address":"ｷﾀｶﾀ","pref":"宮崎県","city":"串間市","address":"北方"},
{"zip_code":"8880004","kana_pref":"ﾐﾔｻﾞｷｹﾝ","kana_city":"ｸｼﾏｼ","kana_address":"ｸｼﾏ","pref":"宮崎県","city":"串間市","address":"串間"},
{"zip_code":"8880009","kana_pref":"ﾐﾔｻﾞｷｹﾝ","kana_city":"ｸｼﾏｼ","kana_address":"ｻｷﾀﾞ","pref":"宮崎県","city":"串間市","address":"崎田"},
{"zip_code":"8880002","kana_pref":"ﾐﾔｻﾞｷｹﾝ","kana_city":"ｸｼﾏｼ","kana_address":"ﾀｶﾏﾂ","pref":"宮崎県","city":"串間市","address":"高松"},
{"zip_code":"8880011","kana_pref":"ﾐﾔｻﾞｷｹﾝ","kana_city":"ｸｼﾏｼ","kana_address":"ﾃﾗｻﾞﾄ","pref":"宮崎県","city":"串間市","address":"寺里"},
{"zip_code":"8880222","kana_pref":"ﾐﾔｻﾞｷｹﾝ","kana_city":"ｸｼﾏｼ","kana_address":"ﾄｲ","pref":"宮崎県","city":"串間市","address":"都井"},
{"zip_code":"8880001","kana_pref":"ﾐﾔｻﾞｷｹﾝ","kana_city":"ｸｼﾏｼ","kana_address":"ﾆｼｶﾀ","pref":"宮崎県","city":"串間市","address":"西方"},
{"zip_code":"8880012","kana_pref":"ﾐﾔｻﾞｷｹﾝ","kana_city":"ｸｼﾏｼ","kana_address":"ﾆｼﾊﾏ","pref":"宮崎県","city":"串間市","address":"西浜"},
{"zip_code":"8880003","kana_pref":"ﾐﾔｻﾞｷｹﾝ","kana_city":"ｸｼﾏｼ","kana_address":"ﾇｸﾐ","pref":"宮崎県","city":"串間市","address":"奴久見"},
{"zip_code":"8880013","kana_pref":"ﾐﾔｻﾞｷｹﾝ","kana_city":"ｸｼﾏｼ","kana_address":"ﾋｶﾞｼﾏﾁ","pref":"宮崎県","city":"串間市","address":"東町"},
{"zip_code":"8880008","kana_pref":"ﾐﾔｻﾞｷｹﾝ","kana_city":"ｸｼﾏｼ","kana_address":"ﾎﾝｼﾞｮｳ","pref":"宮崎県","city":"串間市","address":"本城"},
{"zip_code":"8880007","kana_pref":"ﾐﾔｻﾞｷｹﾝ","kana_city":"ｸｼﾏｼ","kana_address":"ﾐﾅﾐｶﾀ","pref":"宮崎県","city":"串間市","address":"南方"}]}