{"zip_code":[
{"zip_code":"8892162","kana_pref":"ﾐﾔｻﾞｷｹﾝ","kana_city":"ﾐﾔｻﾞｷｼ","kana_address":"ｱｵｼﾏ","pref":"宮崎県","city":"宮崎市","address":"青島"},
{"zip_code":"8892163","kana_pref":"ﾐﾔｻﾞｷｹﾝ","kana_city":"ﾐﾔｻﾞｷｼ","kana_address":"ｱｵｼﾏﾆｼ","pref":"宮崎県","city":"宮崎市","address":"青島西"},
{"zip_code":"8892301","kana_pref":"ﾐﾔｻﾞｷｹﾝ","kana_city":"ﾐﾔｻﾞｷｼ","kana_address":"ｳﾁｳﾐ","pref":"宮崎県","city":"宮崎市","address":"内海"},
{"zip_code":"8892164","kana_pref":"ﾐﾔｻﾞｷｹﾝ","kana_city":"ﾐﾔｻﾞｷｼ","kana_address":"ｵﾘｳｻﾞｺ","pref":"宮崎県","city":"宮崎市","address":"折生迫"},
{"zip_code":"8892161","kana_pref":"ﾐﾔｻﾞｷｹﾝ","kana_city":"ﾐﾔｻﾞｷｼ","kana_address":"ｶｴﾀﾞ","pref":"宮崎県","city":"宮崎市","address":"加江田"},
{"zip_code":"8892156","kana_pref":"ﾐﾔｻﾞｷｹﾝ","kana_city":"ﾐﾔｻﾞｷｼ","kana_address":"ｶｶﾞﾐｽﾞ","pref":"宮崎県","city":"宮崎市","address":"鏡洲"},
{"zip_code":"8892154","kana_pref":"ﾐﾔｻﾞｷｹﾝ","kana_city":"ﾐﾔｻﾞｷｼ","kana_address":"ｶﾞｸｴﾝｷﾊﾅﾀﾞｲｻｸﾗ","pref":"宮崎県","city":"宮崎市","address":"学園木花台桜"},
{"zip_code":"8892155","kana_pref":"ﾐﾔｻﾞｷｹﾝ","kana_city":"ﾐﾔｻﾞｷｼ","kana_address":"ｶﾞｸｴﾝｷﾊﾞﾅﾀﾞｲﾆｼ","pref":"宮崎県","city":"宮崎市","address":"学園木花台西"},
{"zip_code":"8892153","kana_pref":"ﾐﾔｻﾞｷｹﾝ","kana_city":"ﾐﾔｻﾞｷｼ","kana_address":"ｶﾞｸｴﾝｷﾊﾞﾅﾀﾞｲﾐﾅﾐ","pref":"宮崎県","city":"宮崎市","address":"学園木花台南"},
{"zip_code":"8892152","kana_pref":"ﾐﾔｻﾞｷｹﾝ","kana_city":"ﾐﾔｻﾞｷｼ","kana_address":"ｶﾞｸｴﾝｷﾊﾞﾅﾀﾞｲｷﾀ","pref":"宮崎県","city":"宮崎市","address":"学園木花台北"},
{"zip_code":"8891609","kana_pref":"ﾐﾔｻﾞｷｹﾝ","kana_city":"ﾐﾔｻﾞｷｼ","kana_address":"ｷﾖﾀｹﾁｮｳｱｻﾋ","pref":"宮崎県","city":"宮崎市","address":"清武町あさひ"},
{"zip_code":"8891606","kana_pref":"ﾐﾔｻﾞｷｹﾝ","kana_city":"ﾐﾔｻﾞｷｼ","kana_address":"ｷﾖﾀｹﾁｮｳｲｹﾀﾞﾀﾞｲ","pref":"宮崎県","city":"宮崎市","address":"清武町池田台"},
{"zip_code":"8891608","kana_pref":"ﾐﾔｻﾞｷｹﾝ","kana_city":"ﾐﾔｻﾞｷｼ","kana_address":"ｷﾖﾀｹﾁｮｳｲｹﾀﾞﾀﾞｲｷﾀ","pref":"宮崎県","city":"宮崎市","address":"清武町池田台北"},
{"zip_code":"8891602","kana_pref":"ﾐﾔｻﾞｷｹﾝ","kana_city":"ﾐﾔｻﾞｷｼ","kana_address":"ｷﾖﾀｹﾁｮｳｲﾏｲｽﾞﾐ","pref":"宮崎県","city":"宮崎市","address":"清武町今泉"},
{"zip_code":"8891607","kana_pref":"ﾐﾔｻﾞｷｹﾝ","kana_city":"ﾐﾔｻﾞｷｼ","kana_address":"ｷﾖﾀｹﾁｮｳｶﾉｳ","pref":"宮崎県","city":"宮崎市","address":"清武町加納"},
{"zip_code":"8891605","kana_pref":"ﾐﾔｻﾞｷｹﾝ","kana_city":"ﾐﾔｻﾞｷｼ","kana_address":"ｷﾖﾀｹﾁｮｳｶﾉｳ","pref":"宮崎県","city":"宮崎市","address":"清武町加納"},
{"zip_code":"8891601","kana_pref":"ﾐﾔｻﾞｷｹﾝ","kana_city":"ﾐﾔｻﾞｷｼ","kana_address":"ｷﾖﾀｹﾁｮｳｷﾊﾗ","pref":"宮崎県","city":"宮崎市","address":"清武町木原"},
{"zip_code":"8891603","kana_pref":"ﾐﾔｻﾞｷｹﾝ","kana_city":"ﾐﾔｻﾞｷｼ","kana_address":"ｷﾖﾀｹﾁｮｳｼｮｳﾃﾞ","pref":"宮崎県","city":"宮崎市","address":"清武町正手"},
{"zip_code":"8891611","kana_pref":"ﾐﾔｻﾞｷｹﾝ","kana_city":"ﾐﾔｻﾞｷｼ","kana_address":"ｷﾖﾀｹﾁｮｳｼﾝﾏﾁ","pref":"宮崎県","city":"宮崎市","address":"清武町新町"},
{"zip_code":"8891604","kana_pref":"ﾐﾔｻﾞｷｹﾝ","kana_city":"ﾐﾔｻﾞｷｼ","kana_address":"ｷﾖﾀｹﾁｮｳﾌﾅﾋｷ","pref":"宮崎県","city":"宮崎市","address":"清武町船引"},
{"zip_code":"8892151","kana_pref":"ﾐﾔｻﾞｷｹﾝ","kana_city":"ﾐﾔｻﾞｷｼ","kana_address":"ｸﾏﾉ","pref":"宮崎県","city":"宮崎市","address":"熊野"},
{"zip_code":"8891713","kana_pref":"ﾐﾔｻﾞｷｹﾝ","kana_city":"ﾐﾔｻﾞｷｼ","kana_address":"ﾀｶｵｶﾁｮｳｶﾐｸﾗﾅｶﾞ","pref":"宮崎県","city":"宮崎市","address":"高岡町上倉永"},
{"zip_code":"8891703","kana_pref":"ﾐﾔｻﾞｷｹﾝ","kana_city":"ﾐﾔｻﾞｷｼ","kana_address":"ﾀﾉﾁｮｳｱｹﾎﾞﾉ","pref":"宮崎県","city":"宮崎市","address":"田野町あけぼの"},
{"zip_code":"8891702","kana_pref":"ﾐﾔｻﾞｷｹﾝ","kana_city":"ﾐﾔｻﾞｷｼ","kana_address":"ﾀﾉﾁｮｳｵﾂ","pref":"宮崎県","city":"宮崎市","address":"田野町乙"},
{"zip_code":"8891701","kana_pref":"ﾐﾔｻﾞｷｹﾝ","kana_city":"ﾐﾔｻﾞｷｼ","kana_address":"ﾀﾉﾁｮｳｺｳ","pref":"宮崎県","city":"宮崎市","address":"田野町甲"},
{"zip_code":"8891716","kana_pref":"ﾐﾔｻﾞｷｹﾝ","kana_city":"ﾐﾔｻﾞｷｼ","kana_address":"ﾎｿｴ","pref":"宮崎県","city":"宮崎市","address":"細江"},
{"zip_code":"8894502","kana_pref":"ﾐﾔｻﾞｷｹﾝ","kana_city":"ﾐﾔｺﾉｼﾞｮｳｼ","kana_address":"ﾀｶｻﾞｷﾁｮｳｴﾋﾗ","pref":"宮崎県","city":"都城市","address":"高崎町江平"},
{"zip_code":"8894505","kana_pref":"ﾐﾔｻﾞｷｹﾝ","kana_city":"ﾐﾔｺﾉｼﾞｮｳｼ","kana_address":"ﾀｶｻﾞｷﾁｮｳｵｵﾑﾀ","pref":"宮崎県","city":"都城市","address":"高崎町大牟田"},
{"zip_code":"8894504","kana_pref":"ﾐﾔｻﾞｷｹﾝ","kana_city":"ﾐﾔｺﾉｼﾞｮｳｼ","kana_address":"ﾀｶｻﾞｷﾁｮｳﾂﾏｷﾞﾘｼﾏ","pref":"宮崎県","city":"都城市","address":"高崎町東霧島"},
{"zip_code":"8894503","kana_pref":"ﾐﾔｻﾞｷｹﾝ","kana_city":"ﾐﾔｺﾉｼﾞｮｳｼ","kana_address":"ﾀｶｻﾞｷﾁｮｳﾅﾜｾﾞ","pref":"宮崎県","city":"都城市","address":"高崎町縄瀬"},
{"zip_code":"8894501","kana_pref":"ﾐﾔｻﾞｷｹﾝ","kana_city":"ﾐﾔｺﾉｼﾞｮｳｼ","kana_address":"ﾀｶｻﾞｷﾁｮｳﾌｴﾐｽﾞ","pref":"宮崎県","city":"都城市","address":"高崎町笛水"},
{"zip_code":"8894506","kana_pref":"ﾐﾔｻﾞｷｹﾝ","kana_city":"ﾐﾔｺﾉｼﾞｮｳｼ","kana_address":"ﾀｶｻﾞｷﾁｮｳﾏｴﾀﾞ","pref":"宮崎県","city":"都城市","address":"高崎町前田"},
{"zip_code":"8894602","kana_pref":"ﾐﾔｻﾞｷｹﾝ","kana_city":"ﾐﾔｺﾉｼﾞｮｳｼ","kana_address":"ﾔﾏﾀﾞﾁｮｳﾅｶｷﾞﾘｼﾏ","pref":"宮崎県","city":"都城市","address":"山田町中霧島"},
{"zip_code":"8894601","kana_pref":"ﾐﾔｻﾞｷｹﾝ","kana_city":"ﾐﾔｺﾉｼﾞｮｳｼ","kana_address":"ﾔﾏﾀﾞﾁｮｳﾔﾏﾀﾞ","pref":"宮崎県","city":"都城市","address":"山田町山田"},
{"zip_code":"8891801","kana_pref":"ﾐﾔｻﾞｷｹﾝ","kana_city":"ﾐﾔｺﾉｼﾞｮｳｼ","kana_address":"ﾔﾏﾉｸﾁﾁｮｳﾄﾐﾖｼ","pref":"宮崎県","city":"都城市","address":"山之口町富吉"},
{"zip_code":"8891802","kana_pref":"ﾐﾔｻﾞｷｹﾝ","kana_city":"ﾐﾔｺﾉｼﾞｮｳｼ","kana_address":"ﾔﾏﾉｸﾁﾁｮｳﾊﾅﾉｷ","pref":"宮崎県","city":"都城市","address":"山之口町花木"},
{"zip_code":"8891803","kana_pref":"ﾐﾔｻﾞｷｹﾝ","kana_city":"ﾐﾔｺﾉｼﾞｮｳｼ","kana_address":"ﾔﾏﾉｸﾁﾁｮｳﾔﾏﾉｸﾁ","pref":"宮崎県","city":"都城市","address":"山之口町山之口"},
{"zip_code":"8890517","kana_pref":"ﾐﾔｻﾞｷｹﾝ","kana_city":"ﾉﾍﾞｵｶｼ","kana_address":"ｱｶﾐｽﾞﾏﾁ","pref":"宮崎県","city":"延岡市","address":"赤水町"},
{"zip_code":"8890507","kana_pref":"ﾐﾔｻﾞｷｹﾝ","kana_city":"ﾉﾍﾞｵｶｼ","kana_address":"ｱｻﾋｶﾞｵｶ","pref":"宮崎県","city":"延岡市","address":"旭ケ丘"},
{"zip_code":"8890503","kana_pref":"ﾐﾔｻﾞｷｹﾝ","kana_city":"ﾉﾍﾞｵｶｼ","kana_address":"ｲｶﾞﾀﾞﾏﾁ","pref":"宮崎県","city":"延岡市","address":"伊形町"},
{"zip_code":"8890501","kana_pref":"ﾐﾔｻﾞｷｹﾝ","kana_city":"ﾉﾍﾞｵｶｼ","kana_address":"ｲｼﾀﾞﾏﾁ","pref":"宮崎県","city":"延岡市","address":"石田町"},
{"zip_code":"8890502","kana_pref":"ﾐﾔｻﾞｷｹﾝ","kana_city":"ﾉﾍﾞｵｶｼ","kana_address":"ｶﾐｲｶﾞﾀﾞﾏﾁ","pref":"宮崎県","city":"延岡市","address":"上伊形町"},
{"zip_code":"8890302","kana_pref":"ﾐﾔｻﾞｷｹﾝ","kana_city":"ﾉﾍﾞｵｶｼ","kana_address":"ｷﾀｳﾗﾏﾁｲﾁﾌﾞﾘ","pref":"宮崎県","city":"延岡市","address":"北浦町市振"},
{"zip_code":"8890301","kana_pref":"ﾐﾔｻﾞｷｹﾝ","kana_city":"ﾉﾍﾞｵｶｼ","kana_address":"ｷﾀｳﾗﾏﾁﾌﾙｴ","pref":"宮崎県","city":"延岡市","address":"北浦町古江"},
{"zip_code":"8890304","kana_pref":"ﾐﾔｻﾞｷｹﾝ","kana_city":"ﾉﾍﾞｵｶｼ","kana_address":"ｷﾀｳﾗﾏﾁﾐｶﾜｳﾁ","pref":"宮崎県","city":"延岡市","address":"北浦町三川内"},
{"zip_code":"8890303","kana_pref":"ﾐﾔｻﾞｷｹﾝ","kana_city":"ﾉﾍﾞｵｶｼ","kana_address":"ｷﾀｳﾗﾏﾁﾐﾔﾉｳﾗ","pref":"宮崎県","city":"延岡市","address":"北浦町宮野浦"},
{"zip_code":"8890101","kana_pref":"ﾐﾔｻﾞｷｹﾝ","kana_city":"ﾉﾍﾞｵｶｼ","kana_address":"ｷﾀｶﾞﾜﾏﾁｶﾜﾁﾐｮｳ","pref":"宮崎県","city":"延岡市","address":"北川町川内名"},
{"zip_code":"8890102","kana_pref":"ﾐﾔｻﾞｷｹﾝ","kana_city":"ﾉﾍﾞｵｶｼ","kana_address":"ｷﾀｶﾞﾜﾏﾁﾅｶﾞｲ","pref":"宮崎県","city":"延岡市","address":"北川町長井"},
{"zip_code":"8890505","kana_pref":"ﾐﾔｻﾞｷｹﾝ","kana_city":"ﾉﾍﾞｵｶｼ","kana_address":"ｷﾀﾋﾄﾂｶﾞｵｶ","pref":"宮崎県","city":"延岡市","address":"北一ケ岡"},
{"zip_code":"8890514","kana_pref":"ﾐﾔｻﾞｷｹﾝ","kana_city":"ﾉﾍﾞｵｶｼ","kana_address":"ｸｼﾂﾏﾁ","pref":"宮崎県","city":"延岡市","address":"櫛津町"},
{"zip_code":"8890322","kana_pref":"ﾐﾔｻﾞｷｹﾝ","kana_city":"ﾉﾍﾞｵｶｼ","kana_address":"ｸﾏﾉｴﾏﾁ","pref":"宮崎県","city":"延岡市","address":"熊野江町"},
{"zip_code":"8890504","kana_pref":"ﾐﾔｻﾞｷｹﾝ","kana_city":"ﾉﾍﾞｵｶｼ","kana_address":"ｼﾓｲｶﾞﾀﾞﾏﾁ","pref":"宮崎県","city":"延岡市","address":"下伊形町"},
{"zip_code":"8890512","kana_pref":"ﾐﾔｻﾞｷｹﾝ","kana_city":"ﾉﾍﾞｵｶｼ","kana_address":"ｼﾝﾊﾏﾏﾁ","pref":"宮崎県","city":"延岡市","address":"新浜町"},
{"zip_code":"8890321","kana_pref":"ﾐﾔｻﾞｷｹﾝ","kana_city":"ﾉﾍﾞｵｶｼ","kana_address":"ｽﾐｴﾏﾁ","pref":"宮崎県","city":"延岡市","address":"須美江町"},
{"zip_code":"8890516","kana_pref":"ﾐﾔｻﾞｷｹﾝ","kana_city":"ﾉﾍﾞｵｶｼ","kana_address":"ﾀｲﾅﾏﾁ","pref":"宮崎県","city":"延岡市","address":"鯛名町"},
{"zip_code":"8890513","kana_pref":"ﾐﾔｻﾞｷｹﾝ","kana_city":"ﾉﾍﾞｵｶｼ","kana_address":"ﾄﾄﾛﾏﾁ","pref":"宮崎県","city":"延岡市","address":"土々呂町"},
{"zip_code":"8890511","kana_pref":"ﾐﾔｻﾞｷｹﾝ","kana_city":"ﾉﾍﾞｵｶｼ","kana_address":"ﾏﾂﾊﾞﾗﾏﾁ","pref":"宮崎県","city":"延岡市","address":"松原町"},
{"zip_code":"8890506","kana_pref":"ﾐﾔｻﾞｷｹﾝ","kana_city":"ﾉﾍﾞｵｶｼ","kana_address":"ﾐﾅﾐﾋﾄﾂｶﾞｵｶ","pref":"宮崎県","city":"延岡市","address":"南一ケ岡"},
{"zip_code":"8890515","kana_pref":"ﾐﾔｻﾞｷｹﾝ","kana_city":"ﾉﾍﾞｵｶｼ","kana_address":"ﾐｮｳｹﾝﾏﾁ","pref":"宮崎県","city":"延岡市","address":"妙見町"},
{"zip_code":"8892541","kana_pref":"ﾐﾔｻﾞｷｹﾝ","kana_city":"ﾆﾁﾅﾝｼ","kana_address":"ｱｶﾞﾀﾋｶﾞｼ","pref":"宮崎県","city":"日南市","address":"吾田東"},
{"zip_code":"8892536","kana_pref":"ﾐﾔｻﾞｷｹﾝ","kana_city":"ﾆﾁﾅﾝｼ","kana_address":"ｱｶﾞﾀﾆｼ","pref":"宮崎県","city":"日南市","address":"吾田西"},
{"zip_code":"8892532","kana_pref":"ﾐﾔｻﾞｷｹﾝ","kana_city":"ﾆﾁﾅﾝｼ","kana_address":"ｲﾀｼﾞｷ","pref":"宮崎県","city":"日南市","address":"板敷"},
{"zip_code":"8892311","kana_pref":"ﾐﾔｻﾞｷｹﾝ","kana_city":"ﾆﾁﾅﾝｼ","kana_address":"ｲﾋﾞｲ","pref":"宮崎県","city":"日南市","address":"伊比井"},
{"zip_code":"8892525","kana_pref":"ﾐﾔｻﾞｷｹﾝ","kana_city":"ﾆﾁﾅﾝｼ","kana_address":"ｲﾏﾏﾁ","pref":"宮崎県","city":"日南市","address":"今町"},
{"zip_code":"8893156","kana_pref":"ﾐﾔｻﾞｷｹﾝ","kana_city":"ﾆﾁﾅﾝｼ","kana_address":"ｵｵｸﾎﾞ","pref":"宮崎県","city":"日南市","address":"大窪"},
{"zip_code":"8893141","kana_pref":"ﾐﾔｻﾞｷｹﾝ","kana_city":"ﾆﾁﾅﾝｼ","kana_address":"ｵｵﾄﾞｳﾂ","pref":"宮崎県","city":"日南市","address":"大堂津"},
{"zip_code":"8892535","kana_pref":"ﾐﾔｻﾞｷｹﾝ","kana_city":"ﾆﾁﾅﾝｼ","kana_address":"ｵﾋﾞ","pref":"宮崎県","city":"日南市","address":"飫肥"},
{"zip_code":"8893151","kana_pref":"ﾐﾔｻﾞｷｹﾝ","kana_city":"ﾆﾁﾅﾝｼ","kana_address":"ｶﾐｶﾀ","pref":"宮崎県","city":"日南市","address":"上方"},
{"zip_code":"8892401","kana_pref":"ﾐﾔｻﾞｷｹﾝ","kana_city":"ﾆﾁﾅﾝｼ","kana_address":"ｷﾀｺﾞｳﾁｮｳｵｵﾌｼﾞ","pref":"宮崎県","city":"日南市","address":"北郷町大藤"},
{"zip_code":"8892403","kana_pref":"ﾐﾔｻﾞｷｹﾝ","kana_city":"ﾆﾁﾅﾝｼ","kana_address":"ｷﾀｺﾞｳﾁｮｳｷﾀｶﾞﾜﾁ","pref":"宮崎県","city":"日南市","address":"北郷町北河内"},
{"zip_code":"8892402","kana_pref":"ﾐﾔｻﾞｷｹﾝ","kana_city":"ﾆﾁﾅﾝｼ","kana_address":"ｷﾀｺﾞｳﾁｮｳｺﾞｳﾉﾊﾗ","pref":"宮崎県","city":"日南市","address":"北郷町郷之原"},
{"zip_code":"8892514","kana_pref":"ﾐﾔｻﾞｷｹﾝ","kana_city":"ﾆﾁﾅﾝｼ","kana_address":"ｸｽﾊﾞﾙ","pref":"宮崎県","city":"日南市","address":"楠原"},
{"zip_code":"8893152","kana_pref":"ﾐﾔｻﾞｷｹﾝ","kana_city":"ﾆﾁﾅﾝｼ","kana_address":"ｹﾖｼﾀﾞ","pref":"宮崎県","city":"日南市","address":"毛吉田"},
{"zip_code":"8892512","kana_pref":"ﾐﾔｻﾞｷｹﾝ","kana_city":"ﾆﾁﾅﾝｼ","kana_address":"ｻｶﾀﾆｺｳ","pref":"宮崎県","city":"日南市","address":"酒谷甲"},
{"zip_code":"8892511","kana_pref":"ﾐﾔｻﾞｷｹﾝ","kana_city":"ﾆﾁﾅﾝｼ","kana_address":"ｻｶﾀﾆｵﾂ","pref":"宮崎県","city":"日南市","address":"酒谷乙"},
{"zip_code":"8893142","kana_pref":"ﾐﾔｻﾞｷｹﾝ","kana_city":"ﾆﾁﾅﾝｼ","kana_address":"ｼｵﾂﾞﾙ","pref":"宮崎県","city":"日南市","address":"塩鶴"},
{"zip_code":"8893143","kana_pref":"ﾐﾔｻﾞｷｹﾝ","kana_city":"ﾆﾁﾅﾝｼ","kana_address":"ｼﾓｶﾀ","pref":"宮崎県","city":"日南市","address":"下方"},
{"zip_code":"8893154","kana_pref":"ﾐﾔｻﾞｷｹﾝ","kana_city":"ﾆﾁﾅﾝｼ","kana_address":"ﾂｶﾀﾞｺｳ","pref":"宮崎県","city":"日南市","address":"塚田甲"},
{"zip_code":"8893155","kana_pref":"ﾐﾔｻﾞｷｹﾝ","kana_city":"ﾆﾁﾅﾝｼ","kana_address":"ﾂｶﾀﾞｵﾂ","pref":"宮崎県","city":"日南市","address":"塚田乙"},
{"zip_code":"8892534","kana_pref":"ﾐﾔｻﾞｷｹﾝ","kana_city":"ﾆﾁﾅﾝｼ","kana_address":"ﾄｷﾄｳﾁｮｳ","pref":"宮崎県","city":"日南市","address":"時任町"},
{"zip_code":"8892524","kana_pref":"ﾐﾔｻﾞｷｹﾝ","kana_city":"ﾆﾁﾅﾝｼ","kana_address":"ﾄﾉﾄｺﾛ","pref":"宮崎県","city":"日南市","address":"殿所"},
{"zip_code":"8893213","kana_pref":"ﾐﾔｻﾞｷｹﾝ","kana_city":"ﾆﾁﾅﾝｼ","kana_address":"ﾅﾝｺﾞｳﾁｮｳｶﾀｶﾞﾐ","pref":"宮崎県","city":"日南市","address":"南郷町潟上"},
{"zip_code":"8893203","kana_pref":"ﾐﾔｻﾞｷｹﾝ","kana_city":"ﾆﾁﾅﾝｼ","kana_address":"ﾅﾝｺﾞｳﾁｮｳﾀﾆﾉｸﾁ","pref":"宮崎県","city":"日南市","address":"南郷町谷之口"},
{"zip_code":"8893201","kana_pref":"ﾐﾔｻﾞｷｹﾝ","kana_city":"ﾆﾁﾅﾝｼ","kana_address":"ﾅﾝｺﾞｳﾁｮｳﾂﾔﾉ","pref":"宮崎県","city":"日南市","address":"南郷町津屋野"},
{"zip_code":"8893202","kana_pref":"ﾐﾔｻﾞｷｹﾝ","kana_city":"ﾆﾁﾅﾝｼ","kana_address":"ﾅﾝｺﾞｳﾁｮｳﾅｶﾑﾗｺｳ","pref":"宮崎県","city":"日南市","address":"南郷町中村甲"},
{"zip_code":"8893204","kana_pref":"ﾐﾔｻﾞｷｹﾝ","kana_city":"ﾆﾁﾅﾝｼ","kana_address":"ﾅﾝｺﾞｳﾁｮｳﾅｶﾑﾗｵﾂ","pref":"宮崎県","city":"日南市","address":"南郷町中村乙"},
{"zip_code":"8893211","kana_pref":"ﾐﾔｻﾞｷｹﾝ","kana_city":"ﾆﾁﾅﾝｼ","kana_address":"ﾅﾝｺﾞｳﾁｮｳﾆｴﾅﾐ","pref":"宮崎県","city":"日南市","address":"南郷町贄波"},
{"zip_code":"8893205","kana_pref":"ﾐﾔｻﾞｷｹﾝ","kana_city":"ﾆﾁﾅﾝｼ","kana_address":"ﾅﾝｺﾞｳﾁｮｳﾆｼﾏﾁ","pref":"宮崎県","city":"日南市","address":"南郷町西町"},
{"zip_code":"8893207","kana_pref":"ﾐﾔｻﾞｷｹﾝ","kana_city":"ﾆﾁﾅﾝｼ","kana_address":"ﾅﾝｺﾞｳﾁｮｳﾋｶﾞｼﾏﾁ","pref":"宮崎県","city":"日南市","address":"南郷町東町"},
{"zip_code":"8893206","kana_pref":"ﾐﾔｻﾞｷｹﾝ","kana_city":"ﾆﾁﾅﾝｼ","kana_address":"ﾅﾝｺﾞｳﾁｮｳﾐﾅﾐﾏﾁ","pref":"宮崎県","city":"日南市","address":"南郷町南町"},
{"zip_code":"8893214","kana_pref":"ﾐﾔｻﾞｷｹﾝ","kana_city":"ﾆﾁﾅﾝｼ","kana_address":"ﾅﾝｺﾞｳﾁｮｳﾖﾜﾗ","pref":"宮崎県","city":"日南市","address":"南郷町榎原"},
{"zip_code":"8893215","kana_pref":"ﾐﾔｻﾞｷｹﾝ","kana_city":"ﾆﾁﾅﾝｼ","kana_address":"ﾅﾝｺﾞｳﾁｮｳﾖﾜﾗｺｳ","pref":"宮崎県","city":"日南市","address":"南郷町榎原甲"},
{"zip_code":"8893216","kana_pref":"ﾐﾔｻﾞｷｹﾝ","kana_city":"ﾆﾁﾅﾝｼ","kana_address":"ﾅﾝｺﾞｳﾁｮｳﾖﾜﾗｵﾂ","pref":"宮崎県","city":"日南市","address":"南郷町榎原乙"},
{"zip_code":"8893217","kana_pref":"ﾐﾔｻﾞｷｹﾝ","kana_city":"ﾆﾁﾅﾝｼ","kana_address":"ﾅﾝｺﾞｳﾁｮｳﾖﾜﾗﾍｲ","pref":"宮崎県","city":"日南市","address":"南郷町榎原丙"},
{"zip_code":"8893212","kana_pref":"ﾐﾔｻﾞｷｹﾝ","kana_city":"ﾆﾁﾅﾝｼ","kana_address":"ﾅﾝｺﾞｳﾁｮｳﾜｷﾓﾄ","pref":"宮崎県","city":"日南市","address":"南郷町脇本"},
{"zip_code":"8893153","kana_pref":"ﾐﾔｻﾞｷｹﾝ","kana_city":"ﾆﾁﾅﾝｼ","kana_address":"ﾊｷﾞﾉﾐﾈ","pref":"宮崎県","city":"日南市","address":"萩之嶺"},
{"zip_code":"8892521","kana_pref":"ﾐﾔｻﾞｷｹﾝ","kana_city":"ﾆﾁﾅﾝｼ","kana_address":"ﾋｶﾞｼﾍﾞﾝﾌﾞﾝｵﾂ","pref":"宮崎県","city":"日南市","address":"東弁分乙"},
{"zip_code":"8892522","kana_pref":"ﾐﾔｻﾞｷｹﾝ","kana_city":"ﾆﾁﾅﾝｼ","kana_address":"ﾋｶﾞｼﾍﾞﾝﾌﾞﾝｺｳ","pref":"宮崎県","city":"日南市","address":"東弁分甲"},
{"zip_code":"8892533","kana_pref":"ﾐﾔｻﾞｷｹﾝ","kana_city":"ﾆﾁﾅﾝｼ","kana_address":"ﾎｼｸﾗ","pref":"宮崎県","city":"日南市","address":"星倉"},
{"zip_code":"8892531","kana_pref":"ﾐﾔｻﾞｷｹﾝ","kana_city":"ﾆﾁﾅﾝｼ","kana_address":"ﾎﾝﾏﾁ","pref":"宮崎県","city":"日南市","address":"本町"},
{"zip_code":"8892523","kana_pref":"ﾐﾔｻﾞｷｹﾝ","kana_city":"ﾆﾁﾅﾝｼ","kana_address":"ﾏﾂﾅｶﾞ","pref":"宮崎県","city":"日南市","address":"松永"},
{"zip_code":"8892513","kana_pref":"ﾐﾔｻﾞｷｹﾝ","kana_city":"ﾆﾁﾅﾝｼ","kana_address":"ﾖｼﾉｶﾀ","pref":"宮崎県","city":"日南市","address":"吉野方"},
{"zip_code":"8891112","kana_pref":"ﾐﾔｻﾞｷｹﾝ","kana_city":"ﾋｭｳｶﾞｼ","kana_address":"ｻｲﾜｷ","pref":"宮崎県","city":"日向市","address":"幸脇"},
{"zip_code":"8891101","kana_pref":"ﾐﾔｻﾞｷｹﾝ","kana_city":"ﾋｭｳｶﾞｼ","kana_address":"ﾄｳｺﾞｳﾁｮｳﾔﾏｹﾞｵﾂ","pref":"宮崎県","city":"日向市","address":"東郷町山陰乙"},
{"zip_code":"8891121","kana_pref":"ﾐﾔｻﾞｷｹﾝ","kana_city":"ﾋｭｳｶﾞｼ","kana_address":"ﾄｳｺﾞｳﾁｮｳﾔﾏｹﾞｺｳ","pref":"宮崎県","city":"日向市","address":"東郷町山陰甲"},
{"zip_code":"8891111","kana_pref":"ﾐﾔｻﾞｷｹﾝ","kana_city":"ﾋｭｳｶﾞｼ","kana_address":"ﾐﾐﾂﾁｮｳ","pref":"宮崎県","city":"日向市","address":"美々津町"},
{"zip_code":"8893533","kana_pref":"ﾐﾔｻﾞｷｹﾝ","kana_city":"ｸｼﾏｼ","kana_address":"ｲﾁｳｼﾞ","pref":"宮崎県","city":"串間市","address":"一氏"},
{"zip_code":"8893311","kana_pref":"ﾐﾔｻﾞｷｹﾝ","kana_city":"ｸｼﾏｼ","kana_address":"ｲﾁｷ","pref":"宮崎県","city":"串間市","address":"市木"},
{"zip_code":"8893532","kana_pref":"ﾐﾔｻﾞｷｹﾝ","kana_city":"ｸｼﾏｼ","kana_address":"ｵｵﾋﾗ","pref":"宮崎県","city":"串間市","address":"大平"},
{"zip_code":"8893534","kana_pref":"ﾐﾔｻﾞｷｹﾝ","kana_city":"ｸｼﾏｼ","kana_address":"ｵｵﾔﾄﾞﾘ","pref":"宮崎県","city":"串間市","address":"大矢取"},
{"zip_code":"8893531","kana_pref":"ﾐﾔｻﾞｷｹﾝ","kana_city":"ｸｼﾏｼ","kana_address":"ﾅﾙ","pref":"宮崎県","city":"串間市","address":"奈留"},
{"zip_code":"8894300","kana_pref":"ﾐﾔｻﾞｷｹﾝ","kana_city":"ｴﾋﾞﾉｼ","kana_address":"","pref":"宮崎県","city":"えびの市","address":""},
{"zip_code":"8894303","kana_pref":"ﾐﾔｻﾞｷｹﾝ","kana_city":"ｴﾋﾞﾉｼ","kana_address":"ｲｹｼﾞﾏ","pref":"宮崎県","city":"えびの市","address":"池島"},
{"zip_code":"8894306","kana_pref":"ﾐﾔｻﾞｷｹﾝ","kana_city":"ｴﾋﾞﾉｼ","kana_address":"ｲﾏﾆｼ","pref":"宮崎県","city":"えびの市","address":"今西"},
{"zip_code":"8894162","kana_pref":"ﾐﾔｻﾞｷｹﾝ","kana_city":"ｴﾋﾞﾉｼ","kana_address":"ｳﾁﾀﾃ","pref":"宮崎県","city":"えびの市","address":"内竪"},
{"zip_code":"8894153","kana_pref":"ﾐﾔｻﾞｷｹﾝ","kana_city":"ｴﾋﾞﾉｼ","kana_address":"ｳﾗ","pref":"宮崎県","city":"えびの市","address":"浦"},
{"zip_code":"8894304","kana_pref":"ﾐﾔｻﾞｷｹﾝ","kana_city":"ｴﾋﾞﾉｼ","kana_address":"ｳﾜｴ","pref":"宮崎県","city":"えびの市","address":"上江"},
{"zip_code":"8894243","kana_pref":"ﾐﾔｻﾞｷｹﾝ","kana_city":"ｴﾋﾞﾉｼ","kana_address":"ｴﾉｷﾀﾞ","pref":"宮崎県","city":"えびの市","address":"榎田"},
{"zip_code":"8894314","kana_pref":"ﾐﾔｻﾞｷｹﾝ","kana_city":"ｴﾋﾞﾉｼ","kana_address":"ｵｵｺｳﾋﾞﾗ","pref":"宮崎県","city":"えびの市","address":"大河平"},
{"zip_code":"8894161","kana_pref":"ﾐﾔｻﾞｷｹﾝ","kana_city":"ｴﾋﾞﾉｼ","kana_address":"ｵｶﾏﾂ","pref":"宮崎県","city":"えびの市","address":"岡松"},
{"zip_code":"8894222","kana_pref":"ﾐﾔｻﾞｷｹﾝ","kana_city":"ｴﾋﾞﾉｼ","kana_address":"ｵﾀﾞ","pref":"宮崎県","city":"えびの市","address":"小田"},
{"zip_code":"8894155","kana_pref":"ﾐﾔｻﾞｷｹﾝ","kana_city":"ｴﾋﾞﾉｼ","kana_address":"ｶﾒｻﾜ","pref":"宮崎県","city":"えびの市","address":"亀沢"},
{"zip_code":"8894221","kana_pref":"ﾐﾔｻﾞｷｹﾝ","kana_city":"ｴﾋﾞﾉｼ","kana_address":"ｸﾘｼﾀ","pref":"宮崎県","city":"えびの市","address":"栗下"},
{"zip_code":"8894241","kana_pref":"ﾐﾔｻﾞｷｹﾝ","kana_city":"ｴﾋﾞﾉｼ","kana_address":"ｻｲｺﾞｳ","pref":"宮崎県","city":"えびの市","address":"西郷"},
{"zip_code":"8894312","kana_pref":"ﾐﾔｻﾞｷｹﾝ","kana_city":"ｴﾋﾞﾉｼ","kana_address":"ｻｶﾓﾄ","pref":"宮崎県","city":"えびの市","address":"坂元"},
{"zip_code":"8894152","kana_pref":"ﾐﾔｻﾞｷｹﾝ","kana_city":"ｴﾋﾞﾉｼ","kana_address":"ｼﾏｳﾁ","pref":"宮崎県","city":"えびの市","address":"島内"},
{"zip_code":"8894164","kana_pref":"ﾐﾔｻﾞｷｹﾝ","kana_city":"ｴﾋﾞﾉｼ","kana_address":"ｼｮｳﾐｮｳｼﾞ","pref":"宮崎県","city":"えびの市","address":"昌明寺"},
{"zip_code":"8894302","kana_pref":"ﾐﾔｻﾞｷｹﾝ","kana_city":"ｴﾋﾞﾉｼ","kana_address":"ｽｴﾅｶﾞ","pref":"宮崎県","city":"えびの市","address":"末永"},
{"zip_code":"8894313","kana_pref":"ﾐﾔｻﾞｷｹﾝ","kana_city":"ｴﾋﾞﾉｼ","kana_address":"ｽｷﾞｽﾞﾙ","pref":"宮崎県","city":"えびの市","address":"杉水流"},
{"zip_code":"8894311","kana_pref":"ﾐﾔｻﾞｷｹﾝ","kana_city":"ｴﾋﾞﾉｼ","kana_address":"ﾀﾞｲﾐｮｳｼﾞ","pref":"宮崎県","city":"えびの市","address":"大明司"},
{"zip_code":"8894163","kana_pref":"ﾐﾔｻﾞｷｹﾝ","kana_city":"ｴﾋﾞﾉｼ","kana_address":"ﾂﾙ","pref":"宮崎県","city":"えびの市","address":"水流"},
{"zip_code":"8894234","kana_pref":"ﾐﾔｻﾞｷｹﾝ","kana_city":"ｴﾋﾞﾉｼ","kana_address":"ﾅｶﾞﾔﾏ","pref":"宮崎県","city":"えびの市","address":"永山"},
{"zip_code":"8894165","kana_pref":"ﾐﾔｻﾞｷｹﾝ","kana_city":"ｴﾋﾞﾉｼ","kana_address":"ﾆｼｶﾜｷﾀ","pref":"宮崎県","city":"えびの市","address":"西川北"},
{"zip_code":"8894232","kana_pref":"ﾐﾔｻﾞｷｹﾝ","kana_city":"ｴﾋﾞﾉｼ","kana_address":"ﾆｼﾅｶﾞｴｳﾗ","pref":"宮崎県","city":"えびの市","address":"西長江浦"},
{"zip_code":"8894233","kana_pref":"ﾐﾔｻﾞｷｹﾝ","kana_city":"ｴﾋﾞﾉｼ","kana_address":"ﾊｲﾂｶ","pref":"宮崎県","city":"えびの市","address":"灰塚"},
{"zip_code":"8894301","kana_pref":"ﾐﾔｻﾞｷｹﾝ","kana_city":"ｴﾋﾞﾉｼ","kana_address":"ﾊﾗﾀﾞ","pref":"宮崎県","city":"えびの市","address":"原田"},
{"zip_code":"8894244","kana_pref":"ﾐﾔｻﾞｷｹﾝ","kana_city":"ｴﾋﾞﾉｼ","kana_address":"ﾋｶﾞｼｶﾜｷﾀ","pref":"宮崎県","city":"えびの市","address":"東川北"},
{"zip_code":"8894231","kana_pref":"ﾐﾔｻﾞｷｹﾝ","kana_city":"ｴﾋﾞﾉｼ","kana_address":"ﾋｶﾞｼﾅｶﾞｴｳﾗ","pref":"宮崎県","city":"えびの市","address":"東長江浦"},
{"zip_code":"8894305","kana_pref":"ﾐﾔｻﾞｷｹﾝ","kana_city":"ｴﾋﾞﾉｼ","kana_address":"ﾏｴﾀﾞ","pref":"宮崎県","city":"えびの市","address":"前田"},
{"zip_code":"8894151","kana_pref":"ﾐﾔｻﾞｷｹﾝ","kana_city":"ｴﾋﾞﾉｼ","kana_address":"ﾑｶｴ","pref":"宮崎県","city":"えびの市","address":"向江"},
{"zip_code":"8894154","kana_pref":"ﾐﾔｻﾞｷｹﾝ","kana_city":"ｴﾋﾞﾉｼ","kana_address":"ﾔﾅｷﾞｽﾞﾙ","pref":"宮崎県","city":"えびの市","address":"柳水流"},
{"zip_code":"8894242","kana_pref":"ﾐﾔｻﾞｷｹﾝ","kana_city":"ｴﾋﾞﾉｼ","kana_address":"ﾕﾀﾞ","pref":"宮崎県","city":"えびの市","address":"湯田"},
{"zip_code":"8891900","kana_pref":"ﾐﾔｻﾞｷｹﾝ","kana_city":"ｷﾀﾓﾛｶﾀｸﾞﾝﾐﾏﾀﾁｮｳ","kana_address":"","pref":"宮崎県","city":"北諸県郡三股町","address":""},
{"zip_code":"8891905","kana_pref":"ﾐﾔｻﾞｷｹﾝ","kana_city":"ｷﾀﾓﾛｶﾀｸﾞﾝﾐﾏﾀﾁｮｳ","kana_address":"ｲﾏｲﾁ","pref":"宮崎県","city":"北諸県郡三股町","address":"今市"},
{"zip_code":"8891901","kana_pref":"ﾐﾔｻﾞｷｹﾝ","kana_city":"ｷﾀﾓﾛｶﾀｸﾞﾝﾐﾏﾀﾁｮｳ","kana_address":"ｶﾊﾞﾔﾏ","pref":"宮崎県","city":"北諸県郡三股町","address":"樺山"},
{"zip_code":"8891902","kana_pref":"ﾐﾔｻﾞｷｹﾝ","kana_city":"ｷﾀﾓﾛｶﾀｸﾞﾝﾐﾏﾀﾁｮｳ","kana_address":"ｺﾞﾎﾝﾏﾂ","pref":"宮崎県","city":"北諸県郡三股町","address":"五本松"},
{"zip_code":"8891904","kana_pref":"ﾐﾔｻﾞｷｹﾝ","kana_city":"ｷﾀﾓﾛｶﾀｸﾞﾝﾐﾏﾀﾁｮｳ","kana_address":"ｼﾝﾊﾞﾊﾞ","pref":"宮崎県","city":"北諸県郡三股町","address":"新馬場"},
{"zip_code":"8891914","kana_pref":"ﾐﾔｻﾞｷｹﾝ","kana_city":"ｷﾀﾓﾛｶﾀｸﾞﾝﾐﾏﾀﾁｮｳ","kana_address":"ﾀﾃﾞｲｹ","pref":"宮崎県","city":"北諸県郡三股町","address":"蓼池"},
{"zip_code":"8891906","kana_pref":"ﾐﾔｻﾞｷｹﾝ","kana_city":"ｷﾀﾓﾛｶﾀｸﾞﾝﾐﾏﾀﾁｮｳ","kana_address":"ﾅｶﾊﾞﾙ","pref":"宮崎県","city":"北諸県郡三股町","address":"中原"},
{"zip_code":"8891911","kana_pref":"ﾐﾔｻﾞｷｹﾝ","kana_city":"ｷﾀﾓﾛｶﾀｸﾞﾝﾐﾏﾀﾁｮｳ","kana_address":"ﾅｶﾞﾀ","pref":"宮崎県","city":"北諸県郡三股町","address":"長田"},
{"zip_code":"8891907","kana_pref":"ﾐﾔｻﾞｷｹﾝ","kana_city":"ｷﾀﾓﾛｶﾀｸﾞﾝﾐﾏﾀﾁｮｳ","kana_address":"ﾊﾅﾐﾊﾞﾙ","pref":"宮崎県","city":"北諸県郡三股町","address":"花見原"},
{"zip_code":"8891903","kana_pref":"ﾐﾔｻﾞｷｹﾝ","kana_city":"ｷﾀﾓﾛｶﾀｸﾞﾝﾐﾏﾀﾁｮｳ","kana_address":"ﾋｴﾀﾞ","pref":"宮崎県","city":"北諸県郡三股町","address":"稗田"},
{"zip_code":"8891912","kana_pref":"ﾐﾔｻﾞｷｹﾝ","kana_city":"ｷﾀﾓﾛｶﾀｸﾞﾝﾐﾏﾀﾁｮｳ","kana_address":"ﾐﾔﾑﾗ","pref":"宮崎県","city":"北諸県郡三股町","address":"宮村"},
{"zip_code":"8891913","kana_pref":"ﾐﾔｻﾞｷｹﾝ","kana_city":"ｷﾀﾓﾛｶﾀｸﾞﾝﾐﾏﾀﾁｮｳ","kana_address":"ﾓﾁﾊﾞﾙ","pref":"宮崎県","city":"北諸県郡三股町","address":"餅原"},
{"zip_code":"8894400","kana_pref":"ﾐﾔｻﾞｷｹﾝ","kana_city":"ﾆｼﾓﾛｶﾀｸﾞﾝﾀｶﾊﾙﾁｮｳ","kana_address":"","pref":"宮崎県","city":"西諸県郡高原町","address":""},
{"zip_code":"8894413","kana_pref":"ﾐﾔｻﾞｷｹﾝ","kana_city":"ﾆｼﾓﾛｶﾀｸﾞﾝﾀｶﾊﾙﾁｮｳ","kana_address":"ｳｼﾛｶﾜﾁ","pref":"宮崎県","city":"西諸県郡高原町","address":"後川内"},
{"zip_code":"8894414","kana_pref":"ﾐﾔｻﾞｷｹﾝ","kana_city":"ﾆｼﾓﾛｶﾀｸﾞﾝﾀｶﾊﾙﾁｮｳ","kana_address":"ｶﾏﾑﾀ","pref":"宮崎県","city":"西諸県郡高原町","address":"蒲牟田"},
{"zip_code":"8894412","kana_pref":"ﾐﾔｻﾞｷｹﾝ","kana_city":"ﾆｼﾓﾛｶﾀｸﾞﾝﾀｶﾊﾙﾁｮｳ","kana_address":"ﾆｼﾌﾓﾄ","pref":"宮崎県","city":"西諸県郡高原町","address":"西麓"},
{"zip_code":"8894411","kana_pref":"ﾐﾔｻﾞｷｹﾝ","kana_city":"ﾆｼﾓﾛｶﾀｸﾞﾝﾀｶﾊﾙﾁｮｳ","kana_address":"ﾋﾛﾜﾗ","pref":"宮崎県","city":"西諸県郡高原町","address":"広原"},
{"zip_code":"8891400","kana_pref":"ﾐﾔｻﾞｷｹﾝ","kana_city":"ｺﾕｸﾞﾝｼﾝﾄﾐﾁｮｳ","kana_address":"","pref":"宮崎県","city":"児湯郡新富町","address":""},
{"zip_code":"8891405","kana_pref":"ﾐﾔｻﾞｷｹﾝ","kana_city":"ｺﾕｸﾞﾝｼﾝﾄﾐﾁｮｳ","kana_address":"ｲｸﾗ","pref":"宮崎県","city":"児湯郡新富町","address":"伊倉"},
{"zip_code":"8891403","kana_pref":"ﾐﾔｻﾞｷｹﾝ","kana_city":"ｺﾕｸﾞﾝｼﾝﾄﾐﾁｮｳ","kana_address":"ｶﾐﾄﾝﾀﾞ","pref":"宮崎県","city":"児湯郡新富町","address":"上富田"},
{"zip_code":"8891404","kana_pref":"ﾐﾔｻﾞｷｹﾝ","kana_city":"ｺﾕｸﾞﾝｼﾝﾄﾐﾁｮｳ","kana_address":"ｼﾓﾄﾝﾀﾞ","pref":"宮崎県","city":"児湯郡新富町","address":"下富田"},
{"zip_code":"8891411","kana_pref":"ﾐﾔｻﾞｷｹﾝ","kana_city":"ｺﾕｸﾞﾝｼﾝﾄﾐﾁｮｳ","kana_address":"ﾄﾝﾀﾞ","pref":"宮崎県","city":"児湯郡新富町","address":"富田"},
{"zip_code":"8891415","kana_pref":"ﾐﾔｻﾞｷｹﾝ","kana_city":"ｺﾕｸﾞﾝｼﾝﾄﾐﾁｮｳ","kana_address":"ﾄﾝﾀﾞｷﾀ","pref":"宮崎県","city":"児湯郡新富町","address":"富田北"},
{"zip_code":"8891412","kana_pref":"ﾐﾔｻﾞｷｹﾝ","kana_city":"ｺﾕｸﾞﾝｼﾝﾄﾐﾁｮｳ","kana_address":"ﾄﾝﾀﾞﾋｶﾞｼ","pref":"宮崎県","city":"児湯郡新富町","address":"富田東"},
{"zip_code":"8891413","kana_pref":"ﾐﾔｻﾞｷｹﾝ","kana_city":"ｺﾕｸﾞﾝｼﾝﾄﾐﾁｮｳ","kana_address":"ﾄﾝﾀﾞﾆｼ","pref":"宮崎県","city":"児湯郡新富町","address":"富田西"},
{"zip_code":"8891414","kana_pref":"ﾐﾔｻﾞｷｹﾝ","kana_city":"ｺﾕｸﾞﾝｼﾝﾄﾐﾁｮｳ","kana_address":"ﾄﾝﾀﾞﾐﾅﾐ","pref":"宮崎県","city":"児湯郡新富町","address":"富田南"},
{"zip_code":"8891406","kana_pref":"ﾐﾔｻﾞｷｹﾝ","kana_city":"ｺﾕｸﾞﾝｼﾝﾄﾐﾁｮｳ","kana_address":"ﾆｭｳﾀ","pref":"宮崎県","city":"児湯郡新富町","address":"新田"},
{"zip_code":"8891401","kana_pref":"ﾐﾔｻﾞｷｹﾝ","kana_city":"ｺﾕｸﾞﾝｼﾝﾄﾐﾁｮｳ","kana_address":"ﾋｵｷ","pref":"宮崎県","city":"児湯郡新富町","address":"日置"},
{"zip_code":"8891402","kana_pref":"ﾐﾔｻﾞｷｹﾝ","kana_city":"ｺﾕｸﾞﾝｼﾝﾄﾐﾁｮｳ","kana_address":"ﾐﾅｼﾛ","pref":"宮崎県","city":"児湯郡新富町","address":"三納代"},
{"zip_code":"8891300","kana_pref":"ﾐﾔｻﾞｷｹﾝ","kana_city":"ｺﾕｸﾞﾝｶﾜﾐﾅﾐﾁｮｳ","kana_address":"","pref":"宮崎県","city":"児湯郡川南町","address":""},
{"zip_code":"8891301","kana_pref":"ﾐﾔｻﾞｷｹﾝ","kana_city":"ｺﾕｸﾞﾝｶﾜﾐﾅﾐﾁｮｳ","kana_address":"ｶﾜﾐﾅﾐ","pref":"宮崎県","city":"児湯郡川南町","address":"川南"},
{"zip_code":"8891302","kana_pref":"ﾐﾔｻﾞｷｹﾝ","kana_city":"ｺﾕｸﾞﾝｶﾜﾐﾅﾐﾁｮｳ","kana_address":"ﾍｲﾀﾞ","pref":"宮崎県","city":"児湯郡川南町","address":"平田"},
{"zip_code":"8891200","kana_pref":"ﾐﾔｻﾞｷｹﾝ","kana_city":"ｺﾕｸﾞﾝﾂﾉﾁｮｳ","kana_address":"","pref":"宮崎県","city":"児湯郡都農町","address":""},
{"zip_code":"8891201","kana_pref":"ﾐﾔｻﾞｷｹﾝ","kana_city":"ｺﾕｸﾞﾝﾂﾉﾁｮｳ","kana_address":"ｶﾜｷﾀ","pref":"宮崎県","city":"児湯郡都農町","address":"川北"},
{"zip_code":"8890600","kana_pref":"ﾐﾔｻﾞｷｹﾝ","kana_city":"ﾋｶﾞｼｳｽｷｸﾞﾝｶﾄﾞｶﾞﾜﾁｮｳ","kana_address":"","pref":"宮崎県","city":"東臼杵郡門川町","address":""},
{"zip_code":"8890602","kana_pref":"ﾐﾔｻﾞｷｹﾝ","kana_city":"ﾋｶﾞｼｳｽｷｸﾞﾝｶﾄﾞｶﾞﾜﾁｮｳ","kana_address":"ｲｵﾘｶﾞﾜ","pref":"宮崎県","city":"東臼杵郡門川町","address":"庵川"},
{"zip_code":"8890605","kana_pref":"ﾐﾔｻﾞｷｹﾝ","kana_city":"ﾋｶﾞｼｳｽｷｸﾞﾝｶﾄﾞｶﾞﾜﾁｮｳ","kana_address":"ｲｵﾘｶﾞﾜﾆｼ","pref":"宮崎県","city":"東臼杵郡門川町","address":"庵川西"},
{"zip_code":"8890603","kana_pref":"ﾐﾔｻﾞｷｹﾝ","kana_city":"ﾋｶﾞｼｳｽｷｸﾞﾝｶﾄﾞｶﾞﾜﾁｮｳ","kana_address":"ｶｸｻ","pref":"宮崎県","city":"東臼杵郡門川町","address":"加草"},
{"zip_code":"8890611","kana_pref":"ﾐﾔｻﾞｷｹﾝ","kana_city":"ﾋｶﾞｼｳｽｷｸﾞﾝｶﾄﾞｶﾞﾜﾁｮｳ","kana_address":"ｶﾄﾞｶﾜｵｽﾞｴ","pref":"宮崎県","city":"東臼杵郡門川町","address":"門川尾末"},
{"zip_code":"8890614","kana_pref":"ﾐﾔｻﾞｷｹﾝ","kana_city":"ﾋｶﾞｼｳｽｷｸﾞﾝｶﾄﾞｶﾞﾜﾁｮｳ","kana_address":"ｶﾐﾉﾏﾁ","pref":"宮崎県","city":"東臼杵郡門川町","address":"上町"},
{"zip_code":"8890604","kana_pref":"ﾐﾔｻﾞｷｹﾝ","kana_city":"ﾋｶﾞｼｳｽｷｸﾞﾝｶﾄﾞｶﾞﾜﾁｮｳ","kana_address":"ｶﾜﾁ","pref":"宮崎県","city":"東臼杵郡門川町","address":"川内"},
{"zip_code":"8890615","kana_pref":"ﾐﾔｻﾞｷｹﾝ","kana_city":"ﾋｶﾞｼｳｽｷｸﾞﾝｶﾄﾞｶﾞﾜﾁｮｳ","kana_address":"ｻｶｴｶﾞｵｶ","pref":"宮崎県","city":"東臼杵郡門川町","address":"栄ケ丘"},
{"zip_code":"8890624","kana_pref":"ﾐﾔｻﾞｷｹﾝ","kana_city":"ﾋｶﾞｼｳｽｷｸﾞﾝｶﾄﾞｶﾞﾜﾁｮｳ","kana_address":"ｼﾞｮｳｶﾞｵｶ","pref":"宮崎県","city":"東臼杵郡門川町","address":"城ケ丘"},
{"zip_code":"8890601","kana_pref":"ﾐﾔｻﾞｷｹﾝ","kana_city":"ﾋｶﾞｼｳｽｷｸﾞﾝｶﾄﾞｶﾞﾜﾁｮｳ","kana_address":"ｽｶﾞｻｷ","pref":"宮崎県","city":"東臼杵郡門川町","address":"須賀崎"},
{"zip_code":"8890612","kana_pref":"ﾐﾔｻﾞｷｹﾝ","kana_city":"ﾋｶﾞｼｳｽｷｸﾞﾝｶﾄﾞｶﾞﾜﾁｮｳ","kana_address":"ﾅｶｽ","pref":"宮崎県","city":"東臼杵郡門川町","address":"中須"},
{"zip_code":"8890622","kana_pref":"ﾐﾔｻﾞｷｹﾝ","kana_city":"ﾋｶﾞｼｳｽｷｸﾞﾝｶﾄﾞｶﾞﾜﾁｮｳ","kana_address":"ﾆｼｻｶｴﾏﾁ","pref":"宮崎県","city":"東臼杵郡門川町","address":"西栄町"},
{"zip_code":"8890621","kana_pref":"ﾐﾔｻﾞｷｹﾝ","kana_city":"ﾋｶﾞｼｳｽｷｸﾞﾝｶﾄﾞｶﾞﾜﾁｮｳ","kana_address":"ﾋｶﾞｼｻｶｴﾏﾁ","pref":"宮崎県","city":"東臼杵郡門川町","address":"東栄町"},
{"zip_code":"8890626","kana_pref":"ﾐﾔｻﾞｷｹﾝ","kana_city":"ﾋｶﾞｼｳｽｷｸﾞﾝｶﾄﾞｶﾞﾜﾁｮｳ","kana_address":"ﾋﾗｼﾞｮｳﾆｼ","pref":"宮崎県","city":"東臼杵郡門川町","address":"平城西"},
{"zip_code":"8890625","kana_pref":"ﾐﾔｻﾞｷｹﾝ","kana_city":"ﾋｶﾞｼｳｽｷｸﾞﾝｶﾄﾞｶﾞﾜﾁｮｳ","kana_address":"ﾋﾗｼﾞｮｳﾋｶﾞｼ","pref":"宮崎県","city":"東臼杵郡門川町","address":"平城東"},
{"zip_code":"8890613","kana_pref":"ﾐﾔｻﾞｷｹﾝ","kana_city":"ﾋｶﾞｼｳｽｷｸﾞﾝｶﾄﾞｶﾞﾜﾁｮｳ","kana_address":"ﾎﾝﾏﾁ","pref":"宮崎県","city":"東臼杵郡門川町","address":"本町"},
{"zip_code":"8890617","kana_pref":"ﾐﾔｻﾞｷｹﾝ","kana_city":"ﾋｶﾞｼｳｽｷｸﾞﾝｶﾄﾞｶﾞﾜﾁｮｳ","kana_address":"ﾐﾅﾐｶﾞｵｶ","pref":"宮崎県","city":"東臼杵郡門川町","address":"南ケ丘"},
{"zip_code":"8890616","kana_pref":"ﾐﾔｻﾞｷｹﾝ","kana_city":"ﾋｶﾞｼｳｽｷｸﾞﾝｶﾄﾞｶﾞﾜﾁｮｳ","kana_address":"ﾐﾅﾐﾏﾁ","pref":"宮崎県","city":"東臼杵郡門川町","address":"南町"},
{"zip_code":"8890623","kana_pref":"ﾐﾔｻﾞｷｹﾝ","kana_city":"ﾋｶﾞｼｳｽｷｸﾞﾝｶﾄﾞｶﾞﾜﾁｮｳ","kana_address":"ﾐﾔｶﾞﾊﾗ","pref":"宮崎県","city":"東臼杵郡門川町","address":"宮ケ原"},
{"zip_code":"8890901","kana_pref":"ﾐﾔｻﾞｷｹﾝ","kana_city":"ﾋｶﾞｼｳｽｷｸﾞﾝﾐｻﾄﾁｮｳ","kana_address":"ｷﾀｺﾞｳｸｳﾅﾏ","pref":"宮崎県","city":"東臼杵郡美郷町","address":"北郷区宇納間"},
{"zip_code":"8890903","kana_pref":"ﾐﾔｻﾞｷｹﾝ","kana_city":"ﾋｶﾞｼｳｽｷｸﾞﾝﾐｻﾄﾁｮｳ","kana_address":"ｷﾀｺﾞｳｸｸﾛｷﾞ","pref":"宮崎県","city":"東臼杵郡美郷町","address":"北郷区黒木"},
{"zip_code":"8890902","kana_pref":"ﾐﾔｻﾞｷｹﾝ","kana_city":"ﾋｶﾞｼｳｽｷｸﾞﾝﾐｻﾄﾁｮｳ","kana_address":"ｷﾀｺﾞｳｸﾆｭｳｼﾀ","pref":"宮崎県","city":"東臼杵郡美郷町","address":"北郷区入下"}]}