{"zip_code":[
{"zip_code":"8900000","kana_pref":"ｶｺﾞｼﾏｹﾝ","kana_city":"ｶｺﾞｼﾏｼ","kana_address":"","pref":"鹿児島県","city":"鹿児島市","address":""},
{"zip_code":"8900054","kana_pref":"ｶｺﾞｼﾏｹﾝ","kana_city":"ｶｺﾞｼﾏｼ","kana_address":"ｱﾗﾀ","pref":"鹿児島県","city":"鹿児島市","address":"荒田"},
{"zip_code":"8900008","kana_pref":"ｶｺﾞｼﾏｹﾝ","kana_city":"ｶｺﾞｼﾏｼ","kana_address":"ｲｼｷ","pref":"鹿児島県","city":"鹿児島市","address":"伊敷"},
{"zip_code":"8900007","kana_pref":"ｶｺﾞｼﾏｹﾝ","kana_city":"ｶｺﾞｼﾏｼ","kana_address":"ｲｼｷﾀﾞｲ","pref":"鹿児島県","city":"鹿児島市","address":"伊敷台"},
{"zip_code":"8900003","kana_pref":"ｶｺﾞｼﾏｹﾝ","kana_city":"ｶｺﾞｼﾏｼ","kana_address":"ｲｼｷﾁｮｳ","pref":"鹿児島県","city":"鹿児島市","address":"伊敷町"},
{"zip_code":"8900055","kana_pref":"ｶｺﾞｼﾏｹﾝ","kana_city":"ｶｺﾞｼﾏｼ","kana_address":"ｳｴｱﾗﾀﾁｮｳ","pref":"鹿児島県","city":"鹿児島市","address":"上荒田町"},
{"zip_code":"8900052","kana_pref":"ｶｺﾞｼﾏｹﾝ","kana_city":"ｶｺﾞｼﾏｼ","kana_address":"ｳｴﾉｿﾉﾁｮｳ","pref":"鹿児島県","city":"鹿児島市","address":"上之園町"},
{"zip_code":"8900073","kana_pref":"ｶｺﾞｼﾏｹﾝ","kana_city":"ｶｺﾞｼﾏｼ","kana_address":"ｳｽｷ","pref":"鹿児島県","city":"鹿児島市","address":"宇宿"},
{"zip_code":"8900074","kana_pref":"ｶｺﾞｼﾏｹﾝ","kana_city":"ｶｺﾞｼﾏｼ","kana_address":"ｳｽｷﾁｮｳ","pref":"鹿児島県","city":"鹿児島市","address":"宇宿町"},
{"zip_code":"8900021","kana_pref":"ｶｺﾞｼﾏｹﾝ","kana_city":"ｶｺﾞｼﾏｼ","kana_address":"ｵﾉ","pref":"鹿児島県","city":"鹿児島市","address":"小野"},
{"zip_code":"8900022","kana_pref":"ｶｺﾞｼﾏｹﾝ","kana_city":"ｶｺﾞｼﾏｼ","kana_address":"ｵﾉﾁｮｳ","pref":"鹿児島県","city":"鹿児島市","address":"小野町"},
{"zip_code":"8900063","kana_pref":"ｶｺﾞｼﾏｹﾝ","kana_city":"ｶｺﾞｼﾏｼ","kana_address":"ｶﾓｲｹ","pref":"鹿児島県","city":"鹿児島市","address":"鴨池"},
{"zip_code":"8900064","kana_pref":"ｶｺﾞｼﾏｹﾝ","kana_city":"ｶｺﾞｼﾏｼ","kana_address":"ｶﾓｲｹｼﾝﾏﾁ","pref":"鹿児島県","city":"鹿児島市","address":"鴨池新町"},
{"zip_code":"8900038","kana_pref":"ｶｺﾞｼﾏｹﾝ","kana_city":"ｶｺﾞｼﾏｼ","kana_address":"ｺｳﾖｳ","pref":"鹿児島県","city":"鹿児島市","address":"向陽"},
{"zip_code":"8900051","kana_pref":"ｶｺﾞｼﾏｹﾝ","kana_city":"ｶｺﾞｼﾏｼ","kana_address":"ｺｳﾗｲﾁｮｳ","pref":"鹿児島県","city":"鹿児島市","address":"高麗町"},
{"zip_code":"8900065","kana_pref":"ｶｺﾞｼﾏｹﾝ","kana_city":"ｶｺﾞｼﾏｼ","kana_address":"ｺｵﾘﾓﾄ","pref":"鹿児島県","city":"鹿児島市","address":"郡元"},
{"zip_code":"8900084","kana_pref":"ｶｺﾞｼﾏｹﾝ","kana_city":"ｶｺﾞｼﾏｼ","kana_address":"ｺｵﾘﾓﾄﾁｮｳ","pref":"鹿児島県","city":"鹿児島市","address":"郡元町"},
{"zip_code":"8900075","kana_pref":"ｶｺﾞｼﾏｹﾝ","kana_city":"ｶｺﾞｼﾏｼ","kana_address":"ｻｸﾗｶﾞｵｶ","pref":"鹿児島県","city":"鹿児島市","address":"桜ケ丘"},
{"zip_code":"8900071","kana_pref":"ｶｺﾞｼﾏｹﾝ","kana_city":"ｶｺﾞｼﾏｼ","kana_address":"ｻﾝﾜﾁｮｳ","pref":"鹿児島県","city":"鹿児島市","address":"三和町"},
{"zip_code":"8900056","kana_pref":"ｶｺﾞｼﾏｹﾝ","kana_city":"ｶｺﾞｼﾏｼ","kana_address":"ｼﾓｱﾗﾀ","pref":"鹿児島県","city":"鹿児島市","address":"下荒田"},
{"zip_code":"8900005","kana_pref":"ｶｺﾞｼﾏｹﾝ","kana_city":"ｶｺﾞｼﾏｼ","kana_address":"ｼﾓｲｼｷ","pref":"鹿児島県","city":"鹿児島市","address":"下伊敷"},
{"zip_code":"8900004","kana_pref":"ｶｺﾞｼﾏｹﾝ","kana_city":"ｶｺﾞｼﾏｼ","kana_address":"ｼﾓｲｼｷﾁｮｳ","pref":"鹿児島県","city":"鹿児島市","address":"下伊敷町"},
{"zip_code":"8900041","kana_pref":"ｶｺﾞｼﾏｹﾝ","kana_city":"ｶｺﾞｼﾏｼ","kana_address":"ｼﾞｮｳｾｲ","pref":"鹿児島県","city":"鹿児島市","address":"城西"},
{"zip_code":"8900013","kana_pref":"ｶｺﾞｼﾏｹﾝ","kana_city":"ｶｺﾞｼﾏｼ","kana_address":"ｼﾛﾔﾏ","pref":"鹿児島県","city":"鹿児島市","address":"城山"},
{"zip_code":"8900072","kana_pref":"ｶｺﾞｼﾏｹﾝ","kana_city":"ｶｺﾞｼﾏｼ","kana_address":"ｼﾝｴｲﾁｮｳ","pref":"鹿児島県","city":"鹿児島市","address":"新栄町"},
{"zip_code":"8900016","kana_pref":"ｶｺﾞｼﾏｹﾝ","kana_city":"ｶｺﾞｼﾏｼ","kana_address":"ｼﾝｼｮｳｲﾝﾁｮｳ","pref":"鹿児島県","city":"鹿児島市","address":"新照院町"},
{"zip_code":"8900032","kana_pref":"ｶｺﾞｼﾏｹﾝ","kana_city":"ｶｺﾞｼﾏｼ","kana_address":"ｾｲﾘｮｳ","pref":"鹿児島県","city":"鹿児島市","address":"西陵"},
{"zip_code":"8900001","kana_pref":"ｶｺﾞｼﾏｹﾝ","kana_city":"ｶｺﾞｼﾏｼ","kana_address":"ｾﾝﾈﾝ","pref":"鹿児島県","city":"鹿児島市","address":"千年"},
{"zip_code":"8900014","kana_pref":"ｶｺﾞｼﾏｹﾝ","kana_city":"ｶｺﾞｼﾏｼ","kana_address":"ｿｳﾑﾀ","pref":"鹿児島県","city":"鹿児島市","address":"草牟田"},
{"zip_code":"8900015","kana_pref":"ｶｺﾞｼﾏｹﾝ","kana_city":"ｶｺﾞｼﾏｼ","kana_address":"ｿｳﾑﾀﾁｮｳ","pref":"鹿児島県","city":"鹿児島市","address":"草牟田町"},
{"zip_code":"8900043","kana_pref":"ｶｺﾞｼﾏｹﾝ","kana_city":"ｶｺﾞｼﾏｼ","kana_address":"ﾀｶｼ","pref":"鹿児島県","city":"鹿児島市","address":"鷹師"},
{"zip_code":"8900034","kana_pref":"ｶｺﾞｼﾏｹﾝ","kana_city":"ｶｺﾞｼﾏｼ","kana_address":"ﾀｶﾞﾐ","pref":"鹿児島県","city":"鹿児島市","address":"田上"},
{"zip_code":"8900036","kana_pref":"ｶｺﾞｼﾏｹﾝ","kana_city":"ｶｺﾞｼﾏｼ","kana_address":"ﾀｶﾞﾐﾀﾞｲ","pref":"鹿児島県","city":"鹿児島市","address":"田上台"},
{"zip_code":"8900035","kana_pref":"ｶｺﾞｼﾏｹﾝ","kana_city":"ｶｺﾞｼﾏｼ","kana_address":"ﾀｶﾞﾐﾁｮｳ","pref":"鹿児島県","city":"鹿児島市","address":"田上町"},
{"zip_code":"8900045","kana_pref":"ｶｺﾞｼﾏｹﾝ","kana_city":"ｶｺﾞｼﾏｼ","kana_address":"ﾀｹ","pref":"鹿児島県","city":"鹿児島市","address":"武"},
{"zip_code":"8900031","kana_pref":"ｶｺﾞｼﾏｹﾝ","kana_city":"ｶｺﾞｼﾏｼ","kana_address":"ﾀｹｵｶ","pref":"鹿児島県","city":"鹿児島市","address":"武岡"},
{"zip_code":"8900011","kana_pref":"ｶｺﾞｼﾏｹﾝ","kana_city":"ｶｺﾞｼﾏｼ","kana_address":"ﾀﾏｻﾞﾄﾀﾞﾝﾁ","pref":"鹿児島県","city":"鹿児島市","address":"玉里団地"},
{"zip_code":"8900012","kana_pref":"ｶｺﾞｼﾏｹﾝ","kana_city":"ｶｺﾞｼﾏｼ","kana_address":"ﾀﾏｻﾞﾄﾁｮｳ","pref":"鹿児島県","city":"鹿児島市","address":"玉里町"},
{"zip_code":"8900076","kana_pref":"ｶｺﾞｼﾏｹﾝ","kana_city":"ｶｺﾞｼﾏｼ","kana_address":"ﾁｭｳｵｳｺｳｼﾝﾏﾁ","pref":"鹿児島県","city":"鹿児島市","address":"中央港新町"},
{"zip_code":"8900053","kana_pref":"ｶｺﾞｼﾏｹﾝ","kana_city":"ｶｺﾞｼﾏｼ","kana_address":"ﾁｭｳｵｳﾁｮｳ","pref":"鹿児島県","city":"鹿児島市","address":"中央町"},
{"zip_code":"8900061","kana_pref":"ｶｺﾞｼﾏｹﾝ","kana_city":"ｶｺﾞｼﾏｼ","kana_address":"ﾃﾝﾎﾟｻﾞﾝﾁｮｳ","pref":"鹿児島県","city":"鹿児島市","address":"天保山町"},
{"zip_code":"8900047","kana_pref":"ｶｺﾞｼﾏｹﾝ","kana_city":"ｶｺﾞｼﾏｼ","kana_address":"ﾄｷﾜ","pref":"鹿児島県","city":"鹿児島市","address":"常盤"},
{"zip_code":"8900044","kana_pref":"ｶｺﾞｼﾏｹﾝ","kana_city":"ｶｺﾞｼﾏｼ","kana_address":"ﾄｷﾜﾁｮｳ","pref":"鹿児島県","city":"鹿児島市","address":"常盤町"},
{"zip_code":"8900081","kana_pref":"ｶｺﾞｼﾏｹﾝ","kana_city":"ｶｺﾞｼﾏｼ","kana_address":"ﾄｿ","pref":"鹿児島県","city":"鹿児島市","address":"唐湊"},
{"zip_code":"8900023","kana_pref":"ｶｺﾞｼﾏｹﾝ","kana_city":"ｶｺﾞｼﾏｼ","kana_address":"ﾅｶﾞﾖｼ","pref":"鹿児島県","city":"鹿児島市","address":"永吉"},
{"zip_code":"8900002","kana_pref":"ｶｺﾞｼﾏｹﾝ","kana_city":"ｶｺﾞｼﾏｼ","kana_address":"ﾆｼｲｼｷ","pref":"鹿児島県","city":"鹿児島市","address":"西伊敷"},
{"zip_code":"8900046","kana_pref":"ｶｺﾞｼﾏｹﾝ","kana_city":"ｶｺﾞｼﾏｼ","kana_address":"ﾆｼﾀﾞ","pref":"鹿児島県","city":"鹿児島市","address":"西田"},
{"zip_code":"8900033","kana_pref":"ｶｺﾞｼﾏｹﾝ","kana_city":"ｶｺﾞｼﾏｼ","kana_address":"ﾆｼﾍﾞｯﾌﾟﾁｮｳ","pref":"鹿児島県","city":"鹿児島市","address":"西別府町"},
{"zip_code":"8900083","kana_pref":"ｶｺﾞｼﾏｹﾝ","kana_city":"ｶｺﾞｼﾏｼ","kana_address":"ﾆｼﾑﾗｻｷﾊﾞﾙﾁｮｳ","pref":"鹿児島県","city":"鹿児島市","address":"西紫原町"},
{"zip_code":"8900026","kana_pref":"ｶｺﾞｼﾏｹﾝ","kana_city":"ｶｺﾞｼﾏｼ","kana_address":"ﾊﾗﾗ","pref":"鹿児島県","city":"鹿児島市","address":"原良"},
{"zip_code":"8900025","kana_pref":"ｶｺﾞｼﾏｹﾝ","kana_city":"ｶｺﾞｼﾏｼ","kana_address":"ﾊﾗﾗﾁｮｳ","pref":"鹿児島県","city":"鹿児島市","address":"原良町"},
{"zip_code":"8900068","kana_pref":"ｶｺﾞｼﾏｹﾝ","kana_city":"ｶｺﾞｼﾏｼ","kana_address":"ﾋｶﾞｼｺｵﾘﾓﾄﾁｮｳ","pref":"鹿児島県","city":"鹿児島市","address":"東郡元町"},
{"zip_code":"8900086","kana_pref":"ｶｺﾞｼﾏｹﾝ","kana_city":"ｶｺﾞｼﾏｼ","kana_address":"ﾋﾉﾃﾞﾁｮｳ","pref":"鹿児島県","city":"鹿児島市","address":"日之出町"},
{"zip_code":"8900037","kana_pref":"ｶｺﾞｼﾏｹﾝ","kana_city":"ｶｺﾞｼﾏｼ","kana_address":"ﾋﾛｷ","pref":"鹿児島県","city":"鹿児島市","address":"広木"},
{"zip_code":"8900066","kana_pref":"ｶｺﾞｼﾏｹﾝ","kana_city":"ｶｺﾞｼﾏｼ","kana_address":"ﾏｻｺﾞﾁｮｳ","pref":"鹿児島県","city":"鹿児島市","address":"真砂町"},
{"zip_code":"8900067","kana_pref":"ｶｺﾞｼﾏｹﾝ","kana_city":"ｶｺﾞｼﾏｼ","kana_address":"ﾏｻｺﾞﾎﾝﾏﾁ","pref":"鹿児島県","city":"鹿児島市","address":"真砂本町"},
{"zip_code":"8900069","kana_pref":"ｶｺﾞｼﾏｹﾝ","kana_city":"ｶｺﾞｼﾏｼ","kana_address":"ﾐﾅﾐｺｵﾘﾓﾄﾁｮｳ","pref":"鹿児島県","city":"鹿児島市","address":"南郡元町"},
{"zip_code":"8900085","kana_pref":"ｶｺﾞｼﾏｹﾝ","kana_city":"ｶｺﾞｼﾏｼ","kana_address":"ﾐﾅﾐｼﾝﾏﾁ","pref":"鹿児島県","city":"鹿児島市","address":"南新町"},
{"zip_code":"8900082","kana_pref":"ｶｺﾞｼﾏｹﾝ","kana_city":"ｶｺﾞｼﾏｼ","kana_address":"ﾑﾗｻｷﾊﾞﾙ","pref":"鹿児島県","city":"鹿児島市","address":"紫原"},
{"zip_code":"8900024","kana_pref":"ｶｺﾞｼﾏｹﾝ","kana_city":"ｶｺﾞｼﾏｼ","kana_address":"ﾒｲﾜ","pref":"鹿児島県","city":"鹿児島市","address":"明和"},
{"zip_code":"8900042","kana_pref":"ｶｺﾞｼﾏｹﾝ","kana_city":"ｶｺﾞｼﾏｼ","kana_address":"ﾔｸｼ","pref":"鹿児島県","city":"鹿児島市","address":"薬師"},
{"zip_code":"8900062","kana_pref":"ｶｺﾞｼﾏｹﾝ","kana_city":"ｶｺﾞｼﾏｼ","kana_address":"ﾖｼﾞﾛｳ","pref":"鹿児島県","city":"鹿児島市","address":"与次郎"},
{"zip_code":"8900006","kana_pref":"ｶｺﾞｼﾏｹﾝ","kana_city":"ｶｺﾞｼﾏｼ","kana_address":"ﾜｶﾊﾞﾁｮｳ","pref":"鹿児島県","city":"鹿児島市","address":"若葉町"},
{"zip_code":"8900000","kana_pref":"ｶｺﾞｼﾏｹﾝ","kana_city":"ｶｺﾞｼﾏｸﾞﾝﾐｼﾏﾑﾗ","kana_address":"","pref":"鹿児島県","city":"鹿児島郡三島村","address":""},
{"zip_code":"8900901","kana_pref":"ｶｺﾞｼﾏｹﾝ","kana_city":"ｶｺﾞｼﾏｸﾞﾝﾐｼﾏﾑﾗ","kana_address":"ｲｵｳｼﾞﾏ","pref":"鹿児島県","city":"鹿児島郡三島村","address":"硫黄島"},
{"zip_code":"8900902","kana_pref":"ｶｺﾞｼﾏｹﾝ","kana_city":"ｶｺﾞｼﾏｸﾞﾝﾐｼﾏﾑﾗ","kana_address":"ｸﾛｼﾏ","pref":"鹿児島県","city":"鹿児島郡三島村","address":"黒島"},
{"zip_code":"8900903","kana_pref":"ｶｺﾞｼﾏｹﾝ","kana_city":"ｶｺﾞｼﾏｸﾞﾝﾐｼﾏﾑﾗ","kana_address":"ﾀｹｼﾏ","pref":"鹿児島県","city":"鹿児島郡三島村","address":"竹島"}]}