{"zip_code":[
{"zip_code":"8911545","kana_pref":"ｶｺﾞｼﾏｹﾝ","kana_city":"ｶｺﾞｼﾏｼ","kana_address":"ｱﾘﾑﾗﾁｮｳ","pref":"鹿児島県","city":"鹿児島市","address":"有村町"},
{"zip_code":"8911107","kana_pref":"ｶｺﾞｼﾏｹﾝ","kana_city":"ｶｺﾞｼﾏｼ","kana_address":"ｱﾘﾔﾀﾞﾁｮｳ","pref":"鹿児島県","city":"鹿児島市","address":"有屋田町"},
{"zip_code":"8911203","kana_pref":"ｶｺﾞｼﾏｹﾝ","kana_city":"ｶｺﾞｼﾏｼ","kana_address":"ｲｼｷﾁｮｳ","pref":"鹿児島県","city":"鹿児島市","address":"伊敷町"},
{"zip_code":"8911205","kana_pref":"ｶｺﾞｼﾏｹﾝ","kana_city":"ｶｺﾞｼﾏｼ","kana_address":"ｲﾇｻﾞｺﾁｮｳ","pref":"鹿児島県","city":"鹿児島市","address":"犬迫町"},
{"zip_code":"8910112","kana_pref":"ｶｺﾞｼﾏｹﾝ","kana_city":"ｶｺﾞｼﾏｼ","kana_address":"ｳｵﾐﾁｮｳ","pref":"鹿児島県","city":"鹿児島市","address":"魚見町"},
{"zip_code":"8911201","kana_pref":"ｶｺﾞｼﾏｹﾝ","kana_city":"ｶｺﾞｼﾏｼ","kana_address":"ｵｶﾉﾊﾗﾁｮｳ","pref":"鹿児島県","city":"鹿児島市","address":"岡之原町"},
{"zip_code":"8911222","kana_pref":"ｶｺﾞｼﾏｹﾝ","kana_city":"ｶｺﾞｼﾏｼ","kana_address":"ｵﾉﾁｮｳ","pref":"鹿児島県","city":"鹿児島市","address":"小野町"},
{"zip_code":"8910111","kana_pref":"ｶｺﾞｼﾏｹﾝ","kana_city":"ｶｺﾞｼﾏｼ","kana_address":"ｵﾊﾞﾗﾁｮｳ","pref":"鹿児島県","city":"鹿児島市","address":"小原町"},
{"zip_code":"8910123","kana_pref":"ｶｺﾞｼﾏｹﾝ","kana_city":"ｶｺﾞｼﾏｼ","kana_address":"ｵﾛｼﾎﾝﾏﾁ","pref":"鹿児島県","city":"鹿児島市","address":"卸本町"},
{"zip_code":"8910116","kana_pref":"ｶｺﾞｼﾏｹﾝ","kana_city":"ｶｺﾞｼﾏｼ","kana_address":"ｶﾐﾌｸﾓﾄﾁｮｳ","pref":"鹿児島県","city":"鹿児島市","address":"上福元町"},
{"zip_code":"8911275","kana_pref":"ｶｺﾞｼﾏｹﾝ","kana_city":"ｶｺﾞｼﾏｼ","kana_address":"ｶﾜｶﾐﾁｮｳ(3649","pref":"鹿児島県","city":"鹿児島市","address":"川上町（３６４９"},
{"zip_code":"8911275","kana_pref":"ｶｺﾞｼﾏｹﾝ","kana_city":"ｶｺﾞｼﾏｼ","kana_address":"3661","pref":"鹿児島県","city":"鹿児島市","address":"３６６１"},
{"zip_code":"8911275","kana_pref":"ｶｺﾞｼﾏｹﾝ","kana_city":"ｶｺﾞｼﾏｼ","kana_address":"3667","pref":"鹿児島県","city":"鹿児島市","address":"３６６７"},
{"zip_code":"8911275","kana_pref":"ｶｺﾞｼﾏｹﾝ","kana_city":"ｶｺﾞｼﾏｼ","kana_address":"3669-4","pref":"鹿児島県","city":"鹿児島市","address":"３６６９−４"},
{"zip_code":"8911275","kana_pref":"ｶｺﾞｼﾏｹﾝ","kana_city":"ｶｺﾞｼﾏｼ","kana_address":"3671","pref":"鹿児島県","city":"鹿児島市","address":"３６７１"},
{"zip_code":"8911275","kana_pref":"ｶｺﾞｼﾏｹﾝ","kana_city":"ｶｺﾞｼﾏｼ","kana_address":"3672","pref":"鹿児島県","city":"鹿児島市","address":"３６７２"},
{"zip_code":"8911275","kana_pref":"ｶｺﾞｼﾏｹﾝ","kana_city":"ｶｺﾞｼﾏｼ","kana_address":"3","pref":"鹿児島県","city":"鹿児島市","address":"３"},
{"zip_code":"8911275","kana_pref":"ｶｺﾞｼﾏｹﾝ","kana_city":"ｶｺﾞｼﾏｼ","kana_address":"674","pref":"鹿児島県","city":"鹿児島市","address":"６７４"},
{"zip_code":"8911275","kana_pref":"ｶｺﾞｼﾏｹﾝ","kana_city":"ｶｺﾞｼﾏｼ","kana_address":"3701","pref":"鹿児島県","city":"鹿児島市","address":"３７０１"},
{"zip_code":"8911275","kana_pref":"ｶｺﾞｼﾏｹﾝ","kana_city":"ｶｺﾞｼﾏｼ","kana_address":"3704","pref":"鹿児島県","city":"鹿児島市","address":"３７０４"},
{"zip_code":"8911275","kana_pref":"ｶｺﾞｼﾏｹﾝ","kana_city":"ｶｺﾞｼﾏｼ","kana_address":"3723-3","pref":"鹿児島県","city":"鹿児島市","address":"３７２３−３"},
{"zip_code":"8911275","kana_pref":"ｶｺﾞｼﾏｹﾝ","kana_city":"ｶｺﾞｼﾏｼ","kana_address":"4128","pref":"鹿児島県","city":"鹿児島市","address":"４１２８"},
{"zip_code":"8911275","kana_pref":"ｶｺﾞｼﾏｹﾝ","kana_city":"ｶｺﾞｼﾏｼ","kana_address":"4132","pref":"鹿児島県","city":"鹿児島市","address":"４１３２"},
{"zip_code":"8911275","kana_pref":"ｶｺﾞｼﾏｹﾝ","kana_city":"ｶｺﾞｼﾏｼ","kana_address":"4133","pref":"鹿児島県","city":"鹿児島市","address":"４１３３"},
{"zip_code":"8911275","kana_pref":"ｶｺﾞｼﾏｹﾝ","kana_city":"ｶｺﾞｼﾏｼ","kana_address":"4","pref":"鹿児島県","city":"鹿児島市","address":"４"},
{"zip_code":"8911275","kana_pref":"ｶｺﾞｼﾏｹﾝ","kana_city":"ｶｺﾞｼﾏｼ","kana_address":"138","pref":"鹿児島県","city":"鹿児島市","address":"１３８"},
{"zip_code":"8911275","kana_pref":"ｶｺﾞｼﾏｹﾝ","kana_city":"ｶｺﾞｼﾏｼ","kana_address":"4203","pref":"鹿児島県","city":"鹿児島市","address":"４２０３"},
{"zip_code":"8911275","kana_pref":"ｶｺﾞｼﾏｹﾝ","kana_city":"ｶｺﾞｼﾏｼ","kana_address":"4209","pref":"鹿児島県","city":"鹿児島市","address":"４２０９"},
{"zip_code":"8911275","kana_pref":"ｶｺﾞｼﾏｹﾝ","kana_city":"ｶｺﾞｼﾏｼ","kana_address":"4215","pref":"鹿児島県","city":"鹿児島市","address":"４２１５"},
{"zip_code":"8911275","kana_pref":"ｶｺﾞｼﾏｹﾝ","kana_city":"ｶｺﾞｼﾏｼ","kana_address":"4236-1","pref":"鹿児島県","city":"鹿児島市","address":"４２３６−１"},
{"zip_code":"8911275","kana_pref":"ｶｺﾞｼﾏｹﾝ","kana_city":"ｶｺﾞｼﾏｼ","kana_address":"4238","pref":"鹿児島県","city":"鹿児島市","address":"４２３８"},
{"zip_code":"8911275","kana_pref":"ｶｺﾞｼﾏｹﾝ","kana_city":"ｶｺﾞｼﾏｼ","kana_address":"4241","pref":"鹿児島県","city":"鹿児島市","address":"４２４１"},
{"zip_code":"8911275","kana_pref":"ｶｺﾞｼﾏｹﾝ","kana_city":"ｶｺﾞｼﾏｼ","kana_address":"4","pref":"鹿児島県","city":"鹿児島市","address":"４"},
{"zip_code":"8911275","kana_pref":"ｶｺﾞｼﾏｹﾝ","kana_city":"ｶｺﾞｼﾏｼ","kana_address":"242ﾊﾞﾝﾁ","pref":"鹿児島県","city":"鹿児島市","address":"２４２番地"},
{"zip_code":"8911275","kana_pref":"ｶｺﾞｼﾏｹﾝ","kana_city":"ｶｺﾞｼﾏｼ","kana_address":"4244ﾊﾞﾝﾁ)","pref":"鹿児島県","city":"鹿児島市","address":"４２４４番地）"},
{"zip_code":"8911103","kana_pref":"ｶｺﾞｼﾏｹﾝ","kana_city":"ｶｺﾞｼﾏｼ","kana_address":"ｶﾜﾀﾞﾁｮｳ","pref":"鹿児島県","city":"鹿児島市","address":"川田町"},
{"zip_code":"8910201","kana_pref":"ｶｺﾞｼﾏｹﾝ","kana_city":"ｶｺﾞｼﾏｼ","kana_address":"ｷｲﾚｾｾｸｼﾁｮｳ","pref":"鹿児島県","city":"鹿児島市","address":"喜入瀬々串町"},
{"zip_code":"8910202","kana_pref":"ｶｺﾞｼﾏｹﾝ","kana_city":"ｶｺﾞｼﾏｼ","kana_address":"ｷｲﾚﾅｶﾐｮｳﾁｮｳ","pref":"鹿児島県","city":"鹿児島市","address":"喜入中名町"},
{"zip_code":"8910206","kana_pref":"ｶｺﾞｼﾏｹﾝ","kana_city":"ｶｺﾞｼﾏｼ","kana_address":"ｷｲﾚﾇｸﾐﾁｮｳ","pref":"鹿児島県","city":"鹿児島市","address":"喜入生見町"},
{"zip_code":"8910204","kana_pref":"ｶｺﾞｼﾏｹﾝ","kana_city":"ｶｺﾞｼﾏｼ","kana_address":"ｷｲﾚﾋﾄｸﾗﾁｮｳ","pref":"鹿児島県","city":"鹿児島市","address":"喜入一倉町"},
{"zip_code":"8910205","kana_pref":"ｶｺﾞｼﾏｹﾝ","kana_city":"ｶｺﾞｼﾏｼ","kana_address":"ｷｲﾚﾏｴﾉﾊﾏﾁｮｳ","pref":"鹿児島県","city":"鹿児島市","address":"喜入前之浜町"},
{"zip_code":"8910203","kana_pref":"ｶｺﾞｼﾏｹﾝ","kana_city":"ｶｺﾞｼﾏｼ","kana_address":"ｷｲﾚﾁｮｳ","pref":"鹿児島県","city":"鹿児島市","address":"喜入町"},
{"zip_code":"8910107","kana_pref":"ｶｺﾞｼﾏｹﾝ","kana_city":"ｶｺﾞｼﾏｼ","kana_address":"ｷﾎﾞｳｶﾞｵｶﾁｮｳ","pref":"鹿児島県","city":"鹿児島市","address":"希望ケ丘町"},
{"zip_code":"8910145","kana_pref":"ｶｺﾞｼﾏｹﾝ","kana_city":"ｶｺﾞｼﾏｼ","kana_address":"ｷﾝｺｳﾀﾞｲ","pref":"鹿児島県","city":"鹿児島市","address":"錦江台"},
{"zip_code":"8911501","kana_pref":"ｶｺﾞｼﾏｹﾝ","kana_city":"ｶｺﾞｼﾏｼ","kana_address":"ｸﾛｶﾐﾁｮｳ","pref":"鹿児島県","city":"鹿児島市","address":"黒神町"},
{"zip_code":"8911401","kana_pref":"ｶｺﾞｼﾏｹﾝ","kana_city":"ｶｺﾞｼﾏｼ","kana_address":"ｸﾛｶﾐﾁｮｳ","pref":"鹿児島県","city":"鹿児島市","address":"黒神町"},
{"zip_code":"8911204","kana_pref":"ｶｺﾞｼﾏｹﾝ","kana_city":"ｶｺﾞｼﾏｼ","kana_address":"ｹﾉﾋｶﾘｶﾞｵｶ","pref":"鹿児島県","city":"鹿児島市","address":"花野光ケ丘"},
{"zip_code":"8910103","kana_pref":"ｶｺﾞｼﾏｹﾝ","kana_city":"ｶｺﾞｼﾏｼ","kana_address":"ｺｳﾄｸｼﾞﾀﾞｲ","pref":"鹿児島県","city":"鹿児島市","address":"皇徳寺台"},
{"zip_code":"8911402","kana_pref":"ｶｺﾞｼﾏｹﾝ","kana_city":"ｶｺﾞｼﾏｼ","kana_address":"ｺｳﾒﾝﾁｮｳ","pref":"鹿児島県","city":"鹿児島市","address":"高免町"},
{"zip_code":"8911108","kana_pref":"ｶｺﾞｼﾏｹﾝ","kana_city":"ｶｺﾞｼﾏｼ","kana_address":"ｺｵﾘﾔﾏﾀｹﾏﾁ","pref":"鹿児島県","city":"鹿児島市","address":"郡山岳町"},
{"zip_code":"8911105","kana_pref":"ｶｺﾞｼﾏｹﾝ","kana_city":"ｶｺﾞｼﾏｼ","kana_address":"ｺｵﾘﾔﾏﾁｮｳ","pref":"鹿児島県","city":"鹿児島市","address":"郡山町"},
{"zip_code":"8910101","kana_pref":"ｶｺﾞｼﾏｹﾝ","kana_city":"ｶｺﾞｼﾏｼ","kana_address":"ｺﾞｶﾍﾞｯﾌﾟﾁｮｳ","pref":"鹿児島県","city":"鹿児島市","address":"五ケ別府町"},
{"zip_code":"8910114","kana_pref":"ｶｺﾞｼﾏｹﾝ","kana_city":"ｶｺﾞｼﾏｼ","kana_address":"ｺﾏﾂﾊﾞﾗ","pref":"鹿児島県","city":"鹿児島市","address":"小松原"},
{"zip_code":"8911231","kana_pref":"ｶｺﾞｼﾏｹﾝ","kana_city":"ｶｺﾞｼﾏｼ","kana_address":"ｺﾔﾏﾀﾞﾁｮｳ","pref":"鹿児島県","city":"鹿児島市","address":"小山田町"},
{"zip_code":"8910150","kana_pref":"ｶｺﾞｼﾏｹﾝ","kana_city":"ｶｺﾞｼﾏｼ","kana_address":"ｻｶﾉｳｴ","pref":"鹿児島県","city":"鹿児島市","address":"坂之上"},
{"zip_code":"8910175","kana_pref":"ｶｺﾞｼﾏｹﾝ","kana_city":"ｶｺﾞｼﾏｼ","kana_address":"ｻｸﾗｶﾞｵｶ","pref":"鹿児島県","city":"鹿児島市","address":"桜ケ丘"},
{"zip_code":"8911420","kana_pref":"ｶｺﾞｼﾏｹﾝ","kana_city":"ｶｺﾞｼﾏｼ","kana_address":"ｻｸﾗｼﾞﾏｱｶﾐｽﾞﾁｮｳ","pref":"鹿児島県","city":"鹿児島市","address":"桜島赤水町"},
{"zip_code":"8911417","kana_pref":"ｶｺﾞｼﾏｹﾝ","kana_city":"ｶｺﾞｼﾏｼ","kana_address":"ｻｸﾗｼﾞﾏｱｺｳﾊﾞﾙﾁｮｳ","pref":"鹿児島県","city":"鹿児島市","address":"桜島赤生原町"},
{"zip_code":"8911418","kana_pref":"ｶｺﾞｼﾏｹﾝ","kana_city":"ｶｺﾞｼﾏｼ","kana_address":"ｻｸﾗｼﾞﾏｺｲｹﾁｮｳ","pref":"鹿児島県","city":"鹿児島市","address":"桜島小池町"},
{"zip_code":"8911414","kana_pref":"ｶｺﾞｼﾏｹﾝ","kana_city":"ｶｺﾞｼﾏｼ","kana_address":"ｻｸﾗｼﾞﾏｻｲﾄﾞｳﾁｮｳ","pref":"鹿児島県","city":"鹿児島市","address":"桜島西道町"},
{"zip_code":"8911411","kana_pref":"ｶｺﾞｼﾏｹﾝ","kana_city":"ｶｺﾞｼﾏｼ","kana_address":"ｻｸﾗｼﾞﾏｼﾗﾊﾏﾁｮｳ","pref":"鹿児島県","city":"鹿児島市","address":"桜島白浜町"},
{"zip_code":"8911416","kana_pref":"ｶｺﾞｼﾏｹﾝ","kana_city":"ｶｺﾞｼﾏｼ","kana_address":"ｻｸﾗｼﾞﾏﾀｹﾁｮｳ","pref":"鹿児島県","city":"鹿児島市","address":"桜島武町"},
{"zip_code":"8911415","kana_pref":"ｶｺﾞｼﾏｹﾝ","kana_city":"ｶｺﾞｼﾏｼ","kana_address":"ｻｸﾗｼﾞﾏﾌｼﾞﾉﾁｮｳ","pref":"鹿児島県","city":"鹿児島市","address":"桜島藤野町"},
{"zip_code":"8911412","kana_pref":"ｶｺﾞｼﾏｹﾝ","kana_city":"ｶｺﾞｼﾏｼ","kana_address":"ｻｸﾗｼﾞﾏﾌﾀﾏﾀﾁｮｳ","pref":"鹿児島県","city":"鹿児島市","address":"桜島二俣町"},
{"zip_code":"8911413","kana_pref":"ｶｺﾞｼﾏｹﾝ","kana_city":"ｶｺﾞｼﾏｼ","kana_address":"ｻｸﾗｼﾞﾏﾏﾂｳﾗﾁｮｳ","pref":"鹿児島県","city":"鹿児島市","address":"桜島松浦町"},
{"zip_code":"8911419","kana_pref":"ｶｺﾞｼﾏｹﾝ","kana_city":"ｶｺﾞｼﾏｼ","kana_address":"ｻｸﾗｼﾞﾏﾖｺﾔﾏﾁｮｳ","pref":"鹿児島県","city":"鹿児島市","address":"桜島横山町"},
{"zip_code":"8910146","kana_pref":"ｶｺﾞｼﾏｹﾝ","kana_city":"ｶｺﾞｼﾏｼ","kana_address":"ｼﾞｹﾞﾝｼﾞﾁｮｳ","pref":"鹿児島県","city":"鹿児島市","address":"慈眼寺町"},
{"zip_code":"8910144","kana_pref":"ｶｺﾞｼﾏｹﾝ","kana_city":"ｶｺﾞｼﾏｼ","kana_address":"ｼﾓﾌｸﾓﾄﾁｮｳ","pref":"鹿児島県","city":"鹿児島市","address":"下福元町"},
{"zip_code":"8910106","kana_pref":"ｶｺﾞｼﾏｹﾝ","kana_city":"ｶｺﾞｼﾏｼ","kana_address":"ｼﾞﾕｳｶﾞｵｶ","pref":"鹿児島県","city":"鹿児島市","address":"自由ケ丘"},
{"zip_code":"8911403","kana_pref":"ｶｺﾞｼﾏｹﾝ","kana_city":"ｶｺﾞｼﾏｼ","kana_address":"ｼﾝｼﾞﾏﾁｮｳ","pref":"鹿児島県","city":"鹿児島市","address":"新島町"},
{"zip_code":"8910109","kana_pref":"ｶｺﾞｼﾏｹﾝ","kana_city":"ｶｺﾞｼﾏｼ","kana_address":"ｾｲﾜ","pref":"鹿児島県","city":"鹿児島市","address":"清和"},
{"zip_code":"8910131","kana_pref":"ｶｺﾞｼﾏｹﾝ","kana_city":"ｶｺﾞｼﾏｼ","kana_address":"ﾀﾆﾔﾏｺｳ","pref":"鹿児島県","city":"鹿児島市","address":"谷山港"},
{"zip_code":"8910121","kana_pref":"ｶｺﾞｼﾏｹﾝ","kana_city":"ｶｺﾞｼﾏｼ","kana_address":"ﾀﾆﾔﾏｼｵﾔﾁｮｳ","pref":"鹿児島県","city":"鹿児島市","address":"谷山塩屋町"},
{"zip_code":"8910141","kana_pref":"ｶｺﾞｼﾏｹﾝ","kana_city":"ｶｺﾞｼﾏｼ","kana_address":"ﾀﾆﾔﾏﾁｭｳｵｳ","pref":"鹿児島県","city":"鹿児島市","address":"谷山中央"},
{"zip_code":"8910108","kana_pref":"ｶｺﾞｼﾏｹﾝ","kana_city":"ｶｺﾞｼﾏｼ","kana_address":"ﾁｭｳｻﾞﾝ","pref":"鹿児島県","city":"鹿児島市","address":"中山"},
{"zip_code":"8910105","kana_pref":"ｶｺﾞｼﾏｹﾝ","kana_city":"ｶｺﾞｼﾏｼ","kana_address":"ﾁｭｳｻﾞﾝﾁｮｳ","pref":"鹿児島県","city":"鹿児島市","address":"中山町"},
{"zip_code":"8910115","kana_pref":"ｶｺﾞｼﾏｹﾝ","kana_city":"ｶｺﾞｼﾏｼ","kana_address":"ﾄｳｶｲﾁｮｳ","pref":"鹿児島県","city":"鹿児島市","address":"東開町"},
{"zip_code":"8910132","kana_pref":"ｶｺﾞｼﾏｹﾝ","kana_city":"ｶｺﾞｼﾏｼ","kana_address":"ﾅﾅﾂｼﾞﾏ","pref":"鹿児島県","city":"鹿児島市","address":"七ツ島"},
{"zip_code":"8910122","kana_pref":"ｶｺﾞｼﾏｹﾝ","kana_city":"ｶｺﾞｼﾏｼ","kana_address":"ﾅﾝｴｲ","pref":"鹿児島県","city":"鹿児島市","address":"南栄"},
{"zip_code":"8911202","kana_pref":"ｶｺﾞｼﾏｹﾝ","kana_city":"ｶｺﾞｼﾏｼ","kana_address":"ﾆｼｲｼｷ","pref":"鹿児島県","city":"鹿児島市","address":"西伊敷"},
{"zip_code":"8911301","kana_pref":"ｶｺﾞｼﾏｹﾝ","kana_city":"ｶｺﾞｼﾏｼ","kana_address":"ﾆｼｻﾀﾁｮｳ","pref":"鹿児島県","city":"鹿児島市","address":"西佐多町"},
{"zip_code":"8911106","kana_pref":"ｶｺﾞｼﾏｹﾝ","kana_city":"ｶｺﾞｼﾏｼ","kana_address":"ﾆｼﾏﾀﾁｮｳ","pref":"鹿児島県","city":"鹿児島市","address":"西俣町"},
{"zip_code":"8911541","kana_pref":"ｶｺﾞｼﾏｹﾝ","kana_city":"ｶｺﾞｼﾏｼ","kana_address":"ﾉｼﾞﾘﾁｮｳ","pref":"鹿児島県","city":"鹿児島市","address":"野尻町"},
{"zip_code":"8911101","kana_pref":"ｶｺﾞｼﾏｹﾝ","kana_city":"ｶｺﾞｼﾏｼ","kana_address":"ﾊﾅｵﾏﾁ","pref":"鹿児島県","city":"鹿児島市","address":"花尾町"},
{"zip_code":"8911543","kana_pref":"ｶｺﾞｼﾏｹﾝ","kana_city":"ｶｺﾞｼﾏｼ","kana_address":"ﾋｶﾞｼｻｸﾗｼﾞﾏﾁｮｳ","pref":"鹿児島県","city":"鹿児島市","address":"東桜島町"},
{"zip_code":"8911302","kana_pref":"ｶｺﾞｼﾏｹﾝ","kana_city":"ｶｺﾞｼﾏｼ","kana_address":"ﾋｶﾞｼｻﾀﾁｮｳ","pref":"鹿児島県","city":"鹿児島市","address":"東佐多町"},
{"zip_code":"8910113","kana_pref":"ｶｺﾞｼﾏｹﾝ","kana_city":"ｶｺﾞｼﾏｼ","kana_address":"ﾋｶﾞｼﾀﾆﾔﾏ","pref":"鹿児島県","city":"鹿児島市","address":"東谷山"},
{"zip_code":"8911102","kana_pref":"ｶｺﾞｼﾏｹﾝ","kana_city":"ｶｺﾞｼﾏｼ","kana_address":"ﾋｶﾞｼﾏﾀﾁｮｳ","pref":"鹿児島県","city":"鹿児島市","address":"東俣町"},
{"zip_code":"8910151","kana_pref":"ｶｺﾞｼﾏｹﾝ","kana_city":"ｶｺﾞｼﾏｼ","kana_address":"ﾋｶﾘﾔﾏ","pref":"鹿児島県","city":"鹿児島市","address":"光山"},
{"zip_code":"8910133","kana_pref":"ｶｺﾞｼﾏｹﾝ","kana_city":"ｶｺﾞｼﾏｼ","kana_address":"ﾋﾗｶﾜﾁｮｳ","pref":"鹿児島県","city":"鹿児島市","address":"平川町"},
{"zip_code":"8911544","kana_pref":"ｶｺﾞｼﾏｹﾝ","kana_city":"ｶｺﾞｼﾏｼ","kana_address":"ﾌﾙｻﾄﾁｮｳ","pref":"鹿児島県","city":"鹿児島市","address":"古里町"},
{"zip_code":"8910102","kana_pref":"ｶｺﾞｼﾏｹﾝ","kana_city":"ｶｺﾞｼﾏｼ","kana_address":"ﾎｼｶﾞﾐﾈ","pref":"鹿児島県","city":"鹿児島市","address":"星ケ峯"},
{"zip_code":"8911303","kana_pref":"ｶｺﾞｼﾏｹﾝ","kana_city":"ｶｺﾞｼﾏｼ","kana_address":"ﾎﾝｼﾞｮｳﾁｮｳ","pref":"鹿児島県","city":"鹿児島市","address":"本城町"},
{"zip_code":"8911304","kana_pref":"ｶｺﾞｼﾏｹﾝ","kana_city":"ｶｺﾞｼﾏｼ","kana_address":"ﾎﾝﾐｮｳﾁｮｳ","pref":"鹿児島県","city":"鹿児島市","address":"本名町"},
{"zip_code":"8911274","kana_pref":"ｶｺﾞｼﾏｹﾝ","kana_city":"ｶｺﾞｼﾏｼ","kana_address":"ﾐﾄﾞﾘｶﾞｵｶﾁｮｳ","pref":"鹿児島県","city":"鹿児島市","address":"緑ヶ丘町"},
{"zip_code":"8911206","kana_pref":"ｶｺﾞｼﾏｹﾝ","kana_city":"ｶｺﾞｼﾏｼ","kana_address":"ﾐﾅﾖｼﾁｮｳ","pref":"鹿児島県","city":"鹿児島市","address":"皆与志町"},
{"zip_code":"8911305","kana_pref":"ｶｺﾞｼﾏｹﾝ","kana_city":"ｶｺﾞｼﾏｼ","kana_address":"ﾐﾔﾉｳﾗﾁｮｳ","pref":"鹿児島県","city":"鹿児島市","address":"宮之浦町"},
{"zip_code":"8911306","kana_pref":"ｶｺﾞｼﾏｹﾝ","kana_city":"ｶｺﾞｼﾏｼ","kana_address":"ﾑﾚｶﾞｵｶ","pref":"鹿児島県","city":"鹿児島市","address":"牟礼岡"},
{"zip_code":"8911542","kana_pref":"ｶｺﾞｼﾏｹﾝ","kana_city":"ｶｺﾞｼﾏｼ","kana_address":"ﾓﾁｷﾁｮｳ","pref":"鹿児島県","city":"鹿児島市","address":"持木町"},
{"zip_code":"8910104","kana_pref":"ｶｺﾞｼﾏｹﾝ","kana_city":"ｶｺﾞｼﾏｼ","kana_address":"ﾔﾏﾀﾞﾁｮｳ","pref":"鹿児島県","city":"鹿児島市","address":"山田町"},
{"zip_code":"8911104","kana_pref":"ｶｺﾞｼﾏｹﾝ","kana_city":"ｶｺﾞｼﾏｼ","kana_address":"ﾕｽｷﾁｮｳ","pref":"鹿児島県","city":"鹿児島市","address":"油須木町"},
{"zip_code":"8910143","kana_pref":"ｶｺﾞｼﾏｹﾝ","kana_city":"ｶｺﾞｼﾏｼ","kana_address":"ﾜﾀﾞ","pref":"鹿児島県","city":"鹿児島市","address":"和田"},
{"zip_code":"8910142","kana_pref":"ｶｺﾞｼﾏｹﾝ","kana_city":"ｶｺﾞｼﾏｼ","kana_address":"ﾜﾀﾞﾁｮｳ","pref":"鹿児島県","city":"鹿児島市","address":"和田町"},
{"zip_code":"8912301","kana_pref":"ｶｺﾞｼﾏｹﾝ","kana_city":"ｶﾉﾔｼ","kana_address":"ｱﾘﾀｹﾁｮｳ","pref":"鹿児島県","city":"鹿屋市","address":"有武町"},
{"zip_code":"8912302","kana_pref":"ｶｺﾞｼﾏｹﾝ","kana_city":"ｶﾉﾔｼ","kana_address":"ｵｽｷﾁｮｳ","pref":"鹿児島県","city":"鹿屋市","address":"小薄町"},
{"zip_code":"8912312","kana_pref":"ｶｺﾞｼﾏｹﾝ","kana_city":"ｶﾉﾔｼ","kana_address":"ｵﾉﾊﾞﾙﾁｮｳ","pref":"鹿児島県","city":"鹿屋市","address":"小野原町"},
{"zip_code":"8912303","kana_pref":"ｶｺﾞｼﾏｹﾝ","kana_city":"ｶﾉﾔｼ","kana_address":"ｶｲﾄﾞｳﾁｮｳ","pref":"鹿児島県","city":"鹿屋市","address":"海道町"},
{"zip_code":"8912311","kana_pref":"ｶｺﾞｼﾏｹﾝ","kana_city":"ｶﾉﾔｼ","kana_address":"ｼﾛﾐｽﾞﾁｮｳ","pref":"鹿児島県","city":"鹿屋市","address":"白水町"},
{"zip_code":"8912313","kana_pref":"ｶｺﾞｼﾏｹﾝ","kana_city":"ｶﾉﾔｼ","kana_address":"ﾃﾝｼﾞﾝﾁｮｳ","pref":"鹿児島県","city":"鹿屋市","address":"天神町"},
{"zip_code":"8912305","kana_pref":"ｶｺﾞｼﾏｹﾝ","kana_city":"ｶﾉﾔｼ","kana_address":"ﾈｷﾞﾊﾞﾙﾁｮｳ","pref":"鹿児島県","city":"鹿屋市","address":"根木原町"},
{"zip_code":"8912304","kana_pref":"ｶｺﾞｼﾏｹﾝ","kana_city":"ｶﾉﾔｼ","kana_address":"ﾊﾅｵｶﾁｮｳ","pref":"鹿児島県","city":"鹿屋市","address":"花岡町"},
{"zip_code":"8912306","kana_pref":"ｶｺﾞｼﾏｹﾝ","kana_city":"ｶﾉﾔｼ","kana_address":"ﾊﾅｻﾞﾄﾁｮｳ","pref":"鹿児島県","city":"鹿屋市","address":"花里町"},
{"zip_code":"8912314","kana_pref":"ｶｺﾞｼﾏｹﾝ","kana_city":"ｶﾉﾔｼ","kana_address":"ﾌﾅﾏﾁｮｳ","pref":"鹿児島県","city":"鹿屋市","address":"船間町"},
{"zip_code":"8912321","kana_pref":"ｶｺﾞｼﾏｹﾝ","kana_city":"ｶﾉﾔｼ","kana_address":"ﾌﾙｴﾁｮｳ","pref":"鹿児島県","city":"鹿屋市","address":"古江町"},
{"zip_code":"8912322","kana_pref":"ｶｺﾞｼﾏｹﾝ","kana_city":"ｶﾉﾔｼ","kana_address":"ﾌﾙｻﾄﾁｮｳ","pref":"鹿児島県","city":"鹿屋市","address":"古里町"},
{"zip_code":"8910400","kana_pref":"ｶｺﾞｼﾏｹﾝ","kana_city":"ｲﾌﾞｽｷｼ","kana_address":"","pref":"鹿児島県","city":"指宿市","address":""},
{"zip_code":"8910312","kana_pref":"ｶｺﾞｼﾏｹﾝ","kana_city":"ｲﾌﾞｽｷｼ","kana_address":"ｲｹﾀﾞ","pref":"鹿児島県","city":"指宿市","address":"池田"},
{"zip_code":"8910315","kana_pref":"ｶｺﾞｼﾏｹﾝ","kana_city":"ｲﾌﾞｽｷｼ","kana_address":"ｲﾜﾓﾄ","pref":"鹿児島県","city":"指宿市","address":"岩本"},
{"zip_code":"8910401","kana_pref":"ｶｺﾞｼﾏｹﾝ","kana_city":"ｲﾌﾞｽｷｼ","kana_address":"ｵｵﾑﾚ","pref":"鹿児島県","city":"指宿市","address":"大牟礼"},
{"zip_code":"8910601","kana_pref":"ｶｺﾞｼﾏｹﾝ","kana_city":"ｲﾌﾞｽｷｼ","kana_address":"ｶｲﾓﾝｳｴﾉ","pref":"鹿児島県","city":"指宿市","address":"開聞上野"},
{"zip_code":"8910602","kana_pref":"ｶｺﾞｼﾏｹﾝ","kana_city":"ｲﾌﾞｽｷｼ","kana_address":"ｶｲﾓﾝｶﾜｼﾘ","pref":"鹿児島県","city":"指宿市","address":"開聞川尻"},
{"zip_code":"8910603","kana_pref":"ｶｺﾞｼﾏｹﾝ","kana_city":"ｲﾌﾞｽｷｼ","kana_address":"ｶｲﾓﾝｼﾞｭｯﾁｮｳ","pref":"鹿児島県","city":"指宿市","address":"開聞十町"},
{"zip_code":"8910604","kana_pref":"ｶｺﾞｼﾏｹﾝ","kana_city":"ｲﾌﾞｽｷｼ","kana_address":"ｶｲﾓﾝｾﾝﾀ","pref":"鹿児島県","city":"指宿市","address":"開聞仙田"},
{"zip_code":"8910314","kana_pref":"ｶｺﾞｼﾏｹﾝ","kana_city":"ｲﾌﾞｽｷｼ","kana_address":"ｺﾏｷ","pref":"鹿児島県","city":"指宿市","address":"小牧"},
{"zip_code":"8910403","kana_pref":"ｶｺﾞｼﾏｹﾝ","kana_city":"ｲﾌﾞｽｷｼ","kana_address":"ｼﾞｭｳﾆﾁｮｳ","pref":"鹿児島県","city":"指宿市","address":"十二町"},
{"zip_code":"8910402","kana_pref":"ｶｺﾞｼﾏｹﾝ","kana_city":"ｲﾌﾞｽｷｼ","kana_address":"ｼﾞｭｯﾁｮｳ","pref":"鹿児島県","city":"指宿市","address":"十町"},
{"zip_code":"8910313","kana_pref":"ｶｺﾞｼﾏｹﾝ","kana_city":"ｲﾌﾞｽｷｼ","kana_address":"ｼﾝﾆｼｶﾀ","pref":"鹿児島県","city":"指宿市","address":"新西方"},
{"zip_code":"8910311","kana_pref":"ｶｺﾞｼﾏｹﾝ","kana_city":"ｲﾌﾞｽｷｼ","kana_address":"ﾆｼｶﾀ","pref":"鹿児島県","city":"指宿市","address":"西方"},
{"zip_code":"8910304","kana_pref":"ｶｺﾞｼﾏｹﾝ","kana_city":"ｲﾌﾞｽｷｼ","kana_address":"ﾋｶﾞｼｶﾀ(600-5974","pref":"鹿児島県","city":"指宿市","address":"東方（６００〜５９７４"},
{"zip_code":"8910304","kana_pref":"ｶｺﾞｼﾏｹﾝ","kana_city":"ｲﾌﾞｽｷｼ","kana_address":"5976-7816","pref":"鹿児島県","city":"指宿市","address":"５９７６〜７８１６"},
{"zip_code":"8910304","kana_pref":"ｶｺﾞｼﾏｹﾝ","kana_city":"ｲﾌﾞｽｷｼ","kana_address":"7833","pref":"鹿児島県","city":"指宿市","address":"７８３３"},
{"zip_code":"8910304","kana_pref":"ｶｺﾞｼﾏｹﾝ","kana_city":"ｲﾌﾞｽｷｼ","kana_address":"7834","pref":"鹿児島県","city":"指宿市","address":"７８３４"},
{"zip_code":"8910304","kana_pref":"ｶｺﾞｼﾏｹﾝ","kana_city":"ｲﾌﾞｽｷｼ","kana_address":"","pref":"鹿児島県","city":"指宿市","address":""},
{"zip_code":"8910304","kana_pref":"ｶｺﾞｼﾏｹﾝ","kana_city":"ｲﾌﾞｽｷｼ","kana_address":"10603-11015)","pref":"鹿児島県","city":"指宿市","address":"１０６０３〜１１０１５）"},
{"zip_code":"8910404","kana_pref":"ｶｺﾞｼﾏｹﾝ","kana_city":"ｲﾌﾞｽｷｼ","kana_address":"ﾋｶﾞｼｶﾀ","pref":"鹿児島県","city":"指宿市","address":"東方"},
{"zip_code":"8910405","kana_pref":"ｶｺﾞｼﾏｹﾝ","kana_city":"ｲﾌﾞｽｷｼ","kana_address":"ﾐﾅﾄ","pref":"鹿児島県","city":"指宿市","address":"湊"},
{"zip_code":"8910502","kana_pref":"ｶｺﾞｼﾏｹﾝ","kana_city":"ｲﾌﾞｽｷｼ","kana_address":"ﾔﾏｶﾞﾜｱｻﾋﾁｮｳ","pref":"鹿児島県","city":"指宿市","address":"山川朝日町"},
{"zip_code":"8910507","kana_pref":"ｶｺﾞｼﾏｹﾝ","kana_city":"ｲﾌﾞｽｷｼ","kana_address":"ﾔﾏｶﾞﾜｲﾘﾌﾈﾁｮｳ","pref":"鹿児島県","city":"指宿市","address":"山川入船町"},
{"zip_code":"8910614","kana_pref":"ｶｺﾞｼﾏｹﾝ","kana_city":"ｲﾌﾞｽｷｼ","kana_address":"ﾔﾏｶﾞﾜｵｵﾔﾏ","pref":"鹿児島県","city":"指宿市","address":"山川大山"},
{"zip_code":"8910514","kana_pref":"ｶｺﾞｼﾏｹﾝ","kana_city":"ｲﾌﾞｽｷｼ","kana_address":"ﾔﾏｶﾞﾜｵｵﾔﾏ","pref":"鹿児島県","city":"指宿市","address":"山川大山"},
{"zip_code":"8910513","kana_pref":"ｶｺﾞｼﾏｹﾝ","kana_city":"ｲﾌﾞｽｷｼ","kana_address":"ﾔﾏｶﾞﾜｵｶﾁﾖｶﾞﾐｽﾞ","pref":"鹿児島県","city":"指宿市","address":"山川岡児ケ水"},
{"zip_code":"8910515","kana_pref":"ｶｺﾞｼﾏｹﾝ","kana_city":"ｲﾌﾞｽｷｼ","kana_address":"ﾔﾏｶﾞﾜｵｶﾞﾜ","pref":"鹿児島県","city":"指宿市","address":"山川小川"},
{"zip_code":"8910506","kana_pref":"ｶｺﾞｼﾏｹﾝ","kana_city":"ｲﾌﾞｽｷｼ","kana_address":"ﾔﾏｶﾞﾜｷﾝｾｲﾁｮｳ","pref":"鹿児島県","city":"指宿市","address":"山川金生町"},
{"zip_code":"8910503","kana_pref":"ｶｺﾞｼﾏｹﾝ","kana_city":"ｲﾌﾞｽｷｼ","kana_address":"ﾔﾏｶﾞﾜｼｵﾐﾁｮｳ","pref":"鹿児島県","city":"指宿市","address":"山川潮見町"},
{"zip_code":"8910501","kana_pref":"ｶｺﾞｼﾏｹﾝ","kana_city":"ｲﾌﾞｽｷｼ","kana_address":"ﾔﾏｶﾞﾜｼﾝｴｲﾁｮｳ","pref":"鹿児島県","city":"指宿市","address":"山川新栄町"},
{"zip_code":"8910504","kana_pref":"ｶｺﾞｼﾏｹﾝ","kana_city":"ｲﾌﾞｽｷｼ","kana_address":"ﾔﾏｶﾞﾜｼﾝｾｲﾁｮｳ","pref":"鹿児島県","city":"指宿市","address":"山川新生町"},
{"zip_code":"8910621","kana_pref":"ｶｺﾞｼﾏｹﾝ","kana_city":"ｲﾌﾞｽｷｼ","kana_address":"ﾔﾏｶﾞﾜﾄｼﾅｶﾞ","pref":"鹿児島県","city":"指宿市","address":"山川利永"},
{"zip_code":"8910516","kana_pref":"ｶｺﾞｼﾏｹﾝ","kana_city":"ｲﾌﾞｽｷｼ","kana_address":"ﾔﾏｶﾞﾜﾅﾘｶﾜ","pref":"鹿児島県","city":"指宿市","address":"山川成川"},
{"zip_code":"8910512","kana_pref":"ｶｺﾞｼﾏｹﾝ","kana_city":"ｲﾌﾞｽｷｼ","kana_address":"ﾔﾏｶﾞﾜﾊﾏﾁﾖｶﾞﾐｽﾞ","pref":"鹿児島県","city":"指宿市","address":"山川浜児ケ水"},
{"zip_code":"8910511","kana_pref":"ｶｺﾞｼﾏｹﾝ","kana_city":"ｲﾌﾞｽｷｼ","kana_address":"ﾔﾏｶﾞﾜﾌｸﾓﾄ","pref":"鹿児島県","city":"指宿市","address":"山川福元"},
{"zip_code":"8910505","kana_pref":"ｶｺﾞｼﾏｹﾝ","kana_city":"ｲﾌﾞｽｷｼ","kana_address":"ﾔﾏｶﾞﾜﾔﾏｼﾀﾁｮｳ","pref":"鹿児島県","city":"指宿市","address":"山川山下町"},
{"zip_code":"8910406","kana_pref":"ｶｺﾞｼﾏｹﾝ","kana_city":"ｲﾌﾞｽｷｼ","kana_address":"ﾕﾉﾊﾏ","pref":"鹿児島県","city":"指宿市","address":"湯の浜"},
{"zip_code":"8913100","kana_pref":"ｶｺﾞｼﾏｹﾝ","kana_city":"ﾆｼﾉｵﾓﾃｼ","kana_address":"","pref":"鹿児島県","city":"西之表市","address":""},
{"zip_code":"8913432","kana_pref":"ｶｺﾞｼﾏｹﾝ","kana_city":"ﾆｼﾉｵﾓﾃｼ","kana_address":"ｱﾝｼﾞｮｳ","pref":"鹿児島県","city":"西之表市","address":"安城"},
{"zip_code":"8913102","kana_pref":"ｶｺﾞｼﾏｹﾝ","kana_city":"ﾆｼﾉｵﾓﾃｼ","kana_address":"ｱﾝﾉｳ","pref":"鹿児島県","city":"西之表市","address":"安納"},
{"zip_code":"8913202","kana_pref":"ｶｺﾞｼﾏｹﾝ","kana_city":"ﾆｼﾉｵﾓﾃｼ","kana_address":"ｱﾝﾉｳ","pref":"鹿児島県","city":"西之表市","address":"安納"},
{"zip_code":"8913114","kana_pref":"ｶｺﾞｼﾏｹﾝ","kana_city":"ﾆｼﾉｵﾓﾃｼ","kana_address":"ｲｹﾀﾞ","pref":"鹿児島県","city":"西之表市","address":"池田"},
{"zip_code":"8913221","kana_pref":"ｶｺﾞｼﾏｹﾝ","kana_city":"ﾆｼﾉｵﾓﾃｼ","kana_address":"ｲｾｷ","pref":"鹿児島県","city":"西之表市","address":"伊関"},
{"zip_code":"8913116","kana_pref":"ｶｺﾞｼﾏｹﾝ","kana_city":"ﾆｼﾉｵﾓﾃｼ","kana_address":"ｶﾓﾒﾁｮｳ","pref":"鹿児島県","city":"西之表市","address":"鴨女町"},
{"zip_code":"8913222","kana_pref":"ｶｺﾞｼﾏｹﾝ","kana_city":"ﾆｼﾉｵﾓﾃｼ","kana_address":"ｸﾆｶﾞﾐ","pref":"鹿児島県","city":"西之表市","address":"国上"},
{"zip_code":"8913103","kana_pref":"ｶｺﾞｼﾏｹﾝ","kana_city":"ﾆｼﾉｵﾓﾃｼ","kana_address":"ｹﾞﾝﾅ","pref":"鹿児島県","city":"西之表市","address":"現和"},
{"zip_code":"8913112","kana_pref":"ｶｺﾞｼﾏｹﾝ","kana_city":"ﾆｼﾉｵﾓﾃｼ","kana_address":"ｻｶｴﾏﾁ","pref":"鹿児島県","city":"西之表市","address":"栄町"},
{"zip_code":"8913117","kana_pref":"ｶｺﾞｼﾏｹﾝ","kana_city":"ﾆｼﾉｵﾓﾃｼ","kana_address":"ｻｸﾗｶﾞｵｶ","pref":"鹿児島県","city":"西之表市","address":"桜が丘"},
{"zip_code":"8913104","kana_pref":"ｶｺﾞｼﾏｹﾝ","kana_city":"ﾆｼﾉｵﾓﾃｼ","kana_address":"ｽﾐﾖｼ","pref":"鹿児島県","city":"西之表市","address":"住吉"},
{"zip_code":"8913115","kana_pref":"ｶｺﾞｼﾏｹﾝ","kana_city":"ﾆｼﾉｵﾓﾃｼ","kana_address":"ﾃﾝｼﾞﾝﾁｮｳ","pref":"鹿児島県","city":"西之表市","address":"天神町"},
{"zip_code":"8913101","kana_pref":"ｶｺﾞｼﾏｹﾝ","kana_city":"ﾆｼﾉｵﾓﾃｼ","kana_address":"ﾆｼﾉｵﾓﾃ","pref":"鹿児島県","city":"西之表市","address":"西之表"},
{"zip_code":"8913111","kana_pref":"ｶｺﾞｼﾏｹﾝ","kana_city":"ﾆｼﾉｵﾓﾃｼ","kana_address":"ﾆｼﾏﾁ","pref":"鹿児島県","city":"西之表市","address":"西町"},
{"zip_code":"8913113","kana_pref":"ｶｺﾞｼﾏｹﾝ","kana_city":"ﾆｼﾉｵﾓﾃｼ","kana_address":"ﾋｶﾞｼﾏﾁ","pref":"鹿児島県","city":"西之表市","address":"東町"},
{"zip_code":"8913431","kana_pref":"ｶｺﾞｼﾏｹﾝ","kana_city":"ﾆｼﾉｵﾓﾃｼ","kana_address":"ﾌﾙﾀ","pref":"鹿児島県","city":"西之表市","address":"古田"},
{"zip_code":"8913118","kana_pref":"ｶｺﾞｼﾏｹﾝ","kana_city":"ﾆｼﾉｵﾓﾃｼ","kana_address":"ﾏｹﾞｼﾏ","pref":"鹿児島県","city":"西之表市","address":"馬毛島"},
{"zip_code":"8912100","kana_pref":"ｶｺﾞｼﾏｹﾝ","kana_city":"ﾀﾙﾐｽﾞｼ","kana_address":"","pref":"鹿児島県","city":"垂水市","address":""},
{"zip_code":"8912125","kana_pref":"ｶｺﾞｼﾏｹﾝ","kana_city":"ﾀﾙﾐｽﾞｼ","kana_address":"ｱｻﾋﾏﾁ","pref":"鹿児島県","city":"垂水市","address":"旭町"},
{"zip_code":"8912103","kana_pref":"ｶｺﾞｼﾏｹﾝ","kana_city":"ﾀﾙﾐｽﾞｼ","kana_address":"ｲﾁｷ","pref":"鹿児島県","city":"垂水市","address":"市木"},
{"zip_code":"8912101","kana_pref":"ｶｺﾞｼﾏｹﾝ","kana_city":"ﾀﾙﾐｽﾞｼ","kana_address":"ｶｲｶﾞﾀ","pref":"鹿児島県","city":"垂水市","address":"海潟"},
{"zip_code":"8912122","kana_pref":"ｶｺﾞｼﾏｹﾝ","kana_city":"ﾀﾙﾐｽﾞｼ","kana_address":"ｶﾝﾏﾁ","pref":"鹿児島県","city":"垂水市","address":"上町"},
{"zip_code":"8912124","kana_pref":"ｶｺﾞｼﾏｹﾝ","kana_city":"ﾀﾙﾐｽﾞｼ","kana_address":"ｷﾝｺｳﾁｮｳ","pref":"鹿児島県","city":"垂水市","address":"錦江町"},
{"zip_code":"8912116","kana_pref":"ｶｺﾞｼﾏｹﾝ","kana_city":"ﾀﾙﾐｽﾞｼ","kana_address":"ｸﾇｷﾞﾊﾞﾙ","pref":"鹿児島県","city":"垂水市","address":"柊原"},
{"zip_code":"8912121","kana_pref":"ｶｺﾞｼﾏｹﾝ","kana_city":"ﾀﾙﾐｽﾞｼ","kana_address":"ｻｶｴﾏﾁ","pref":"鹿児島県","city":"垂水市","address":"栄町"},
{"zip_code":"8912117","kana_pref":"ｶｺﾞｼﾏｹﾝ","kana_city":"ﾀﾙﾐｽﾞｼ","kana_address":"ｼｵｻｲﾁｮｳ","pref":"鹿児島県","city":"垂水市","address":"潮彩町"},
{"zip_code":"8912127","kana_pref":"ｶｺﾞｼﾏｹﾝ","kana_city":"ﾀﾙﾐｽﾞｼ","kana_address":"ｼﾓﾐﾔﾁｮｳ","pref":"鹿児島県","city":"垂水市","address":"下宮町"},
{"zip_code":"8912114","kana_pref":"ｶｺﾞｼﾏｹﾝ","kana_city":"ﾀﾙﾐｽﾞｼ","kana_address":"ｼﾝｼﾞｮｳ","pref":"鹿児島県","city":"垂水市","address":"新城"},
{"zip_code":"8912111","kana_pref":"ｶｺﾞｼﾏｹﾝ","kana_city":"ﾀﾙﾐｽﾞｼ","kana_address":"ｼﾝﾐﾄﾞｳ","pref":"鹿児島県","city":"垂水市","address":"新御堂"},
{"zip_code":"8912113","kana_pref":"ｶｺﾞｼﾏｹﾝ","kana_city":"ﾀﾙﾐｽﾞｼ","kana_address":"ﾀｶｼﾞｮｳ","pref":"鹿児島県","city":"垂水市","address":"高城"},
{"zip_code":"8912104","kana_pref":"ｶｺﾞｼﾏｹﾝ","kana_city":"ﾀﾙﾐｽﾞｼ","kana_address":"ﾀｶﾞﾐ","pref":"鹿児島県","city":"垂水市","address":"田神"},
{"zip_code":"8912106","kana_pref":"ｶｺﾞｼﾏｹﾝ","kana_city":"ﾀﾙﾐｽﾞｼ","kana_address":"ﾁｭｳｵｳﾁｮｳ","pref":"鹿児島県","city":"垂水市","address":"中央町"},
{"zip_code":"8912102","kana_pref":"ｶｺﾞｼﾏｹﾝ","kana_city":"ﾀﾙﾐｽﾞｼ","kana_address":"ﾅｶﾏﾀ","pref":"鹿児島県","city":"垂水市","address":"中俣"},
{"zip_code":"8912115","kana_pref":"ｶｺﾞｼﾏｹﾝ","kana_city":"ﾀﾙﾐｽﾞｼ","kana_address":"ﾊﾏﾋﾞﾗ","pref":"鹿児島県","city":"垂水市","address":"浜平"},
{"zip_code":"8912112","kana_pref":"ｶｺﾞｼﾏｹﾝ","kana_city":"ﾀﾙﾐｽﾞｼ","kana_address":"ﾎﾝｼﾞｮｳ","pref":"鹿児島県","city":"垂水市","address":"本城"},
{"zip_code":"8912123","kana_pref":"ｶｺﾞｼﾏｹﾝ","kana_city":"ﾀﾙﾐｽﾞｼ","kana_address":"ﾎﾝﾏﾁ","pref":"鹿児島県","city":"垂水市","address":"本町"},
{"zip_code":"8912105","kana_pref":"ｶｺﾞｼﾏｹﾝ","kana_city":"ﾀﾙﾐｽﾞｼ","kana_address":"ﾏﾂﾊﾞﾗﾁｮｳ","pref":"鹿児島県","city":"垂水市","address":"松原町"},
{"zip_code":"8912126","kana_pref":"ｶｺﾞｼﾏｹﾝ","kana_city":"ﾀﾙﾐｽﾞｼ","kana_address":"ﾐﾅﾐﾏﾂﾊﾞﾗﾁｮｳ","pref":"鹿児島県","city":"垂水市","address":"南松原町"},
{"zip_code":"8910705","kana_pref":"ｶｺﾞｼﾏｹﾝ","kana_city":"ﾐﾅﾐｷｭｳｼｭｳｼ","kana_address":"ｴｲﾁｮｳｶﾐﾍﾞｯﾌﾟ","pref":"鹿児島県","city":"南九州市","address":"頴娃町上別府"},
{"zip_code":"8910701","kana_pref":"ｶｺﾞｼﾏｹﾝ","kana_city":"ﾐﾅﾐｷｭｳｼｭｳｼ","kana_address":"ｴｲﾁｮｳｺｵﾘ","pref":"鹿児島県","city":"南九州市","address":"頴娃町郡"},
{"zip_code":"8910703","kana_pref":"ｶｺﾞｼﾏｹﾝ","kana_city":"ﾐﾅﾐｷｭｳｼｭｳｼ","kana_address":"ｴｲﾁｮｳｺﾞﾘｮｳ","pref":"鹿児島県","city":"南九州市","address":"頴娃町御領"},
{"zip_code":"8910704","kana_pref":"ｶｺﾞｼﾏｹﾝ","kana_city":"ﾐﾅﾐｷｭｳｼｭｳｼ","kana_address":"ｴｲﾁｮｳﾍﾞｯﾌﾟ","pref":"鹿児島県","city":"南九州市","address":"頴娃町別府"},
{"zip_code":"8910702","kana_pref":"ｶｺﾞｼﾏｹﾝ","kana_city":"ﾐﾅﾐｷｭｳｼｭｳｼ","kana_address":"ｴｲﾁｮｳﾏｷﾉｳﾁ","pref":"鹿児島県","city":"南九州市","address":"頴娃町牧之内"},
{"zip_code":"8910911","kana_pref":"ｶｺﾞｼﾏｹﾝ","kana_city":"ﾐﾅﾐｷｭｳｼｭｳｼ","kana_address":"ﾁﾗﾝﾁｮｳｼｵﾔ","pref":"鹿児島県","city":"南九州市","address":"知覧町塩屋"},
{"zip_code":"8910912","kana_pref":"ｶｺﾞｼﾏｹﾝ","kana_city":"ﾐﾅﾐｷｭｳｼｭｳｼ","kana_address":"ﾁﾗﾝﾁｮｳﾐﾅﾐﾍﾞｯﾌﾟ","pref":"鹿児島県","city":"南九州市","address":"知覧町南別府"},
{"zip_code":"8915200","kana_pref":"ｶｺﾞｼﾏｹﾝ","kana_city":"ｶｺﾞｼﾏｸﾞﾝﾄｼﾏﾑﾗ","kana_address":"","pref":"鹿児島県","city":"鹿児島郡十島村","address":""},
{"zip_code":"8915204","kana_pref":"ｶｺﾞｼﾏｹﾝ","kana_city":"ｶｺﾞｼﾏｸﾞﾝﾄｼﾏﾑﾗ","kana_address":"ｱｸｾｷｼﾞﾏ","pref":"鹿児島県","city":"鹿児島郡十島村","address":"悪石島"},
{"zip_code":"8915101","kana_pref":"ｶｺﾞｼﾏｹﾝ","kana_city":"ｶｺﾞｼﾏｸﾞﾝﾄｼﾏﾑﾗ","kana_address":"ｸﾁﾉｼﾏ","pref":"鹿児島県","city":"鹿児島郡十島村","address":"口之島"},
{"zip_code":"8915205","kana_pref":"ｶｺﾞｼﾏｹﾝ","kana_city":"ｶｺﾞｼﾏｸﾞﾝﾄｼﾏﾑﾗ","kana_address":"ｺﾀﾞｶﾗｼﾞﾏ","pref":"鹿児島県","city":"鹿児島郡十島村","address":"小宝島"},
{"zip_code":"8915203","kana_pref":"ｶｺﾞｼﾏｹﾝ","kana_city":"ｶｺﾞｼﾏｸﾞﾝﾄｼﾏﾑﾗ","kana_address":"ｽﾜﾉｾｼﾞﾏ","pref":"鹿児島県","city":"鹿児島郡十島村","address":"諏訪之瀬島"},
{"zip_code":"8915202","kana_pref":"ｶｺﾞｼﾏｹﾝ","kana_city":"ｶｺﾞｼﾏｸﾞﾝﾄｼﾏﾑﾗ","kana_address":"ﾀｲﾗｼﾞﾏ","pref":"鹿児島県","city":"鹿児島郡十島村","address":"平島"},
{"zip_code":"8915301","kana_pref":"ｶｺﾞｼﾏｹﾝ","kana_city":"ｶｺﾞｼﾏｸﾞﾝﾄｼﾏﾑﾗ","kana_address":"ﾀｶﾗｼﾞﾏ","pref":"鹿児島県","city":"鹿児島郡十島村","address":"宝島"},
{"zip_code":"8915201","kana_pref":"ｶｺﾞｼﾏｹﾝ","kana_city":"ｶｺﾞｼﾏｸﾞﾝﾄｼﾏﾑﾗ","kana_address":"ﾅｶﾉｼﾏ","pref":"鹿児島県","city":"鹿児島郡十島村","address":"中之島"},
{"zip_code":"8913600","kana_pref":"ｶｺﾞｼﾏｹﾝ","kana_city":"ｸﾏｹﾞｸﾞﾝﾅｶﾀﾈﾁｮｳ","kana_address":"","pref":"鹿児島県","city":"熊毛郡中種子町","address":""},
{"zip_code":"8913606","kana_pref":"ｶｺﾞｼﾏｹﾝ","kana_city":"ｸﾏｹﾞｸﾞﾝﾅｶﾀﾈﾁｮｳ","kana_address":"ｻｶｲ","pref":"鹿児島県","city":"熊毛郡中種子町","address":"坂井"},
{"zip_code":"8913607","kana_pref":"ｶｺﾞｼﾏｹﾝ","kana_city":"ｸﾏｹﾞｸﾞﾝﾅｶﾀﾈﾁｮｳ","kana_address":"ﾀｼﾏ","pref":"鹿児島県","city":"熊毛郡中種子町","address":"田島"},
{"zip_code":"8913601","kana_pref":"ｶｺﾞｼﾏｹﾝ","kana_city":"ｸﾏｹﾞｸﾞﾝﾅｶﾀﾈﾁｮｳ","kana_address":"ﾉｳｶﾝ","pref":"鹿児島県","city":"熊毛郡中種子町","address":"納官"},
{"zip_code":"8913604","kana_pref":"ｶｺﾞｼﾏｹﾝ","kana_city":"ｸﾏｹﾞｸﾞﾝﾅｶﾀﾈﾁｮｳ","kana_address":"ﾉﾏ","pref":"鹿児島県","city":"熊毛郡中種子町","address":"野間"},
{"zip_code":"8913602","kana_pref":"ｶｺﾞｼﾏｹﾝ","kana_city":"ｸﾏｹﾞｸﾞﾝﾅｶﾀﾈﾁｮｳ","kana_address":"ﾏｷｶﾞﾜ","pref":"鹿児島県","city":"熊毛郡中種子町","address":"牧川"},
{"zip_code":"8913603","kana_pref":"ｶｺﾞｼﾏｹﾝ","kana_city":"ｸﾏｹﾞｸﾞﾝﾅｶﾀﾈﾁｮｳ","kana_address":"ﾏｽﾀﾞ","pref":"鹿児島県","city":"熊毛郡中種子町","address":"増田"},
{"zip_code":"8913605","kana_pref":"ｶｺﾞｼﾏｹﾝ","kana_city":"ｸﾏｹﾞｸﾞﾝﾅｶﾀﾈﾁｮｳ","kana_address":"ﾕｸ","pref":"鹿児島県","city":"熊毛郡中種子町","address":"油久"},
{"zip_code":"8913700","kana_pref":"ｶｺﾞｼﾏｹﾝ","kana_city":"ｸﾏｹﾞｸﾞﾝﾐﾅﾐﾀﾈﾁｮｳ","kana_address":"","pref":"鹿児島県","city":"熊毛郡南種子町","address":""},
{"zip_code":"8913703","kana_pref":"ｶｺﾞｼﾏｹﾝ","kana_city":"ｸﾏｹﾞｸﾞﾝﾐﾅﾐﾀﾈﾁｮｳ","kana_address":"ｸｷﾅｶﾞ","pref":"鹿児島県","city":"熊毛郡南種子町","address":"茎永"},
{"zip_code":"8913706","kana_pref":"ｶｺﾞｼﾏｹﾝ","kana_city":"ｸﾏｹﾞｸﾞﾝﾐﾅﾐﾀﾈﾁｮｳ","kana_address":"ｼﾏﾏ","pref":"鹿児島県","city":"熊毛郡南種子町","address":"島間"},
{"zip_code":"8913701","kana_pref":"ｶｺﾞｼﾏｹﾝ","kana_city":"ｸﾏｹﾞｸﾞﾝﾐﾅﾐﾀﾈﾁｮｳ","kana_address":"ﾅｶﾉｶﾐ","pref":"鹿児島県","city":"熊毛郡南種子町","address":"中之上"},
{"zip_code":"8913704","kana_pref":"ｶｺﾞｼﾏｹﾝ","kana_city":"ｸﾏｹﾞｸﾞﾝﾐﾅﾐﾀﾈﾁｮｳ","kana_address":"ﾅｶﾉｼﾓ","pref":"鹿児島県","city":"熊毛郡南種子町","address":"中之下"},
{"zip_code":"8913705","kana_pref":"ｶｺﾞｼﾏｹﾝ","kana_city":"ｸﾏｹﾞｸﾞﾝﾐﾅﾐﾀﾈﾁｮｳ","kana_address":"ﾆｼﾉ","pref":"鹿児島県","city":"熊毛郡南種子町","address":"西之"},
{"zip_code":"8913702","kana_pref":"ｶｺﾞｼﾏｹﾝ","kana_city":"ｸﾏｹﾞｸﾞﾝﾐﾅﾐﾀﾈﾁｮｳ","kana_address":"ﾋﾗﾔﾏ","pref":"鹿児島県","city":"熊毛郡南種子町","address":"平山"},
{"zip_code":"8914200","kana_pref":"ｶｺﾞｼﾏｹﾝ","kana_city":"ｸﾏｹﾞｸﾞﾝﾔｸｼﾏﾁｮｳ","kana_address":"","pref":"鹿児島県","city":"熊毛郡屋久島町","address":""},
{"zip_code":"8914311","kana_pref":"ｶｺﾞｼﾏｹﾝ","kana_city":"ｸﾏｹﾞｸﾞﾝﾔｸｼﾏﾁｮｳ","kana_address":"ｱﾝﾎﾞｳ","pref":"鹿児島県","city":"熊毛郡屋久島町","address":"安房"},
{"zip_code":"8914203","kana_pref":"ｶｺﾞｼﾏｹﾝ","kana_city":"ｸﾏｹﾞｸﾞﾝﾔｸｼﾏﾁｮｳ","kana_address":"ｲｯｿｳ","pref":"鹿児島県","city":"熊毛郡屋久島町","address":"一湊"},
{"zip_code":"8914404","kana_pref":"ｶｺﾞｼﾏｹﾝ","kana_city":"ｸﾏｹﾞｸﾞﾝﾔｸｼﾏﾁｮｳ","kana_address":"ｵﾉｱｲﾀﾞ","pref":"鹿児島県","city":"熊毛郡屋久島町","address":"尾之間"},
{"zip_code":"8914206","kana_pref":"ｶｺﾞｼﾏｹﾝ","kana_city":"ｸﾏｹﾞｸﾞﾝﾔｸｼﾏﾁｮｳ","kana_address":"ｸｽｶﾞﾜ","pref":"鹿児島県","city":"熊毛郡屋久島町","address":"楠川"},
{"zip_code":"8914208","kana_pref":"ｶｺﾞｼﾏｹﾝ","kana_city":"ｸﾏｹﾞｸﾞﾝﾔｸｼﾏﾁｮｳ","kana_address":"ｸﾁｴﾗﾌﾞｼﾞﾏ","pref":"鹿児島県","city":"熊毛郡屋久島町","address":"口永良部島"},
{"zip_code":"8914409","kana_pref":"ｶｺﾞｼﾏｹﾝ","kana_city":"ｸﾏｹﾞｸﾞﾝﾔｸｼﾏﾁｮｳ","kana_address":"ｸﾘｵ","pref":"鹿児島県","city":"熊毛郡屋久島町","address":"栗生"},
{"zip_code":"8914405","kana_pref":"ｶｺﾞｼﾏｹﾝ","kana_city":"ｸﾏｹﾞｸﾞﾝﾔｸｼﾏﾁｮｳ","kana_address":"ｺｼﾏ","pref":"鹿児島県","city":"熊毛郡屋久島町","address":"小島"},
{"zip_code":"8914207","kana_pref":"ｶｺﾞｼﾏｹﾝ","kana_city":"ｸﾏｹﾞｸﾞﾝﾔｸｼﾏﾁｮｳ","kana_address":"ｺｾﾀﾞ","pref":"鹿児島県","city":"熊毛郡屋久島町","address":"小瀬田"},
{"zip_code":"8914204","kana_pref":"ｶｺﾞｼﾏｹﾝ","kana_city":"ｸﾏｹﾞｸﾞﾝﾔｸｼﾏﾁｮｳ","kana_address":"ｼﾄｺﾞ","pref":"鹿児島県","city":"熊毛郡屋久島町","address":"志戸子"},
{"zip_code":"8914201","kana_pref":"ｶｺﾞｼﾏｹﾝ","kana_city":"ｸﾏｹﾞｸﾞﾝﾔｸｼﾏﾁｮｳ","kana_address":"ﾅｶﾞﾀ","pref":"鹿児島県","city":"熊毛郡屋久島町","address":"永田"},
{"zip_code":"8914408","kana_pref":"ｶｺﾞｼﾏｹﾝ","kana_city":"ｸﾏｹﾞｸﾞﾝﾔｸｼﾏﾁｮｳ","kana_address":"ﾅｶﾏ","pref":"鹿児島県","city":"熊毛郡屋久島町","address":"中間"},
{"zip_code":"8914403","kana_pref":"ｶｺﾞｼﾏｹﾝ","kana_city":"ｸﾏｹﾞｸﾞﾝﾔｸｼﾏﾁｮｳ","kana_address":"ﾊﾗ","pref":"鹿児島県","city":"熊毛郡屋久島町","address":"原"},
{"zip_code":"8914406","kana_pref":"ｶｺﾞｼﾏｹﾝ","kana_city":"ｸﾏｹﾞｸﾞﾝﾔｸｼﾏﾁｮｳ","kana_address":"ﾋﾗｳﾁ","pref":"鹿児島県","city":"熊毛郡屋久島町","address":"平内"},
{"zip_code":"8914312","kana_pref":"ｶｺﾞｼﾏｹﾝ","kana_city":"ｸﾏｹﾞｸﾞﾝﾔｸｼﾏﾁｮｳ","kana_address":"ﾌﾅﾕｷ","pref":"鹿児島県","city":"熊毛郡屋久島町","address":"船行"},
{"zip_code":"8914205","kana_pref":"ｶｺﾞｼﾏｹﾝ","kana_city":"ｸﾏｹﾞｸﾞﾝﾔｸｼﾏﾁｮｳ","kana_address":"ﾐﾔﾉｳﾗ","pref":"鹿児島県","city":"熊毛郡屋久島町","address":"宮之浦"},
{"zip_code":"8914401","kana_pref":"ｶｺﾞｼﾏｹﾝ","kana_city":"ｸﾏｹﾞｸﾞﾝﾔｸｼﾏﾁｮｳ","kana_address":"ﾑｷﾞｵ","pref":"鹿児島県","city":"熊毛郡屋久島町","address":"麦生"},
{"zip_code":"8914402","kana_pref":"ｶｺﾞｼﾏｹﾝ","kana_city":"ｸﾏｹﾞｸﾞﾝﾔｸｼﾏﾁｮｳ","kana_address":"ﾑｷﾞｵ","pref":"鹿児島県","city":"熊毛郡屋久島町","address":"麦生"},
{"zip_code":"8914407","kana_pref":"ｶｺﾞｼﾏｹﾝ","kana_city":"ｸﾏｹﾞｸﾞﾝﾔｸｼﾏﾁｮｳ","kana_address":"ﾕﾄﾞﾏﾘ","pref":"鹿児島県","city":"熊毛郡屋久島町","address":"湯泊"},
{"zip_code":"8914202","kana_pref":"ｶｺﾞｼﾏｹﾝ","kana_city":"ｸﾏｹﾞｸﾞﾝﾔｸｼﾏﾁｮｳ","kana_address":"ﾖｼﾀﾞ","pref":"鹿児島県","city":"熊毛郡屋久島町","address":"吉田"},
{"zip_code":"8916200","kana_pref":"ｶｺﾞｼﾏｹﾝ","kana_city":"ｵｵｼﾏｸﾞﾝｷｶｲﾁｮｳ","kana_address":"","pref":"鹿児島県","city":"大島郡喜界町","address":""},
{"zip_code":"8916201","kana_pref":"ｶｺﾞｼﾏｹﾝ","kana_city":"ｵｵｼﾏｸﾞﾝｷｶｲﾁｮｳ","kana_address":"ｱｶﾚﾝ","pref":"鹿児島県","city":"大島郡喜界町","address":"赤連"},
{"zip_code":"8916162","kana_pref":"ｶｺﾞｼﾏｹﾝ","kana_city":"ｵｵｼﾏｸﾞﾝｷｶｲﾁｮｳ","kana_address":"ｱﾃﾞﾝ","pref":"鹿児島県","city":"大島郡喜界町","address":"阿伝"},
{"zip_code":"8916231","kana_pref":"ｶｺﾞｼﾏｹﾝ","kana_city":"ｵｵｼﾏｸﾞﾝｷｶｲﾁｮｳ","kana_address":"ｱﾗｷ","pref":"鹿児島県","city":"大島郡喜界町","address":"荒木"},
{"zip_code":"8916221","kana_pref":"ｶｺﾞｼﾏｹﾝ","kana_city":"ｵｵｼﾏｸﾞﾝｷｶｲﾁｮｳ","kana_address":"ｲｹｼﾞ","pref":"鹿児島県","city":"大島郡喜界町","address":"池治"},
{"zip_code":"8916217","kana_pref":"ｶｺﾞｼﾏｹﾝ","kana_city":"ｵｵｼﾏｸﾞﾝｷｶｲﾁｮｳ","kana_address":"ｲｻｺﾞ","pref":"鹿児島県","city":"大島郡喜界町","address":"伊砂"},
{"zip_code":"8916141","kana_pref":"ｶｺﾞｼﾏｹﾝ","kana_city":"ｵｵｼﾏｸﾞﾝｷｶｲﾁｮｳ","kana_address":"ｲｻﾈｸ","pref":"鹿児島県","city":"大島郡喜界町","address":"伊実久"},
{"zip_code":"8916228","kana_pref":"ｶｺﾞｼﾏｹﾝ","kana_city":"ｵｵｼﾏｸﾞﾝｷｶｲﾁｮｳ","kana_address":"ｳﾗﾊﾗ","pref":"鹿児島県","city":"大島郡喜界町","address":"浦原"},
{"zip_code":"8916213","kana_pref":"ｶｺﾞｼﾏｹﾝ","kana_city":"ｵｵｼﾏｸﾞﾝｷｶｲﾁｮｳ","kana_address":"ｵｵｱｻﾄ","pref":"鹿児島県","city":"大島郡喜界町","address":"大朝戸"},
{"zip_code":"8916142","kana_pref":"ｶｺﾞｼﾏｹﾝ","kana_city":"ｵｵｼﾏｸﾞﾝｷｶｲﾁｮｳ","kana_address":"ｵﾉﾂ","pref":"鹿児島県","city":"大島郡喜界町","address":"小野津"},
{"zip_code":"8916161","kana_pref":"ｶｺﾞｼﾏｹﾝ","kana_city":"ｵｵｼﾏｸﾞﾝｷｶｲﾁｮｳ","kana_address":"ｶﾄﾞﾝ","pref":"鹿児島県","city":"大島郡喜界町","address":"嘉鈍"},
{"zip_code":"8916233","kana_pref":"ｶｺﾞｼﾏｹﾝ","kana_city":"ｵｵｼﾏｸﾞﾝｷｶｲﾁｮｳ","kana_address":"ｶﾐｶﾃﾂ","pref":"鹿児島県","city":"大島郡喜界町","address":"上嘉鉄"},
{"zip_code":"8916227","kana_pref":"ｶｺﾞｼﾏｹﾝ","kana_city":"ｵｵｼﾏｸﾞﾝｷｶｲﾁｮｳ","kana_address":"ｶﾜﾐﾈ","pref":"鹿児島県","city":"大島郡喜界町","address":"川嶺"},
{"zip_code":"8916224","kana_pref":"ｶｺﾞｼﾏｹﾝ","kana_city":"ｵｵｼﾏｸﾞﾝｷｶｲﾁｮｳ","kana_address":"ｸﾞｽｸ","pref":"鹿児島県","city":"大島郡喜界町","address":"城久"},
{"zip_code":"8916164","kana_pref":"ｶｺﾞｼﾏｹﾝ","kana_city":"ｵｵｼﾏｸﾞﾝｷｶｲﾁｮｳ","kana_address":"ｹﾗｼﾞ","pref":"鹿児島県","city":"大島郡喜界町","address":"花良治"},
{"zip_code":"8916163","kana_pref":"ｶｺﾞｼﾏｹﾝ","kana_city":"ｵｵｼﾏｸﾞﾝｷｶｲﾁｮｳ","kana_address":"ｹﾗｼﾞ","pref":"鹿児島県","city":"大島郡喜界町","address":"花良治"},
{"zip_code":"8916216","kana_pref":"ｶｺﾞｼﾏｹﾝ","kana_city":"ｵｵｼﾏｸﾞﾝｷｶｲﾁｮｳ","kana_address":"ｻｶﾐﾈ","pref":"鹿児島県","city":"大島郡喜界町","address":"坂嶺"},
{"zip_code":"8916229","kana_pref":"ｶｺﾞｼﾏｹﾝ","kana_city":"ｵｵｼﾏｸﾞﾝｷｶｲﾁｮｳ","kana_address":"ｻｷﾔﾏ","pref":"鹿児島県","city":"大島郡喜界町","address":"先山"},
{"zip_code":"8916144","kana_pref":"ｶｺﾞｼﾏｹﾝ","kana_city":"ｵｵｼﾏｸﾞﾝｷｶｲﾁｮｳ","kana_address":"ｻﾃﾞｸ","pref":"鹿児島県","city":"大島郡喜界町","address":"佐手久"},
{"zip_code":"8916151","kana_pref":"ｶｺﾞｼﾏｹﾝ","kana_city":"ｵｵｼﾏｸﾞﾝｷｶｲﾁｮｳ","kana_address":"ｼｵﾐﾁ","pref":"鹿児島県","city":"大島郡喜界町","address":"塩道"},
{"zip_code":"8916143","kana_pref":"ｶｺﾞｼﾏｹﾝ","kana_city":"ｵｵｼﾏｸﾞﾝｷｶｲﾁｮｳ","kana_address":"ｼﾄｵｹ","pref":"鹿児島県","city":"大島郡喜界町","address":"志戸桶"},
{"zip_code":"8916222","kana_pref":"ｶｺﾞｼﾏｹﾝ","kana_city":"ｵｵｼﾏｸﾞﾝｷｶｲﾁｮｳ","kana_address":"ｼﾏﾅｶ","pref":"鹿児島県","city":"大島郡喜界町","address":"島中"},
{"zip_code":"8916154","kana_pref":"ｶｺﾞｼﾏｹﾝ","kana_city":"ｵｵｼﾏｸﾞﾝｷｶｲﾁｮｳ","kana_address":"ｼﾗﾐｽﾞ","pref":"鹿児島県","city":"大島郡喜界町","address":"白水"},
{"zip_code":"8916152","kana_pref":"ｶｺﾞｼﾏｹﾝ","kana_city":"ｵｵｼﾏｸﾞﾝｷｶｲﾁｮｳ","kana_address":"ｿｳﾏﾁ","pref":"鹿児島県","city":"大島郡喜界町","address":"早町"},
{"zip_code":"8916223","kana_pref":"ｶｺﾞｼﾏｹﾝ","kana_city":"ｵｵｼﾏｸﾞﾝｷｶｲﾁｮｳ","kana_address":"ﾀｷｶﾞﾜ","pref":"鹿児島県","city":"大島郡喜界町","address":"滝川"},
{"zip_code":"8916232","kana_pref":"ｶｺﾞｼﾏｹﾝ","kana_city":"ｵｵｼﾏｸﾞﾝｷｶｲﾁｮｳ","kana_address":"ﾃｸﾂﾞｸ","pref":"鹿児島県","city":"大島郡喜界町","address":"手久津久"},
{"zip_code":"8916215","kana_pref":"ｶｺﾞｼﾏｹﾝ","kana_city":"ｵｵｼﾏｸﾞﾝｷｶｲﾁｮｳ","kana_address":"ﾅｶｸﾞﾏ","pref":"鹿児島県","city":"大島郡喜界町","address":"中熊"},
{"zip_code":"8916212","kana_pref":"ｶｺﾞｼﾏｹﾝ","kana_city":"ｵｵｼﾏｸﾞﾝｷｶｲﾁｮｳ","kana_address":"ﾅｶｸﾞﾏ","pref":"鹿児島県","city":"大島郡喜界町","address":"中熊"},
{"zip_code":"8916203","kana_pref":"ｶｺﾞｼﾏｹﾝ","kana_city":"ｵｵｼﾏｸﾞﾝｷｶｲﾁｮｳ","kana_address":"ﾅｶｻﾄ","pref":"鹿児島県","city":"大島郡喜界町","address":"中里"},
{"zip_code":"8916211","kana_pref":"ｶｺﾞｼﾏｹﾝ","kana_city":"ｵｵｼﾏｸﾞﾝｷｶｲﾁｮｳ","kana_address":"ﾅｶﾏ","pref":"鹿児島県","city":"大島郡喜界町","address":"中間"},
{"zip_code":"8916153","kana_pref":"ｶｺﾞｼﾏｹﾝ","kana_city":"ｵｵｼﾏｸﾞﾝｷｶｲﾁｮｳ","kana_address":"ﾅｶﾞﾐﾈ","pref":"鹿児島県","city":"大島郡喜界町","address":"長嶺"},
{"zip_code":"8916214","kana_pref":"ｶｺﾞｼﾏｹﾝ","kana_city":"ｵｵｼﾏｸﾞﾝｷｶｲﾁｮｳ","kana_address":"ﾆｼﾒ","pref":"鹿児島県","city":"大島郡喜界町","address":"西目"},
{"zip_code":"8916226","kana_pref":"ｶｺﾞｼﾏｹﾝ","kana_city":"ｵｵｼﾏｸﾞﾝｷｶｲﾁｮｳ","kana_address":"ﾊｻﾄ","pref":"鹿児島県","city":"大島郡喜界町","address":"羽里"},
{"zip_code":"8916225","kana_pref":"ｶｺﾞｼﾏｹﾝ","kana_city":"ｵｵｼﾏｸﾞﾝｷｶｲﾁｮｳ","kana_address":"ﾔﾏﾀﾞ","pref":"鹿児島県","city":"大島郡喜界町","address":"山田"},
{"zip_code":"8916202","kana_pref":"ｶｺﾞｼﾏｹﾝ","kana_city":"ｵｵｼﾏｸﾞﾝｷｶｲﾁｮｳ","kana_address":"ﾜﾝ","pref":"鹿児島県","city":"大島郡喜界町","address":"湾"},
{"zip_code":"8917100","kana_pref":"ｶｺﾞｼﾏｹﾝ","kana_city":"ｵｵｼﾏｸﾞﾝﾄｸﾉｼﾏﾁｮｳ","kana_address":"","pref":"鹿児島県","city":"大島郡徳之島町","address":""},
{"zip_code":"8917116","kana_pref":"ｶｺﾞｼﾏｹﾝ","kana_city":"ｵｵｼﾏｸﾞﾝﾄｸﾉｼﾏﾁｮｳ","kana_address":"ｱｻﾋｶﾞｵｶ","pref":"鹿児島県","city":"大島郡徳之島町","address":"旭ケ丘"},
{"zip_code":"8917114","kana_pref":"ｶｺﾞｼﾏｹﾝ","kana_city":"ｵｵｼﾏｸﾞﾝﾄｸﾉｼﾏﾁｮｳ","kana_address":"ｲﾉｶﾜ","pref":"鹿児島県","city":"大島郡徳之島町","address":"井之川"},
{"zip_code":"8917104","kana_pref":"ｶｺﾞｼﾏｹﾝ","kana_city":"ｵｵｼﾏｸﾞﾝﾄｸﾉｼﾏﾁｮｳ","kana_address":"ｵﾓ","pref":"鹿児島県","city":"大島郡徳之島町","address":"尾母"},
{"zip_code":"8917422","kana_pref":"ｶｺﾞｼﾏｹﾝ","kana_city":"ｵｵｼﾏｸﾞﾝﾄｸﾉｼﾏﾁｮｳ","kana_address":"ｶﾅﾐ","pref":"鹿児島県","city":"大島郡徳之島町","address":"金見"},
{"zip_code":"8917113","kana_pref":"ｶｺﾞｼﾏｹﾝ","kana_city":"ｵｵｼﾏｸﾞﾝﾄｸﾉｼﾏﾁｮｳ","kana_address":"ｶﾐﾉﾐﾈ","pref":"鹿児島県","city":"大島郡徳之島町","address":"神之嶺"},
{"zip_code":"8917101","kana_pref":"ｶｺﾞｼﾏｹﾝ","kana_city":"ｵｵｼﾏｸﾞﾝﾄｸﾉｼﾏﾁｮｳ","kana_address":"ｶﾒﾂ","pref":"鹿児島県","city":"大島郡徳之島町","address":"亀津"},
{"zip_code":"8917102","kana_pref":"ｶｺﾞｼﾏｹﾝ","kana_city":"ｵｵｼﾏｸﾞﾝﾄｸﾉｼﾏﾁｮｳ","kana_address":"ｶﾒﾄｸ","pref":"鹿児島県","city":"大島郡徳之島町","address":"亀徳"},
{"zip_code":"8917425","kana_pref":"ｶｺﾞｼﾏｹﾝ","kana_city":"ｵｵｼﾏｸﾞﾝﾄｸﾉｼﾏﾁｮｳ","kana_address":"ｹﾄﾞｸ","pref":"鹿児島県","city":"大島郡徳之島町","address":"花徳"},
{"zip_code":"8917423","kana_pref":"ｶｺﾞｼﾏｹﾝ","kana_city":"ｵｵｼﾏｸﾞﾝﾄｸﾉｼﾏﾁｮｳ","kana_address":"ｻﾝ","pref":"鹿児島県","city":"大島郡徳之島町","address":"山"},
{"zip_code":"8917115","kana_pref":"ｶｺﾞｼﾏｹﾝ","kana_city":"ｵｵｼﾏｸﾞﾝﾄｸﾉｼﾏﾁｮｳ","kana_address":"ｼﾓｸｼ","pref":"鹿児島県","city":"大島郡徳之島町","address":"下久志"},
{"zip_code":"8917112","kana_pref":"ｶｺﾞｼﾏｹﾝ","kana_city":"ｵｵｼﾏｸﾞﾝﾄｸﾉｼﾏﾁｮｳ","kana_address":"ｼｮﾀﾞ","pref":"鹿児島県","city":"大島郡徳之島町","address":"諸田"},
{"zip_code":"8917105","kana_pref":"ｶｺﾞｼﾏｹﾝ","kana_city":"ｵｵｼﾏｸﾞﾝﾄｸﾉｼﾏﾁｮｳ","kana_address":"ｼﾗｲ","pref":"鹿児島県","city":"大島郡徳之島町","address":"白井"},
{"zip_code":"8917421","kana_pref":"ｶｺﾞｼﾏｹﾝ","kana_city":"ｵｵｼﾏｸﾞﾝﾄｸﾉｼﾏﾁｮｳ","kana_address":"ﾃﾃ","pref":"鹿児島県","city":"大島郡徳之島町","address":"手々"},
{"zip_code":"8917111","kana_pref":"ｶｺﾞｼﾏｹﾝ","kana_city":"ｵｵｼﾏｸﾞﾝﾄｸﾉｼﾏﾁｮｳ","kana_address":"ﾄｸﾜｾ","pref":"鹿児島県","city":"大島郡徳之島町","address":"徳和瀬"},
{"zip_code":"8917424","kana_pref":"ｶｺﾞｼﾏｹﾝ","kana_city":"ｵｵｼﾏｸﾞﾝﾄｸﾉｼﾏﾁｮｳ","kana_address":"ﾄﾄﾞﾛｷ","pref":"鹿児島県","city":"大島郡徳之島町","address":"轟木"},
{"zip_code":"8917426","kana_pref":"ｶｺﾞｼﾏｹﾝ","kana_city":"ｵｵｼﾏｸﾞﾝﾄｸﾉｼﾏﾁｮｳ","kana_address":"ﾎﾞﾏ","pref":"鹿児島県","city":"大島郡徳之島町","address":"母間"},
{"zip_code":"8917103","kana_pref":"ｶｺﾞｼﾏｹﾝ","kana_city":"ｵｵｼﾏｸﾞﾝﾄｸﾉｼﾏﾁｮｳ","kana_address":"ﾐﾅﾐﾊﾗ","pref":"鹿児島県","city":"大島郡徳之島町","address":"南原"},
{"zip_code":"8917600","kana_pref":"ｶｺﾞｼﾏｹﾝ","kana_city":"ｵｵｼﾏｸﾞﾝｱﾏｷﾞﾁｮｳ","kana_address":"","pref":"鹿児島県","city":"大島郡天城町","address":""},
{"zip_code":"8917605","kana_pref":"ｶｺﾞｼﾏｹﾝ","kana_city":"ｵｵｼﾏｸﾞﾝｱﾏｷﾞﾁｮｳ","kana_address":"ｱｻﾏ","pref":"鹿児島県","city":"大島郡天城町","address":"浅間"},
{"zip_code":"8917611","kana_pref":"ｶｺﾞｼﾏｹﾝ","kana_city":"ｵｵｼﾏｸﾞﾝｱﾏｷﾞﾁｮｳ","kana_address":"ｱﾏｷﾞ","pref":"鹿児島県","city":"大島郡天城町","address":"天城"},
{"zip_code":"8917622","kana_pref":"ｶｺﾞｼﾏｹﾝ","kana_city":"ｵｵｼﾏｸﾞﾝｱﾏｷﾞﾁｮｳ","kana_address":"ｵｵﾂｶﾜ","pref":"鹿児島県","city":"大島郡天城町","address":"大津川"},
{"zip_code":"8917603","kana_pref":"ｶｺﾞｼﾏｹﾝ","kana_city":"ｵｵｼﾏｸﾞﾝｱﾏｷﾞﾁｮｳ","kana_address":"ｵｶｾﾞﾝ","pref":"鹿児島県","city":"大島郡天城町","address":"岡前"},
{"zip_code":"8917621","kana_pref":"ｶｺﾞｼﾏｹﾝ","kana_city":"ｵｵｼﾏｸﾞﾝｱﾏｷﾞﾁｮｳ","kana_address":"ｶﾈｸ","pref":"鹿児島県","city":"大島郡天城町","address":"兼久"},
{"zip_code":"8917623","kana_pref":"ｶｺﾞｼﾏｹﾝ","kana_city":"ｵｵｼﾏｸﾞﾝｱﾏｷﾞﾁｮｳ","kana_address":"ｾﾀｷ","pref":"鹿児島県","city":"大島郡天城町","address":"瀬滝"},
{"zip_code":"8917624","kana_pref":"ｶｺﾞｼﾏｹﾝ","kana_city":"ｵｵｼﾏｸﾞﾝｱﾏｷﾞﾁｮｳ","kana_address":"ﾄｳﾍﾞ","pref":"鹿児島県","city":"大島郡天城町","address":"当部"},
{"zip_code":"8917731","kana_pref":"ｶｺﾞｼﾏｹﾝ","kana_city":"ｵｵｼﾏｸﾞﾝｱﾏｷﾞﾁｮｳ","kana_address":"ﾆｼｱｷﾞﾅ","pref":"鹿児島県","city":"大島郡天城町","address":"西阿木名"},
{"zip_code":"8917612","kana_pref":"ｶｺﾞｼﾏｹﾝ","kana_city":"ｵｵｼﾏｸﾞﾝｱﾏｷﾞﾁｮｳ","kana_address":"ﾍﾄﾉ","pref":"鹿児島県","city":"大島郡天城町","address":"平土野"},
{"zip_code":"8917604","kana_pref":"ｶｺﾞｼﾏｹﾝ","kana_city":"ｵｵｼﾏｸﾞﾝｱﾏｷﾞﾁｮｳ","kana_address":"ﾏｴﾉ","pref":"鹿児島県","city":"大島郡天城町","address":"前野"},
{"zip_code":"8917602","kana_pref":"ｶｺﾞｼﾏｹﾝ","kana_city":"ｵｵｼﾏｸﾞﾝｱﾏｷﾞﾁｮｳ","kana_address":"ﾏﾂﾊﾞﾗ","pref":"鹿児島県","city":"大島郡天城町","address":"松原"},
{"zip_code":"8917601","kana_pref":"ｶｺﾞｼﾏｹﾝ","kana_city":"ｵｵｼﾏｸﾞﾝｱﾏｷﾞﾁｮｳ","kana_address":"ﾖﾅﾏ","pref":"鹿児島県","city":"大島郡天城町","address":"与名間"},
{"zip_code":"8918300","kana_pref":"ｶｺﾞｼﾏｹﾝ","kana_city":"ｵｵｼﾏｸﾞﾝｲｾﾝﾁｮｳ","kana_address":"","pref":"鹿児島県","city":"大島郡伊仙町","address":""},
{"zip_code":"8918322","kana_pref":"ｶｺﾞｼﾏｹﾝ","kana_city":"ｵｵｼﾏｸﾞﾝｲｾﾝﾁｮｳ","kana_address":"ｱｺﾞﾝ","pref":"鹿児島県","city":"大島郡伊仙町","address":"阿権"},
{"zip_code":"8918221","kana_pref":"ｶｺﾞｼﾏｹﾝ","kana_city":"ｵｵｼﾏｸﾞﾝｲｾﾝﾁｮｳ","kana_address":"ｱｻﾝ","pref":"鹿児島県","city":"大島郡伊仙町","address":"阿三"},
{"zip_code":"8918321","kana_pref":"ｶｺﾞｼﾏｹﾝ","kana_city":"ｵｵｼﾏｸﾞﾝｲｾﾝﾁｮｳ","kana_address":"ｱｻﾝ","pref":"鹿児島県","city":"大島郡伊仙町","address":"阿三"},
{"zip_code":"8918201","kana_pref":"ｶｺﾞｼﾏｹﾝ","kana_city":"ｵｵｼﾏｸﾞﾝｲｾﾝﾁｮｳ","kana_address":"ｲｾﾝ","pref":"鹿児島県","city":"大島郡伊仙町","address":"伊仙"},
{"zip_code":"8918324","kana_pref":"ｶｺﾞｼﾏｹﾝ","kana_city":"ｵｵｼﾏｸﾞﾝｲｾﾝﾁｮｳ","kana_address":"ｲﾄｷﾅ","pref":"鹿児島県","city":"大島郡伊仙町","address":"糸木名"},
{"zip_code":"8918327","kana_pref":"ｶｺﾞｼﾏｹﾝ","kana_city":"ｵｵｼﾏｸﾞﾝｲｾﾝﾁｮｳ","kana_address":"ｲﾇﾀﾌﾞ","pref":"鹿児島県","city":"大島郡伊仙町","address":"犬田布"},
{"zip_code":"8918114","kana_pref":"ｶｺﾞｼﾏｹﾝ","kana_city":"ｵｵｼﾏｸﾞﾝｲｾﾝﾁｮｳ","kana_address":"ｵﾓﾅﾜ","pref":"鹿児島県","city":"大島郡伊仙町","address":"面縄"},
{"zip_code":"8918111","kana_pref":"ｶｺﾞｼﾏｹﾝ","kana_city":"ｵｵｼﾏｸﾞﾝｲｾﾝﾁｮｳ","kana_address":"ｷﾈﾝ","pref":"鹿児島県","city":"大島郡伊仙町","address":"喜念"},
{"zip_code":"8918323","kana_pref":"ｶｺﾞｼﾏｹﾝ","kana_city":"ｵｵｼﾏｸﾞﾝｲｾﾝﾁｮｳ","kana_address":"ｷﾉｺ","pref":"鹿児島県","city":"大島郡伊仙町","address":"木之香"},
{"zip_code":"8918216","kana_pref":"ｶｺﾞｼﾏｹﾝ","kana_city":"ｵｵｼﾏｸﾞﾝｲｾﾝﾁｮｳ","kana_address":"ｹﾝﾌﾞｸ","pref":"鹿児島県","city":"大島郡伊仙町","address":"検福"},
{"zip_code":"8918116","kana_pref":"ｶｺﾞｼﾏｹﾝ","kana_city":"ｵｵｼﾏｸﾞﾝｲｾﾝﾁｮｳ","kana_address":"ｹﾝﾌﾞｸ","pref":"鹿児島県","city":"大島郡伊仙町","address":"検福"},
{"zip_code":"8918329","kana_pref":"ｶｺﾞｼﾏｹﾝ","kana_city":"ｵｵｼﾏｸﾞﾝｲｾﾝﾁｮｳ","kana_address":"ｺｼﾞﾏ","pref":"鹿児島県","city":"大島郡伊仙町","address":"小島"},
{"zip_code":"8918328","kana_pref":"ｶｺﾞｼﾏｹﾝ","kana_city":"ｵｵｼﾏｸﾞﾝｲｾﾝﾁｮｳ","kana_address":"ｻｷﾊﾞﾙ","pref":"鹿児島県","city":"大島郡伊仙町","address":"崎原"},
{"zip_code":"8918112","kana_pref":"ｶｺﾞｼﾏｹﾝ","kana_city":"ｵｵｼﾏｸﾞﾝｲｾﾝﾁｮｳ","kana_address":"ｻﾍﾞﾝ","pref":"鹿児島県","city":"大島郡伊仙町","address":"佐弁"},
{"zip_code":"8918117","kana_pref":"ｶｺﾞｼﾏｹﾝ","kana_city":"ｵｵｼﾏｸﾞﾝｲｾﾝﾁｮｳ","kana_address":"ﾅｶﾔﾏ","pref":"鹿児島県","city":"大島郡伊仙町","address":"中山"},
{"zip_code":"8918326","kana_pref":"ｶｺﾞｼﾏｹﾝ","kana_city":"ｵｵｼﾏｸﾞﾝｲｾﾝﾁｮｳ","kana_address":"ﾊﾞﾈ","pref":"鹿児島県","city":"大島郡伊仙町","address":"馬根"},
{"zip_code":"8918115","kana_pref":"ｶｺﾞｼﾏｹﾝ","kana_city":"ｵｵｼﾏｸﾞﾝｲｾﾝﾁｮｳ","kana_address":"ﾌﾙｻﾄ","pref":"鹿児島県","city":"大島郡伊仙町","address":"古里"},
{"zip_code":"8918113","kana_pref":"ｶｺﾞｼﾏｹﾝ","kana_city":"ｵｵｼﾏｸﾞﾝｲｾﾝﾁｮｳ","kana_address":"ﾒﾃｸﾞ","pref":"鹿児島県","city":"大島郡伊仙町","address":"目手久"},
{"zip_code":"8918325","kana_pref":"ｶｺﾞｼﾏｹﾝ","kana_city":"ｵｵｼﾏｸﾞﾝｲｾﾝﾁｮｳ","kana_address":"ﾔｴｻﾞｵ","pref":"鹿児島県","city":"大島郡伊仙町","address":"八重竿"},
{"zip_code":"8919100","kana_pref":"ｶｺﾞｼﾏｹﾝ","kana_city":"ｵｵｼﾏｸﾞﾝﾜﾄﾞﾏﾘﾁｮｳ","kana_address":"","pref":"鹿児島県","city":"大島郡和泊町","address":""},
{"zip_code":"8919114","kana_pref":"ｶｺﾞｼﾏｹﾝ","kana_city":"ｵｵｼﾏｸﾞﾝﾜﾄﾞﾏﾘﾁｮｳ","kana_address":"ｱｾﾞﾌ","pref":"鹿児島県","city":"大島郡和泊町","address":"畦布"},
{"zip_code":"8919115","kana_pref":"ｶｺﾞｼﾏｹﾝ","kana_city":"ｵｵｼﾏｸﾞﾝﾜﾄﾞﾏﾘﾁｮｳ","kana_address":"ｲﾉﾍﾞ","pref":"鹿児島県","city":"大島郡和泊町","address":"伊延"},
{"zip_code":"8919116","kana_pref":"ｶｺﾞｼﾏｹﾝ","kana_city":"ｵｵｼﾏｸﾞﾝﾜﾄﾞﾏﾘﾁｮｳ","kana_address":"ｳｴﾃﾃﾁﾅ","pref":"鹿児島県","city":"大島郡和泊町","address":"上手々知名"},
{"zip_code":"8919131","kana_pref":"ｶｺﾞｼﾏｹﾝ","kana_city":"ｵｵｼﾏｸﾞﾝﾜﾄﾞﾏﾘﾁｮｳ","kana_address":"ｳﾁｼﾞﾛ","pref":"鹿児島県","city":"大島郡和泊町","address":"内城"},
{"zip_code":"8919125","kana_pref":"ｶｺﾞｼﾏｹﾝ","kana_city":"ｵｵｼﾏｸﾞﾝﾜﾄﾞﾏﾘﾁｮｳ","kana_address":"ｵｵｼﾞﾛ","pref":"鹿児島県","city":"大島郡和泊町","address":"大城"},
{"zip_code":"8919102","kana_pref":"ｶｺﾞｼﾏｹﾝ","kana_city":"ｵｵｼﾏｸﾞﾝﾜﾄﾞﾏﾘﾁｮｳ","kana_address":"ｷﾋﾞﾙ","pref":"鹿児島県","city":"大島郡和泊町","address":"喜美留"},
{"zip_code":"8919101","kana_pref":"ｶｺﾞｼﾏｹﾝ","kana_city":"ｵｵｼﾏｸﾞﾝﾜﾄﾞﾏﾘﾁｮｳ","kana_address":"ｸﾆｶﾞﾐ","pref":"鹿児島県","city":"大島郡和泊町","address":"国頭"},
{"zip_code":"8919132","kana_pref":"ｶｺﾞｼﾏｹﾝ","kana_city":"ｵｵｼﾏｸﾞﾝﾜﾄﾞﾏﾘﾁｮｳ","kana_address":"ｺﾞﾗﾝ","pref":"鹿児島県","city":"大島郡和泊町","address":"後蘭"},
{"zip_code":"8919136","kana_pref":"ｶｺﾞｼﾏｹﾝ","kana_city":"ｵｵｼﾏｸﾞﾝﾜﾄﾞﾏﾘﾁｮｳ","kana_address":"ｾﾅ","pref":"鹿児島県","city":"大島郡和泊町","address":"瀬名"},
{"zip_code":"8919133","kana_pref":"ｶｺﾞｼﾏｹﾝ","kana_city":"ｵｵｼﾏｸﾞﾝﾜﾄﾞﾏﾘﾁｮｳ","kana_address":"ﾀﾆﾔﾏ","pref":"鹿児島県","city":"大島郡和泊町","address":"谷山"},
{"zip_code":"8919122","kana_pref":"ｶｺﾞｼﾏｹﾝ","kana_city":"ｵｵｼﾏｸﾞﾝﾜﾄﾞﾏﾘﾁｮｳ","kana_address":"ﾀﾏｼﾞﾛ","pref":"鹿児島県","city":"大島郡和泊町","address":"玉城"},
{"zip_code":"8919103","kana_pref":"ｶｺﾞｼﾏｹﾝ","kana_city":"ｵｵｼﾏｸﾞﾝﾜﾄﾞﾏﾘﾁｮｳ","kana_address":"ﾃﾞｷﾞ","pref":"鹿児島県","city":"大島郡和泊町","address":"出花"},
{"zip_code":"8919111","kana_pref":"ｶｺﾞｼﾏｹﾝ","kana_city":"ｵｵｼﾏｸﾞﾝﾜﾄﾞﾏﾘﾁｮｳ","kana_address":"ﾃﾃﾞﾁﾅ","pref":"鹿児島県","city":"大島郡和泊町","address":"手々知名"},
{"zip_code":"8919135","kana_pref":"ｶｺﾞｼﾏｹﾝ","kana_city":"ｵｵｼﾏｸﾞﾝﾜﾄﾞﾏﾘﾁｮｳ","kana_address":"ﾅｶﾞﾐﾈ","pref":"鹿児島県","city":"大島郡和泊町","address":"永嶺"},
{"zip_code":"8919134","kana_pref":"ｶｺﾞｼﾏｹﾝ","kana_city":"ｵｵｼﾏｸﾞﾝﾜﾄﾞﾏﾘﾁｮｳ","kana_address":"ﾆｼ","pref":"鹿児島県","city":"大島郡和泊町","address":"仁志"},
{"zip_code":"8919104","kana_pref":"ｶｺﾞｼﾏｹﾝ","kana_city":"ｵｵｼﾏｸﾞﾝﾜﾄﾞﾏﾘﾁｮｳ","kana_address":"ﾆｼﾊﾞﾙ","pref":"鹿児島県","city":"大島郡和泊町","address":"西原"},
{"zip_code":"8919121","kana_pref":"ｶｺﾞｼﾏｹﾝ","kana_city":"ｵｵｼﾏｸﾞﾝﾜﾄﾞﾏﾘﾁｮｳ","kana_address":"ﾈｵﾘ","pref":"鹿児島県","city":"大島郡和泊町","address":"根折"},
{"zip_code":"8919124","kana_pref":"ｶｺﾞｼﾏｹﾝ","kana_city":"ｵｵｼﾏｸﾞﾝﾜﾄﾞﾏﾘﾁｮｳ","kana_address":"ﾌﾙｻﾄ","pref":"鹿児島県","city":"大島郡和泊町","address":"古里"},
{"zip_code":"8919123","kana_pref":"ｶｺﾞｼﾏｹﾝ","kana_city":"ｵｵｼﾏｸﾞﾝﾜﾄﾞﾏﾘﾁｮｳ","kana_address":"ﾐﾅｶﾜ","pref":"鹿児島県","city":"大島郡和泊町","address":"皆川"},
{"zip_code":"8919113","kana_pref":"ｶｺﾞｼﾏｹﾝ","kana_city":"ｵｵｼﾏｸﾞﾝﾜﾄﾞﾏﾘﾁｮｳ","kana_address":"ﾜ","pref":"鹿児島県","city":"大島郡和泊町","address":"和"},
{"zip_code":"8919112","kana_pref":"ｶｺﾞｼﾏｹﾝ","kana_city":"ｵｵｼﾏｸﾞﾝﾜﾄﾞﾏﾘﾁｮｳ","kana_address":"ﾜﾄﾞﾏﾘ","pref":"鹿児島県","city":"大島郡和泊町","address":"和泊"},
{"zip_code":"8919200","kana_pref":"ｶｺﾞｼﾏｹﾝ","kana_city":"ｵｵｼﾏｸﾞﾝﾁﾅﾁｮｳ","kana_address":"","pref":"鹿児島県","city":"大島郡知名町","address":""},
{"zip_code":"8919206","kana_pref":"ｶｺﾞｼﾏｹﾝ","kana_city":"ｵｵｼﾏｸﾞﾝﾁﾅﾁｮｳ","kana_address":"ｱｶﾐﾈ","pref":"鹿児島県","city":"大島郡知名町","address":"赤嶺"},
{"zip_code":"8919211","kana_pref":"ｶｺﾞｼﾏｹﾝ","kana_city":"ｵｵｼﾏｸﾞﾝﾁﾅﾁｮｳ","kana_address":"ｱｼｷﾖｳﾗ","pref":"鹿児島県","city":"大島郡知名町","address":"芦清良"},
{"zip_code":"8919201","kana_pref":"ｶｺﾞｼﾏｹﾝ","kana_city":"ｵｵｼﾏｸﾞﾝﾁﾅﾁｮｳ","kana_address":"ｱﾏﾀ","pref":"鹿児島県","city":"大島郡知名町","address":"余多"},
{"zip_code":"8919221","kana_pref":"ｶｺﾞｼﾏｹﾝ","kana_city":"ｵｵｼﾏｸﾞﾝﾁﾅﾁｮｳ","kana_address":"ｵｵﾂｶﾝ","pref":"鹿児島県","city":"大島郡知名町","address":"大津勘"},
{"zip_code":"8919234","kana_pref":"ｶｺﾞｼﾏｹﾝ","kana_city":"ｵｵｼﾏｸﾞﾝﾁﾅﾁｮｳ","kana_address":"ｶﾐｼﾛ","pref":"鹿児島県","city":"大島郡知名町","address":"上城"},
{"zip_code":"8919204","kana_pref":"ｶｺﾞｼﾏｹﾝ","kana_city":"ｵｵｼﾏｸﾞﾝﾁﾅﾁｮｳ","kana_address":"ｶﾐﾋﾗｶﾜ","pref":"鹿児島県","city":"大島郡知名町","address":"上平川"},
{"zip_code":"8919205","kana_pref":"ｶｺﾞｼﾏｹﾝ","kana_city":"ｵｵｼﾏｸﾞﾝﾁﾅﾁｮｳ","kana_address":"ｸﾞｼｹﾝ","pref":"鹿児島県","city":"大島郡知名町","address":"久志検"},
{"zip_code":"8919212","kana_pref":"ｶｺﾞｼﾏｹﾝ","kana_city":"ｵｵｼﾏｸﾞﾝﾁﾅﾁｮｳ","kana_address":"ｸﾛﾇｷ","pref":"鹿児島県","city":"大島郡知名町","address":"黒貫"},
{"zip_code":"8919207","kana_pref":"ｶｺﾞｼﾏｹﾝ","kana_city":"ｵｵｼﾏｸﾞﾝﾁﾅﾁｮｳ","kana_address":"ｻｵﾂﾞ","pref":"鹿児島県","city":"大島郡知名町","address":"竿津"},
{"zip_code":"8919233","kana_pref":"ｶｺﾞｼﾏｹﾝ","kana_city":"ｵｵｼﾏｸﾞﾝﾁﾅﾁｮｳ","kana_address":"ｼﾓｼﾞﾛ","pref":"鹿児島県","city":"大島郡知名町","address":"下城"},
{"zip_code":"8919203","kana_pref":"ｶｺﾞｼﾏｹﾝ","kana_city":"ｵｵｼﾏｸﾞﾝﾁﾅﾁｮｳ","kana_address":"ｼﾓﾋﾗｶﾜ","pref":"鹿児島県","city":"大島郡知名町","address":"下平川"},
{"zip_code":"8919232","kana_pref":"ｶｺﾞｼﾏｹﾝ","kana_city":"ｵｵｼﾏｸﾞﾝﾁﾅﾁｮｳ","kana_address":"ｼﾝｼﾞｮｳ","pref":"鹿児島県","city":"大島郡知名町","address":"新城"},
{"zip_code":"8919223","kana_pref":"ｶｺﾞｼﾏｹﾝ","kana_city":"ｵｵｼﾏｸﾞﾝﾁﾅﾁｮｳ","kana_address":"ｽﾐﾖｼ","pref":"鹿児島県","city":"大島郡知名町","address":"住吉"},
{"zip_code":"8919213","kana_pref":"ｶｺﾞｼﾏｹﾝ","kana_city":"ｵｵｼﾏｸﾞﾝﾁﾅﾁｮｳ","kana_address":"ｾﾘｶｸ","pref":"鹿児島県","city":"大島郡知名町","address":"瀬利覚"},
{"zip_code":"8919231","kana_pref":"ｶｺﾞｼﾏｹﾝ","kana_city":"ｵｵｼﾏｸﾞﾝﾁﾅﾁｮｳ","kana_address":"ﾀﾐﾅ","pref":"鹿児島県","city":"大島郡知名町","address":"田皆"},
{"zip_code":"8919214","kana_pref":"ｶｺﾞｼﾏｹﾝ","kana_city":"ｵｵｼﾏｸﾞﾝﾁﾅﾁｮｳ","kana_address":"ﾁﾅ","pref":"鹿児島県","city":"大島郡知名町","address":"知名"},
{"zip_code":"8919222","kana_pref":"ｶｺﾞｼﾏｹﾝ","kana_city":"ｵｵｼﾏｸﾞﾝﾁﾅﾁｮｳ","kana_address":"ﾄｸﾄﾞｷ","pref":"鹿児島県","city":"大島郡知名町","address":"徳時"},
{"zip_code":"8919224","kana_pref":"ｶｺﾞｼﾏｹﾝ","kana_city":"ｵｵｼﾏｸﾞﾝﾁﾅﾁｮｳ","kana_address":"ﾏｻﾅ","pref":"鹿児島県","city":"大島郡知名町","address":"正名"},
{"zip_code":"8919215","kana_pref":"ｶｺﾞｼﾏｹﾝ","kana_city":"ｵｵｼﾏｸﾞﾝﾁﾅﾁｮｳ","kana_address":"ﾔｺﾓ","pref":"鹿児島県","city":"大島郡知名町","address":"屋子母"},
{"zip_code":"8919202","kana_pref":"ｶｺﾞｼﾏｹﾝ","kana_city":"ｵｵｼﾏｸﾞﾝﾁﾅﾁｮｳ","kana_address":"ﾔｼﾞｬ","pref":"鹿児島県","city":"大島郡知名町","address":"屋者"},
{"zip_code":"8919300","kana_pref":"ｶｺﾞｼﾏｹﾝ","kana_city":"ｵｵｼﾏｸﾞﾝﾖﾛﾝﾁｮｳ","kana_address":"","pref":"鹿児島県","city":"大島郡与論町","address":""},
{"zip_code":"8919304","kana_pref":"ｶｺﾞｼﾏｹﾝ","kana_city":"ｵｵｼﾏｸﾞﾝﾖﾛﾝﾁｮｳ","kana_address":"ｱｻﾄ","pref":"鹿児島県","city":"大島郡与論町","address":"朝戸"},
{"zip_code":"8919309","kana_pref":"ｶｺﾞｼﾏｹﾝ","kana_city":"ｵｵｼﾏｸﾞﾝﾖﾛﾝﾁｮｳ","kana_address":"ｶﾉｳ","pref":"鹿児島県","city":"大島郡与論町","address":"叶"},
{"zip_code":"8919303","kana_pref":"ｶｺﾞｼﾏｹﾝ","kana_city":"ｵｵｼﾏｸﾞﾝﾖﾛﾝﾁｮｳ","kana_address":"ｸﾞｽｸ","pref":"鹿児島県","city":"大島郡与論町","address":"城"},
{"zip_code":"8919301","kana_pref":"ｶｺﾞｼﾏｹﾝ","kana_city":"ｵｵｼﾏｸﾞﾝﾖﾛﾝﾁｮｳ","kana_address":"ﾁｬﾊﾞﾅ","pref":"鹿児島県","city":"大島郡与論町","address":"茶花"},
{"zip_code":"8919308","kana_pref":"ｶｺﾞｼﾏｹﾝ","kana_city":"ｵｵｼﾏｸﾞﾝﾖﾛﾝﾁｮｳ","kana_address":"ﾅﾏ","pref":"鹿児島県","city":"大島郡与論町","address":"那間"},
{"zip_code":"8919305","kana_pref":"ｶｺﾞｼﾏｹﾝ","kana_city":"ｵｵｼﾏｸﾞﾝﾖﾛﾝﾁｮｳ","kana_address":"ﾆｼｸ","pref":"鹿児島県","city":"大島郡与論町","address":"西区"},
{"zip_code":"8919306","kana_pref":"ｶｺﾞｼﾏｹﾝ","kana_city":"ｵｵｼﾏｸﾞﾝﾖﾛﾝﾁｮｳ","kana_address":"ﾋｶﾞｼｸ","pref":"鹿児島県","city":"大島郡与論町","address":"東区"},
{"zip_code":"8919307","kana_pref":"ｶｺﾞｼﾏｹﾝ","kana_city":"ｵｵｼﾏｸﾞﾝﾖﾛﾝﾁｮｳ","kana_address":"ﾌﾙｻﾄ","pref":"鹿児島県","city":"大島郡与論町","address":"古里"},
{"zip_code":"8919302","kana_pref":"ｶｺﾞｼﾏｹﾝ","kana_city":"ｵｵｼﾏｸﾞﾝﾖﾛﾝﾁｮｳ","kana_address":"ﾘｯﾁｮｳ","pref":"鹿児島県","city":"大島郡与論町","address":"立長"}]}