{"zip_code":[
{"zip_code":"8920806","kana_pref":"ｶｺﾞｼﾏｹﾝ","kana_city":"ｶｺﾞｼﾏｼ","kana_address":"ｲｹﾉｳｴﾁｮｳ","pref":"鹿児島県","city":"鹿児島市","address":"池之上町"},
{"zip_code":"8920822","kana_pref":"ｶｺﾞｼﾏｹﾝ","kana_city":"ｶｺﾞｼﾏｼ","kana_address":"ｲｽﾞﾐﾁｮｳ","pref":"鹿児島県","city":"鹿児島市","address":"泉町"},
{"zip_code":"8920801","kana_pref":"ｶｺﾞｼﾏｹﾝ","kana_city":"ｶｺﾞｼﾏｼ","kana_address":"ｲﾅﾘﾁｮｳ","pref":"鹿児島県","city":"鹿児島市","address":"稲荷町"},
{"zip_code":"8920876","kana_pref":"ｶｺﾞｼﾏｹﾝ","kana_city":"ｶｺﾞｼﾏｼ","kana_address":"ｵｶﾉﾊﾗﾁｮｳ","pref":"鹿児島県","city":"鹿児島市","address":"岡之原町"},
{"zip_code":"8920817","kana_pref":"ｶｺﾞｼﾏｹﾝ","kana_city":"ｶｺﾞｼﾏｼ","kana_address":"ｵｶﾞﾜﾁｮｳ","pref":"鹿児島県","city":"鹿児島市","address":"小川町"},
{"zip_code":"8920846","kana_pref":"ｶｺﾞｼﾏｹﾝ","kana_city":"ｶｺﾞｼﾏｼ","kana_address":"ｶｼﾞﾔﾁｮｳ","pref":"鹿児島県","city":"鹿児島市","address":"加治屋町"},
{"zip_code":"8920804","kana_pref":"ｶｺﾞｼﾏｹﾝ","kana_city":"ｶｺﾞｼﾏｼ","kana_address":"ｶｽｶﾞﾁｮｳ","pref":"鹿児島県","city":"鹿児島市","address":"春日町"},
{"zip_code":"8920851","kana_pref":"ｶｺﾞｼﾏｹﾝ","kana_city":"ｶｺﾞｼﾏｼ","kana_address":"ｶﾐﾀﾂｵﾁｮｳ","pref":"鹿児島県","city":"鹿児島市","address":"上竜尾町"},
{"zip_code":"8920818","kana_pref":"ｶｺﾞｼﾏｹﾝ","kana_city":"ｶｺﾞｼﾏｼ","kana_address":"ｶﾐﾎﾝﾏﾁ","pref":"鹿児島県","city":"鹿児島市","address":"上本町"},
{"zip_code":"8920875","kana_pref":"ｶｺﾞｼﾏｹﾝ","kana_city":"ｶｺﾞｼﾏｼ","kana_address":"ｶﾜｶﾐﾁｮｳ","pref":"鹿児島県","city":"鹿児島市","address":"川上町"},
{"zip_code":"8920836","kana_pref":"ｶｺﾞｼﾏｹﾝ","kana_city":"ｶｺﾞｼﾏｼ","kana_address":"ｷﾝｺｳﾁｮｳ","pref":"鹿児島県","city":"鹿児島市","address":"錦江町"},
{"zip_code":"8920828","kana_pref":"ｶｺﾞｼﾏｹﾝ","kana_city":"ｶｺﾞｼﾏｼ","kana_address":"ｷﾝｾｲﾁｮｳ","pref":"鹿児島県","city":"鹿児島市","address":"金生町"},
{"zip_code":"8920803","kana_pref":"ｶｺﾞｼﾏｹﾝ","kana_city":"ｶｺﾞｼﾏｼ","kana_address":"ｷﾞｵﾝﾉｽﾁｮｳ","pref":"鹿児島県","city":"鹿児島市","address":"祇園之洲町"},
{"zip_code":"8920837","kana_pref":"ｶｺﾞｼﾏｹﾝ","kana_city":"ｶｺﾞｼﾏｼ","kana_address":"ｺｳﾂｷﾁｮｳ","pref":"鹿児島県","city":"鹿児島市","address":"甲突町"},
{"zip_code":"8920826","kana_pref":"ｶｺﾞｼﾏｹﾝ","kana_city":"ｶｺﾞｼﾏｼ","kana_address":"ｺﾞﾌｸﾏﾁ","pref":"鹿児島県","city":"鹿児島市","address":"呉服町"},
{"zip_code":"8920862","kana_pref":"ｶｺﾞｼﾏｹﾝ","kana_city":"ｶｺﾞｼﾏｼ","kana_address":"ｻｶﾓﾄﾁｮｳ","pref":"鹿児島県","city":"鹿児島市","address":"坂元町"},
{"zip_code":"8920802","kana_pref":"ｶｺﾞｼﾏｹﾝ","kana_city":"ｶｺﾞｼﾏｼ","kana_address":"ｼﾐｽﾞﾁｮｳ","pref":"鹿児島県","city":"鹿児島市","address":"清水町"},
{"zip_code":"8920873","kana_pref":"ｶｺﾞｼﾏｹﾝ","kana_city":"ｶｺﾞｼﾏｼ","kana_address":"ｼﾓﾀﾁｮｳ","pref":"鹿児島県","city":"鹿児島市","address":"下田町"},
{"zip_code":"8920852","kana_pref":"ｶｺﾞｼﾏｹﾝ","kana_city":"ｶｺﾞｼﾏｼ","kana_address":"ｼﾓﾀﾂｵﾁｮｳ","pref":"鹿児島県","city":"鹿児島市","address":"下竜尾町"},
{"zip_code":"8920835","kana_pref":"ｶｺﾞｼﾏｹﾝ","kana_city":"ｶｺﾞｼﾏｼ","kana_address":"ｼﾞｮｳﾅﾝﾁｮｳ","pref":"鹿児島県","city":"鹿児島市","address":"城南町"},
{"zip_code":"8920813","kana_pref":"ｶｺﾞｼﾏｹﾝ","kana_city":"ｶｺﾞｼﾏｼ","kana_address":"ｼﾛﾔﾏ","pref":"鹿児島県","city":"鹿児島市","address":"城山"},
{"zip_code":"8920853","kana_pref":"ｶｺﾞｼﾏｹﾝ","kana_city":"ｶｺﾞｼﾏｼ","kana_address":"ｼﾛﾔﾏﾁｮｳ","pref":"鹿児島県","city":"鹿児島市","address":"城山町"},
{"zip_code":"8920832","kana_pref":"ｶｺﾞｼﾏｹﾝ","kana_city":"ｶｺﾞｼﾏｼ","kana_address":"ｼﾝﾏﾁ","pref":"鹿児島県","city":"鹿児島市","address":"新町"},
{"zip_code":"8920838","kana_pref":"ｶｺﾞｼﾏｹﾝ","kana_city":"ｶｺﾞｼﾏｼ","kana_address":"ｼﾝﾔｼｷﾁｮｳ","pref":"鹿児島県","city":"鹿児島市","address":"新屋敷町"},
{"zip_code":"8920823","kana_pref":"ｶｺﾞｼﾏｹﾝ","kana_city":"ｶｺﾞｼﾏｼ","kana_address":"ｽﾐﾖｼﾁｮｳ","pref":"鹿児島県","city":"鹿児島市","address":"住吉町"},
{"zip_code":"8920843","kana_pref":"ｶｺﾞｼﾏｹﾝ","kana_city":"ｶｺﾞｼﾏｼ","kana_address":"ｾﾝﾆﾁﾁｮｳ","pref":"鹿児島県","city":"鹿児島市","address":"千日町"},
{"zip_code":"8920825","kana_pref":"ｶｺﾞｼﾏｹﾝ","kana_city":"ｶｺﾞｼﾏｼ","kana_address":"ﾀﾞｲｺｸﾁｮｳ","pref":"鹿児島県","city":"鹿児島市","address":"大黒町"},
{"zip_code":"8920872","kana_pref":"ｶｺﾞｼﾏｹﾝ","kana_city":"ｶｺﾞｼﾏｼ","kana_address":"ﾀﾞｲﾐｮｳｶﾞｵｶ","pref":"鹿児島県","city":"鹿児島市","address":"大明丘"},
{"zip_code":"8920805","kana_pref":"ｶｺﾞｼﾏｹﾝ","kana_city":"ｶｺﾞｼﾏｼ","kana_address":"ﾀﾞｲﾘｭｳﾁｮｳ","pref":"鹿児島県","city":"鹿児島市","address":"大竜町"},
{"zip_code":"8920811","kana_pref":"ｶｺﾞｼﾏｹﾝ","kana_city":"ｶｺﾞｼﾏｼ","kana_address":"ﾀﾏｻﾞﾄﾀﾞﾝﾁ","pref":"鹿児島県","city":"鹿児島市","address":"玉里団地"},
{"zip_code":"8920807","kana_pref":"ｶｺﾞｼﾏｹﾝ","kana_city":"ｶｺﾞｼﾏｼ","kana_address":"ﾂﾂﾞﾐｶﾞﾜﾁｮｳ","pref":"鹿児島県","city":"鹿児島市","address":"皷川町"},
{"zip_code":"8920845","kana_pref":"ｶｺﾞｼﾏｹﾝ","kana_city":"ｶｺﾞｼﾏｼ","kana_address":"ﾃﾉｸﾁﾁｮｳ","pref":"鹿児島県","city":"鹿児島市","address":"樋之口町"},
{"zip_code":"8920841","kana_pref":"ｶｺﾞｼﾏｹﾝ","kana_city":"ｶｺﾞｼﾏｼ","kana_address":"ﾃﾙｸﾆﾁｮｳ","pref":"鹿児島県","city":"鹿児島市","address":"照国町"},
{"zip_code":"8920827","kana_pref":"ｶｺﾞｼﾏｹﾝ","kana_city":"ｶｺﾞｼﾏｼ","kana_address":"ﾅｶﾏﾁ","pref":"鹿児島県","city":"鹿児島市","address":"中町"},
{"zip_code":"8920854","kana_pref":"ｶｺﾞｼﾏｹﾝ","kana_city":"ｶｺﾞｼﾏｼ","kana_address":"ﾅｶﾞﾀﾁｮｳ","pref":"鹿児島県","city":"鹿児島市","address":"長田町"},
{"zip_code":"8920834","kana_pref":"ｶｺﾞｼﾏｹﾝ","kana_city":"ｶｺﾞｼﾏｼ","kana_address":"ﾅﾝﾘﾝｼﾞﾁｮｳ","pref":"鹿児島県","city":"鹿児島市","address":"南林寺町"},
{"zip_code":"8920863","kana_pref":"ｶｺﾞｼﾏｹﾝ","kana_city":"ｶｺﾞｼﾏｼ","kana_address":"ﾆｼｻｶﾓﾄﾁｮｳ","pref":"鹿児島県","city":"鹿児島市","address":"西坂元町"},
{"zip_code":"8920847","kana_pref":"ｶｺﾞｼﾏｹﾝ","kana_city":"ｶｺﾞｼﾏｼ","kana_address":"ﾆｼｾﾝｺﾞｸﾁｮｳ","pref":"鹿児島県","city":"鹿児島市","address":"西千石町"},
{"zip_code":"8920812","kana_pref":"ｶｺﾞｼﾏｹﾝ","kana_city":"ｶｺﾞｼﾏｼ","kana_address":"ﾊﾏﾏﾁ","pref":"鹿児島県","city":"鹿児島市","address":"浜町"},
{"zip_code":"8920861","kana_pref":"ｶｺﾞｼﾏｹﾝ","kana_city":"ｶｺﾞｼﾏｼ","kana_address":"ﾋｶﾞｼｻｶﾓﾄ","pref":"鹿児島県","city":"鹿児島市","address":"東坂元"},
{"zip_code":"8920842","kana_pref":"ｶｺﾞｼﾏｹﾝ","kana_city":"ｶｺﾞｼﾏｼ","kana_address":"ﾋｶﾞｼｾﾝｺﾞｸﾁｮｳ","pref":"鹿児島県","city":"鹿児島市","address":"東千石町"},
{"zip_code":"8920855","kana_pref":"ｶｺﾞｼﾏｹﾝ","kana_city":"ｶｺﾞｼﾏｼ","kana_address":"ﾋﾔﾐｽﾞﾁｮｳ","pref":"鹿児島県","city":"鹿児島市","address":"冷水町"},
{"zip_code":"8920848","kana_pref":"ｶｺﾞｼﾏｹﾝ","kana_city":"ｶｺﾞｼﾏｼ","kana_address":"ﾋﾗﾉﾁｮｳ","pref":"鹿児島県","city":"鹿児島市","address":"平之町"},
{"zip_code":"8920831","kana_pref":"ｶｺﾞｼﾏｹﾝ","kana_city":"ｶｺﾞｼﾏｼ","kana_address":"ﾌﾅﾂﾁｮｳ","pref":"鹿児島県","city":"鹿児島市","address":"船津町"},
{"zip_code":"8920824","kana_pref":"ｶｺﾞｼﾏｹﾝ","kana_city":"ｶｺﾞｼﾏｼ","kana_address":"ﾎﾘｴﾁｮｳ","pref":"鹿児島県","city":"鹿児島市","address":"堀江町"},
{"zip_code":"8920814","kana_pref":"ｶｺﾞｼﾏｹﾝ","kana_city":"ｶｺﾞｼﾏｼ","kana_address":"ﾎﾝｺｳｼﾝﾏﾁ","pref":"鹿児島県","city":"鹿児島市","address":"本港新町"},
{"zip_code":"8920833","kana_pref":"ｶｺﾞｼﾏｹﾝ","kana_city":"ｶｺﾞｼﾏｼ","kana_address":"ﾏﾂﾊﾞﾗﾁｮｳ","pref":"鹿児島県","city":"鹿児島市","address":"松原町"},
{"zip_code":"8920874","kana_pref":"ｶｺﾞｼﾏｹﾝ","kana_city":"ｶｺﾞｼﾏｼ","kana_address":"ﾐﾄﾞﾘｶﾞｵｶﾁｮｳ","pref":"鹿児島県","city":"鹿児島市","address":"緑ヶ丘町"},
{"zip_code":"8920821","kana_pref":"ｶｺﾞｼﾏｹﾝ","kana_city":"ｶｺﾞｼﾏｼ","kana_address":"ﾒｲｻﾞﾝﾁｮｳ","pref":"鹿児島県","city":"鹿児島市","address":"名山町"},
{"zip_code":"8920815","kana_pref":"ｶｺﾞｼﾏｹﾝ","kana_city":"ｶｺﾞｼﾏｼ","kana_address":"ﾔｽｲﾁｮｳ","pref":"鹿児島県","city":"鹿児島市","address":"易居町"},
{"zip_code":"8920819","kana_pref":"ｶｺﾞｼﾏｹﾝ","kana_city":"ｶｺﾞｼﾏｼ","kana_address":"ﾔﾅｷﾞﾏﾁ","pref":"鹿児島県","city":"鹿児島市","address":"柳町"},
{"zip_code":"8920816","kana_pref":"ｶｺﾞｼﾏｹﾝ","kana_city":"ｶｺﾞｼﾏｼ","kana_address":"ﾔﾏｼﾀﾁｮｳ","pref":"鹿児島県","city":"鹿児島市","address":"山下町"},
{"zip_code":"8920844","kana_pref":"ｶｺﾞｼﾏｹﾝ","kana_city":"ｶｺﾞｼﾏｼ","kana_address":"ﾔﾏﾉｸﾁﾁｮｳ","pref":"鹿児島県","city":"鹿児島市","address":"山之口町"},
{"zip_code":"8920871","kana_pref":"ｶｺﾞｼﾏｹﾝ","kana_city":"ｶｺﾞｼﾏｼ","kana_address":"ﾖｼﾉﾁｮｳ","pref":"鹿児島県","city":"鹿児島市","address":"吉野町"}]}