{"zip_code":[
{"zip_code":"8940000","kana_pref":"ｶｺﾞｼﾏｹﾝ","kana_city":"ｱﾏﾐｼ","kana_address":"","pref":"鹿児島県","city":"奄美市","address":""},
{"zip_code":"8940501","kana_pref":"ｶｺﾞｼﾏｹﾝ","kana_city":"ｱﾏﾐｼ","kana_address":"ｶｻﾘﾁｮｳｳｼｭｸ","pref":"鹿児島県","city":"奄美市","address":"笠利町宇宿"},
{"zip_code":"8940622","kana_pref":"ｶｺﾞｼﾏｹﾝ","kana_city":"ｱﾏﾐｼ","kana_address":"ｶｻﾘﾁｮｳｶｻﾘ","pref":"鹿児島県","city":"奄美市","address":"笠利町笠利"},
{"zip_code":"8940625","kana_pref":"ｶｺﾞｼﾏｹﾝ","kana_city":"ｱﾏﾐｼ","kana_address":"ｶｻﾘﾁｮｳｶﾜｶﾐ","pref":"鹿児島県","city":"奄美市","address":"笠利町川上"},
{"zip_code":"8940507","kana_pref":"ｶｺﾞｼﾏｹﾝ","kana_city":"ｱﾏﾐｼ","kana_address":"ｶｻﾘﾁｮｳｷｾ","pref":"鹿児島県","city":"奄美市","address":"笠利町喜瀬"},
{"zip_code":"8940511","kana_pref":"ｶｺﾞｼﾏｹﾝ","kana_city":"ｱﾏﾐｼ","kana_address":"ｶｻﾘﾁｮｳｻﾄ","pref":"鹿児島県","city":"奄美市","address":"笠利町里"},
{"zip_code":"8940627","kana_pref":"ｶｺﾞｼﾏｹﾝ","kana_city":"ｱﾏﾐｼ","kana_address":"ｶｻﾘﾁｮｳｻﾆ","pref":"鹿児島県","city":"奄美市","address":"笠利町佐仁"},
{"zip_code":"8940624","kana_pref":"ｶｺﾞｼﾏｹﾝ","kana_city":"ｱﾏﾐｼ","kana_address":"ｶｻﾘﾁｮｳｽﾉ","pref":"鹿児島県","city":"奄美市","address":"笠利町須野"},
{"zip_code":"8940504","kana_pref":"ｶｺﾞｼﾏｹﾝ","kana_city":"ｱﾏﾐｼ","kana_address":"ｶｻﾘﾁｮｳｾﾂﾀ","pref":"鹿児島県","city":"奄美市","address":"笠利町節田"},
{"zip_code":"8940513","kana_pref":"ｶｺﾞｼﾏｹﾝ","kana_city":"ｱﾏﾐｼ","kana_address":"ｶｻﾘﾁｮｳｿﾄｶﾞﾈｸ","pref":"鹿児島県","city":"奄美市","address":"笠利町外金久"},
{"zip_code":"8940505","kana_pref":"ｶｺﾞｼﾏｹﾝ","kana_city":"ｱﾏﾐｼ","kana_address":"ｶｻﾘﾁｮｳﾀｲﾗ","pref":"鹿児島県","city":"奄美市","address":"笠利町平"},
{"zip_code":"8940506","kana_pref":"ｶｺﾞｼﾏｹﾝ","kana_city":"ｱﾏﾐｼ","kana_address":"ｶｻﾘﾁｮｳﾃｹﾌﾞ","pref":"鹿児島県","city":"奄美市","address":"笠利町手花部"},
{"zip_code":"8940512","kana_pref":"ｶｺﾞｼﾏｹﾝ","kana_city":"ｱﾏﾐｼ","kana_address":"ｶｻﾘﾁｮｳﾅｶｶﾞﾈｸ","pref":"鹿児島県","city":"奄美市","address":"笠利町中金久"},
{"zip_code":"8940623","kana_pref":"ｶｺﾞｼﾏｹﾝ","kana_city":"ｱﾏﾐｼ","kana_address":"ｶｻﾘﾁｮｳﾍﾞﾙ","pref":"鹿児島県","city":"奄美市","address":"笠利町辺留"},
{"zip_code":"8940502","kana_pref":"ｶｺﾞｼﾏｹﾝ","kana_city":"ｱﾏﾐｼ","kana_address":"ｶｻﾘﾁｮｳﾏﾝﾔ","pref":"鹿児島県","city":"奄美市","address":"笠利町万屋"},
{"zip_code":"8940626","kana_pref":"ｶｺﾞｼﾏｹﾝ","kana_city":"ｱﾏﾐｼ","kana_address":"ｶｻﾘﾁｮｳﾔﾆ","pref":"鹿児島県","city":"奄美市","address":"笠利町屋仁"},
{"zip_code":"8940621","kana_pref":"ｶｺﾞｼﾏｹﾝ","kana_city":"ｱﾏﾐｼ","kana_address":"ｶｻﾘﾁｮｳﾖｳ","pref":"鹿児島県","city":"奄美市","address":"笠利町用"},
{"zip_code":"8940508","kana_pref":"ｶｺﾞｼﾏｹﾝ","kana_city":"ｱﾏﾐｼ","kana_address":"ｶｻﾘﾁｮｳﾖｳｱﾝ","pref":"鹿児島県","city":"奄美市","address":"笠利町用安"},
{"zip_code":"8940503","kana_pref":"ｶｺﾞｼﾏｹﾝ","kana_city":"ｱﾏﾐｼ","kana_address":"ｶｻﾘﾁｮｳﾜﾉ","pref":"鹿児島県","city":"奄美市","address":"笠利町和野"},
{"zip_code":"8941201","kana_pref":"ｶｺﾞｼﾏｹﾝ","kana_city":"ｱﾏﾐｼ","kana_address":"ｽﾐﾖｳﾁｮｳｲｼﾊﾗ","pref":"鹿児島県","city":"奄美市","address":"住用町石原"},
{"zip_code":"8941321","kana_pref":"ｶｺﾞｼﾏｹﾝ","kana_city":"ｱﾏﾐｼ","kana_address":"ｽﾐﾖｳﾁｮｳｲﾁ","pref":"鹿児島県","city":"奄美市","address":"住用町市"},
{"zip_code":"8941203","kana_pref":"ｶｺﾞｼﾏｹﾝ","kana_city":"ｱﾏﾐｼ","kana_address":"ｽﾐﾖｳﾁｮｳｶﾐﾔ","pref":"鹿児島県","city":"奄美市","address":"住用町神屋"},
{"zip_code":"8941115","kana_pref":"ｶｺﾞｼﾏｹﾝ","kana_city":"ｱﾏﾐｼ","kana_address":"ｽﾐﾖｳﾁｮｳｶﾜｳﾁ","pref":"鹿児島県","city":"奄美市","address":"住用町川内"},
{"zip_code":"8941111","kana_pref":"ｶｺﾞｼﾏｹﾝ","kana_city":"ｱﾏﾐｼ","kana_address":"ｽﾐﾖｳﾁｮｳｸﾞｽｸ","pref":"鹿児島県","city":"奄美市","address":"住用町城"},
{"zip_code":"8941116","kana_pref":"ｶｺﾞｼﾏｹﾝ","kana_city":"ｱﾏﾐｼ","kana_address":"ｽﾐﾖｳﾁｮｳｽﾘｶﾞﾁ","pref":"鹿児島県","city":"奄美市","address":"住用町摺勝"},
{"zip_code":"8941202","kana_pref":"ｶｺﾞｼﾏｹﾝ","kana_city":"ｱﾏﾐｼ","kana_address":"ｽﾐﾖｳﾁｮｳﾆｼﾅｶﾏ","pref":"鹿児島県","city":"奄美市","address":"住用町西仲間"},
{"zip_code":"8941114","kana_pref":"ｶｺﾞｼﾏｹﾝ","kana_city":"ｱﾏﾐｼ","kana_address":"ｽﾐﾖｳﾁｮｳﾋｶﾞｼﾅｶﾏ","pref":"鹿児島県","city":"奄美市","address":"住用町東仲間"},
{"zip_code":"8941113","kana_pref":"ｶｺﾞｼﾏｹﾝ","kana_city":"ｱﾏﾐｼ","kana_address":"ｽﾐﾖｳﾁｮｳﾐｻﾞﾄ","pref":"鹿児島県","city":"奄美市","address":"住用町見里"},
{"zip_code":"8941205","kana_pref":"ｶｺﾞｼﾏｹﾝ","kana_city":"ｱﾏﾐｼ","kana_address":"ｽﾐﾖｳﾁｮｳﾔｸｶﾞﾁ","pref":"鹿児島県","city":"奄美市","address":"住用町役勝"},
{"zip_code":"8941304","kana_pref":"ｶｺﾞｼﾏｹﾝ","kana_city":"ｱﾏﾐｼ","kana_address":"ｽﾐﾖｳﾁｮｳﾔﾝﾏ","pref":"鹿児島県","city":"奄美市","address":"住用町山間"},
{"zip_code":"8941204","kana_pref":"ｶｺﾞｼﾏｹﾝ","kana_city":"ｱﾏﾐｼ","kana_address":"ｽﾐﾖｳﾁｮｳﾔﾝﾏ","pref":"鹿児島県","city":"奄美市","address":"住用町山間"},
{"zip_code":"8941112","kana_pref":"ｶｺﾞｼﾏｹﾝ","kana_city":"ｱﾏﾐｼ","kana_address":"ｽﾐﾖｳﾁｮｳﾜｾ","pref":"鹿児島県","city":"奄美市","address":"住用町和瀬"},
{"zip_code":"8940773","kana_pref":"ｶｺﾞｼﾏｹﾝ","kana_city":"ｱﾏﾐｼ","kana_address":"ﾅｾﾞｱｻﾄ","pref":"鹿児島県","city":"奄美市","address":"名瀬朝戸"},
{"zip_code":"8940043","kana_pref":"ｶｺﾞｼﾏｹﾝ","kana_city":"ｱﾏﾐｼ","kana_address":"ﾅｾﾞｱｻﾆ","pref":"鹿児島県","city":"奄美市","address":"名瀬朝仁"},
{"zip_code":"8940041","kana_pref":"ｶｺﾞｼﾏｹﾝ","kana_city":"ｱﾏﾐｼ","kana_address":"ﾅｾﾞｱｻﾆｼﾝﾏﾁ","pref":"鹿児島県","city":"奄美市","address":"名瀬朝仁新町"},
{"zip_code":"8940042","kana_pref":"ｶｺﾞｼﾏｹﾝ","kana_city":"ｱﾏﾐｼ","kana_address":"ﾅｾﾞｱｻﾆﾁｮｳ","pref":"鹿児島県","city":"奄美市","address":"名瀬朝仁町"},
{"zip_code":"8940061","kana_pref":"ｶｺﾞｼﾏｹﾝ","kana_city":"ｱﾏﾐｼ","kana_address":"ﾅｾﾞｱｻﾋﾁｮｳ","pref":"鹿児島県","city":"奄美市","address":"名瀬朝日町"},
{"zip_code":"8940351","kana_pref":"ｶｺﾞｼﾏｹﾝ","kana_city":"ｱﾏﾐｼ","kana_address":"ﾅｾﾞｱｼｹﾌﾞ","pref":"鹿児島県","city":"奄美市","address":"名瀬芦花部"},
{"zip_code":"8940002","kana_pref":"ｶｺﾞｼﾏｹﾝ","kana_city":"ｱﾏﾐｼ","kana_address":"ﾅｾﾞｱﾘﾔ","pref":"鹿児島県","city":"奄美市","address":"名瀬有屋"},
{"zip_code":"8940062","kana_pref":"ｶｺﾞｼﾏｹﾝ","kana_city":"ｱﾏﾐｼ","kana_address":"ﾅｾﾞｱﾘﾔﾁｮｳ","pref":"鹿児島県","city":"奄美市","address":"名瀬有屋町"},
{"zip_code":"8940352","kana_pref":"ｶｺﾞｼﾏｹﾝ","kana_city":"ｱﾏﾐｼ","kana_address":"ﾅｾﾞｱﾘﾗ","pref":"鹿児島県","city":"奄美市","address":"名瀬有良"},
{"zip_code":"8940011","kana_pref":"ｶｺﾞｼﾏｹﾝ","kana_city":"ｱﾏﾐｼ","kana_address":"ﾅｾﾞｱﾝｶﾞﾁﾁｮｳ","pref":"鹿児島県","city":"奄美市","address":"名瀬安勝町"},
{"zip_code":"8940017","kana_pref":"ｶｺﾞｼﾏｹﾝ","kana_city":"ｱﾏﾐｼ","kana_address":"ﾅｾﾞｲｼﾊﾞｼﾁｮｳ","pref":"鹿児島県","city":"奄美市","address":"名瀬石橋町"},
{"zip_code":"8940774","kana_pref":"ｶｺﾞｼﾏｹﾝ","kana_city":"ｱﾏﾐｼ","kana_address":"ﾅｾﾞｲﾂﾌﾞｶﾞﾁ","pref":"鹿児島県","city":"奄美市","address":"名瀬伊津部勝"},
{"zip_code":"8940021","kana_pref":"ｶｺﾞｼﾏｹﾝ","kana_city":"ｱﾏﾐｼ","kana_address":"ﾅｾﾞｲﾂﾌﾞﾁｮｳ","pref":"鹿児島県","city":"奄美市","address":"名瀬伊津部町"},
{"zip_code":"8940024","kana_pref":"ｶｺﾞｼﾏｹﾝ","kana_city":"ｱﾏﾐｼ","kana_address":"ﾅｾﾞｲﾈﾁｮｳ","pref":"鹿児島県","city":"奄美市","address":"名瀬井根町"},
{"zip_code":"8940034","kana_pref":"ｶｺﾞｼﾏｹﾝ","kana_city":"ｱﾏﾐｼ","kana_address":"ﾅｾﾞｲﾘﾌﾈﾁｮｳ","pref":"鹿児島県","city":"奄美市","address":"名瀬入舟町"},
{"zip_code":"8940108","kana_pref":"ｶｺﾞｼﾏｹﾝ","kana_city":"ｱﾏﾐｼ","kana_address":"ﾅｾﾞｳﾗｶﾞﾐ","pref":"鹿児島県","city":"奄美市","address":"名瀬浦上"},
{"zip_code":"8940008","kana_pref":"ｶｺﾞｼﾏｹﾝ","kana_city":"ｱﾏﾐｼ","kana_address":"ﾅｾﾞｳﾗｶﾞﾐ","pref":"鹿児島県","city":"奄美市","address":"名瀬浦上"},
{"zip_code":"8940068","kana_pref":"ｶｺﾞｼﾏｹﾝ","kana_city":"ｱﾏﾐｼ","kana_address":"ﾅｾﾞｳﾗｶﾞﾐﾁｮｳ","pref":"鹿児島県","city":"奄美市","address":"名瀬浦上町"},
{"zip_code":"8940013","kana_pref":"ｶｺﾞｼﾏｹﾝ","kana_city":"ｱﾏﾐｼ","kana_address":"ﾅｾﾞｶｽｶﾞﾁｮｳ","pref":"鹿児島県","city":"奄美市","address":"名瀬春日町"},
{"zip_code":"8940031","kana_pref":"ｶｺﾞｼﾏｹﾝ","kana_city":"ｱﾏﾐｼ","kana_address":"ﾅｾﾞｶﾈｸﾁｮｳ","pref":"鹿児島県","city":"奄美市","address":"名瀬金久町"},
{"zip_code":"8940022","kana_pref":"ｶｺﾞｼﾏｹﾝ","kana_city":"ｱﾏﾐｼ","kana_address":"ﾅｾﾞｸｻﾄﾁｮｳ","pref":"鹿児島県","city":"奄美市","address":"名瀬久里町"},
{"zip_code":"8940046","kana_pref":"ｶｺﾞｼﾏｹﾝ","kana_city":"ｱﾏﾐｼ","kana_address":"ﾅｾﾞｺｼｭｸ","pref":"鹿児島県","city":"奄美市","address":"名瀬小宿"},
{"zip_code":"8940006","kana_pref":"ｶｺﾞｼﾏｹﾝ","kana_city":"ｱﾏﾐｼ","kana_address":"ﾅｾﾞｺﾊﾏﾁｮｳ","pref":"鹿児島県","city":"奄美市","address":"名瀬小浜町"},
{"zip_code":"8940012","kana_pref":"ｶｺﾞｼﾏｹﾝ","kana_city":"ｱﾏﾐｼ","kana_address":"ﾅｾﾞｺﾏﾀﾁｮｳ","pref":"鹿児島県","city":"奄美市","address":"名瀬小俣町"},
{"zip_code":"8940771","kana_pref":"ｶｺﾞｼﾏｹﾝ","kana_city":"ｱﾏﾐｼ","kana_address":"ﾅｾﾞｺﾐﾅﾄ","pref":"鹿児島県","city":"奄美市","address":"名瀬小湊"},
{"zip_code":"8940025","kana_pref":"ｶｺﾞｼﾏｹﾝ","kana_city":"ｱﾏﾐｼ","kana_address":"ﾅｾﾞｻｲﾜｲﾁｮｳ","pref":"鹿児島県","city":"奄美市","address":"名瀬幸町"},
{"zip_code":"8940776","kana_pref":"ｶｺﾞｼﾏｹﾝ","kana_city":"ｱﾏﾐｼ","kana_address":"ﾅｾﾞｻｷﾊﾞﾙ","pref":"鹿児島県","city":"奄美市","address":"名瀬崎原"},
{"zip_code":"8940005","kana_pref":"ｶｺﾞｼﾏｹﾝ","kana_city":"ｱﾏﾐｼ","kana_address":"ﾅｾﾞｻﾀﾞｲｸﾏﾁｮｳ","pref":"鹿児島県","city":"奄美市","address":"名瀬佐大熊町"},
{"zip_code":"8940035","kana_pref":"ｶｺﾞｼﾏｹﾝ","kana_city":"ｱﾏﾐｼ","kana_address":"ﾅｾﾞｼｵﾊﾏﾁｮｳ","pref":"鹿児島県","city":"奄美市","address":"名瀬塩浜町"},
{"zip_code":"8940027","kana_pref":"ｶｺﾞｼﾏｹﾝ","kana_city":"ｱﾏﾐｼ","kana_address":"ﾅｾﾞｽｴﾋﾛﾁｮｳ","pref":"鹿児島県","city":"奄美市","address":"名瀬末広町"},
{"zip_code":"8940001","kana_pref":"ｶｺﾞｼﾏｹﾝ","kana_city":"ｱﾏﾐｼ","kana_address":"ﾅｾﾞﾀﾞｲｸﾏ","pref":"鹿児島県","city":"奄美市","address":"名瀬大熊"},
{"zip_code":"8940047","kana_pref":"ｶｺﾞｼﾏｹﾝ","kana_city":"ｱﾏﾐｼ","kana_address":"ﾅｾﾞﾁﾅｾ","pref":"鹿児島県","city":"奄美市","address":"名瀬知名瀬"},
{"zip_code":"8940003","kana_pref":"ｶｺﾞｼﾏｹﾝ","kana_city":"ｱﾏﾐｼ","kana_address":"ﾅｾﾞﾅｶｶﾞﾁ","pref":"鹿児島県","city":"奄美市","address":"名瀬仲勝"},
{"zip_code":"8940063","kana_pref":"ｶｺﾞｼﾏｹﾝ","kana_city":"ｱﾏﾐｼ","kana_address":"ﾅｾﾞﾅｶｶﾞﾁﾁｮｳ","pref":"鹿児島県","city":"奄美市","address":"名瀬仲勝町"},
{"zip_code":"8940023","kana_pref":"ｶｺﾞｼﾏｹﾝ","kana_city":"ｱﾏﾐｼ","kana_address":"ﾅｾﾞﾅｶﾞﾀﾁｮｳ","pref":"鹿児島県","city":"奄美市","address":"名瀬永田町"},
{"zip_code":"8940036","kana_pref":"ｶｺﾞｼﾏｹﾝ","kana_city":"ｱﾏﾐｼ","kana_address":"ﾅｾﾞﾅｶﾞﾊﾏﾁｮｳ","pref":"鹿児島県","city":"奄美市","address":"名瀬長浜町"},
{"zip_code":"8940775","kana_pref":"ｶｺﾞｼﾏｹﾝ","kana_city":"ｱﾏﾐｼ","kana_address":"ﾅｾﾞﾅｾﾞｶﾞﾁ","pref":"鹿児島県","city":"奄美市","address":"名瀬名瀬勝"},
{"zip_code":"8940772","kana_pref":"ｶｺﾞｼﾏｹﾝ","kana_city":"ｱﾏﾐｼ","kana_address":"ﾅｾﾞﾆｼﾅｶｶﾞﾁ","pref":"鹿児島県","city":"奄美市","address":"名瀬西仲勝"},
{"zip_code":"8940048","kana_pref":"ｶｺﾞｼﾏｹﾝ","kana_city":"ｱﾏﾐｼ","kana_address":"ﾅｾﾞﾈｾﾌﾞ","pref":"鹿児島県","city":"奄美市","address":"名瀬根瀬部"},
{"zip_code":"8940004","kana_pref":"ｶｺﾞｼﾏｹﾝ","kana_city":"ｱﾏﾐｼ","kana_address":"ﾅｾﾞﾊﾄﾊﾏﾁｮｳ","pref":"鹿児島県","city":"奄美市","address":"名瀬鳩浜町"},
{"zip_code":"8940044","kana_pref":"ｶｺﾞｼﾏｹﾝ","kana_city":"ｱﾏﾐｼ","kana_address":"ﾅｾﾞﾊﾏｻﾄﾁｮｳ","pref":"鹿児島県","city":"奄美市","address":"名瀬浜里町"},
{"zip_code":"8940014","kana_pref":"ｶｺﾞｼﾏｹﾝ","kana_city":"ｱﾏﾐｼ","kana_address":"ﾅｾﾞﾋﾗﾀﾁｮｳ","pref":"鹿児島県","city":"奄美市","address":"名瀬平田町"},
{"zip_code":"8940045","kana_pref":"ｶｺﾞｼﾏｹﾝ","kana_city":"ｱﾏﾐｼ","kana_address":"ﾅｾﾞﾋﾗﾏﾂﾁｮｳ","pref":"鹿児島県","city":"奄美市","address":"名瀬平松町"},
{"zip_code":"8940016","kana_pref":"ｶｺﾞｼﾏｹﾝ","kana_city":"ｱﾏﾐｼ","kana_address":"ﾅｾﾞﾌﾙﾀﾁｮｳ","pref":"鹿児島県","city":"奄美市","address":"名瀬古田町"},
{"zip_code":"8940015","kana_pref":"ｶｺﾞｼﾏｹﾝ","kana_city":"ｱﾏﾐｼ","kana_address":"ﾅｾﾞﾏﾅﾂﾞﾁｮｳ","pref":"鹿児島県","city":"奄美市","address":"名瀬真名津町"},
{"zip_code":"8940026","kana_pref":"ｶｺﾞｼﾏｹﾝ","kana_city":"ｱﾏﾐｼ","kana_address":"ﾅｾﾞﾐﾅﾄﾏﾁ","pref":"鹿児島県","city":"奄美市","address":"名瀬港町"},
{"zip_code":"8940032","kana_pref":"ｶｺﾞｼﾏｹﾝ","kana_city":"ｱﾏﾐｼ","kana_address":"ﾅｾﾞﾔﾅｷﾞﾏﾁ","pref":"鹿児島県","city":"奄美市","address":"名瀬柳町"},
{"zip_code":"8940033","kana_pref":"ｶｺﾞｼﾏｹﾝ","kana_city":"ｱﾏﾐｼ","kana_address":"ﾅｾﾞﾔﾉﾜｷﾁｮｳ","pref":"鹿児島県","city":"奄美市","address":"名瀬矢之脇町"},
{"zip_code":"8940007","kana_pref":"ｶｺﾞｼﾏｹﾝ","kana_city":"ｱﾏﾐｼ","kana_address":"ﾅｾﾞﾜｺｳﾁｮｳ","pref":"鹿児島県","city":"奄美市","address":"名瀬和光町"},
{"zip_code":"8943100","kana_pref":"ｶｺﾞｼﾏｹﾝ","kana_city":"ｵｵｼﾏｸﾞﾝﾔﾏﾄｿﾝ","kana_address":"","pref":"鹿児島県","city":"大島郡大和村","address":""},
{"zip_code":"8943214","kana_pref":"ｶｺﾞｼﾏｹﾝ","kana_city":"ｵｵｼﾏｸﾞﾝﾔﾏﾄｿﾝ","kana_address":"ｲﾏｻﾞﾄ","pref":"鹿児島県","city":"大島郡大和村","address":"今里"},
{"zip_code":"8943107","kana_pref":"ｶｺﾞｼﾏｹﾝ","kana_city":"ｵｵｼﾏｸﾞﾝﾔﾏﾄｿﾝ","kana_address":"ｵｵｶﾞﾈｸ","pref":"鹿児島県","city":"大島郡大和村","address":"大金久"},
{"zip_code":"8943106","kana_pref":"ｶｺﾞｼﾏｹﾝ","kana_city":"ｵｵｼﾏｸﾞﾝﾔﾏﾄｿﾝ","kana_address":"ｵｵﾀﾞﾅ","pref":"鹿児島県","city":"大島郡大和村","address":"大棚"},
{"zip_code":"8943104","kana_pref":"ｶｺﾞｼﾏｹﾝ","kana_city":"ｵｵｼﾏｸﾞﾝﾔﾏﾄｿﾝ","kana_address":"ｵﾝｶﾞﾁ","pref":"鹿児島県","city":"大島郡大和村","address":"思勝"},
{"zip_code":"8943101","kana_pref":"ｶｺﾞｼﾏｹﾝ","kana_city":"ｵｵｼﾏｸﾞﾝﾔﾏﾄｿﾝ","kana_address":"ｸﾆﾅｵ","pref":"鹿児島県","city":"大島郡大和村","address":"国直"},
{"zip_code":"8943213","kana_pref":"ｶｺﾞｼﾏｹﾝ","kana_city":"ｵｵｼﾏｸﾞﾝﾔﾏﾄｿﾝ","kana_address":"ｼﾄﾞｶﾝ","pref":"鹿児島県","city":"大島郡大和村","address":"志戸勘"},
{"zip_code":"8943103","kana_pref":"ｶｺﾞｼﾏｹﾝ","kana_city":"ｵｵｼﾏｸﾞﾝﾔﾏﾄｿﾝ","kana_address":"ﾂﾅｸﾞ","pref":"鹿児島県","city":"大島郡大和村","address":"津名久"},
{"zip_code":"8943211","kana_pref":"ｶｺﾞｼﾏｹﾝ","kana_city":"ｵｵｼﾏｸﾞﾝﾔﾏﾄｿﾝ","kana_address":"ﾄｴﾝ","pref":"鹿児島県","city":"大島郡大和村","address":"戸円"},
{"zip_code":"8943212","kana_pref":"ｶｺﾞｼﾏｹﾝ","kana_city":"ｵｵｼﾏｸﾞﾝﾔﾏﾄｿﾝ","kana_address":"ﾅｵﾝ","pref":"鹿児島県","city":"大島郡大和村","address":"名音"},
{"zip_code":"8943105","kana_pref":"ｶｺﾞｼﾏｹﾝ","kana_city":"ｵｵｼﾏｸﾞﾝﾔﾏﾄｿﾝ","kana_address":"ﾔﾏﾄﾊﾏ","pref":"鹿児島県","city":"大島郡大和村","address":"大和浜"},
{"zip_code":"8943102","kana_pref":"ｶｺﾞｼﾏｹﾝ","kana_city":"ｵｵｼﾏｸﾞﾝﾔﾏﾄｿﾝ","kana_address":"ﾕﾜﾝｶﾞﾏ","pref":"鹿児島県","city":"大島郡大和村","address":"湯湾釜"},
{"zip_code":"8943300","kana_pref":"ｶｺﾞｼﾏｹﾝ","kana_city":"ｵｵｼﾏｸﾞﾝｳｹﾝｿﾝ","kana_address":"","pref":"鹿児島県","city":"大島郡宇検村","address":""},
{"zip_code":"8943302","kana_pref":"ｶｺﾞｼﾏｹﾝ","kana_city":"ｵｵｼﾏｸﾞﾝｳｹﾝｿﾝ","kana_address":"ｱｼｹﾝ","pref":"鹿児島県","city":"大島郡宇検村","address":"芦検"},
{"zip_code":"8943632","kana_pref":"ｶｺﾞｼﾏｹﾝ","kana_city":"ｵｵｼﾏｸﾞﾝｳｹﾝｿﾝ","kana_address":"ｱﾑﾛ","pref":"鹿児島県","city":"大島郡宇検村","address":"阿室"},
{"zip_code":"8943413","kana_pref":"ｶｺﾞｼﾏｹﾝ","kana_city":"ｵｵｼﾏｸﾞﾝｳｹﾝｿﾝ","kana_address":"ｲｹｶﾞﾁ","pref":"鹿児島県","city":"大島郡宇検村","address":"生勝"},
{"zip_code":"8943305","kana_pref":"ｶｺﾞｼﾏｹﾝ","kana_city":"ｵｵｼﾏｸﾞﾝｳｹﾝｿﾝ","kana_address":"ｲｼﾗ","pref":"鹿児島県","city":"大島郡宇検村","address":"石良"},
{"zip_code":"8943411","kana_pref":"ｶｺﾞｼﾏｹﾝ","kana_city":"ｵｵｼﾏｸﾞﾝｳｹﾝｿﾝ","kana_address":"ｳｹﾝ","pref":"鹿児島県","city":"大島郡宇検村","address":"宇検"},
{"zip_code":"8943412","kana_pref":"ｶｺﾞｼﾏｹﾝ","kana_city":"ｵｵｼﾏｸﾞﾝｳｹﾝｿﾝ","kana_address":"ｸｼ","pref":"鹿児島県","city":"大島郡宇検村","address":"久志"},
{"zip_code":"8943522","kana_pref":"ｶｺﾞｼﾏｹﾝ","kana_city":"ｵｵｼﾏｸﾞﾝｳｹﾝｿﾝ","kana_address":"ｻﾈﾝ","pref":"鹿児島県","city":"大島郡宇検村","address":"佐念"},
{"zip_code":"8943304","kana_pref":"ｶｺﾞｼﾏｹﾝ","kana_city":"ｵｵｼﾏｸﾞﾝｳｹﾝｿﾝ","kana_address":"ｽｺ","pref":"鹿児島県","city":"大島郡宇検村","address":"須古"},
{"zip_code":"8943303","kana_pref":"ｶｺﾞｼﾏｹﾝ","kana_city":"ｵｵｼﾏｸﾞﾝｳｹﾝｿﾝ","kana_address":"ﾀｹﾝ","pref":"鹿児島県","city":"大島郡宇検村","address":"田検"},
{"zip_code":"8943521","kana_pref":"ｶｺﾞｼﾏｹﾝ","kana_city":"ｵｵｼﾏｸﾞﾝｳｹﾝｿﾝ","kana_address":"ﾅｶﾞﾗ","pref":"鹿児島県","city":"大島郡宇検村","address":"名柄"},
{"zip_code":"8943523","kana_pref":"ｶｺﾞｼﾏｹﾝ","kana_city":"ｵｵｼﾏｸﾞﾝｳｹﾝｿﾝ","kana_address":"ﾌﾞﾚﾝ","pref":"鹿児島県","city":"大島郡宇検村","address":"部連"},
{"zip_code":"8943631","kana_pref":"ｶｺﾞｼﾏｹﾝ","kana_city":"ｵｵｼﾏｸﾞﾝｳｹﾝｿﾝ","kana_address":"ﾍﾀﾞ","pref":"鹿児島県","city":"大島郡宇検村","address":"平田"},
{"zip_code":"8943633","kana_pref":"ｶｺﾞｼﾏｹﾝ","kana_city":"ｵｵｼﾏｸﾞﾝｳｹﾝｿﾝ","kana_address":"ﾔﾄﾞﾝ","pref":"鹿児島県","city":"大島郡宇検村","address":"屋鈍"},
{"zip_code":"8943301","kana_pref":"ｶｺﾞｼﾏｹﾝ","kana_city":"ｵｵｼﾏｸﾞﾝｳｹﾝｿﾝ","kana_address":"ﾕﾜﾝ","pref":"鹿児島県","city":"大島郡宇検村","address":"湯湾"},
{"zip_code":"8941500","kana_pref":"ｶｺﾞｼﾏｹﾝ","kana_city":"ｵｵｼﾏｸﾞﾝｾﾄｳﾁﾁｮｳ","kana_address":"","pref":"鹿児島県","city":"大島郡瀬戸内町","address":""},
{"zip_code":"8942234","kana_pref":"ｶｺﾞｼﾏｹﾝ","kana_city":"ｵｵｼﾏｸﾞﾝｾﾄｳﾁﾁｮｳ","kana_address":"ｱｷﾄｸ","pref":"鹿児島県","city":"大島郡瀬戸内町","address":"秋徳"},
{"zip_code":"8941511","kana_pref":"ｶｺﾞｼﾏｹﾝ","kana_city":"ｵｵｼﾏｸﾞﾝｾﾄｳﾁﾁｮｳ","kana_address":"ｱｷﾞﾅ","pref":"鹿児島県","city":"大島郡瀬戸内町","address":"阿木名"},
{"zip_code":"8942411","kana_pref":"ｶｺﾞｼﾏｹﾝ","kana_city":"ｵｵｼﾏｸﾞﾝｾﾄｳﾁﾁｮｳ","kana_address":"ｱﾀﾞﾁ","pref":"鹿児島県","city":"大島郡瀬戸内町","address":"阿多地"},
{"zip_code":"8941744","kana_pref":"ｶｺﾞｼﾏｹﾝ","kana_city":"ｵｵｼﾏｸﾞﾝｾﾄｳﾁﾁｮｳ","kana_address":"ｱﾃﾂ","pref":"鹿児島県","city":"大島郡瀬戸内町","address":"阿鉄"},
{"zip_code":"8941513","kana_pref":"ｶｺﾞｼﾏｹﾝ","kana_city":"ｵｵｼﾏｸﾞﾝｾﾄｳﾁﾁｮｳ","kana_address":"ｱﾐﾉｺ","pref":"鹿児島県","city":"大島郡瀬戸内町","address":"網野子"},
{"zip_code":"8941742","kana_pref":"ｶｺﾞｼﾏｹﾝ","kana_city":"ｵｵｼﾏｸﾞﾝｾﾄｳﾁﾁｮｳ","kana_address":"ｱﾑﾛｶﾞﾏ","pref":"鹿児島県","city":"大島郡瀬戸内町","address":"阿室釜"},
{"zip_code":"8942501","kana_pref":"ｶｺﾞｼﾏｹﾝ","kana_city":"ｵｵｼﾏｸﾞﾝｾﾄｳﾁﾁｮｳ","kana_address":"ｲｹｼﾞ","pref":"鹿児島県","city":"大島郡瀬戸内町","address":"池地"},
{"zip_code":"8942142","kana_pref":"ｶｺﾞｼﾏｹﾝ","kana_city":"ｵｵｼﾏｸﾞﾝｾﾄｳﾁﾁｮｳ","kana_address":"ｲｹﾝﾏ","pref":"鹿児島県","city":"大島郡瀬戸内町","address":"生間"},
{"zip_code":"8942236","kana_pref":"ｶｺﾞｼﾏｹﾝ","kana_city":"ｵｵｼﾏｸﾞﾝｾﾄｳﾁﾁｮｳ","kana_address":"ｲｺﾓ","pref":"鹿児島県","city":"大島郡瀬戸内町","address":"伊子茂"},
{"zip_code":"8941524","kana_pref":"ｶｺﾞｼﾏｹﾝ","kana_city":"ｵｵｼﾏｸﾞﾝｾﾄｳﾁﾁｮｳ","kana_address":"ｲｽ","pref":"鹿児島県","city":"大島郡瀬戸内町","address":"伊須"},
{"zip_code":"8942502","kana_pref":"ｶｺﾞｼﾏｹﾝ","kana_city":"ｵｵｼﾏｸﾞﾝｾﾄｳﾁﾁｮｳ","kana_address":"ｳｹｱﾑﾛ","pref":"鹿児島県","city":"大島郡瀬戸内町","address":"請阿室"},
{"zip_code":"8942235","kana_pref":"ｶｺﾞｼﾏｹﾝ","kana_city":"ｵｵｼﾏｸﾞﾝｾﾄｳﾁﾁｮｳ","kana_address":"ｵｻｲ","pref":"鹿児島県","city":"大島郡瀬戸内町","address":"於斉"},
{"zip_code":"8942231","kana_pref":"ｶｺﾞｼﾏｹﾝ","kana_city":"ｵｵｼﾏｸﾞﾝｾﾄｳﾁﾁｮｳ","kana_address":"ｵｼｶｸ","pref":"鹿児島県","city":"大島郡瀬戸内町","address":"押角"},
{"zip_code":"8941512","kana_pref":"ｶｺﾞｼﾏｹﾝ","kana_city":"ｵｵｼﾏｸﾞﾝｾﾄｳﾁﾁｮｳ","kana_address":"ｶﾁｳﾗ","pref":"鹿児島県","city":"大島郡瀬戸内町","address":"勝浦"},
{"zip_code":"8942232","kana_pref":"ｶｺﾞｼﾏｹﾝ","kana_city":"ｵｵｼﾏｸﾞﾝｾﾄｳﾁﾁｮｳ","kana_address":"ｶﾁﾕｷ","pref":"鹿児島県","city":"大島郡瀬戸内町","address":"勝能"},
{"zip_code":"8941522","kana_pref":"ｶｺﾞｼﾏｹﾝ","kana_city":"ｵｵｼﾏｸﾞﾝｾﾄｳﾁﾁｮｳ","kana_address":"ｶﾃﾂ","pref":"鹿児島県","city":"大島郡瀬戸内町","address":"嘉鉄"},
{"zip_code":"8941515","kana_pref":"ｶｺﾞｼﾏｹﾝ","kana_city":"ｵｵｼﾏｸﾞﾝｾﾄｳﾁﾁｮｳ","kana_address":"ｶﾄｸ","pref":"鹿児島県","city":"大島郡瀬戸内町","address":"嘉徳"},
{"zip_code":"8942413","kana_pref":"ｶｺﾞｼﾏｹﾝ","kana_city":"ｵｵｼﾏｸﾞﾝｾﾄｳﾁﾁｮｳ","kana_address":"ｶﾆｭｳ","pref":"鹿児島県","city":"大島郡瀬戸内町","address":"嘉入"},
{"zip_code":"8942417","kana_pref":"ｶｺﾞｼﾏｹﾝ","kana_city":"ｵｵｼﾏｸﾞﾝｾﾄｳﾁﾁｮｳ","kana_address":"ｷｼﾞ","pref":"鹿児島県","city":"大島郡瀬戸内町","address":"木慈"},
{"zip_code":"8941851","kana_pref":"ｶｺﾞｼﾏｹﾝ","kana_city":"ｵｵｼﾏｸﾞﾝｾﾄｳﾁﾁｮｳ","kana_address":"ｸｼﾞ","pref":"鹿児島県","city":"大島郡瀬戸内町","address":"久慈"},
{"zip_code":"8941854","kana_pref":"ｶｺﾞｼﾏｹﾝ","kana_city":"ｵｵｼﾏｸﾞﾝｾﾄｳﾁﾁｮｳ","kana_address":"ｸﾀﾞﾄﾞﾝ","pref":"鹿児島県","city":"大島郡瀬戸内町","address":"管鈍"},
{"zip_code":"8941746","kana_pref":"ｶｺﾞｼﾏｹﾝ","kana_city":"ｵｵｼﾏｸﾞﾝｾﾄｳﾁﾁｮｳ","kana_address":"ｸﾈﾂ","pref":"鹿児島県","city":"大島郡瀬戸内町","address":"久根津"},
{"zip_code":"8941853","kana_pref":"ｶｺﾞｼﾏｹﾝ","kana_city":"ｵｵｼﾏｸﾞﾝｾﾄｳﾁﾁｮｳ","kana_address":"ｹﾃﾝ","pref":"鹿児島県","city":"大島郡瀬戸内町","address":"花天"},
{"zip_code":"8942237","kana_pref":"ｶｺﾞｼﾏｹﾝ","kana_city":"ｵｵｼﾏｸﾞﾝｾﾄｳﾁﾁｮｳ","kana_address":"ｹﾄﾞﾐ","pref":"鹿児島県","city":"大島郡瀬戸内町","address":"花富"},
{"zip_code":"8941852","kana_pref":"ｶｺﾞｼﾏｹﾝ","kana_city":"ｵｵｼﾏｸﾞﾝｾﾄｳﾁﾁｮｳ","kana_address":"ｺｼ","pref":"鹿児島県","city":"大島郡瀬戸内町","address":"古志"},
{"zip_code":"8941743","kana_pref":"ｶｺﾞｼﾏｹﾝ","kana_city":"ｵｵｼﾏｸﾞﾝｾﾄｳﾁﾁｮｳ","kana_address":"ｺﾅｾ","pref":"鹿児島県","city":"大島郡瀬戸内町","address":"小名瀬"},
{"zip_code":"8941508","kana_pref":"ｶｺﾞｼﾏｹﾝ","kana_city":"ｵｵｼﾏｸﾞﾝｾﾄｳﾁﾁｮｳ","kana_address":"ｺﾆﾔ","pref":"鹿児島県","city":"大島郡瀬戸内町","address":"古仁屋"},
{"zip_code":"8941503","kana_pref":"ｶｺﾞｼﾏｹﾝ","kana_city":"ｵｵｼﾏｸﾞﾝｾﾄｳﾁﾁｮｳ","kana_address":"ｺﾆﾔ","pref":"鹿児島県","city":"大島郡瀬戸内町","address":"古仁屋"},
{"zip_code":"8941504","kana_pref":"ｶｺﾞｼﾏｹﾝ","kana_city":"ｵｵｼﾏｸﾞﾝｾﾄｳﾁﾁｮｳ","kana_address":"ｺﾆﾔ","pref":"鹿児島県","city":"大島郡瀬戸内町","address":"古仁屋"},
{"zip_code":"8941507","kana_pref":"ｶｺﾞｼﾏｹﾝ","kana_city":"ｵｵｼﾏｸﾞﾝｾﾄｳﾁﾁｮｳ","kana_address":"ｺﾆﾔ","pref":"鹿児島県","city":"大島郡瀬戸内町","address":"古仁屋"},
{"zip_code":"8941501","kana_pref":"ｶｺﾞｼﾏｹﾝ","kana_city":"ｵｵｼﾏｸﾞﾝｾﾄｳﾁﾁｮｳ","kana_address":"ｺﾆﾔ","pref":"鹿児島県","city":"大島郡瀬戸内町","address":"古仁屋"},
{"zip_code":"8941506","kana_pref":"ｶｺﾞｼﾏｹﾝ","kana_city":"ｵｵｼﾏｸﾞﾝｾﾄｳﾁﾁｮｳ","kana_address":"ｺﾆﾔ","pref":"鹿児島県","city":"大島郡瀬戸内町","address":"古仁屋"},
{"zip_code":"8941505","kana_pref":"ｶｺﾞｼﾏｹﾝ","kana_city":"ｵｵｼﾏｸﾞﾝｾﾄｳﾁﾁｮｳ","kana_address":"ｺﾆﾔ","pref":"鹿児島県","city":"大島郡瀬戸内町","address":"古仁屋"},
{"zip_code":"8941502","kana_pref":"ｶｺﾞｼﾏｹﾝ","kana_city":"ｵｵｼﾏｸﾞﾝｾﾄｳﾁﾁｮｳ","kana_address":"ｺﾆﾔ","pref":"鹿児島県","city":"大島郡瀬戸内町","address":"古仁屋"},
{"zip_code":"8941510","kana_pref":"ｶｺﾞｼﾏｹﾝ","kana_city":"ｵｵｼﾏｸﾞﾝｾﾄｳﾁﾁｮｳ","kana_address":"ｺﾆﾔｾｸｲﾆｼ","pref":"鹿児島県","city":"大島郡瀬戸内町","address":"古仁屋瀬久井西"},
{"zip_code":"8941509","kana_pref":"ｶｺﾞｼﾏｹﾝ","kana_city":"ｵｵｼﾏｸﾞﾝｾﾄｳﾁﾁｮｳ","kana_address":"ｺﾆﾔｾｸｲﾋｶﾞｼ","pref":"鹿児島県","city":"大島郡瀬戸内町","address":"古仁屋瀬久井東"},
{"zip_code":"8942402","kana_pref":"ｶｺﾞｼﾏｹﾝ","kana_city":"ｵｵｼﾏｸﾞﾝｾﾄｳﾁﾁｮｳ","kana_address":"ｻﾂｶﾜ","pref":"鹿児島県","city":"大島郡瀬戸内町","address":"薩川"},
{"zip_code":"8942403","kana_pref":"ｶｺﾞｼﾏｹﾝ","kana_city":"ｵｵｼﾏｸﾞﾝｾﾄｳﾁﾁｮｳ","kana_address":"ｻﾈｸ","pref":"鹿児島県","city":"大島郡瀬戸内町","address":"実久"},
{"zip_code":"8941741","kana_pref":"ｶｺﾞｼﾏｹﾝ","kana_city":"ｵｵｼﾏｸﾞﾝｾﾄｳﾁﾁｮｳ","kana_address":"ｼﾉｶﾜ","pref":"鹿児島県","city":"大島郡瀬戸内町","address":"篠川"},
{"zip_code":"8942404","kana_pref":"ｶｺﾞｼﾏｹﾝ","kana_city":"ｵｵｼﾏｸﾞﾝｾﾄｳﾁﾁｮｳ","kana_address":"ｼﾊﾞ","pref":"鹿児島県","city":"大島郡瀬戸内町","address":"芝"},
{"zip_code":"8942144","kana_pref":"ｶｺﾞｼﾏｹﾝ","kana_city":"ｵｵｼﾏｸﾞﾝｾﾄｳﾁﾁｮｳ","kana_address":"ｼｮｶｽﾞ","pref":"鹿児島県","city":"大島郡瀬戸内町","address":"諸数"},
{"zip_code":"8942141","kana_pref":"ｶｺﾞｼﾏｹﾝ","kana_city":"ｵｵｼﾏｸﾞﾝｾﾄｳﾁﾁｮｳ","kana_address":"ｼｮﾄﾞﾝ","pref":"鹿児島県","city":"大島郡瀬戸内町","address":"諸鈍"},
{"zip_code":"8942412","kana_pref":"ｶｺﾞｼﾏｹﾝ","kana_city":"ｵｵｼﾏｸﾞﾝｾﾄｳﾁﾁｮｳ","kana_address":"ｽｺﾓ","pref":"鹿児島県","city":"大島郡瀬戸内町","address":"須子茂"},
{"zip_code":"8941521","kana_pref":"ｶｺﾞｼﾏｹﾝ","kana_city":"ｵｵｼﾏｸﾞﾝｾﾄｳﾁﾁｮｳ","kana_address":"ｾｲｽｲ","pref":"鹿児島県","city":"大島郡瀬戸内町","address":"清水"},
{"zip_code":"8942322","kana_pref":"ｶｺﾞｼﾏｹﾝ","kana_city":"ｵｵｼﾏｸﾞﾝｾﾄｳﾁﾁｮｳ","kana_address":"ｾｿｳ","pref":"鹿児島県","city":"大島郡瀬戸内町","address":"瀬相"},
{"zip_code":"8942401","kana_pref":"ｶｺﾞｼﾏｹﾝ","kana_city":"ｵｵｼﾏｸﾞﾝｾﾄｳﾁﾁｮｳ","kana_address":"ｾﾀｹ","pref":"鹿児島県","city":"大島郡瀬戸内町","address":"瀬武"},
{"zip_code":"8941514","kana_pref":"ｶｺﾞｼﾏｹﾝ","kana_city":"ｵｵｼﾏｸﾞﾝｾﾄｳﾁﾁｮｳ","kana_address":"ｾｯｺ","pref":"鹿児島県","city":"大島郡瀬戸内町","address":"節子"},
{"zip_code":"8941523","kana_pref":"ｶｺﾞｼﾏｹﾝ","kana_city":"ｵｵｼﾏｸﾞﾝｾﾄｳﾁﾁｮｳ","kana_address":"ｿｶﾙ","pref":"鹿児島県","city":"大島郡瀬戸内町","address":"蘇刈"},
{"zip_code":"8942416","kana_pref":"ｶｺﾞｼﾏｹﾝ","kana_city":"ｵｵｼﾏｸﾞﾝｾﾄｳﾁﾁｮｳ","kana_address":"ﾀｹﾅ","pref":"鹿児島県","city":"大島郡瀬戸内町","address":"武名"},
{"zip_code":"8942415","kana_pref":"ｶｺﾞｼﾏｹﾝ","kana_city":"ｵｵｼﾏｸﾞﾝｾﾄｳﾁﾁｮｳ","kana_address":"ﾁﾉｳﾗ","pref":"鹿児島県","city":"大島郡瀬戸内町","address":"知之浦"},
{"zip_code":"8941531","kana_pref":"ｶｺﾞｼﾏｹﾝ","kana_city":"ｵｵｼﾏｸﾞﾝｾﾄｳﾁﾁｮｳ","kana_address":"ﾃｱﾝ","pref":"鹿児島県","city":"大島郡瀬戸内町","address":"手安"},
{"zip_code":"8942143","kana_pref":"ｶｺﾞｼﾏｹﾝ","kana_city":"ｵｵｼﾏｸﾞﾝｾﾄｳﾁﾁｮｳ","kana_address":"ﾄﾞﾚﾝ","pref":"鹿児島県","city":"大島郡瀬戸内町","address":"渡連"},
{"zip_code":"8942321","kana_pref":"ｶｺﾞｼﾏｹﾝ","kana_city":"ｵｵｼﾏｸﾞﾝｾﾄｳﾁﾁｮｳ","kana_address":"ﾆｼｱﾑﾛ","pref":"鹿児島県","city":"大島郡瀬戸内町","address":"西阿室"},
{"zip_code":"8941855","kana_pref":"ｶｺﾞｼﾏｹﾝ","kana_city":"ｵｵｼﾏｸﾞﾝｾﾄｳﾁﾁｮｳ","kana_address":"ﾆｼｺﾐ","pref":"鹿児島県","city":"大島郡瀬戸内町","address":"西古見"},
{"zip_code":"8942233","kana_pref":"ｶｺﾞｼﾏｹﾝ","kana_city":"ｵｵｼﾏｸﾞﾝｾﾄｳﾁﾁｮｳ","kana_address":"ﾉﾐﾔﾏ","pref":"鹿児島県","city":"大島郡瀬戸内町","address":"野見山"},
{"zip_code":"8942323","kana_pref":"ｶｺﾞｼﾏｹﾝ","kana_city":"ｵｵｼﾏｸﾞﾝｾﾄｳﾁﾁｮｳ","kana_address":"ﾋｮｳ","pref":"鹿児島県","city":"大島郡瀬戸内町","address":"俵"},
{"zip_code":"8942414","kana_pref":"ｶｺﾞｼﾏｹﾝ","kana_city":"ｵｵｼﾏｸﾞﾝｾﾄｳﾁﾁｮｳ","kana_address":"ﾐｳﾗ","pref":"鹿児島県","city":"大島郡瀬戸内町","address":"三浦"},
{"zip_code":"8941745","kana_pref":"ｶｺﾞｼﾏｹﾝ","kana_city":"ｵｵｼﾏｸﾞﾝｾﾄｳﾁﾁｮｳ","kana_address":"ﾕｲ","pref":"鹿児島県","city":"大島郡瀬戸内町","address":"油井"},
{"zip_code":"8942601","kana_pref":"ｶｺﾞｼﾏｹﾝ","kana_city":"ｵｵｼﾏｸﾞﾝｾﾄｳﾁﾁｮｳ","kana_address":"ﾖﾛ","pref":"鹿児島県","city":"大島郡瀬戸内町","address":"与路"},
{"zip_code":"8940100","kana_pref":"ｶｺﾞｼﾏｹﾝ","kana_city":"ｵｵｼﾏｸﾞﾝﾀﾂｺﾞｳﾁｮｳ","kana_address":"","pref":"鹿児島県","city":"大島郡龍郷町","address":""},
{"zip_code":"8940411","kana_pref":"ｶｺﾞｼﾏｹﾝ","kana_city":"ｵｵｼﾏｸﾞﾝﾀﾂｺﾞｳﾁｮｳ","kana_address":"ｱｶｵｷﾞ","pref":"鹿児島県","city":"大島郡龍郷町","address":"赤尾木"},
{"zip_code":"8940333","kana_pref":"ｶｺﾞｼﾏｹﾝ","kana_city":"ｵｵｼﾏｸﾞﾝﾀﾂｺﾞｳﾁｮｳ","kana_address":"ｱｷﾅ","pref":"鹿児島県","city":"大島郡龍郷町","address":"秋名"},
{"zip_code":"8940412","kana_pref":"ｶｺﾞｼﾏｹﾝ","kana_city":"ｵｵｼﾏｸﾞﾝﾀﾂｺﾞｳﾁｮｳ","kana_address":"ｱｼﾄｸ","pref":"鹿児島県","city":"大島郡龍郷町","address":"芦徳"},
{"zip_code":"8940323","kana_pref":"ｶｺﾞｼﾏｹﾝ","kana_city":"ｵｵｼﾏｸﾞﾝﾀﾂｺﾞｳﾁｮｳ","kana_address":"ｱﾝｷﾔﾊﾞ","pref":"鹿児島県","city":"大島郡龍郷町","address":"安木屋場"},
{"zip_code":"8940332","kana_pref":"ｶｺﾞｼﾏｹﾝ","kana_city":"ｵｵｼﾏｸﾞﾝﾀﾂｺﾞｳﾁｮｳ","kana_address":"ｲｸｻﾄ","pref":"鹿児島県","city":"大島郡龍郷町","address":"幾里"},
{"zip_code":"8940104","kana_pref":"ｶｺﾞｼﾏｹﾝ","kana_city":"ｵｵｼﾏｸﾞﾝﾀﾂｺﾞｳﾁｮｳ","kana_address":"ｳﾗ","pref":"鹿児島県","city":"大島郡龍郷町","address":"浦"},
{"zip_code":"8940324","kana_pref":"ｶｺﾞｼﾏｹﾝ","kana_city":"ｵｵｼﾏｸﾞﾝﾀﾂｺﾞｳﾁｮｳ","kana_address":"ｴﾝ","pref":"鹿児島県","city":"大島郡龍郷町","address":"円"},
{"zip_code":"8940105","kana_pref":"ｶｺﾞｼﾏｹﾝ","kana_city":"ｵｵｼﾏｸﾞﾝﾀﾂｺﾞｳﾁｮｳ","kana_address":"ｵｵｶﾞﾁ","pref":"鹿児島県","city":"大島郡龍郷町","address":"大勝"},
{"zip_code":"8940331","kana_pref":"ｶｺﾞｼﾏｹﾝ","kana_city":"ｵｵｼﾏｸﾞﾝﾀﾂｺﾞｳﾁｮｳ","kana_address":"ｶﾄﾞ","pref":"鹿児島県","city":"大島郡龍郷町","address":"嘉渡"},
{"zip_code":"8940322","kana_pref":"ｶｺﾞｼﾏｹﾝ","kana_city":"ｵｵｼﾏｸﾞﾝﾀﾂｺﾞｳﾁｮｳ","kana_address":"ｸﾊﾞ","pref":"鹿児島県","city":"大島郡龍郷町","address":"久場"},
{"zip_code":"8940102","kana_pref":"ｶｺﾞｼﾏｹﾝ","kana_city":"ｵｵｼﾏｸﾞﾝﾀﾂｺﾞｳﾁｮｳ","kana_address":"ｾﾄﾞﾒ","pref":"鹿児島県","city":"大島郡龍郷町","address":"瀬留"},
{"zip_code":"8940321","kana_pref":"ｶｺﾞｼﾏｹﾝ","kana_city":"ｵｵｼﾏｸﾞﾝﾀﾂｺﾞｳﾁｮｳ","kana_address":"ﾀﾂｺﾞｳ","pref":"鹿児島県","city":"大島郡龍郷町","address":"龍郷"},
{"zip_code":"8940103","kana_pref":"ｶｺﾞｼﾏｹﾝ","kana_city":"ｵｵｼﾏｸﾞﾝﾀﾂｺﾞｳﾁｮｳ","kana_address":"ﾀﾏｻﾞﾄ","pref":"鹿児島県","city":"大島郡龍郷町","address":"玉里"},
{"zip_code":"8940107","kana_pref":"ｶｺﾞｼﾏｹﾝ","kana_city":"ｵｵｼﾏｸﾞﾝﾀﾂｺﾞｳﾁｮｳ","kana_address":"ﾄｸﾞﾁ","pref":"鹿児島県","city":"大島郡龍郷町","address":"戸口"},
{"zip_code":"8940106","kana_pref":"ｶｺﾞｼﾏｹﾝ","kana_city":"ｵｵｼﾏｸﾞﾝﾀﾂｺﾞｳﾁｮｳ","kana_address":"ﾅｶｶﾞﾁ","pref":"鹿児島県","city":"大島郡龍郷町","address":"中勝"},
{"zip_code":"8940101","kana_pref":"ｶｺﾞｼﾏｹﾝ","kana_city":"ｵｵｼﾏｸﾞﾝﾀﾂｺﾞｳﾁｮｳ","kana_address":"ﾔﾆｭｳ","pref":"鹿児島県","city":"大島郡龍郷町","address":"屋入"}]}