{"zip_code":[
{"zip_code":"8950000","kana_pref":"ｶｺﾞｼﾏｹﾝ","kana_city":"ｻﾂﾏｾﾝﾀﾞｲｼ","kana_address":"","pref":"鹿児島県","city":"薩摩川内市","address":""},
{"zip_code":"8950044","kana_pref":"ｶｺﾞｼﾏｹﾝ","kana_city":"ｻﾂﾏｾﾝﾀﾞｲｼ","kana_address":"ｱｵﾔﾏﾁｮｳ","pref":"鹿児島県","city":"薩摩川内市","address":"青山町"},
{"zip_code":"8950011","kana_pref":"ｶｺﾞｼﾏｹﾝ","kana_city":"ｻﾂﾏｾﾝﾀﾞｲｼ","kana_address":"ｱﾏﾀﾂﾁｮｳ","pref":"鹿児島県","city":"薩摩川内市","address":"天辰町"},
{"zip_code":"8951402","kana_pref":"ｶｺﾞｼﾏｹﾝ","kana_city":"ｻﾂﾏｾﾝﾀﾞｲｼ","kana_address":"ｲﾘｷﾁｮｳｳﾗﾉﾐｮｳ","pref":"鹿児島県","city":"薩摩川内市","address":"入来町浦之名"},
{"zip_code":"8951401","kana_pref":"ｶｺﾞｼﾏｹﾝ","kana_city":"ｻﾂﾏｾﾝﾀﾞｲｼ","kana_address":"ｲﾘｷﾁｮｳｿｴﾀﾞ","pref":"鹿児島県","city":"薩摩川内市","address":"入来町副田"},
{"zip_code":"8950214","kana_pref":"ｶｺﾞｼﾏｹﾝ","kana_city":"ｻﾂﾏｾﾝﾀﾞｲｼ","kana_address":"ｳﾝﾄﾞｳｺｳｴﾝﾁｮｳ","pref":"鹿児島県","city":"薩摩川内市","address":"運動公園町"},
{"zip_code":"8950077","kana_pref":"ｶｺﾞｼﾏｹﾝ","kana_city":"ｻﾂﾏｾﾝﾀﾞｲｼ","kana_address":"ｳﾝﾄﾞｳｺｳｴﾝﾁｮｳ","pref":"鹿児島県","city":"薩摩川内市","address":"運動公園町"},
{"zip_code":"8950076","kana_pref":"ｶｺﾞｼﾏｹﾝ","kana_city":"ｻﾂﾏｾﾝﾀﾞｲｼ","kana_address":"ｵｵｼｮｳｼﾞﾁｮｳ","pref":"鹿児島県","city":"薩摩川内市","address":"大小路町"},
{"zip_code":"8950035","kana_pref":"ｶｺﾞｼﾏｹﾝ","kana_city":"ｻﾂﾏｾﾝﾀﾞｲｼ","kana_address":"ｵｼﾞﾛｴﾁｮｳ","pref":"鹿児島県","city":"薩摩川内市","address":"尾白江町"},
{"zip_code":"8950031","kana_pref":"ｶｺﾞｼﾏｹﾝ","kana_city":"ｻﾂﾏｾﾝﾀﾞｲｼ","kana_address":"ｶﾁﾒﾁｮｳ","pref":"鹿児島県","city":"薩摩川内市","address":"勝目町"},
{"zip_code":"8950067","kana_pref":"ｶｺﾞｼﾏｹﾝ","kana_city":"ｻﾂﾏｾﾝﾀﾞｲｼ","kana_address":"ｶﾐｾﾝﾀﾞｲﾁｮｳ","pref":"鹿児島県","city":"薩摩川内市","address":"上川内町"},
{"zip_code":"8950033","kana_pref":"ｶｺﾞｼﾏｹﾝ","kana_city":"ｻﾂﾏｾﾝﾀﾞｲｼ","kana_address":"ｶﾜﾅｶﾞﾉﾁｮｳ","pref":"鹿児島県","city":"薩摩川内市","address":"川永野町"},
{"zip_code":"8950052","kana_pref":"ｶｺﾞｼﾏｹﾝ","kana_city":"ｻﾂﾏｾﾝﾀﾞｲｼ","kana_address":"ｶﾝﾀﾞﾁｮｳ","pref":"鹿児島県","city":"薩摩川内市","address":"神田町"},
{"zip_code":"8950004","kana_pref":"ｶｺﾞｼﾏｹﾝ","kana_city":"ｻﾂﾏｾﾝﾀﾞｲｼ","kana_address":"ｸｼﾞｭｳﾁｮｳ","pref":"鹿児島県","city":"薩摩川内市","address":"久住町"},
{"zip_code":"8950002","kana_pref":"ｶｺﾞｼﾏｹﾝ","kana_city":"ｻﾂﾏｾﾝﾀﾞｲｼ","kana_address":"ｸｽﾓﾄﾁｮｳ","pref":"鹿児島県","city":"薩摩川内市","address":"楠元町"},
{"zip_code":"8950041","kana_pref":"ｶｺﾞｼﾏｹﾝ","kana_city":"ｻﾂﾏｾﾝﾀﾞｲｼ","kana_address":"ｸﾏﾉｼﾞｮｳﾁｮｳ","pref":"鹿児島県","city":"薩摩川内市","address":"隈之城町"},
{"zip_code":"8950132","kana_pref":"ｶｺﾞｼﾏｹﾝ","kana_city":"ｻﾂﾏｾﾝﾀﾞｲｼ","kana_address":"ｸﾞﾐｻｷﾁｮｳ","pref":"鹿児島県","city":"薩摩川内市","address":"久見崎町"},
{"zip_code":"8951502","kana_pref":"ｶｺﾞｼﾏｹﾝ","kana_city":"ｻﾂﾏｾﾝﾀﾞｲｼ","kana_address":"ｹﾄﾞｳｲﾝﾁｮｳｲﾑﾀ","pref":"鹿児島県","city":"薩摩川内市","address":"祁答院町藺牟田"},
{"zip_code":"8951503","kana_pref":"ｶｺﾞｼﾏｹﾝ","kana_city":"ｻﾂﾏｾﾝﾀﾞｲｼ","kana_address":"ｹﾄﾞｳｲﾝﾁｮｳｶﾐﾃﾞ","pref":"鹿児島県","city":"薩摩川内市","address":"祁答院町上手"},
{"zip_code":"8951504","kana_pref":"ｶｺﾞｼﾏｹﾝ","kana_city":"ｻﾂﾏｾﾝﾀﾞｲｼ","kana_address":"ｹﾄﾞｳｲﾝﾁｮｳｸﾛｷ","pref":"鹿児島県","city":"薩摩川内市","address":"祁答院町黒木"},
{"zip_code":"8951501","kana_pref":"ｶｺﾞｼﾏｹﾝ","kana_city":"ｻﾂﾏｾﾝﾀﾞｲｼ","kana_address":"ｹﾄﾞｳｲﾝﾁｮｳｼﾓﾃﾞ","pref":"鹿児島県","city":"薩摩川内市","address":"祁答院町下手"},
{"zip_code":"8950073","kana_pref":"ｶｺﾞｼﾏｹﾝ","kana_city":"ｻﾂﾏｾﾝﾀﾞｲｼ","kana_address":"ｺｸﾌﾞﾝｼﾞﾁｮｳ","pref":"鹿児島県","city":"薩摩川内市","address":"国分寺町"},
{"zip_code":"8950066","kana_pref":"ｶｺﾞｼﾏｹﾝ","kana_city":"ｻﾂﾏｾﾝﾀﾞｲｼ","kana_address":"ｺﾞﾀﾞｲﾁｮｳ","pref":"鹿児島県","city":"薩摩川内市","address":"五代町"},
{"zip_code":"8950034","kana_pref":"ｶｺﾞｼﾏｹﾝ","kana_city":"ｻﾂﾏｾﾝﾀﾞｲｼ","kana_address":"ｺﾊﾞﾝﾁｬﾔﾁｮｳ","pref":"鹿児島県","city":"薩摩川内市","address":"木場茶屋町"},
{"zip_code":"8950061","kana_pref":"ｶｺﾞｼﾏｹﾝ","kana_city":"ｻﾂﾏｾﾝﾀﾞｲｼ","kana_address":"ｺﾞﾘｮｳｼﾀﾁｮｳ","pref":"鹿児島県","city":"薩摩川内市","address":"御陵下町"},
{"zip_code":"8950213","kana_pref":"ｶｺﾞｼﾏｹﾝ","kana_city":"ｻﾂﾏｾﾝﾀﾞｲｼ","kana_address":"ｼﾞｮｳｶﾐﾁｮｳ","pref":"鹿児島県","city":"薩摩川内市","address":"城上町"},
{"zip_code":"8950001","kana_pref":"ｶｺﾞｼﾏｹﾝ","kana_city":"ｻﾂﾏｾﾝﾀﾞｲｼ","kana_address":"ｼﾗﾊﾏﾁｮｳ","pref":"鹿児島県","city":"薩摩川内市","address":"白浜町"},
{"zip_code":"8950022","kana_pref":"ｶｺﾞｼﾏｹﾝ","kana_city":"ｻﾂﾏｾﾝﾀﾞｲｼ","kana_address":"ｼﾗﾜﾁｮｳ","pref":"鹿児島県","city":"薩摩川内市","address":"白和町"},
{"zip_code":"8950062","kana_pref":"ｶｺﾞｼﾏｹﾝ","kana_city":"ｻﾂﾏｾﾝﾀﾞｲｼ","kana_address":"ﾀﾞｲｵｳﾁｮｳ","pref":"鹿児島県","city":"薩摩川内市","address":"大王町"},
{"zip_code":"8950071","kana_pref":"ｶｺﾞｼﾏｹﾝ","kana_city":"ｻﾂﾏｾﾝﾀﾞｲｼ","kana_address":"ﾀｳﾐﾁｮｳ","pref":"鹿児島県","city":"薩摩川内市","address":"田海町"},
{"zip_code":"8950131","kana_pref":"ｶｺﾞｼﾏｹﾝ","kana_city":"ｻﾂﾏｾﾝﾀﾞｲｼ","kana_address":"ﾀｶｴﾁｮｳ","pref":"鹿児島県","city":"薩摩川内市","address":"高江町"},
{"zip_code":"8950211","kana_pref":"ｶｺﾞｼﾏｹﾝ","kana_city":"ｻﾂﾏｾﾝﾀﾞｲｼ","kana_address":"ﾀｷﾁｮｳ","pref":"鹿児島県","city":"薩摩川内市","address":"高城町"},
{"zip_code":"8950006","kana_pref":"ｶｺﾞｼﾏｹﾝ","kana_city":"ｻﾂﾏｾﾝﾀﾞｲｼ","kana_address":"ﾀｻｷﾁｮｳ","pref":"鹿児島県","city":"薩摩川内市","address":"田崎町"},
{"zip_code":"8950072","kana_pref":"ｶｺﾞｼﾏｹﾝ","kana_city":"ｻﾂﾏｾﾝﾀﾞｲｼ","kana_address":"ﾁｭｳｺﾞｳ","pref":"鹿児島県","city":"薩摩川内市","address":"中郷"},
{"zip_code":"8950072","kana_pref":"ｶｺﾞｼﾏｹﾝ","kana_city":"ｻﾂﾏｾﾝﾀﾞｲｼ","kana_address":"ﾁｭｳｺﾞｳﾁｮｳ","pref":"鹿児島県","city":"薩摩川内市","address":"中郷町"},
{"zip_code":"8951106","kana_pref":"ｶｺﾞｼﾏｹﾝ","kana_city":"ｻﾂﾏｾﾝﾀﾞｲｼ","kana_address":"ﾄｳｺﾞｳﾁｮｳｵﾉﾌﾞﾁ","pref":"鹿児島県","city":"薩摩川内市","address":"東郷町斧渕"},
{"zip_code":"8951101","kana_pref":"ｶｺﾞｼﾏｹﾝ","kana_city":"ｻﾂﾏｾﾝﾀﾞｲｼ","kana_address":"ﾄｳｺﾞｳﾁｮｳｼｼﾉ","pref":"鹿児島県","city":"薩摩川内市","address":"東郷町宍野"},
{"zip_code":"8951103","kana_pref":"ｶｺﾞｼﾏｹﾝ","kana_city":"ｻﾂﾏｾﾝﾀﾞｲｼ","kana_address":"ﾄｳｺﾞｳﾁｮｳﾄﾘﾏﾙ","pref":"鹿児島県","city":"薩摩川内市","address":"東郷町鳥丸"},
{"zip_code":"8951105","kana_pref":"ｶｺﾞｼﾏｹﾝ","kana_city":"ｻﾂﾏｾﾝﾀﾞｲｼ","kana_address":"ﾄｳｺﾞｳﾁｮｳﾉｳｾﾞ","pref":"鹿児島県","city":"薩摩川内市","address":"東郷町南瀬"},
{"zip_code":"8951102","kana_pref":"ｶｺﾞｼﾏｹﾝ","kana_city":"ｻﾂﾏｾﾝﾀﾞｲｼ","kana_address":"ﾄｳｺﾞｳﾁｮｳﾌｼﾞｶﾜ","pref":"鹿児島県","city":"薩摩川内市","address":"東郷町藤川"},
{"zip_code":"8951104","kana_pref":"ｶｺﾞｼﾏｹﾝ","kana_city":"ｻﾂﾏｾﾝﾀﾞｲｼ","kana_address":"ﾄｳｺﾞｳﾁｮｳﾔﾏﾀﾞ","pref":"鹿児島県","city":"薩摩川内市","address":"東郷町山田"},
{"zip_code":"8950024","kana_pref":"ｶｺﾞｼﾏｹﾝ","kana_city":"ｻﾂﾏｾﾝﾀﾞｲｼ","kana_address":"ﾄﾘｵｲﾁｮｳ","pref":"鹿児島県","city":"薩摩川内市","address":"鳥追町"},
{"zip_code":"8950005","kana_pref":"ｶｺﾞｼﾏｹﾝ","kana_city":"ｻﾂﾏｾﾝﾀﾞｲｼ","kana_address":"ﾅｶﾞﾄｼﾁｮｳ","pref":"鹿児島県","city":"薩摩川内市","address":"永利町"},
{"zip_code":"8950042","kana_pref":"ｶｺﾞｼﾏｹﾝ","kana_city":"ｻﾂﾏｾﾝﾀﾞｲｼ","kana_address":"ﾅｶﾌｸﾗﾁｮｳ","pref":"鹿児島県","city":"薩摩川内市","address":"中福良町"},
{"zip_code":"8950003","kana_pref":"ｶｺﾞｼﾏｹﾝ","kana_city":"ｻﾂﾏｾﾝﾀﾞｲｼ","kana_address":"ﾅｶﾑﾗﾁｮｳ","pref":"鹿児島県","city":"薩摩川内市","address":"中村町"},
{"zip_code":"8950055","kana_pref":"ｶｺﾞｼﾏｹﾝ","kana_city":"ｻﾂﾏｾﾝﾀﾞｲｼ","kana_address":"ﾆｼｶｲﾓﾝﾁｮｳ","pref":"鹿児島県","city":"薩摩川内市","address":"西開聞町"},
{"zip_code":"8950027","kana_pref":"ｶｺﾞｼﾏｹﾝ","kana_city":"ｻﾂﾏｾﾝﾀﾞｲｼ","kana_address":"ﾆｼﾑｺｳﾀﾞﾁｮｳ","pref":"鹿児島県","city":"薩摩川内市","address":"西向田町"},
{"zip_code":"8950064","kana_pref":"ｶｺﾞｼﾏｹﾝ","kana_city":"ｻﾂﾏｾﾝﾀﾞｲｼ","kana_address":"ﾊﾅｷﾁｮｳ","pref":"鹿児島県","city":"薩摩川内市","address":"花木町"},
{"zip_code":"8950074","kana_pref":"ｶｺﾞｼﾏｹﾝ","kana_city":"ｻﾂﾏｾﾝﾀﾞｲｼ","kana_address":"ﾊﾗﾀﾞﾁｮｳ","pref":"鹿児島県","city":"薩摩川内市","address":"原田町"},
{"zip_code":"8950075","kana_pref":"ｶｺﾞｼﾏｹﾝ","kana_city":"ｻﾂﾏｾﾝﾀﾞｲｼ","kana_address":"ﾋｶﾞｼｵｵｼｮｳｼﾞﾁｮｳ","pref":"鹿児島県","city":"薩摩川内市","address":"東大小路町"},
{"zip_code":"8950051","kana_pref":"ｶｺﾞｼﾏｹﾝ","kana_city":"ｻﾂﾏｾﾝﾀﾞｲｼ","kana_address":"ﾋｶﾞｼｶｲﾓﾝﾁｮｳ","pref":"鹿児島県","city":"薩摩川内市","address":"東開聞町"},
{"zip_code":"8950026","kana_pref":"ｶｺﾞｼﾏｹﾝ","kana_city":"ｻﾂﾏｾﾝﾀﾞｲｼ","kana_address":"ﾋｶﾞｼﾑｺｳﾀﾞﾁｮｳ","pref":"鹿児島県","city":"薩摩川内市","address":"東向田町"},
{"zip_code":"8950053","kana_pref":"ｶｺﾞｼﾏｹﾝ","kana_city":"ｻﾂﾏｾﾝﾀﾞｲｼ","kana_address":"ﾋﾔﾐｽﾞﾁｮｳ","pref":"鹿児島県","city":"薩摩川内市","address":"冷水町"},
{"zip_code":"8950012","kana_pref":"ｶｺﾞｼﾏｹﾝ","kana_city":"ｻﾂﾏｾﾝﾀﾞｲｼ","kana_address":"ﾋﾗｻﾁｮｳ","pref":"鹿児島県","city":"薩摩川内市","address":"平佐町"},
{"zip_code":"8951203","kana_pref":"ｶｺﾞｼﾏｹﾝ","kana_city":"ｻﾂﾏｾﾝﾀﾞｲｼ","kana_address":"ﾋﾜｷﾁｮｳｲﾁﾋﾉ","pref":"鹿児島県","city":"薩摩川内市","address":"樋脇町市比野"},
{"zip_code":"8951201","kana_pref":"ｶｺﾞｼﾏｹﾝ","kana_city":"ｻﾂﾏｾﾝﾀﾞｲｼ","kana_address":"ﾋﾜｷﾁｮｳｸﾗﾉ","pref":"鹿児島県","city":"薩摩川内市","address":"樋脇町倉野"},
{"zip_code":"8951202","kana_pref":"ｶｺﾞｼﾏｹﾝ","kana_city":"ｻﾂﾏｾﾝﾀﾞｲｼ","kana_address":"ﾋﾜｷﾁｮｳﾄｳﾉﾊﾗ","pref":"鹿児島県","city":"薩摩川内市","address":"樋脇町塔之原"},
{"zip_code":"8950065","kana_pref":"ｶｺﾞｼﾏｹﾝ","kana_city":"ｻﾂﾏｾﾝﾀﾞｲｼ","kana_address":"ﾐﾔｳﾁﾁｮｳ","pref":"鹿児島県","city":"薩摩川内市","address":"宮内町"},
{"zip_code":"8950043","kana_pref":"ｶｺﾞｼﾏｹﾝ","kana_city":"ｻﾂﾏｾﾝﾀﾞｲｼ","kana_address":"ﾐﾔｺﾁｮｳ","pref":"鹿児島県","city":"薩摩川内市","address":"都町"},
{"zip_code":"8950013","kana_pref":"ｶｺﾞｼﾏｹﾝ","kana_city":"ｻﾂﾏｾﾝﾀﾞｲｼ","kana_address":"ﾐﾔｻﾞｷﾁｮｳ","pref":"鹿児島県","city":"薩摩川内市","address":"宮崎町"},
{"zip_code":"8950056","kana_pref":"ｶｺﾞｼﾏｹﾝ","kana_city":"ｻﾂﾏｾﾝﾀﾞｲｼ","kana_address":"ﾐﾔｻﾞﾄﾁｮｳ","pref":"鹿児島県","city":"薩摩川内市","address":"宮里町"},
{"zip_code":"8950025","kana_pref":"ｶｺﾞｼﾏｹﾝ","kana_city":"ｻﾂﾏｾﾝﾀﾞｲｼ","kana_address":"ﾑｺｳﾀﾞﾁｮｳ","pref":"鹿児島県","city":"薩摩川内市","address":"向田町"},
{"zip_code":"8950021","kana_pref":"ｶｺﾞｼﾏｹﾝ","kana_city":"ｻﾂﾏｾﾝﾀﾞｲｼ","kana_address":"ﾑｺｳﾀﾞﾎﾝﾏﾁ","pref":"鹿児島県","city":"薩摩川内市","address":"向田本町"},
{"zip_code":"8950007","kana_pref":"ｶｺﾞｼﾏｹﾝ","kana_city":"ｻﾂﾏｾﾝﾀﾞｲｼ","kana_address":"ﾓﾓﾂｷﾞﾁｮｳ","pref":"鹿児島県","city":"薩摩川内市","address":"百次町"},
{"zip_code":"8950036","kana_pref":"ｶｺﾞｼﾏｹﾝ","kana_city":"ｻﾂﾏｾﾝﾀﾞｲｼ","kana_address":"ﾔｸﾞﾗﾁｮｳ","pref":"鹿児島県","city":"薩摩川内市","address":"矢倉町"},
{"zip_code":"8950032","kana_pref":"ｶｺﾞｼﾏｹﾝ","kana_city":"ｻﾂﾏｾﾝﾀﾞｲｼ","kana_address":"ﾔﾏﾉｸﾁﾁｮｳ","pref":"鹿児島県","city":"薩摩川内市","address":"山之口町"},
{"zip_code":"8950212","kana_pref":"ｶｺﾞｼﾏｹﾝ","kana_city":"ｻﾂﾏｾﾝﾀﾞｲｼ","kana_address":"ﾖｳｾﾞｲﾁｮｳ","pref":"鹿児島県","city":"薩摩川内市","address":"陽成町"},
{"zip_code":"8950023","kana_pref":"ｶｺﾞｼﾏｹﾝ","kana_city":"ｻﾂﾏｾﾝﾀﾞｲｼ","kana_address":"ﾖｺﾊﾞﾊﾞﾁｮｳ","pref":"鹿児島県","city":"薩摩川内市","address":"横馬場町"},
{"zip_code":"8950133","kana_pref":"ｶｺﾞｼﾏｹﾝ","kana_city":"ｻﾂﾏｾﾝﾀﾞｲｼ","kana_address":"ﾖﾘﾀﾁｮｳ","pref":"鹿児島県","city":"薩摩川内市","address":"寄田町"},
{"zip_code":"8950063","kana_pref":"ｶｺﾞｼﾏｹﾝ","kana_city":"ｻﾂﾏｾﾝﾀﾞｲｼ","kana_address":"ﾜｶﾊﾞﾁｮｳ","pref":"鹿児島県","city":"薩摩川内市","address":"若葉町"},
{"zip_code":"8950054","kana_pref":"ｶｺﾞｼﾏｹﾝ","kana_city":"ｻﾂﾏｾﾝﾀﾞｲｼ","kana_address":"ﾜｶﾏﾂﾁｮｳ","pref":"鹿児島県","city":"薩摩川内市","address":"若松町"},
{"zip_code":"8952500","kana_pref":"ｶｺﾞｼﾏｹﾝ","kana_city":"ｲｻｼ","kana_address":"","pref":"鹿児島県","city":"伊佐市","address":""},
{"zip_code":"8952504","kana_pref":"ｶｺﾞｼﾏｹﾝ","kana_city":"ｲｻｼ","kana_address":"ｵｵｸﾁｱｵｷ","pref":"鹿児島県","city":"伊佐市","address":"大口青木"},
{"zip_code":"8952501","kana_pref":"ｶｺﾞｼﾏｹﾝ","kana_city":"ｲｻｼ","kana_address":"ｵｵｸﾁｳｼｵ","pref":"鹿児島県","city":"伊佐市","address":"大口牛尾"},
{"zip_code":"8952522","kana_pref":"ｶｺﾞｼﾏｹﾝ","kana_city":"ｲｻｼ","kana_address":"ｵｵｸﾁｵｵｼﾏ","pref":"鹿児島県","city":"伊佐市","address":"大口大島"},
{"zip_code":"8952507","kana_pref":"ｶｺﾞｼﾏｹﾝ","kana_city":"ｲｻｼ","kana_address":"ｵｵｸﾁｵｵﾀ","pref":"鹿児島県","city":"伊佐市","address":"大口大田"},
{"zip_code":"8952523","kana_pref":"ｶｺﾞｼﾏｹﾝ","kana_city":"ｲｻｼ","kana_address":"ｵｵｸﾁｶﾅﾊﾀﾞ","pref":"鹿児島県","city":"伊佐市","address":"大口金波田"},
{"zip_code":"8952513","kana_pref":"ｶｺﾞｼﾏｹﾝ","kana_city":"ｲｻｼ","kana_address":"ｵｵｸﾁｶﾐﾏﾁ","pref":"鹿児島県","city":"伊佐市","address":"大口上町"},
{"zip_code":"8952528","kana_pref":"ｶｺﾞｼﾏｹﾝ","kana_city":"ｲｻｼ","kana_address":"ｵｵｸﾁｶﾜｲﾜｾﾞ","pref":"鹿児島県","city":"伊佐市","address":"大口川岩瀬"},
{"zip_code":"8952502","kana_pref":"ｶｺﾞｼﾏｹﾝ","kana_city":"ｲｻｼ","kana_address":"ｵｵｸﾁｷﾉｳｼﾞ","pref":"鹿児島県","city":"伊佐市","address":"大口木ノ氏"},
{"zip_code":"8952634","kana_pref":"ｶｺﾞｼﾏｹﾝ","kana_city":"ｲｻｼ","kana_address":"ｵｵｸﾁｺｶﾞﾜｳﾁ","pref":"鹿児島県","city":"伊佐市","address":"大口小川内"},
{"zip_code":"8952631","kana_pref":"ｶｺﾞｼﾏｹﾝ","kana_city":"ｲｻｼ","kana_address":"ｵｵｸﾁｺｷﾞﾊﾗ","pref":"鹿児島県","city":"伊佐市","address":"大口小木原"},
{"zip_code":"8952511","kana_pref":"ｶｺﾞｼﾏｹﾝ","kana_city":"ｲｻｼ","kana_address":"ｵｵｸﾁｻﾄ","pref":"鹿児島県","city":"伊佐市","address":"大口里"},
{"zip_code":"8952503","kana_pref":"ｶｺﾞｼﾏｹﾝ","kana_city":"ｲｻｼ","kana_address":"ｵｵｸﾁｼﾉﾊﾗ","pref":"鹿児島県","city":"伊佐市","address":"大口篠原"},
{"zip_code":"8952525","kana_pref":"ｶｺﾞｼﾏｹﾝ","kana_city":"ｲｻｼ","kana_address":"ｵｵｸﾁｼﾓﾄﾉ","pref":"鹿児島県","city":"伊佐市","address":"大口下殿"},
{"zip_code":"8952529","kana_pref":"ｶｺﾞｼﾏｹﾝ","kana_city":"ｲｻｼ","kana_address":"ｵｵｸﾁｼﾗｷ","pref":"鹿児島県","city":"伊佐市","address":"大口白木"},
{"zip_code":"8952441","kana_pref":"ｶｺﾞｼﾏｹﾝ","kana_city":"ｲｻｼ","kana_address":"ｵｵｸﾁｿｷﾞ","pref":"鹿児島県","city":"伊佐市","address":"大口曽木"},
{"zip_code":"8952527","kana_pref":"ｶｺﾞｼﾏｹﾝ","kana_city":"ｲｻｼ","kana_address":"ｵｵｸﾁﾀｼﾛ","pref":"鹿児島県","city":"伊佐市","address":"大口田代"},
{"zip_code":"8952524","kana_pref":"ｶｺﾞｼﾏｹﾝ","kana_city":"ｲｻｼ","kana_address":"ｵｵｸﾁﾄﾞｳｻﾞｷ","pref":"鹿児島県","city":"伊佐市","address":"大口堂崎"},
{"zip_code":"8952521","kana_pref":"ｶｺﾞｼﾏｹﾝ","kana_city":"ｲｻｼ","kana_address":"ｵｵｸﾁﾄﾘｽ","pref":"鹿児島県","city":"伊佐市","address":"大口鳥巣"},
{"zip_code":"8952506","kana_pref":"ｶｺﾞｼﾏｹﾝ","kana_city":"ｲｻｼ","kana_address":"ｵｵｸﾁﾊﾗﾀﾞ","pref":"鹿児島県","city":"伊佐市","address":"大口原田"},
{"zip_code":"8952442","kana_pref":"ｶｺﾞｼﾏｹﾝ","kana_city":"ｲｻｼ","kana_address":"ｵｵｸﾁﾊﾘﾓﾁ","pref":"鹿児島県","city":"伊佐市","address":"大口針持"},
{"zip_code":"8952633","kana_pref":"ｶｺﾞｼﾏｹﾝ","kana_city":"ｲｻｼ","kana_address":"ｵｵｸﾁﾋﾗｲｽﾞﾐ","pref":"鹿児島県","city":"伊佐市","address":"大口平出水"},
{"zip_code":"8952632","kana_pref":"ｶｺﾞｼﾏｹﾝ","kana_city":"ｲｻｼ","kana_address":"ｵｵｸﾁﾌﾁﾍﾞ","pref":"鹿児島県","city":"伊佐市","address":"大口渕辺"},
{"zip_code":"8952526","kana_pref":"ｶｺﾞｼﾏｹﾝ","kana_city":"ｲｻｼ","kana_address":"ｵｵｸﾁﾐﾔﾋﾄ","pref":"鹿児島県","city":"伊佐市","address":"大口宮人"},
{"zip_code":"8952505","kana_pref":"ｶｺﾞｼﾏｹﾝ","kana_city":"ｲｻｼ","kana_address":"ｵｵｸﾁﾒﾏﾙ","pref":"鹿児島県","city":"伊佐市","address":"大口目丸"},
{"zip_code":"8952512","kana_pref":"ｶｺﾞｼﾏｹﾝ","kana_city":"ｲｻｼ","kana_address":"ｵｵｸﾁﾓﾄﾏﾁ","pref":"鹿児島県","city":"伊佐市","address":"大口元町"},
{"zip_code":"8952635","kana_pref":"ｶｺﾞｼﾏｹﾝ","kana_city":"ｲｻｼ","kana_address":"ｵｵｸﾁﾔﾏﾉ","pref":"鹿児島県","city":"伊佐市","address":"大口山野"},
{"zip_code":"8952811","kana_pref":"ｶｺﾞｼﾏｹﾝ","kana_city":"ｲｻｼ","kana_address":"ﾋｼｶﾘｱﾗﾀ","pref":"鹿児島県","city":"伊佐市","address":"菱刈荒田"},
{"zip_code":"8952704","kana_pref":"ｶｺﾞｼﾏｹﾝ","kana_city":"ｲｻｼ","kana_address":"ﾋｼｶﾘｲﾁﾔﾏ","pref":"鹿児島県","city":"伊佐市","address":"菱刈市山"},
{"zip_code":"8952708","kana_pref":"ｶｺﾞｼﾏｹﾝ","kana_city":"ｲｻｼ","kana_address":"ﾋｼｶﾘｶﾜｷﾀ","pref":"鹿児島県","city":"伊佐市","address":"菱刈川北"},
{"zip_code":"8952812","kana_pref":"ｶｺﾞｼﾏｹﾝ","kana_city":"ｲｻｼ","kana_address":"ﾋｼｶﾘｶﾜﾐﾅﾐ","pref":"鹿児島県","city":"伊佐市","address":"菱刈川南"},
{"zip_code":"8952705","kana_pref":"ｶｺﾞｼﾏｹﾝ","kana_city":"ｲｻｼ","kana_address":"ﾋｼｶﾘｼｹﾞﾄﾒ","pref":"鹿児島県","city":"伊佐市","address":"菱刈重留"},
{"zip_code":"8952702","kana_pref":"ｶｺﾞｼﾏｹﾝ","kana_city":"ｲｻｼ","kana_address":"ﾋｼｶﾘｼﾓﾃﾞ","pref":"鹿児島県","city":"伊佐市","address":"菱刈下手"},
{"zip_code":"8952706","kana_pref":"ｶｺﾞｼﾏｹﾝ","kana_city":"ｲｻｼ","kana_address":"ﾋｼｶﾘﾀﾅｶ","pref":"鹿児島県","city":"伊佐市","address":"菱刈田中"},
{"zip_code":"8952707","kana_pref":"ｶｺﾞｼﾏｹﾝ","kana_city":"ｲｻｼ","kana_address":"ﾋｼｶﾘﾄｸﾍﾞ","pref":"鹿児島県","city":"伊佐市","address":"菱刈徳辺"},
{"zip_code":"8952703","kana_pref":"ｶｺﾞｼﾏｹﾝ","kana_city":"ｲｻｼ","kana_address":"ﾋｼｶﾘﾊﾅｷﾀ","pref":"鹿児島県","city":"伊佐市","address":"菱刈花北"},
{"zip_code":"8952701","kana_pref":"ｶｺﾞｼﾏｹﾝ","kana_city":"ｲｻｼ","kana_address":"ﾋｼｶﾘﾏｴﾒ","pref":"鹿児島県","city":"伊佐市","address":"菱刈前目"},
{"zip_code":"8952813","kana_pref":"ｶｺﾞｼﾏｹﾝ","kana_city":"ｲｻｼ","kana_address":"ﾋｼｶﾘﾐﾅﾐｳﾗ","pref":"鹿児島県","city":"伊佐市","address":"菱刈南浦"},
{"zip_code":"8951800","kana_pref":"ｶｺﾞｼﾏｹﾝ","kana_city":"ｻﾂﾏｸﾞﾝｻﾂﾏﾁｮｳ","kana_address":"","pref":"鹿児島県","city":"薩摩郡さつま町","address":""},
{"zip_code":"8951814","kana_pref":"ｶｺﾞｼﾏｹﾝ","kana_city":"ｻﾂﾏｸﾞﾝｻﾂﾏﾁｮｳ","kana_address":"ｱｻﾋﾏﾁ","pref":"鹿児島県","city":"薩摩郡さつま町","address":"旭町"},
{"zip_code":"8952104","kana_pref":"ｶｺﾞｼﾏｹﾝ","kana_city":"ｻﾂﾏｸﾞﾝｻﾂﾏﾁｮｳ","kana_address":"ｶｼﾜﾊﾞﾙ","pref":"鹿児島県","city":"薩摩郡さつま町","address":"柏原"},
{"zip_code":"8952131","kana_pref":"ｶｺﾞｼﾏｹﾝ","kana_city":"ｻﾂﾏｸﾞﾝｻﾂﾏﾁｮｳ","kana_address":"ｸｷﾉ","pref":"鹿児島県","city":"薩摩郡さつま町","address":"柊野"},
{"zip_code":"8951722","kana_pref":"ｶｺﾞｼﾏｹﾝ","kana_city":"ｻﾂﾏｸﾞﾝｻﾂﾏﾁｮｳ","kana_address":"ｸﾌﾞｷ","pref":"鹿児島県","city":"薩摩郡さつま町","address":"久富木"},
{"zip_code":"8952201","kana_pref":"ｶｺﾞｼﾏｹﾝ","kana_city":"ｻﾂﾏｸﾞﾝｻﾂﾏﾁｮｳ","kana_address":"ｸﾞﾐｮｳ","pref":"鹿児島県","city":"薩摩郡さつま町","address":"求名"},
{"zip_code":"8952102","kana_pref":"ｶｺﾞｼﾏｹﾝ","kana_city":"ｻﾂﾏｸﾞﾝｻﾂﾏﾁｮｳ","kana_address":"ｺｳｼ","pref":"鹿児島県","city":"薩摩郡さつま町","address":"神子"},
{"zip_code":"8952103","kana_pref":"ｶｺﾞｼﾏｹﾝ","kana_city":"ｻﾂﾏｸﾞﾝｻﾂﾏﾁｮｳ","kana_address":"ｼﾋﾞ","pref":"鹿児島県","city":"薩摩郡さつま町","address":"紫尾"},
{"zip_code":"8951805","kana_pref":"ｶｺﾞｼﾏｹﾝ","kana_city":"ｻﾂﾏｸﾞﾝｻﾂﾏﾁｮｳ","kana_address":"ｼﾗｵｶﾞﾜ","pref":"鹿児島県","city":"薩摩郡さつま町","address":"白男川"},
{"zip_code":"8951802","kana_pref":"ｶｺﾞｼﾏｹﾝ","kana_city":"ｻﾂﾏｸﾞﾝｻﾂﾏﾁｮｳ","kana_address":"ﾀﾊﾞﾙ","pref":"鹿児島県","city":"薩摩郡さつま町","address":"田原"},
{"zip_code":"8952101","kana_pref":"ｶｺﾞｼﾏｹﾝ","kana_city":"ｻﾂﾏｸﾞﾝｻﾂﾏﾁｮｳ","kana_address":"ﾂﾙﾀﾞ","pref":"鹿児島県","city":"薩摩郡さつま町","address":"鶴田"},
{"zip_code":"8951816","kana_pref":"ｶｺﾞｼﾏｹﾝ","kana_city":"ｻﾂﾏｸﾞﾝｻﾂﾏﾁｮｳ","kana_address":"ﾄｷﾖｼ","pref":"鹿児島県","city":"薩摩郡さつま町","address":"時吉"},
{"zip_code":"8951813","kana_pref":"ｶｺﾞｼﾏｹﾝ","kana_city":"ｻﾂﾏｸﾞﾝｻﾂﾏﾁｮｳ","kana_address":"ﾄﾄﾞﾛﾏﾁ","pref":"鹿児島県","city":"薩摩郡さつま町","address":"轟町"},
{"zip_code":"8951806","kana_pref":"ｶｺﾞｼﾏｹﾝ","kana_city":"ｻﾂﾏｸﾞﾝｻﾂﾏﾁｮｳ","kana_address":"ﾄﾏﾘﾉ","pref":"鹿児島県","city":"薩摩郡さつま町","address":"泊野"},
{"zip_code":"8951811","kana_pref":"ｶｺﾞｼﾏｹﾝ","kana_city":"ｻﾂﾏｸﾞﾝｻﾂﾏﾁｮｳ","kana_address":"ﾄﾗｲ","pref":"鹿児島県","city":"薩摩郡さつま町","address":"虎居"},
{"zip_code":"8951812","kana_pref":"ｶｺﾞｼﾏｹﾝ","kana_city":"ｻﾂﾏｸﾞﾝｻﾂﾏﾁｮｳ","kana_address":"ﾄﾗｲﾏﾁ","pref":"鹿児島県","city":"薩摩郡さつま町","address":"虎居町"},
{"zip_code":"8952202","kana_pref":"ｶｺﾞｼﾏｹﾝ","kana_city":"ｻﾂﾏｸﾞﾝｻﾂﾏﾁｮｳ","kana_address":"ﾅｶﾂｶﾞﾜ","pref":"鹿児島県","city":"薩摩郡さつま町","address":"中津川"},
{"zip_code":"8952203","kana_pref":"ｶｺﾞｼﾏｹﾝ","kana_city":"ｻﾂﾏｸﾞﾝｻﾂﾏﾁｮｳ","kana_address":"ﾅｶﾞﾉ","pref":"鹿児島県","city":"薩摩郡さつま町","address":"永野"},
{"zip_code":"8951815","kana_pref":"ｶｺﾞｼﾏｹﾝ","kana_city":"ｻﾂﾏｸﾞﾝｻﾂﾏﾁｮｳ","kana_address":"ﾆｼｼﾝﾏﾁ","pref":"鹿児島県","city":"薩摩郡さつま町","address":"西新町"},
{"zip_code":"8951807","kana_pref":"ｶｺﾞｼﾏｹﾝ","kana_city":"ｻﾂﾏｸﾞﾝｻﾂﾏﾁｮｳ","kana_address":"ﾋﾗｶﾜ","pref":"鹿児島県","city":"薩摩郡さつま町","address":"平川"},
{"zip_code":"8951801","kana_pref":"ｶｺﾞｼﾏｹﾝ","kana_city":"ｻﾂﾏｸﾞﾝｻﾂﾏﾁｮｳ","kana_address":"ﾋﾛｾ","pref":"鹿児島県","city":"薩摩郡さつま町","address":"広瀬"},
{"zip_code":"8951723","kana_pref":"ｶｺﾞｼﾏｹﾝ","kana_city":"ｻﾂﾏｸﾞﾝｻﾂﾏﾁｮｳ","kana_address":"ﾌﾀﾜﾀﾘ","pref":"鹿児島県","city":"薩摩郡さつま町","address":"二渡"},
{"zip_code":"8951804","kana_pref":"ｶｺﾞｼﾏｹﾝ","kana_city":"ｻﾂﾏｸﾞﾝｻﾂﾏﾁｮｳ","kana_address":"ﾌﾅｷ","pref":"鹿児島県","city":"薩摩郡さつま町","address":"船木"},
{"zip_code":"8951803","kana_pref":"ｶｺﾞｼﾏｹﾝ","kana_city":"ｻﾂﾏｸﾞﾝｻﾂﾏﾁｮｳ","kana_address":"ﾐﾔﾉｼﾞｮｳﾔﾁ","pref":"鹿児島県","city":"薩摩郡さつま町","address":"宮之城屋地"},
{"zip_code":"8951721","kana_pref":"ｶｺﾞｼﾏｹﾝ","kana_city":"ｻﾂﾏｸﾞﾝｻﾂﾏﾁｮｳ","kana_address":"ﾔﾏｻｷ","pref":"鹿児島県","city":"薩摩郡さつま町","address":"山崎"},
{"zip_code":"8951817","kana_pref":"ｶｺﾞｼﾏｹﾝ","kana_city":"ｻﾂﾏｸﾞﾝｻﾂﾏﾁｮｳ","kana_address":"ﾕﾀﾞ","pref":"鹿児島県","city":"薩摩郡さつま町","address":"湯田"}]}