{"zip_code":[
{"zip_code":"8961301","kana_pref":"ｶｺﾞｼﾏｹﾝ","kana_city":"ｻﾂﾏｾﾝﾀﾞｲｼ","kana_address":"ｶｼﾏﾁｮｳｲﾑﾀ","pref":"鹿児島県","city":"薩摩川内市","address":"鹿島町藺牟田"},
{"zip_code":"8961203","kana_pref":"ｶｺﾞｼﾏｹﾝ","kana_city":"ｻﾂﾏｾﾝﾀﾞｲｼ","kana_address":"ｶﾐｺｼｷﾁｮｳｴｲｼ","pref":"鹿児島県","city":"薩摩川内市","address":"上甑町江石"},
{"zip_code":"8961204","kana_pref":"ｶｺﾞｼﾏｹﾝ","kana_city":"ｻﾂﾏｾﾝﾀﾞｲｼ","kana_address":"ｶﾐｺｼｷﾁｮｳｵｼﾏ","pref":"鹿児島県","city":"薩摩川内市","address":"上甑町小島"},
{"zip_code":"8961206","kana_pref":"ｶｺﾞｼﾏｹﾝ","kana_city":"ｻﾂﾏｾﾝﾀﾞｲｼ","kana_address":"ｶﾐｺｼｷﾁｮｳｸﾜﾉｳﾗ","pref":"鹿児島県","city":"薩摩川内市","address":"上甑町桑之浦"},
{"zip_code":"8961205","kana_pref":"ｶｺﾞｼﾏｹﾝ","kana_city":"ｻﾂﾏｾﾝﾀﾞｲｼ","kana_address":"ｶﾐｺｼｷﾁｮｳｾｶﾞﾐ","pref":"鹿児島県","city":"薩摩川内市","address":"上甑町瀬上"},
{"zip_code":"8961281","kana_pref":"ｶｺﾞｼﾏｹﾝ","kana_city":"ｻﾂﾏｾﾝﾀﾞｲｼ","kana_address":"ｶﾐｺｼｷﾁｮｳﾀｲﾗ","pref":"鹿児島県","city":"薩摩川内市","address":"上甑町平良"},
{"zip_code":"8961201","kana_pref":"ｶｺﾞｼﾏｹﾝ","kana_city":"ｻﾂﾏｾﾝﾀﾞｲｼ","kana_address":"ｶﾐｺｼｷﾁｮｳﾅｶｺｼｷ","pref":"鹿児島県","city":"薩摩川内市","address":"上甑町中甑"},
{"zip_code":"8961202","kana_pref":"ｶｺﾞｼﾏｹﾝ","kana_city":"ｻﾂﾏｾﾝﾀﾞｲｼ","kana_address":"ｶﾐｺｼｷﾁｮｳﾅｶﾉ","pref":"鹿児島県","city":"薩摩川内市","address":"上甑町中野"},
{"zip_code":"8961101","kana_pref":"ｶｺﾞｼﾏｹﾝ","kana_city":"ｻﾂﾏｾﾝﾀﾞｲｼ","kana_address":"ｻﾄﾁｮｳｻﾄ","pref":"鹿児島県","city":"薩摩川内市","address":"里町里"},
{"zip_code":"8961521","kana_pref":"ｶｺﾞｼﾏｹﾝ","kana_city":"ｻﾂﾏｾﾝﾀﾞｲｼ","kana_address":"ｼﾓｺｼｷﾁｮｳｱｵｾ","pref":"鹿児島県","city":"薩摩川内市","address":"下甑町青瀬"},
{"zip_code":"8961602","kana_pref":"ｶｺﾞｼﾏｹﾝ","kana_city":"ｻﾂﾏｾﾝﾀﾞｲｼ","kana_address":"ｼﾓｺｼｷﾁｮｳｶﾀﾉｳﾗ","pref":"鹿児島県","city":"薩摩川内市","address":"下甑町片野浦"},
{"zip_code":"8961412","kana_pref":"ｶｺﾞｼﾏｹﾝ","kana_city":"ｻﾂﾏｾﾝﾀﾞｲｼ","kana_address":"ｼﾓｺｼｷﾁｮｳｾｾﾉｳﾗ","pref":"鹿児島県","city":"薩摩川内市","address":"下甑町瀬々野浦"},
{"zip_code":"8961512","kana_pref":"ｶｺﾞｼﾏｹﾝ","kana_city":"ｻﾂﾏｾﾝﾀﾞｲｼ","kana_address":"ｼﾓｺｼｷﾁｮｳｾｾﾉｳﾗ","pref":"鹿児島県","city":"薩摩川内市","address":"下甑町瀬々野浦"},
{"zip_code":"8961601","kana_pref":"ｶｺﾞｼﾏｹﾝ","kana_city":"ｻﾂﾏｾﾝﾀﾞｲｼ","kana_address":"ｼﾓｺｼｷﾁｮｳﾃｳﾁ","pref":"鹿児島県","city":"薩摩川内市","address":"下甑町手打"},
{"zip_code":"8961411","kana_pref":"ｶｺﾞｼﾏｹﾝ","kana_city":"ｻﾂﾏｾﾝﾀﾞｲｼ","kana_address":"ｼﾓｺｼｷﾁｮｳﾅｶﾞﾊﾏ","pref":"鹿児島県","city":"薩摩川内市","address":"下甑町長浜"},
{"zip_code":"8960000","kana_pref":"ｶｺﾞｼﾏｹﾝ","kana_city":"ｲﾁｷｸｼｷﾉｼ","kana_address":"","pref":"鹿児島県","city":"いちき串木野市","address":""},
{"zip_code":"8960061","kana_pref":"ｶｺﾞｼﾏｹﾝ","kana_city":"ｲﾁｷｸｼｷﾉｼ","kana_address":"ｱｲｷﾞﾁｮｳ","pref":"鹿児島県","city":"いちき串木野市","address":"愛木町"},
{"zip_code":"8960001","kana_pref":"ｶｺﾞｼﾏｹﾝ","kana_city":"ｲﾁｷｸｼｷﾉｼ","kana_address":"ｱｹﾎﾞﾉﾁｮｳ","pref":"鹿児島県","city":"いちき串木野市","address":"曙町"},
{"zip_code":"8960015","kana_pref":"ｶｺﾞｼﾏｹﾝ","kana_city":"ｲﾁｷｸｼｷﾉｼ","kana_address":"ｱｻﾋﾏﾁ","pref":"鹿児島県","city":"いちき串木野市","address":"旭町"},
{"zip_code":"8960065","kana_pref":"ｶｺﾞｼﾏｹﾝ","kana_city":"ｲﾁｷｸｼｷﾉｼ","kana_address":"ｱﾗｶﾜ","pref":"鹿児島県","city":"いちき串木野市","address":"荒川"},
{"zip_code":"8960036","kana_pref":"ｶｺﾞｼﾏｹﾝ","kana_city":"ｲﾁｷｸｼｷﾉｼ","kana_address":"ｳﾗﾜﾁｮｳ","pref":"鹿児島県","city":"いちき串木野市","address":"浦和町"},
{"zip_code":"8960027","kana_pref":"ｶｺﾞｼﾏｹﾝ","kana_city":"ｲﾁｷｸｼｷﾉｼ","kana_address":"ｴﾋﾞｽﾁｮｳ","pref":"鹿児島県","city":"いちき串木野市","address":"恵比須町"},
{"zip_code":"8960011","kana_pref":"ｶｺﾞｼﾏｹﾝ","kana_city":"ｲﾁｷｸｼｷﾉｼ","kana_address":"ｵｵﾊﾙﾏﾁ","pref":"鹿児島県","city":"いちき串木野市","address":"大原町"},
{"zip_code":"8960025","kana_pref":"ｶｺﾞｼﾏｹﾝ","kana_city":"ｲﾁｷｸｼｷﾉｼ","kana_address":"ｵｸﾗﾁｮｳ","pref":"鹿児島県","city":"いちき串木野市","address":"御倉町"},
{"zip_code":"8960057","kana_pref":"ｶｺﾞｼﾏｹﾝ","kana_city":"ｲﾁｷｸｼｷﾉｼ","kana_address":"ｶｲｾﾞ","pref":"鹿児島県","city":"いちき串木野市","address":"海瀬"},
{"zip_code":"8960002","kana_pref":"ｶｺﾞｼﾏｹﾝ","kana_city":"ｲﾁｷｸｼｷﾉｼ","kana_address":"ｶｽｶﾞﾁｮｳ","pref":"鹿児島県","city":"いちき串木野市","address":"春日町"},
{"zip_code":"8960052","kana_pref":"ｶｺﾞｼﾏｹﾝ","kana_city":"ｲﾁｷｸｼｷﾉｼ","kana_address":"ｶﾝﾐｮｳ","pref":"鹿児島県","city":"いちき串木野市","address":"上名"},
{"zip_code":"8960051","kana_pref":"ｶｺﾞｼﾏｹﾝ","kana_city":"ｲﾁｷｸｼｷﾉｼ","kana_address":"ｶﾝﾑﾘﾀﾞｹ","pref":"鹿児島県","city":"いちき串木野市","address":"冠嶽"},
{"zip_code":"8960041","kana_pref":"ｶｺﾞｼﾏｹﾝ","kana_city":"ｲﾁｷｸｼｷﾉｼ","kana_address":"ｷﾀﾊﾏﾁｮｳ","pref":"鹿児島県","city":"いちき串木野市","address":"北浜町"},
{"zip_code":"8960003","kana_pref":"ｶｺﾞｼﾏｹﾝ","kana_city":"ｲﾁｷｸｼｷﾉｼ","kana_address":"ｷｮｳﾏﾁ","pref":"鹿児島県","city":"いちき串木野市","address":"京町"},
{"zip_code":"8960075","kana_pref":"ｶｺﾞｼﾏｹﾝ","kana_city":"ｲﾁｷｸｼｷﾉｼ","kana_address":"ｷﾝｻﾞﾝ","pref":"鹿児島県","city":"いちき串木野市","address":"金山"},
{"zip_code":"8960074","kana_pref":"ｶｺﾞｼﾏｹﾝ","kana_city":"ｲﾁｷｸｼｷﾉｼ","kana_address":"ｷﾝｻﾞﾝｼﾓ","pref":"鹿児島県","city":"いちき串木野市","address":"金山下"},
{"zip_code":"8960063","kana_pref":"ｶｺﾞｼﾏｹﾝ","kana_city":"ｲﾁｷｸｼｷﾉｼ","kana_address":"ｸﾁﾉﾏﾁ","pref":"鹿児島県","city":"いちき串木野市","address":"口之町"},
{"zip_code":"8960034","kana_pref":"ｶｺﾞｼﾏｹﾝ","kana_city":"ｲﾁｷｸｼｷﾉｼ","kana_address":"ｺｾﾞﾁｮｳ","pref":"鹿児島県","city":"いちき串木野市","address":"小瀬町"},
{"zip_code":"8960013","kana_pref":"ｶｺﾞｼﾏｹﾝ","kana_city":"ｲﾁｷｸｼｷﾉｼ","kana_address":"ｻｶｴﾏﾁ","pref":"鹿児島県","city":"いちき串木野市","address":"栄町"},
{"zip_code":"8960016","kana_pref":"ｶｺﾞｼﾏｹﾝ","kana_city":"ｲﾁｷｸｼｷﾉｼ","kana_address":"ｻｸﾗﾏﾁ","pref":"鹿児島県","city":"いちき串木野市","address":"桜町"},
{"zip_code":"8960072","kana_pref":"ｶｺﾞｼﾏｹﾝ","kana_city":"ｲﾁｷｸｼｷﾉｼ","kana_address":"ｻﾂﾏﾔﾏ","pref":"鹿児島県","city":"いちき串木野市","address":"薩摩山"},
{"zip_code":"8960004","kana_pref":"ｶｺﾞｼﾏｹﾝ","kana_city":"ｲﾁｷｸｼｷﾉｼ","kana_address":"ｼｵﾐﾁｮｳ","pref":"鹿児島県","city":"いちき串木野市","address":"汐見町"},
{"zip_code":"8960023","kana_pref":"ｶｺﾞｼﾏｹﾝ","kana_city":"ｲﾁｷｸｼｷﾉｼ","kana_address":"ｼｵﾔﾁｮｳ","pref":"鹿児島県","city":"いちき串木野市","address":"塩屋町"},
{"zip_code":"8960053","kana_pref":"ｶｺﾞｼﾏｹﾝ","kana_city":"ｲﾁｷｸｼｷﾉｼ","kana_address":"ｼﾓﾝﾐｮｳ","pref":"鹿児島県","city":"いちき串木野市","address":"下名"},
{"zip_code":"8960026","kana_pref":"ｶｺﾞｼﾏｹﾝ","kana_city":"ｲﾁｷｸｼｷﾉｼ","kana_address":"ｼｮｳﾜﾄﾞｵﾘ","pref":"鹿児島県","city":"いちき串木野市","address":"昭和通"},
{"zip_code":"8960035","kana_pref":"ｶｺﾞｼﾏｹﾝ","kana_city":"ｲﾁｷｸｼｷﾉｼ","kana_address":"ｼﾝｾｲﾁｮｳ","pref":"鹿児島県","city":"いちき串木野市","address":"新生町"},
{"zip_code":"8960021","kana_pref":"ｶｺﾞｼﾏｹﾝ","kana_city":"ｲﾁｷｸｼｷﾉｼ","kana_address":"ｽﾐﾖｼﾁｮｳ","pref":"鹿児島県","city":"いちき串木野市","address":"住吉町"},
{"zip_code":"8960046","kana_pref":"ｶｺﾞｼﾏｹﾝ","kana_city":"ｲﾁｷｸｼｷﾉｼ","kana_address":"ｾｲｻﾂﾁｮｳ","pref":"鹿児島県","city":"いちき串木野市","address":"西薩町"},
{"zip_code":"8960076","kana_pref":"ｶｺﾞｼﾏｹﾝ","kana_city":"ｲﾁｷｸｼｷﾉｼ","kana_address":"ｾﾘｶﾞﾉ","pref":"鹿児島県","city":"いちき串木野市","address":"芹ケ野"},
{"zip_code":"8960017","kana_pref":"ｶｺﾞｼﾏｹﾝ","kana_city":"ｲﾁｷｸｼｷﾉｼ","kana_address":"ﾀｶﾐﾁｮｳ","pref":"鹿児島県","city":"いちき串木野市","address":"高見町"},
{"zip_code":"8960055","kana_pref":"ｶｺﾞｼﾏｹﾝ","kana_city":"ｲﾁｷｸｼｷﾉｼ","kana_address":"ﾃﾙｼﾏ","pref":"鹿児島県","city":"いちき串木野市","address":"照島"},
{"zip_code":"8960012","kana_pref":"ｶｺﾞｼﾏｹﾝ","kana_city":"ｲﾁｷｸｼｷﾉｼ","kana_address":"ﾅｶｵﾁｮｳ","pref":"鹿児島県","city":"いちき串木野市","address":"中尾町"},
{"zip_code":"8960033","kana_pref":"ｶｺﾞｼﾏｹﾝ","kana_city":"ｲﾁｷｸｼｷﾉｼ","kana_address":"ﾅｶﾞｻｷﾁｮｳ","pref":"鹿児島県","city":"いちき串木野市","address":"長崎町"},
{"zip_code":"8960005","kana_pref":"ｶｺﾞｼﾏｹﾝ","kana_city":"ｲﾁｷｸｼｷﾉｼ","kana_address":"ﾆｼｴﾝﾃﾞﾝﾁｮｳ","pref":"鹿児島県","city":"いちき串木野市","address":"西塩田町"},
{"zip_code":"8960032","kana_pref":"ｶｺﾞｼﾏｹﾝ","kana_city":"ｲﾁｷｸｼｷﾉｼ","kana_address":"ﾆｼｼﾏﾋﾞﾗﾁｮｳ","pref":"鹿児島県","city":"いちき串木野市","address":"西島平町"},
{"zip_code":"8960044","kana_pref":"ｶｺﾞｼﾏｹﾝ","kana_city":"ｲﾁｷｸｼｷﾉｼ","kana_address":"ﾆｼﾊﾏﾁｮｳ","pref":"鹿児島県","city":"いちき串木野市","address":"西浜町"},
{"zip_code":"8960073","kana_pref":"ｶｺﾞｼﾏｹﾝ","kana_city":"ｲﾁｷｸｼｷﾉｼ","kana_address":"ﾉｼﾀ","pref":"鹿児島県","city":"いちき串木野市","address":"野下"},
{"zip_code":"8960066","kana_pref":"ｶｺﾞｼﾏｹﾝ","kana_city":"ｲﾁｷｸｼｷﾉｼ","kana_address":"ﾉﾓﾄ","pref":"鹿児島県","city":"いちき串木野市","address":"野元"},
{"zip_code":"8960064","kana_pref":"ｶｺﾞｼﾏｹﾝ","kana_city":"ｲﾁｷｸｼｷﾉｼ","kana_address":"ﾊｼﾏ","pref":"鹿児島県","city":"いちき串木野市","address":"羽島"},
{"zip_code":"8960069","kana_pref":"ｶｺﾞｼﾏｹﾝ","kana_city":"ｲﾁｷｸｼｷﾉｼ","kana_address":"ﾊﾏｶﾞｼﾞｮｳ","pref":"鹿児島県","city":"いちき串木野市","address":"浜ケ城"},
{"zip_code":"8960062","kana_pref":"ｶｺﾞｼﾏｹﾝ","kana_city":"ｲﾁｷｸｼｷﾉｼ","kana_address":"ﾊﾏﾀﾞﾁｮｳ","pref":"鹿児島県","city":"いちき串木野市","address":"浜田町"},
{"zip_code":"8960006","kana_pref":"ｶｺﾞｼﾏｹﾝ","kana_city":"ｲﾁｷｸｼｷﾉｼ","kana_address":"ﾋｶﾞｼｴﾝﾃﾞﾝﾁｮｳ","pref":"鹿児島県","city":"いちき串木野市","address":"東塩田町"},
{"zip_code":"8960031","kana_pref":"ｶｺﾞｼﾏｹﾝ","kana_city":"ｲﾁｷｸｼｷﾉｼ","kana_address":"ﾋｶﾞｼｼﾏﾋﾞﾗﾁｮｳ","pref":"鹿児島県","city":"いちき串木野市","address":"東島平町"},
{"zip_code":"8960054","kana_pref":"ｶｺﾞｼﾏｹﾝ","kana_city":"ｲﾁｷｸｼｷﾉｼ","kana_address":"ﾋﾉﾃﾞﾁｮｳ","pref":"鹿児島県","city":"いちき串木野市","address":"日出町"},
{"zip_code":"8960028","kana_pref":"ｶｺﾞｼﾏｹﾝ","kana_city":"ｲﾁｷｸｼｷﾉｼ","kana_address":"ﾋﾊﾞﾘｶﾞｵｶ","pref":"鹿児島県","city":"いちき串木野市","address":"ひばりが丘"},
{"zip_code":"8960067","kana_pref":"ｶｺﾞｼﾏｹﾝ","kana_city":"ｲﾁｷｸｼｷﾉｼ","kana_address":"ﾋﾗｴ","pref":"鹿児島県","city":"いちき串木野市","address":"平江"},
{"zip_code":"8960071","kana_pref":"ｶｺﾞｼﾏｹﾝ","kana_city":"ｲﾁｷｸｼｷﾉｼ","kana_address":"ﾌｶﾀｶﾐ","pref":"鹿児島県","city":"いちき串木野市","address":"深田上"},
{"zip_code":"8960077","kana_pref":"ｶｺﾞｼﾏｹﾝ","kana_city":"ｲﾁｷｸｼｷﾉｼ","kana_address":"ﾌｶﾀｼﾓ","pref":"鹿児島県","city":"いちき串木野市","address":"深田下"},
{"zip_code":"8960037","kana_pref":"ｶｺﾞｼﾏｹﾝ","kana_city":"ｲﾁｷｸｼｷﾉｼ","kana_address":"ﾍﾞｯﾌﾟ","pref":"鹿児島県","city":"いちき串木野市","address":"別府"},
{"zip_code":"8960045","kana_pref":"ｶｺﾞｼﾏｹﾝ","kana_city":"ｲﾁｷｸｼｷﾉｼ","kana_address":"ﾏｸﾞﾛﾎﾝﾏﾁ","pref":"鹿児島県","city":"いちき串木野市","address":"まぐろ本町"},
{"zip_code":"8960024","kana_pref":"ｶｺﾞｼﾏｹﾝ","kana_city":"ｲﾁｷｸｼｷﾉｼ","kana_address":"ﾐｽﾐﾁｮｳ","pref":"鹿児島県","city":"いちき串木野市","address":"美住町"},
{"zip_code":"8960068","kana_pref":"ｶｺﾞｼﾏｹﾝ","kana_city":"ｲﾁｷｸｼｷﾉｼ","kana_address":"ﾐﾂｲ","pref":"鹿児島県","city":"いちき串木野市","address":"三井"},
{"zip_code":"8960022","kana_pref":"ｶｺﾞｼﾏｹﾝ","kana_city":"ｲﾁｷｸｼｷﾉｼ","kana_address":"ﾐﾄﾞﾘﾏﾁ","pref":"鹿児島県","city":"いちき串木野市","address":"緑町"},
{"zip_code":"8960043","kana_pref":"ｶｺﾞｼﾏｹﾝ","kana_city":"ｲﾁｷｸｼｷﾉｼ","kana_address":"ﾐﾅﾄﾏﾁ","pref":"鹿児島県","city":"いちき串木野市","address":"港町"},
{"zip_code":"8960042","kana_pref":"ｶｺﾞｼﾏｹﾝ","kana_city":"ｲﾁｷｸｼｷﾉｼ","kana_address":"ﾓﾄﾊﾏﾁｮｳ","pref":"鹿児島県","city":"いちき串木野市","address":"本浜町"},
{"zip_code":"8960014","kana_pref":"ｶｺﾞｼﾏｹﾝ","kana_city":"ｲﾁｷｸｼｷﾉｼ","kana_address":"ﾓﾄﾏﾁ","pref":"鹿児島県","city":"いちき串木野市","address":"元町"},
{"zip_code":"8960056","kana_pref":"ｶｺﾞｼﾏｹﾝ","kana_city":"ｲﾁｷｸｼｷﾉｼ","kana_address":"ﾔﾌｻ","pref":"鹿児島県","city":"いちき串木野市","address":"八房"}]}