{"zip_code":[
{"zip_code":"8970000","kana_pref":"ｶｺﾞｼﾏｹﾝ","kana_city":"ﾐﾅﾐｻﾂﾏｼ","kana_address":"","pref":"鹿児島県","city":"南さつま市","address":""},
{"zip_code":"8971201","kana_pref":"ｶｺﾞｼﾏｹﾝ","kana_city":"ﾐﾅﾐｻﾂﾏｼ","kana_address":"ｵｵｳﾗﾁｮｳ","pref":"鹿児島県","city":"南さつま市","address":"大浦町"},
{"zip_code":"8971302","kana_pref":"ｶｺﾞｼﾏｹﾝ","kana_city":"ﾐﾅﾐｻﾂﾏｼ","kana_address":"ｶｻｻﾁｮｳｱｺｳｷﾞ","pref":"鹿児島県","city":"南さつま市","address":"笠沙町赤生木"},
{"zip_code":"8971301","kana_pref":"ｶｺﾞｼﾏｹﾝ","kana_city":"ﾐﾅﾐｻﾂﾏｼ","kana_address":"ｶｻｻﾁｮｳｶﾀｳﾗ","pref":"鹿児島県","city":"南さつま市","address":"笠沙町片浦"},
{"zip_code":"8970004","kana_pref":"ｶｺﾞｼﾏｹﾝ","kana_city":"ﾐﾅﾐｻﾂﾏｼ","kana_address":"ｶｾﾀﾞｳﾁﾔﾏﾀﾞ","pref":"鹿児島県","city":"南さつま市","address":"加世田内山田"},
{"zip_code":"8970003","kana_pref":"ｶｺﾞｼﾏｹﾝ","kana_city":"ﾐﾅﾐｻﾂﾏｼ","kana_address":"ｶｾﾀﾞｶﾜﾊﾞﾀ","pref":"鹿児島県","city":"南さつま市","address":"加世田川畑"},
{"zip_code":"8971122","kana_pref":"ｶｺﾞｼﾏｹﾝ","kana_city":"ﾐﾅﾐｻﾂﾏｼ","kana_address":"ｶｾﾀﾞｺﾐﾅﾄ","pref":"鹿児島県","city":"南さつま市","address":"加世田小湊"},
{"zip_code":"8970008","kana_pref":"ｶｺﾞｼﾏｹﾝ","kana_city":"ﾐﾅﾐｻﾂﾏｼ","kana_address":"ｶｾﾀﾞｼﾞﾄｳｼｮ","pref":"鹿児島県","city":"南さつま市","address":"加世田地頭所"},
{"zip_code":"8970007","kana_pref":"ｶｺﾞｼﾏｹﾝ","kana_city":"ﾐﾅﾐｻﾂﾏｼ","kana_address":"ｶｾﾀﾞｼﾗｶﾒ","pref":"鹿児島県","city":"南さつま市","address":"加世田白亀"},
{"zip_code":"8971123","kana_pref":"ｶｺﾞｼﾏｹﾝ","kana_city":"ﾐﾅﾐｻﾂﾏｼ","kana_address":"ｶｾﾀﾞﾀｶﾊｼ","pref":"鹿児島県","city":"南さつま市","address":"加世田高橋"},
{"zip_code":"8970002","kana_pref":"ｶｺﾞｼﾏｹﾝ","kana_city":"ﾐﾅﾐｻﾂﾏｼ","kana_address":"ｶｾﾀﾞﾀｹﾀﾞ","pref":"鹿児島県","city":"南さつま市","address":"加世田武田"},
{"zip_code":"8971121","kana_pref":"ｶｺﾞｼﾏｹﾝ","kana_city":"ﾐﾅﾐｻﾂﾏｼ","kana_address":"ｶｾﾀﾞﾄｳｼﾞﾝﾊﾞﾗ","pref":"鹿児島県","city":"南さつま市","address":"加世田唐仁原"},
{"zip_code":"8970009","kana_pref":"ｶｺﾞｼﾏｹﾝ","kana_city":"ﾐﾅﾐｻﾂﾏｼ","kana_address":"ｶｾﾀﾞﾊｰﾓﾆｰ","pref":"鹿児島県","city":"南さつま市","address":"加世田ハーモニー"},
{"zip_code":"8970031","kana_pref":"ｶｺﾞｼﾏｹﾝ","kana_city":"ﾐﾅﾐｻﾂﾏｼ","kana_address":"ｶｾﾀﾞﾋｶﾞｼﾎﾝﾁｮｳ","pref":"鹿児島県","city":"南さつま市","address":"加世田東本町"},
{"zip_code":"8970005","kana_pref":"ｶｺﾞｼﾏｹﾝ","kana_city":"ﾐﾅﾐｻﾂﾏｼ","kana_address":"ｶｾﾀﾞﾌﾓﾄﾁｮｳ","pref":"鹿児島県","city":"南さつま市","address":"加世田麓町"},
{"zip_code":"8970006","kana_pref":"ｶｺﾞｼﾏｹﾝ","kana_city":"ﾐﾅﾐｻﾂﾏｼ","kana_address":"ｶｾﾀﾞﾎﾝﾁｮｳ","pref":"鹿児島県","city":"南さつま市","address":"加世田本町"},
{"zip_code":"8971125","kana_pref":"ｶｺﾞｼﾏｹﾝ","kana_city":"ﾐﾅﾐｻﾂﾏｼ","kana_address":"ｶｾﾀﾞﾏｽﾔﾏ","pref":"鹿児島県","city":"南さつま市","address":"加世田益山"},
{"zip_code":"8971124","kana_pref":"ｶｺﾞｼﾏｹﾝ","kana_city":"ﾐﾅﾐｻﾂﾏｼ","kana_address":"ｶｾﾀﾞﾐﾔﾊﾞﾗ","pref":"鹿児島県","city":"南さつま市","address":"加世田宮原"},
{"zip_code":"8970001","kana_pref":"ｶｺﾞｼﾏｹﾝ","kana_city":"ﾐﾅﾐｻﾂﾏｼ","kana_address":"ｶｾﾀﾞﾑﾗﾊﾗ","pref":"鹿児島県","city":"南さつま市","address":"加世田村原"},
{"zip_code":"8970200","kana_pref":"ｶｺﾞｼﾏｹﾝ","kana_city":"ﾐﾅﾐｷｭｳｼｭｳｼ","kana_address":"","pref":"鹿児島県","city":"南九州市","address":""},
{"zip_code":"8970212","kana_pref":"ｶｺﾞｼﾏｹﾝ","kana_city":"ﾐﾅﾐｷｭｳｼｭｳｼ","kana_address":"ｶﾜﾅﾍﾞﾁｮｳｲﾏﾀﾞ","pref":"鹿児島県","city":"南九州市","address":"川辺町今田"},
{"zip_code":"8970213","kana_pref":"ｶｺﾞｼﾏｹﾝ","kana_city":"ﾐﾅﾐｷｭｳｼｭｳｼ","kana_address":"ｶﾜﾅﾍﾞﾁｮｳｵﾉ","pref":"鹿児島県","city":"南九州市","address":"川辺町小野"},
{"zip_code":"8970131","kana_pref":"ｶｺﾞｼﾏｹﾝ","kana_city":"ﾐﾅﾐｷｭｳｼｭｳｼ","kana_address":"ｶﾜﾅﾍﾞﾁｮｳｶﾐﾔﾏﾀﾞ","pref":"鹿児島県","city":"南九州市","address":"川辺町上山田"},
{"zip_code":"8970202","kana_pref":"ｶｺﾞｼﾏｹﾝ","kana_city":"ﾐﾅﾐｷｭｳｼｭｳｼ","kana_address":"ｶﾜﾅﾍﾞﾁｮｳｷﾖﾐｽﾞ","pref":"鹿児島県","city":"南九州市","address":"川辺町清水"},
{"zip_code":"8970201","kana_pref":"ｶｺﾞｼﾏｹﾝ","kana_city":"ﾐﾅﾐｷｭｳｼｭｳｼ","kana_address":"ｶﾜﾅﾍﾞﾁｮｳｺｳﾄﾞﾉ","pref":"鹿児島県","city":"南九州市","address":"川辺町神殿"},
{"zip_code":"8970133","kana_pref":"ｶｺﾞｼﾏｹﾝ","kana_city":"ﾐﾅﾐｷｭｳｼｭｳｼ","kana_address":"ｶﾜﾅﾍﾞﾁｮｳｼﾓﾔﾏﾀﾞ","pref":"鹿児島県","city":"南九州市","address":"川辺町下山田"},
{"zip_code":"8970223","kana_pref":"ｶｺﾞｼﾏｹﾝ","kana_city":"ﾐﾅﾐｷｭｳｼｭｳｼ","kana_address":"ｶﾜﾅﾍﾞﾁｮｳﾀｶﾀ","pref":"鹿児島県","city":"南九州市","address":"川辺町高田"},
{"zip_code":"8970221","kana_pref":"ｶｺﾞｼﾏｹﾝ","kana_city":"ﾐﾅﾐｷｭｳｼｭｳｼ","kana_address":"ｶﾜﾅﾍﾞﾁｮｳﾀﾍﾞﾀ","pref":"鹿児島県","city":"南九州市","address":"川辺町田部田"},
{"zip_code":"8970222","kana_pref":"ｶｺﾞｼﾏｹﾝ","kana_city":"ﾐﾅﾐｷｭｳｼｭｳｼ","kana_address":"ｶﾜﾅﾍﾞﾁｮｳﾅｶﾞﾀ","pref":"鹿児島県","city":"南九州市","address":"川辺町永田"},
{"zip_code":"8970132","kana_pref":"ｶｺﾞｼﾏｹﾝ","kana_city":"ﾐﾅﾐｷｭｳｼｭｳｼ","kana_address":"ｶﾜﾅﾍﾞﾁｮｳﾅｶﾔﾏﾀﾞ","pref":"鹿児島県","city":"南九州市","address":"川辺町中山田"},
{"zip_code":"8970203","kana_pref":"ｶｺﾞｼﾏｹﾝ","kana_city":"ﾐﾅﾐｷｭｳｼｭｳｼ","kana_address":"ｶﾜﾅﾍﾞﾁｮｳﾉｻｷ","pref":"鹿児島県","city":"南九州市","address":"川辺町野崎"},
{"zip_code":"8970205","kana_pref":"ｶｺﾞｼﾏｹﾝ","kana_city":"ﾐﾅﾐｷｭｳｼｭｳｼ","kana_address":"ｶﾜﾅﾍﾞﾁｮｳﾉﾏ","pref":"鹿児島県","city":"南九州市","address":"川辺町野間"},
{"zip_code":"8970215","kana_pref":"ｶｺﾞｼﾏｹﾝ","kana_city":"ﾐﾅﾐｷｭｳｼｭｳｼ","kana_address":"ｶﾜﾅﾍﾞﾁｮｳﾋﾗﾔﾏ","pref":"鹿児島県","city":"南九州市","address":"川辺町平山"},
{"zip_code":"8970204","kana_pref":"ｶｺﾞｼﾏｹﾝ","kana_city":"ﾐﾅﾐｷｭｳｼｭｳｼ","kana_address":"ｶﾜﾅﾍﾞﾁｮｳﾌﾙﾄﾉ","pref":"鹿児島県","city":"南九州市","address":"川辺町古殿"},
{"zip_code":"8970214","kana_pref":"ｶｺﾞｼﾏｹﾝ","kana_city":"ﾐﾅﾐｷｭｳｼｭｳｼ","kana_address":"ｶﾜﾅﾍﾞﾁｮｳﾐﾔ","pref":"鹿児島県","city":"南九州市","address":"川辺町宮"},
{"zip_code":"8970224","kana_pref":"ｶｺﾞｼﾏｹﾝ","kana_city":"ﾐﾅﾐｷｭｳｼｭｳｼ","kana_address":"ｶﾜﾅﾍﾞﾁｮｳﾓﾄﾍﾞｯﾌﾟ","pref":"鹿児島県","city":"南九州市","address":"川辺町本別府"},
{"zip_code":"8970211","kana_pref":"ｶｺﾞｼﾏｹﾝ","kana_city":"ﾐﾅﾐｷｭｳｼｭｳｼ","kana_address":"ｶﾜﾅﾍﾞﾁｮｳﾘｮｳｿﾞｴ","pref":"鹿児島県","city":"南九州市","address":"川辺町両添"},
{"zip_code":"8970301","kana_pref":"ｶｺﾞｼﾏｹﾝ","kana_city":"ﾐﾅﾐｷｭｳｼｭｳｼ","kana_address":"ﾁﾗﾝﾁｮｳｱﾂﾁ","pref":"鹿児島県","city":"南九州市","address":"知覧町厚地"},
{"zip_code":"8970302","kana_pref":"ｶｺﾞｼﾏｹﾝ","kana_city":"ﾐﾅﾐｷｭｳｼｭｳｼ","kana_address":"ﾁﾗﾝﾁｮｳｺｵﾘ","pref":"鹿児島県","city":"南九州市","address":"知覧町郡"},
{"zip_code":"8970305","kana_pref":"ｶｺﾞｼﾏｹﾝ","kana_city":"ﾐﾅﾐｷｭｳｼｭｳｼ","kana_address":"ﾁﾗﾝﾁｮｳｾｾ","pref":"鹿児島県","city":"南九州市","address":"知覧町瀬世"},
{"zip_code":"8970303","kana_pref":"ｶｺﾞｼﾏｹﾝ","kana_city":"ﾐﾅﾐｷｭｳｼｭｳｼ","kana_address":"ﾁﾗﾝﾁｮｳﾅｶﾞｻﾄ","pref":"鹿児島県","city":"南九州市","address":"知覧町永里"},
{"zip_code":"8970306","kana_pref":"ｶｺﾞｼﾏｹﾝ","kana_city":"ﾐﾅﾐｷｭｳｼｭｳｼ","kana_address":"ﾁﾗﾝﾁｮｳﾆｼﾓﾄ","pref":"鹿児島県","city":"南九州市","address":"知覧町西元"},
{"zip_code":"8970304","kana_pref":"ｶｺﾞｼﾏｹﾝ","kana_city":"ﾐﾅﾐｷｭｳｼｭｳｼ","kana_address":"ﾁﾗﾝﾁｮｳﾋｶﾞｼﾍﾞｯﾌﾟ","pref":"鹿児島県","city":"南九州市","address":"知覧町東別府"}]}