{"zip_code":[
{"zip_code":"8980000","kana_pref":"ｶｺﾞｼﾏｹﾝ","kana_city":"ﾏｸﾗｻﾞｷｼ","kana_address":"","pref":"鹿児島県","city":"枕崎市","address":""},
{"zip_code":"8980080","kana_pref":"ｶｺﾞｼﾏｹﾝ","kana_city":"ﾏｸﾗｻﾞｷｼ","kana_address":"ｱｹﾎﾞﾉﾁｮｳ","pref":"鹿児島県","city":"枕崎市","address":"あけぼの町"},
{"zip_code":"8980008","kana_pref":"ｶｺﾞｼﾏｹﾝ","kana_city":"ﾏｸﾗｻﾞｷｼ","kana_address":"ｱｻﾋﾏﾁ","pref":"鹿児島県","city":"枕崎市","address":"旭町"},
{"zip_code":"8980006","kana_pref":"ｶｺﾞｼﾏｹﾝ","kana_city":"ﾏｸﾗｻﾞｷｼ","kana_address":"ｲｽﾞﾐﾏﾁ","pref":"鹿児島県","city":"枕崎市","address":"泉町"},
{"zip_code":"8980084","kana_pref":"ｶｺﾞｼﾏｹﾝ","kana_city":"ﾏｸﾗｻﾞｷｼ","kana_address":"ｲﾀｼｷﾆｼﾏﾁ","pref":"鹿児島県","city":"枕崎市","address":"板敷西町"},
{"zip_code":"8980082","kana_pref":"ｶｺﾞｼﾏｹﾝ","kana_city":"ﾏｸﾗｻﾞｷｼ","kana_address":"ｲﾀｼｷﾎﾝﾏﾁ","pref":"鹿児島県","city":"枕崎市","address":"板敷本町"},
{"zip_code":"8980083","kana_pref":"ｶｺﾞｼﾏｹﾝ","kana_city":"ﾏｸﾗｻﾞｷｼ","kana_address":"ｲﾀｼｷﾐﾅﾐﾏﾁ","pref":"鹿児島県","city":"枕崎市","address":"板敷南町"},
{"zip_code":"8980052","kana_pref":"ｶｺﾞｼﾏｹﾝ","kana_city":"ﾏｸﾗｻﾞｷｼ","kana_address":"ｲﾜｻｷﾁｮｳ","pref":"鹿児島県","city":"枕崎市","address":"岩崎町"},
{"zip_code":"8980058","kana_pref":"ｶｺﾞｼﾏｹﾝ","kana_city":"ﾏｸﾗｻﾞｷｼ","kana_address":"ｲﾜﾄﾞﾁｮｳ","pref":"鹿児島県","city":"枕崎市","address":"岩戸町"},
{"zip_code":"8980009","kana_pref":"ｶｺﾞｼﾏｹﾝ","kana_city":"ﾏｸﾗｻﾞｷｼ","kana_address":"ｴﾋﾞｽﾁｮｳ","pref":"鹿児島県","city":"枕崎市","address":"恵比須町"},
{"zip_code":"8980026","kana_pref":"ｶｺﾞｼﾏｹﾝ","kana_city":"ﾏｸﾗｻﾞｷｼ","kana_address":"ｵｵﾂｶｷﾀﾏﾁ","pref":"鹿児島県","city":"枕崎市","address":"大塚北町"},
{"zip_code":"8980028","kana_pref":"ｶｺﾞｼﾏｹﾝ","kana_city":"ﾏｸﾗｻﾞｷｼ","kana_address":"ｵｵﾂｶﾅｶﾏﾁ","pref":"鹿児島県","city":"枕崎市","address":"大塚中町"},
{"zip_code":"8980027","kana_pref":"ｶｺﾞｼﾏｹﾝ","kana_city":"ﾏｸﾗｻﾞｷｼ","kana_address":"ｵｵﾂｶﾆｼﾏﾁ","pref":"鹿児島県","city":"枕崎市","address":"大塚西町"},
{"zip_code":"8980029","kana_pref":"ｶｺﾞｼﾏｹﾝ","kana_city":"ﾏｸﾗｻﾞｷｼ","kana_address":"ｵｵﾂｶﾐﾅﾐﾏﾁ","pref":"鹿児島県","city":"枕崎市","address":"大塚南町"},
{"zip_code":"8980003","kana_pref":"ｶｺﾞｼﾏｹﾝ","kana_city":"ﾏｸﾗｻﾞｷｼ","kana_address":"ｵﾘｸﾞﾁﾁｮｳ","pref":"鹿児島県","city":"枕崎市","address":"折口町"},
{"zip_code":"8980054","kana_pref":"ｶｺﾞｼﾏｹﾝ","kana_city":"ﾏｸﾗｻﾞｷｼ","kana_address":"ｶｺﾞﾌﾓﾄﾏﾁ","pref":"鹿児島県","city":"枕崎市","address":"鹿篭麓町"},
{"zip_code":"8980044","kana_pref":"ｶｺﾞｼﾏｹﾝ","kana_city":"ﾏｸﾗｻﾞｷｼ","kana_address":"ｶｽｶﾞﾁｮｳ","pref":"鹿児島県","city":"枕崎市","address":"春日町"},
{"zip_code":"8980098","kana_pref":"ｶｺﾞｼﾏｹﾝ","kana_city":"ﾏｸﾗｻﾞｷｼ","kana_address":"ｶﾔﾉﾁｮｳ","pref":"鹿児島県","city":"枕崎市","address":"茅野町"},
{"zip_code":"8980057","kana_pref":"ｶｺﾞｼﾏｹﾝ","kana_city":"ﾏｸﾗｻﾞｷｼ","kana_address":"ｷﾊﾗﾁｮｳ","pref":"鹿児島県","city":"枕崎市","address":"木原町"},
{"zip_code":"8980066","kana_pref":"ｶｺﾞｼﾏｹﾝ","kana_city":"ﾏｸﾗｻﾞｷｼ","kana_address":"ｷﾖﾐｽﾞﾏﾁ","pref":"鹿児島県","city":"枕崎市","address":"清水町"},
{"zip_code":"8980076","kana_pref":"ｶｺﾞｼﾏｹﾝ","kana_city":"ﾏｸﾗｻﾞｷｼ","kana_address":"ｷﾝｻﾞﾝﾁｮｳ","pref":"鹿児島県","city":"枕崎市","address":"金山町"},
{"zip_code":"8980074","kana_pref":"ｶｺﾞｼﾏｹﾝ","kana_city":"ﾏｸﾗｻﾞｷｼ","kana_address":"ｷﾝｻﾞﾝﾆｼﾏﾁ","pref":"鹿児島県","city":"枕崎市","address":"金山西町"},
{"zip_code":"8980088","kana_pref":"ｶｺﾞｼﾏｹﾝ","kana_city":"ﾏｸﾗｻﾞｷｼ","kana_address":"ｸﾆﾐﾁｮｳ","pref":"鹿児島県","city":"枕崎市","address":"国見町"},
{"zip_code":"8980099","kana_pref":"ｶｺﾞｼﾏｹﾝ","kana_city":"ﾏｸﾗｻﾞｷｼ","kana_address":"ｺﾂｶﾁｮｳ","pref":"鹿児島県","city":"枕崎市","address":"小塚町"},
{"zip_code":"8980062","kana_pref":"ｶｺﾞｼﾏｹﾝ","kana_city":"ﾏｸﾗｻﾞｷｼ","kana_address":"ｺﾄﾌﾞｷﾁｮｳ","pref":"鹿児島県","city":"枕崎市","address":"寿町"},
{"zip_code":"8980053","kana_pref":"ｶｺﾞｼﾏｹﾝ","kana_city":"ﾏｸﾗｻﾞｷｼ","kana_address":"ｺﾊﾞﾁｮｳ","pref":"鹿児島県","city":"枕崎市","address":"木場町"},
{"zip_code":"8980094","kana_pref":"ｶｺﾞｼﾏｹﾝ","kana_city":"ﾏｸﾗｻﾞｷｼ","kana_address":"ｺﾏﾐｽﾞﾁｮｳ","pref":"鹿児島県","city":"枕崎市","address":"駒水町"},
{"zip_code":"8980038","kana_pref":"ｶｺﾞｼﾏｹﾝ","kana_city":"ﾏｸﾗｻﾞｷｼ","kana_address":"ｻｶｴﾅｶﾏﾁ","pref":"鹿児島県","city":"枕崎市","address":"栄中町"},
{"zip_code":"8980037","kana_pref":"ｶｺﾞｼﾏｹﾝ","kana_city":"ﾏｸﾗｻﾞｷｼ","kana_address":"ｻｶｴﾎﾝﾏﾁ","pref":"鹿児島県","city":"枕崎市","address":"栄本町"},
{"zip_code":"8980018","kana_pref":"ｶｺﾞｼﾏｹﾝ","kana_city":"ﾏｸﾗｻﾞｷｼ","kana_address":"ｻｸﾗｷﾞﾁｮｳ","pref":"鹿児島県","city":"枕崎市","address":"桜木町"},
{"zip_code":"8980073","kana_pref":"ｶｺﾞｼﾏｹﾝ","kana_city":"ﾏｸﾗｻﾞｷｼ","kana_address":"ｻｸﾗﾔﾏｶﾐﾏﾁ","pref":"鹿児島県","city":"枕崎市","address":"桜山上町"},
{"zip_code":"8980061","kana_pref":"ｶｺﾞｼﾏｹﾝ","kana_city":"ﾏｸﾗｻﾞｷｼ","kana_address":"ｻｸﾗﾔﾏﾁｮｳ","pref":"鹿児島県","city":"枕崎市","address":"桜山町"},
{"zip_code":"8980055","kana_pref":"ｶｺﾞｼﾏｹﾝ","kana_city":"ﾏｸﾗｻﾞｷｼ","kana_address":"ｻｸﾗﾔﾏﾆｼﾏﾁ","pref":"鹿児島県","city":"枕崎市","address":"桜山西町"},
{"zip_code":"8980065","kana_pref":"ｶｺﾞｼﾏｹﾝ","kana_city":"ﾏｸﾗｻﾞｷｼ","kana_address":"ｻｸﾗﾔﾏﾋｶﾞｼﾏﾁ","pref":"鹿児島県","city":"枕崎市","address":"桜山東町"},
{"zip_code":"8980064","kana_pref":"ｶｺﾞｼﾏｹﾝ","kana_city":"ﾏｸﾗｻﾞｷｼ","kana_address":"ｻｸﾗﾔﾏﾎﾝﾏﾁ","pref":"鹿児島県","city":"枕崎市","address":"桜山本町"},
{"zip_code":"8980097","kana_pref":"ｶｺﾞｼﾏｹﾝ","kana_city":"ﾏｸﾗｻﾞｷｼ","kana_address":"ｻﾄﾏﾁ","pref":"鹿児島県","city":"枕崎市","address":"里町"},
{"zip_code":"8980002","kana_pref":"ｶｺﾞｼﾏｹﾝ","kana_city":"ﾏｸﾗｻﾞｷｼ","kana_address":"ｼｵﾐﾁｮｳ","pref":"鹿児島県","city":"枕崎市","address":"汐見町"},
{"zip_code":"8980041","kana_pref":"ｶｺﾞｼﾏｹﾝ","kana_city":"ﾏｸﾗｻﾞｷｼ","kana_address":"ｼｵﾔｷﾀﾏﾁ","pref":"鹿児島県","city":"枕崎市","address":"塩屋北町"},
{"zip_code":"8980042","kana_pref":"ｶｺﾞｼﾏｹﾝ","kana_city":"ﾏｸﾗｻﾞｷｼ","kana_address":"ｼｵﾔﾐﾅﾐﾏﾁ","pref":"鹿児島県","city":"枕崎市","address":"塩屋南町"},
{"zip_code":"8980095","kana_pref":"ｶｺﾞｼﾏｹﾝ","kana_city":"ﾏｸﾗｻﾞｷｼ","kana_address":"ｼﾓﾏﾂﾁｮｳ","pref":"鹿児島県","city":"枕崎市","address":"下松町"},
{"zip_code":"8980089","kana_pref":"ｶｺﾞｼﾏｹﾝ","kana_city":"ﾏｸﾗｻﾞｷｼ","kana_address":"ｼﾗｻﾜｷﾀﾏﾁ","pref":"鹿児島県","city":"枕崎市","address":"白沢北町"},
{"zip_code":"8980092","kana_pref":"ｶｺﾞｼﾏｹﾝ","kana_city":"ﾏｸﾗｻﾞｷｼ","kana_address":"ｼﾗｻﾜﾆｼﾏﾁ","pref":"鹿児島県","city":"枕崎市","address":"白沢西町"},
{"zip_code":"8980091","kana_pref":"ｶｺﾞｼﾏｹﾝ","kana_city":"ﾏｸﾗｻﾞｷｼ","kana_address":"ｼﾗｻﾜﾋｶﾞｼﾏﾁ","pref":"鹿児島県","city":"枕崎市","address":"白沢東町"},
{"zip_code":"8980007","kana_pref":"ｶｺﾞｼﾏｹﾝ","kana_city":"ﾏｸﾗｻﾞｷｼ","kana_address":"ｼﾝﾏﾁ","pref":"鹿児島県","city":"枕崎市","address":"新町"},
{"zip_code":"8980017","kana_pref":"ｶｺﾞｼﾏｹﾝ","kana_city":"ﾏｸﾗｻﾞｷｼ","kana_address":"ｽﾐﾖｼﾁｮｳ","pref":"鹿児島県","city":"枕崎市","address":"住吉町"},
{"zip_code":"8980087","kana_pref":"ｶｺﾞｼﾏｹﾝ","kana_city":"ﾏｸﾗｻﾞｷｼ","kana_address":"ｾﾄﾁｮｳ","pref":"鹿児島県","city":"枕崎市","address":"瀬戸町"},
{"zip_code":"8980047","kana_pref":"ｶｺﾞｼﾏｹﾝ","kana_city":"ﾏｸﾗｻﾞｷｼ","kana_address":"ｿﾉﾐﾆｼﾏﾁ","pref":"鹿児島県","city":"枕崎市","address":"園見西町"},
{"zip_code":"8980046","kana_pref":"ｶｺﾞｼﾏｹﾝ","kana_city":"ﾏｸﾗｻﾞｷｼ","kana_address":"ｿﾉﾐﾎﾝﾏﾁ","pref":"鹿児島県","city":"枕崎市","address":"園見本町"},
{"zip_code":"8980016","kana_pref":"ｶｺﾞｼﾏｹﾝ","kana_city":"ﾏｸﾗｻﾞｷｼ","kana_address":"ﾀｶﾐﾁｮｳ","pref":"鹿児島県","city":"枕崎市","address":"高見町"},
{"zip_code":"8980025","kana_pref":"ｶｺﾞｼﾏｹﾝ","kana_city":"ﾏｸﾗｻﾞｷｼ","kana_address":"ﾀﾁｶﾞﾐﾎﾝﾏﾁ","pref":"鹿児島県","city":"枕崎市","address":"立神本町"},
{"zip_code":"8980045","kana_pref":"ｶｺﾞｼﾏｹﾝ","kana_city":"ﾏｸﾗｻﾞｷｼ","kana_address":"ﾀﾃｶﾞﾐｷﾀﾏﾁ","pref":"鹿児島県","city":"枕崎市","address":"立神北町"},
{"zip_code":"8980075","kana_pref":"ｶｺﾞｼﾏｹﾝ","kana_city":"ﾏｸﾗｻﾞｷｼ","kana_address":"ﾀﾌﾞｶﾞﾜﾁｮｳ","pref":"鹿児島県","city":"枕崎市","address":"田布川町"},
{"zip_code":"8980051","kana_pref":"ｶｺﾞｼﾏｹﾝ","kana_city":"ﾏｸﾗｻﾞｷｼ","kana_address":"ﾁｭｳｵｳﾁｮｳ","pref":"鹿児島県","city":"枕崎市","address":"中央町"},
{"zip_code":"8980012","kana_pref":"ｶｺﾞｼﾏｹﾝ","kana_city":"ﾏｸﾗｻﾞｷｼ","kana_address":"ﾁﾖﾀﾞﾁｮｳ","pref":"鹿児島県","city":"枕崎市","address":"千代田町"},
{"zip_code":"8980081","kana_pref":"ｶｺﾞｼﾏｹﾝ","kana_city":"ﾏｸﾗｻﾞｷｼ","kana_address":"ﾄﾖﾄﾒﾏﾁ","pref":"鹿児島県","city":"枕崎市","address":"豊留町"},
{"zip_code":"8980005","kana_pref":"ｶｺﾞｼﾏｹﾝ","kana_city":"ﾏｸﾗｻﾞｷｼ","kana_address":"ﾅｶﾏﾁ","pref":"鹿児島県","city":"枕崎市","address":"中町"},
{"zip_code":"8980024","kana_pref":"ｶｺﾞｼﾏｹﾝ","kana_city":"ﾏｸﾗｻﾞｷｼ","kana_address":"ﾆｼｶｺﾞ","pref":"鹿児島県","city":"枕崎市","address":"西鹿篭"},
{"zip_code":"8980015","kana_pref":"ｶｺﾞｼﾏｹﾝ","kana_city":"ﾏｸﾗｻﾞｷｼ","kana_address":"ﾆｼﾎﾝﾏﾁ","pref":"鹿児島県","city":"枕崎市","address":"西本町"},
{"zip_code":"8980093","kana_pref":"ｶｺﾞｼﾏｹﾝ","kana_city":"ﾏｸﾗｻﾞｷｼ","kana_address":"ﾆﾀｳﾗﾁｮｳ","pref":"鹿児島県","city":"枕崎市","address":"仁田浦町"},
{"zip_code":"8980021","kana_pref":"ｶｺﾞｼﾏｹﾝ","kana_city":"ﾏｸﾗｻﾞｷｼ","kana_address":"ﾋｶﾞｼｶｺﾞ","pref":"鹿児島県","city":"枕崎市","address":"東鹿篭"},
{"zip_code":"8980014","kana_pref":"ｶｺﾞｼﾏｹﾝ","kana_city":"ﾏｸﾗｻﾞｷｼ","kana_address":"ﾋｶﾞｼﾎﾝﾏﾁ","pref":"鹿児島県","city":"枕崎市","address":"東本町"},
{"zip_code":"8980043","kana_pref":"ｶｺﾞｼﾏｹﾝ","kana_city":"ﾏｸﾗｻﾞｷｼ","kana_address":"ﾋﾉｶﾐｷﾀﾏﾁ","pref":"鹿児島県","city":"枕崎市","address":"火之神北町"},
{"zip_code":"8980048","kana_pref":"ｶｺﾞｼﾏｹﾝ","kana_city":"ﾏｸﾗｻﾞｷｼ","kana_address":"ﾋﾉｶﾐﾁｮｳ","pref":"鹿児島県","city":"枕崎市","address":"火之神町"},
{"zip_code":"8980049","kana_pref":"ｶｺﾞｼﾏｹﾝ","kana_city":"ﾏｸﾗｻﾞｷｼ","kana_address":"ﾋﾉｶﾐﾐｻｷﾁｮｳ","pref":"鹿児島県","city":"枕崎市","address":"火之神岬町"},
{"zip_code":"8980034","kana_pref":"ｶｺﾞｼﾏｹﾝ","kana_city":"ﾏｸﾗｻﾞｷｼ","kana_address":"ﾋﾉﾃﾞﾁｮｳ","pref":"鹿児島県","city":"枕崎市","address":"日之出町"},
{"zip_code":"8980035","kana_pref":"ｶｺﾞｼﾏｹﾝ","kana_city":"ﾏｸﾗｻﾞｷｼ","kana_address":"ﾋﾗﾀﾏﾁ","pref":"鹿児島県","city":"枕崎市","address":"平田町"},
{"zip_code":"8980032","kana_pref":"ｶｺﾞｼﾏｹﾝ","kana_city":"ﾏｸﾗｻﾞｷｼ","kana_address":"ﾍﾞｯﾌﾟ","pref":"鹿児島県","city":"枕崎市","address":"別府"},
{"zip_code":"8980086","kana_pref":"ｶｺﾞｼﾏｹﾝ","kana_city":"ﾏｸﾗｻﾞｷｼ","kana_address":"ﾍﾞｯﾌﾟﾆｼﾏﾁ","pref":"鹿児島県","city":"枕崎市","address":"別府西町"},
{"zip_code":"8980085","kana_pref":"ｶｺﾞｼﾏｹﾝ","kana_city":"ﾏｸﾗｻﾞｷｼ","kana_address":"ﾍﾞｯﾌﾟﾋｶﾞｼﾏﾁ","pref":"鹿児島県","city":"枕崎市","address":"別府東町"},
{"zip_code":"8980096","kana_pref":"ｶｺﾞｼﾏｹﾝ","kana_city":"ﾏｸﾗｻﾞｷｼ","kana_address":"ﾏｶﾔﾏﾁ","pref":"鹿児島県","city":"枕崎市","address":"まかや町"},
{"zip_code":"8980031","kana_pref":"ｶｺﾞｼﾏｹﾝ","kana_city":"ﾏｸﾗｻﾞｷｼ","kana_address":"ﾏｸﾗｻﾞｷ","pref":"鹿児島県","city":"枕崎市","address":"枕崎"},
{"zip_code":"8980001","kana_pref":"ｶｺﾞｼﾏｹﾝ","kana_city":"ﾏｸﾗｻﾞｷｼ","kana_address":"ﾏﾂﾉｵﾁｮｳ","pref":"鹿児島県","city":"枕崎市","address":"松之尾町"},
{"zip_code":"8980072","kana_pref":"ｶｺﾞｼﾏｹﾝ","kana_city":"ﾏｸﾗｻﾞｷｼ","kana_address":"ﾐﾁﾉﾁｮｳ","pref":"鹿児島県","city":"枕崎市","address":"道野町"},
{"zip_code":"8980011","kana_pref":"ｶｺﾞｼﾏｹﾝ","kana_city":"ﾏｸﾗｻﾞｷｼ","kana_address":"ﾐﾄﾞﾘﾏﾁ","pref":"鹿児島県","city":"枕崎市","address":"緑町"},
{"zip_code":"8980004","kana_pref":"ｶｺﾞｼﾏｹﾝ","kana_city":"ﾏｸﾗｻﾞｷｼ","kana_address":"ﾐﾅﾄﾏﾁ","pref":"鹿児島県","city":"枕崎市","address":"港町"},
{"zip_code":"8980056","kana_pref":"ｶｺﾞｼﾏｹﾝ","kana_city":"ﾏｸﾗｻﾞｷｼ","kana_address":"ﾐﾊﾗﾏﾁ","pref":"鹿児島県","city":"枕崎市","address":"美原町"},
{"zip_code":"8980022","kana_pref":"ｶｺﾞｼﾏｹﾝ","kana_city":"ﾏｸﾗｻﾞｷｼ","kana_address":"ﾐﾔﾀﾁｮｳ","pref":"鹿児島県","city":"枕崎市","address":"宮田町"},
{"zip_code":"8980033","kana_pref":"ｶｺﾞｼﾏｹﾝ","kana_city":"ﾏｸﾗｻﾞｷｼ","kana_address":"ﾐﾔﾏｴﾁｮｳ","pref":"鹿児島県","city":"枕崎市","address":"宮前町"},
{"zip_code":"8980071","kana_pref":"ｶｺﾞｼﾏｹﾝ","kana_city":"ﾏｸﾗｻﾞｷｼ","kana_address":"ﾐﾔﾏﾁｮｳ","pref":"鹿児島県","city":"枕崎市","address":"美山町"},
{"zip_code":"8980063","kana_pref":"ｶｺﾞｼﾏｹﾝ","kana_city":"ﾏｸﾗｻﾞｷｼ","kana_address":"ﾐｮｳｹﾝﾏﾁ","pref":"鹿児島県","city":"枕崎市","address":"妙見町"},
{"zip_code":"8980036","kana_pref":"ｶｺﾞｼﾏｹﾝ","kana_city":"ﾏｸﾗｻﾞｷｼ","kana_address":"ﾒｲﾜﾁｮｳ","pref":"鹿児島県","city":"枕崎市","address":"明和町"},
{"zip_code":"8980013","kana_pref":"ｶｺﾞｼﾏｹﾝ","kana_city":"ﾏｸﾗｻﾞｷｼ","kana_address":"ﾔﾏﾃﾁｮｳ","pref":"鹿児島県","city":"枕崎市","address":"山手町"},
{"zip_code":"8980023","kana_pref":"ｶｺﾞｼﾏｹﾝ","kana_city":"ﾏｸﾗｻﾞｷｼ","kana_address":"ﾜｶﾊﾞﾁｮｳ","pref":"鹿児島県","city":"枕崎市","address":"若葉町"},
{"zip_code":"8980221","kana_pref":"ｶｺﾞｼﾏｹﾝ","kana_city":"ﾐﾅﾐｻﾂﾏｼ","kana_address":"ｵｵｳﾗﾁｮｳ","pref":"鹿児島県","city":"南さつま市","address":"大浦町"},
{"zip_code":"8980212","kana_pref":"ｶｺﾞｼﾏｹﾝ","kana_city":"ﾐﾅﾐｻﾂﾏｼ","kana_address":"ﾎﾞｳﾉﾂﾁｮｳｱｷﾒ","pref":"鹿児島県","city":"南さつま市","address":"坊津町秋目"},
{"zip_code":"8980211","kana_pref":"ｶｺﾞｼﾏｹﾝ","kana_city":"ﾐﾅﾐｻﾂﾏｼ","kana_address":"ﾎﾞｳﾉﾂﾁｮｳｸｼ","pref":"鹿児島県","city":"南さつま市","address":"坊津町久志"},
{"zip_code":"8980102","kana_pref":"ｶｺﾞｼﾏｹﾝ","kana_city":"ﾐﾅﾐｻﾂﾏｼ","kana_address":"ﾎﾞｳﾉﾂﾁｮｳﾄﾏﾘ","pref":"鹿児島県","city":"南さつま市","address":"坊津町泊"},
{"zip_code":"8980101","kana_pref":"ｶｺﾞｼﾏｹﾝ","kana_city":"ﾐﾅﾐｻﾂﾏｼ","kana_address":"ﾎﾞｳﾉﾂﾁｮｳﾎﾞｳ","pref":"鹿児島県","city":"南さつま市","address":"坊津町坊"}]}