{"zip_code":[
{"zip_code":"9020067","kana_pref":"ｵｷﾅﾜｹﾝ","kana_city":"ﾅﾊｼ","kana_address":"ｱｻﾄ","pref":"沖縄県","city":"那覇市","address":"安里"},
{"zip_code":"9020073","kana_pref":"ｵｷﾅﾜｹﾝ","kana_city":"ﾅﾊｼ","kana_address":"ｳｴﾏ","pref":"沖縄県","city":"那覇市","address":"上間"},
{"zip_code":"9020075","kana_pref":"ｵｷﾅﾜｹﾝ","kana_city":"ﾅﾊｼ","kana_address":"ｺｸﾊﾞ","pref":"沖縄県","city":"那覇市","address":"国場"},
{"zip_code":"9020078","kana_pref":"ｵｷﾅﾜｹﾝ","kana_city":"ﾅﾊｼ","kana_address":"ｼｷﾅ","pref":"沖縄県","city":"那覇市","address":"識名"},
{"zip_code":"9020066","kana_pref":"ｵｷﾅﾜｹﾝ","kana_city":"ﾅﾊｼ","kana_address":"ﾀﾞｲﾄﾞｳ","pref":"沖縄県","city":"那覇市","address":"大道"},
{"zip_code":"9020065","kana_pref":"ｵｷﾅﾜｹﾝ","kana_city":"ﾅﾊｼ","kana_address":"ﾂﾎﾞﾔ","pref":"沖縄県","city":"那覇市","address":"壺屋"},
{"zip_code":"9020074","kana_pref":"ｵｷﾅﾜｹﾝ","kana_city":"ﾅﾊｼ","kana_address":"ﾅｶｲﾏ","pref":"沖縄県","city":"那覇市","address":"仲井真"},
{"zip_code":"9020077","kana_pref":"ｵｷﾅﾜｹﾝ","kana_city":"ﾅﾊｼ","kana_address":"ﾅｶﾞﾀ","pref":"沖縄県","city":"那覇市","address":"長田"},
{"zip_code":"9020071","kana_pref":"ｵｷﾅﾜｹﾝ","kana_city":"ﾅﾊｼ","kana_address":"ﾊﾝﾀｶﾞﾜ","pref":"沖縄県","city":"那覇市","address":"繁多川"},
{"zip_code":"9020061","kana_pref":"ｵｷﾅﾜｹﾝ","kana_city":"ﾅﾊｼ","kana_address":"ﾌﾙｼﾞﾏ","pref":"沖縄県","city":"那覇市","address":"古島"},
{"zip_code":"9020072","kana_pref":"ｵｷﾅﾜｹﾝ","kana_city":"ﾅﾊｼ","kana_address":"ﾏｱｼﾞ","pref":"沖縄県","city":"那覇市","address":"真地"},
{"zip_code":"9020068","kana_pref":"ｵｷﾅﾜｹﾝ","kana_city":"ﾅﾊｼ","kana_address":"ﾏｶﾋﾞ","pref":"沖縄県","city":"那覇市","address":"真嘉比"},
{"zip_code":"9020062","kana_pref":"ｵｷﾅﾜｹﾝ","kana_city":"ﾅﾊｼ","kana_address":"ﾏﾂｶﾞﾜ","pref":"沖縄県","city":"那覇市","address":"松川"},
{"zip_code":"9020069","kana_pref":"ｵｷﾅﾜｹﾝ","kana_city":"ﾅﾊｼ","kana_address":"ﾏﾂｼﾏ","pref":"沖縄県","city":"那覇市","address":"松島"},
{"zip_code":"9020063","kana_pref":"ｵｷﾅﾜｹﾝ","kana_city":"ﾅﾊｼ","kana_address":"ﾐﾊﾗ","pref":"沖縄県","city":"那覇市","address":"三原"},
{"zip_code":"9020076","kana_pref":"ｵｷﾅﾜｹﾝ","kana_city":"ﾅﾊｼ","kana_address":"ﾖｷﾞ","pref":"沖縄県","city":"那覇市","address":"与儀"},
{"zip_code":"9020064","kana_pref":"ｵｷﾅﾜｹﾝ","kana_city":"ﾅﾊｼ","kana_address":"ﾖﾘﾐﾔ","pref":"沖縄県","city":"那覇市","address":"寄宮"}]}