{"zip_code":[
{"zip_code":"9030813","kana_pref":"ｵｷﾅﾜｹﾝ","kana_city":"ﾅﾊｼ","kana_address":"ｼｭﾘｱｶﾀﾁｮｳ","pref":"沖縄県","city":"那覇市","address":"首里赤田町"},
{"zip_code":"9030811","kana_pref":"ｵｷﾅﾜｹﾝ","kana_city":"ﾅﾊｼ","kana_address":"ｼｭﾘｱｶﾋﾗﾁｮｳ","pref":"沖縄県","city":"那覇市","address":"首里赤平町"},
{"zip_code":"9030824","kana_pref":"ｵｷﾅﾜｹﾝ","kana_city":"ﾅﾊｼ","kana_address":"ｼｭﾘｲｹﾊﾀﾁｮｳ","pref":"沖縄県","city":"那覇市","address":"首里池端町"},
{"zip_code":"9030804","kana_pref":"ｵｷﾅﾜｹﾝ","kana_city":"ﾅﾊｼ","kana_address":"ｼｭﾘｲｼﾐﾈﾁｮｳ","pref":"沖縄県","city":"那覇市","address":"首里石嶺町"},
{"zip_code":"9030823","kana_pref":"ｵｷﾅﾜｹﾝ","kana_city":"ﾅﾊｼ","kana_address":"ｼｭﾘｵｵﾅｶﾁｮｳ","pref":"沖縄県","city":"那覇市","address":"首里大中町"},
{"zip_code":"9030802","kana_pref":"ｵｷﾅﾜｹﾝ","kana_city":"ﾅﾊｼ","kana_address":"ｼｭﾘｵｵﾅﾁｮｳ","pref":"沖縄県","city":"那覇市","address":"首里大名町"},
{"zip_code":"9030815","kana_pref":"ｵｷﾅﾜｹﾝ","kana_city":"ﾅﾊｼ","kana_address":"ｼｭﾘｷﾝｼﾞｮｳﾁｮｳ","pref":"沖縄県","city":"那覇市","address":"首里金城町"},
{"zip_code":"9030821","kana_pref":"ｵｷﾅﾜｹﾝ","kana_city":"ﾅﾊｼ","kana_address":"ｼｭﾘｷﾞﾎﾞﾁｮｳ","pref":"沖縄県","city":"那覇市","address":"首里儀保町"},
{"zip_code":"9030807","kana_pref":"ｵｷﾅﾜｹﾝ","kana_city":"ﾅﾊｼ","kana_address":"ｼｭﾘｸﾊﾞｶﾞﾜﾁｮｳ","pref":"沖縄県","city":"那覇市","address":"首里久場川町"},
{"zip_code":"9030814","kana_pref":"ｵｷﾅﾜｹﾝ","kana_city":"ﾅﾊｼ","kana_address":"ｼｭﾘｻｷﾔﾏﾁｮｳ","pref":"沖縄県","city":"那覇市","address":"首里崎山町"},
{"zip_code":"9030826","kana_pref":"ｵｷﾅﾜｹﾝ","kana_city":"ﾅﾊｼ","kana_address":"ｼｭﾘｻﾑｶﾜﾁｮｳ","pref":"沖縄県","city":"那覇市","address":"首里寒川町"},
{"zip_code":"9030801","kana_pref":"ｵｷﾅﾜｹﾝ","kana_city":"ﾅﾊｼ","kana_address":"ｼｭﾘｽｴﾖｼﾁｮｳ","pref":"沖縄県","city":"那覇市","address":"首里末吉町"},
{"zip_code":"9030803","kana_pref":"ｵｷﾅﾜｹﾝ","kana_city":"ﾅﾊｼ","kana_address":"ｼｭﾘﾀｲﾗﾁｮｳ","pref":"沖縄県","city":"那覇市","address":"首里平良町"},
{"zip_code":"9030806","kana_pref":"ｵｷﾅﾜｹﾝ","kana_city":"ﾅﾊｼ","kana_address":"ｼｭﾘﾃﾗﾁｮｳ","pref":"沖縄県","city":"那覇市","address":"首里汀良町"},
{"zip_code":"9030812","kana_pref":"ｵｷﾅﾜｹﾝ","kana_city":"ﾅﾊｼ","kana_address":"ｼｭﾘﾄｳﾉｸﾗﾁｮｳ","pref":"沖縄県","city":"那覇市","address":"首里当蔵町"},
{"zip_code":"9030822","kana_pref":"ｵｷﾅﾜｹﾝ","kana_city":"ﾅﾊｼ","kana_address":"ｼｭﾘﾄｳﾊﾞﾙﾁｮｳ","pref":"沖縄県","city":"那覇市","address":"首里桃原町"},
{"zip_code":"9030805","kana_pref":"ｵｷﾅﾜｹﾝ","kana_city":"ﾅﾊｼ","kana_address":"ｼｭﾘﾄﾘﾎﾘﾁｮｳ","pref":"沖縄県","city":"那覇市","address":"首里鳥堀町"},
{"zip_code":"9030816","kana_pref":"ｵｷﾅﾜｹﾝ","kana_city":"ﾅﾊｼ","kana_address":"ｼｭﾘﾏﾜｼﾁｮｳ","pref":"沖縄県","city":"那覇市","address":"首里真和志町"},
{"zip_code":"9030825","kana_pref":"ｵｷﾅﾜｹﾝ","kana_city":"ﾅﾊｼ","kana_address":"ｼｭﾘﾔﾏｶﾞﾜﾁｮｳ","pref":"沖縄県","city":"那覇市","address":"首里山川町"},
{"zip_code":"9030100","kana_pref":"ｵｷﾅﾜｹﾝ","kana_city":"ﾅｶｶﾞﾐｸﾞﾝﾆｼﾊﾗﾁｮｳ","kana_address":"","pref":"沖縄県","city":"中頭郡西原町","address":""},
{"zip_code":"9030105","kana_pref":"ｵｷﾅﾜｹﾝ","kana_city":"ﾅｶｶﾞﾐｸﾞﾝﾆｼﾊﾗﾁｮｳ","kana_address":"ｱｶﾞﾘｻﾞｷ","pref":"沖縄県","city":"中頭郡西原町","address":"東崎"},
{"zip_code":"9030113","kana_pref":"ｵｷﾅﾜｹﾝ","kana_city":"ﾅｶｶﾞﾐｸﾞﾝﾆｼﾊﾗﾁｮｳ","kana_address":"ｱﾑﾛ","pref":"沖縄県","city":"中頭郡西原町","address":"安室"},
{"zip_code":"9030115","kana_pref":"ｵｷﾅﾜｹﾝ","kana_city":"ﾅｶｶﾞﾐｸﾞﾝﾆｼﾊﾗﾁｮｳ","kana_address":"ｲｹﾀﾞ","pref":"沖縄県","city":"中頭郡西原町","address":"池田"},
{"zip_code":"9030125","kana_pref":"ｵｷﾅﾜｹﾝ","kana_city":"ﾅｶｶﾞﾐｸﾞﾝﾆｼﾊﾗﾁｮｳ","kana_address":"ｳｴﾊﾗ","pref":"沖縄県","city":"中頭郡西原町","address":"上原"},
{"zip_code":"9030121","kana_pref":"ｵｷﾅﾜｹﾝ","kana_city":"ﾅｶｶﾞﾐｸﾞﾝﾆｼﾊﾗﾁｮｳ","kana_address":"ｳﾁﾏ","pref":"沖縄県","city":"中頭郡西原町","address":"内間"},
{"zip_code":"9030117","kana_pref":"ｵｷﾅﾜｹﾝ","kana_city":"ﾅｶｶﾞﾐｸﾞﾝﾆｼﾊﾗﾁｮｳ","kana_address":"ｵﾅｶﾞ","pref":"沖縄県","city":"中頭郡西原町","address":"翁長"},
{"zip_code":"9030103","kana_pref":"ｵｷﾅﾜｹﾝ","kana_city":"ﾅｶｶﾞﾐｸﾞﾝﾆｼﾊﾗﾁｮｳ","kana_address":"ｵﾅﾊ","pref":"沖縄県","city":"中頭郡西原町","address":"小那覇"},
{"zip_code":"9030101","kana_pref":"ｵｷﾅﾜｹﾝ","kana_city":"ﾅｶｶﾞﾐｸﾞﾝﾆｼﾊﾗﾁｮｳ","kana_address":"ｶｹﾎﾞｸ","pref":"沖縄県","city":"中頭郡西原町","address":"掛保久"},
{"zip_code":"9030112","kana_pref":"ｵｷﾅﾜｹﾝ","kana_city":"ﾅｶｶﾞﾐｸﾞﾝﾆｼﾊﾗﾁｮｳ","kana_address":"ｶﾞｼﾞｬ","pref":"沖縄県","city":"中頭郡西原町","address":"我謝"},
{"zip_code":"9030102","kana_pref":"ｵｷﾅﾜｹﾝ","kana_city":"ﾅｶｶﾞﾐｸﾞﾝﾆｼﾊﾗﾁｮｳ","kana_address":"ｶﾃﾞｶﾙ","pref":"沖縄県","city":"中頭郡西原町","address":"嘉手苅"},
{"zip_code":"9030104","kana_pref":"ｵｷﾅﾜｹﾝ","kana_city":"ﾅｶｶﾞﾐｸﾞﾝﾆｼﾊﾗﾁｮｳ","kana_address":"ｶﾈｸ","pref":"沖縄県","city":"中頭郡西原町","address":"兼久"},
{"zip_code":"9030116","kana_pref":"ｵｷﾅﾜｹﾝ","kana_city":"ﾅｶｶﾞﾐｸﾞﾝﾆｼﾊﾗﾁｮｳ","kana_address":"ｺｳﾁ","pref":"沖縄県","city":"中頭郡西原町","address":"幸地"},
{"zip_code":"9030122","kana_pref":"ｵｷﾅﾜｹﾝ","kana_city":"ﾅｶｶﾞﾐｸﾞﾝﾆｼﾊﾗﾁｮｳ","kana_address":"ｺﾊﾞｼｶﾞﾜ","pref":"沖縄県","city":"中頭郡西原町","address":"小橋川"},
{"zip_code":"9030118","kana_pref":"ｵｷﾅﾜｹﾝ","kana_city":"ﾅｶｶﾞﾐｸﾞﾝﾆｼﾊﾗﾁｮｳ","kana_address":"ｺﾊﾂ","pref":"沖縄県","city":"中頭郡西原町","address":"小波津"},
{"zip_code":"9030124","kana_pref":"ｵｷﾅﾜｹﾝ","kana_city":"ﾅｶｶﾞﾐｸﾞﾝﾆｼﾊﾗﾁｮｳ","kana_address":"ｺﾞﾔ","pref":"沖縄県","city":"中頭郡西原町","address":"呉屋"},
{"zip_code":"9030129","kana_pref":"ｵｷﾅﾜｹﾝ","kana_city":"ﾅｶｶﾞﾐｸﾞﾝﾆｼﾊﾗﾁｮｳ","kana_address":"ｾﾝﾊﾞﾙ","pref":"沖縄県","city":"中頭郡西原町","address":"千原"},
{"zip_code":"9030126","kana_pref":"ｵｷﾅﾜｹﾝ","kana_city":"ﾅｶｶﾞﾐｸﾞﾝﾆｼﾊﾗﾁｮｳ","kana_address":"ﾀﾅﾊﾞﾙ","pref":"沖縄県","city":"中頭郡西原町","address":"棚原"},
{"zip_code":"9030123","kana_pref":"ｵｷﾅﾜｹﾝ","kana_city":"ﾅｶｶﾞﾐｸﾞﾝﾆｼﾊﾗﾁｮｳ","kana_address":"ﾂﾊﾅﾊ","pref":"沖縄県","city":"中頭郡西原町","address":"津花波"},
{"zip_code":"9030114","kana_pref":"ｵｷﾅﾜｹﾝ","kana_city":"ﾅｶｶﾞﾐｸﾞﾝﾆｼﾊﾗﾁｮｳ","kana_address":"ﾄｳﾊﾞﾙ","pref":"沖縄県","city":"中頭郡西原町","address":"桃原"},
{"zip_code":"9030127","kana_pref":"ｵｷﾅﾜｹﾝ","kana_city":"ﾅｶｶﾞﾐｸﾞﾝﾆｼﾊﾗﾁｮｳ","kana_address":"ﾄｸｻﾀﾞ","pref":"沖縄県","city":"中頭郡西原町","address":"徳佐田"},
{"zip_code":"9030128","kana_pref":"ｵｷﾅﾜｹﾝ","kana_city":"ﾅｶｶﾞﾐｸﾞﾝﾆｼﾊﾗﾁｮｳ","kana_address":"ﾓﾘｶﾜ","pref":"沖縄県","city":"中頭郡西原町","address":"森川"},
{"zip_code":"9030111","kana_pref":"ｵｷﾅﾜｹﾝ","kana_city":"ﾅｶｶﾞﾐｸﾞﾝﾆｼﾊﾗﾁｮｳ","kana_address":"ﾖﾅｸﾞｽｸ","pref":"沖縄県","city":"中頭郡西原町","address":"与那城"}]}