{"zip_code":[
{"zip_code":"9040000","kana_pref":"ｵｷﾅﾜｹﾝ","kana_city":"ｵｷﾅﾜｼ","kana_address":"","pref":"沖縄県","city":"沖縄市","address":""},
{"zip_code":"9042152","kana_pref":"ｵｷﾅﾜｹﾝ","kana_city":"ｵｷﾅﾜｼ","kana_address":"ｱｹﾐﾁ","pref":"沖縄県","city":"沖縄市","address":"明道"},
{"zip_code":"9040012","kana_pref":"ｵｷﾅﾜｹﾝ","kana_city":"ｵｷﾅﾜｼ","kana_address":"ｱｹﾞﾀﾞ","pref":"沖縄県","city":"沖縄市","address":"安慶田"},
{"zip_code":"9042172","kana_pref":"ｵｷﾅﾜｹﾝ","kana_city":"ｵｷﾅﾜｼ","kana_address":"ｱﾜｾ","pref":"沖縄県","city":"沖縄市","address":"泡瀬"},
{"zip_code":"9042141","kana_pref":"ｵｷﾅﾜｹﾝ","kana_city":"ｵｷﾅﾜｼ","kana_address":"ｲｹﾊﾗ","pref":"沖縄県","city":"沖縄市","address":"池原"},
{"zip_code":"9040031","kana_pref":"ｵｷﾅﾜｹﾝ","kana_city":"ｵｷﾅﾜｼ","kana_address":"ｳｴﾁ","pref":"沖縄県","city":"沖縄市","address":"上地"},
{"zip_code":"9042163","kana_pref":"ｵｷﾅﾜｹﾝ","kana_city":"ｵｷﾅﾜｼ","kana_address":"ｵｵｻﾞﾄ","pref":"沖縄県","city":"沖縄市","address":"大里"},
{"zip_code":"9042162","kana_pref":"ｵｷﾅﾜｹﾝ","kana_city":"ｵｷﾅﾜｼ","kana_address":"ｶｲﾎｳ","pref":"沖縄県","city":"沖縄市","address":"海邦"},
{"zip_code":"9042162","kana_pref":"ｵｷﾅﾜｹﾝ","kana_city":"ｵｷﾅﾜｼ","kana_address":"ｶｲﾎｳﾁｮｳ","pref":"沖縄県","city":"沖縄市","address":"海邦町"},
{"zip_code":"9040005","kana_pref":"ｵｷﾅﾜｹﾝ","kana_city":"ｵｷﾅﾜｼ","kana_address":"ｶﾏﾗ","pref":"沖縄県","city":"沖縄市","address":"嘉間良"},
{"zip_code":"9040023","kana_pref":"ｵｷﾅﾜｹﾝ","kana_city":"ｵｷﾅﾜｼ","kana_address":"ｸﾎﾞﾀ","pref":"沖縄県","city":"沖縄市","address":"久保田"},
{"zip_code":"9042145","kana_pref":"ｵｷﾅﾜｹﾝ","kana_city":"ｵｷﾅﾜｼ","kana_address":"ｸﾗｼｷ","pref":"沖縄県","city":"沖縄市","address":"倉敷"},
{"zip_code":"9042161","kana_pref":"ｵｷﾅﾜｹﾝ","kana_city":"ｵｷﾅﾜｼ","kana_address":"ｺｼﾞｬ","pref":"沖縄県","city":"沖縄市","address":"古謝"},
{"zip_code":"9040001","kana_pref":"ｵｷﾅﾜｹﾝ","kana_city":"ｵｷﾅﾜｼ","kana_address":"ｺﾞｴｸ","pref":"沖縄県","city":"沖縄市","address":"越来"},
{"zip_code":"9040021","kana_pref":"ｵｷﾅﾜｹﾝ","kana_city":"ｵｷﾅﾜｼ","kana_address":"ｺﾞﾔ","pref":"沖縄県","city":"沖縄市","address":"胡屋"},
{"zip_code":"9042144","kana_pref":"ｵｷﾅﾜｹﾝ","kana_city":"ｵｷﾅﾜｼ","kana_address":"ｼﾗｶﾜ","pref":"沖縄県","city":"沖縄市","address":"白川"},
{"zip_code":"9040002","kana_pref":"ｵｷﾅﾜｹﾝ","kana_city":"ｵｷﾅﾜｼ","kana_address":"ｼﾛﾏｴﾁｮｳ","pref":"沖縄県","city":"沖縄市","address":"城前町"},
{"zip_code":"9040003","kana_pref":"ｵｷﾅﾜｹﾝ","kana_city":"ｵｷﾅﾜｼ","kana_address":"ｽﾐﾖｼ","pref":"沖縄県","city":"沖縄市","address":"住吉"},
{"zip_code":"9040022","kana_pref":"ｵｷﾅﾜｹﾝ","kana_city":"ｵｷﾅﾜｼ","kana_address":"ｿﾉﾀﾞ","pref":"沖縄県","city":"沖縄市","address":"園田"},
{"zip_code":"9042171","kana_pref":"ｵｷﾅﾜｹﾝ","kana_city":"ｵｷﾅﾜｼ","kana_address":"ﾀｶﾊﾗ","pref":"沖縄県","city":"沖縄市","address":"高原"},
{"zip_code":"9042143","kana_pref":"ｵｷﾅﾜｹﾝ","kana_city":"ｵｷﾅﾜｼ","kana_address":"ﾁﾊﾞﾅ","pref":"沖縄県","city":"沖縄市","address":"知花"},
{"zip_code":"9040004","kana_pref":"ｵｷﾅﾜｹﾝ","kana_city":"ｵｷﾅﾜｼ","kana_address":"ﾁｭｳｵｳ","pref":"沖縄県","city":"沖縄市","address":"中央"},
{"zip_code":"9040011","kana_pref":"ｵｷﾅﾜｹﾝ","kana_city":"ｵｷﾅﾜｼ","kana_address":"ﾃﾙﾔ","pref":"沖縄県","city":"沖縄市","address":"照屋"},
{"zip_code":"9042164","kana_pref":"ｵｷﾅﾜｹﾝ","kana_city":"ｵｷﾅﾜｼ","kana_address":"ﾄｳﾊﾞﾙ","pref":"沖縄県","city":"沖縄市","address":"桃原"},
{"zip_code":"9040014","kana_pref":"ｵｷﾅﾜｹﾝ","kana_city":"ｵｷﾅﾜｼ","kana_address":"ﾅｶｿﾈﾁｮｳ","pref":"沖縄県","city":"沖縄市","address":"仲宗根町"},
{"zip_code":"9042142","kana_pref":"ｵｷﾅﾜｹﾝ","kana_city":"ｵｷﾅﾜｼ","kana_address":"ﾉﾎﾞﾘｶﾜ","pref":"沖縄県","city":"沖縄市","address":"登川"},
{"zip_code":"9042154","kana_pref":"ｵｷﾅﾜｹﾝ","kana_city":"ｵｷﾅﾜｼ","kana_address":"ﾋｶﾞｼ","pref":"沖縄県","city":"沖縄市","address":"東"},
{"zip_code":"9042173","kana_pref":"ｵｷﾅﾜｹﾝ","kana_city":"ｵｷﾅﾜｼ","kana_address":"ﾋﾔｺﾞﾝ","pref":"沖縄県","city":"沖縄市","address":"比屋根"},
{"zip_code":"9042151","kana_pref":"ｵｷﾅﾜｹﾝ","kana_city":"ｵｷﾅﾜｼ","kana_address":"ﾏﾂﾓﾄ","pref":"沖縄県","city":"沖縄市","address":"松本"},
{"zip_code":"9042153","kana_pref":"ｵｷﾅﾜｹﾝ","kana_city":"ｵｷﾅﾜｼ","kana_address":"ﾐｻﾄ","pref":"沖縄県","city":"沖縄市","address":"美里"},
{"zip_code":"9040035","kana_pref":"ｵｷﾅﾜｹﾝ","kana_city":"ｵｷﾅﾜｼ","kana_address":"ﾐﾅﾐﾄｳﾊﾞﾙ","pref":"沖縄県","city":"沖縄市","address":"南桃原"},
{"zip_code":"9042155","kana_pref":"ｵｷﾅﾜｹﾝ","kana_city":"ｵｷﾅﾜｼ","kana_address":"ﾐﾊﾗ","pref":"沖縄県","city":"沖縄市","address":"美原"},
{"zip_code":"9042165","kana_pref":"ｵｷﾅﾜｹﾝ","kana_city":"ｵｷﾅﾜｼ","kana_address":"ﾐﾔｻﾞﾄ","pref":"沖縄県","city":"沖縄市","address":"宮里"},
{"zip_code":"9040013","kana_pref":"ｵｷﾅﾜｹﾝ","kana_city":"ｵｷﾅﾜｼ","kana_address":"ﾑﾛｶﾜ","pref":"沖縄県","city":"沖縄市","address":"室川"},
{"zip_code":"9040032","kana_pref":"ｵｷﾅﾜｹﾝ","kana_city":"ｵｷﾅﾜｼ","kana_address":"ﾓﾛﾐｻﾞﾄ","pref":"沖縄県","city":"沖縄市","address":"諸見里"},
{"zip_code":"9040006","kana_pref":"ｵｷﾅﾜｹﾝ","kana_city":"ｵｷﾅﾜｼ","kana_address":"ﾔｴｼﾏ","pref":"沖縄県","city":"沖縄市","address":"八重島"},
{"zip_code":"9040034","kana_pref":"ｵｷﾅﾜｹﾝ","kana_city":"ｵｷﾅﾜｼ","kana_address":"ﾔﾏｳﾁ","pref":"沖縄県","city":"沖縄市","address":"山内"},
{"zip_code":"9040033","kana_pref":"ｵｷﾅﾜｹﾝ","kana_city":"ｵｷﾅﾜｼ","kana_address":"ﾔﾏｻﾞﾄ","pref":"沖縄県","city":"沖縄市","address":"山里"},
{"zip_code":"9042174","kana_pref":"ｵｷﾅﾜｹﾝ","kana_city":"ｵｷﾅﾜｼ","kana_address":"ﾖｷﾞ","pref":"沖縄県","city":"沖縄市","address":"与儀"},
{"zip_code":"9042200","kana_pref":"ｵｷﾅﾜｹﾝ","kana_city":"ｳﾙﾏｼ","kana_address":"","pref":"沖縄県","city":"うるま市","address":""},
{"zip_code":"9042212","kana_pref":"ｵｷﾅﾜｹﾝ","kana_city":"ｳﾙﾏｼ","kana_address":"ｱｶﾉ","pref":"沖縄県","city":"うるま市","address":"赤野"},
{"zip_code":"9042245","kana_pref":"ｵｷﾅﾜｹﾝ","kana_city":"ｳﾙﾏｼ","kana_address":"ｱｶﾐﾁ","pref":"沖縄県","city":"うるま市","address":"赤道"},
{"zip_code":"9042214","kana_pref":"ｵｷﾅﾜｹﾝ","kana_city":"ｳﾙﾏｼ","kana_address":"ｱｹﾞﾅ","pref":"沖縄県","city":"うるま市","address":"安慶名"},
{"zip_code":"9041106","kana_pref":"ｵｷﾅﾜｹﾝ","kana_city":"ｳﾙﾏｼ","kana_address":"ｲｼｶﾜ","pref":"沖縄県","city":"うるま市","address":"石川"},
{"zip_code":"9041103","kana_pref":"ｵｷﾅﾜｹﾝ","kana_city":"ｳﾙﾏｼ","kana_address":"ｲｼｶﾜｱｶｻｷ","pref":"沖縄県","city":"うるま市","address":"石川赤崎"},
{"zip_code":"9041102","kana_pref":"ｵｷﾅﾜｹﾝ","kana_city":"ｳﾙﾏｼ","kana_address":"ｲｼｶﾜｱｶﾞﾘﾔﾏ","pref":"沖縄県","city":"うるま市","address":"石川東山"},
{"zip_code":"9041101","kana_pref":"ｵｷﾅﾜｹﾝ","kana_city":"ｳﾙﾏｼ","kana_address":"ｲｼｶﾜｱｶﾞﾘﾔﾏﾓﾄﾏﾁ","pref":"沖縄県","city":"うるま市","address":"石川東山本町"},
{"zip_code":"9041107","kana_pref":"ｵｷﾅﾜｹﾝ","kana_city":"ｳﾙﾏｼ","kana_address":"ｲｼｶﾜｱｹﾎﾞﾉ","pref":"沖縄県","city":"うるま市","address":"石川曙"},
{"zip_code":"9041104","kana_pref":"ｵｷﾅﾜｹﾝ","kana_city":"ｳﾙﾏｼ","kana_address":"ｲｼｶﾜｲｼｻﾞｷ","pref":"沖縄県","city":"うるま市","address":"石川石崎"},
{"zip_code":"9041115","kana_pref":"ｵｷﾅﾜｹﾝ","kana_city":"ｳﾙﾏｼ","kana_address":"ｲｼｶﾜｲﾊ","pref":"沖縄県","city":"うるま市","address":"石川伊波"},
{"zip_code":"9041114","kana_pref":"ｵｷﾅﾜｹﾝ","kana_city":"ｳﾙﾏｼ","kana_address":"ｲｼｶﾜｶﾃﾞｶﾙ","pref":"沖縄県","city":"うるま市","address":"石川嘉手苅"},
{"zip_code":"9041105","kana_pref":"ｵｷﾅﾜｹﾝ","kana_city":"ｳﾙﾏｼ","kana_address":"ｲｼｶﾜｼﾗﾊﾏ","pref":"沖縄県","city":"うるま市","address":"石川白浜"},
{"zip_code":"9041112","kana_pref":"ｵｷﾅﾜｹﾝ","kana_city":"ｳﾙﾏｼ","kana_address":"ｲｼｶﾜｿﾅﾝ","pref":"沖縄県","city":"うるま市","address":"石川楚南"},
{"zip_code":"9041111","kana_pref":"ｵｷﾅﾜｹﾝ","kana_city":"ｳﾙﾏｼ","kana_address":"ｲｼｶﾜﾋｶﾞｼｵﾝﾅ","pref":"沖縄県","city":"うるま市","address":"石川東恩納"},
{"zip_code":"9041108","kana_pref":"ｵｷﾅﾜｹﾝ","kana_city":"ｳﾙﾏｼ","kana_address":"ｲｼｶﾜﾋｶﾞｼｵﾝﾅｻﾞｷ","pref":"沖縄県","city":"うるま市","address":"石川東恩納崎"},
{"zip_code":"9041113","kana_pref":"ｵｷﾅﾜｹﾝ","kana_city":"ｳﾙﾏｼ","kana_address":"ｲｼｶﾜﾔﾏｼﾛ","pref":"沖縄県","city":"うるま市","address":"石川山城"},
{"zip_code":"9042204","kana_pref":"ｵｷﾅﾜｹﾝ","kana_city":"ｳﾙﾏｼ","kana_address":"ｲﾘﾊﾞﾙ","pref":"沖縄県","city":"うるま市","address":"西原"},
{"zip_code":"9042222","kana_pref":"ｵｷﾅﾜｹﾝ","kana_city":"ｳﾙﾏｼ","kana_address":"ｳｴｽﾞ","pref":"沖縄県","city":"うるま市","address":"上江洲"},
{"zip_code":"9042211","kana_pref":"ｵｷﾅﾜｹﾝ","kana_city":"ｳﾙﾏｼ","kana_address":"ｳｹﾝ","pref":"沖縄県","city":"うるま市","address":"宇堅"},
{"zip_code":"9042244","kana_pref":"ｵｷﾅﾜｹﾝ","kana_city":"ｳﾙﾏｼ","kana_address":"ｴｽ","pref":"沖縄県","city":"うるま市","address":"江洲"},
{"zip_code":"9042205","kana_pref":"ｵｷﾅﾜｹﾝ","kana_city":"ｳﾙﾏｼ","kana_address":"ｴﾉﾋﾞ","pref":"沖縄県","city":"うるま市","address":"栄野比"},
{"zip_code":"9042224","kana_pref":"ｵｷﾅﾜｹﾝ","kana_city":"ｳﾙﾏｼ","kana_address":"ｵｵﾀ","pref":"沖縄県","city":"うるま市","address":"大田"},
{"zip_code":"9042313","kana_pref":"ｵｷﾅﾜｹﾝ","kana_city":"ｳﾙﾏｼ","kana_address":"ｶﾂﾚﾝｳﾁﾏ","pref":"沖縄県","city":"うるま市","address":"勝連内間"},
{"zip_code":"9042317","kana_pref":"ｵｷﾅﾜｹﾝ","kana_city":"ｳﾙﾏｼ","kana_address":"ｶﾂﾚﾝﾂｹﾝ","pref":"沖縄県","city":"うるま市","address":"勝連津堅"},
{"zip_code":"9042311","kana_pref":"ｵｷﾅﾜｹﾝ","kana_city":"ｳﾙﾏｼ","kana_address":"ｶﾂﾚﾝﾊｴﾊﾞﾙ","pref":"沖縄県","city":"うるま市","address":"勝連南風原"},
{"zip_code":"9042315","kana_pref":"ｵｷﾅﾜｹﾝ","kana_city":"ｳﾙﾏｼ","kana_address":"ｶﾂﾚﾝﾊﾏ","pref":"沖縄県","city":"うるま市","address":"勝連浜"},
{"zip_code":"9042316","kana_pref":"ｵｷﾅﾜｹﾝ","kana_city":"ｳﾙﾏｼ","kana_address":"ｶﾂﾚﾝﾋｶﾞ","pref":"沖縄県","city":"うるま市","address":"勝連比嘉"},
{"zip_code":"9042314","kana_pref":"ｵｷﾅﾜｹﾝ","kana_city":"ｳﾙﾏｼ","kana_address":"ｶﾂﾚﾝﾍｼｷﾔ","pref":"沖縄県","city":"うるま市","address":"勝連平敷屋"},
{"zip_code":"9042312","kana_pref":"ｵｷﾅﾜｹﾝ","kana_city":"ｳﾙﾏｼ","kana_address":"ｶﾂﾚﾝﾍﾝﾅ","pref":"沖縄県","city":"うるま市","address":"勝連平安名"},
{"zip_code":"9042241","kana_pref":"ｵｷﾅﾜｹﾝ","kana_city":"ｳﾙﾏｼ","kana_address":"ｶﾈｶﾀﾞﾝ","pref":"沖縄県","city":"うるま市","address":"兼箇段"},
{"zip_code":"9042203","kana_pref":"ｵｷﾅﾜｹﾝ","kana_city":"ｳﾙﾏｼ","kana_address":"ｶﾜｻｷ","pref":"沖縄県","city":"うるま市","address":"川崎"},
{"zip_code":"9042232","kana_pref":"ｵｷﾅﾜｹﾝ","kana_city":"ｳﾙﾏｼ","kana_address":"ｶﾜﾀ","pref":"沖縄県","city":"うるま市","address":"川田"},
{"zip_code":"9042236","kana_pref":"ｵｷﾅﾜｹﾝ","kana_city":"ｳﾙﾏｼ","kana_address":"ｷﾅｶ","pref":"沖縄県","city":"うるま市","address":"喜仲"},
{"zip_code":"9042225","kana_pref":"ｵｷﾅﾜｹﾝ","kana_city":"ｳﾙﾏｼ","kana_address":"ｷｬﾝ","pref":"沖縄県","city":"うるま市","address":"喜屋武"},
{"zip_code":"9042223","kana_pref":"ｵｷﾅﾜｹﾝ","kana_city":"ｳﾙﾏｼ","kana_address":"ｸﾞｼｶﾜ","pref":"沖縄県","city":"うるま市","address":"具志川"},
{"zip_code":"9042201","kana_pref":"ｵｷﾅﾜｹﾝ","kana_city":"ｳﾙﾏｼ","kana_address":"ｺﾝﾌﾞ","pref":"沖縄県","city":"うるま市","address":"昆布"},
{"zip_code":"9042231","kana_pref":"ｵｷﾅﾜｹﾝ","kana_city":"ｳﾙﾏｼ","kana_address":"ｼｵﾔ","pref":"沖縄県","city":"うるま市","address":"塩屋"},
{"zip_code":"9042234","kana_pref":"ｵｷﾅﾜｹﾝ","kana_city":"ｳﾙﾏｼ","kana_address":"ｽｻﾞｷ","pref":"沖縄県","city":"うるま市","address":"州崎"},
{"zip_code":"9042221","kana_pref":"ｵｷﾅﾜｹﾝ","kana_city":"ｳﾙﾏｼ","kana_address":"ﾀｲﾗｶﾞﾜ","pref":"沖縄県","city":"うるま市","address":"平良川"},
{"zip_code":"9042242","kana_pref":"ｵｷﾅﾜｹﾝ","kana_city":"ｳﾙﾏｼ","kana_address":"ﾀｶｴｽ","pref":"沖縄県","city":"うるま市","address":"高江洲"},
{"zip_code":"9042213","kana_pref":"ｵｷﾅﾜｹﾝ","kana_city":"ｳﾙﾏｼ","kana_address":"ﾀﾊﾞ","pref":"沖縄県","city":"うるま市","address":"田場"},
{"zip_code":"9042202","kana_pref":"ｵｷﾅﾜｹﾝ","kana_city":"ｳﾙﾏｼ","kana_address":"ﾃﾝｶﾞﾝ","pref":"沖縄県","city":"うるま市","address":"天願"},
{"zip_code":"9042233","kana_pref":"ｵｷﾅﾜｹﾝ","kana_city":"ｳﾙﾏｼ","kana_address":"ﾄﾖﾊﾗ","pref":"沖縄県","city":"うるま市","address":"豊原"},
{"zip_code":"9042226","kana_pref":"ｵｷﾅﾜｹﾝ","kana_city":"ｳﾙﾏｼ","kana_address":"ﾅｶﾐﾈ","pref":"沖縄県","city":"うるま市","address":"仲嶺"},
{"zip_code":"9042235","kana_pref":"ｵｷﾅﾜｹﾝ","kana_city":"ｳﾙﾏｼ","kana_address":"ﾏｴﾊﾗ","pref":"沖縄県","city":"うるま市","address":"前原"},
{"zip_code":"9042215","kana_pref":"ｵｷﾅﾜｹﾝ","kana_city":"ｳﾙﾏｼ","kana_address":"ﾐﾄﾞﾘﾏﾁ","pref":"沖縄県","city":"うるま市","address":"みどり町"},
{"zip_code":"9042243","kana_pref":"ｵｷﾅﾜｹﾝ","kana_city":"ｳﾙﾏｼ","kana_address":"ﾐﾔｻﾞﾄ","pref":"沖縄県","city":"うるま市","address":"宮里"},
{"zip_code":"9042303","kana_pref":"ｵｷﾅﾜｹﾝ","kana_city":"ｳﾙﾏｼ","kana_address":"ﾖﾅｼﾛ","pref":"沖縄県","city":"うるま市","address":"与那城"},
{"zip_code":"9042306","kana_pref":"ｵｷﾅﾜｹﾝ","kana_city":"ｳﾙﾏｼ","kana_address":"ﾖﾅｼﾛｱｾﾘ","pref":"沖縄県","city":"うるま市","address":"与那城安勢理"},
{"zip_code":"9042421","kana_pref":"ｵｷﾅﾜｹﾝ","kana_city":"ｳﾙﾏｼ","kana_address":"ﾖﾅｼﾛｲｹｲ","pref":"沖縄県","city":"うるま市","address":"与那城伊計"},
{"zip_code":"9042422","kana_pref":"ｵｷﾅﾜｹﾝ","kana_city":"ｳﾙﾏｼ","kana_address":"ﾖﾅｼﾛｲｹﾐ","pref":"沖縄県","city":"うるま市","address":"与那城池味"},
{"zip_code":"9042424","kana_pref":"ｵｷﾅﾜｹﾝ","kana_city":"ｳﾙﾏｼ","kana_address":"ﾖﾅｼﾛｳｴﾊﾗ","pref":"沖縄県","city":"うるま市","address":"与那城上原"},
{"zip_code":"9042305","kana_pref":"ｵｷﾅﾜｹﾝ","kana_city":"ｳﾙﾏｼ","kana_address":"ﾖﾅｼﾛﾁｭｳｵｳ","pref":"沖縄県","city":"うるま市","address":"与那城中央"},
{"zip_code":"9042301","kana_pref":"ｵｷﾅﾜｹﾝ","kana_city":"ｳﾙﾏｼ","kana_address":"ﾖﾅｼﾛﾃﾙﾏ","pref":"沖縄県","city":"うるま市","address":"与那城照間"},
{"zip_code":"9042425","kana_pref":"ｵｷﾅﾜｹﾝ","kana_city":"ｳﾙﾏｼ","kana_address":"ﾖﾅｼﾛﾄｳﾊﾞﾙ","pref":"沖縄県","city":"うるま市","address":"与那城桃原"},
{"zip_code":"9042302","kana_pref":"ｵｷﾅﾜｹﾝ","kana_city":"ｳﾙﾏｼ","kana_address":"ﾖﾅｼﾛﾆｼﾊﾗ","pref":"沖縄県","city":"うるま市","address":"与那城西原"},
{"zip_code":"9042307","kana_pref":"ｵｷﾅﾜｹﾝ","kana_city":"ｳﾙﾏｼ","kana_address":"ﾖﾅｼﾛﾉﾍﾝ","pref":"沖縄県","city":"うるま市","address":"与那城饒辺"},
{"zip_code":"9042428","kana_pref":"ｵｷﾅﾜｹﾝ","kana_city":"ｳﾙﾏｼ","kana_address":"ﾖﾅｼﾛﾋﾗﾐﾔ","pref":"沖縄県","city":"うるま市","address":"与那城平宮"},
{"zip_code":"9042426","kana_pref":"ｵｷﾅﾜｹﾝ","kana_city":"ｳﾙﾏｼ","kana_address":"ﾖﾅｼﾛﾍﾝｻﾞ","pref":"沖縄県","city":"うるま市","address":"与那城平安座"},
{"zip_code":"9042423","kana_pref":"ｵｷﾅﾜｹﾝ","kana_city":"ｳﾙﾏｼ","kana_address":"ﾖﾅｼﾛﾐﾔｷﾞ","pref":"沖縄県","city":"うるま市","address":"与那城宮城"},
{"zip_code":"9042304","kana_pref":"ｵｷﾅﾜｹﾝ","kana_city":"ｳﾙﾏｼ","kana_address":"ﾖﾅｼﾛﾔｹﾅ","pref":"沖縄県","city":"うるま市","address":"与那城屋慶名"},
{"zip_code":"9042427","kana_pref":"ｵｷﾅﾜｹﾝ","kana_city":"ｳﾙﾏｼ","kana_address":"ﾖﾅｼﾛﾔﾋﾗ","pref":"沖縄県","city":"うるま市","address":"与那城屋平"},
{"zip_code":"9040400","kana_pref":"ｵｷﾅﾜｹﾝ","kana_city":"ｸﾆｶﾞﾐｸﾞﾝｵﾝﾅｿﾝ","kana_address":"","pref":"沖縄県","city":"国頭郡恩納村","address":""},
{"zip_code":"9040402","kana_pref":"ｵｷﾅﾜｹﾝ","kana_city":"ｸﾆｶﾞﾐｸﾞﾝｵﾝﾅｿﾝ","kana_address":"ｱﾌｿ","pref":"沖縄県","city":"国頭郡恩納村","address":"安富祖"},
{"zip_code":"9040411","kana_pref":"ｵｷﾅﾜｹﾝ","kana_city":"ｸﾆｶﾞﾐｸﾞﾝｵﾝﾅｿﾝ","kana_address":"ｵﾝﾅ","pref":"沖縄県","city":"国頭郡恩納村","address":"恩納"},
{"zip_code":"9040403","kana_pref":"ｵｷﾅﾜｹﾝ","kana_city":"ｸﾆｶﾞﾐｸﾞﾝｵﾝﾅｿﾝ","kana_address":"ｷｾﾝﾊﾞﾙ","pref":"沖縄県","city":"国頭郡恩納村","address":"喜瀬武原"},
{"zip_code":"9040404","kana_pref":"ｵｷﾅﾜｹﾝ","kana_city":"ｸﾆｶﾞﾐｸﾞﾝｵﾝﾅｿﾝ","kana_address":"ｾﾗｶｷ","pref":"沖縄県","city":"国頭郡恩納村","address":"瀬良垣"},
{"zip_code":"9040412","kana_pref":"ｵｷﾅﾜｹﾝ","kana_city":"ｸﾆｶﾞﾐｸﾞﾝｵﾝﾅｿﾝ","kana_address":"ﾀﾝﾁｬ","pref":"沖縄県","city":"国頭郡恩納村","address":"谷茶"},
{"zip_code":"9040415","kana_pref":"ｵｷﾅﾜｹﾝ","kana_city":"ｸﾆｶﾞﾐｸﾞﾝｵﾝﾅｿﾝ","kana_address":"ﾅｶﾄﾞﾏﾘ","pref":"沖縄県","city":"国頭郡恩納村","address":"仲泊"},
{"zip_code":"9040401","kana_pref":"ｵｷﾅﾜｹﾝ","kana_city":"ｸﾆｶﾞﾐｸﾞﾝｵﾝﾅｿﾝ","kana_address":"ﾅｶﾏ","pref":"沖縄県","city":"国頭郡恩納村","address":"名嘉真"},
{"zip_code":"9040413","kana_pref":"ｵｷﾅﾜｹﾝ","kana_city":"ｸﾆｶﾞﾐｸﾞﾝｵﾝﾅｿﾝ","kana_address":"ﾌﾁｬｸ","pref":"沖縄県","city":"国頭郡恩納村","address":"冨着"},
{"zip_code":"9040414","kana_pref":"ｵｷﾅﾜｹﾝ","kana_city":"ｸﾆｶﾞﾐｸﾞﾝｵﾝﾅｿﾝ","kana_address":"ﾏｴｶﾞﾈｸ","pref":"沖縄県","city":"国頭郡恩納村","address":"前兼久"},
{"zip_code":"9040417","kana_pref":"ｵｷﾅﾜｹﾝ","kana_city":"ｸﾆｶﾞﾐｸﾞﾝｵﾝﾅｿﾝ","kana_address":"ﾏｴﾀﾞ","pref":"沖縄県","city":"国頭郡恩納村","address":"真栄田"},
{"zip_code":"9040416","kana_pref":"ｵｷﾅﾜｹﾝ","kana_city":"ｸﾆｶﾞﾐｸﾞﾝｵﾝﾅｿﾝ","kana_address":"ﾔﾏﾀﾞ","pref":"沖縄県","city":"国頭郡恩納村","address":"山田"},
{"zip_code":"9041300","kana_pref":"ｵｷﾅﾜｹﾝ","kana_city":"ｸﾆｶﾞﾐｸﾞﾝｷﾞﾉｻﾞｿﾝ","kana_address":"","pref":"沖縄県","city":"国頭郡宜野座村","address":""},
{"zip_code":"9041304","kana_pref":"ｵｷﾅﾜｹﾝ","kana_city":"ｸﾆｶﾞﾐｸﾞﾝｷﾞﾉｻﾞｿﾝ","kana_address":"ｶﾝﾅ","pref":"沖縄県","city":"国頭郡宜野座村","address":"漢那"},
{"zip_code":"9041302","kana_pref":"ｵｷﾅﾜｹﾝ","kana_city":"ｸﾆｶﾞﾐｸﾞﾝｷﾞﾉｻﾞｿﾝ","kana_address":"ｷﾞﾉｻﾞ","pref":"沖縄県","city":"国頭郡宜野座村","address":"宜野座"},
{"zip_code":"9041303","kana_pref":"ｵｷﾅﾜｹﾝ","kana_city":"ｸﾆｶﾞﾐｸﾞﾝｷﾞﾉｻﾞｿﾝ","kana_address":"ｿｹｲ","pref":"沖縄県","city":"国頭郡宜野座村","address":"惣慶"},
{"zip_code":"9041301","kana_pref":"ｵｷﾅﾜｹﾝ","kana_city":"ｸﾆｶﾞﾐｸﾞﾝｷﾞﾉｻﾞｿﾝ","kana_address":"ﾏﾂﾀﾞ","pref":"沖縄県","city":"国頭郡宜野座村","address":"松田"},
{"zip_code":"9041200","kana_pref":"ｵｷﾅﾜｹﾝ","kana_city":"ｸﾆｶﾞﾐｸﾞﾝｷﾝﾁｮｳ","kana_address":"","pref":"沖縄県","city":"国頭郡金武町","address":""},
{"zip_code":"9041202","kana_pref":"ｵｷﾅﾜｹﾝ","kana_city":"ｸﾆｶﾞﾐｸﾞﾝｷﾝﾁｮｳ","kana_address":"ｲｹﾞｲ","pref":"沖縄県","city":"国頭郡金武町","address":"伊芸"},
{"zip_code":"9041201","kana_pref":"ｵｷﾅﾜｹﾝ","kana_city":"ｸﾆｶﾞﾐｸﾞﾝｷﾝﾁｮｳ","kana_address":"ｷﾝ","pref":"沖縄県","city":"国頭郡金武町","address":"金武"},
{"zip_code":"9041203","kana_pref":"ｵｷﾅﾜｹﾝ","kana_city":"ｸﾆｶﾞﾐｸﾞﾝｷﾝﾁｮｳ","kana_address":"ﾔｶ","pref":"沖縄県","city":"国頭郡金武町","address":"屋嘉"},
{"zip_code":"9040300","kana_pref":"ｵｷﾅﾜｹﾝ","kana_city":"ﾅｶｶﾞﾐｸﾞﾝﾖﾐﾀﾝｿﾝ","kana_address":"","pref":"沖縄県","city":"中頭郡読谷村","address":""},
{"zip_code":"9040303","kana_pref":"ｵｷﾅﾜｹﾝ","kana_city":"ﾅｶｶﾞﾐｸﾞﾝﾖﾐﾀﾝｿﾝ","kana_address":"ｲﾗﾐﾅ","pref":"沖縄県","city":"中頭郡読谷村","address":"伊良皆"},
{"zip_code":"9040321","kana_pref":"ｵｷﾅﾜｹﾝ","kana_city":"ﾅｶｶﾞﾐｸﾞﾝﾖﾐﾀﾝｿﾝ","kana_address":"ｳｴﾁ","pref":"沖縄県","city":"中頭郡読谷村","address":"上地"},
{"zip_code":"9040328","kana_pref":"ｵｷﾅﾜｹﾝ","kana_city":"ﾅｶｶﾞﾐｸﾞﾝﾖﾐﾀﾝｿﾝ","kana_address":"ｳｻﾞ","pref":"沖縄県","city":"中頭郡読谷村","address":"宇座"},
{"zip_code":"9040316","kana_pref":"ｵｷﾅﾜｹﾝ","kana_city":"ﾅｶｶﾞﾐｸﾞﾝﾖﾐﾀﾝｿﾝ","kana_address":"ｵｵｷ","pref":"沖縄県","city":"中頭郡読谷村","address":"大木"},
{"zip_code":"9040313","kana_pref":"ｵｷﾅﾜｹﾝ","kana_city":"ﾅｶｶﾞﾐｸﾞﾝﾖﾐﾀﾝｿﾝ","kana_address":"ｵｵﾜﾝ","pref":"沖縄県","city":"中頭郡読谷村","address":"大湾"},
{"zip_code":"9040302","kana_pref":"ｵｷﾅﾜｹﾝ","kana_city":"ﾅｶｶﾞﾐｸﾞﾝﾖﾐﾀﾝｿﾝ","kana_address":"ｷﾅ","pref":"沖縄県","city":"中頭郡読谷村","address":"喜名"},
{"zip_code":"9040327","kana_pref":"ｵｷﾅﾜｹﾝ","kana_city":"ﾅｶｶﾞﾐｸﾞﾝﾖﾐﾀﾝｿﾝ","kana_address":"ｷﾞﾏ","pref":"沖縄県","city":"中頭郡読谷村","address":"儀間"},
{"zip_code":"9040301","kana_pref":"ｵｷﾅﾜｹﾝ","kana_city":"ﾅｶｶﾞﾐｸﾞﾝﾖﾐﾀﾝｿﾝ","kana_address":"ｻﾞｷﾐ","pref":"沖縄県","city":"中頭郡読谷村","address":"座喜味"},
{"zip_code":"9040325","kana_pref":"ｵｷﾅﾜｹﾝ","kana_city":"ﾅｶｶﾞﾐｸﾞﾝﾖﾐﾀﾝｿﾝ","kana_address":"ｾﾅﾊ","pref":"沖縄県","city":"中頭郡読谷村","address":"瀬名波"},
{"zip_code":"9040304","kana_pref":"ｵｷﾅﾜｹﾝ","kana_city":"ﾅｶｶﾞﾐｸﾞﾝﾖﾐﾀﾝｿﾝ","kana_address":"ｿﾍﾞ","pref":"沖縄県","city":"中頭郡読谷村","address":"楚辺"},
{"zip_code":"9040323","kana_pref":"ｵｷﾅﾜｹﾝ","kana_city":"ﾅｶｶﾞﾐｸﾞﾝﾖﾐﾀﾝｿﾝ","kana_address":"ﾀｶｼﾎ","pref":"沖縄県","city":"中頭郡読谷村","address":"高志保"},
{"zip_code":"9040315","kana_pref":"ｵｷﾅﾜｹﾝ","kana_city":"ﾅｶｶﾞﾐｸﾞﾝﾖﾐﾀﾝｿﾝ","kana_address":"ﾄｸﾞﾁ","pref":"沖縄県","city":"中頭郡読谷村","address":"渡具知"},
{"zip_code":"9040326","kana_pref":"ｵｷﾅﾜｹﾝ","kana_city":"ﾅｶｶﾞﾐｸﾞﾝﾖﾐﾀﾝｿﾝ","kana_address":"ﾄｹｼ","pref":"沖縄県","city":"中頭郡読谷村","address":"渡慶次"},
{"zip_code":"9040305","kana_pref":"ｵｷﾅﾜｹﾝ","kana_city":"ﾅｶｶﾞﾐｸﾞﾝﾖﾐﾀﾝｿﾝ","kana_address":"ﾄﾔ","pref":"沖縄県","city":"中頭郡読谷村","address":"都屋"},
{"zip_code":"9040324","kana_pref":"ｵｷﾅﾜｹﾝ","kana_city":"ﾅｶｶﾞﾐｸﾞﾝﾖﾐﾀﾝｿﾝ","kana_address":"ﾅｶﾞﾊﾏ","pref":"沖縄県","city":"中頭郡読谷村","address":"長浜"},
{"zip_code":"9040322","kana_pref":"ｵｷﾅﾜｹﾝ","kana_city":"ﾅｶｶﾞﾐｸﾞﾝﾖﾐﾀﾝｿﾝ","kana_address":"ﾅﾐﾋﾗ","pref":"沖縄県","city":"中頭郡読谷村","address":"波平"},
{"zip_code":"9040311","kana_pref":"ｵｷﾅﾜｹﾝ","kana_city":"ﾅｶｶﾞﾐｸﾞﾝﾖﾐﾀﾝｿﾝ","kana_address":"ﾋｼﾞｬ","pref":"沖縄県","city":"中頭郡読谷村","address":"比謝"},
{"zip_code":"9040312","kana_pref":"ｵｷﾅﾜｹﾝ","kana_city":"ﾅｶｶﾞﾐｸﾞﾝﾖﾐﾀﾝｿﾝ","kana_address":"ﾋｼﾞｬﾊﾞｼ","pref":"沖縄県","city":"中頭郡読谷村","address":"比謝矼"},
{"zip_code":"9040314","kana_pref":"ｵｷﾅﾜｹﾝ","kana_city":"ﾅｶｶﾞﾐｸﾞﾝﾖﾐﾀﾝｿﾝ","kana_address":"ﾌﾙｹﾞﾝ","pref":"沖縄県","city":"中頭郡読谷村","address":"古堅"},
{"zip_code":"9040200","kana_pref":"ｵｷﾅﾜｹﾝ","kana_city":"ﾅｶｶﾞﾐｸﾞﾝｶﾃﾞﾅﾁｮｳ","kana_address":"","pref":"沖縄県","city":"中頭郡嘉手納町","address":""},
{"zip_code":"9040203","kana_pref":"ｵｷﾅﾜｹﾝ","kana_city":"ﾅｶｶﾞﾐｸﾞﾝｶﾃﾞﾅﾁｮｳ","kana_address":"ｶﾃﾞﾅ","pref":"沖縄県","city":"中頭郡嘉手納町","address":"嘉手納"},
{"zip_code":"9040205","kana_pref":"ｵｷﾅﾜｹﾝ","kana_city":"ﾅｶｶﾞﾐｸﾞﾝｶﾃﾞﾅﾁｮｳ","kana_address":"ｶﾈｸ","pref":"沖縄県","city":"中頭郡嘉手納町","address":"兼久"},
{"zip_code":"9040201","kana_pref":"ｵｷﾅﾜｹﾝ","kana_city":"ﾅｶｶﾞﾐｸﾞﾝｶﾃﾞﾅﾁｮｳ","kana_address":"ｸﾄﾞｸ","pref":"沖縄県","city":"中頭郡嘉手納町","address":"久得"},
{"zip_code":"9040204","kana_pref":"ｵｷﾅﾜｹﾝ","kana_city":"ﾅｶｶﾞﾐｸﾞﾝｶﾃﾞﾅﾁｮｳ","kana_address":"ﾐｽﾞｶﾞﾏ","pref":"沖縄県","city":"中頭郡嘉手納町","address":"水釜"},
{"zip_code":"9040202","kana_pref":"ｵｷﾅﾜｹﾝ","kana_city":"ﾅｶｶﾞﾐｸﾞﾝｶﾃﾞﾅﾁｮｳ","kana_address":"ﾔﾗ","pref":"沖縄県","city":"中頭郡嘉手納町","address":"屋良"},
{"zip_code":"9040100","kana_pref":"ｵｷﾅﾜｹﾝ","kana_city":"ﾅｶｶﾞﾐｸﾞﾝﾁｬﾀﾝﾁｮｳ","kana_address":"","pref":"沖縄県","city":"中頭郡北谷町","address":""},
{"zip_code":"9040102","kana_pref":"ｵｷﾅﾜｹﾝ","kana_city":"ﾅｶｶﾞﾐｸﾞﾝﾁｬﾀﾝﾁｮｳ","kana_address":"ｲﾍｲ","pref":"沖縄県","city":"中頭郡北谷町","address":"伊平"},
{"zip_code":"9040107","kana_pref":"ｵｷﾅﾜｹﾝ","kana_city":"ﾅｶｶﾞﾐｸﾞﾝﾁｬﾀﾝﾁｮｳ","kana_address":"ｵｵﾑﾗ","pref":"沖縄県","city":"中頭郡北谷町","address":"大村"},
{"zip_code":"9040101","kana_pref":"ｵｷﾅﾜｹﾝ","kana_city":"ﾅｶｶﾞﾐｸﾞﾝﾁｬﾀﾝﾁｮｳ","kana_address":"ｶﾐｾｲﾄﾞ","pref":"沖縄県","city":"中頭郡北谷町","address":"上勢頭"},
{"zip_code":"9040117","kana_pref":"ｵｷﾅﾜｹﾝ","kana_city":"ﾅｶｶﾞﾐｸﾞﾝﾁｬﾀﾝﾁｮｳ","kana_address":"ｷﾀﾏｴ","pref":"沖縄県","city":"中頭郡北谷町","address":"北前"},
{"zip_code":"9040103","kana_pref":"ｵｷﾅﾜｹﾝ","kana_city":"ﾅｶｶﾞﾐｸﾞﾝﾁｬﾀﾝﾁｮｳ","kana_address":"ｸﾜｴ","pref":"沖縄県","city":"中頭郡北谷町","address":"桑江"},
{"zip_code":"9040111","kana_pref":"ｵｷﾅﾜｹﾝ","kana_city":"ﾅｶｶﾞﾐｸﾞﾝﾁｬﾀﾝﾁｮｳ","kana_address":"ｽﾅﾍﾞ","pref":"沖縄県","city":"中頭郡北谷町","address":"砂辺"},
{"zip_code":"9040106","kana_pref":"ｵｷﾅﾜｹﾝ","kana_city":"ﾅｶｶﾞﾐｸﾞﾝﾁｬﾀﾝﾁｮｳ","kana_address":"ﾀﾏｶﾞﾐ","pref":"沖縄県","city":"中頭郡北谷町","address":"玉上"},
{"zip_code":"9040116","kana_pref":"ｵｷﾅﾜｹﾝ","kana_city":"ﾅｶｶﾞﾐｸﾞﾝﾁｬﾀﾝﾁｮｳ","kana_address":"ﾁｬﾀﾝ","pref":"沖縄県","city":"中頭郡北谷町","address":"北谷"},
{"zip_code":"9040104","kana_pref":"ｵｷﾅﾜｹﾝ","kana_city":"ﾅｶｶﾞﾐｸﾞﾝﾁｬﾀﾝﾁｮｳ","kana_address":"ﾄｳﾊﾞﾙ","pref":"沖縄県","city":"中頭郡北谷町","address":"桃原"},
{"zip_code":"9040112","kana_pref":"ｵｷﾅﾜｹﾝ","kana_city":"ﾅｶｶﾞﾐｸﾞﾝﾁｬﾀﾝﾁｮｳ","kana_address":"ﾊﾏｶﾞﾜ","pref":"沖縄県","city":"中頭郡北谷町","address":"浜川"},
{"zip_code":"9040114","kana_pref":"ｵｷﾅﾜｹﾝ","kana_city":"ﾅｶｶﾞﾐｸﾞﾝﾁｬﾀﾝﾁｮｳ","kana_address":"ﾐﾅﾄ","pref":"沖縄県","city":"中頭郡北谷町","address":"港"},
{"zip_code":"9040115","kana_pref":"ｵｷﾅﾜｹﾝ","kana_city":"ﾅｶｶﾞﾐｸﾞﾝﾁｬﾀﾝﾁｮｳ","kana_address":"ﾐﾊﾏ","pref":"沖縄県","city":"中頭郡北谷町","address":"美浜"},
{"zip_code":"9040113","kana_pref":"ｵｷﾅﾜｹﾝ","kana_city":"ﾅｶｶﾞﾐｸﾞﾝﾁｬﾀﾝﾁｮｳ","kana_address":"ﾐﾔｷﾞ","pref":"沖縄県","city":"中頭郡北谷町","address":"宮城"},
{"zip_code":"9040105","kana_pref":"ｵｷﾅﾜｹﾝ","kana_city":"ﾅｶｶﾞﾐｸﾞﾝﾁｬﾀﾝﾁｮｳ","kana_address":"ﾖｼﾊﾗ","pref":"沖縄県","city":"中頭郡北谷町","address":"吉原"}]}