{"zip_code":[
{"zip_code":"9060000","kana_pref":"ｵｷﾅﾜｹﾝ","kana_city":"ﾐﾔｺｼﾞﾏｼ","kana_address":"","pref":"沖縄県","city":"宮古島市","address":""},
{"zip_code":"9060502","kana_pref":"ｵｷﾅﾜｹﾝ","kana_city":"ﾐﾔｺｼﾞﾏｼ","kana_address":"ｲﾗﾌﾞｲｹﾏｿｴ","pref":"沖縄県","city":"宮古島市","address":"伊良部池間添"},
{"zip_code":"9060503","kana_pref":"ｵｷﾅﾜｹﾝ","kana_city":"ﾐﾔｺｼﾞﾏｼ","kana_address":"ｲﾗﾌﾞｲﾗﾌﾞ","pref":"沖縄県","city":"宮古島市","address":"伊良部伊良部"},
{"zip_code":"9060505","kana_pref":"ｵｷﾅﾜｹﾝ","kana_city":"ﾐﾔｺｼﾞﾏｼ","kana_address":"ｲﾗﾌﾞｸﾆﾅｶ","pref":"沖縄県","city":"宮古島市","address":"伊良部国仲"},
{"zip_code":"9060507","kana_pref":"ｵｷﾅﾜｹﾝ","kana_city":"ﾐﾔｺｼﾞﾏｼ","kana_address":"ｲﾗﾌﾞｻﾜﾀﾞ","pref":"沖縄県","city":"宮古島市","address":"伊良部佐和田"},
{"zip_code":"9060504","kana_pref":"ｵｷﾅﾜｹﾝ","kana_city":"ﾐﾔｺｼﾞﾏｼ","kana_address":"ｲﾗﾌﾞﾅｶﾁ","pref":"沖縄県","city":"宮古島市","address":"伊良部仲地"},
{"zip_code":"9060506","kana_pref":"ｵｷﾅﾜｹﾝ","kana_city":"ﾐﾔｺｼﾞﾏｼ","kana_address":"ｲﾗﾌﾞﾅｶﾞﾊﾏ","pref":"沖縄県","city":"宮古島市","address":"伊良部長浜"},
{"zip_code":"9060501","kana_pref":"ｵｷﾅﾜｹﾝ","kana_city":"ﾐﾔｺｼﾞﾏｼ","kana_address":"ｲﾗﾌﾞﾏｴｻﾄｿｴ","pref":"沖縄県","city":"宮古島市","address":"伊良部前里添"},
{"zip_code":"9060202","kana_pref":"ｵｷﾅﾜｹﾝ","kana_city":"ﾐﾔｺｼﾞﾏｼ","kana_address":"ｳｴﾉｱﾗｻﾞﾄ","pref":"沖縄県","city":"宮古島市","address":"上野新里"},
{"zip_code":"9060204","kana_pref":"ｵｷﾅﾜｹﾝ","kana_city":"ﾐﾔｺｼﾞﾏｼ","kana_address":"ｳｴﾉｳｴﾉ","pref":"沖縄県","city":"宮古島市","address":"上野上野"},
{"zip_code":"9060201","kana_pref":"ｵｷﾅﾜｹﾝ","kana_city":"ﾐﾔｺｼﾞﾏｼ","kana_address":"ｳｴﾉﾉﾊﾞﾙ","pref":"沖縄県","city":"宮古島市","address":"上野野原"},
{"zip_code":"9060203","kana_pref":"ｵｷﾅﾜｹﾝ","kana_city":"ﾐﾔｺｼﾞﾏｼ","kana_address":"ｳｴﾉﾐﾔｸﾞﾆ","pref":"沖縄県","city":"宮古島市","address":"上野宮国"},
{"zip_code":"9060102","kana_pref":"ｵｷﾅﾜｹﾝ","kana_city":"ﾐﾔｺｼﾞﾏｼ","kana_address":"ｸﾞｽｸﾍﾞｱﾗｸﾞｽｸ","pref":"沖縄県","city":"宮古島市","address":"城辺新城"},
{"zip_code":"9060108","kana_pref":"ｵｷﾅﾜｹﾝ","kana_city":"ﾐﾔｺｼﾞﾏｼ","kana_address":"ｸﾞｽｸﾍﾞｳﾙｶ","pref":"沖縄県","city":"宮古島市","address":"城辺砂川"},
{"zip_code":"9060109","kana_pref":"ｵｷﾅﾜｹﾝ","kana_city":"ﾐﾔｺｼﾞﾏｼ","kana_address":"ｸﾞｽｸﾍﾞｼﾓｻﾞﾄｿｴ","pref":"沖縄県","city":"宮古島市","address":"城辺下里添"},
{"zip_code":"9060107","kana_pref":"ｵｷﾅﾜｹﾝ","kana_city":"ﾐﾔｺｼﾞﾏｼ","kana_address":"ｸﾞｽｸﾍﾞﾄﾓﾘ","pref":"沖縄県","city":"宮古島市","address":"城辺友利"},
{"zip_code":"9060105","kana_pref":"ｵｷﾅﾜｹﾝ","kana_city":"ﾐﾔｺｼﾞﾏｼ","kana_address":"ｸﾞｽｸﾍﾞﾅｶﾞﾏ","pref":"沖縄県","city":"宮古島市","address":"城辺長間"},
{"zip_code":"9060106","kana_pref":"ｵｷﾅﾜｹﾝ","kana_city":"ﾐﾔｺｼﾞﾏｼ","kana_address":"ｸﾞｽｸﾍﾞﾆｼｻﾞﾄｿｴ","pref":"沖縄県","city":"宮古島市","address":"城辺西里添"},
{"zip_code":"9060104","kana_pref":"ｵｷﾅﾜｹﾝ","kana_city":"ﾐﾔｺｼﾞﾏｼ","kana_address":"ｸﾞｽｸﾍﾞﾋｶﾞ","pref":"沖縄県","city":"宮古島市","address":"城辺比嘉"},
{"zip_code":"9060103","kana_pref":"ｵｷﾅﾜｹﾝ","kana_city":"ﾐﾔｺｼﾞﾏｼ","kana_address":"ｸﾞｽｸﾍﾞﾌｸｻﾞﾄ","pref":"沖縄県","city":"宮古島市","address":"城辺福里"},
{"zip_code":"9060101","kana_pref":"ｵｷﾅﾜｹﾝ","kana_city":"ﾐﾔｺｼﾞﾏｼ","kana_address":"ｸﾞｽｸﾍﾞﾎﾞﾗ","pref":"沖縄県","city":"宮古島市","address":"城辺保良"},
{"zip_code":"9060304","kana_pref":"ｵｷﾅﾜｹﾝ","kana_city":"ﾐﾔｺｼﾞﾏｼ","kana_address":"ｼﾓｼﾞｳｴﾁ","pref":"沖縄県","city":"宮古島市","address":"下地上地"},
{"zip_code":"9060302","kana_pref":"ｵｷﾅﾜｹﾝ","kana_city":"ﾐﾔｺｼﾞﾏｼ","kana_address":"ｼﾓｼﾞｶﾃﾞｶﾘ","pref":"沖縄県","city":"宮古島市","address":"下地嘉手苅"},
{"zip_code":"9060301","kana_pref":"ｵｷﾅﾜｹﾝ","kana_city":"ﾐﾔｺｼﾞﾏｼ","kana_address":"ｼﾓｼﾞｶﾜﾐﾂ","pref":"沖縄県","city":"宮古島市","address":"下地川満"},
{"zip_code":"9060306","kana_pref":"ｵｷﾅﾜｹﾝ","kana_city":"ﾐﾔｺｼﾞﾏｼ","kana_address":"ｼﾓｼﾞｸﾘﾏ","pref":"沖縄県","city":"宮古島市","address":"下地来間"},
{"zip_code":"9060303","kana_pref":"ｵｷﾅﾜｹﾝ","kana_city":"ﾐﾔｺｼﾞﾏｼ","kana_address":"ｼﾓｼﾞｽｶﾞﾏ","pref":"沖縄県","city":"宮古島市","address":"下地洲鎌"},
{"zip_code":"9060305","kana_pref":"ｵｷﾅﾜｹﾝ","kana_city":"ﾐﾔｺｼﾞﾏｼ","kana_address":"ｼﾓｼﾞﾖﾅﾊ","pref":"沖縄県","city":"宮古島市","address":"下地与那覇"},
{"zip_code":"9060421","kana_pref":"ｵｷﾅﾜｹﾝ","kana_city":"ﾐﾔｺｼﾞﾏｼ","kana_address":"ﾋﾗﾗｲｹﾏ","pref":"沖縄県","city":"宮古島市","address":"平良池間"},
{"zip_code":"9060004","kana_pref":"ｵｷﾅﾜｹﾝ","kana_city":"ﾐﾔｺｼﾞﾏｼ","kana_address":"ﾋﾗﾗｵｵｳﾗ","pref":"沖縄県","city":"宮古島市","address":"平良大浦"},
{"zip_code":"9060001","kana_pref":"ｵｷﾅﾜｹﾝ","kana_city":"ﾐﾔｺｼﾞﾏｼ","kana_address":"ﾋﾗﾗｵｵｶﾞﾐ","pref":"沖縄県","city":"宮古島市","address":"平良大神"},
{"zip_code":"9060002","kana_pref":"ｵｷﾅﾜｹﾝ","kana_city":"ﾐﾔｺｼﾞﾏｼ","kana_address":"ﾋﾗﾗｶﾘﾏﾀ","pref":"沖縄県","city":"宮古島市","address":"平良狩俣"},
{"zip_code":"9060015","kana_pref":"ｵｷﾅﾜｹﾝ","kana_city":"ﾐﾔｺｼﾞﾏｼ","kana_address":"ﾋﾗﾗｸｶﾞｲ","pref":"沖縄県","city":"宮古島市","address":"平良久貝"},
{"zip_code":"9060003","kana_pref":"ｵｷﾅﾜｹﾝ","kana_city":"ﾐﾔｺｼﾞﾏｼ","kana_address":"ﾋﾗﾗｼﾏｼﾞﾘ","pref":"沖縄県","city":"宮古島市","address":"平良島尻"},
{"zip_code":"9060013","kana_pref":"ｵｷﾅﾜｹﾝ","kana_city":"ﾐﾔｺｼﾞﾏｼ","kana_address":"ﾋﾗﾗｼﾓｻﾞﾄ","pref":"沖縄県","city":"宮古島市","address":"平良下里"},
{"zip_code":"9060008","kana_pref":"ｵｷﾅﾜｹﾝ","kana_city":"ﾐﾔｺｼﾞﾏｼ","kana_address":"ﾋﾗﾗﾆｶﾄﾞﾘ","pref":"沖縄県","city":"宮古島市","address":"平良荷川取"},
{"zip_code":"9060012","kana_pref":"ｵｷﾅﾜｹﾝ","kana_city":"ﾐﾔｺｼﾞﾏｼ","kana_address":"ﾋﾗﾗﾆｼｻﾞﾄ","pref":"沖縄県","city":"宮古島市","address":"平良西里"},
{"zip_code":"9060006","kana_pref":"ｵｷﾅﾜｹﾝ","kana_city":"ﾐﾔｺｼﾞﾏｼ","kana_address":"ﾋﾗﾗﾆｼﾅｶｿﾈ","pref":"沖縄県","city":"宮古島市","address":"平良西仲宗根"},
{"zip_code":"9060005","kana_pref":"ｵｷﾅﾜｹﾝ","kana_city":"ﾐﾔｺｼﾞﾏｼ","kana_address":"ﾋﾗﾗﾆｼﾊﾗ","pref":"沖縄県","city":"宮古島市","address":"平良西原"},
{"zip_code":"9060007","kana_pref":"ｵｷﾅﾜｹﾝ","kana_city":"ﾐﾔｺｼﾞﾏｼ","kana_address":"ﾋﾗﾗﾋｶﾞｼﾅｶｿﾈ","pref":"沖縄県","city":"宮古島市","address":"平良東仲宗根"},
{"zip_code":"9060011","kana_pref":"ｵｷﾅﾜｹﾝ","kana_city":"ﾐﾔｺｼﾞﾏｼ","kana_address":"ﾋﾗﾗﾋｶﾞｼﾅｶｿﾈｿﾞｴ","pref":"沖縄県","city":"宮古島市","address":"平良東仲宗根添"},
{"zip_code":"9060422","kana_pref":"ｵｷﾅﾜｹﾝ","kana_city":"ﾐﾔｺｼﾞﾏｼ","kana_address":"ﾋﾗﾗﾏｴｻﾞﾄ","pref":"沖縄県","city":"宮古島市","address":"平良前里"},
{"zip_code":"9060014","kana_pref":"ｵｷﾅﾜｹﾝ","kana_city":"ﾐﾔｺｼﾞﾏｼ","kana_address":"ﾋﾗﾗﾏﾂﾊﾞﾗ","pref":"沖縄県","city":"宮古島市","address":"平良松原"},
{"zip_code":"9060600","kana_pref":"ｵｷﾅﾜｹﾝ","kana_city":"ﾐﾔｺｸﾞﾝﾀﾗﾏｿﾝ","kana_address":"","pref":"沖縄県","city":"宮古郡多良間村","address":""},
{"zip_code":"9060601","kana_pref":"ｵｷﾅﾜｹﾝ","kana_city":"ﾐﾔｺｸﾞﾝﾀﾗﾏｿﾝ","kana_address":"ｼｵｶﾜ","pref":"沖縄県","city":"宮古郡多良間村","address":"塩川"},
{"zip_code":"9060602","kana_pref":"ｵｷﾅﾜｹﾝ","kana_city":"ﾐﾔｺｸﾞﾝﾀﾗﾏｿﾝ","kana_address":"ﾅｶｽｼﾞ","pref":"沖縄県","city":"宮古郡多良間村","address":"仲筋"},
{"zip_code":"9060603","kana_pref":"ｵｷﾅﾜｹﾝ","kana_city":"ﾐﾔｺｸﾞﾝﾀﾗﾏｿﾝ","kana_address":"ﾐﾝﾅ","pref":"沖縄県","city":"宮古郡多良間村","address":"水納"}]}