{"zip_code":[
{"zip_code":"9070000","kana_pref":"ｵｷﾅﾜｹﾝ","kana_city":"ｲｼｶﾞｷｼ","kana_address":"","pref":"沖縄県","city":"石垣市","address":""},
{"zip_code":"9070024","kana_pref":"ｵｷﾅﾜｹﾝ","kana_city":"ｲｼｶﾞｷｼ","kana_address":"ｱﾗｶﾜ","pref":"沖縄県","city":"石垣市","address":"新川"},
{"zip_code":"9070023","kana_pref":"ｵｷﾅﾜｹﾝ","kana_city":"ｲｼｶﾞｷｼ","kana_address":"ｲｼｶﾞｷ","pref":"沖縄県","city":"石垣市","address":"石垣"},
{"zip_code":"9070332","kana_pref":"ｵｷﾅﾜｹﾝ","kana_city":"ｲｼｶﾞｷｼ","kana_address":"ｲﾊﾞﾙﾏ","pref":"沖縄県","city":"石垣市","address":"伊原間"},
{"zip_code":"9070022","kana_pref":"ｵｷﾅﾜｹﾝ","kana_city":"ｲｼｶﾞｷｼ","kana_address":"ｵｵｶﾜ","pref":"沖縄県","city":"石垣市","address":"大川"},
{"zip_code":"9070001","kana_pref":"ｵｷﾅﾜｹﾝ","kana_city":"ｲｼｶﾞｷｼ","kana_address":"ｵｵﾊﾏ","pref":"沖縄県","city":"石垣市","address":"大浜"},
{"zip_code":"9070453","kana_pref":"ｵｷﾅﾜｹﾝ","kana_city":"ｲｼｶﾞｷｼ","kana_address":"ｶﾋﾞﾗ","pref":"沖縄県","city":"石垣市","address":"川平"},
{"zip_code":"9070452","kana_pref":"ｵｷﾅﾜｹﾝ","kana_city":"ｲｼｶﾞｷｼ","kana_address":"ｻｷｴﾀﾞ","pref":"沖縄県","city":"石垣市","address":"崎枝"},
{"zip_code":"9070242","kana_pref":"ｵｷﾅﾜｹﾝ","kana_city":"ｲｼｶﾞｷｼ","kana_address":"ｼﾗﾎ","pref":"沖縄県","city":"石垣市","address":"白保"},
{"zip_code":"9070014","kana_pref":"ｵｷﾅﾜｹﾝ","kana_city":"ｲｼｶﾞｷｼ","kana_address":"ｼﾝｴｲﾁｮｳ","pref":"沖縄県","city":"石垣市","address":"新栄町"},
{"zip_code":"9070241","kana_pref":"ｵｷﾅﾜｹﾝ","kana_city":"ｲｼｶﾞｷｼ","kana_address":"ﾄｳｻﾞﾄ","pref":"沖縄県","city":"石垣市","address":"桃里"},
{"zip_code":"9070004","kana_pref":"ｵｷﾅﾜｹﾝ","kana_city":"ｲｼｶﾞｷｼ","kana_address":"ﾄﾉｼﾛ","pref":"沖縄県","city":"石垣市","address":"登野城"},
{"zip_code":"9070021","kana_pref":"ｵｷﾅﾜｹﾝ","kana_city":"ｲｼｶﾞｷｼ","kana_address":"ﾅｸﾞﾗ","pref":"沖縄県","city":"石垣市","address":"名蔵"},
{"zip_code":"9070333","kana_pref":"ｵｷﾅﾜｹﾝ","kana_city":"ｲｼｶﾞｷｼ","kana_address":"ﾉｿｺ","pref":"沖縄県","city":"石垣市","address":"野底"},
{"zip_code":"9070013","kana_pref":"ｵｷﾅﾜｹﾝ","kana_city":"ｲｼｶﾞｷｼ","kana_address":"ﾊﾏｻｷﾁｮｳ","pref":"沖縄県","city":"石垣市","address":"浜崎町"},
{"zip_code":"9070003","kana_pref":"ｵｷﾅﾜｹﾝ","kana_city":"ｲｼｶﾞｷｼ","kana_address":"ﾋﾗｴ","pref":"沖縄県","city":"石垣市","address":"平得"},
{"zip_code":"9070331","kana_pref":"ｵｷﾅﾜｹﾝ","kana_city":"ｲｼｶﾞｷｼ","kana_address":"ﾋﾗｸﾎﾞ","pref":"沖縄県","city":"石垣市","address":"平久保"},
{"zip_code":"9070451","kana_pref":"ｵｷﾅﾜｹﾝ","kana_city":"ｲｼｶﾞｷｼ","kana_address":"ﾌｶｲ","pref":"沖縄県","city":"石垣市","address":"桴海"},
{"zip_code":"9070002","kana_pref":"ｵｷﾅﾜｹﾝ","kana_city":"ｲｼｶﾞｷｼ","kana_address":"ﾏｴｻﾞﾄ","pref":"沖縄県","city":"石垣市","address":"真栄里"},
{"zip_code":"9070012","kana_pref":"ｵｷﾅﾜｹﾝ","kana_city":"ｲｼｶﾞｷｼ","kana_address":"ﾐｻｷﾁｮｳ","pref":"沖縄県","city":"石垣市","address":"美崎町"},
{"zip_code":"9070243","kana_pref":"ｵｷﾅﾜｹﾝ","kana_city":"ｲｼｶﾞｷｼ","kana_address":"ﾐﾔﾗ","pref":"沖縄県","city":"石垣市","address":"宮良"},
{"zip_code":"9070011","kana_pref":"ｵｷﾅﾜｹﾝ","kana_city":"ｲｼｶﾞｷｼ","kana_address":"ﾔｼﾏﾁｮｳ","pref":"沖縄県","city":"石垣市","address":"八島町"},
{"zip_code":"9070000","kana_pref":"ｵｷﾅﾜｹﾝ","kana_city":"ﾔｴﾔﾏｸﾞﾝﾀｹﾄﾐﾁｮｳ","kana_address":"","pref":"沖縄県","city":"八重山郡竹富町","address":""},
{"zip_code":"9071435","kana_pref":"ｵｷﾅﾜｹﾝ","kana_city":"ﾔｴﾔﾏｸﾞﾝﾀｹﾄﾐﾁｮｳ","kana_address":"ｱﾗｸﾞｽｸ","pref":"沖縄県","city":"八重山郡竹富町","address":"新城"},
{"zip_code":"9071542","kana_pref":"ｵｷﾅﾜｹﾝ","kana_city":"ﾔｴﾔﾏｸﾞﾝﾀｹﾄﾐﾁｮｳ","kana_address":"ｲﾘｵﾓﾃ","pref":"沖縄県","city":"八重山郡竹富町","address":"西表"},
{"zip_code":"9071541","kana_pref":"ｵｷﾅﾜｹﾝ","kana_city":"ﾔｴﾔﾏｸﾞﾝﾀｹﾄﾐﾁｮｳ","kana_address":"ｳｴﾊﾗ","pref":"沖縄県","city":"八重山郡竹富町","address":"上原"},
{"zip_code":"9071311","kana_pref":"ｵｷﾅﾜｹﾝ","kana_city":"ﾔｴﾔﾏｸﾞﾝﾀｹﾄﾐﾁｮｳ","kana_address":"ｸﾛｼﾏ","pref":"沖縄県","city":"八重山郡竹富町","address":"黒島"},
{"zip_code":"9071221","kana_pref":"ｵｷﾅﾜｹﾝ","kana_city":"ﾔｴﾔﾏｸﾞﾝﾀｹﾄﾐﾁｮｳ","kana_address":"ｺﾊﾏ","pref":"沖縄県","city":"八重山郡竹富町","address":"小浜"},
{"zip_code":"9071432","kana_pref":"ｵｷﾅﾜｹﾝ","kana_city":"ﾔｴﾔﾏｸﾞﾝﾀｹﾄﾐﾁｮｳ","kana_address":"ｺﾐ","pref":"沖縄県","city":"八重山郡竹富町","address":"古見"},
{"zip_code":"9071543","kana_pref":"ｵｷﾅﾜｹﾝ","kana_city":"ﾔｴﾔﾏｸﾞﾝﾀｹﾄﾐﾁｮｳ","kana_address":"ｻｷﾔﾏ","pref":"沖縄県","city":"八重山郡竹富町","address":"崎山"},
{"zip_code":"9071431","kana_pref":"ｵｷﾅﾜｹﾝ","kana_city":"ﾔｴﾔﾏｸﾞﾝﾀｹﾄﾐﾁｮｳ","kana_address":"ﾀｶﾅ","pref":"沖縄県","city":"八重山郡竹富町","address":"高那"},
{"zip_code":"9071101","kana_pref":"ｵｷﾅﾜｹﾝ","kana_city":"ﾔｴﾔﾏｸﾞﾝﾀｹﾄﾐﾁｮｳ","kana_address":"ﾀｹﾄﾐ","pref":"沖縄県","city":"八重山郡竹富町","address":"竹富"},
{"zip_code":"9071434","kana_pref":"ｵｷﾅﾜｹﾝ","kana_city":"ﾔｴﾔﾏｸﾞﾝﾀｹﾄﾐﾁｮｳ","kana_address":"ﾊｲﾐ","pref":"沖縄県","city":"八重山郡竹富町","address":"南風見"},
{"zip_code":"9071433","kana_pref":"ｵｷﾅﾜｹﾝ","kana_city":"ﾔｴﾔﾏｸﾞﾝﾀｹﾄﾐﾁｮｳ","kana_address":"ﾊｲﾐﾅｶ","pref":"沖縄県","city":"八重山郡竹富町","address":"南風見仲"},
{"zip_code":"9071751","kana_pref":"ｵｷﾅﾜｹﾝ","kana_city":"ﾔｴﾔﾏｸﾞﾝﾀｹﾄﾐﾁｮｳ","kana_address":"ﾊﾃﾙﾏ","pref":"沖縄県","city":"八重山郡竹富町","address":"波照間"},
{"zip_code":"9071544","kana_pref":"ｵｷﾅﾜｹﾝ","kana_city":"ﾔｴﾔﾏｸﾞﾝﾀｹﾄﾐﾁｮｳ","kana_address":"ﾊﾄﾏ","pref":"沖縄県","city":"八重山郡竹富町","address":"鳩間"},
{"zip_code":"9071800","kana_pref":"ｵｷﾅﾜｹﾝ","kana_city":"ﾔｴﾔﾏｸﾞﾝﾖﾅｸﾞﾆﾁｮｳ","kana_address":"","pref":"沖縄県","city":"八重山郡与那国町","address":""},
{"zip_code":"9071801","kana_pref":"ｵｷﾅﾜｹﾝ","kana_city":"ﾔｴﾔﾏｸﾞﾝﾖﾅｸﾞﾆﾁｮｳ","kana_address":"ﾖﾅｸﾞﾆ","pref":"沖縄県","city":"八重山郡与那国町","address":"与那国"}]}