{"zip_code":[
{"zip_code":"9103614","kana_pref":"ﾌｸｲｹﾝ","kana_city":"ﾌｸｲｼ","kana_address":"ｱｲﾀﾞﾁｮｳ","pref":"福井県","city":"福井市","address":"在田町"},
{"zip_code":"9103556","kana_pref":"ﾌｸｲｹﾝ","kana_city":"ﾌｸｲｼ","kana_address":"ｱｶｻｶﾁｮｳ","pref":"福井県","city":"福井市","address":"赤坂町"},
{"zip_code":"9102475","kana_pref":"ﾌｸｲｹﾝ","kana_city":"ﾌｸｲｼ","kana_address":"ｱｶﾀﾞﾆﾁｮｳ","pref":"福井県","city":"福井市","address":"赤谷町"},
{"zip_code":"9102357","kana_pref":"ﾌｸｲｹﾝ","kana_city":"ﾌｸｲｼ","kana_address":"ｱｻﾀﾞﾆﾁｮｳ","pref":"福井県","city":"福井市","address":"朝谷町"},
{"zip_code":"9103605","kana_pref":"ﾌｸｲｹﾝ","kana_city":"ﾌｸｲｼ","kana_address":"ｱｻﾐﾔﾁｮｳ","pref":"福井県","city":"福井市","address":"朝宮町"},
{"zip_code":"9103266","kana_pref":"ﾌｸｲｹﾝ","kana_city":"ﾌｸｲｼ","kana_address":"ｱｼﾀﾆﾁｮｳ","pref":"福井県","city":"福井市","address":"足谷町"},
{"zip_code":"9102463","kana_pref":"ﾌｸｲｹﾝ","kana_city":"ﾌｸｲｼ","kana_address":"ｱｼﾞﾐｺｳﾁﾁｮｳ","pref":"福井県","city":"福井市","address":"味見河内町"},
{"zip_code":"9100104","kana_pref":"ﾌｸｲｹﾝ","kana_city":"ﾌｸｲｼ","kana_address":"ｱﾄﾞｾﾁｮｳ","pref":"福井県","city":"福井市","address":"網戸瀬町"},
{"zip_code":"9102152","kana_pref":"ﾌｸｲｹﾝ","kana_city":"ﾌｸｲｼ","kana_address":"ｱﾊﾞｶﾁｮｳ","pref":"福井県","city":"福井市","address":"安波賀町"},
{"zip_code":"9102151","kana_pref":"ﾌｸｲｹﾝ","kana_city":"ﾌｸｲｼ","kana_address":"ｱﾊﾞｶﾅｶｼﾞﾏﾁｮｳ","pref":"福井県","city":"福井市","address":"安波賀中島町"},
{"zip_code":"9100124","kana_pref":"ﾌｸｲｹﾝ","kana_city":"ﾌｸｲｼ","kana_address":"ｱﾏｲｹﾁｮｳ","pref":"福井県","city":"福井市","address":"天池町"},
{"zip_code":"9103525","kana_pref":"ﾌｸｲｹﾝ","kana_city":"ﾌｸｲｼ","kana_address":"ｱﾏｶﾞﾀﾆﾁｮｳ","pref":"福井県","city":"福井市","address":"尼ケ谷町"},
{"zip_code":"9100041","kana_pref":"ﾌｸｲｹﾝ","kana_city":"ﾌｸｲｼ","kana_address":"ｱﾏｽｺﾞｳﾁｮｳ","pref":"福井県","city":"福井市","address":"天菅生町"},
{"zip_code":"9103402","kana_pref":"ﾌｸｲｹﾝ","kana_city":"ﾌｸｲｼ","kana_address":"ｱﾕｶﾜﾁｮｳ","pref":"福井県","city":"福井市","address":"鮎川町"},
{"zip_code":"9102172","kana_pref":"ﾌｸｲｹﾝ","kana_city":"ﾌｸｲｼ","kana_address":"ｱﾗｷｼﾝﾎﾞﾁｮｳ","pref":"福井県","city":"福井市","address":"荒木新保町"},
{"zip_code":"9102171","kana_pref":"ﾌｸｲｹﾝ","kana_city":"ﾌｸｲｼ","kana_address":"ｱﾗｷﾁｮｳ","pref":"福井県","city":"福井市","address":"荒木町"},
{"zip_code":"9103251","kana_pref":"ﾌｸｲｹﾝ","kana_city":"ﾌｸｲｼ","kana_address":"ｱﾗﾀﾆﾁｮｳ","pref":"福井県","city":"福井市","address":"荒谷町"},
{"zip_code":"9100014","kana_pref":"ﾌｸｲｹﾝ","kana_city":"ﾌｸｲｼ","kana_address":"ｲｸﾋｻﾁｮｳ","pref":"福井県","city":"福井市","address":"幾久町"},
{"zip_code":"9100013","kana_pref":"ﾌｸｲｹﾝ","kana_city":"ﾌｸｲｼ","kana_address":"ｲｸﾖ","pref":"福井県","city":"福井市","address":"幾代"},
{"zip_code":"9103555","kana_pref":"ﾌｸｲｹﾝ","kana_city":"ﾌｸｲｼ","kana_address":"ｲｸﾗﾁｮｳ","pref":"福井県","city":"福井市","address":"居倉町"},
{"zip_code":"9103106","kana_pref":"ﾌｸｲｹﾝ","kana_city":"ﾌｸｲｼ","kana_address":"ｲｹﾉｼﾘﾁｮｳ","pref":"福井県","city":"福井市","address":"池尻町"},
{"zip_code":"9103133","kana_pref":"ﾌｸｲｹﾝ","kana_city":"ﾌｸｲｼ","kana_address":"ｲｼｼﾝﾎﾞﾁｮｳ","pref":"福井県","city":"福井市","address":"石新保町"},
{"zip_code":"9103137","kana_pref":"ﾌｸｲｹﾝ","kana_city":"ﾌｸｲｼ","kana_address":"ｲｼﾊﾞｼﾁｮｳ","pref":"福井県","city":"福井市","address":"石橋町"},
{"zip_code":"9103123","kana_pref":"ﾌｸｲｹﾝ","kana_city":"ﾌｸｲｼ","kana_address":"ｲｼﾊﾞﾀｹﾁｮｳ","pref":"福井県","city":"福井市","address":"石畠町"},
{"zip_code":"9100122","kana_pref":"ﾌｸｲｹﾝ","kana_city":"ﾌｸｲｼ","kana_address":"ｲｼﾓﾘﾁｮｳ","pref":"福井県","city":"福井市","address":"石盛町"},
{"zip_code":"9100817","kana_pref":"ﾌｸｲｹﾝ","kana_city":"ﾌｸｲｼ","kana_address":"ｲｽﾞﾐﾀﾞﾁｮｳ","pref":"福井県","city":"福井市","address":"泉田町"},
{"zip_code":"9103262","kana_pref":"ﾌｸｲｹﾝ","kana_city":"ﾌｸｲｼ","kana_address":"ｲﾁｵｳｼﾞﾁｮｳ","pref":"福井県","city":"福井市","address":"一王寺町"},
{"zip_code":"9102222","kana_pref":"ﾌｸｲｹﾝ","kana_city":"ﾌｸｲｼ","kana_address":"ｲﾁﾅﾐﾁｮｳ","pref":"福井県","city":"福井市","address":"市波町"},
{"zip_code":"9103125","kana_pref":"ﾌｸｲｹﾝ","kana_city":"ﾌｸｲｼ","kana_address":"ｲﾁﾉｾﾁｮｳ","pref":"福井県","city":"福井市","address":"市ノ瀬町"},
{"zip_code":"9103383","kana_pref":"ﾌｸｲｹﾝ","kana_city":"ﾌｸｲｼ","kana_address":"ｲﾄｻｷﾁｮｳ","pref":"福井県","city":"福井市","address":"糸崎町"},
{"zip_code":"9100156","kana_pref":"ﾌｸｲｹﾝ","kana_city":"ﾌｸｲｼ","kana_address":"ｲﾅﾀﾞｼﾝﾏﾁ","pref":"福井県","city":"福井市","address":"稲多新町"},
{"zip_code":"9100155","kana_pref":"ﾌｸｲｹﾝ","kana_city":"ﾌｸｲｼ","kana_address":"ｲﾅﾀﾞﾊﾏﾏﾁ","pref":"福井県","city":"福井市","address":"稲多浜町"},
{"zip_code":"9100154","kana_pref":"ﾌｸｲｹﾝ","kana_city":"ﾌｸｲｼ","kana_address":"ｲﾅﾀﾞﾓﾄﾏﾁ","pref":"福井県","city":"福井市","address":"稲多元町"},
{"zip_code":"9102177","kana_pref":"ﾌｸｲｹﾝ","kana_city":"ﾌｸｲｼ","kana_address":"ｲﾅﾂﾞﾁｮｳ","pref":"福井県","city":"福井市","address":"稲津町"},
{"zip_code":"9103118","kana_pref":"ﾌｸｲｹﾝ","kana_city":"ﾌｸｲｼ","kana_address":"ｳｴﾉﾁｮｳ","pref":"福井県","city":"福井市","address":"上野町"},
{"zip_code":"9100134","kana_pref":"ﾌｸｲｹﾝ","kana_city":"ﾌｸｲｼ","kana_address":"ｳｴﾉﾎﾝﾏﾁ","pref":"福井県","city":"福井市","address":"上野本町"},
{"zip_code":"9100135","kana_pref":"ﾌｸｲｹﾝ","kana_city":"ﾌｸｲｼ","kana_address":"ｳｴﾉﾎﾝﾏﾁｼﾝ","pref":"福井県","city":"福井市","address":"上野本町新"},
{"zip_code":"9100055","kana_pref":"ﾌｸｲｹﾝ","kana_city":"ﾌｸｲｼ","kana_address":"ｳｴﾌﾞｾﾁｮｳ","pref":"福井県","city":"福井市","address":"上伏町"},
{"zip_code":"9102227","kana_pref":"ﾌｸｲｹﾝ","kana_city":"ﾌｸｲｼ","kana_address":"ｳｻｶｵｵﾀﾆﾁｮｳ","pref":"福井県","city":"福井市","address":"宇坂大谷町"},
{"zip_code":"9102223","kana_pref":"ﾌｸｲｹﾝ","kana_city":"ﾌｸｲｼ","kana_address":"ｳｻｶﾍﾞｯｼｮﾁｮｳ","pref":"福井県","city":"福井市","address":"宇坂別所町"},
{"zip_code":"9102211","kana_pref":"ﾌｸｲｹﾝ","kana_city":"ﾌｸｲｼ","kana_address":"ｳｿｶﾞｸﾞﾁﾁｮｳ","pref":"福井県","city":"福井市","address":"獺ケ口町"},
{"zip_code":"9103522","kana_pref":"ﾌｸｲｹﾝ","kana_city":"ﾌｸｲｼ","kana_address":"ｳﾀｲﾀﾞﾆﾁｮｳ","pref":"福井県","city":"福井市","address":"謡谷町"},
{"zip_code":"9103116","kana_pref":"ﾌｸｲｹﾝ","kana_city":"ﾌｸｲｼ","kana_address":"ｳﾁﾔﾏﾅｼﾁｮｳ","pref":"福井県","city":"福井市","address":"内山梨子町"},
{"zip_code":"9100131","kana_pref":"ﾌｸｲｹﾝ","kana_city":"ﾌｸｲｼ","kana_address":"ｳﾙｼﾊﾗﾁｮｳ","pref":"福井県","city":"福井市","address":"漆原町"},
{"zip_code":"9103113","kana_pref":"ﾌｸｲｹﾝ","kana_city":"ﾌｸｲｼ","kana_address":"ｴｶﾞﾐﾁｮｳ","pref":"福井県","city":"福井市","address":"江上町"},
{"zip_code":"9100047","kana_pref":"ﾌｸｲｹﾝ","kana_city":"ﾌｸｲｼ","kana_address":"ｴﾋﾞｽｹﾁｮｳ","pref":"福井県","city":"福井市","address":"海老助町"},
{"zip_code":"9102175","kana_pref":"ﾌｸｲｹﾝ","kana_city":"ﾌｸｲｼ","kana_address":"ｴﾝｼﾞｮｳｼﾞﾁｮｳ","pref":"福井県","city":"福井市","address":"円成寺町"},
{"zip_code":"9103371","kana_pref":"ﾌｸｲｹﾝ","kana_city":"ﾌｸｲｼ","kana_address":"ｵｵｸﾎﾞﾁｮｳ","pref":"福井県","city":"福井市","address":"大窪町"},
{"zip_code":"9102213","kana_pref":"ﾌｸｲｹﾝ","kana_city":"ﾌｸｲｼ","kana_address":"ｵｵｸﾎﾞﾁｮｳ","pref":"福井県","city":"福井市","address":"大久保町"},
{"zip_code":"9103253","kana_pref":"ﾌｸｲｹﾝ","kana_city":"ﾌｸｲｼ","kana_address":"ｵｵﾀﾆﾁｮｳ","pref":"福井県","city":"福井市","address":"大谷町"},
{"zip_code":"9100005","kana_pref":"ﾌｸｲｹﾝ","kana_city":"ﾌｸｲｼ","kana_address":"ｵｵﾃ","pref":"福井県","city":"福井市","address":"大手"},
{"zip_code":"9103255","kana_pref":"ﾌｸｲｹﾝ","kana_city":"ﾌｸｲｼ","kana_address":"ｵｵﾄｼﾁｮｳ","pref":"福井県","city":"福井市","address":"大年町"},
{"zip_code":"9103551","kana_pref":"ﾌｸｲｹﾝ","kana_city":"ﾌｸｲｼ","kana_address":"ｵｵﾐﾁｮｳ","pref":"福井県","city":"福井市","address":"大味町"},
{"zip_code":"9100016","kana_pref":"ﾌｸｲｹﾝ","kana_city":"ﾌｸｲｼ","kana_address":"ｵｵﾐﾔ","pref":"福井県","city":"福井市","address":"大宮"},
{"zip_code":"9102334","kana_pref":"ﾌｸｲｹﾝ","kana_city":"ﾌｸｲｼ","kana_address":"ｵｵﾐﾔﾁｮｳ","pref":"福井県","city":"福井市","address":"大宮町"},
{"zip_code":"9103634","kana_pref":"ﾌｸｲｹﾝ","kana_city":"ﾌｸｲｼ","kana_address":"ｵｵﾓﾘﾁｮｳ","pref":"福井県","city":"福井市","address":"大森町"},
{"zip_code":"9103515","kana_pref":"ﾌｸｲｹﾝ","kana_city":"ﾌｸｲｼ","kana_address":"ｵｵﾔﾁｮｳ","pref":"福井県","city":"福井市","address":"大矢町"},
{"zip_code":"9100802","kana_pref":"ﾌｸｲｹﾝ","kana_city":"ﾌｸｲｼ","kana_address":"ｵｵﾜﾀﾞﾁｮｳ","pref":"福井県","city":"福井市","address":"大和田町"},
{"zip_code":"9103268","kana_pref":"ﾌｸｲｹﾝ","kana_city":"ﾌｸｲｼ","kana_address":"ｵｸﾀﾞｲﾗﾁｮｳ","pref":"福井県","city":"福井市","address":"奥平町"},
{"zip_code":"9102465","kana_pref":"ﾌｸｲｹﾝ","kana_city":"ﾌｸｲｼ","kana_address":"ｵﾄﾐﾁｮｳ","pref":"福井県","city":"福井市","address":"小当見町"},
{"zip_code":"9103404","kana_pref":"ﾌｸｲｹﾝ","kana_city":"ﾌｸｲｼ","kana_address":"ｵﾆｭｳﾁｮｳ","pref":"福井県","city":"福井市","address":"大丹生町"},
{"zip_code":"9103621","kana_pref":"ﾌｸｲｹﾝ","kana_city":"ﾌｸｲｼ","kana_address":"ｵﾊﾞﾁｮｳ","pref":"福井県","city":"福井市","address":"小羽町"},
{"zip_code":"9102474","kana_pref":"ﾌｸｲｹﾝ","kana_city":"ﾌｸｲｼ","kana_address":"ｵﾘﾀﾃﾁｮｳ","pref":"福井県","city":"福井市","address":"折立町"},
{"zip_code":"9100842","kana_pref":"ﾌｸｲｹﾝ","kana_city":"ﾌｸｲｼ","kana_address":"ｶｲﾎﾂ","pref":"福井県","city":"福井市","address":"開発"},
{"zip_code":"9100841","kana_pref":"ﾌｸｲｹﾝ","kana_city":"ﾌｸｲｼ","kana_address":"ｶｲﾎﾂﾁｮｳ","pref":"福井県","city":"福井市","address":"開発町"},
{"zip_code":"9103265","kana_pref":"ﾌｸｲｹﾝ","kana_city":"ﾌｸｲｼ","kana_address":"ｶｷﾀﾞﾆﾁｮｳ","pref":"福井県","city":"福井市","address":"柿谷町"},
{"zip_code":"9100028","kana_pref":"ﾌｸｲｹﾝ","kana_city":"ﾌｸｲｼ","kana_address":"ｶﾞｸｴﾝ","pref":"福井県","city":"福井市","address":"学園"},
{"zip_code":"9100022","kana_pref":"ﾌｸｲｹﾝ","kana_city":"ﾌｸｲｼ","kana_address":"ｶｹﾞﾂ","pref":"福井県","city":"福井市","address":"花月"},
{"zip_code":"9102205","kana_pref":"ﾌｸｲｹﾝ","kana_city":"ﾌｸｲｼ","kana_address":"ｶｺﾞﾔﾁｮｳ","pref":"福井県","city":"福井市","address":"篭谷町"},
{"zip_code":"9103516","kana_pref":"ﾌｸｲｹﾝ","kana_city":"ﾌｸｲｼ","kana_address":"ｶｻﾞｵﾁｮｳ","pref":"福井県","city":"福井市","address":"風尾町"},
{"zip_code":"9103622","kana_pref":"ﾌｸｲｹﾝ","kana_city":"ﾌｸｲｼ","kana_address":"ｶｻﾞﾏｷﾁｮｳ","pref":"福井県","city":"福井市","address":"風巻町"},
{"zip_code":"9103603","kana_pref":"ﾌｸｲｹﾝ","kana_city":"ﾌｸｲｼ","kana_address":"ｶﾀｶｽﾁｮｳ","pref":"福井県","city":"福井市","address":"片粕町"},
{"zip_code":"9103611","kana_pref":"ﾌｸｲｹﾝ","kana_city":"ﾌｸｲｼ","kana_address":"ｶﾀﾔﾏﾁｮｳ","pref":"福井県","city":"福井市","address":"片山町"},
{"zip_code":"9100856","kana_pref":"ﾌｸｲｹﾝ","kana_city":"ﾌｸｲｼ","kana_address":"ｶﾂﾐ","pref":"福井県","city":"福井市","address":"勝見"},
{"zip_code":"9102156","kana_pref":"ﾌｸｲｹﾝ","kana_city":"ﾌｸｲｼ","kana_address":"ｶﾅﾏﾀﾁｮｳ","pref":"福井県","city":"福井市","address":"鹿俣町"},
{"zip_code":"9103633","kana_pref":"ﾌｸｲｹﾝ","kana_city":"ﾌｸｲｼ","kana_address":"ｶﾐﾃｶﾞﾁｮｳ","pref":"福井県","city":"福井市","address":"上天下町"},
{"zip_code":"9102174","kana_pref":"ﾌｸｲｹﾝ","kana_city":"ﾌｸｲｼ","kana_address":"ｶﾐﾄｳｺﾞｳﾁｮｳ","pref":"福井県","city":"福井市","address":"上東郷町"},
{"zip_code":"9100826","kana_pref":"ﾌｸｲｹﾝ","kana_city":"ﾌｸｲｼ","kana_address":"ｶﾐﾅｶﾁｮｳ","pref":"福井県","city":"福井市","address":"上中町"},
{"zip_code":"9102144","kana_pref":"ﾌｸｲｹﾝ","kana_city":"ﾌｸｲｼ","kana_address":"ｶﾐﾋﾞｼｬﾓﾝﾁｮｳ","pref":"福井県","city":"福井市","address":"上毘沙門町"},
{"zip_code":"9100142","kana_pref":"ﾌｸｲｹﾝ","kana_city":"ﾌｸｲｼ","kana_address":"ｶﾐﾓﾘﾀﾞ","pref":"福井県","city":"福井市","address":"上森田"},
{"zip_code":"9100141","kana_pref":"ﾌｸｲｹﾝ","kana_city":"ﾌｸｲｼ","kana_address":"ｶﾐﾓﾘﾀﾞﾁｮｳ","pref":"福井県","city":"福井市","address":"上森田町"},
{"zip_code":"9103644","kana_pref":"ﾌｸｲｹﾝ","kana_city":"ﾌｸｲｼ","kana_address":"ｶﾓｳﾁﾁｮｳ","pref":"福井県","city":"福井市","address":"加茂内町"},
{"zip_code":"9103553","kana_pref":"ﾌｸｲｹﾝ","kana_city":"ﾌｸｲｼ","kana_address":"ｶﾞﾓｳﾁｮｳ","pref":"福井県","city":"福井市","address":"蒲生町"},
{"zip_code":"9103644","kana_pref":"ﾌｸｲｹﾝ","kana_city":"ﾌｸｲｼ","kana_address":"ｶﾓﾁｮｳ","pref":"福井県","city":"福井市","address":"加茂町"},
{"zip_code":"9100105","kana_pref":"ﾌｸｲｹﾝ","kana_city":"ﾌｸｲｼ","kana_address":"ｶﾜｲｶﾂﾐﾁｮｳ","pref":"福井県","city":"福井市","address":"河合勝見町"},
{"zip_code":"9100132","kana_pref":"ﾌｸｲｹﾝ","kana_city":"ﾌｸｲｼ","kana_address":"ｶﾜｲﾖﾘﾔｽﾁｮｳ","pref":"福井県","city":"福井市","address":"河合寄安町"},
{"zip_code":"9100102","kana_pref":"ﾌｸｲｹﾝ","kana_city":"ﾌｸｲｼ","kana_address":"ｶﾜｲﾜｼﾂﾞｶﾁｮｳ","pref":"福井県","city":"福井市","address":"川合鷲塚町"},
{"zip_code":"9103136","kana_pref":"ﾌｸｲｹﾝ","kana_city":"ﾌｸｲｼ","kana_address":"ｶﾜｼﾘﾁｮｳ","pref":"福井県","city":"福井市","address":"川尻町"},
{"zip_code":"9102462","kana_pref":"ﾌｸｲｹﾝ","kana_city":"ﾌｸｲｼ","kana_address":"ｶﾝﾄﾍﾞﾁｮｳ","pref":"福井県","city":"福井市","address":"神当部町"},
{"zip_code":"9100042","kana_pref":"ﾌｸｲｹﾝ","kana_city":"ﾌｸｲｼ","kana_address":"ｷｼﾐｽﾞﾁｮｳ","pref":"福井県","city":"福井市","address":"岸水町"},
{"zip_code":"9103385","kana_pref":"ﾌｸｲｹﾝ","kana_city":"ﾌｸｲｼ","kana_address":"ｷﾀｽｺﾞｳﾁｮｳ","pref":"福井県","city":"福井市","address":"北菅生町"},
{"zip_code":"9100045","kana_pref":"ﾌｸｲｹﾝ","kana_city":"ﾌｸｲｼ","kana_address":"ｷﾀﾅﾗﾊﾗﾁｮｳ","pref":"福井県","city":"福井市","address":"北楢原町"},
{"zip_code":"9100815","kana_pref":"ﾌｸｲｹﾝ","kana_city":"ﾌｸｲｼ","kana_address":"ｷﾀﾉｶﾐﾁｮｳ","pref":"福井県","city":"福井市","address":"北野上町"},
{"zip_code":"9100814","kana_pref":"ﾌｸｲｹﾝ","kana_city":"ﾌｸｲｼ","kana_address":"ｷﾀﾉｼﾓﾁｮｳ","pref":"福井県","city":"福井市","address":"北野下町"},
{"zip_code":"9102153","kana_pref":"ﾌｸｲｹﾝ","kana_city":"ﾌｸｲｼ","kana_address":"ｷﾄﾞﾉｳﾁﾁｮｳ","pref":"福井県","city":"福井市","address":"城戸ノ内町"},
{"zip_code":"9103147","kana_pref":"ﾌｸｲｹﾝ","kana_city":"ﾌｸｲｼ","kana_address":"ｷﾉｼﾀﾁｮｳ","pref":"福井県","city":"福井市","address":"木下町"},
{"zip_code":"9100012","kana_pref":"ﾌｸｲｹﾝ","kana_city":"ﾌｸｲｼ","kana_address":"ｷｮｳｴｲ","pref":"福井県","city":"福井市","address":"経栄"},
{"zip_code":"9100011","kana_pref":"ﾌｸｲｹﾝ","kana_city":"ﾌｸｲｼ","kana_address":"ｷｮｳﾃﾞﾝ","pref":"福井県","city":"福井市","address":"経田"},
{"zip_code":"9103264","kana_pref":"ﾌｸｲｹﾝ","kana_city":"ﾌｸｲｼ","kana_address":"ｷﾖﾈﾁｮｳ","pref":"福井県","city":"福井市","address":"木米町"},
{"zip_code":"9103145","kana_pref":"ﾌｸｲｹﾝ","kana_city":"ﾌｸｲｼ","kana_address":"ｸｼﾉﾁｮｳ","pref":"福井県","city":"福井市","address":"串野町"},
{"zip_code":"9103401","kana_pref":"ﾌｸｲｹﾝ","kana_city":"ﾌｸｲｼ","kana_address":"ｸﾆﾐﾁｮｳ","pref":"福井県","city":"福井市","address":"国見町"},
{"zip_code":"9103518","kana_pref":"ﾌｸｲｹﾝ","kana_city":"ﾌｸｲｼ","kana_address":"ｸﾆﾔﾏﾁｮｳ","pref":"福井県","city":"福井市","address":"国山町"},
{"zip_code":"9103552","kana_pref":"ﾌｸｲｹﾝ","kana_city":"ﾌｸｲｼ","kana_address":"ｸﾞﾐｻﾞｷﾁｮｳ","pref":"福井県","city":"福井市","address":"茱崎町"},
{"zip_code":"9102356","kana_pref":"ﾌｸｲｹﾝ","kana_city":"ﾌｸｲｼ","kana_address":"ｸﾗﾂｸﾘﾁｮｳ","pref":"福井県","city":"福井市","address":"蔵作町"},
{"zip_code":"9103604","kana_pref":"ﾌｸｲｹﾝ","kana_city":"ﾌｸｲｼ","kana_address":"ｸﾞﾘｰﾝﾊｲﾂ","pref":"福井県","city":"福井市","address":"グリーンハイツ"},
{"zip_code":"9100137","kana_pref":"ﾌｸｲｹﾝ","kana_city":"ﾌｸｲｼ","kana_address":"ｸﾘﾓﾘﾁｮｳ","pref":"福井県","city":"福井市","address":"栗森町"},
{"zip_code":"9100136","kana_pref":"ﾌｸｲｹﾝ","kana_city":"ﾌｸｲｼ","kana_address":"ｸﾘﾓﾘﾁｮｳﾊﾏ","pref":"福井県","city":"福井市","address":"栗森町浜"},
{"zip_code":"9103107","kana_pref":"ﾌｸｲｹﾝ","kana_city":"ﾌｸｲｼ","kana_address":"ｸﾛﾏﾙｼﾞｮｳﾁｮｳ","pref":"福井県","city":"福井市","address":"黒丸城町"},
{"zip_code":"9100052","kana_pref":"ﾌｸｲｹﾝ","kana_city":"ﾌｸｲｼ","kana_address":"ｸﾛﾏﾙﾁｮｳ","pref":"福井県","city":"福井市","address":"黒丸町"},
{"zip_code":"9100822","kana_pref":"ﾌｸｲｹﾝ","kana_city":"ﾌｸｲｼ","kana_address":"ｹﾞﾝｼｮｳｼﾞﾏﾁｮｳ","pref":"福井県","city":"福井市","address":"玄正島町"},
{"zip_code":"9100021","kana_pref":"ﾌｸｲｹﾝ","kana_city":"ﾌｸｲｼ","kana_address":"ｹﾝﾄｸ","pref":"福井県","city":"福井市","address":"乾徳"},
{"zip_code":"9102353","kana_pref":"ﾌｸｲｹﾝ","kana_city":"ﾌｸｲｼ","kana_address":"ｺｳｻｶｼﾞﾏﾁｮｳ","pref":"福井県","city":"福井市","address":"小宇坂島町"},
{"zip_code":"9102352","kana_pref":"ﾌｸｲｹﾝ","kana_city":"ﾌｸｲｼ","kana_address":"ｺｳｻｶﾁｮｳ","pref":"福井県","city":"福井市","address":"小宇坂町"},
{"zip_code":"9103267","kana_pref":"ﾌｸｲｹﾝ","kana_city":"ﾌｸｲｼ","kana_address":"ｺｳﾁﾁｮｳ","pref":"福井県","city":"福井市","address":"河内町"},
{"zip_code":"9100026","kana_pref":"ﾌｸｲｹﾝ","kana_city":"ﾌｸｲｼ","kana_address":"ｺｳﾖｳ","pref":"福井県","city":"福井市","address":"光陽"},
{"zip_code":"9100051","kana_pref":"ﾌｸｲｹﾝ","kana_city":"ﾌｸｲｼ","kana_address":"ｺｵﾘﾁｮｳ","pref":"福井県","city":"福井市","address":"郡町"},
{"zip_code":"9103613","kana_pref":"ﾌｸｲｹﾝ","kana_city":"ﾌｸｲｼ","kana_address":"ｺｼｷﾀﾞﾆﾁｮｳ","pref":"福井県","city":"福井市","address":"甑谷町"},
{"zip_code":"9103102","kana_pref":"ﾌｸｲｹﾝ","kana_city":"ﾌｸｲｼ","kana_address":"ｺｼﾞｮｳﾁｮｳ","pref":"福井県","city":"福井市","address":"小尉町"},
{"zip_code":"9103112","kana_pref":"ﾌｸｲｹﾝ","kana_city":"ﾌｸｲｼ","kana_address":"ｺﾞｼｮｶﾞｲﾁﾁｮｳ","pref":"福井県","city":"福井市","address":"御所垣内町"},
{"zip_code":"9103405","kana_pref":"ﾌｸｲｹﾝ","kana_city":"ﾌｸｲｼ","kana_address":"ｺﾆｭｳﾁｮｳ","pref":"福井県","city":"福井市","address":"小丹生町"},
{"zip_code":"9103122","kana_pref":"ﾌｸｲｹﾝ","kana_city":"ﾌｸｲｼ","kana_address":"ｺﾉﾁｮｳ","pref":"福井県","city":"福井市","address":"小野町"},
{"zip_code":"9103617","kana_pref":"ﾌｸｲｹﾝ","kana_city":"ﾌｸｲｼ","kana_address":"ｺﾞﾕﾁｮｳ","pref":"福井県","city":"福井市","address":"御油町"},
{"zip_code":"9102212","kana_pref":"ﾌｸｲｹﾝ","kana_city":"ﾌｸｲｼ","kana_address":"ｺﾜｼｮｳｽﾞﾁｮｳ","pref":"福井県","city":"福井市","address":"小和清水町"},
{"zip_code":"9103146","kana_pref":"ﾌｸｲｹﾝ","kana_city":"ﾌｸｲｼ","kana_address":"ｺﾜﾀﾁｮｳ","pref":"福井県","city":"福井市","address":"小幡町"},
{"zip_code":"9102347","kana_pref":"ﾌｸｲｹﾝ","kana_city":"ﾌｸｲｼ","kana_address":"ｻｶｲﾃﾞﾗﾁｮｳ","pref":"福井県","city":"福井市","address":"境寺町"},
{"zip_code":"9100151","kana_pref":"ﾌｸｲｹﾝ","kana_city":"ﾌｸｲｼ","kana_address":"ｻｶｴﾁｮｳ","pref":"福井県","city":"福井市","address":"栄町"},
{"zip_code":"9103645","kana_pref":"ﾌｸｲｹﾝ","kana_city":"ﾌｸｲｼ","kana_address":"ｻｻﾀﾞﾆﾁｮｳ","pref":"福井県","city":"福井市","address":"笹谷町"},
{"zip_code":"9100121","kana_pref":"ﾌｸｲｹﾝ","kana_city":"ﾌｸｲｼ","kana_address":"ｻﾀﾞﾏｻﾁｮｳ","pref":"福井県","city":"福井市","address":"定正町"},
{"zip_code":"9100056","kana_pref":"ﾌｸｲｹﾝ","kana_city":"ﾌｸｲｼ","kana_address":"ｻﾄﾍﾞｯｼｮｼﾝﾏﾁ","pref":"福井県","city":"福井市","address":"里別所新町"},
{"zip_code":"9100057","kana_pref":"ﾌｸｲｹﾝ","kana_city":"ﾌｸｲｼ","kana_address":"ｻﾄﾍﾞｯｼｮﾁｮｳ","pref":"福井県","city":"福井市","address":"里別所町"},
{"zip_code":"9103121","kana_pref":"ﾌｸｲｹﾝ","kana_city":"ﾌｸｲｼ","kana_address":"ｻﾉﾁｮｳ","pref":"福井県","city":"福井市","address":"佐野町"},
{"zip_code":"9100033","kana_pref":"ﾌｸｲｹﾝ","kana_city":"ﾌｸｲｼ","kana_address":"ｻﾌﾞﾛｳﾏﾙ","pref":"福井県","city":"福井市","address":"三郎丸"},
{"zip_code":"9100036","kana_pref":"ﾌｸｲｹﾝ","kana_city":"ﾌｸｲｼ","kana_address":"ｻﾌﾞﾛｳﾏﾙﾁｮｳ","pref":"福井県","city":"福井市","address":"三郎丸町"},
{"zip_code":"9102201","kana_pref":"ﾌｸｲｹﾝ","kana_city":"ﾌｸｲｼ","kana_address":"ｻﾗﾀﾞﾆﾁｮｳ","pref":"福井県","city":"福井市","address":"皿谷町"},
{"zip_code":"9102224","kana_pref":"ﾌｸｲｹﾝ","kana_city":"ﾌｸｲｼ","kana_address":"ｻﾝﾏﾝﾀﾞﾆﾁｮｳ","pref":"福井県","city":"福井市","address":"三万谷町"},
{"zip_code":"9102143","kana_pref":"ﾌｸｲｹﾝ","kana_city":"ﾌｸｲｼ","kana_address":"ｼｸﾇﾉﾁｮｳ","pref":"福井県","city":"福井市","address":"宿布町"},
{"zip_code":"9100823","kana_pref":"ﾌｸｲｹﾝ","kana_city":"ﾌｸｲｼ","kana_address":"ｼｹﾞﾀﾃﾁｮｳ","pref":"福井県","city":"福井市","address":"重立町"},
{"zip_code":"9100043","kana_pref":"ﾌｸｲｹﾝ","kana_city":"ﾌｸｲｼ","kana_address":"ｼｼﾞｭｳﾀﾆﾁｮｳ","pref":"福井県","city":"福井市","address":"四十谷町"},
{"zip_code":"9100048","kana_pref":"ﾌｸｲｹﾝ","kana_city":"ﾌｸｲｼ","kana_address":"ｼﾞｿﾞｳﾄﾞｳﾁｮｳ","pref":"福井県","city":"福井市","address":"地蔵堂町"},
{"zip_code":"9103635","kana_pref":"ﾌｸｲｹﾝ","kana_city":"ﾌｸｲｼ","kana_address":"ｼﾂﾞｶﾞｵｶ","pref":"福井県","city":"福井市","address":"志津が丘"},
{"zip_code":"9102348","kana_pref":"ﾌｸｲｹﾝ","kana_city":"ﾌｸｲｼ","kana_address":"ｼﾅｶﾞｾﾁｮｳ","pref":"福井県","city":"福井市","address":"品ケ瀬町"},
{"zip_code":"9102148","kana_pref":"ﾌｸｲｹﾝ","kana_city":"ﾌｸｲｼ","kana_address":"ｼﾉｵﾁｮｳ","pref":"福井県","city":"福井市","address":"篠尾町"},
{"zip_code":"9100845","kana_pref":"ﾌｸｲｹﾝ","kana_city":"ﾌｸｲｼ","kana_address":"ｼﾋｸﾞﾁ","pref":"福井県","city":"福井市","address":"志比口"},
{"zip_code":"9103623","kana_pref":"ﾌｸｲｹﾝ","kana_city":"ﾌｸｲｼ","kana_address":"ｼﾏﾃﾞﾗﾁｮｳ","pref":"福井県","city":"福井市","address":"島寺町"},
{"zip_code":"9100821","kana_pref":"ﾌｸｲｹﾝ","kana_city":"ﾌｸｲｼ","kana_address":"ｼﾏﾊﾞｼﾁｮｳ","pref":"福井県","city":"福井市","address":"島橋町"},
{"zip_code":"9103111","kana_pref":"ﾌｸｲｹﾝ","kana_city":"ﾌｸｲｼ","kana_address":"ｼﾏﾔﾏﾅｼﾁｮｳ","pref":"福井県","city":"福井市","address":"島山梨子町"},
{"zip_code":"9103607","kana_pref":"ﾌｸｲｹﾝ","kana_city":"ﾌｸｲｼ","kana_address":"ｼﾐｽﾞｽｷﾞﾀﾆﾁｮｳ","pref":"福井県","city":"福井市","address":"清水杉谷町"},
{"zip_code":"9103268","kana_pref":"ﾌｸｲｹﾝ","kana_city":"ﾌｸｲｼ","kana_address":"ｼﾐｽﾞﾀﾞｲﾗﾁｮｳ","pref":"福井県","city":"福井市","address":"清水平町"},
{"zip_code":"9103601","kana_pref":"ﾌｸｲｹﾝ","kana_city":"ﾌｸｲｼ","kana_address":"ｼﾐｽﾞﾁｮｳ","pref":"福井県","city":"福井市","address":"清水町"},
{"zip_code":"9103646","kana_pref":"ﾌｸｲｹﾝ","kana_city":"ﾌｸｲｼ","kana_address":"ｼﾐｽﾞﾊﾞﾀﾁｮｳ","pref":"福井県","city":"福井市","address":"清水畑町"},
{"zip_code":"9103612","kana_pref":"ﾌｸｲｹﾝ","kana_city":"ﾌｸｲｼ","kana_address":"ｼﾐｽﾞﾔﾏﾁｮｳ","pref":"福井県","city":"福井市","address":"清水山町"},
{"zip_code":"9103632","kana_pref":"ﾌｸｲｹﾝ","kana_city":"ﾌｸｲｼ","kana_address":"ｼﾓﾃｶﾞﾁｮｳ","pref":"福井県","city":"福井市","address":"下天下町"},
{"zip_code":"9102173","kana_pref":"ﾌｸｲｹﾝ","kana_city":"ﾌｸｲｼ","kana_address":"ｼﾓﾄｳｺﾞｳﾁｮｳ","pref":"福井県","city":"福井市","address":"下東郷町"},
{"zip_code":"9102146","kana_pref":"ﾌｸｲｹﾝ","kana_city":"ﾌｸｲｼ","kana_address":"ｼﾓﾋﾞｼｬﾓﾝﾁｮｳ","pref":"福井県","city":"福井市","address":"下毘沙門町"},
{"zip_code":"9100146","kana_pref":"ﾌｸｲｹﾝ","kana_city":"ﾌｸｲｼ","kana_address":"ｼﾓﾓﾘﾀﾞｻｸﾗﾏﾁ","pref":"福井県","city":"福井市","address":"下森田桜町"},
{"zip_code":"9100143","kana_pref":"ﾌｸｲｹﾝ","kana_city":"ﾌｸｲｼ","kana_address":"ｼﾓﾓﾘﾀﾞｼﾝﾏﾁ","pref":"福井県","city":"福井市","address":"下森田新町"},
{"zip_code":"9100145","kana_pref":"ﾌｸｲｹﾝ","kana_city":"ﾌｸｲｼ","kana_address":"ｼﾓﾓﾘﾀﾞﾌｼﾞﾏｷﾁｮｳ","pref":"福井県","city":"福井市","address":"下森田藤巻町"},
{"zip_code":"9100144","kana_pref":"ﾌｸｲｹﾝ","kana_city":"ﾌｸｲｼ","kana_address":"ｼﾓﾓﾘﾀﾞﾎﾝﾏﾁ","pref":"福井県","city":"福井市","address":"下森田本町"},
{"zip_code":"9100147","kana_pref":"ﾌｸｲｹﾝ","kana_city":"ﾌｸｲｼ","kana_address":"ｼﾓﾓﾘﾀﾞﾁｮｳ","pref":"福井県","city":"福井市","address":"下森田町"},
{"zip_code":"9103513","kana_pref":"ﾌｸｲｹﾝ","kana_city":"ﾌｸｲｼ","kana_address":"ｼｭｸﾄﾞｳﾁｮｳ","pref":"福井県","city":"福井市","address":"宿堂町"},
{"zip_code":"9100023","kana_pref":"ﾌｸｲｹﾝ","kana_city":"ﾌｸｲｼ","kana_address":"ｼﾞｭﾝｶ","pref":"福井県","city":"福井市","address":"順化"},
{"zip_code":"9102147","kana_pref":"ﾌｸｲｹﾝ","kana_city":"ﾌｸｲｼ","kana_address":"ｼﾞｮｳｶﾞﾝｼﾞﾁｮｳ","pref":"福井県","city":"福井市","address":"成願寺町"},
{"zip_code":"9102155","kana_pref":"ﾌｸｲｹﾝ","kana_city":"ﾌｸｲｼ","kana_address":"ｼﾞｮｳｷｮｳｼﾞﾁｮｳ","pref":"福井県","city":"福井市","address":"浄教寺町"},
{"zip_code":"9102166","kana_pref":"ﾌｸｲｹﾝ","kana_city":"ﾌｸｲｼ","kana_address":"ｼｮｳｼﾞﾁｮｳ","pref":"福井県","city":"福井市","address":"小路町"},
{"zip_code":"9100853","kana_pref":"ﾌｸｲｹﾝ","kana_city":"ﾌｸｲｼ","kana_address":"ｼﾞｮｳﾄｳ","pref":"福井県","city":"福井市","address":"城東"},
{"zip_code":"9103117","kana_pref":"ﾌｸｲｹﾝ","kana_city":"ﾌｸｲｼ","kana_address":"ｼﾞｮｳﾄﾞｼﾞﾁｮｳ","pref":"福井県","city":"福井市","address":"浄土寺町"},
{"zip_code":"9103148","kana_pref":"ﾌｸｲｹﾝ","kana_city":"ﾌｸｲｼ","kana_address":"ｼｮｳﾌﾞﾀﾞﾆﾁｮｳ","pref":"福井県","city":"福井市","address":"菖蒲谷町"},
{"zip_code":"9103101","kana_pref":"ﾌｸｲｹﾝ","kana_city":"ﾌｸｲｼ","kana_address":"ｼｮｳﾜｼﾝﾏﾁ","pref":"福井県","city":"福井市","address":"昭和新町"},
{"zip_code":"9103131","kana_pref":"ﾌｸｲｹﾝ","kana_city":"ﾌｸｲｼ","kana_address":"ｼﾗｶﾀﾁｮｳ","pref":"福井県","city":"福井市","address":"白方町"},
{"zip_code":"9103511","kana_pref":"ﾌｸｲｹﾝ","kana_city":"ﾌｸｲｼ","kana_address":"ｼﾗﾀｷﾁｮｳ","pref":"福井県","city":"福井市","address":"白滝町"},
{"zip_code":"9103403","kana_pref":"ﾌｸｲｹﾝ","kana_city":"ﾌｸｲｼ","kana_address":"ｼﾗﾊﾏﾁｮｳ","pref":"福井県","city":"福井市","address":"白浜町"},
{"zip_code":"9103557","kana_pref":"ﾌｸｲｹﾝ","kana_city":"ﾌｸｲｼ","kana_address":"ｼﾛｱﾘﾁｮｳ","pref":"福井県","city":"福井市","address":"城有町"},
{"zip_code":"9100812","kana_pref":"ﾌｸｲｹﾝ","kana_city":"ﾌｸｲｼ","kana_address":"ｼﾝﾃﾞﾝﾎﾝﾏﾁ","pref":"福井県","city":"福井市","address":"新田本町"},
{"zip_code":"9100833","kana_pref":"ﾌｸｲｹﾝ","kana_city":"ﾌｸｲｼ","kana_address":"ｼﾝﾎﾞ","pref":"福井県","city":"福井市","address":"新保"},
{"zip_code":"9100832","kana_pref":"ﾌｸｲｹﾝ","kana_city":"ﾌｸｲｼ","kana_address":"ｼﾝﾎﾞﾁｮｳ","pref":"福井県","city":"福井市","address":"新保町"},
{"zip_code":"9102346","kana_pref":"ﾌｸｲｹﾝ","kana_city":"ﾌｸｲｼ","kana_address":"ｽｲﾀﾞﾆﾁｮｳ","pref":"福井県","city":"福井市","address":"椙谷町"},
{"zip_code":"9100034","kana_pref":"ﾌｸｲｹﾝ","kana_city":"ﾌｸｲｼ","kana_address":"ｽｶﾞﾔ","pref":"福井県","city":"福井市","address":"菅谷"},
{"zip_code":"9100035","kana_pref":"ﾌｸｲｹﾝ","kana_city":"ﾌｸｲｼ","kana_address":"ｽｶﾞﾔﾁｮｳ","pref":"福井県","city":"福井市","address":"菅谷町"},
{"zip_code":"9103143","kana_pref":"ﾌｸｲｹﾝ","kana_city":"ﾌｸｲｼ","kana_address":"ｽﾅｺﾞｻｶﾁｮｳ","pref":"福井県","city":"福井市","address":"砂子坂町"},
{"zip_code":"9103141","kana_pref":"ﾌｸｲｹﾝ","kana_city":"ﾌｸｲｼ","kana_address":"ｽﾅｺﾞﾀﾞﾁｮｳ","pref":"福井県","city":"福井市","address":"砂子田町"},
{"zip_code":"9103115","kana_pref":"ﾌｸｲｹﾝ","kana_city":"ﾌｸｲｼ","kana_address":"ｾﾝﾁｮｳ","pref":"福井県","city":"福井市","address":"仙町"},
{"zip_code":"9100001","kana_pref":"ﾌｸｲｹﾝ","kana_city":"ﾌｸｲｼ","kana_address":"ﾀﾞｲｶﾞﾝｼﾞ","pref":"福井県","city":"福井市","address":"大願寺"},
{"zip_code":"9102141","kana_pref":"ﾌｸｲｹﾝ","kana_city":"ﾌｸｲｼ","kana_address":"ﾀｶｵﾁｮｳ","pref":"福井県","city":"福井市","address":"高尾町"},
{"zip_code":"9100805","kana_pref":"ﾌｸｲｹﾝ","kana_city":"ﾌｸｲｼ","kana_address":"ﾀｶｷﾞ","pref":"福井県","city":"福井市","address":"高木"},
{"zip_code":"9100804","kana_pref":"ﾌｸｲｹﾝ","kana_city":"ﾌｸｲｼ","kana_address":"ﾀｶｷﾞﾁｭｳｵｳ","pref":"福井県","city":"福井市","address":"高木中央"},
{"zip_code":"9100806","kana_pref":"ﾌｸｲｹﾝ","kana_city":"ﾌｸｲｼ","kana_address":"ﾀｶｷﾞﾁｮｳ","pref":"福井県","city":"福井市","address":"高木町"},
{"zip_code":"9100807","kana_pref":"ﾌｸｲｹﾝ","kana_city":"ﾌｸｲｼ","kana_address":"ﾀｶｷﾞｷﾀ","pref":"福井県","city":"福井市","address":"高木北"},
{"zip_code":"9100070","kana_pref":"ﾌｸｲｹﾝ","kana_city":"ﾌｸｲｼ","kana_address":"ﾀｶｷﾞﾆｼ","pref":"福井県","city":"福井市","address":"高木西"},
{"zip_code":"9103374","kana_pref":"ﾌｸｲｹﾝ","kana_city":"ﾌｸｲｼ","kana_address":"ﾀｶｽﾁｮｳ","pref":"福井県","city":"福井市","address":"高須町"},
{"zip_code":"9102226","kana_pref":"ﾌｸｲｹﾝ","kana_city":"ﾌｸｲｼ","kana_address":"ﾀｶﾀﾁｮｳ","pref":"福井県","city":"福井市","address":"高田町"},
{"zip_code":"9100107","kana_pref":"ﾌｸｲｹﾝ","kana_city":"ﾌｸｲｼ","kana_address":"ﾀｶﾔﾁｮｳ","pref":"福井県","city":"福井市","address":"高屋町"},
{"zip_code":"9100803","kana_pref":"ﾌｸｲｹﾝ","kana_city":"ﾌｸｲｼ","kana_address":"ﾀｶﾔﾅｷﾞﾁｮｳ","pref":"福井県","city":"福井市","address":"高柳町"},
{"zip_code":"9103643","kana_pref":"ﾌｸｲｹﾝ","kana_city":"ﾌｸｲｼ","kana_address":"ﾀｷﾅﾐﾁｮｳ","pref":"福井県","city":"福井市","address":"滝波町"},
{"zip_code":"9103602","kana_pref":"ﾌｸｲｹﾝ","kana_city":"ﾌｸｲｼ","kana_address":"ﾀｺｵﾁｮｳ","pref":"福井県","city":"福井市","address":"竹生町"},
{"zip_code":"9102225","kana_pref":"ﾌｸｲｹﾝ","kana_city":"ﾌｸｲｼ","kana_address":"ﾀｼﾞﾘﾁｮｳ","pref":"福井県","city":"福井市","address":"田尻町"},
{"zip_code":"9103606","kana_pref":"ﾌｸｲｹﾝ","kana_city":"ﾌｸｲｼ","kana_address":"ﾀｼﾞﾘﾄﾁﾀﾆﾁｮｳ","pref":"福井県","city":"福井市","address":"田尻栃谷町"},
{"zip_code":"9103124","kana_pref":"ﾌｸｲｹﾝ","kana_city":"ﾌｸｲｼ","kana_address":"ﾀﾉｶｼﾗﾁｮｳ","pref":"福井県","city":"福井市","address":"田ノ頭町"},
{"zip_code":"9100044","kana_pref":"ﾌｸｲｹﾝ","kana_city":"ﾌｸｲｼ","kana_address":"ﾀﾉﾀﾆﾁｮｳ","pref":"福井県","city":"福井市","address":"田ノ谷町"},
{"zip_code":"9103128","kana_pref":"ﾌｸｲｹﾝ","kana_city":"ﾌｸｲｼ","kana_address":"ﾀﾒﾖﾘﾁｮｳ","pref":"福井県","city":"福井市","address":"為寄町"},
{"zip_code":"9100018","kana_pref":"ﾌｸｲｹﾝ","kana_city":"ﾌｸｲｼ","kana_address":"ﾀﾜﾗ","pref":"福井県","city":"福井市","address":"田原"},
{"zip_code":"9103521","kana_pref":"ﾌｸｲｹﾝ","kana_city":"ﾌｸｲｼ","kana_address":"ﾁｺﾞｳﾁｮｳ","pref":"福井県","city":"福井市","address":"千合町"},
{"zip_code":"9100006","kana_pref":"ﾌｸｲｹﾝ","kana_city":"ﾌｸｲｼ","kana_address":"ﾁｭｳｵｳ","pref":"福井県","city":"福井市","address":"中央"},
{"zip_code":"9100101","kana_pref":"ﾌｸｲｹﾝ","kana_city":"ﾌｸｲｼ","kana_address":"ﾂｸｼﾉ","pref":"福井県","city":"福井市","address":"つくし野"},
{"zip_code":"9100053","kana_pref":"ﾌｸｲｹﾝ","kana_city":"ﾌｸｲｼ","kana_address":"ﾂﾁﾊｼﾁｮｳ","pref":"福井県","city":"福井市","address":"土橋町"},
{"zip_code":"9103615","kana_pref":"ﾌｸｲｹﾝ","kana_city":"ﾌｸｲｼ","kana_address":"ﾂﾎﾞﾀﾆﾁｮｳ","pref":"福井県","city":"福井市","address":"坪谷町"},
{"zip_code":"9103114","kana_pref":"ﾌｸｲｹﾝ","kana_city":"ﾌｸｲｼ","kana_address":"ﾂﾙｷﾞｵｵﾀﾆﾁｮｳ","pref":"福井県","city":"福井市","address":"剣大谷町"},
{"zip_code":"9103138","kana_pref":"ﾌｸｲｹﾝ","kana_city":"ﾌｸｲｼ","kana_address":"ﾃｸﾉﾎﾟｰﾄ","pref":"福井県","city":"福井市","address":"テクノポート"},
{"zip_code":"9100858","kana_pref":"ﾌｸｲｹﾝ","kana_city":"ﾌｸｲｼ","kana_address":"ﾃﾖｾ","pref":"福井県","city":"福井市","address":"手寄"},
{"zip_code":"9100801","kana_pref":"ﾌｸｲｹﾝ","kana_city":"ﾌｸｲｼ","kana_address":"ﾃﾗﾏｴﾁｮｳ","pref":"福井県","city":"福井市","address":"寺前町"},
{"zip_code":"9100024","kana_pref":"ﾌｸｲｹﾝ","kana_city":"ﾌｸｲｼ","kana_address":"ﾃﾙﾃ","pref":"福井県","city":"福井市","address":"照手"},
{"zip_code":"9100025","kana_pref":"ﾌｸｲｹﾝ","kana_city":"ﾌｸｲｼ","kana_address":"ﾃﾙﾃﾁｮｳ","pref":"福井県","city":"福井市","address":"照手町"},
{"zip_code":"9102176","kana_pref":"ﾌｸｲｹﾝ","kana_city":"ﾌｸｲｼ","kana_address":"ﾄｳｺﾞｳﾅｶｼﾞﾏﾁｮｳ","pref":"福井県","city":"福井市","address":"東郷中島町"},
{"zip_code":"9102165","kana_pref":"ﾌｸｲｹﾝ","kana_city":"ﾌｸｲｼ","kana_address":"ﾄｳｺﾞｳﾆｶﾁｮｳ","pref":"福井県","city":"福井市","address":"東郷二ケ町"},
{"zip_code":"9100818","kana_pref":"ﾌｸｲｹﾝ","kana_city":"ﾌｸｲｼ","kana_address":"ﾄﾞｳｼﾞﾏﾁｮｳ","pref":"福井県","city":"福井市","address":"堂島町"},
{"zip_code":"9103252","kana_pref":"ﾌｸｲｹﾝ","kana_city":"ﾌｸｲｼ","kana_address":"ﾄｳﾌﾞﾁｮｳ","pref":"福井県","city":"福井市","address":"燈豊町"},
{"zip_code":"9100063","kana_pref":"ﾌｸｲｹﾝ","kana_city":"ﾌｸｲｼ","kana_address":"ﾄｳﾐｮｳｼﾞ","pref":"福井県","city":"福井市","address":"灯明寺"},
{"zip_code":"9100062","kana_pref":"ﾌｸｲｹﾝ","kana_city":"ﾌｸｲｼ","kana_address":"ﾄｳﾐｮｳｼﾞﾁｮｳ","pref":"福井県","city":"福井市","address":"灯明寺町"},
{"zip_code":"9102178","kana_pref":"ﾌｸｲｹﾝ","kana_city":"ﾌｸｲｼ","kana_address":"ﾄｶﾞﾉﾁｮｳ","pref":"福井県","city":"福井市","address":"栂野町"},
{"zip_code":"9102202","kana_pref":"ﾌｸｲｹﾝ","kana_city":"ﾌｸｲｼ","kana_address":"ﾄｺﾛﾀﾞﾆﾁｮｳ","pref":"福井県","city":"福井市","address":"所谷町"},
{"zip_code":"9102163","kana_pref":"ﾌｸｲｹﾝ","kana_city":"ﾌｸｲｼ","kana_address":"ﾄﾁｲｽﾞﾐﾁｮｳ","pref":"福井県","city":"福井市","address":"栃泉町"},
{"zip_code":"9100027","kana_pref":"ﾌｸｲｹﾝ","kana_city":"ﾌｸｲｼ","kana_address":"ﾄﾖｵｶ","pref":"福井県","city":"福井市","address":"豊岡"},
{"zip_code":"9100857","kana_pref":"ﾌｸｲｹﾝ","kana_city":"ﾌｸｲｼ","kana_address":"ﾄﾖｼﾏ","pref":"福井県","city":"福井市","address":"豊島"},
{"zip_code":"9103263","kana_pref":"ﾌｸｲｹﾝ","kana_city":"ﾌｸｲｼ","kana_address":"ﾅｶｺｳﾁﾁｮｳ","pref":"福井県","city":"福井市","address":"中河内町"},
{"zip_code":"9100813","kana_pref":"ﾌｸｲｹﾝ","kana_city":"ﾌｸｲｼ","kana_address":"ﾅｶｼﾝﾃﾞﾝﾁｮｳ","pref":"福井県","city":"福井市","address":"中新田町"},
{"zip_code":"9103268","kana_pref":"ﾌｸｲｹﾝ","kana_city":"ﾌｸｲｼ","kana_address":"ﾅｶﾀﾞｲﾗﾁｮｳ","pref":"福井県","city":"福井市","address":"中平町"},
{"zip_code":"9100103","kana_pref":"ﾌｸｲｹﾝ","kana_city":"ﾌｸｲｼ","kana_address":"ﾅｶﾂﾉﾁｮｳ","pref":"福井県","city":"福井市","address":"中角町"},
{"zip_code":"9100816","kana_pref":"ﾌｸｲｹﾝ","kana_city":"ﾌｸｲｼ","kana_address":"ﾅｶﾉｺﾞｳﾁｮｳ","pref":"福井県","city":"福井市","address":"中ノ郷町"},
{"zip_code":"9102145","kana_pref":"ﾌｸｲｹﾝ","kana_city":"ﾌｸｲｼ","kana_address":"ﾅｶﾋﾞｼｬﾓﾝﾁｮｳ","pref":"福井県","city":"福井市","address":"中毘沙門町"},
{"zip_code":"9100811","kana_pref":"ﾌｸｲｹﾝ","kana_city":"ﾌｸｲｼ","kana_address":"ﾅｶﾌｼﾞｼﾝﾎﾞﾁｮｳ","pref":"福井県","city":"福井市","address":"中藤新保町"},
{"zip_code":"9103256","kana_pref":"ﾌｸｲｹﾝ","kana_city":"ﾌｸｲｼ","kana_address":"ﾅｶﾏﾁ","pref":"福井県","city":"福井市","address":"中町"},
{"zip_code":"9103127","kana_pref":"ﾌｸｲｹﾝ","kana_city":"ﾌｸｲｼ","kana_address":"ﾅｶﾔﾏﾁｮｳ","pref":"福井県","city":"福井市","address":"中山町"},
{"zip_code":"9102464","kana_pref":"ﾌｸｲｹﾝ","kana_city":"ﾌｸｲｼ","kana_address":"ﾅｶﾝﾃﾁｮｳ","pref":"福井県","city":"福井市","address":"中手町"},
{"zip_code":"9103384","kana_pref":"ﾌｸｲｹﾝ","kana_city":"ﾌｸｲｼ","kana_address":"ﾅｶﾞﾊｼﾁｮｳ","pref":"福井県","city":"福井市","address":"長橋町"},
{"zip_code":"9100844","kana_pref":"ﾌｸｲｹﾝ","kana_city":"ﾌｸｲｼ","kana_address":"ﾅｶﾞﾓﾄﾁｮｳ","pref":"福井県","city":"福井市","address":"長本町"},
{"zip_code":"9103142","kana_pref":"ﾌｸｲｹﾝ","kana_city":"ﾌｸｲｼ","kana_address":"ﾅﾐﾖｾﾁｮｳ","pref":"福井県","city":"福井市","address":"波寄町"},
{"zip_code":"9102221","kana_pref":"ﾌｸｲｹﾝ","kana_city":"ﾌｸｲｼ","kana_address":"ﾅﾗｾﾁｮｳ","pref":"福井県","city":"福井市","address":"奈良瀬町"},
{"zip_code":"9102336","kana_pref":"ﾌｸｲｹﾝ","kana_city":"ﾌｸｲｼ","kana_address":"ﾆｲﾁｮｳ","pref":"福井県","city":"福井市","address":"仁位町"},
{"zip_code":"9102355","kana_pref":"ﾌｸｲｹﾝ","kana_city":"ﾌｸｲｼ","kana_address":"ﾆｼｱﾏﾀﾞﾁｮｳ","pref":"福井県","city":"福井市","address":"西天田町"},
{"zip_code":"9103261","kana_pref":"ﾌｸｲｹﾝ","kana_city":"ﾌｸｲｼ","kana_address":"ﾆｼｱﾗｲﾁｮｳ","pref":"福井県","city":"福井市","address":"西荒井町"},
{"zip_code":"9102466","kana_pref":"ﾌｸｲｹﾝ","kana_city":"ﾌｸｲｼ","kana_address":"ﾆｼｲﾁﾇﾉﾁｮｳ","pref":"福井県","city":"福井市","address":"西市布町"},
{"zip_code":"9100843","kana_pref":"ﾌｸｲｹﾝ","kana_city":"ﾌｸｲｼ","kana_address":"ﾆｼｶｲﾎﾂ","pref":"福井県","city":"福井市","address":"西開発"},
{"zip_code":"9100855","kana_pref":"ﾌｸｲｹﾝ","kana_city":"ﾌｸｲｼ","kana_address":"ﾆｼｶﾀ","pref":"福井県","city":"福井市","address":"西方"},
{"zip_code":"9102471","kana_pref":"ﾌｸｲｹﾝ","kana_city":"ﾌｸｲｼ","kana_address":"ﾆｼｺｳﾊﾞﾗﾁｮｳ","pref":"福井県","city":"福井市","address":"西河原町"},
{"zip_code":"9102157","kana_pref":"ﾌｸｲｹﾝ","kana_city":"ﾌｸｲｼ","kana_address":"ﾆｼｼﾝﾏﾁ","pref":"福井県","city":"福井市","address":"西新町"},
{"zip_code":"9102203","kana_pref":"ﾌｸｲｹﾝ","kana_city":"ﾌｸｲｼ","kana_address":"ﾆｼﾅｶﾁｮｳ","pref":"福井県","city":"福井市","address":"西中町"},
{"zip_code":"9103105","kana_pref":"ﾌｸｲｹﾝ","kana_city":"ﾌｸｲｼ","kana_address":"ﾆｼﾅｶﾉﾁｮｳ","pref":"福井県","city":"福井市","address":"西中野町"},
{"zip_code":"9103373","kana_pref":"ﾌｸｲｹﾝ","kana_city":"ﾌｸｲｼ","kana_address":"ﾆｼﾊﾀﾁｮｳ","pref":"福井県","city":"福井市","address":"西畑町"},
{"zip_code":"9103372","kana_pref":"ﾌｸｲｹﾝ","kana_city":"ﾌｸｲｼ","kana_address":"ﾆｼﾌﾀﾂﾔﾁｮｳ","pref":"福井県","city":"福井市","address":"西二ツ屋町"},
{"zip_code":"9103512","kana_pref":"ﾌｸｲｹﾝ","kana_city":"ﾌｸｲｼ","kana_address":"ﾆｼﾍﾞｯｼｮﾁｮｳ","pref":"福井県","city":"福井市","address":"西別所町"},
{"zip_code":"9100037","kana_pref":"ﾌｸｲｹﾝ","kana_city":"ﾌｸｲｼ","kana_address":"ﾆｼﾎﾞﾘﾁｮｳ","pref":"福井県","city":"福井市","address":"西堀町"},
{"zip_code":"9100029","kana_pref":"ﾌｸｲｹﾝ","kana_city":"ﾌｸｲｼ","kana_address":"ﾆｯｺｳ","pref":"福井県","city":"福井市","address":"日光"},
{"zip_code":"9100067","kana_pref":"ﾌｸｲｹﾝ","kana_city":"ﾌｸｲｼ","kana_address":"ﾆｯﾀﾂﾞｶ","pref":"福井県","city":"福井市","address":"新田塚"},
{"zip_code":"9100064","kana_pref":"ﾌｸｲｹﾝ","kana_city":"ﾌｸｲｼ","kana_address":"ﾆﾂﾀﾂﾞｶﾁｮｳ","pref":"福井県","city":"福井市","address":"新田塚町"},
{"zip_code":"9100015","kana_pref":"ﾌｸｲｹﾝ","kana_city":"ﾌｸｲｼ","kana_address":"ﾆﾉﾐﾔ","pref":"福井県","city":"福井市","address":"二の宮"},
{"zip_code":"9102335","kana_pref":"ﾌｸｲｹﾝ","kana_city":"ﾌｸｲｼ","kana_address":"ﾇｲﾊﾞﾗﾁｮｳ","pref":"福井県","city":"福井市","address":"縫原町"},
{"zip_code":"9103266","kana_pref":"ﾌｸｲｹﾝ","kana_city":"ﾌｸｲｼ","kana_address":"ﾈｺｾﾁｮｳ","pref":"福井県","city":"福井市","address":"猫瀬町"},
{"zip_code":"9102333","kana_pref":"ﾌｸｲｹﾝ","kana_city":"ﾌｸｲｼ","kana_address":"ﾉﾅﾐﾁｮｳ","pref":"福井県","city":"福井市","address":"野波町"},
{"zip_code":"9102332","kana_pref":"ﾌｸｲｹﾝ","kana_city":"ﾌｸｲｼ","kana_address":"ﾉﾅﾐﾁｮｳ","pref":"福井県","city":"福井市","address":"野波町"},
{"zip_code":"9102331","kana_pref":"ﾌｸｲｹﾝ","kana_city":"ﾌｸｲｼ","kana_address":"ﾊｶﾘｲｼﾁｮｳ","pref":"福井県","city":"福井市","address":"計石町"},
{"zip_code":"9103517","kana_pref":"ﾌｸｲｹﾝ","kana_city":"ﾌｸｲｼ","kana_address":"ﾊﾀｹﾅｶﾁｮｳ","pref":"福井県","city":"福井市","address":"畠中町"},
{"zip_code":"9103554","kana_pref":"ﾌｸｲｹﾝ","kana_city":"ﾌｸｲｼ","kana_address":"ﾊﾏｷﾀﾔﾏﾁｮｳ","pref":"福井県","city":"福井市","address":"浜北山町"},
{"zip_code":"9103132","kana_pref":"ﾌｸｲｹﾝ","kana_city":"ﾌｸｲｼ","kana_address":"ﾊﾏｼﾏﾁｮｳ","pref":"福井県","city":"福井市","address":"浜島町"},
{"zip_code":"9103377","kana_pref":"ﾌｸｲｹﾝ","kana_city":"ﾌｸｲｼ","kana_address":"ﾊﾏｼﾞｭｳﾁｮｳ","pref":"福井県","city":"福井市","address":"浜住町"},
{"zip_code":"9103134","kana_pref":"ﾌｸｲｹﾝ","kana_city":"ﾌｸｲｼ","kana_address":"ﾊﾏﾍﾞｯｼｮﾁｮｳ","pref":"福井県","city":"福井市","address":"浜別所町"},
{"zip_code":"9100828","kana_pref":"ﾌｸｲｹﾝ","kana_city":"ﾌｸｲｼ","kana_address":"ﾊﾔｼﾁｮｳ","pref":"福井県","city":"福井市","address":"林町"},
{"zip_code":"9100829","kana_pref":"ﾌｸｲｹﾝ","kana_city":"ﾌｸｲｼ","kana_address":"ﾊﾔｼﾌｼﾞｼﾏﾁｮｳ","pref":"福井県","city":"福井市","address":"林藤島町"},
{"zip_code":"9100825","kana_pref":"ﾌｸｲｹﾝ","kana_city":"ﾌｸｲｼ","kana_address":"ﾊﾗﾒﾁｮｳ","pref":"福井県","city":"福井市","address":"原目町"},
{"zip_code":"9100019","kana_pref":"ﾌｸｲｹﾝ","kana_city":"ﾌｸｲｼ","kana_address":"ﾊﾙﾔﾏ","pref":"福井県","city":"福井市","address":"春山"},
{"zip_code":"9102354","kana_pref":"ﾌｸｲｹﾝ","kana_city":"ﾌｸｲｼ","kana_address":"ﾋｶﾞｼｱﾏﾀﾞﾁｮｳ","pref":"福井県","city":"福井市","address":"東天田町"},
{"zip_code":"9102341","kana_pref":"ﾌｸｲｹﾝ","kana_city":"ﾌｸｲｼ","kana_address":"ﾋｶﾞｼｶﾜｶﾐﾁｮｳ","pref":"福井県","city":"福井市","address":"東川上町"},
{"zip_code":"9102472","kana_pref":"ﾌｸｲｹﾝ","kana_city":"ﾌｸｲｼ","kana_address":"ﾋｶﾞｼｺｳﾊﾞﾗﾁｮｳ","pref":"福井県","city":"福井市","address":"東河原町"},
{"zip_code":"9102154","kana_pref":"ﾌｸｲｹﾝ","kana_city":"ﾌｸｲｼ","kana_address":"ﾋｶﾞｼｼﾝﾏﾁ","pref":"福井県","city":"福井市","address":"東新町"},
{"zip_code":"9103266","kana_pref":"ﾌｸｲｹﾝ","kana_city":"ﾌｸｲｼ","kana_address":"ﾋｶﾞｼﾀﾞｲﾗﾁｮｳ","pref":"福井県","city":"福井市","address":"東平町"},
{"zip_code":"9102342","kana_pref":"ﾌｸｲｹﾝ","kana_city":"ﾌｸｲｼ","kana_address":"ﾋｶﾞｼﾏﾀﾁｮｳ","pref":"福井県","city":"福井市","address":"東俣町"},
{"zip_code":"9100859","kana_pref":"ﾌｸｲｹﾝ","kana_city":"ﾌｸｲｼ","kana_address":"ﾋﾉﾃﾞ","pref":"福井県","city":"福井市","address":"日之出"},
{"zip_code":"9103641","kana_pref":"ﾌｸｲｹﾝ","kana_city":"ﾌｸｲｼ","kana_address":"ﾋﾗｵﾁｮｳ","pref":"福井県","city":"福井市","address":"平尾町"},
{"zip_code":"9103126","kana_pref":"ﾌｸｲｹﾝ","kana_city":"ﾌｸｲｼ","kana_address":"ﾌｶｻｶﾁｮｳ","pref":"福井県","city":"福井市","address":"深坂町"},
{"zip_code":"9100049","kana_pref":"ﾌｸｲｹﾝ","kana_city":"ﾌｸｲｼ","kana_address":"ﾌｶﾀﾞﾆﾁｮｳ","pref":"福井県","city":"福井市","address":"深谷町"},
{"zip_code":"9102164","kana_pref":"ﾌｸｲｹﾝ","kana_city":"ﾌｸｲｼ","kana_address":"ﾌｶﾐﾁｮｳ","pref":"福井県","city":"福井市","address":"深見町"},
{"zip_code":"9102214","kana_pref":"ﾌｸｲｹﾝ","kana_city":"ﾌｸｲｼ","kana_address":"ﾌｸｼﾏﾁｮｳ","pref":"福井県","city":"福井市","address":"福島町"},
{"zip_code":"9100827","kana_pref":"ﾌｸｲｹﾝ","kana_city":"ﾌｸｲｼ","kana_address":"ﾌｼﾞｼﾏﾁｮｳ","pref":"福井県","city":"福井市","address":"藤島町"},
{"zip_code":"9103523","kana_pref":"ﾌｸｲｹﾝ","kana_city":"ﾌｸｲｼ","kana_address":"ﾌﾞｼｭｳﾁｮｳ","pref":"福井県","city":"福井市","address":"武周町"},
{"zip_code":"9103104","kana_pref":"ﾌｸｲｹﾝ","kana_city":"ﾌｸｲｼ","kana_address":"ﾌｾﾀﾞﾁｮｳ","pref":"福井県","city":"福井市","address":"布施田町"},
{"zip_code":"9103526","kana_pref":"ﾌｸｲｹﾝ","kana_city":"ﾌｸｲｼ","kana_address":"ﾌﾀﾂﾔﾁｮｳ","pref":"福井県","city":"福井市","address":"二ツ屋町"},
{"zip_code":"9100109","kana_pref":"ﾌｸｲｹﾝ","kana_city":"ﾌｸｲｼ","kana_address":"ﾌﾂｶｲﾁﾁｮｳ","pref":"福井県","city":"福井市","address":"二日市町"},
{"zip_code":"9100808","kana_pref":"ﾌｸｲｹﾝ","kana_city":"ﾌｸｲｼ","kana_address":"ﾌﾅﾊﾞｼ","pref":"福井県","city":"福井市","address":"舟橋"},
{"zip_code":"9100069","kana_pref":"ﾌｸｲｹﾝ","kana_city":"ﾌｸｲｼ","kana_address":"ﾌﾅﾊﾞｼｸﾛﾀﾂ","pref":"福井県","city":"福井市","address":"舟橋黒竜"},
{"zip_code":"9100068","kana_pref":"ﾌｸｲｹﾝ","kana_city":"ﾌｸｲｼ","kana_address":"ﾌﾅﾊﾞｼｼﾝ","pref":"福井県","city":"福井市","address":"舟橋新"},
{"zip_code":"9100061","kana_pref":"ﾌｸｲｹﾝ","kana_city":"ﾌｸｲｼ","kana_address":"ﾌﾅﾊﾞｼｼﾝﾏﾁ","pref":"福井県","city":"福井市","address":"舟橋新町"},
{"zip_code":"9100809","kana_pref":"ﾌｸｲｹﾝ","kana_city":"ﾌｸｲｼ","kana_address":"ﾌﾅﾊﾞｼﾁｮｳ","pref":"福井県","city":"福井市","address":"舟橋町"},
{"zip_code":"9100152","kana_pref":"ﾌｸｲｹﾝ","kana_city":"ﾌｸｲｼ","kana_address":"ﾌﾙｲﾁ","pref":"福井県","city":"福井市","address":"古市"},
{"zip_code":"9100153","kana_pref":"ﾌｸｲｹﾝ","kana_city":"ﾌｸｲｼ","kana_address":"ﾌﾙｲﾁﾁｮｳ","pref":"福井県","city":"福井市","address":"古市町"},
{"zip_code":"9100017","kana_pref":"ﾌｸｲｹﾝ","kana_city":"ﾌｸｲｼ","kana_address":"ﾌﾞﾝｷｮｳ","pref":"福井県","city":"福井市","address":"文京"},
{"zip_code":"9103524","kana_pref":"ﾌｸｲｹﾝ","kana_city":"ﾌｸｲｼ","kana_address":"ﾍﾞﾂﾊﾞﾀﾁｮｳ","pref":"福井県","city":"福井市","address":"別畑町"},
{"zip_code":"9100004","kana_pref":"ﾌｸｲｹﾝ","kana_city":"ﾌｸｲｼ","kana_address":"ﾎｳｴｲ","pref":"福井県","city":"福井市","address":"宝永"},
{"zip_code":"9100032","kana_pref":"ﾌｸｲｹﾝ","kana_city":"ﾌｸｲｼ","kana_address":"ﾎﾘﾉﾐﾔ","pref":"福井県","city":"福井市","address":"堀ノ宮"},
{"zip_code":"9100031","kana_pref":"ﾌｸｲｹﾝ","kana_city":"ﾌｸｲｼ","kana_address":"ﾎﾘﾉﾐﾔﾁｮｳ","pref":"福井県","city":"福井市","address":"堀ノ宮町"},
{"zip_code":"9102142","kana_pref":"ﾌｸｲｹﾝ","kana_city":"ﾌｸｲｼ","kana_address":"ﾏｴﾊﾞﾁｮｳ","pref":"福井県","city":"福井市","address":"前波町"},
{"zip_code":"9103616","kana_pref":"ﾌｸｲｹﾝ","kana_city":"ﾌｸｲｼ","kana_address":"ﾏｸﾘﾁｮｳ","pref":"福井県","city":"福井市","address":"真栗町"},
{"zip_code":"9100002","kana_pref":"ﾌｸｲｹﾝ","kana_city":"ﾌｸｲｼ","kana_address":"ﾏﾁﾔ","pref":"福井県","city":"福井市","address":"町屋"},
{"zip_code":"9103382","kana_pref":"ﾌｸｲｹﾝ","kana_city":"ﾌｸｲｼ","kana_address":"ﾏﾂｶｹﾞﾁｮｳ","pref":"福井県","city":"福井市","address":"松蔭町"},
{"zip_code":"9100852","kana_pref":"ﾌｸｲｹﾝ","kana_city":"ﾌｸｲｼ","kana_address":"ﾏﾂｼﾛﾁｮｳ","pref":"福井県","city":"福井市","address":"松城町"},
{"zip_code":"9100003","kana_pref":"ﾌｸｲｹﾝ","kana_city":"ﾌｸｲｼ","kana_address":"ﾏﾂﾓﾄ","pref":"福井県","city":"福井市","address":"松本"},
{"zip_code":"9102345","kana_pref":"ﾌｸｲｹﾝ","kana_city":"ﾌｸｲｼ","kana_address":"ﾏﾄﾁｮｳ","pref":"福井県","city":"福井市","address":"間戸町"},
{"zip_code":"9100824","kana_pref":"ﾌｸｲｹﾝ","kana_city":"ﾌｸｲｼ","kana_address":"ﾏﾔﾏﾁｮｳ","pref":"福井県","city":"福井市","address":"間山町"},
{"zip_code":"9100834","kana_pref":"ﾌｸｲｹﾝ","kana_city":"ﾌｸｲｼ","kana_address":"ﾏﾙﾔﾏ","pref":"福井県","city":"福井市","address":"丸山"},
{"zip_code":"9100835","kana_pref":"ﾌｸｲｹﾝ","kana_city":"ﾌｸｲｼ","kana_address":"ﾏﾙﾔﾏﾁｮｳ","pref":"福井県","city":"福井市","address":"丸山町"},
{"zip_code":"9103144","kana_pref":"ﾌｸｲｹﾝ","kana_city":"ﾌｸｲｼ","kana_address":"ﾐｽﾞｷﾘﾁｮｳ","pref":"福井県","city":"福井市","address":"水切町"},
{"zip_code":"9103514","kana_pref":"ﾌｸｲｹﾝ","kana_city":"ﾌｸｲｼ","kana_address":"ﾐｽﾞﾀﾆﾁｮｳ","pref":"福井県","city":"福井市","address":"水谷町"},
{"zip_code":"9100038","kana_pref":"ﾌｸｲｹﾝ","kana_city":"ﾌｸｲｼ","kana_address":"ﾐﾂﾔ","pref":"福井県","city":"福井市","address":"三ツ屋"},
{"zip_code":"9100039","kana_pref":"ﾌｸｲｹﾝ","kana_city":"ﾌｸｲｼ","kana_address":"ﾐﾂﾔﾁｮｳ","pref":"福井県","city":"福井市","address":"三ツ屋町"},
{"zip_code":"9103608","kana_pref":"ﾌｸｲｹﾝ","kana_city":"ﾌｸｲｼ","kana_address":"ﾐﾄﾒﾁｮｳ","pref":"福井県","city":"福井市","address":"三留町"},
{"zip_code":"9103386","kana_pref":"ﾌｸｲｹﾝ","kana_city":"ﾌｸｲｼ","kana_address":"ﾐﾅﾐｽｺﾞｳﾁｮｳ","pref":"福井県","city":"福井市","address":"南菅生町"},
{"zip_code":"9100046","kana_pref":"ﾌｸｲｹﾝ","kana_city":"ﾌｸｲｼ","kana_address":"ﾐﾅﾐﾅﾗﾊﾗﾁｮｳ","pref":"福井県","city":"福井市","address":"南楢原町"},
{"zip_code":"9102343","kana_pref":"ﾌｸｲｹﾝ","kana_city":"ﾌｸｲｼ","kana_address":"ﾐﾅﾐﾆｼﾏﾀﾁｮｳ","pref":"福井県","city":"福井市","address":"南西俣町"},
{"zip_code":"9102461","kana_pref":"ﾌｸｲｹﾝ","kana_city":"ﾌｸｲｼ","kana_address":"ﾐﾅﾐﾉﾂﾏﾀﾁｮｳ","pref":"福井県","city":"福井市","address":"南野津又町"},
{"zip_code":"9102344","kana_pref":"ﾌｸｲｹﾝ","kana_city":"ﾌｸｲｼ","kana_address":"ﾐﾅﾐﾐﾔｼﾞﾁｮｳ","pref":"福井県","city":"福井市","address":"南宮地町"},
{"zip_code":"9102162","kana_pref":"ﾌｸｲｹﾝ","kana_city":"ﾌｸｲｼ","kana_address":"ﾐﾅﾐﾔﾏﾁｮｳ","pref":"福井県","city":"福井市","address":"南山町"},
{"zip_code":"9103381","kana_pref":"ﾌｸｲｹﾝ","kana_city":"ﾌｸｲｼ","kana_address":"ﾐﾉﾁｮｳ","pref":"福井県","city":"福井市","address":"蓑町"},
{"zip_code":"9103103","kana_pref":"ﾌｸｲｹﾝ","kana_city":"ﾌｸｲｼ","kana_address":"ﾐﾔｹﾁｮｳ","pref":"福井県","city":"福井市","address":"三宅町"},
{"zip_code":"9103375","kana_pref":"ﾌｸｲｹﾝ","kana_city":"ﾌｸｲｼ","kana_address":"ﾐﾔｺﾞｳﾁｮｳ","pref":"福井県","city":"福井市","address":"宮郷町"},
{"zip_code":"9102204","kana_pref":"ﾌｸｲｹﾝ","kana_city":"ﾌｸｲｼ","kana_address":"ﾐﾔﾏｵｵﾀﾆﾁｮｳ","pref":"福井県","city":"福井市","address":"美山大谷町"},
{"zip_code":"9102351","kana_pref":"ﾌｸｲｹﾝ","kana_city":"ﾌｸｲｼ","kana_address":"ﾐﾔﾏﾁｮｳ","pref":"福井県","city":"福井市","address":"美山町"},
{"zip_code":"9100854","kana_pref":"ﾌｸｲｹﾝ","kana_city":"ﾌｸｲｼ","kana_address":"ﾐﾕｷ","pref":"福井県","city":"福井市","address":"御幸"},
{"zip_code":"9100106","kana_pref":"ﾌｸｲｹﾝ","kana_city":"ﾌｸｲｼ","kana_address":"ﾑｲｶｲﾁﾁｮｳ","pref":"福井県","city":"福井市","address":"六日市町"},
{"zip_code":"9103376","kana_pref":"ﾌｸｲｹﾝ","kana_city":"ﾌｸｲｼ","kana_address":"ﾒﾗﾁｮｳ","pref":"福井県","city":"福井市","address":"和布町"},
{"zip_code":"9103378","kana_pref":"ﾌｸｲｹﾝ","kana_city":"ﾌｸｲｼ","kana_address":"ﾒﾝﾄﾞﾘﾁｮｳ","pref":"福井県","city":"福井市","address":"免鳥町"},
{"zip_code":"9103642","kana_pref":"ﾌｸｲｹﾝ","kana_city":"ﾌｸｲｼ","kana_address":"ﾓﾄｵﾘﾁｮｳ","pref":"福井県","city":"福井市","address":"本折町"},
{"zip_code":"9100133","kana_pref":"ﾌｸｲｹﾝ","kana_city":"ﾌｸｲｼ","kana_address":"ﾓﾘﾀｼﾝﾎﾞﾁｮｳ","pref":"福井県","city":"福井市","address":"森田新保町"},
{"zip_code":"9100158","kana_pref":"ﾌｸｲｹﾝ","kana_city":"ﾌｸｲｼ","kana_address":"ﾔｴﾏｷﾅｶﾁｮｳ","pref":"福井県","city":"福井市","address":"八重巻中町"},
{"zip_code":"9100157","kana_pref":"ﾌｸｲｹﾝ","kana_city":"ﾌｸｲｼ","kana_address":"ﾔｴﾏｷﾋｶﾞｼﾁｮｳ","pref":"福井県","city":"福井市","address":"八重巻東町"},
{"zip_code":"9100123","kana_pref":"ﾌｸｲｹﾝ","kana_city":"ﾌｸｲｼ","kana_address":"ﾔｴﾏｷﾁｮｳ","pref":"福井県","city":"福井市","address":"八重巻町"},
{"zip_code":"9102337","kana_pref":"ﾌｸｲｹﾝ","kana_city":"ﾌｸｲｼ","kana_address":"ﾔｸｼﾁｮｳ","pref":"福井県","city":"福井市","address":"薬師町"},
{"zip_code":"9102338","kana_pref":"ﾌｸｲｹﾝ","kana_city":"ﾌｸｲｼ","kana_address":"ﾔｸｼﾁｮｳ","pref":"福井県","city":"福井市","address":"薬師町"},
{"zip_code":"9102339","kana_pref":"ﾌｸｲｹﾝ","kana_city":"ﾌｸｲｼ","kana_address":"ﾔｸｼﾁｮｳ","pref":"福井県","city":"福井市","address":"薬師町"},
{"zip_code":"9100054","kana_pref":"ﾌｸｲｹﾝ","kana_city":"ﾌｸｲｼ","kana_address":"ﾔｽﾀｹﾁｮｳ","pref":"福井県","city":"福井市","address":"安竹町"},
{"zip_code":"9102167","kana_pref":"ﾌｸｲｹﾝ","kana_city":"ﾌｸｲｼ","kana_address":"ﾔｽﾊﾗﾁｮｳ","pref":"福井県","city":"福井市","address":"安原町"},
{"zip_code":"9100066","kana_pref":"ﾌｸｲｹﾝ","kana_city":"ﾌｸｲｼ","kana_address":"ﾔﾂｼﾏ","pref":"福井県","city":"福井市","address":"八ツ島"},
{"zip_code":"9100065","kana_pref":"ﾌｸｲｹﾝ","kana_city":"ﾌｸｲｼ","kana_address":"ﾔﾂｼﾏﾁｮｳ","pref":"福井県","city":"福井市","address":"八ツ島町"},
{"zip_code":"9103558","kana_pref":"ﾌｸｲｹﾝ","kana_city":"ﾌｸｲｼ","kana_address":"ﾔﾂﾏﾀﾁｮｳ","pref":"福井県","city":"福井市","address":"八ツ俣町"},
{"zip_code":"9103636","kana_pref":"ﾌｸｲｹﾝ","kana_city":"ﾌｸｲｼ","kana_address":"ﾔﾏｳﾁﾁｮｳ","pref":"福井県","city":"福井市","address":"山内町"},
{"zip_code":"9100108","kana_pref":"ﾌｸｲｹﾝ","kana_city":"ﾌｸｲｼ","kana_address":"ﾔﾏﾑﾛﾁｮｳ","pref":"福井県","city":"福井市","address":"山室町"},
{"zip_code":"9103254","kana_pref":"ﾌｸｲｹﾝ","kana_city":"ﾌｸｲｼ","kana_address":"ﾔﾜﾀﾁｮｳ","pref":"福井県","city":"福井市","address":"八幡町"},
{"zip_code":"9102473","kana_pref":"ﾌｸｲｹﾝ","kana_city":"ﾌｸｲｼ","kana_address":"ﾖｺｺﾞｼﾁｮｳ","pref":"福井県","city":"福井市","address":"横越町"},
{"zip_code":"9102206","kana_pref":"ﾌｸｲｹﾝ","kana_city":"ﾌｸｲｼ","kana_address":"ﾖｼﾔﾏﾁｮｳ","pref":"福井県","city":"福井市","address":"吉山町"},
{"zip_code":"9102207","kana_pref":"ﾌｸｲｹﾝ","kana_city":"ﾌｸｲｼ","kana_address":"ﾖｼﾔﾏﾁｮｳ","pref":"福井県","city":"福井市","address":"吉山町"},
{"zip_code":"9102208","kana_pref":"ﾌｸｲｹﾝ","kana_city":"ﾌｸｲｼ","kana_address":"ﾖｼﾔﾏﾁｮｳ","pref":"福井県","city":"福井市","address":"吉山町"},
{"zip_code":"9100846","kana_pref":"ﾌｸｲｹﾝ","kana_city":"ﾌｸｲｼ","kana_address":"ﾖﾂｲ","pref":"福井県","city":"福井市","address":"四ツ井"},
{"zip_code":"9100851","kana_pref":"ﾌｸｲｹﾝ","kana_city":"ﾌｸｲｼ","kana_address":"ﾖﾈﾏﾂ","pref":"福井県","city":"福井市","address":"米松"},
{"zip_code":"9103135","kana_pref":"ﾌｸｲｹﾝ","kana_city":"ﾌｸｲｼ","kana_address":"ﾘｮｳﾊｼﾔﾁｮｳ","pref":"福井県","city":"福井市","address":"両橋屋町"},
{"zip_code":"9100831","kana_pref":"ﾌｸｲｹﾝ","kana_city":"ﾌｸｲｼ","kana_address":"ﾜｶｴﾁｮｳ","pref":"福井県","city":"福井市","address":"若栄町"},
{"zip_code":"9102161","kana_pref":"ﾌｸｲｹﾝ","kana_city":"ﾌｸｲｼ","kana_address":"ﾜｷｻﾝｶﾞﾁｮｳ","pref":"福井県","city":"福井市","address":"脇三ケ町"},
{"zip_code":"9103631","kana_pref":"ﾌｸｲｹﾝ","kana_city":"ﾌｸｲｼ","kana_address":"ﾜﾀﾞﾁｮｳ","pref":"福井県","city":"福井市","address":"和田町"},
{"zip_code":"9104273","kana_pref":"ﾌｸｲｹﾝ","kana_city":"ｱﾜﾗｼ","kana_address":"ｱｶｵ","pref":"福井県","city":"あわら市","address":"赤尾"},
{"zip_code":"9104102","kana_pref":"ﾌｸｲｹﾝ","kana_city":"ｱﾜﾗｼ","kana_address":"ｱｼﾂﾞﾙ","pref":"福井県","city":"あわら市","address":"芦鶴"},
{"zip_code":"9104112","kana_pref":"ﾌｸｲｹﾝ","kana_city":"ｱﾜﾗｼ","kana_address":"ｲｴﾖｼ","pref":"福井県","city":"あわら市","address":"井江葭"},
{"zip_code":"9104111","kana_pref":"ﾌｸｲｹﾝ","kana_city":"ｱﾜﾗｼ","kana_address":"ｳｼﾔﾏ","pref":"福井県","city":"あわら市","address":"牛山"},
{"zip_code":"9104104","kana_pref":"ﾌｸｲｹﾝ","kana_city":"ｱﾜﾗｼ","kana_address":"ｵﾝｾﾝ","pref":"福井県","city":"あわら市","address":"温泉"},
{"zip_code":"9104134","kana_pref":"ﾌｸｲｹﾝ","kana_city":"ｱﾜﾗｼ","kana_address":"ｶﾐﾊﾞﾝ","pref":"福井県","city":"あわら市","address":"上番"},
{"zip_code":"9104272","kana_pref":"ﾌｸｲｹﾝ","kana_city":"ｱﾜﾗｼ","kana_address":"ｷﾀｶﾞﾀ","pref":"福井県","city":"あわら市","address":"北潟"},
{"zip_code":"9104146","kana_pref":"ﾌｸｲｹﾝ","kana_city":"ｱﾜﾗｼ","kana_address":"ｷﾀﾎﾝﾄﾞｳ","pref":"福井県","city":"あわら市","address":"北本堂"},
{"zip_code":"9104115","kana_pref":"ﾌｸｲｹﾝ","kana_city":"ｱﾜﾗｼ","kana_address":"ｸﾆｶｹﾞ","pref":"福井県","city":"あわら市","address":"国影"},
{"zip_code":"9104147","kana_pref":"ﾌｸｲｹﾝ","kana_city":"ｱﾜﾗｼ","kana_address":"ｸﾓﾝ","pref":"福井県","city":"あわら市","address":"公文"},
{"zip_code":"9104142","kana_pref":"ﾌｸｲｹﾝ","kana_city":"ｱﾜﾗｼ","kana_address":"ｺｳﾏ","pref":"福井県","city":"あわら市","address":"河間"},
{"zip_code":"9104122","kana_pref":"ﾌｸｲｹﾝ","kana_city":"ｱﾜﾗｼ","kana_address":"ｼｹﾞﾖｼ","pref":"福井県","city":"あわら市","address":"重義"},
{"zip_code":"9104138","kana_pref":"ﾌｸｲｹﾝ","kana_city":"ｱﾜﾗｼ","kana_address":"ｼﾓﾊﾞﾝ","pref":"福井県","city":"あわら市","address":"下番"},
{"zip_code":"9104276","kana_pref":"ﾌｸｲｹﾝ","kana_city":"ｱﾜﾗｼ","kana_address":"ｼﾞｭｳｿｳ","pref":"福井県","city":"あわら市","address":"十三"},
{"zip_code":"9104276","kana_pref":"ﾌｸｲｹﾝ","kana_city":"ｱﾜﾗｼ","kana_address":"ｼﾞｮｳ","pref":"福井県","city":"あわら市","address":"城"},
{"zip_code":"9104275","kana_pref":"ﾌｸｲｹﾝ","kana_city":"ｱﾜﾗｼ","kana_address":"ｼﾞｮｳｼﾝﾃﾞﾝ","pref":"福井県","city":"あわら市","address":"城新田"},
{"zip_code":"9104145","kana_pref":"ﾌｸｲｹﾝ","kana_city":"ｱﾜﾗｼ","kana_address":"ｽﾐﾔ","pref":"福井県","city":"あわら市","address":"角屋"},
{"zip_code":"9104124","kana_pref":"ﾌｸｲｹﾝ","kana_city":"ｱﾜﾗｼ","kana_address":"ﾀﾅｶﾅｶ","pref":"福井県","city":"あわら市","address":"田中々"},
{"zip_code":"9104141","kana_pref":"ﾌｸｲｹﾝ","kana_city":"ｱﾜﾗｼ","kana_address":"ﾀﾏｷ","pref":"福井県","city":"あわら市","address":"玉木"},
{"zip_code":"9104132","kana_pref":"ﾌｸｲｹﾝ","kana_city":"ｱﾜﾗｼ","kana_address":"ﾀﾝﾊﾞｸ","pref":"福井県","city":"あわら市","address":"谷畠"},
{"zip_code":"9104131","kana_pref":"ﾌｸｲｹﾝ","kana_city":"ｱﾜﾗｼ","kana_address":"ﾄｳｾﾞﾝｼﾞ","pref":"福井県","city":"あわら市","address":"東善寺"},
{"zip_code":"9104133","kana_pref":"ﾌｸｲｹﾝ","kana_city":"ｱﾜﾗｼ","kana_address":"ﾄﾄﾞﾛｷ","pref":"福井県","city":"あわら市","address":"轟木"},
{"zip_code":"9104272","kana_pref":"ﾌｸｲｹﾝ","kana_city":"ｱﾜﾗｼ","kana_address":"ﾄﾐﾂ","pref":"福井県","city":"あわら市","address":"富津"},
{"zip_code":"9104144","kana_pref":"ﾌｸｲｹﾝ","kana_city":"ｱﾜﾗｼ","kana_address":"ﾅｶﾉﾊﾏ","pref":"福井県","city":"あわら市","address":"中浜"},
{"zip_code":"9104137","kana_pref":"ﾌｸｲｹﾝ","kana_city":"ｱﾜﾗｼ","kana_address":"ﾅｶﾊﾞﾝ","pref":"福井県","city":"あわら市","address":"中番"},
{"zip_code":"9104277","kana_pref":"ﾌｸｲｹﾝ","kana_city":"ｱﾜﾗｼ","kana_address":"ﾅﾐﾏﾂ","pref":"福井県","city":"あわら市","address":"波松"},
{"zip_code":"9104127","kana_pref":"ﾌｸｲｹﾝ","kana_city":"ｱﾜﾗｼ","kana_address":"ﾆｼｵﾝｾﾝ","pref":"福井県","city":"あわら市","address":"西温泉"},
{"zip_code":"9104126","kana_pref":"ﾌｸｲｹﾝ","kana_city":"ｱﾜﾗｼ","kana_address":"ﾇﾉﾒ","pref":"福井県","city":"あわら市","address":"布目"},
{"zip_code":"9104271","kana_pref":"ﾌｸｲｹﾝ","kana_city":"ｱﾜﾗｼ","kana_address":"ﾊﾏｻｶ","pref":"福井県","city":"あわら市","address":"浜坂"},
{"zip_code":"9104123","kana_pref":"ﾌｸｲｹﾝ","kana_city":"ｱﾜﾗｼ","kana_address":"ﾊﾞﾝﾃﾞﾝ","pref":"福井県","city":"あわら市","address":"番田"},
{"zip_code":"9104274","kana_pref":"ﾌｸｲｹﾝ","kana_city":"ｱﾜﾗｼ","kana_address":"ﾊﾞﾝﾄﾞﾉ","pref":"福井県","city":"あわら市","address":"番堂野"},
{"zip_code":"9104121","kana_pref":"ﾌｸｲｹﾝ","kana_city":"ｱﾜﾗｼ","kana_address":"ﾋｶﾞｼｵﾝｾﾝ","pref":"福井県","city":"あわら市","address":"東温泉"},
{"zip_code":"9104103","kana_pref":"ﾌｸｲｹﾝ","kana_city":"ｱﾜﾗｼ","kana_address":"ﾌﾀｵﾓﾃ","pref":"福井県","city":"あわら市","address":"二面"},
{"zip_code":"9104105","kana_pref":"ﾌｸｲｹﾝ","kana_city":"ｱﾜﾗｼ","kana_address":"ﾌﾅﾂ","pref":"福井県","city":"あわら市","address":"舟津"},
{"zip_code":"9104125","kana_pref":"ﾌｸｲｹﾝ","kana_city":"ｱﾜﾗｼ","kana_address":"ﾎﾘｴｼﾞｭｳﾗｸ","pref":"福井県","city":"あわら市","address":"堀江十楽"},
{"zip_code":"9104147","kana_pref":"ﾌｸｲｹﾝ","kana_city":"ｱﾜﾗｼ","kana_address":"ﾐﾔﾏｴ","pref":"福井県","city":"あわら市","address":"宮前"},
{"zip_code":"9104113","kana_pref":"ﾌｸｲｹﾝ","kana_city":"ｱﾜﾗｼ","kana_address":"ﾖｺｶﾞｷ","pref":"福井県","city":"あわら市","address":"横垣"},
{"zip_code":"9100200","kana_pref":"ﾌｸｲｹﾝ","kana_city":"ｻｶｲｼ","kana_address":"","pref":"福井県","city":"坂井市","address":""},
{"zip_code":"9100212","kana_pref":"ﾌｸｲｹﾝ","kana_city":"ｻｶｲｼ","kana_address":"ﾏﾙｵｶﾁｮｳｱｶｻｶ","pref":"福井県","city":"坂井市","address":"丸岡町赤坂"},
{"zip_code":"9100265","kana_pref":"ﾌｸｲｹﾝ","kana_city":"ｻｶｲｼ","kana_address":"ﾏﾙｵｶﾁｮｳｱｻﾋ","pref":"福井県","city":"坂井市","address":"丸岡町朝陽"},
{"zip_code":"9100301","kana_pref":"ﾌｸｲｹﾝ","kana_city":"ｻｶｲｼ","kana_address":"ﾏﾙｵｶﾁｮｳｱﾀｺﾞ","pref":"福井県","city":"坂井市","address":"丸岡町愛宕"},
{"zip_code":"9100324","kana_pref":"ﾌｸｲｹﾝ","kana_city":"ｻｶｲｼ","kana_address":"ﾏﾙｵｶﾁｮｳｱﾌﾞﾗﾀﾒﾄｳ","pref":"福井県","city":"坂井市","address":"丸岡町油為頭"},
{"zip_code":"9100227","kana_pref":"ﾌｸｲｹﾝ","kana_city":"ｻｶｲｼ","kana_address":"ﾏﾙｵｶﾁｮｳｱﾗﾏﾁ","pref":"福井県","city":"坂井市","address":"丸岡町荒町"},
{"zip_code":"9100243","kana_pref":"ﾌｸｲｹﾝ","kana_city":"ｻｶｲｼ","kana_address":"ﾏﾙｵｶﾁｮｳｲｼｷﾄﾞﾁｮｳ","pref":"福井県","city":"坂井市","address":"丸岡町石城戸町"},
{"zip_code":"9100346","kana_pref":"ﾌｸｲｹﾝ","kana_city":"ｻｶｲｼ","kana_address":"ﾏﾙｵｶﾁｮｳｲｿﾍﾞｼﾏ","pref":"福井県","city":"坂井市","address":"丸岡町磯部島"},
{"zip_code":"9100368","kana_pref":"ﾌｸｲｹﾝ","kana_city":"ｻｶｲｼ","kana_address":"ﾏﾙｵｶﾁｮｳｲｿﾍﾞｼﾝﾎﾞ","pref":"福井県","city":"坂井市","address":"丸岡町磯部新保"},
{"zip_code":"9100365","kana_pref":"ﾌｸｲｹﾝ","kana_city":"ｻｶｲｼ","kana_address":"ﾏﾙｵｶﾁｮｳｲｿﾍﾞﾌｸｼｮ","pref":"福井県","city":"坂井市","address":"丸岡町磯部福庄"},
{"zip_code":"9100325","kana_pref":"ﾌｸｲｹﾝ","kana_city":"ｻｶｲｼ","kana_address":"ﾏﾙｵｶﾁｮｳｲﾀｸﾗ","pref":"福井県","city":"坂井市","address":"丸岡町板倉"},
{"zip_code":"9100254","kana_pref":"ﾌｸｲｹﾝ","kana_city":"ｻｶｲｼ","kana_address":"ﾏﾙｵｶﾁｮｳｲｯﾎﾟﾝﾃﾞﾝ","pref":"福井県","city":"坂井市","address":"丸岡町一本田"},
{"zip_code":"9100253","kana_pref":"ﾌｸｲｹﾝ","kana_city":"ｻｶｲｼ","kana_address":"ﾏﾙｵｶﾁｮｳｲｯﾎﾟﾝﾃﾞﾝﾅｶ","pref":"福井県","city":"坂井市","address":"丸岡町一本田中"},
{"zip_code":"9100251","kana_pref":"ﾌｸｲｹﾝ","kana_city":"ｻｶｲｼ","kana_address":"ﾏﾙｵｶﾁｮｳｲｯﾎﾟﾝﾃﾞﾝﾌｸｼｮ","pref":"福井県","city":"坂井市","address":"丸岡町一本田福所"},
{"zip_code":"9100237","kana_pref":"ﾌｸｲｹﾝ","kana_city":"ｻｶｲｼ","kana_address":"ﾏﾙｵｶﾁｮｳｲﾇｲ","pref":"福井県","city":"坂井市","address":"丸岡町乾"},
{"zip_code":"9100264","kana_pref":"ﾌｸｲｹﾝ","kana_city":"ｻｶｲｼ","kana_address":"ﾏﾙｵｶﾁｮｳｲﾇｲｼﾓﾀﾞ","pref":"福井県","city":"坂井市","address":"丸岡町乾下田"},
{"zip_code":"9100303","kana_pref":"ﾌｸｲｹﾝ","kana_city":"ｻｶｲｼ","kana_address":"ﾏﾙｵｶﾁｮｳｲﾉﾂﾒ","pref":"福井県","city":"坂井市","address":"丸岡町猪爪"},
{"zip_code":"9100234","kana_pref":"ﾌｸｲｹﾝ","kana_city":"ｻｶｲｼ","kana_address":"ﾏﾙｵｶﾁｮｳｲﾏｲﾁ","pref":"福井県","city":"坂井市","address":"丸岡町今市"},
{"zip_code":"9100304","kana_pref":"ﾌｸｲｹﾝ","kana_city":"ｻｶｲｼ","kana_address":"ﾏﾙｵｶﾁｮｳｲﾏﾌｸ","pref":"福井県","city":"坂井市","address":"丸岡町今福"},
{"zip_code":"9100348","kana_pref":"ﾌｸｲｹﾝ","kana_city":"ｻｶｲｼ","kana_address":"ﾏﾙｵｶﾁｮｳｲﾏﾏﾁ","pref":"福井県","city":"坂井市","address":"丸岡町今町"},
{"zip_code":"9100263","kana_pref":"ﾌｸｲｹﾝ","kana_city":"ｻｶｲｼ","kana_address":"ﾏﾙｵｶﾁｮｳｳｴﾀﾞﾏﾁ","pref":"福井県","city":"坂井市","address":"丸岡町上田町"},
{"zip_code":"9100356","kana_pref":"ﾌｸｲｹﾝ","kana_city":"ｻｶｲｼ","kana_address":"ﾏﾙｵｶﾁｮｳｳｼｶﾞｼﾏ","pref":"福井県","city":"坂井市","address":"丸岡町牛ケ島"},
{"zip_code":"9100366","kana_pref":"ﾌｸｲｹﾝ","kana_city":"ｻｶｲｼ","kana_address":"ﾏﾙｵｶﾁｮｳｳｽﾞｲ","pref":"福井県","city":"坂井市","address":"丸岡町宇随"},
{"zip_code":"9100275","kana_pref":"ﾌｸｲｹﾝ","kana_city":"ｻｶｲｼ","kana_address":"ﾏﾙｵｶﾁｮｳｳﾀﾞ","pref":"福井県","city":"坂井市","address":"丸岡町宇田"},
{"zip_code":"9100313","kana_pref":"ﾌｸｲｹﾝ","kana_city":"ｻｶｲｼ","kana_address":"ﾏﾙｵｶﾁｮｳｳﾁﾀﾞ","pref":"福井県","city":"坂井市","address":"丸岡町内田"},
{"zip_code":"9100322","kana_pref":"ﾌｸｲｹﾝ","kana_city":"ｻｶｲｼ","kana_address":"ﾏﾙｵｶﾁｮｳｵｵﾓﾘ","pref":"福井県","city":"坂井市","address":"丸岡町大森"},
{"zip_code":"9100315","kana_pref":"ﾌｸｲｹﾝ","kana_city":"ｻｶｲｼ","kana_address":"ﾏﾙｵｶﾁｮｳｵｸﾞﾛ","pref":"福井県","city":"坂井市","address":"丸岡町小黒"},
{"zip_code":"9100211","kana_pref":"ﾌｸｲｹﾝ","kana_city":"ｻｶｲｼ","kana_address":"ﾏﾙｵｶﾁｮｳｵﾅｶﾞﾀﾆ","pref":"福井県","city":"坂井市","address":"丸岡町女形谷"},
{"zip_code":"9100232","kana_pref":"ﾌｸｲｹﾝ","kana_city":"ｻｶｲｼ","kana_address":"ﾏﾙｵｶﾁｮｳｶｽﾐｶﾞｵｶ","pref":"福井県","city":"坂井市","address":"丸岡町霞ケ丘"},
{"zip_code":"9100231","kana_pref":"ﾌｸｲｹﾝ","kana_city":"ｻｶｲｼ","kana_address":"ﾏﾙｵｶﾁｮｳｶｽﾐﾁｮｳ","pref":"福井県","city":"坂井市","address":"丸岡町霞町"},
{"zip_code":"9100333","kana_pref":"ﾌｸｲｹﾝ","kana_city":"ｻｶｲｼ","kana_address":"ﾏﾙｵｶﾁｮｳｶﾈﾓﾄ","pref":"福井県","city":"坂井市","address":"丸岡町金元"},
{"zip_code":"9100335","kana_pref":"ﾌｸｲｹﾝ","kana_city":"ｻｶｲｼ","kana_address":"ﾏﾙｵｶﾁｮｳｶﾐｶﾅﾔ","pref":"福井県","city":"坂井市","address":"丸岡町上金屋"},
{"zip_code":"9100331","kana_pref":"ﾌｸｲｹﾝ","kana_city":"ｻｶｲｼ","kana_address":"ﾏﾙｵｶﾁｮｳｶﾐｸﾒﾀﾞ","pref":"福井県","city":"坂井市","address":"丸岡町上久米田"},
{"zip_code":"9100202","kana_pref":"ﾌｸｲｹﾝ","kana_city":"ｻｶｲｼ","kana_address":"ﾏﾙｵｶﾁｮｳｶﾐﾀｹﾀﾞ","pref":"福井県","city":"坂井市","address":"丸岡町上竹田"},
{"zip_code":"9100201","kana_pref":"ﾌｸｲｹﾝ","kana_city":"ｻｶｲｼ","kana_address":"ﾏﾙｵｶﾁｮｳｶﾐﾀｹﾀﾞ","pref":"福井県","city":"坂井市","address":"丸岡町上竹田"},
{"zip_code":"9100205","kana_pref":"ﾌｸｲｹﾝ","kana_city":"ｻｶｲｼ","kana_address":"ﾏﾙｵｶﾁｮｳｶﾐﾀｹﾀﾞ","pref":"福井県","city":"坂井市","address":"丸岡町上竹田"},
{"zip_code":"9100362","kana_pref":"ﾌｸｲｹﾝ","kana_city":"ｻｶｲｼ","kana_address":"ﾏﾙｵｶﾁｮｳｶﾐﾔｽﾀ","pref":"福井県","city":"坂井市","address":"丸岡町上安田"},
{"zip_code":"9100206","kana_pref":"ﾌｸｲｹﾝ","kana_city":"ｻｶｲｼ","kana_address":"ﾏﾙｵｶﾁｮｳｶﾜｶﾐ","pref":"福井県","city":"坂井市","address":"丸岡町川上"},
{"zip_code":"9100374","kana_pref":"ﾌｸｲｹﾝ","kana_city":"ｻｶｲｼ","kana_address":"ﾏﾙｵｶﾁｮｳｷﾀﾖｺｼﾞ","pref":"福井県","city":"坂井市","address":"丸岡町北横地"},
{"zip_code":"9100357","kana_pref":"ﾌｸｲｹﾝ","kana_city":"ｻｶｲｼ","kana_address":"ﾏﾙｵｶﾁｮｳｷﾞﾏ","pref":"福井県","city":"坂井市","address":"丸岡町儀間"},
{"zip_code":"9100347","kana_pref":"ﾌｸｲｹﾝ","kana_city":"ｻｶｲｼ","kana_address":"ﾏﾙｵｶﾁｮｳｸﾏﾝﾄﾞｳ","pref":"福井県","city":"坂井市","address":"丸岡町熊堂"},
{"zip_code":"9100276","kana_pref":"ﾌｸｲｹﾝ","kana_city":"ｻｶｲｼ","kana_address":"ﾏﾙｵｶﾁｮｳｹﾞﾝﾆｮ","pref":"福井県","city":"坂井市","address":"丸岡町玄女"},
{"zip_code":"9100262","kana_pref":"ﾌｸｲｹﾝ","kana_city":"ｻｶｲｼ","kana_address":"ﾏﾙｵｶﾁｮｳｻｶｴ","pref":"福井県","city":"坂井市","address":"丸岡町栄"},
{"zip_code":"9100382","kana_pref":"ﾌｸｲｹﾝ","kana_city":"ｻｶｲｼ","kana_address":"ﾏﾙｵｶﾁｮｳｻｻﾜﾀﾞ","pref":"福井県","city":"坂井市","address":"丸岡町笹和田"},
{"zip_code":"9100277","kana_pref":"ﾌｸｲｹﾝ","kana_city":"ｻｶｲｼ","kana_address":"ﾏﾙｵｶﾁｮｳｻﾄﾀｹﾀﾞ","pref":"福井県","city":"坂井市","address":"丸岡町里竹田"},
{"zip_code":"9100302","kana_pref":"ﾌｸｲｹﾝ","kana_city":"ｻｶｲｼ","kana_address":"ﾏﾙｵｶﾁｮｳｻﾄﾏﾙｵｶ","pref":"福井県","city":"坂井市","address":"丸岡町里丸岡"},
{"zip_code":"9100223","kana_pref":"ﾌｸｲｹﾝ","kana_city":"ｻｶｲｼ","kana_address":"ﾏﾙｵｶﾁｮｳｻﾝﾎﾞﾝｷﾞ","pref":"福井県","city":"坂井市","address":"丸岡町三本木"},
{"zip_code":"9100316","kana_pref":"ﾌｸｲｹﾝ","kana_city":"ｻｶｲｼ","kana_address":"ﾏﾙｵｶﾁｮｳｼﾉｵｶ","pref":"福井県","city":"坂井市","address":"丸岡町篠岡"},
{"zip_code":"9100332","kana_pref":"ﾌｸｲｹﾝ","kana_city":"ｻｶｲｼ","kana_address":"ﾏﾙｵｶﾁｮｳｼﾓｸﾒﾀﾞ","pref":"福井県","city":"坂井市","address":"丸岡町下久米田"},
{"zip_code":"9100363","kana_pref":"ﾌｸｲｹﾝ","kana_city":"ｻｶｲｼ","kana_address":"ﾏﾙｵｶﾁｮｳｼﾓﾔｽﾀ","pref":"福井県","city":"坂井市","address":"丸岡町下安田"},
{"zip_code":"9100221","kana_pref":"ﾌｸｲｹﾝ","kana_city":"ｻｶｲｼ","kana_address":"ﾏﾙｵｶﾁｮｳｼﾞｮｳﾎｸ","pref":"福井県","city":"坂井市","address":"丸岡町城北"},
{"zip_code":"9100345","kana_pref":"ﾌｸｲｹﾝ","kana_city":"ｻｶｲｼ","kana_address":"ﾏﾙｵｶﾁｮｳｼﾛｳﾏﾙ","pref":"福井県","city":"坂井市","address":"丸岡町四郎丸"},
{"zip_code":"9100369","kana_pref":"ﾌｸｲｹﾝ","kana_city":"ｻｶｲｼ","kana_address":"ﾏﾙｵｶﾁｮｳｼﾝｸｽﾞﾘｭｳ","pref":"福井県","city":"坂井市","address":"丸岡町新九頭竜"},
{"zip_code":"9100337","kana_pref":"ﾌｸｲｹﾝ","kana_city":"ｻｶｲｼ","kana_address":"ﾏﾙｵｶﾁｮｳｼﾝﾅﾙｶ","pref":"福井県","city":"坂井市","address":"丸岡町新鳴鹿"},
{"zip_code":"9100352","kana_pref":"ﾌｸｲｹﾝ","kana_city":"ｻｶｲｼ","kana_address":"ﾏﾙｵｶﾁｮｳｼﾝﾏ","pref":"福井県","city":"坂井市","address":"丸岡町新間"},
{"zip_code":"9100326","kana_pref":"ﾌｸｲｹﾝ","kana_city":"ｻｶｲｼ","kana_address":"ﾏﾙｵｶﾁｮｳｽｴﾏｻ","pref":"福井県","city":"坂井市","address":"丸岡町末政"},
{"zip_code":"9100274","kana_pref":"ﾌｸｲｹﾝ","kana_city":"ｻｶｲｼ","kana_address":"ﾏﾙｵｶﾁｮｳｾﾝﾀﾞ","pref":"福井県","city":"坂井市","address":"丸岡町千田"},
{"zip_code":"9100312","kana_pref":"ﾌｸｲｹﾝ","kana_city":"ｻｶｲｼ","kana_address":"ﾏﾙｵｶﾁｮｳｿｿｷ","pref":"福井県","city":"坂井市","address":"丸岡町曽々木"},
{"zip_code":"9100355","kana_pref":"ﾌｸｲｹﾝ","kana_city":"ｻｶｲｼ","kana_address":"ﾏﾙｵｶﾁｮｳﾀｶｾ","pref":"福井県","city":"坂井市","address":"丸岡町高瀬"},
{"zip_code":"9100342","kana_pref":"ﾌｸｲｹﾝ","kana_city":"ｻｶｲｼ","kana_address":"ﾏﾙｵｶﾁｮｳﾀｶﾀﾞ","pref":"福井県","city":"坂井市","address":"丸岡町高田"},
{"zip_code":"9100373","kana_pref":"ﾌｸｲｹﾝ","kana_city":"ｻｶｲｼ","kana_address":"ﾏﾙｵｶﾁｮｳﾀｶﾔﾅｷﾞ","pref":"福井県","city":"坂井市","address":"丸岡町高柳"},
{"zip_code":"9100235","kana_pref":"ﾌｸｲｹﾝ","kana_city":"ｻｶｲｼ","kana_address":"ﾏﾙｵｶﾁｮｳﾀﾂﾐﾁｮｳ","pref":"福井県","city":"坂井市","address":"丸岡町巽町"},
{"zip_code":"9100245","kana_pref":"ﾌｸｲｹﾝ","kana_city":"ｻｶｲｼ","kana_address":"ﾏﾙｵｶﾁｮｳﾀﾆﾏﾁ","pref":"福井県","city":"坂井市","address":"丸岡町谷町"},
{"zip_code":"9100338","kana_pref":"ﾌｸｲｹﾝ","kana_city":"ｻｶｲｼ","kana_address":"ﾏﾙｵｶﾁｮｳﾀﾒﾔｽ","pref":"福井県","city":"坂井市","address":"丸岡町為安"},
{"zip_code":"9100213","kana_pref":"ﾌｸｲｹﾝ","kana_city":"ｻｶｲｼ","kana_address":"ﾏﾙｵｶﾁｮｳﾀﾔ","pref":"福井県","city":"坂井市","address":"丸岡町田屋"},
{"zip_code":"9100349","kana_pref":"ﾌｸｲｹﾝ","kana_city":"ｻｶｲｼ","kana_address":"ﾏﾙｵｶﾁｮｳﾀﾝﾎﾞ","pref":"福井県","city":"坂井市","address":"丸岡町反保"},
{"zip_code":"9100353","kana_pref":"ﾌｸｲｹﾝ","kana_city":"ｻｶｲｼ","kana_address":"ﾏﾙｵｶﾁｮｳﾁｸｺﾞｼｮｳｽﾞ","pref":"福井県","city":"坂井市","address":"丸岡町筑後清水"},
{"zip_code":"9100208","kana_pref":"ﾌｸｲｹﾝ","kana_city":"ｻｶｲｼ","kana_address":"ﾏﾙｵｶﾁｮｳﾂﾎﾞｴ","pref":"福井県","city":"坂井市","address":"丸岡町坪江"},
{"zip_code":"9100343","kana_pref":"ﾌｸｲｹﾝ","kana_city":"ｻｶｲｼ","kana_address":"ﾏﾙｵｶﾁｮｳﾂﾎﾞﾉｳﾁ","pref":"福井県","city":"坂井市","address":"丸岡町坪ノ内"},
{"zip_code":"9100233","kana_pref":"ﾌｸｲｹﾝ","kana_city":"ｻｶｲｼ","kana_address":"ﾏﾙｵｶﾁｮｳﾄｳﾖｳ","pref":"福井県","city":"坂井市","address":"丸岡町東陽"},
{"zip_code":"9100244","kana_pref":"ﾌｸｲｹﾝ","kana_city":"ｻｶｲｼ","kana_address":"ﾏﾙｵｶﾁｮｳﾄﾐﾀﾏﾁ","pref":"福井県","city":"坂井市","address":"丸岡町富田町"},
{"zip_code":"9100344","kana_pref":"ﾌｸｲｹﾝ","kana_city":"ｻｶｲｼ","kana_address":"ﾏﾙｵｶﾁｮｳﾄﾓｽｴ","pref":"福井県","city":"坂井市","address":"丸岡町友末"},
{"zip_code":"9100311","kana_pref":"ﾌｸｲｹﾝ","kana_city":"ｻｶｲｼ","kana_address":"ﾏﾙｵｶﾁｮｳﾄﾖﾊﾗ","pref":"福井県","city":"坂井市","address":"丸岡町豊原"},
{"zip_code":"9100354","kana_pref":"ﾌｸｲｹﾝ","kana_city":"ｻｶｲｼ","kana_address":"ﾏﾙｵｶﾁｮｳﾄﾖﾊﾗﾀｶｾ","pref":"福井県","city":"坂井市","address":"丸岡町豊原高瀬"},
{"zip_code":"9100351","kana_pref":"ﾌｸｲｹﾝ","kana_city":"ｻｶｲｼ","kana_address":"ﾏﾙｵｶﾁｮｳﾄﾗｸﾆ","pref":"福井県","city":"坂井市","address":"丸岡町寅国"},
{"zip_code":"9100383","kana_pref":"ﾌｸｲｹﾝ","kana_city":"ｻｶｲｼ","kana_address":"ﾏﾙｵｶﾁｮｳﾅｶﾞｻｷ","pref":"福井県","city":"坂井市","address":"丸岡町長崎"},
{"zip_code":"9100246","kana_pref":"ﾌｸｲｹﾝ","kana_city":"ｻｶｲｼ","kana_address":"ﾏﾙｵｶﾁｮｳﾆｼｳﾘﾔ","pref":"福井県","city":"坂井市","address":"丸岡町西瓜屋"},
{"zip_code":"9100242","kana_pref":"ﾌｸｲｹﾝ","kana_city":"ｻｶｲｼ","kana_address":"ﾏﾙｵｶﾁｮｳﾆｼｻﾄﾏﾙｵｶ","pref":"福井県","city":"坂井市","address":"丸岡町西里丸岡"},
{"zip_code":"9100273","kana_pref":"ﾌｸｲｹﾝ","kana_city":"ｻｶｲｼ","kana_address":"ﾏﾙｵｶﾁｮｳﾉｳﾈ","pref":"福井県","city":"坂井市","address":"丸岡町長畝"},
{"zip_code":"9100323","kana_pref":"ﾌｸｲｹﾝ","kana_city":"ｻｶｲｼ","kana_address":"ﾏﾙｵｶﾁｮｳﾉﾅｶｻﾝﾉｳ","pref":"福井県","city":"坂井市","address":"丸岡町野中山王"},
{"zip_code":"9100272","kana_pref":"ﾌｸｲｹﾝ","kana_city":"ｻｶｲｼ","kana_address":"ﾏﾙｵｶﾁｮｳﾉﾘｶﾈ","pref":"福井県","city":"坂井市","address":"丸岡町乗兼"},
{"zip_code":"9100367","kana_pref":"ﾌｸｲｹﾝ","kana_city":"ｻｶｲｼ","kana_address":"ﾏﾙｵｶﾁｮｳﾊｻｷ","pref":"福井県","city":"坂井市","address":"丸岡町羽崎"},
{"zip_code":"9100214","kana_pref":"ﾌｸｲｹﾝ","kana_city":"ｻｶｲｼ","kana_address":"ﾏﾙｵｶﾁｮｳﾊﾀｹﾅｶ","pref":"福井県","city":"坂井市","address":"丸岡町畑中"},
{"zip_code":"9100305","kana_pref":"ﾌｸｲｹﾝ","kana_city":"ｻｶｲｼ","kana_address":"ﾏﾙｵｶﾁｮｳﾊﾁﾏﾝﾁｮｳ","pref":"福井県","city":"坂井市","address":"丸岡町八幡町"},
{"zip_code":"9100224","kana_pref":"ﾌｸｲｹﾝ","kana_city":"ｻｶｲｼ","kana_address":"ﾏﾙｵｶﾁｮｳﾊｯｶｺﾞｳ","pref":"福井県","city":"坂井市","address":"丸岡町八ケ郷"},
{"zip_code":"9100364","kana_pref":"ﾌｸｲｹﾝ","kana_city":"ｻｶｲｼ","kana_address":"ﾏﾙｵｶﾁｮｳﾊｯﾁｮｳ","pref":"福井県","city":"坂井市","address":"丸岡町八丁"},
{"zip_code":"9100261","kana_pref":"ﾌｸｲｹﾝ","kana_city":"ｻｶｲｼ","kana_address":"ﾏﾙｵｶﾁｮｳﾊﾘﾉｷ","pref":"福井県","city":"坂井市","address":"丸岡町針ノ木"},
{"zip_code":"9100334","kana_pref":"ﾌｸｲｹﾝ","kana_city":"ｻｶｲｼ","kana_address":"ﾏﾙｵｶﾁｮｳﾋｶﾞｼﾌﾀﾂﾔ","pref":"福井県","city":"坂井市","address":"丸岡町東二ツ屋"},
{"zip_code":"9100222","kana_pref":"ﾌｸｲｹﾝ","kana_city":"ｻｶｲｼ","kana_address":"ﾏﾙｵｶﾁｮｳﾌｾﾔ","pref":"福井県","city":"坂井市","address":"丸岡町伏屋"},
{"zip_code":"9100381","kana_pref":"ﾌｸｲｹﾝ","kana_city":"ｻｶｲｼ","kana_address":"ﾏﾙｵｶﾁｮｳﾌﾅﾖｾ","pref":"福井県","city":"坂井市","address":"丸岡町舟寄"},
{"zip_code":"9100271","kana_pref":"ﾌｸｲｹﾝ","kana_city":"ｻｶｲｼ","kana_address":"ﾏﾙｵｶﾁｮｳﾎﾘﾐｽﾞ","pref":"福井県","city":"坂井市","address":"丸岡町堀水"},
{"zip_code":"9100236","kana_pref":"ﾌｸｲｹﾝ","kana_city":"ｻｶｲｼ","kana_address":"ﾏﾙｵｶﾁｮｳﾎﾝﾏﾁ","pref":"福井県","city":"坂井市","address":"丸岡町本町"},
{"zip_code":"9100314","kana_pref":"ﾌｸｲｹﾝ","kana_city":"ｻｶｲｼ","kana_address":"ﾏﾙｵｶﾁｮｳﾏｽﾀ","pref":"福井県","city":"坂井市","address":"丸岡町舛田"},
{"zip_code":"9100225","kana_pref":"ﾌｸｲｹﾝ","kana_city":"ｻｶｲｼ","kana_address":"ﾏﾙｵｶﾁｮｳﾏﾂｶﾜ","pref":"福井県","city":"坂井市","address":"丸岡町松川"},
{"zip_code":"9100226","kana_pref":"ﾌｸｲｹﾝ","kana_city":"ｻｶｲｼ","kana_address":"ﾏﾙｵｶﾁｮｳﾏﾂｶﾜﾁｮｳ","pref":"福井県","city":"坂井市","address":"丸岡町松川町"},
{"zip_code":"9100350","kana_pref":"ﾌｸｲｹﾝ","kana_city":"ｻｶｲｼ","kana_address":"ﾏﾙｵｶﾁｮｳﾐﾅﾐｲﾏｲﾁ","pref":"福井県","city":"坂井市","address":"丸岡町南今市"},
{"zip_code":"9100375","kana_pref":"ﾌｸｲｹﾝ","kana_city":"ｻｶｲｼ","kana_address":"ﾏﾙｵｶﾁｮｳﾐﾅﾐﾖｺｼﾞ","pref":"福井県","city":"坂井市","address":"丸岡町南横地"},
{"zip_code":"9100252","kana_pref":"ﾌｸｲｹﾝ","kana_city":"ｻｶｲｼ","kana_address":"ﾏﾙｵｶﾁｮｳﾐﾕｷ","pref":"福井県","city":"坂井市","address":"丸岡町御幸"},
{"zip_code":"9100361","kana_pref":"ﾌｸｲｹﾝ","kana_city":"ｻｶｲｼ","kana_address":"ﾏﾙｵｶﾁｮｳﾔｽﾀｼﾝ","pref":"福井県","city":"坂井市","address":"丸岡町安田新"},
{"zip_code":"9100371","kana_pref":"ﾌｸｲｹﾝ","kana_city":"ｻｶｲｼ","kana_address":"ﾏﾙｵｶﾁｮｳﾔﾂｸﾁ","pref":"福井県","city":"坂井市","address":"丸岡町八ツ口"},
{"zip_code":"9100241","kana_pref":"ﾌｸｲｹﾝ","kana_city":"ｻｶｲｼ","kana_address":"ﾏﾙｵｶﾁｮｳﾔﾅｷﾞﾏﾁ","pref":"福井県","city":"坂井市","address":"丸岡町柳町"},
{"zip_code":"9100203","kana_pref":"ﾌｸｲｹﾝ","kana_city":"ｻｶｲｼ","kana_address":"ﾏﾙｵｶﾁｮｳﾔﾏｸﾞﾁ","pref":"福井県","city":"坂井市","address":"丸岡町山口"},
{"zip_code":"9100207","kana_pref":"ﾌｸｲｹﾝ","kana_city":"ｻｶｲｼ","kana_address":"ﾏﾙｵｶﾁｮｳﾔﾏｸﾎﾞ","pref":"福井県","city":"坂井市","address":"丸岡町山久保"},
{"zip_code":"9100321","kana_pref":"ﾌｸｲｹﾝ","kana_city":"ｻｶｲｼ","kana_address":"ﾏﾙｵｶﾁｮｳﾔﾏｻｷｻﾝｶﾞ","pref":"福井県","city":"坂井市","address":"丸岡町山崎三ケ"},
{"zip_code":"9100204","kana_pref":"ﾌｸｲｹﾝ","kana_city":"ｻｶｲｼ","kana_address":"ﾏﾙｵｶﾁｮｳﾔﾏﾀｹﾀﾞ","pref":"福井県","city":"坂井市","address":"丸岡町山竹田"},
{"zip_code":"9100215","kana_pref":"ﾌｸｲｹﾝ","kana_city":"ｻｶｲｼ","kana_address":"ﾏﾙｵｶﾁｮｳﾖｶﾜ","pref":"福井県","city":"坂井市","address":"丸岡町与河"},
{"zip_code":"9100372","kana_pref":"ﾌｸｲｹﾝ","kana_city":"ｻｶｲｼ","kana_address":"ﾏﾙｵｶﾁｮｳﾖｼﾏｻ","pref":"福井県","city":"坂井市","address":"丸岡町吉政"},
{"zip_code":"9100384","kana_pref":"ﾌｸｲｹﾝ","kana_city":"ｻｶｲｼ","kana_address":"ﾏﾙｵｶﾁｮｳﾖﾂﾔ","pref":"福井県","city":"坂井市","address":"丸岡町四ツ屋"},
{"zip_code":"9100341","kana_pref":"ﾌｸｲｹﾝ","kana_city":"ｻｶｲｼ","kana_address":"ﾏﾙｵｶﾁｮｳﾖﾂﾔﾅｷﾞ","pref":"福井県","city":"坂井市","address":"丸岡町四ツ柳"},
{"zip_code":"9100339","kana_pref":"ﾌｸｲｹﾝ","kana_city":"ｻｶｲｼ","kana_address":"ﾏﾙｵｶﾁｮｳﾖﾘﾅｶﾞ","pref":"福井県","city":"坂井市","address":"丸岡町寄永"},
{"zip_code":"9100336","kana_pref":"ﾌｸｲｹﾝ","kana_city":"ｻｶｲｼ","kana_address":"ﾏﾙｵｶﾁｮｳﾗｸﾏ","pref":"福井県","city":"坂井市","address":"丸岡町楽間"},
{"zip_code":"9101100","kana_pref":"ﾌｸｲｹﾝ","kana_city":"ﾖｼﾀﾞｸﾞﾝｴｲﾍｲｼﾞﾁｮｳ","kana_address":"","pref":"福井県","city":"吉田郡永平寺町","address":""},
{"zip_code":"9101323","kana_pref":"ﾌｸｲｹﾝ","kana_city":"ﾖｼﾀﾞｸﾞﾝｴｲﾍｲｼﾞﾁｮｳ","kana_address":"ｱｻﾞﾐ","pref":"福井県","city":"吉田郡永平寺町","address":"浅見"},
{"zip_code":"9101227","kana_pref":"ﾌｸｲｹﾝ","kana_city":"ﾖｼﾀﾞｸﾞﾝｴｲﾍｲｼﾞﾁｮｳ","kana_address":"ｱﾗﾀﾆ","pref":"福井県","city":"吉田郡永平寺町","address":"荒谷"},
{"zip_code":"9101217","kana_pref":"ﾌｸｲｹﾝ","kana_city":"ﾖｼﾀﾞｸﾞﾝｴｲﾍｲｼﾞﾁｮｳ","kana_address":"ｲｲｼﾞﾏ","pref":"福井県","city":"吉田郡永平寺町","address":"飯島"},
{"zip_code":"9101313","kana_pref":"ﾌｸｲｹﾝ","kana_city":"ﾖｼﾀﾞｸﾞﾝｴｲﾍｲｼﾞﾁｮｳ","kana_address":"ｲｼｶﾞﾐ","pref":"福井県","city":"吉田郡永平寺町","address":"石上"},
{"zip_code":"9101302","kana_pref":"ﾌｸｲｹﾝ","kana_city":"ﾖｼﾀﾞｸﾞﾝｴｲﾍｲｼﾞﾁｮｳ","kana_address":"ｲﾁｱﾗｶﾜ","pref":"福井県","city":"吉田郡永平寺町","address":"市荒川"},
{"zip_code":"9101316","kana_pref":"ﾌｸｲｹﾝ","kana_city":"ﾖｼﾀﾞｸﾞﾝｴｲﾍｲｼﾞﾁｮｳ","kana_address":"ｲﾁｳｴﾓﾝｼﾞﾏ","pref":"福井県","city":"吉田郡永平寺町","address":"市右エ門島"},
{"zip_code":"9101226","kana_pref":"ﾌｸｲｹﾝ","kana_city":"ﾖｼﾀﾞｸﾞﾝｴｲﾍｲｼﾞﾁｮｳ","kana_address":"ｲﾁﾉﾉ","pref":"福井県","city":"吉田郡永平寺町","address":"市野々"},
{"zip_code":"9101204","kana_pref":"ﾌｸｲｹﾝ","kana_city":"ﾖｼﾀﾞｸﾞﾝｴｲﾍｲｼﾞﾁｮｳ","kana_address":"ｲﾜﾉ","pref":"福井県","city":"吉田郡永平寺町","address":"岩野"},
{"zip_code":"9101322","kana_pref":"ﾌｸｲｹﾝ","kana_city":"ﾖｼﾀﾞｸﾞﾝｴｲﾍｲｼﾞﾁｮｳ","kana_address":"ｵｵﾂｷ","pref":"福井県","city":"吉田郡永平寺町","address":"大月"},
{"zip_code":"9101311","kana_pref":"ﾌｸｲｹﾝ","kana_city":"ﾖｼﾀﾞｸﾞﾝｴｲﾍｲｼﾞﾁｮｳ","kana_address":"ｵｵﾉｼﾞﾏ","pref":"福井県","city":"吉田郡永平寺町","address":"大野島"},
{"zip_code":"9101203","kana_pref":"ﾌｸｲｹﾝ","kana_city":"ﾖｼﾀﾞｸﾞﾝｴｲﾍｲｼﾞﾁｮｳ","kana_address":"ｶﾐｼﾞｮﾎｳｼﾞ","pref":"福井県","city":"吉田郡永平寺町","address":"上浄法寺"},
{"zip_code":"9101325","kana_pref":"ﾌｸｲｹﾝ","kana_city":"ﾖｼﾀﾞｸﾞﾝｴｲﾍｲｼﾞﾁｮｳ","kana_address":"ｷﾀｼﾞﾏ","pref":"福井県","city":"吉田郡永平寺町","address":"北島"},
{"zip_code":"9101225","kana_pref":"ﾌｸｲｹﾝ","kana_city":"ﾖｼﾀﾞｸﾞﾝｴｲﾍｲｼﾞﾁｮｳ","kana_address":"ｷｮｳｾﾞﾝ","pref":"福井県","city":"吉田郡永平寺町","address":"京善"},
{"zip_code":"9101314","kana_pref":"ﾌｸｲｹﾝ","kana_city":"ﾖｼﾀﾞｸﾞﾝｴｲﾍｲｼﾞﾁｮｳ","kana_address":"ｸﾘｽﾅﾐ","pref":"福井県","city":"吉田郡永平寺町","address":"栗住波"},
{"zip_code":"9101223","kana_pref":"ﾌｸｲｹﾝ","kana_city":"ﾖｼﾀﾞｸﾞﾝｴｲﾍｲｼﾞﾁｮｳ","kana_address":"ｹﾔｷﾀﾞｲ","pref":"福井県","city":"吉田郡永平寺町","address":"けやき台"},
{"zip_code":"9101216","kana_pref":"ﾌｸｲｹﾝ","kana_city":"ﾖｼﾀﾞｸﾞﾝｴｲﾍｲｼﾞﾁｮｳ","kana_address":"ｺｳﾐｮｳｼﾞ","pref":"福井県","city":"吉田郡永平寺町","address":"光明寺"},
{"zip_code":"9101321","kana_pref":"ﾌｸｲｹﾝ","kana_city":"ﾖｼﾀﾞｸﾞﾝｴｲﾍｲｼﾞﾁｮｳ","kana_address":"ｻﾝﾉｳ","pref":"福井県","city":"吉田郡永平寺町","address":"山王"},
{"zip_code":"9101228","kana_pref":"ﾌｸｲｹﾝ","kana_city":"ﾖｼﾀﾞｸﾞﾝｴｲﾍｲｼﾞﾁｮｳ","kana_address":"ｼﾋ","pref":"福井県","city":"吉田郡永平寺町","address":"志比"},
{"zip_code":"9101312","kana_pref":"ﾌｸｲｹﾝ","kana_city":"ﾖｼﾀﾞｸﾞﾝｴｲﾍｲｼﾞﾁｮｳ","kana_address":"ｼﾐｽﾞ","pref":"福井県","city":"吉田郡永平寺町","address":"清水"},
{"zip_code":"9101202","kana_pref":"ﾌｸｲｹﾝ","kana_city":"ﾖｼﾀﾞｸﾞﾝｴｲﾍｲｼﾞﾁｮｳ","kana_address":"ｼﾓｼﾞｮﾎｳｼﾞ","pref":"福井県","city":"吉田郡永平寺町","address":"下浄法寺"},
{"zip_code":"9101222","kana_pref":"ﾌｸｲｹﾝ","kana_city":"ﾖｼﾀﾞｸﾞﾝｴｲﾍｲｼﾞﾁｮｳ","kana_address":"ｽﾜﾏ","pref":"福井県","city":"吉田郡永平寺町","address":"諏訪間"},
{"zip_code":"9101315","kana_pref":"ﾌｸｲｹﾝ","kana_city":"ﾖｼﾀﾞｸﾞﾝｴｲﾍｲｼﾞﾁｮｳ","kana_address":"ｾｾﾗｷﾞ","pref":"福井県","city":"吉田郡永平寺町","address":"せせらぎ"},
{"zip_code":"9101213","kana_pref":"ﾌｸｲｹﾝ","kana_city":"ﾖｼﾀﾞｸﾞﾝｴｲﾍｲｼﾞﾁｮｳ","kana_address":"ﾀｶﾊｼ","pref":"福井県","city":"吉田郡永平寺町","address":"高橋"},
{"zip_code":"9101305","kana_pref":"ﾌｸｲｹﾝ","kana_city":"ﾖｼﾀﾞｸﾞﾝｴｲﾍｲｼﾞﾁｮｳ","kana_address":"ﾀｹﾊﾗ","pref":"福井県","city":"吉田郡永平寺町","address":"竹原"},
{"zip_code":"9101214","kana_pref":"ﾌｸｲｹﾝ","kana_city":"ﾖｼﾀﾞｸﾞﾝｴｲﾍｲｼﾞﾁｮｳ","kana_address":"ﾀﾆｸﾞﾁ","pref":"福井県","city":"吉田郡永平寺町","address":"谷口"},
{"zip_code":"9101224","kana_pref":"ﾌｸｲｹﾝ","kana_city":"ﾖｼﾀﾞｸﾞﾝｴｲﾍｲｼﾞﾁｮｳ","kana_address":"ﾃﾗﾓﾄ","pref":"福井県","city":"吉田郡永平寺町","address":"寺本"},
{"zip_code":"9101206","kana_pref":"ﾌｸｲｹﾝ","kana_city":"ﾖｼﾀﾞｸﾞﾝｴｲﾍｲｼﾞﾁｮｳ","kana_address":"ﾄﾁﾊﾗ","pref":"福井県","city":"吉田郡永平寺町","address":"栃原"},
{"zip_code":"9101218","kana_pref":"ﾌｸｲｹﾝ","kana_city":"ﾖｼﾀﾞｸﾞﾝｴｲﾍｲｼﾞﾁｮｳ","kana_address":"ﾄﾞﾒｷ","pref":"福井県","city":"吉田郡永平寺町","address":"轟"},
{"zip_code":"9101301","kana_pref":"ﾌｸｲｹﾝ","kana_city":"ﾖｼﾀﾞｸﾞﾝｴｲﾍｲｼﾞﾁｮｳ","kana_address":"ﾅｶｼﾞﾏ","pref":"福井県","city":"吉田郡永平寺町","address":"中島"},
{"zip_code":"9101201","kana_pref":"ﾌｸｲｹﾝ","kana_city":"ﾖｼﾀﾞｸﾞﾝｴｲﾍｲｼﾞﾁｮｳ","kana_address":"ﾅﾙｶｻﾝｶﾞ","pref":"福井県","city":"吉田郡永平寺町","address":"鳴鹿山鹿"},
{"zip_code":"9101324","kana_pref":"ﾌｸｲｹﾝ","kana_city":"ﾖｼﾀﾞｸﾞﾝｴｲﾍｲｼﾞﾁｮｳ","kana_address":"ﾉﾅｶ","pref":"福井県","city":"吉田郡永平寺町","address":"野中"},
{"zip_code":"9101215","kana_pref":"ﾌｸｲｹﾝ","kana_city":"ﾖｼﾀﾞｸﾞﾝｴｲﾍｲｼﾞﾁｮｳ","kana_address":"ﾊﾅﾀﾆ","pref":"福井県","city":"吉田郡永平寺町","address":"花谷"},
{"zip_code":"9101212","kana_pref":"ﾌｸｲｹﾝ","kana_city":"ﾖｼﾀﾞｸﾞﾝｴｲﾍｲｼﾞﾁｮｳ","kana_address":"ﾋｶﾞｼﾌﾙｲﾁ","pref":"福井県","city":"吉田郡永平寺町","address":"東古市"},
{"zip_code":"9101303","kana_pref":"ﾌｸｲｹﾝ","kana_city":"ﾖｼﾀﾞｸﾞﾝｴｲﾍｲｼﾞﾁｮｳ","kana_address":"ﾌｼﾞﾏｷ","pref":"福井県","city":"吉田郡永平寺町","address":"藤巻"},
{"zip_code":"9101211","kana_pref":"ﾌｸｲｹﾝ","kana_city":"ﾖｼﾀﾞｸﾞﾝｴｲﾍｲｼﾞﾁｮｳ","kana_address":"ﾎｳｼﾞｵｶ","pref":"福井県","city":"吉田郡永平寺町","address":"法寺岡"},
{"zip_code":"9101326","kana_pref":"ﾌｸｲｹﾝ","kana_city":"ﾖｼﾀﾞｸﾞﾝｴｲﾍｲｼﾞﾁｮｳ","kana_address":"ﾏｷﾌｸｼﾏ","pref":"福井県","city":"吉田郡永平寺町","address":"牧福島"},
{"zip_code":"9101132","kana_pref":"ﾌｸｲｹﾝ","kana_city":"ﾖｼﾀﾞｸﾞﾝｴｲﾍｲｼﾞﾁｮｳ","kana_address":"ﾏﾂｵｶｱｵｲ","pref":"福井県","city":"吉田郡永平寺町","address":"松岡葵"},
{"zip_code":"9101115","kana_pref":"ﾌｸｲｹﾝ","kana_city":"ﾖｼﾀﾞｸﾞﾝｴｲﾍｲｼﾞﾁｮｳ","kana_address":"ﾏﾂｵｶｲｼﾌﾈ","pref":"福井県","city":"吉田郡永平寺町","address":"松岡石舟"},
{"zip_code":"9101126","kana_pref":"ﾌｸｲｹﾝ","kana_city":"ﾖｼﾀﾞｸﾞﾝｴｲﾍｲｼﾞﾁｮｳ","kana_address":"ﾏﾂｵｶｵﾊﾞﾀ","pref":"福井県","city":"吉田郡永平寺町","address":"松岡小畑"},
{"zip_code":"9101102","kana_pref":"ﾌｸｲｹﾝ","kana_city":"ﾖｼﾀﾞｸﾞﾝｴｲﾍｲｼﾞﾁｮｳ","kana_address":"ﾏﾂｵｶｶﾞｸｴﾝ","pref":"福井県","city":"吉田郡永平寺町","address":"松岡学園"},
{"zip_code":"9101133","kana_pref":"ﾌｸｲｹﾝ","kana_city":"ﾖｼﾀﾞｸﾞﾝｴｲﾍｲｼﾞﾁｮｳ","kana_address":"ﾏﾂｵｶｶｽｶﾞ","pref":"福井県","city":"吉田郡永平寺町","address":"松岡春日"},
{"zip_code":"9101103","kana_pref":"ﾌｸｲｹﾝ","kana_city":"ﾖｼﾀﾞｸﾞﾝｴｲﾍｲｼﾞﾁｮｳ","kana_address":"ﾏﾂｵｶｶﾐｱｲﾂﾞｷ","pref":"福井県","city":"吉田郡永平寺町","address":"松岡上合月"},
{"zip_code":"9101124","kana_pref":"ﾌｸｲｹﾝ","kana_city":"ﾖｼﾀﾞｸﾞﾝｴｲﾍｲｼﾞﾁｮｳ","kana_address":"ﾏﾂｵｶｶﾐﾖｼﾉ","pref":"福井県","city":"吉田郡永平寺町","address":"松岡上吉野"},
{"zip_code":"9101137","kana_pref":"ﾌｸｲｹﾝ","kana_city":"ﾖｼﾀﾞｸﾞﾝｴｲﾍｲｼﾞﾁｮｳ","kana_address":"ﾏﾂｵｶｶﾝﾉﾝ","pref":"福井県","city":"吉田郡永平寺町","address":"松岡観音"},
{"zip_code":"9101131","kana_pref":"ﾌｸｲｹﾝ","kana_city":"ﾖｼﾀﾞｸﾞﾝｴｲﾍｲｼﾞﾁｮｳ","kana_address":"ﾏﾂｵｶｸﾇｷﾞ","pref":"福井県","city":"吉田郡永平寺町","address":"松岡椚"},
{"zip_code":"9101136","kana_pref":"ﾌｸｲｹﾝ","kana_city":"ﾖｼﾀﾞｸﾞﾝｴｲﾍｲｼﾞﾁｮｳ","kana_address":"ﾏﾂｵｶｸﾎﾞ","pref":"福井県","city":"吉田郡永平寺町","address":"松岡窪"},
{"zip_code":"9101142","kana_pref":"ﾌｸｲｹﾝ","kana_city":"ﾖｼﾀﾞｸﾞﾝｴｲﾍｲｼﾞﾁｮｳ","kana_address":"ﾏﾂｵｶｹﾝｼﾞｮｳｼﾞﾏ","pref":"福井県","city":"吉田郡永平寺町","address":"松岡兼定島"},
{"zip_code":"9101112","kana_pref":"ﾌｸｲｹﾝ","kana_city":"ﾖｼﾀﾞｸﾞﾝｴｲﾍｲｼﾞﾁｮｳ","kana_address":"ﾏﾂｵｶｺｲｻｶ","pref":"福井県","city":"吉田郡永平寺町","address":"松岡越坂"},
{"zip_code":"9101106","kana_pref":"ﾌｸｲｹﾝ","kana_city":"ﾖｼﾀﾞｸﾞﾝｴｲﾍｲｼﾞﾁｮｳ","kana_address":"ﾏﾂｵｶｺﾞｸﾘｮｳ","pref":"福井県","city":"吉田郡永平寺町","address":"松岡御公領"},
{"zip_code":"9101139","kana_pref":"ﾌｸｲｹﾝ","kana_city":"ﾖｼﾀﾞｸﾞﾝｴｲﾍｲｼﾞﾁｮｳ","kana_address":"ﾏﾂｵｶｺﾉｼﾀ","pref":"福井県","city":"吉田郡永平寺町","address":"松岡木ノ下"},
{"zip_code":"9101134","kana_pref":"ﾌｸｲｹﾝ","kana_city":"ﾖｼﾀﾞｸﾞﾝｴｲﾍｲｼﾞﾁｮｳ","kana_address":"ﾏﾂｵｶｼﾊﾞﾊﾗ","pref":"福井県","city":"吉田郡永平寺町","address":"松岡芝原"},
{"zip_code":"9101111","kana_pref":"ﾌｸｲｹﾝ","kana_city":"ﾖｼﾀﾞｸﾞﾝｴｲﾍｲｼﾞﾁｮｳ","kana_address":"ﾏﾂｵｶｼﾋｻﾞｶｲ","pref":"福井県","city":"吉田郡永平寺町","address":"松岡志比堺"},
{"zip_code":"9101116","kana_pref":"ﾌｸｲｹﾝ","kana_city":"ﾖｼﾀﾞｸﾞﾝｴｲﾍｲｼﾞﾁｮｳ","kana_address":"ﾏﾂｵｶｼﾐｽﾞ","pref":"福井県","city":"吉田郡永平寺町","address":"松岡清水"},
{"zip_code":"9101104","kana_pref":"ﾌｸｲｹﾝ","kana_city":"ﾖｼﾀﾞｸﾞﾝｴｲﾍｲｼﾞﾁｮｳ","kana_address":"ﾏﾂｵｶｼﾓｱｲﾂﾞｷ","pref":"福井県","city":"吉田郡永平寺町","address":"松岡下合月"},
{"zip_code":"9101114","kana_pref":"ﾌｸｲｹﾝ","kana_city":"ﾖｼﾀﾞｸﾞﾝｴｲﾍｲｼﾞﾁｮｳ","kana_address":"ﾏﾂｵｶｼﾞｮｳﾄｳ","pref":"福井県","city":"吉田郡永平寺町","address":"松岡城東"},
{"zip_code":"9101117","kana_pref":"ﾌｸｲｹﾝ","kana_city":"ﾖｼﾀﾞｸﾞﾝｴｲﾍｲｼﾞﾁｮｳ","kana_address":"ﾏﾂｵｶｼﾝﾒｲ","pref":"福井県","city":"吉田郡永平寺町","address":"松岡神明"},
{"zip_code":"9101105","kana_pref":"ﾌｸｲｹﾝ","kana_city":"ﾖｼﾀﾞｸﾞﾝｴｲﾍｲｼﾞﾁｮｳ","kana_address":"ﾏﾂｵｶｽｴﾏｻ","pref":"福井県","city":"吉田郡永平寺町","address":"松岡末政"},
{"zip_code":"9101125","kana_pref":"ﾌｸｲｹﾝ","kana_city":"ﾖｼﾀﾞｸﾞﾝｴｲﾍｲｼﾞﾁｮｳ","kana_address":"ﾏﾂｵｶﾆｼﾉﾅｶ","pref":"福井県","city":"吉田郡永平寺町","address":"松岡西野中"},
{"zip_code":"9101101","kana_pref":"ﾌｸｲｹﾝ","kana_city":"ﾖｼﾀﾞｸﾞﾝｴｲﾍｲｼﾞﾁｮｳ","kana_address":"ﾏﾂｵｶﾋﾂﾞﾒ","pref":"福井県","city":"吉田郡永平寺町","address":"松岡樋爪"},
{"zip_code":"9101144","kana_pref":"ﾌｸｲｹﾝ","kana_city":"ﾖｼﾀﾞｸﾞﾝｴｲﾍｲｼﾞﾁｮｳ","kana_address":"ﾏﾂｵｶﾍｲｾｲ","pref":"福井県","city":"吉田郡永平寺町","address":"松岡平成"},
{"zip_code":"9101113","kana_pref":"ﾌｸｲｹﾝ","kana_city":"ﾖｼﾀﾞｸﾞﾝｴｲﾍｲｼﾞﾁｮｳ","kana_address":"ﾏﾂｵｶﾏﾂｶﾞｵｶ","pref":"福井県","city":"吉田郡永平寺町","address":"松岡松ケ丘"},
{"zip_code":"9101138","kana_pref":"ﾌｸｲｹﾝ","kana_city":"ﾖｼﾀﾞｸﾞﾝｴｲﾍｲｼﾞﾁｮｳ","kana_address":"ﾏﾂｵｶﾏﾂｶﾞﾊﾗ","pref":"福井県","city":"吉田郡永平寺町","address":"松岡松ケ原"},
{"zip_code":"9101122","kana_pref":"ﾌｸｲｹﾝ","kana_city":"ﾖｼﾀﾞｸﾞﾝｴｲﾍｲｼﾞﾁｮｳ","kana_address":"ﾏﾂｵｶﾐﾔｼｹﾞ","pref":"福井県","city":"吉田郡永平寺町","address":"松岡宮重"},
{"zip_code":"9101135","kana_pref":"ﾌｸｲｹﾝ","kana_city":"ﾖｼﾀﾞｸﾞﾝｴｲﾍｲｼﾞﾁｮｳ","kana_address":"ﾏﾂｵｶﾑﾛ","pref":"福井県","city":"吉田郡永平寺町","address":"松岡室"},
{"zip_code":"9101118","kana_pref":"ﾌｸｲｹﾝ","kana_city":"ﾖｼﾀﾞｸﾞﾝｴｲﾍｲｼﾞﾁｮｳ","kana_address":"ﾏﾂｵｶﾔｸｼ","pref":"福井県","city":"吉田郡永平寺町","address":"松岡薬師"},
{"zip_code":"9101123","kana_pref":"ﾌｸｲｹﾝ","kana_city":"ﾖｼﾀﾞｸﾞﾝｴｲﾍｲｼﾞﾁｮｳ","kana_address":"ﾏﾂｵｶﾕﾀﾞﾆ","pref":"福井県","city":"吉田郡永平寺町","address":"松岡湯谷"},
{"zip_code":"9101121","kana_pref":"ﾌｸｲｹﾝ","kana_city":"ﾖｼﾀﾞｸﾞﾝｴｲﾍｲｼﾞﾁｮｳ","kana_address":"ﾏﾂｵｶﾖｼﾉ","pref":"福井県","city":"吉田郡永平寺町","address":"松岡吉野"},
{"zip_code":"9101127","kana_pref":"ﾌｸｲｹﾝ","kana_city":"ﾖｼﾀﾞｸﾞﾝｴｲﾍｲｼﾞﾁｮｳ","kana_address":"ﾏﾂｵｶﾖｼﾉｻﾞｶｲ","pref":"福井県","city":"吉田郡永平寺町","address":"松岡吉野堺"},
{"zip_code":"9101141","kana_pref":"ﾌｸｲｹﾝ","kana_city":"ﾖｼﾀﾞｸﾞﾝｴｲﾍｲｼﾞﾁｮｳ","kana_address":"ﾏﾂｵｶﾘｮｳｹ","pref":"福井県","city":"吉田郡永平寺町","address":"松岡領家"},
{"zip_code":"9101143","kana_pref":"ﾌｸｲｹﾝ","kana_city":"ﾖｼﾀﾞｸﾞﾝｴｲﾍｲｼﾞﾁｮｳ","kana_address":"ﾏﾂｵｶﾜﾀﾘｼﾝﾃﾞﾝ","pref":"福井県","city":"吉田郡永平寺町","address":"松岡渡新田"},
{"zip_code":"9101221","kana_pref":"ﾌｸｲｹﾝ","kana_city":"ﾖｼﾀﾞｸﾞﾝｴｲﾍｲｼﾞﾁｮｳ","kana_address":"ﾔﾏ","pref":"福井県","city":"吉田郡永平寺町","address":"山"},
{"zip_code":"9101205","kana_pref":"ﾌｸｲｹﾝ","kana_city":"ﾖｼﾀﾞｸﾞﾝｴｲﾍｲｼﾞﾁｮｳ","kana_address":"ﾖｼﾅﾐ","pref":"福井県","city":"吉田郡永平寺町","address":"吉波"},
{"zip_code":"9101304","kana_pref":"ﾌｸｲｹﾝ","kana_city":"ﾖｼﾀﾞｸﾞﾝｴｲﾍｲｼﾞﾁｮｳ","kana_address":"ﾖｼﾐﾈ","pref":"福井県","city":"吉田郡永平寺町","address":"吉峰"},
{"zip_code":"9102500","kana_pref":"ﾌｸｲｹﾝ","kana_city":"ｲﾏﾀﾞﾃｸﾞﾝｲｹﾀﾞﾁｮｳ","kana_address":"","pref":"福井県","city":"今立郡池田町","address":""},
{"zip_code":"9102504","kana_pref":"ﾌｸｲｹﾝ","kana_city":"ｲﾏﾀﾞﾃｸﾞﾝｲｹﾀﾞﾁｮｳ","kana_address":"ｱﾝｾﾞﾝｼﾞ","pref":"福井県","city":"今立郡池田町","address":"安善寺"},
{"zip_code":"9102515","kana_pref":"ﾌｸｲｹﾝ","kana_city":"ｲﾏﾀﾞﾃｸﾞﾝｲｹﾀﾞﾁｮｳ","kana_address":"ｲｹﾀﾞ","pref":"福井県","city":"今立郡池田町","address":"池田"},
{"zip_code":"9102527","kana_pref":"ﾌｸｲｹﾝ","kana_city":"ｲﾏﾀﾞﾃｸﾞﾝｲｹﾀﾞﾁｮｳ","kana_address":"ｲﾀｶﾞｷ","pref":"福井県","city":"今立郡池田町","address":"板垣"},
{"zip_code":"9102525","kana_pref":"ﾌｸｲｹﾝ","kana_city":"ｲﾏﾀﾞﾃｸﾞﾝｲｹﾀﾞﾁｮｳ","kana_address":"ｲﾁ","pref":"福井県","city":"今立郡池田町","address":"市"},
{"zip_code":"9102512","kana_pref":"ﾌｸｲｹﾝ","kana_city":"ｲﾏﾀﾞﾃｸﾞﾝｲｹﾀﾞﾁｮｳ","kana_address":"ｲﾅﾘ","pref":"福井県","city":"今立郡池田町","address":"稲荷"},
{"zip_code":"9102534","kana_pref":"ﾌｸｲｹﾝ","kana_city":"ｲﾏﾀﾞﾃｸﾞﾝｲｹﾀﾞﾁｮｳ","kana_address":"ｳｵﾐ","pref":"福井県","city":"今立郡池田町","address":"魚見"},
{"zip_code":"9102552","kana_pref":"ﾌｸｲｹﾝ","kana_city":"ｲﾏﾀﾞﾃｸﾞﾝｲｹﾀﾞﾁｮｳ","kana_address":"ｵｵﾓﾄ","pref":"福井県","city":"今立郡池田町","address":"大本"},
{"zip_code":"9102551","kana_pref":"ﾌｸｲｹﾝ","kana_city":"ｲﾏﾀﾞﾃｸﾞﾝｲｹﾀﾞﾁｮｳ","kana_address":"ｵﾀﾞﾙﾐ","pref":"福井県","city":"今立郡池田町","address":"尾緩"},
{"zip_code":"9102557","kana_pref":"ﾌｸｲｹﾝ","kana_city":"ｲﾏﾀﾞﾃｸﾞﾝｲｹﾀﾞﾁｮｳ","kana_address":"ｵﾊﾞﾀｹ","pref":"福井県","city":"今立郡池田町","address":"小畑"},
{"zip_code":"9102508","kana_pref":"ﾌｸｲｹﾝ","kana_city":"ｲﾏﾀﾞﾃｸﾞﾝｲｹﾀﾞﾁｮｳ","kana_address":"ｶｷｶﾞﾊﾗ","pref":"福井県","city":"今立郡池田町","address":"柿ケ原"},
{"zip_code":"9102514","kana_pref":"ﾌｸｲｹﾝ","kana_city":"ｲﾏﾀﾞﾃｸﾞﾝｲｹﾀﾞﾁｮｳ","kana_address":"ｶﾞｸｴﾝ","pref":"福井県","city":"今立郡池田町","address":"学園"},
{"zip_code":"9102553","kana_pref":"ﾌｸｲｹﾝ","kana_city":"ｲﾏﾀﾞﾃｸﾞﾝｲｹﾀﾞﾁｮｳ","kana_address":"ｶｺﾞｶｹ","pref":"福井県","city":"今立郡池田町","address":"籠掛"},
{"zip_code":"9102554","kana_pref":"ﾌｸｲｹﾝ","kana_city":"ｲﾏﾀﾞﾃｸﾞﾝｲｹﾀﾞﾁｮｳ","kana_address":"ｶﾅﾐﾀﾞﾆ","pref":"福井県","city":"今立郡池田町","address":"金見谷"},
{"zip_code":"9102526","kana_pref":"ﾌｸｲｹﾝ","kana_city":"ｲﾏﾀﾞﾃｸﾞﾝｲｹﾀﾞﾁｮｳ","kana_address":"ｶﾐｱﾗﾀﾆ","pref":"福井県","city":"今立郡池田町","address":"上荒谷"},
{"zip_code":"9102523","kana_pref":"ﾌｸｲｹﾝ","kana_city":"ｲﾏﾀﾞﾃｸﾞﾝｲｹﾀﾞﾁｮｳ","kana_address":"ｺｳﾁ","pref":"福井県","city":"今立郡池田町","address":"河内"},
{"zip_code":"9102537","kana_pref":"ﾌｸｲｹﾝ","kana_city":"ｲﾏﾀﾞﾃｸﾞﾝｲｹﾀﾞﾁｮｳ","kana_address":"ｻﾀﾞｶﾀ","pref":"福井県","city":"今立郡池田町","address":"定方"},
{"zip_code":"9102523","kana_pref":"ﾌｸｲｹﾝ","kana_city":"ｲﾏﾀﾞﾃｸﾞﾝｲｹﾀﾞﾁｮｳ","kana_address":"ｼﾂﾞﾊﾗ","pref":"福井県","city":"今立郡池田町","address":"志津原"},
{"zip_code":"9102507","kana_pref":"ﾌｸｲｹﾝ","kana_city":"ｲﾏﾀﾞﾃｸﾞﾝｲｹﾀﾞﾁｮｳ","kana_address":"ｼﾐｽﾞﾀﾆ","pref":"福井県","city":"今立郡池田町","address":"清水谷"},
{"zip_code":"9102556","kana_pref":"ﾌｸｲｹﾝ","kana_city":"ｲﾏﾀﾞﾃｸﾞﾝｲｹﾀﾞﾁｮｳ","kana_address":"ｼﾗﾜ","pref":"福井県","city":"今立郡池田町","address":"白粟"},
{"zip_code":"9102532","kana_pref":"ﾌｸｲｹﾝ","kana_city":"ｲﾏﾀﾞﾃｸﾞﾝｲｹﾀﾞﾁｮｳ","kana_address":"ｼﾝﾎﾞ","pref":"福井県","city":"今立郡池田町","address":"新保"},
{"zip_code":"9102535","kana_pref":"ﾌｸｲｹﾝ","kana_city":"ｲﾏﾀﾞﾃｸﾞﾝｲｹﾀﾞﾁｮｳ","kana_address":"ｽｺﾞｳ","pref":"福井県","city":"今立郡池田町","address":"菅生"},
{"zip_code":"9102503","kana_pref":"ﾌｸｲｹﾝ","kana_city":"ｲﾏﾀﾞﾃｸﾞﾝｲｹﾀﾞﾁｮｳ","kana_address":"ﾀﾆｸﾞﾁ","pref":"福井県","city":"今立郡池田町","address":"谷口"},
{"zip_code":"9102555","kana_pref":"ﾌｸｲｹﾝ","kana_city":"ｲﾏﾀﾞﾃｸﾞﾝｲｹﾀﾞﾁｮｳ","kana_address":"ﾁﾖﾀﾞﾆ","pref":"福井県","city":"今立郡池田町","address":"千代谷"},
{"zip_code":"9102522","kana_pref":"ﾌｸｲｹﾝ","kana_city":"ｲﾏﾀﾞﾃｸﾞﾝｲｹﾀﾞﾁｮｳ","kana_address":"ﾂｷｶﾞｾ","pref":"福井県","city":"今立郡池田町","address":"月ケ瀬"},
{"zip_code":"9102521","kana_pref":"ﾌｸｲｹﾝ","kana_city":"ｲﾏﾀﾞﾃｸﾞﾝｲｹﾀﾞﾁｮｳ","kana_address":"ﾂﾈﾔｽ","pref":"福井県","city":"今立郡池田町","address":"常安"},
{"zip_code":"9102513","kana_pref":"ﾌｸｲｹﾝ","kana_city":"ｲﾏﾀﾞﾃｸﾞﾝｲｹﾀﾞﾁｮｳ","kana_address":"ﾃﾗｼﾞﾏ","pref":"福井県","city":"今立郡池田町","address":"寺島"},
{"zip_code":"9102517","kana_pref":"ﾌｸｲｹﾝ","kana_city":"ｲﾏﾀﾞﾃｸﾞﾝｲｹﾀﾞﾁｮｳ","kana_address":"ﾃﾗﾀﾞﾆ","pref":"福井県","city":"今立郡池田町","address":"寺谷"},
{"zip_code":"9102524","kana_pref":"ﾌｸｲｹﾝ","kana_city":"ｲﾏﾀﾞﾃｸﾞﾝｲｹﾀﾞﾁｮｳ","kana_address":"ﾄﾞｱｲｻﾗｵ","pref":"福井県","city":"今立郡池田町","address":"土合皿尾"},
{"zip_code":"9102536","kana_pref":"ﾌｸｲｹﾝ","kana_city":"ｲﾏﾀﾞﾃｸﾞﾝｲｹﾀﾞﾁｮｳ","kana_address":"ﾆｼｶｸﾏ","pref":"福井県","city":"今立郡池田町","address":"西角間"},
{"zip_code":"9102502","kana_pref":"ﾌｸｲｹﾝ","kana_city":"ｲﾏﾀﾞﾃｸﾞﾝｲｹﾀﾞﾁｮｳ","kana_address":"ﾉｼﾞﾘ","pref":"福井県","city":"今立郡池田町","address":"野尻"},
{"zip_code":"9102531","kana_pref":"ﾌｸｲｹﾝ","kana_city":"ｲﾏﾀﾞﾃｸﾞﾝｲｹﾀﾞﾁｮｳ","kana_address":"ﾋｶﾞｼｶｸﾏ","pref":"福井県","city":"今立郡池田町","address":"東角間"},
{"zip_code":"9102533","kana_pref":"ﾌｸｲｹﾝ","kana_city":"ｲﾏﾀﾞﾃｸﾞﾝｲｹﾀﾞﾁｮｳ","kana_address":"ﾋｶﾞｼﾏﾀ","pref":"福井県","city":"今立郡池田町","address":"東俣"},
{"zip_code":"9102506","kana_pref":"ﾌｸｲｹﾝ","kana_city":"ｲﾏﾀﾞﾃｸﾞﾝｲｹﾀﾞﾁｮｳ","kana_address":"ﾋﾛｾ","pref":"福井県","city":"今立郡池田町","address":"広瀬"},
{"zip_code":"9102556","kana_pref":"ﾌｸｲｹﾝ","kana_city":"ｲﾏﾀﾞﾃｸﾞﾝｲｹﾀﾞﾁｮｳ","kana_address":"ﾏﾂｶﾞﾀﾆ","pref":"福井県","city":"今立郡池田町","address":"松ケ谷"},
{"zip_code":"9102505","kana_pref":"ﾌｸｲｹﾝ","kana_city":"ｲﾏﾀﾞﾃｸﾞﾝｲｹﾀﾞﾁｮｳ","kana_address":"ﾐｽﾞｳﾐ","pref":"福井県","city":"今立郡池田町","address":"水海"},
{"zip_code":"9102501","kana_pref":"ﾌｸｲｹﾝ","kana_city":"ｲﾏﾀﾞﾃｸﾞﾝｲｹﾀﾞﾁｮｳ","kana_address":"ﾓﾁｺｼ","pref":"福井県","city":"今立郡池田町","address":"持越"},
{"zip_code":"9102511","kana_pref":"ﾌｸｲｹﾝ","kana_city":"ｲﾏﾀﾞﾃｸﾞﾝｲｹﾀﾞﾁｮｳ","kana_address":"ﾔﾌﾞﾀ","pref":"福井県","city":"今立郡池田町","address":"薮田"},
{"zip_code":"9102516","kana_pref":"ﾌｸｲｹﾝ","kana_city":"ｲﾏﾀﾞﾃｸﾞﾝｲｹﾀﾞﾁｮｳ","kana_address":"ﾔﾏﾀﾞ","pref":"福井県","city":"今立郡池田町","address":"山田"}]}