{"zip_code":[
{"zip_code":"9110000","kana_pref":"ﾌｸｲｹﾝ","kana_city":"ｶﾂﾔﾏｼ","kana_address":"","pref":"福井県","city":"勝山市","address":""},
{"zip_code":"9110817","kana_pref":"ﾌｸｲｹﾝ","kana_city":"ｶﾂﾔﾏｼ","kana_address":"ｱｻﾋｹﾔﾁｮｳ","pref":"福井県","city":"勝山市","address":"旭毛屋町"},
{"zip_code":"9110803","kana_pref":"ﾌｸｲｹﾝ","kana_city":"ｶﾂﾔﾏｼ","kana_address":"ｱｻﾋﾏﾁ","pref":"福井県","city":"勝山市","address":"旭町"},
{"zip_code":"9110045","kana_pref":"ﾌｸｲｹﾝ","kana_city":"ｶﾂﾔﾏｼ","kana_address":"ｱﾗﾄﾞﾁｮｳｲﾅﾐ","pref":"福井県","city":"勝山市","address":"荒土町伊波"},
{"zip_code":"9110041","kana_pref":"ﾌｸｲｹﾝ","kana_city":"ｶﾂﾔﾏｼ","kana_address":"ｱﾗﾄﾞﾁｮｳｷﾀｼﾝｻﾞｲｹ","pref":"福井県","city":"勝山市","address":"荒土町北新在家"},
{"zip_code":"9110047","kana_pref":"ﾌｸｲｹﾝ","kana_city":"ｶﾂﾔﾏｼ","kana_address":"ｱﾗﾄﾞﾁｮｳｷﾀﾐﾔｼﾞ","pref":"福井県","city":"勝山市","address":"荒土町北宮地"},
{"zip_code":"9110048","kana_pref":"ﾌｸｲｹﾝ","kana_city":"ｶﾂﾔﾏｼ","kana_address":"ｱﾗﾄﾞﾁｮｳｻｶｲ","pref":"福井県","city":"勝山市","address":"荒土町境"},
{"zip_code":"9110041","kana_pref":"ﾌｸｲｹﾝ","kana_city":"ｶﾂﾔﾏｼ","kana_address":"ｱﾗﾄﾞﾁｮｳｼﾐｽﾞｼﾏ","pref":"福井県","city":"勝山市","address":"荒土町清水島"},
{"zip_code":"9110048","kana_pref":"ﾌｸｲｹﾝ","kana_city":"ｶﾂﾔﾏｼ","kana_address":"ｱﾗﾄﾞﾁｮｳｼﾝﾄﾞｳ","pref":"福井県","city":"勝山市","address":"荒土町新道"},
{"zip_code":"9110043","kana_pref":"ﾌｸｲｹﾝ","kana_city":"ｶﾂﾔﾏｼ","kana_address":"ｱﾗﾄﾞﾁｮｳｼﾝﾎﾞ","pref":"福井県","city":"勝山市","address":"荒土町新保"},
{"zip_code":"9110042","kana_pref":"ﾌｸｲｹﾝ","kana_city":"ｶﾂﾔﾏｼ","kana_address":"ｱﾗﾄﾞﾁｮｳﾀﾅﾍﾞ","pref":"福井県","city":"勝山市","address":"荒土町田名部"},
{"zip_code":"9110048","kana_pref":"ﾌｸｲｹﾝ","kana_city":"ｶﾂﾔﾏｼ","kana_address":"ｱﾗﾄﾞﾁｮｳﾄｸﾗ","pref":"福井県","city":"勝山市","address":"荒土町戸倉"},
{"zip_code":"9110046","kana_pref":"ﾌｸｲｹﾝ","kana_city":"ｶﾂﾔﾏｼ","kana_address":"ｱﾗﾄﾞﾁｮｳﾅｶｼﾐｽﾞ","pref":"福井県","city":"勝山市","address":"荒土町中清水"},
{"zip_code":"9110048","kana_pref":"ﾌｸｲｹﾝ","kana_city":"ｶﾂﾔﾏｼ","kana_address":"ｱﾗﾄﾞﾁｮｳﾆｼｶﾞﾊﾗ","pref":"福井県","city":"勝山市","address":"荒土町西ケ原"},
{"zip_code":"9110041","kana_pref":"ﾌｸｲｹﾝ","kana_city":"ｶﾂﾔﾏｼ","kana_address":"ｱﾗﾄﾞﾁｮｳﾇﾉｲﾁ","pref":"福井県","city":"勝山市","address":"荒土町布市"},
{"zip_code":"9110048","kana_pref":"ﾌｸｲｹﾝ","kana_city":"ｶﾂﾔﾏｼ","kana_address":"ｱﾗﾄﾞﾁｮｳﾍﾞｯｼｮ","pref":"福井県","city":"勝山市","address":"荒土町別所"},
{"zip_code":"9110048","kana_pref":"ﾌｸｲｹﾝ","kana_city":"ｶﾂﾔﾏｼ","kana_address":"ｱﾗﾄﾞﾁｮｳﾎｿﾉ","pref":"福井県","city":"勝山市","address":"荒土町細野"},
{"zip_code":"9110048","kana_pref":"ﾌｸｲｹﾝ","kana_city":"ｶﾂﾔﾏｼ","kana_address":"ｱﾗﾄﾞﾁｮｳﾎｿﾉｸﾞﾁ","pref":"福井県","city":"勝山市","address":"荒土町細野口"},
{"zip_code":"9110046","kana_pref":"ﾌｸｲｹﾝ","kana_city":"ｶﾂﾔﾏｼ","kana_address":"ｱﾗﾄﾞﾁｮｳﾎﾘﾒ","pref":"福井県","city":"勝山市","address":"荒土町堀名"},
{"zip_code":"9110046","kana_pref":"ﾌｸｲｹﾝ","kana_city":"ｶﾂﾔﾏｼ","kana_address":"ｱﾗﾄﾞﾁｮｳﾎﾘﾒﾅｶｼﾐｽﾞ","pref":"福井県","city":"勝山市","address":"荒土町堀名中清水"},
{"zip_code":"9110044","kana_pref":"ﾌｸｲｹﾝ","kana_city":"ｶﾂﾔﾏｼ","kana_address":"ｱﾗﾄﾞﾁｮｳﾏﾂｶﾞｻｷ","pref":"福井県","city":"勝山市","address":"荒土町松ケ崎"},
{"zip_code":"9110042","kana_pref":"ﾌｸｲｹﾝ","kana_city":"ｶﾂﾔﾏｼ","kana_address":"ｱﾗﾄﾞﾁｮｳﾏﾂﾀ","pref":"福井県","city":"勝山市","address":"荒土町松田"},
{"zip_code":"9110045","kana_pref":"ﾌｸｲｹﾝ","kana_city":"ｶﾂﾔﾏｼ","kana_address":"ｱﾗﾄﾞﾁｮｳﾐｮｳｷﾝｼﾞﾏ","pref":"福井県","city":"勝山市","address":"荒土町妙金島"},
{"zip_code":"9110812","kana_pref":"ﾌｸｲｹﾝ","kana_city":"ｶﾂﾔﾏｼ","kana_address":"ｲﾉ","pref":"福井県","city":"勝山市","address":"猪野"},
{"zip_code":"9110813","kana_pref":"ﾌｸｲｹﾝ","kana_city":"ｶﾂﾔﾏｼ","kana_address":"ｲﾉｸﾁ","pref":"福井県","city":"勝山市","address":"猪野口"},
{"zip_code":"9110816","kana_pref":"ﾌｸｲｹﾝ","kana_city":"ｶﾂﾔﾏｼ","kana_address":"ｲﾉｹﾔ","pref":"福井県","city":"勝山市","address":"猪野毛屋"},
{"zip_code":"9110834","kana_pref":"ﾌｸｲｹﾝ","kana_city":"ｶﾂﾔﾏｼ","kana_address":"ｵｿﾜﾁｮｳｵｵﾌﾞｸﾛ","pref":"福井県","city":"勝山市","address":"遅羽町大袋"},
{"zip_code":"9110833","kana_pref":"ﾌｸｲｹﾝ","kana_city":"ｶﾂﾔﾏｼ","kana_address":"ｵｿﾜﾁｮｳｷﾀﾔﾏ","pref":"福井県","city":"勝山市","address":"遅羽町北山"},
{"zip_code":"9110836","kana_pref":"ﾌｸｲｹﾝ","kana_city":"ｶﾂﾔﾏｼ","kana_address":"ｵｿﾜﾁｮｳｼﾓｱﾗｲ","pref":"福井県","city":"勝山市","address":"遅羽町下荒井"},
{"zip_code":"9110834","kana_pref":"ﾌｸｲｹﾝ","kana_city":"ｶﾂﾔﾏｼ","kana_address":"ｵｿﾜﾁｮｳｼﾝﾄﾞｳ","pref":"福井県","city":"勝山市","address":"遅羽町新道"},
{"zip_code":"9110831","kana_pref":"ﾌｸｲｹﾝ","kana_city":"ｶﾂﾔﾏｼ","kana_address":"ｵｿﾜﾁｮｳﾁﾖﾀﾞ","pref":"福井県","city":"勝山市","address":"遅羽町千代田"},
{"zip_code":"9110831","kana_pref":"ﾌｸｲｹﾝ","kana_city":"ｶﾂﾔﾏｼ","kana_address":"ｵｿﾜﾁｮｳﾅｶｼﾞﾏ","pref":"福井県","city":"勝山市","address":"遅羽町中島"},
{"zip_code":"9110831","kana_pref":"ﾌｸｲｹﾝ","kana_city":"ｶﾂﾔﾏｼ","kana_address":"ｵｿﾜﾁｮｳﾋｼﾏ","pref":"福井県","city":"勝山市","address":"遅羽町比島"},
{"zip_code":"9110835","kana_pref":"ﾌｸｲｹﾝ","kana_city":"ｶﾂﾔﾏｼ","kana_address":"ｵｿﾜﾁｮｳﾎｳｷ","pref":"福井県","city":"勝山市","address":"遅羽町ほう崎"},
{"zip_code":"9110832","kana_pref":"ﾌｸｲｹﾝ","kana_city":"ｶﾂﾔﾏｼ","kana_address":"ｵｿﾜﾁｮｳﾖﾓｷﾞ","pref":"福井県","city":"勝山市","address":"遅羽町蓬生"},
{"zip_code":"9110811","kana_pref":"ﾌｸｲｹﾝ","kana_city":"ｶﾂﾔﾏｼ","kana_address":"ｶﾀｾ","pref":"福井県","city":"勝山市","address":"片瀬"},
{"zip_code":"9110811","kana_pref":"ﾌｸｲｹﾝ","kana_city":"ｶﾂﾔﾏｼ","kana_address":"ｶﾀｾﾁｮｳ","pref":"福井県","city":"勝山市","address":"片瀬町"},
{"zip_code":"9110815","kana_pref":"ﾌｸｲｹﾝ","kana_city":"ｶﾂﾔﾏｼ","kana_address":"ｶﾐﾀｶｼﾞﾏ","pref":"福井県","city":"勝山市","address":"上高島"},
{"zip_code":"9110815","kana_pref":"ﾌｸｲｹﾝ","kana_city":"ｶﾂﾔﾏｼ","kana_address":"ｷﾀｲﾁ","pref":"福井県","city":"勝山市","address":"北市"},
{"zip_code":"9110051","kana_pref":"ﾌｸｲｹﾝ","kana_city":"ｶﾂﾔﾏｼ","kana_address":"ｷﾀｺﾞｳﾁｮｳｱﾗﾏﾁ","pref":"福井県","city":"勝山市","address":"北郷町新町"},
{"zip_code":"9110055","kana_pref":"ﾌｸｲｹﾝ","kana_city":"ｶﾂﾔﾏｼ","kana_address":"ｷﾀｺﾞｳﾁｮｳｲｼﾞﾁ","pref":"福井県","city":"勝山市","address":"北郷町伊知地"},
{"zip_code":"9110055","kana_pref":"ﾌｸｲｹﾝ","kana_city":"ｶﾂﾔﾏｼ","kana_address":"ｷﾀｺﾞｳﾁｮｳｲﾜﾔ","pref":"福井県","city":"勝山市","address":"北郷町岩屋"},
{"zip_code":"9110055","kana_pref":"ﾌｸｲｹﾝ","kana_city":"ｶﾂﾔﾏｼ","kana_address":"ｷﾀｺﾞｳﾁｮｳｳﾜﾉ","pref":"福井県","city":"勝山市","address":"北郷町上野"},
{"zip_code":"9110053","kana_pref":"ﾌｸｲｹﾝ","kana_city":"ｶﾂﾔﾏｼ","kana_address":"ｷﾀｺﾞｳﾁｮｳｶﾐﾓﾘｶﾜ","pref":"福井県","city":"勝山市","address":"北郷町上森川"},
{"zip_code":"9110053","kana_pref":"ﾌｸｲｹﾝ","kana_city":"ｶﾂﾔﾏｼ","kana_address":"ｷﾀｺﾞｳﾁｮｳｼﾓﾓﾘｶﾜ","pref":"福井県","city":"勝山市","address":"北郷町下森川"},
{"zip_code":"9110051","kana_pref":"ﾌｸｲｹﾝ","kana_city":"ｶﾂﾔﾏｼ","kana_address":"ｷﾀｺﾞｳﾁｮｳｼｲﾜﾗ","pref":"福井県","city":"勝山市","address":"北郷町志比原"},
{"zip_code":"9110052","kana_pref":"ﾌｸｲｹﾝ","kana_city":"ｶﾂﾔﾏｼ","kana_address":"ｷﾀｺﾞｳﾁｮｳﾆｼﾐｮｳｷﾝｼﾞﾏ","pref":"福井県","city":"勝山市","address":"北郷町西妙金島"},
{"zip_code":"9110056","kana_pref":"ﾌｸｲｹﾝ","kana_city":"ｶﾂﾔﾏｼ","kana_address":"ｷﾀｺﾞｳﾁｮｳﾊﾞﾝﾄﾞｳｼﾞﾏ","pref":"福井県","city":"勝山市","address":"北郷町坂東島"},
{"zip_code":"9110054","kana_pref":"ﾌｸｲｹﾝ","kana_city":"ｶﾂﾔﾏｼ","kana_address":"ｷﾀｺﾞｳﾁｮｳﾋｶﾞｼﾉ","pref":"福井県","city":"勝山市","address":"北郷町東野"},
{"zip_code":"9110051","kana_pref":"ﾌｸｲｹﾝ","kana_city":"ｶﾂﾔﾏｼ","kana_address":"ｷﾀｺﾞｳﾁｮｳﾋｿﾀﾞﾆ","pref":"福井県","city":"勝山市","address":"北郷町檜曽谷"},
{"zip_code":"9110053","kana_pref":"ﾌｸｲｹﾝ","kana_city":"ｶﾂﾔﾏｼ","kana_address":"ｷﾀｺﾞｳﾁｮｳﾓﾘｶﾜ","pref":"福井県","city":"勝山市","address":"北郷町森川"},
{"zip_code":"9110001","kana_pref":"ﾌｸｲｹﾝ","kana_city":"ｶﾂﾔﾏｼ","kana_address":"ｷﾀﾀﾞﾆﾁｮｳｵﾊﾗ","pref":"福井県","city":"勝山市","address":"北谷町小原"},
{"zip_code":"9110004","kana_pref":"ﾌｸｲｹﾝ","kana_city":"ｶﾂﾔﾏｼ","kana_address":"ｷﾀﾀﾞﾆﾁｮｳｷﾀﾛｸﾛｼ","pref":"福井県","city":"勝山市","address":"北谷町北六呂師"},
{"zip_code":"9110002","kana_pref":"ﾌｸｲｹﾝ","kana_city":"ｶﾂﾔﾏｼ","kana_address":"ｷﾀﾀﾞﾆﾁｮｳｷﾈﾊｼ","pref":"福井県","city":"勝山市","address":"北谷町木根橋"},
{"zip_code":"9110003","kana_pref":"ﾌｸｲｹﾝ","kana_city":"ｶﾂﾔﾏｼ","kana_address":"ｷﾀﾀﾞﾆﾁｮｳｺｳｺﾞ","pref":"福井県","city":"勝山市","address":"北谷町河合"},
{"zip_code":"9110005","kana_pref":"ﾌｸｲｹﾝ","kana_city":"ｶﾂﾔﾏｼ","kana_address":"ｷﾀﾀﾞﾆﾁｮｳｽｷﾞﾔﾏ","pref":"福井県","city":"勝山市","address":"北谷町杉山"},
{"zip_code":"9110006","kana_pref":"ﾌｸｲｹﾝ","kana_city":"ｶﾂﾔﾏｼ","kana_address":"ｷﾀﾀﾞﾆﾁｮｳﾀﾆ","pref":"福井県","city":"勝山市","address":"北谷町谷"},
{"zip_code":"9110004","kana_pref":"ﾌｸｲｹﾝ","kana_city":"ｶﾂﾔﾏｼ","kana_address":"ｷﾀﾀﾞﾆﾁｮｳﾅｶｵ","pref":"福井県","city":"勝山市","address":"北谷町中尾"},
{"zip_code":"9110816","kana_pref":"ﾌｸｲｹﾝ","kana_city":"ｶﾂﾔﾏｼ","kana_address":"ｹﾔ","pref":"福井県","city":"勝山市","address":"毛屋"},
{"zip_code":"9110816","kana_pref":"ﾌｸｲｹﾝ","kana_city":"ｶﾂﾔﾏｼ","kana_address":"ｹﾔﾁｮｳ","pref":"福井県","city":"勝山市","address":"毛屋町"},
{"zip_code":"9110035","kana_pref":"ﾌｸｲｹﾝ","kana_city":"ｶﾂﾔﾏｼ","kana_address":"ｺｵﾘﾏﾁ","pref":"福井県","city":"勝山市","address":"郡町"},
{"zip_code":"9110033","kana_pref":"ﾌｸｲｹﾝ","kana_city":"ｶﾂﾔﾏｼ","kana_address":"ｻｶｴﾏﾁ","pref":"福井県","city":"勝山市","address":"栄町"},
{"zip_code":"9110801","kana_pref":"ﾌｸｲｹﾝ","kana_city":"ｶﾂﾔﾏｼ","kana_address":"ｻﾜﾏﾁ","pref":"福井県","city":"勝山市","address":"沢町"},
{"zip_code":"9110846","kana_pref":"ﾌｸｲｹﾝ","kana_city":"ｶﾂﾔﾏｼ","kana_address":"ｼｶﾀﾞﾆﾁｮｳｷﾀﾆｼﾏﾀ","pref":"福井県","city":"勝山市","address":"鹿谷町北西俣"},
{"zip_code":"9110847","kana_pref":"ﾌｸｲｹﾝ","kana_city":"ｶﾂﾔﾏｼ","kana_address":"ｼｶﾀﾞﾆﾁｮｳｻｲｺｳｼﾞ","pref":"福井県","city":"勝山市","address":"鹿谷町西光寺"},
{"zip_code":"9110842","kana_pref":"ﾌｸｲｹﾝ","kana_city":"ｶﾂﾔﾏｼ","kana_address":"ｼｶﾀﾞﾆﾁｮｳｼﾀﾞ","pref":"福井県","city":"勝山市","address":"鹿谷町志田"},
{"zip_code":"9110843","kana_pref":"ﾌｸｲｹﾝ","kana_city":"ｶﾂﾔﾏｼ","kana_address":"ｼｶﾀﾞﾆﾁｮｳｽｷﾞﾏﾀ","pref":"福井県","city":"勝山市","address":"鹿谷町杉俣"},
{"zip_code":"9110848","kana_pref":"ﾌｸｲｹﾝ","kana_city":"ｶﾂﾔﾏｼ","kana_address":"ｼｶﾀﾞﾆﾁｮｳﾃﾞﾑﾗ","pref":"福井県","city":"勝山市","address":"鹿谷町出村"},
{"zip_code":"9110844","kana_pref":"ﾌｸｲｹﾝ","kana_city":"ｶﾂﾔﾏｼ","kana_address":"ｼｶﾀﾞﾆﾁｮｳﾋｶﾞｼｵｿﾜｸﾞﾁ","pref":"福井県","city":"勝山市","address":"鹿谷町東遅羽口"},
{"zip_code":"9110844","kana_pref":"ﾌｸｲｹﾝ","kana_city":"ｶﾂﾔﾏｼ","kana_address":"ｼｶﾀﾞﾆﾁｮｳﾆｼｵｿﾜｸﾞﾁ","pref":"福井県","city":"勝山市","address":"鹿谷町西遅羽口"},
{"zip_code":"9110848","kana_pref":"ﾌｸｲｹﾝ","kana_city":"ｶﾂﾔﾏｼ","kana_address":"ｼｶﾀﾞﾆﾁｮｳﾎﾀ","pref":"福井県","city":"勝山市","address":"鹿谷町保田"},
{"zip_code":"9110848","kana_pref":"ﾌｸｲｹﾝ","kana_city":"ｶﾂﾔﾏｼ","kana_address":"ｼｶﾀﾞﾆﾁｮｳﾎﾀﾃﾞﾑﾗ","pref":"福井県","city":"勝山市","address":"鹿谷町保田出村"},
{"zip_code":"9110841","kana_pref":"ﾌｸｲｹﾝ","kana_city":"ｶﾂﾔﾏｼ","kana_address":"ｼｶﾀﾞﾆﾁｮｳﾎｯｻｶ","pref":"福井県","city":"勝山市","address":"鹿谷町発坂"},
{"zip_code":"9110843","kana_pref":"ﾌｸｲｹﾝ","kana_city":"ｶﾂﾔﾏｼ","kana_address":"ｼｶﾀﾞﾆﾁｮｳﾎﾝｺﾞｳ","pref":"福井県","city":"勝山市","address":"鹿谷町本郷"},
{"zip_code":"9110845","kana_pref":"ﾌｸｲｹﾝ","kana_city":"ｶﾂﾔﾏｼ","kana_address":"ｼｶﾀﾞﾆﾁｮｳﾔﾄｸﾞﾁ","pref":"福井県","city":"勝山市","address":"鹿谷町矢戸口"},
{"zip_code":"9110816","kana_pref":"ﾌｸｲｹﾝ","kana_city":"ｶﾂﾔﾏｼ","kana_address":"ｼﾓｹﾔ","pref":"福井県","city":"勝山市","address":"下毛屋"},
{"zip_code":"9110815","kana_pref":"ﾌｸｲｹﾝ","kana_city":"ｶﾂﾔﾏｼ","kana_address":"ｼﾓﾀｶｼﾞﾏ","pref":"福井県","city":"勝山市","address":"下高島"},
{"zip_code":"9110802","kana_pref":"ﾌｸｲｹﾝ","kana_city":"ｶﾂﾔﾏｼ","kana_address":"ｼｮｳﾜﾏﾁ","pref":"福井県","city":"勝山市","address":"昭和町"},
{"zip_code":"9110815","kana_pref":"ﾌｸｲｹﾝ","kana_city":"ｶﾂﾔﾏｼ","kana_address":"ﾀｶｼﾞﾏ","pref":"福井県","city":"勝山市","address":"高島"},
{"zip_code":"9110034","kana_pref":"ﾌｸｲｹﾝ","kana_city":"ｶﾂﾔﾏｼ","kana_address":"ﾀｷﾅﾐﾁｮｳ","pref":"福井県","city":"勝山市","address":"滝波町"},
{"zip_code":"9110805","kana_pref":"ﾌｸｲｹﾝ","kana_city":"ｶﾂﾔﾏｼ","kana_address":"ﾀﾃｶﾜﾁｮｳ","pref":"福井県","city":"勝山市","address":"立川町"},
{"zip_code":"9110031","kana_pref":"ﾌｸｲｹﾝ","kana_city":"ｶﾂﾔﾏｼ","kana_address":"ﾅｶﾞﾔﾏﾁｮｳ","pref":"福井県","city":"勝山市","address":"長山町"},
{"zip_code":"9110815","kana_pref":"ﾌｸｲｹﾝ","kana_city":"ｶﾂﾔﾏｼ","kana_address":"ﾆｼﾀｶｼﾞﾏ","pref":"福井県","city":"勝山市","address":"西高島"},
{"zip_code":"9110011","kana_pref":"ﾌｸｲｹﾝ","kana_city":"ｶﾂﾔﾏｼ","kana_address":"ﾉﾑｷﾁｮｳｳｼｶﾞﾀﾆ","pref":"福井県","city":"勝山市","address":"野向町牛ケ谷"},
{"zip_code":"9110017","kana_pref":"ﾌｸｲｹﾝ","kana_city":"ｶﾂﾔﾏｼ","kana_address":"ﾉﾑｷﾁｮｳｷﾀﾉﾂﾏﾀ","pref":"福井県","city":"勝山市","address":"野向町北野津又"},
{"zip_code":"9110015","kana_pref":"ﾌｸｲｹﾝ","kana_city":"ｶﾂﾔﾏｼ","kana_address":"ﾉﾑｷﾁｮｳﾀｹﾊﾞﾔｼ","pref":"福井県","city":"勝山市","address":"野向町竹林"},
{"zip_code":"9110014","kana_pref":"ﾌｸｲｹﾝ","kana_city":"ｶﾂﾔﾏｼ","kana_address":"ﾉﾑｷﾁｮｳﾋｼﾞﾘﾏﾙ","pref":"福井県","city":"勝山市","address":"野向町聖丸"},
{"zip_code":"9110013","kana_pref":"ﾌｸｲｹﾝ","kana_city":"ｶﾂﾔﾏｼ","kana_address":"ﾉﾑｷﾁｮｳﾌｶﾀﾞﾆ","pref":"福井県","city":"勝山市","address":"野向町深谷"},
{"zip_code":"9110012","kana_pref":"ﾌｸｲｹﾝ","kana_city":"ｶﾂﾔﾏｼ","kana_address":"ﾉﾑｷﾁｮｳﾔｸｼｶﾞﾐﾔ","pref":"福井県","city":"勝山市","address":"野向町薬師神谷"},
{"zip_code":"9110017","kana_pref":"ﾌｸｲｹﾝ","kana_city":"ｶﾂﾔﾏｼ","kana_address":"ﾉﾑｷﾁｮｳﾖｺｸﾗ","pref":"福井県","city":"勝山市","address":"野向町横倉"},
{"zip_code":"9110016","kana_pref":"ﾌｸｲｹﾝ","kana_city":"ｶﾂﾔﾏｼ","kana_address":"ﾉﾑｷﾁｮｳﾘｭｳﾀﾞﾆ","pref":"福井県","city":"勝山市","address":"野向町竜谷"},
{"zip_code":"9110823","kana_pref":"ﾌｸｲｹﾝ","kana_city":"ｶﾂﾔﾏｼ","kana_address":"ﾍｲｾﾝｼﾞﾁｮｳｱｶｵ","pref":"福井県","city":"勝山市","address":"平泉寺町赤尾"},
{"zip_code":"9110824","kana_pref":"ﾌｸｲｹﾝ","kana_city":"ｶﾂﾔﾏｼ","kana_address":"ﾍｲｾﾝｼﾞﾁｮｳｲｹｶﾞﾊﾗ","pref":"福井県","city":"勝山市","address":"平泉寺町池ケ原"},
{"zip_code":"9110825","kana_pref":"ﾌｸｲｹﾝ","kana_city":"ｶﾂﾔﾏｼ","kana_address":"ﾍｲｾﾝｼﾞﾁｮｳｲﾜｶﾞﾉ","pref":"福井県","city":"勝山市","address":"平泉寺町岩ケ野"},
{"zip_code":"9110825","kana_pref":"ﾌｸｲｹﾝ","kana_city":"ｶﾂﾔﾏｼ","kana_address":"ﾍｲｾﾝｼﾞﾁｮｳｳｴﾉ","pref":"福井県","city":"勝山市","address":"平泉寺町上野"},
{"zip_code":"9110824","kana_pref":"ﾌｸｲｹﾝ","kana_city":"ｶﾂﾔﾏｼ","kana_address":"ﾍｲｾﾝｼﾞﾁｮｳｵｵﾔﾀﾞﾆ","pref":"福井県","city":"勝山市","address":"平泉寺町大矢谷"},
{"zip_code":"9110828","kana_pref":"ﾌｸｲｹﾝ","kana_city":"ｶﾂﾔﾏｼ","kana_address":"ﾍｲｾﾝｼﾞﾁｮｳｵｵﾜﾀﾘ","pref":"福井県","city":"勝山市","address":"平泉寺町大渡"},
{"zip_code":"9110821","kana_pref":"ﾌｸｲｹﾝ","kana_city":"ｶﾂﾔﾏｼ","kana_address":"ﾍｲｾﾝｼﾞﾁｮｳｵｶﾖｺｴ","pref":"福井県","city":"勝山市","address":"平泉寺町岡横江"},
{"zip_code":"9110826","kana_pref":"ﾌｸｲｹﾝ","kana_city":"ｶﾂﾔﾏｼ","kana_address":"ﾍｲｾﾝｼﾞﾁｮｳｶﾍﾞｸﾗ","pref":"福井県","city":"勝山市","address":"平泉寺町壁倉"},
{"zip_code":"9110828","kana_pref":"ﾌｸｲｹﾝ","kana_city":"ｶﾂﾔﾏｼ","kana_address":"ﾍｲｾﾝｼﾞﾁｮｳｷｮｳﾂﾞｶ","pref":"福井県","city":"勝山市","address":"平泉寺町経塚"},
{"zip_code":"9110824","kana_pref":"ﾌｸｲｹﾝ","kana_city":"ｶﾂﾔﾏｼ","kana_address":"ﾍｲｾﾝｼﾞﾁｮｳｺﾔﾀﾞﾆ","pref":"福井県","city":"勝山市","address":"平泉寺町小矢谷"},
{"zip_code":"9110827","kana_pref":"ﾌｸｲｹﾝ","kana_city":"ｶﾂﾔﾏｼ","kana_address":"ﾍｲｾﾝｼﾞﾁｮｳｻｻｵ","pref":"福井県","city":"勝山市","address":"平泉寺町笹尾"},
{"zip_code":"9110822","kana_pref":"ﾌｸｲｹﾝ","kana_city":"ｶﾂﾔﾏｼ","kana_address":"ﾍｲｾﾝｼﾞﾁｮｳｼﾝﾉ","pref":"福井県","city":"勝山市","address":"平泉寺町神野"},
{"zip_code":"9110822","kana_pref":"ﾌｸｲｹﾝ","kana_city":"ｶﾂﾔﾏｼ","kana_address":"ﾍｲｾﾝｼﾞﾁｮｳﾍｲｾﾝｼﾞ","pref":"福井県","city":"勝山市","address":"平泉寺町平泉寺"},
{"zip_code":"9110806","kana_pref":"ﾌｸｲｹﾝ","kana_city":"ｶﾂﾔﾏｼ","kana_address":"ﾎﾝﾏﾁ","pref":"福井県","city":"勝山市","address":"本町"},
{"zip_code":"9110022","kana_pref":"ﾌｸｲｹﾝ","kana_city":"ｶﾂﾔﾏｼ","kana_address":"ﾑﾛｺﾁｮｳｸﾚﾐ","pref":"福井県","city":"勝山市","address":"村岡町暮見"},
{"zip_code":"9110026","kana_pref":"ﾌｸｲｹﾝ","kana_city":"ｶﾂﾔﾏｼ","kana_address":"ﾑﾛｺﾁｮｳｸﾛﾊﾗ","pref":"福井県","city":"勝山市","address":"村岡町黒原"},
{"zip_code":"9110025","kana_pref":"ﾌｸｲｹﾝ","kana_city":"ｶﾂﾔﾏｼ","kana_address":"ﾑﾛｺﾁｮｳｺﾞﾎﾝｼﾞ","pref":"福井県","city":"勝山市","address":"村岡町五本寺"},
{"zip_code":"9110024","kana_pref":"ﾌｸｲｹﾝ","kana_city":"ｶﾂﾔﾏｼ","kana_address":"ﾑﾛｺﾁｮｳｼﾞｮｳﾄﾞｼﾞ","pref":"福井県","city":"勝山市","address":"村岡町浄土寺"},
{"zip_code":"9110023","kana_pref":"ﾌｸｲｹﾝ","kana_city":"ｶﾂﾔﾏｼ","kana_address":"ﾑﾛｺﾁｮｳﾃﾗｵ","pref":"福井県","city":"勝山市","address":"村岡町寺尾"},
{"zip_code":"9110021","kana_pref":"ﾌｸｲｹﾝ","kana_city":"ｶﾂﾔﾏｼ","kana_address":"ﾑﾛｺﾁｮｳﾄﾁｶﾞﾐﾔ","pref":"福井県","city":"勝山市","address":"村岡町栃神谷"},
{"zip_code":"9110804","kana_pref":"ﾌｸｲｹﾝ","kana_city":"ｶﾂﾔﾏｼ","kana_address":"ﾓﾄﾏﾁ","pref":"福井県","city":"勝山市","address":"元町"},
{"zip_code":"9110022","kana_pref":"ﾌｸｲｹﾝ","kana_city":"ｶﾂﾔﾏｼ","kana_address":"ﾖｼﾉｶﾞﾊﾗ","pref":"福井県","city":"勝山市","address":"芳野ケ原"},
{"zip_code":"9110032","kana_pref":"ﾌｸｲｹﾝ","kana_city":"ｶﾂﾔﾏｼ","kana_address":"ﾖｼﾉﾁｮｳ","pref":"福井県","city":"勝山市","address":"芳野町"},
{"zip_code":"9110814","kana_pref":"ﾌｸｲｹﾝ","kana_city":"ｶﾂﾔﾏｼ","kana_address":"ﾜｶｲﾉ","pref":"福井県","city":"勝山市","address":"若猪野"}]}