{"zip_code":[
{"zip_code":"9120000","kana_pref":"ﾌｸｲｹﾝ","kana_city":"ｵｵﾉｼ","kana_address":"","pref":"福井県","city":"大野市","address":""},
{"zip_code":"9120068","kana_pref":"ﾌｸｲｹﾝ","kana_city":"ｵｵﾉｼ","kana_address":"ｱｶﾈﾁｮｳ","pref":"福井県","city":"大野市","address":"茜町"},
{"zip_code":"9120205","kana_pref":"ﾌｸｲｹﾝ","kana_city":"ｵｵﾉｼ","kana_address":"ｱｻﾋ","pref":"福井県","city":"大野市","address":"朝日"},
{"zip_code":"9120201","kana_pref":"ﾌｸｲｹﾝ","kana_city":"ｵｵﾉｼ","kana_address":"ｱｻﾋﾏｴｻｶ","pref":"福井県","city":"大野市","address":"朝日前坂"},
{"zip_code":"9120063","kana_pref":"ﾌｸｲｹﾝ","kana_city":"ｵｵﾉｼ","kana_address":"ｱﾄﾞｿｼﾞﾄｳﾎｳ","pref":"福井県","city":"大野市","address":"阿難祖地頭方"},
{"zip_code":"9120063","kana_pref":"ﾌｸｲｹﾝ","kana_city":"ｵｵﾉｼ","kana_address":"ｱﾄﾞｿﾘｮｳｹ","pref":"福井県","city":"大野市","address":"阿難祖領家"},
{"zip_code":"9120035","kana_pref":"ﾌｸｲｹﾝ","kana_city":"ｵｵﾉｼ","kana_address":"ｱﾘｱｹﾁｮｳ","pref":"福井県","city":"大野市","address":"有明町"},
{"zip_code":"9120134","kana_pref":"ﾌｸｲｹﾝ","kana_city":"ｵｵﾉｼ","kana_address":"ｲｼﾀﾆ","pref":"福井県","city":"大野市","address":"石谷"},
{"zip_code":"9120086","kana_pref":"ﾌｸｲｹﾝ","kana_city":"ｵｵﾉｼ","kana_address":"ｲｽﾞﾐﾁｮｳ","pref":"福井県","city":"大野市","address":"泉町"},
{"zip_code":"9120206","kana_pref":"ﾌｸｲｹﾝ","kana_city":"ｵｵﾉｼ","kana_address":"ｲﾀｸﾗ","pref":"福井県","city":"大野市","address":"板倉"},
{"zip_code":"9120054","kana_pref":"ﾌｸｲｹﾝ","kana_city":"ｵｵﾉｼ","kana_address":"ｲﾄﾖﾁｮｳ","pref":"福井県","city":"大野市","address":"糸魚町"},
{"zip_code":"9120091","kana_pref":"ﾌｸｲｹﾝ","kana_city":"ｵｵﾉｼ","kana_address":"ｲﾇﾔﾏ","pref":"福井県","city":"大野市","address":"犬山"},
{"zip_code":"9120826","kana_pref":"ﾌｸｲｹﾝ","kana_city":"ｵｵﾉｼ","kana_address":"ｲﾉｸﾁ","pref":"福井県","city":"大野市","address":"井ノ口"},
{"zip_code":"9120404","kana_pref":"ﾌｸｲｹﾝ","kana_city":"ｵｵﾉｼ","kana_address":"ｲﾉｼﾏ","pref":"福井県","city":"大野市","address":"猪島"},
{"zip_code":"9120072","kana_pref":"ﾌｸｲｹﾝ","kana_city":"ｵｵﾉｼ","kana_address":"ｲﾌﾘ","pref":"福井県","city":"大野市","address":"飯降"},
{"zip_code":"9120424","kana_pref":"ﾌｸｲｹﾝ","kana_city":"ｵｵﾉｼ","kana_address":"ｲﾏｲ","pref":"福井県","city":"大野市","address":"今井"},
{"zip_code":"9120067","kana_pref":"ﾌｸｲｹﾝ","kana_city":"ｵｵﾉｼ","kana_address":"ｳｺﾝｼﾞﾛｳ","pref":"福井県","city":"大野市","address":"右近次郎"},
{"zip_code":"9120091","kana_pref":"ﾌｸｲｹﾝ","kana_city":"ｵｵﾉｼ","kana_address":"ｳｼｶﾞﾊﾗ","pref":"福井県","city":"大野市","address":"牛ケ原"},
{"zip_code":"9120813","kana_pref":"ﾌｸｲｹﾝ","kana_city":"ｵｵﾉｼ","kana_address":"ｳﾜﾉ","pref":"福井県","city":"大野市","address":"上野"},
{"zip_code":"9120435","kana_pref":"ﾌｸｲｹﾝ","kana_city":"ｵｵﾉｼ","kana_address":"ｴﾉｷ","pref":"福井県","city":"大野市","address":"榎"},
{"zip_code":"9120005","kana_pref":"ﾌｸｲｹﾝ","kana_city":"ｵｵﾉｼ","kana_address":"ｵｵﾀ","pref":"福井県","city":"大野市","address":"太田"},
{"zip_code":"9120132","kana_pref":"ﾌｸｲｹﾝ","kana_city":"ｵｵﾉｼ","kana_address":"ｵｵﾂｷ","pref":"福井県","city":"大野市","address":"大月"},
{"zip_code":"9120001","kana_pref":"ﾌｸｲｹﾝ","kana_city":"ｵｵﾉｼ","kana_address":"ｵｵﾔﾄ","pref":"福井県","city":"大野市","address":"大矢戸"},
{"zip_code":"9120144","kana_pref":"ﾌｸｲｹﾝ","kana_city":"ｵｵﾉｼ","kana_address":"ｵｸﾞﾛﾐ","pref":"福井県","city":"大野市","address":"小黒見"},
{"zip_code":"9120146","kana_pref":"ﾌｸｲｹﾝ","kana_city":"ｵｵﾉｼ","kana_address":"ｵﾁｱｲ","pref":"福井県","city":"大野市","address":"落合"},
{"zip_code":"9120204","kana_pref":"ﾌｸｲｹﾝ","kana_city":"ｵｵﾉｼ","kana_address":"ｶｲｻﾞﾗ","pref":"福井県","city":"大野市","address":"貝皿"},
{"zip_code":"9120416","kana_pref":"ﾌｸｲｹﾝ","kana_city":"ｵｵﾉｼ","kana_address":"ｶｲﾎﾂ","pref":"福井県","city":"大野市","address":"開発"},
{"zip_code":"9120147","kana_pref":"ﾌｸｲｹﾝ","kana_city":"ｵｵﾉｼ","kana_address":"ｶｷｶﾞｼﾏ","pref":"福井県","city":"大野市","address":"柿ケ嶋"},
{"zip_code":"9120217","kana_pref":"ﾌｸｲｹﾝ","kana_city":"ｵｵﾉｼ","kana_address":"ｶｸﾉ","pref":"福井県","city":"大野市","address":"角野"},
{"zip_code":"9120202","kana_pref":"ﾌｸｲｹﾝ","kana_city":"ｵｵﾉｼ","kana_address":"ｶｸﾉﾏｴｻｶ","pref":"福井県","city":"大野市","address":"角野前坂"},
{"zip_code":"9120053","kana_pref":"ﾌｸｲｹﾝ","kana_city":"ｵｵﾉｼ","kana_address":"ｶｽｶﾞ","pref":"福井県","city":"大野市","address":"春日"},
{"zip_code":"9120026","kana_pref":"ﾌｸｲｹﾝ","kana_city":"ｵｵﾉｼ","kana_address":"ｶﾅﾒﾁｮｳ","pref":"福井県","city":"大野市","address":"要町"},
{"zip_code":"9120814","kana_pref":"ﾌｸｲｹﾝ","kana_city":"ｵｵﾉｼ","kana_address":"ｶﾐｱｿｳｼﾞﾏ","pref":"福井県","city":"大野市","address":"上麻生嶋"},
{"zip_code":"9120074","kana_pref":"ﾌｸｲｹﾝ","kana_city":"ｵｵﾉｼ","kana_address":"ｶﾐｱﾗｲ","pref":"福井県","city":"大野市","address":"上荒井"},
{"zip_code":"9120151","kana_pref":"ﾌｸｲｹﾝ","kana_city":"ｵｵﾉｼ","kana_address":"ｶﾐｳﾁﾅﾐ","pref":"福井県","city":"大野市","address":"上打波"},
{"zip_code":"9120216","kana_pref":"ﾌｸｲｹﾝ","kana_city":"ｵｵﾉｼ","kana_address":"ｶﾐｵｵﾉｳ","pref":"福井県","city":"大野市","address":"上大納"},
{"zip_code":"9120076","kana_pref":"ﾌｸｲｹﾝ","kana_city":"ｵｵﾉｼ","kana_address":"ｶﾐｸﾛﾀﾞﾆ","pref":"福井県","city":"大野市","address":"上黒谷"},
{"zip_code":"9120064","kana_pref":"ﾌｸｲｹﾝ","kana_city":"ｵｵﾉｼ","kana_address":"ｶﾐｼﾀ","pref":"福井県","city":"大野市","address":"上舌"},
{"zip_code":"9120221","kana_pref":"ﾌｸｲｹﾝ","kana_city":"ｵｵﾉｼ","kana_address":"ｶﾐﾊﾝﾊﾞﾗ","pref":"福井県","city":"大野市","address":"上半原"},
{"zip_code":"9120094","kana_pref":"ﾌｸｲｹﾝ","kana_city":"ｵｵﾉｼ","kana_address":"ｶﾐﾖｳﾛ","pref":"福井県","city":"大野市","address":"上丁"},
{"zip_code":"9120087","kana_pref":"ﾌｸｲｹﾝ","kana_city":"ｵｵﾉｼ","kana_address":"ｶﾒﾔﾏ","pref":"福井県","city":"大野市","address":"亀山"},
{"zip_code":"9120218","kana_pref":"ﾌｸｲｹﾝ","kana_city":"ｵｵﾉｼ","kana_address":"ｶﾜｲ","pref":"福井県","city":"大野市","address":"川合"},
{"zip_code":"9120814","kana_pref":"ﾌｸｲｹﾝ","kana_city":"ｵｵﾉｼ","kana_address":"ｶﾜｼﾏ","pref":"福井県","city":"大野市","address":"川嶋"},
{"zip_code":"9120824","kana_pref":"ﾌｸｲｹﾝ","kana_city":"ｵｵﾉｼ","kana_address":"ｷｵﾄｼ","pref":"福井県","city":"大野市","address":"木落"},
{"zip_code":"9120402","kana_pref":"ﾌｸｲｹﾝ","kana_city":"ｵｵﾉｼ","kana_address":"ｷﾀﾐｶﾄﾞ","pref":"福井県","city":"大野市","address":"北御門"},
{"zip_code":"9120143","kana_pref":"ﾌｸｲｹﾝ","kana_city":"ｵｵﾉｼ","kana_address":"ｷﾝｻﾞﾝ","pref":"福井県","city":"大野市","address":"金山"},
{"zip_code":"9120043","kana_pref":"ﾌｸｲｹﾝ","kana_city":"ｵｵﾉｼ","kana_address":"ｸﾆﾄｷﾁｮｳ","pref":"福井県","city":"大野市","address":"国時町"},
{"zip_code":"9120071","kana_pref":"ﾌｸｲｹﾝ","kana_city":"ｵｵﾉｼ","kana_address":"ｸﾜｶｹ","pref":"福井県","city":"大野市","address":"鍬掛"},
{"zip_code":"9120412","kana_pref":"ﾌｸｲｹﾝ","kana_city":"ｵｵﾉｼ","kana_address":"ｺﾞｷｭｳ","pref":"福井県","city":"大野市","address":"御給"},
{"zip_code":"9120421","kana_pref":"ﾌｸｲｹﾝ","kana_city":"ｵｵﾉｼ","kana_address":"ｺﾞｼﾞｮｳﾎｳ","pref":"福井県","city":"大野市","address":"五条方"},
{"zip_code":"9120433","kana_pref":"ﾌｸｲｹﾝ","kana_city":"ｵｵﾉｼ","kana_address":"ｺﾉﾓﾄ","pref":"福井県","city":"大野市","address":"木本"},
{"zip_code":"9120002","kana_pref":"ﾌｸｲｹﾝ","kana_city":"ｵｵﾉｼ","kana_address":"ｺﾔﾄ","pref":"福井県","city":"大野市","address":"小矢戸"},
{"zip_code":"9120133","kana_pref":"ﾌｸｲｹﾝ","kana_city":"ｵｵﾉｼ","kana_address":"ｺﾞﾘｮｳ","pref":"福井県","city":"大野市","address":"御領"},
{"zip_code":"9120047","kana_pref":"ﾌｸｲｹﾝ","kana_city":"ｵｵﾉｼ","kana_address":"ｻｲﾜｲﾁｮｳ","pref":"福井県","city":"大野市","address":"幸町"},
{"zip_code":"9120044","kana_pref":"ﾌｸｲｹﾝ","kana_city":"ｵｵﾉｼ","kana_address":"ｻｸﾗﾂﾞｶﾁｮｳ","pref":"福井県","city":"大野市","address":"桜塚町"},
{"zip_code":"9120422","kana_pref":"ﾌｸｲｹﾝ","kana_city":"ｵｵﾉｼ","kana_address":"ｻﾋﾞﾗｷ","pref":"福井県","city":"大野市","address":"佐開"},
{"zip_code":"9120061","kana_pref":"ﾌｸｲｹﾝ","kana_city":"ｵｵﾉｼ","kana_address":"ｼﾉｸﾗ","pref":"福井県","city":"大野市","address":"篠座"},
{"zip_code":"9120061","kana_pref":"ﾌｸｲｹﾝ","kana_city":"ｵｵﾉｼ","kana_address":"ｼﾉｸﾗﾁｮｳ","pref":"福井県","city":"大野市","address":"篠座町"},
{"zip_code":"9120815","kana_pref":"ﾌｸｲｹﾝ","kana_city":"ｵｵﾉｼ","kana_address":"ｼﾓｱｿｳｼﾞﾏ","pref":"福井県","city":"大野市","address":"下麻生嶋"},
{"zip_code":"9120152","kana_pref":"ﾌｸｲｹﾝ","kana_city":"ｵｵﾉｼ","kana_address":"ｼﾓｳﾁﾅﾐ","pref":"福井県","city":"大野市","address":"下打波"},
{"zip_code":"9120215","kana_pref":"ﾌｸｲｹﾝ","kana_city":"ｵｵﾉｼ","kana_address":"ｼﾓｵｵﾉｳ","pref":"福井県","city":"大野市","address":"下大納"},
{"zip_code":"9120075","kana_pref":"ﾌｸｲｹﾝ","kana_city":"ｵｵﾉｼ","kana_address":"ｼﾓｸﾛﾀﾞﾆ","pref":"福井県","city":"大野市","address":"下黒谷"},
{"zip_code":"9120432","kana_pref":"ﾌｸｲｹﾝ","kana_city":"ｵｵﾉｼ","kana_address":"ｼﾓｺﾞｳ","pref":"福井県","city":"大野市","address":"下郷"},
{"zip_code":"9120431","kana_pref":"ﾌｸｲｹﾝ","kana_city":"ｵｵﾉｼ","kana_address":"ｼﾓｼｶﾞﾗﾐ","pref":"福井県","city":"大野市","address":"下据"},
{"zip_code":"9120065","kana_pref":"ﾌｸｲｹﾝ","kana_city":"ｵｵﾉｼ","kana_address":"ｼﾓｼﾀ","pref":"福井県","city":"大野市","address":"下舌"},
{"zip_code":"9120211","kana_pref":"ﾌｸｲｹﾝ","kana_city":"ｵｵﾉｼ","kana_address":"ｼﾓﾊﾝﾊﾞﾗ","pref":"福井県","city":"大野市","address":"下半原"},
{"zip_code":"9120207","kana_pref":"ﾌｸｲｹﾝ","kana_city":"ｵｵﾉｼ","kana_address":"ｼﾓﾔﾏ","pref":"福井県","city":"大野市","address":"下山"},
{"zip_code":"9120822","kana_pref":"ﾌｸｲｹﾝ","kana_city":"ｵｵﾉｼ","kana_address":"ｼﾓﾕｲﾉ","pref":"福井県","city":"大野市","address":"下唯野"},
{"zip_code":"9120095","kana_pref":"ﾌｸｲｹﾝ","kana_city":"ｵｵﾉｼ","kana_address":"ｼﾓﾖｳﾛ","pref":"福井県","city":"大野市","address":"下丁"},
{"zip_code":"9120423","kana_pref":"ﾌｸｲｹﾝ","kana_city":"ｵｵﾉｼ","kana_address":"ｼﾓﾜｶｺﾞ","pref":"福井県","city":"大野市","address":"下若生子"},
{"zip_code":"9120086","kana_pref":"ﾌｸｲｹﾝ","kana_city":"ｵｵﾉｼ","kana_address":"ｼｮｳｽﾞ","pref":"福井県","city":"大野市","address":"清水"},
{"zip_code":"9120006","kana_pref":"ﾌｸｲｹﾝ","kana_city":"ｵｵﾉｼ","kana_address":"ｼｮｳﾊﾞﾔｼ","pref":"福井県","city":"大野市","address":"庄林"},
{"zip_code":"9120041","kana_pref":"ﾌｸｲｹﾝ","kana_city":"ｵｵﾉｼ","kana_address":"ｼｮｳﾌﾞｲｹ","pref":"福井県","city":"大野市","address":"菖蒲池"},
{"zip_code":"9120087","kana_pref":"ﾌｸｲｹﾝ","kana_city":"ｵｵﾉｼ","kana_address":"ｼﾛﾏﾁ","pref":"福井県","city":"大野市","address":"城町"},
{"zip_code":"9120801","kana_pref":"ﾌｸｲｹﾝ","kana_city":"ｵｵﾉｼ","kana_address":"ｼﾝｶﾜﾗ","pref":"福井県","city":"大野市","address":"新河原"},
{"zip_code":"9120085","kana_pref":"ﾌｸｲｹﾝ","kana_city":"ｵｵﾉｼ","kana_address":"ｼﾝｼﾞｮｳ","pref":"福井県","city":"大野市","address":"新庄"},
{"zip_code":"9120825","kana_pref":"ﾌｸｲｹﾝ","kana_city":"ｵｵﾉｼ","kana_address":"ｼﾝﾂｶﾊﾞﾗ","pref":"福井県","city":"大野市","address":"新塚原"},
{"zip_code":"9120802","kana_pref":"ﾌｸｲｹﾝ","kana_city":"ｵｵﾉｼ","kana_address":"ｼﾝﾃﾞﾝ","pref":"福井県","city":"大野市","address":"新田"},
{"zip_code":"9120027","kana_pref":"ﾌｸｲｹﾝ","kana_city":"ｵｵﾉｼ","kana_address":"ｼﾝﾏﾁ","pref":"福井県","city":"大野市","address":"新町"},
{"zip_code":"9120046","kana_pref":"ﾌｸｲｹﾝ","kana_city":"ｵｵﾉｼ","kana_address":"ｼﾝﾒｲ","pref":"福井県","city":"大野市","address":"神明"},
{"zip_code":"9120046","kana_pref":"ﾌｸｲｹﾝ","kana_city":"ｵｵﾉｼ","kana_address":"ｼﾝﾒｲﾁｮｳ","pref":"福井県","city":"大野市","address":"神明町"},
{"zip_code":"9120092","kana_pref":"ﾌｸｲｹﾝ","kana_city":"ｵｵﾉｼ","kana_address":"ｾｲﾘｭｳ","pref":"福井県","city":"大野市","address":"清瀧"},
{"zip_code":"9120032","kana_pref":"ﾌｸｲｹﾝ","kana_city":"ｵｵﾉｼ","kana_address":"ｾｲﾜﾁｮｳ","pref":"福井県","city":"大野市","address":"清和町"},
{"zip_code":"9120055","kana_pref":"ﾌｸｲｹﾝ","kana_city":"ｵｵﾉｼ","kana_address":"ﾀｶｻｺﾞﾁｮｳ","pref":"福井県","city":"大野市","address":"高砂町"},
{"zip_code":"9120827","kana_pref":"ﾌｸｲｹﾝ","kana_city":"ｵｵﾉｼ","kana_address":"ﾀﾉ","pref":"福井県","city":"大野市","address":"田野"},
{"zip_code":"9120062","kana_pref":"ﾌｸｲｹﾝ","kana_city":"ｵｵﾉｼ","kana_address":"ﾁﾄｾ","pref":"福井県","city":"大野市","address":"千歳"},
{"zip_code":"9120825","kana_pref":"ﾌｸｲｹﾝ","kana_city":"ｵｵﾉｼ","kana_address":"ﾂｶﾊﾞﾗ","pref":"福井県","city":"大野市","address":"塚原"},
{"zip_code":"9120031","kana_pref":"ﾌｸｲｹﾝ","kana_city":"ｵｵﾉｼ","kana_address":"ﾂｷﾐﾁｮｳ","pref":"福井県","city":"大野市","address":"月美町"},
{"zip_code":"9120811","kana_pref":"ﾌｸｲｹﾝ","kana_city":"ｵｵﾉｼ","kana_address":"ﾂﾁｳﾁ","pref":"福井県","city":"大野市","address":"土打"},
{"zip_code":"9120805","kana_pref":"ﾌｸｲｹﾝ","kana_city":"ｵｵﾉｼ","kana_address":"ﾂﾁﾌｺﾞ","pref":"福井県","city":"大野市","address":"土布子"},
{"zip_code":"9120084","kana_pref":"ﾌｸｲｹﾝ","kana_city":"ｵｵﾉｼ","kana_address":"ﾃﾝｼﾞﾝﾁｮｳ","pref":"福井県","city":"大野市","address":"天神町"},
{"zip_code":"9120415","kana_pref":"ﾌｸｲｹﾝ","kana_city":"ｵｵﾉｼ","kana_address":"ﾄｳｺﾞｳ","pref":"福井県","city":"大野市","address":"稲郷"},
{"zip_code":"9120145","kana_pref":"ﾌｸｲｹﾝ","kana_city":"ｵｵﾉｼ","kana_address":"ﾄﾞｳｼﾞﾏ","pref":"福井県","city":"大野市","address":"堂嶋"},
{"zip_code":"9120013","kana_pref":"ﾌｸｲｹﾝ","kana_city":"ｵｵﾉｼ","kana_address":"ﾄﾞｳﾓﾄ","pref":"福井県","city":"大野市","address":"堂本"},
{"zip_code":"9120803","kana_pref":"ﾌｸｲｹﾝ","kana_city":"ｵｵﾉｼ","kana_address":"ﾄﾋﾞｼﾏ","pref":"福井県","city":"大野市","address":"富嶋"},
{"zip_code":"9120812","kana_pref":"ﾌｸｲｹﾝ","kana_city":"ｵｵﾉｼ","kana_address":"ﾄﾐﾂﾞｶ","pref":"福井県","city":"大野市","address":"富塚"},
{"zip_code":"9120016","kana_pref":"ﾌｸｲｹﾝ","kana_city":"ｵｵﾉｼ","kana_address":"ﾄﾓｴ","pref":"福井県","city":"大野市","address":"友江"},
{"zip_code":"9120411","kana_pref":"ﾌｸｲｹﾝ","kana_city":"ｵｵﾉｼ","kana_address":"ﾄﾓｶﾈ","pref":"福井県","city":"大野市","address":"友兼"},
{"zip_code":"9120023","kana_pref":"ﾌｸｲｹﾝ","kana_city":"ｵｵﾉｼ","kana_address":"ﾅｶｱﾗｲ","pref":"福井県","city":"大野市","address":"中荒井"},
{"zip_code":"9120023","kana_pref":"ﾌｸｲｹﾝ","kana_city":"ｵｵﾉｼ","kana_address":"ﾅｶｱﾗｲﾁｮｳ","pref":"福井県","city":"大野市","address":"中荒井町"},
{"zip_code":"9120437","kana_pref":"ﾌｸｲｹﾝ","kana_city":"ｵｵﾉｼ","kana_address":"ﾅｶｼｶﾞﾗﾐ","pref":"福井県","city":"大野市","address":"中据"},
{"zip_code":"9120004","kana_pref":"ﾌｸｲｹﾝ","kana_city":"ｵｵﾉｼ","kana_address":"ﾅｶﾂｶﾞﾜ","pref":"福井県","city":"大野市","address":"中津川"},
{"zip_code":"9120021","kana_pref":"ﾌｸｲｹﾝ","kana_city":"ｵｵﾉｼ","kana_address":"ﾅｶﾉ","pref":"福井県","city":"大野市","address":"中野"},
{"zip_code":"9120214","kana_pref":"ﾌｸｲｹﾝ","kana_city":"ｵｵﾉｼ","kana_address":"ﾅｶﾞﾉ","pref":"福井県","city":"大野市","address":"長野"},
{"zip_code":"9120021","kana_pref":"ﾌｸｲｹﾝ","kana_city":"ｵｵﾉｼ","kana_address":"ﾅｶﾉﾁｮｳ","pref":"福井県","city":"大野市","address":"中野町"},
{"zip_code":"9120015","kana_pref":"ﾌｸｲｹﾝ","kana_city":"ｵｵﾉｼ","kana_address":"ﾅｶﾊﾞｻﾐ","pref":"福井県","city":"大野市","address":"中挾"},
{"zip_code":"9120014","kana_pref":"ﾌｸｲｹﾝ","kana_city":"ｵｵﾉｼ","kana_address":"ﾅｶﾎ","pref":"福井県","city":"大野市","address":"中保"},
{"zip_code":"9120093","kana_pref":"ﾌｸｲｹﾝ","kana_city":"ｵｵﾉｼ","kana_address":"ﾅｶﾖｳﾛ","pref":"福井県","city":"大野市","address":"中丁"},
{"zip_code":"9120821","kana_pref":"ﾌｸｲｹﾝ","kana_city":"ｵｵﾉｼ","kana_address":"ﾅﾅｲﾀ","pref":"福井県","city":"大野市","address":"七板"},
{"zip_code":"9120007","kana_pref":"ﾌｸｲｹﾝ","kana_city":"ｵｵﾉｼ","kana_address":"ﾆｼｲﾁ","pref":"福井県","city":"大野市","address":"西市"},
{"zip_code":"9120003","kana_pref":"ﾌｸｲｹﾝ","kana_city":"ｵｵﾉｼ","kana_address":"ﾆｼｵｵﾂｷ","pref":"福井県","city":"大野市","address":"西大月"},
{"zip_code":"9120155","kana_pref":"ﾌｸｲｹﾝ","kana_city":"ｵｵﾉｼ","kana_address":"ﾆｼｶﾄﾞﾊﾗ","pref":"福井県","city":"大野市","address":"西勝原"},
{"zip_code":"9120024","kana_pref":"ﾌｸｲｹﾝ","kana_city":"ｵｵﾉｼ","kana_address":"ﾆｼｷﾁｮｳ","pref":"福井県","city":"大野市","address":"錦町"},
{"zip_code":"9120436","kana_pref":"ﾌｸｲｹﾝ","kana_city":"ｵｵﾉｼ","kana_address":"ﾆｼｼｶﾞﾗﾐ","pref":"福井県","city":"大野市","address":"西据"},
{"zip_code":"9120431","kana_pref":"ﾌｸｲｹﾝ","kana_city":"ｵｵﾉｼ","kana_address":"ﾆｼｻﾄ","pref":"福井県","city":"大野市","address":"西里"},
{"zip_code":"9120426","kana_pref":"ﾌｸｲｹﾝ","kana_city":"ｵｵﾉｼ","kana_address":"ﾆｼﾔﾏ","pref":"福井県","city":"大野市","address":"西山"},
{"zip_code":"9120213","kana_pref":"ﾌｸｲｹﾝ","kana_city":"ｵｵﾉｼ","kana_address":"ﾉｼﾞﾘ","pref":"福井県","city":"大野市","address":"野尻"},
{"zip_code":"9120203","kana_pref":"ﾌｸｲｹﾝ","kana_city":"ｵｵﾉｼ","kana_address":"ﾉﾁﾉ","pref":"福井県","city":"大野市","address":"後野"},
{"zip_code":"9120414","kana_pref":"ﾌｸｲｹﾝ","kana_city":"ｵｵﾉｼ","kana_address":"ﾉﾅｶ","pref":"福井県","city":"大野市","address":"野中"},
{"zip_code":"9120212","kana_pref":"ﾌｸｲｹﾝ","kana_city":"ｵｵﾉｼ","kana_address":"ﾊｺｶﾞｾ","pref":"福井県","city":"大野市","address":"箱ケ瀬"},
{"zip_code":"9120141","kana_pref":"ﾌｸｲｹﾝ","kana_city":"ｵｵﾉｼ","kana_address":"ﾊｼﾂﾞﾒ","pref":"福井県","city":"大野市","address":"橋爪"},
{"zip_code":"9120138","kana_pref":"ﾌｸｲｹﾝ","kana_city":"ｵｵﾉｼ","kana_address":"ﾊﾅﾌﾞｻ","pref":"福井県","city":"大野市","address":"花房"},
{"zip_code":"9120137","kana_pref":"ﾌｸｲｹﾝ","kana_city":"ｵｵﾉｼ","kana_address":"ﾊﾝｶﾞﾉ","pref":"福井県","city":"大野市","address":"萩ケ野"},
{"zip_code":"9120222","kana_pref":"ﾌｸｲｹﾝ","kana_city":"ｵｵﾉｼ","kana_address":"ﾋｶﾞｼｲﾁﾇﾉ","pref":"福井県","city":"大野市","address":"東市布"},
{"zip_code":"9120003","kana_pref":"ﾌｸｲｹﾝ","kana_city":"ｵｵﾉｼ","kana_address":"ﾋｶﾞｼｵｵﾂｷ","pref":"福井県","city":"大野市","address":"東大月"},
{"zip_code":"9120154","kana_pref":"ﾌｸｲｹﾝ","kana_city":"ｵｵﾉｼ","kana_address":"ﾋｶﾞｼｶﾄﾞﾊﾗ","pref":"福井県","city":"大野市","address":"東勝原"},
{"zip_code":"9120042","kana_pref":"ﾌｸｲｹﾝ","kana_city":"ｵｵﾉｼ","kana_address":"ﾋｶﾞｼﾅｶ","pref":"福井県","city":"大野市","address":"東中"},
{"zip_code":"9120042","kana_pref":"ﾌｸｲｹﾝ","kana_city":"ｵｵﾉｼ","kana_address":"ﾋｶﾞｼﾅｶﾁｮｳ","pref":"福井県","city":"大野市","address":"東中町"},
{"zip_code":"9120017","kana_pref":"ﾌｸｲｹﾝ","kana_city":"ｵｵﾉｼ","kana_address":"ﾋｶﾞｼﾅｶﾉ","pref":"福井県","city":"大野市","address":"東中野"},
{"zip_code":"9120413","kana_pref":"ﾌｸｲｹﾝ","kana_city":"ｵｵﾉｼ","kana_address":"ﾋｶﾞｼﾔﾏ","pref":"福井県","city":"大野市","address":"東山"},
{"zip_code":"9120051","kana_pref":"ﾌｸｲｹﾝ","kana_city":"ｵｵﾉｼ","kana_address":"ﾋﾖｼﾁｮｳ","pref":"福井県","city":"大野市","address":"日吉町"},
{"zip_code":"9120425","kana_pref":"ﾌｸｲｹﾝ","kana_city":"ｵｵﾉｼ","kana_address":"ﾋﾗｻﾜ","pref":"福井県","city":"大野市","address":"平沢"},
{"zip_code":"9120073","kana_pref":"ﾌｸｲｹﾝ","kana_city":"ｵｵﾉｼ","kana_address":"ﾌｶｲ","pref":"福井県","city":"大野市","address":"深井"},
{"zip_code":"9120149","kana_pref":"ﾌｸｲｹﾝ","kana_city":"ｵｵﾉｼ","kana_address":"ﾌﾞｸｲｼ","pref":"福井県","city":"大野市","address":"伏石"},
{"zip_code":"9120139","kana_pref":"ﾌｸｲｹﾝ","kana_city":"ｵｵﾉｼ","kana_address":"ﾌﾄﾞｳﾄﾞｳ","pref":"福井県","city":"大野市","address":"不動堂"},
{"zip_code":"9120434","kana_pref":"ﾌｸｲｹﾝ","kana_city":"ｵｵﾉｼ","kana_address":"ﾎｳｷｮｳｼﾞ","pref":"福井県","city":"大野市","address":"宝慶寺"},
{"zip_code":"9120153","kana_pref":"ﾌｸｲｹﾝ","kana_city":"ｵｵﾉｼ","kana_address":"ﾎﾄｹﾊﾞﾗ","pref":"福井県","city":"大野市","address":"仏原"},
{"zip_code":"9120025","kana_pref":"ﾌｸｲｹﾝ","kana_city":"ｵｵﾉｼ","kana_address":"ﾎﾝﾏﾁ","pref":"福井県","city":"大野市","address":"本町"},
{"zip_code":"9120136","kana_pref":"ﾌｸｲｹﾝ","kana_city":"ｵｵﾉｼ","kana_address":"ﾏﾂﾏﾙ","pref":"福井県","city":"大野市","address":"松丸"},
{"zip_code":"9120036","kana_pref":"ﾌｸｲｹﾝ","kana_city":"ｵｵﾉｼ","kana_address":"ﾐｶﾜﾁｮｳ","pref":"福井県","city":"大野市","address":"美川町"},
{"zip_code":"9120033","kana_pref":"ﾌｸｲｹﾝ","kana_city":"ｵｵﾉｼ","kana_address":"ﾐｻﾄﾁｮｳ","pref":"福井県","city":"大野市","address":"美里町"},
{"zip_code":"9120088","kana_pref":"ﾌｸｲｹﾝ","kana_city":"ｵｵﾉｼ","kana_address":"ﾐｽﾞｵﾄｼ","pref":"福井県","city":"大野市","address":"水落"},
{"zip_code":"9120088","kana_pref":"ﾌｸｲｹﾝ","kana_city":"ｵｵﾉｼ","kana_address":"ﾐｽﾞｵﾄｼﾁｮｳ","pref":"福井県","city":"大野市","address":"水落町"},
{"zip_code":"9120066","kana_pref":"ﾌｸｲｹﾝ","kana_city":"ｵｵﾉｼ","kana_address":"ﾐﾅﾐｶｽｶﾞﾉ","pref":"福井県","city":"大野市","address":"南春日野"},
{"zip_code":"9120011","kana_pref":"ﾌｸｲｹﾝ","kana_city":"ｵｵﾉｼ","kana_address":"ﾐﾅﾐｼﾝｻﾞｲｹ","pref":"福井県","city":"大野市","address":"南新在家"},
{"zip_code":"9120131","kana_pref":"ﾌｸｲｹﾝ","kana_city":"ｵｵﾉｼ","kana_address":"ﾐﾅﾐﾛｸﾛｼ","pref":"福井県","city":"大野市","address":"南六呂師"},
{"zip_code":"9120142","kana_pref":"ﾌｸｲｹﾝ","kana_city":"ｵｵﾉｼ","kana_address":"ﾐﾉﾐﾁ","pref":"福井県","city":"大野市","address":"蓑道"},
{"zip_code":"9120083","kana_pref":"ﾌｸｲｹﾝ","kana_city":"ｵｵﾉｼ","kana_address":"ﾒｲﾘﾝﾁｮｳ","pref":"福井県","city":"大野市","address":"明倫町"},
{"zip_code":"9120081","kana_pref":"ﾌｸｲｹﾝ","kana_city":"ｵｵﾉｼ","kana_address":"ﾓﾄﾏﾁ","pref":"福井県","city":"大野市","address":"元町"},
{"zip_code":"9120405","kana_pref":"ﾌｸｲｹﾝ","kana_city":"ｵｵﾉｼ","kana_address":"ﾓﾘﾏｻｼﾞﾄｳ","pref":"福井県","city":"大野市","address":"森政地頭"},
{"zip_code":"9120403","kana_pref":"ﾌｸｲｹﾝ","kana_city":"ｵｵﾉｼ","kana_address":"ﾓﾘﾏｻﾘｮｳｹ","pref":"福井県","city":"大野市","address":"森政領家"},
{"zip_code":"9120804","kana_pref":"ﾌｸｲｹﾝ","kana_city":"ｵｵﾉｼ","kana_address":"ﾓﾘﾒ","pref":"福井県","city":"大野市","address":"森目"},
{"zip_code":"9120135","kana_pref":"ﾌｸｲｹﾝ","kana_city":"ｵｵﾉｼ","kana_address":"ﾓﾘﾓﾄ","pref":"福井県","city":"大野市","address":"森本"},
{"zip_code":"9120427","kana_pref":"ﾌｸｲｹﾝ","kana_city":"ｵｵﾉｼ","kana_address":"ﾓﾘﾔﾏ","pref":"福井県","city":"大野市","address":"森山"},
{"zip_code":"9120008","kana_pref":"ﾌｸｲｹﾝ","kana_city":"ｵｵﾉｼ","kana_address":"ﾔ","pref":"福井県","city":"大野市","address":"矢"},
{"zip_code":"9120148","kana_pref":"ﾌｸｲｹﾝ","kana_city":"ｵｵﾉｼ","kana_address":"ﾔﾏﾁ","pref":"福井県","city":"大野市","address":"八町"},
{"zip_code":"9120082","kana_pref":"ﾌｸｲｹﾝ","kana_city":"ｵｵﾉｼ","kana_address":"ﾔﾏﾄﾁｮｳ","pref":"福井県","city":"大野市","address":"大和町"},
{"zip_code":"9120052","kana_pref":"ﾌｸｲｹﾝ","kana_city":"ｵｵﾉｼ","kana_address":"ﾔﾖｲﾁｮｳ","pref":"福井県","city":"大野市","address":"弥生町"},
{"zip_code":"9120022","kana_pref":"ﾌｸｲｹﾝ","kana_city":"ｵｵﾉｼ","kana_address":"ﾖｳﾒｲﾁｮｳ","pref":"福井県","city":"大野市","address":"陽明町"},
{"zip_code":"9120012","kana_pref":"ﾌｸｲｹﾝ","kana_city":"ｵｵﾉｼ","kana_address":"ﾖｺﾏｸﾗ","pref":"福井県","city":"大野市","address":"横枕"},
{"zip_code":"9120401","kana_pref":"ﾌｸｲｹﾝ","kana_city":"ｵｵﾉｼ","kana_address":"ﾖｼ","pref":"福井県","city":"大野市","address":"吉"},
{"zip_code":"9120034","kana_pref":"ﾌｸｲｹﾝ","kana_city":"ｵｵﾉｼ","kana_address":"ﾖｼﾉﾁｮｳ","pref":"福井県","city":"大野市","address":"吉野町"},
{"zip_code":"9120045","kana_pref":"ﾌｸｲｹﾝ","kana_city":"ｵｵﾉｼ","kana_address":"ﾜｶｽｷﾞﾁｮｳ","pref":"福井県","city":"大野市","address":"若杉町"},
{"zip_code":"9120823","kana_pref":"ﾌｸｲｹﾝ","kana_city":"ｵｵﾉｼ","kana_address":"ﾜﾗﾋﾞｮｳ","pref":"福井県","city":"大野市","address":"蕨生"}]}