{"zip_code":[
{"zip_code":"9130053","kana_pref":"ﾌｸｲｹﾝ","kana_city":"ｻｶｲｼ","kana_address":"ﾐｸﾆﾁｮｳｱｵﾊﾞﾀﾞｲ","pref":"福井県","city":"坂井市","address":"三国町青葉台"},
{"zip_code":"9130022","kana_pref":"ﾌｸｲｹﾝ","kana_city":"ｻｶｲｼ","kana_address":"ﾐｸﾆﾁｮｳｱﾌﾞﾗﾔ","pref":"福井県","city":"坂井市","address":"三国町油屋"},
{"zip_code":"9130063","kana_pref":"ﾌｸｲｹﾝ","kana_city":"ｻｶｲｼ","kana_address":"ﾐｸﾆﾁｮｳｱﾝﾄｳ","pref":"福井県","city":"坂井市","address":"三国町安島"},
{"zip_code":"9130064","kana_pref":"ﾌｸｲｹﾝ","kana_city":"ｻｶｲｼ","kana_address":"ﾐｸﾆﾁｮｳｱﾝﾄｳ","pref":"福井県","city":"坂井市","address":"三国町安島"},
{"zip_code":"9130001","kana_pref":"ﾌｸｲｹﾝ","kana_city":"ｻｶｲｼ","kana_address":"ﾐｸﾆﾁｮｳｲｹｶﾞﾐ","pref":"福井県","city":"坂井市","address":"三国町池上"},
{"zip_code":"9130024","kana_pref":"ﾌｸｲｹﾝ","kana_city":"ｻｶｲｼ","kana_address":"ﾐｸﾆﾁｮｳｲｹﾐ","pref":"福井県","city":"坂井市","address":"三国町池見"},
{"zip_code":"9130023","kana_pref":"ﾌｸｲｹﾝ","kana_city":"ｻｶｲｼ","kana_address":"ﾐｸﾆﾁｮｳｲｼﾏﾙ","pref":"福井県","city":"坂井市","address":"三国町石丸"},
{"zip_code":"9130052","kana_pref":"ﾌｸｲｹﾝ","kana_city":"ｻｶｲｼ","kana_address":"ﾐｸﾆﾁｮｳｳﾝﾄﾞｳｺｳｴﾝ","pref":"福井県","city":"坂井市","address":"三国町運動公園"},
{"zip_code":"9130035","kana_pref":"ﾌｸｲｹﾝ","kana_city":"ｻｶｲｼ","kana_address":"ﾐｸﾆﾁｮｳｵｷﾉﾉ","pref":"福井県","city":"坂井市","address":"三国町沖野々"},
{"zip_code":"9130041","kana_pref":"ﾌｸｲｹﾝ","kana_city":"ｻｶｲｼ","kana_address":"ﾐｸﾆﾁｮｳｶｸｾﾞﾝ","pref":"福井県","city":"坂井市","address":"三国町覚善"},
{"zip_code":"9130061","kana_pref":"ﾌｸｲｹﾝ","kana_city":"ｻｶｲｼ","kana_address":"ﾐｸﾆﾁｮｳｶｼﾞ","pref":"福井県","city":"坂井市","address":"三国町梶"},
{"zip_code":"9130002","kana_pref":"ﾌｸｲｹﾝ","kana_city":"ｻｶｲｼ","kana_address":"ﾐｸﾆﾁｮｳｶﾄﾞ","pref":"福井県","city":"坂井市","address":"三国町加戸"},
{"zip_code":"9130025","kana_pref":"ﾌｸｲｹﾝ","kana_city":"ｻｶｲｼ","kana_address":"ﾐｸﾆﾁｮｳｶﾜｻｷ","pref":"福井県","city":"坂井市","address":"三国町川崎"},
{"zip_code":"9130046","kana_pref":"ﾌｸｲｹﾝ","kana_city":"ｻｶｲｼ","kana_address":"ﾐｸﾆﾁｮｳｷﾀﾎﾝﾏﾁ","pref":"福井県","city":"坂井市","address":"三国町北本町"},
{"zip_code":"9130038","kana_pref":"ﾌｸｲｹﾝ","kana_city":"ｻｶｲｼ","kana_address":"ﾐｸﾆﾁｮｳｸﾛﾒ","pref":"福井県","city":"坂井市","address":"三国町黒目"},
{"zip_code":"9130037","kana_pref":"ﾌｸｲｹﾝ","kana_city":"ｻｶｲｼ","kana_address":"ﾐｸﾆﾁｮｳｸﾛﾒ","pref":"福井県","city":"坂井市","address":"三国町黒目"},
{"zip_code":"9130057","kana_pref":"ﾌｸｲｹﾝ","kana_city":"ｻｶｲｼ","kana_address":"ﾐｸﾆﾁｮｳｺﾒｶﾞﾜｷ","pref":"福井県","city":"坂井市","address":"三国町米ケ脇"},
{"zip_code":"9130065","kana_pref":"ﾌｸｲｹﾝ","kana_city":"ｻｶｲｼ","kana_address":"ﾐｸﾆﾁｮｳｻｷ","pref":"福井県","city":"坂井市","address":"三国町崎"},
{"zip_code":"9130044","kana_pref":"ﾌｸｲｹﾝ","kana_city":"ｻｶｲｼ","kana_address":"ﾐｸﾆﾁｮｳｻﾝﾉｳ","pref":"福井県","city":"坂井市","address":"三国町山王"},
{"zip_code":"9130027","kana_pref":"ﾌｸｲｹﾝ","kana_city":"ｻｶｲｼ","kana_address":"ﾐｸﾆﾁｮｳｼｵﾐ","pref":"福井県","city":"坂井市","address":"三国町汐見"},
{"zip_code":"9130033","kana_pref":"ﾌｸｲｹﾝ","kana_city":"ｻｶｲｼ","kana_address":"ﾐｸﾆﾁｮｳｼﾓﾉ","pref":"福井県","city":"坂井市","address":"三国町下野"},
{"zip_code":"9130056","kana_pref":"ﾌｸｲｹﾝ","kana_city":"ｻｶｲｼ","kana_address":"ﾐｸﾆﾁｮｳｼｭｸ","pref":"福井県","city":"坂井市","address":"三国町宿"},
{"zip_code":"9130062","kana_pref":"ﾌｸｲｹﾝ","kana_city":"ｻｶｲｼ","kana_address":"ﾐｸﾆﾁｮｳｼﾞﾝｶﾞｵｶ","pref":"福井県","city":"坂井市","address":"三国町陣ケ岡"},
{"zip_code":"9130058","kana_pref":"ﾌｸｲｹﾝ","kana_city":"ｻｶｲｼ","kana_address":"ﾐｸﾆﾁｮｳｼﾝｼｭｸ","pref":"福井県","city":"坂井市","address":"三国町新宿"},
{"zip_code":"9130038","kana_pref":"ﾌｸｲｹﾝ","kana_city":"ｻｶｲｼ","kana_address":"ﾐｸﾆﾁｮｳｼﾝﾎﾞ","pref":"福井県","city":"坂井市","address":"三国町新保"},
{"zip_code":"9130031","kana_pref":"ﾌｸｲｹﾝ","kana_city":"ｻｶｲｼ","kana_address":"ﾐｸﾆﾁｮｳｼﾝﾎﾞ","pref":"福井県","city":"坂井市","address":"三国町新保"},
{"zip_code":"9130047","kana_pref":"ﾌｸｲｹﾝ","kana_city":"ｻｶｲｼ","kana_address":"ﾐｸﾆﾁｮｳｼﾝﾒｲ","pref":"福井県","city":"坂井市","address":"三国町神明"},
{"zip_code":"9130054","kana_pref":"ﾌｸｲｹﾝ","kana_city":"ｻｶｲｼ","kana_address":"ﾐｸﾆﾁｮｳﾀｷﾀﾞﾆ","pref":"福井県","city":"坂井市","address":"三国町滝谷"},
{"zip_code":"9130051","kana_pref":"ﾌｸｲｹﾝ","kana_city":"ｻｶｲｼ","kana_address":"ﾐｸﾆﾁｮｳﾀﾞｹ","pref":"福井県","city":"坂井市","address":"三国町嵩"},
{"zip_code":"9130017","kana_pref":"ﾌｸｲｹﾝ","kana_city":"ｻｶｲｼ","kana_address":"ﾐｸﾆﾁｮｳﾀｹﾏﾂ","pref":"福井県","city":"坂井市","address":"三国町竹松"},
{"zip_code":"9130042","kana_pref":"ﾌｸｲｹﾝ","kana_city":"ｻｶｲｼ","kana_address":"ﾐｸﾆﾁｮｳﾁｭｳｵｳ","pref":"福井県","city":"坂井市","address":"三国町中央"},
{"zip_code":"9130055","kana_pref":"ﾌｸｲｹﾝ","kana_city":"ｻｶｲｼ","kana_address":"ﾐｸﾆﾁｮｳﾂﾂｼﾞｶﾞｵｶ","pref":"福井県","city":"坂井市","address":"三国町つつじが丘"},
{"zip_code":"9130014","kana_pref":"ﾌｸｲｹﾝ","kana_city":"ｻｶｲｼ","kana_address":"ﾐｸﾆﾁｮｳﾄｳﾉｴ","pref":"福井県","city":"坂井市","address":"三国町玉江"},
{"zip_code":"9130026","kana_pref":"ﾌｸｲｹﾝ","kana_city":"ｻｶｲｼ","kana_address":"ﾐｸﾆﾁｮｳﾄﾉｼﾏ","pref":"福井県","city":"坂井市","address":"三国町殿島"},
{"zip_code":"9130012","kana_pref":"ﾌｸｲｹﾝ","kana_city":"ｻｶｲｼ","kana_address":"ﾐｸﾆﾁｮｳﾆｼｲﾏｲﾁ","pref":"福井県","city":"坂井市","address":"三国町西今市"},
{"zip_code":"9130043","kana_pref":"ﾌｸｲｹﾝ","kana_city":"ｻｶｲｼ","kana_address":"ﾐｸﾆﾁｮｳﾆｼｷ","pref":"福井県","city":"坂井市","address":"三国町錦"},
{"zip_code":"9130003","kana_pref":"ﾌｸｲｹﾝ","kana_city":"ｻｶｲｼ","kana_address":"ﾐｸﾆﾁｮｳﾆｼﾀﾆ","pref":"福井県","city":"坂井市","address":"三国町西谷"},
{"zip_code":"9130034","kana_pref":"ﾌｸｲｹﾝ","kana_city":"ｻｶｲｼ","kana_address":"ﾐｸﾆﾁｮｳﾆｼﾉﾅｶ","pref":"福井県","city":"坂井市","address":"三国町西野中"},
{"zip_code":"9130015","kana_pref":"ﾌｸｲｹﾝ","kana_city":"ｻｶｲｼ","kana_address":"ﾐｸﾆﾁｮｳﾉﾅｶ","pref":"福井県","city":"坂井市","address":"三国町野中"},
{"zip_code":"9130005","kana_pref":"ﾌｸｲｹﾝ","kana_city":"ｻｶｲｼ","kana_address":"ﾐｸﾆﾁｮｳﾊﾏｼﾞ","pref":"福井県","city":"坂井市","address":"三国町浜地"},
{"zip_code":"9130004","kana_pref":"ﾌｸｲｹﾝ","kana_city":"ｻｶｲｼ","kana_address":"ﾐｸﾆﾁｮｳﾋﾗﾔﾏ","pref":"福井県","city":"坂井市","address":"三国町平山"},
{"zip_code":"9130013","kana_pref":"ﾌｸｲｹﾝ","kana_city":"ｻｶｲｼ","kana_address":"ﾐｸﾆﾁｮｳﾌｼﾞｻﾜ","pref":"福井県","city":"坂井市","address":"三国町藤沢"},
{"zip_code":"9130016","kana_pref":"ﾌｸｲｹﾝ","kana_city":"ｻｶｲｼ","kana_address":"ﾐｸﾆﾁｮｳﾐｸﾆﾋｶﾞｼ","pref":"福井県","city":"坂井市","address":"三国町三国東"},
{"zip_code":"9130011","kana_pref":"ﾌｸｲｹﾝ","kana_city":"ｻｶｲｼ","kana_address":"ﾐｸﾆﾁｮｳﾐｽﾞｲ","pref":"福井県","city":"坂井市","address":"三国町水居"},
{"zip_code":"9130048","kana_pref":"ﾌｸｲｹﾝ","kana_city":"ｻｶｲｼ","kana_address":"ﾐｸﾆﾁｮｳﾐﾄﾞﾘｶﾞｵｶ","pref":"福井県","city":"坂井市","address":"三国町緑ケ丘"},
{"zip_code":"9130045","kana_pref":"ﾌｸｲｹﾝ","kana_city":"ｻｶｲｼ","kana_address":"ﾐｸﾆﾁｮｳﾐﾅﾐﾎﾝﾏﾁ","pref":"福井県","city":"坂井市","address":"三国町南本町"},
{"zip_code":"9130038","kana_pref":"ﾌｸｲｹﾝ","kana_city":"ｻｶｲｼ","kana_address":"ﾐｸﾆﾁｮｳﾔﾏｷﾞｼ","pref":"福井県","city":"坂井市","address":"三国町山岸"},
{"zip_code":"9130032","kana_pref":"ﾌｸｲｹﾝ","kana_city":"ｻｶｲｼ","kana_address":"ﾐｸﾆﾁｮｳﾔﾏｷﾞｼ","pref":"福井県","city":"坂井市","address":"三国町山岸"},
{"zip_code":"9130035","kana_pref":"ﾌｸｲｹﾝ","kana_city":"ｻｶｲｼ","kana_address":"ﾐｸﾆﾁｮｳﾖｺｺﾞｼ","pref":"福井県","city":"坂井市","address":"三国町横越"},
{"zip_code":"9130038","kana_pref":"ﾌｸｲｹﾝ","kana_city":"ｻｶｲｼ","kana_address":"ﾐｸﾆﾁｮｳﾖﾉﾂﾞ","pref":"福井県","city":"坂井市","address":"三国町米納津"},
{"zip_code":"9130036","kana_pref":"ﾌｸｲｹﾝ","kana_city":"ｻｶｲｼ","kana_address":"ﾐｸﾆﾁｮｳﾖﾉﾂﾞ","pref":"福井県","city":"坂井市","address":"三国町米納津"},
{"zip_code":"9130021","kana_pref":"ﾌｸｲｹﾝ","kana_city":"ｻｶｲｼ","kana_address":"ﾐｸﾆﾁｮｳﾗｸｴﾝ","pref":"福井県","city":"坂井市","address":"三国町楽円"}]}