{"zip_code":[
{"zip_code":"9140000","kana_pref":"ﾌｸｲｹﾝ","kana_city":"ﾂﾙｶﾞｼ","kana_address":"","pref":"福井県","city":"敦賀市","address":""},
{"zip_code":"9140062","kana_pref":"ﾌｸｲｹﾝ","kana_city":"ﾂﾙｶﾞｼ","kana_address":"ｱｲｵｲﾁｮｳ","pref":"福井県","city":"敦賀市","address":"相生町"},
{"zip_code":"9140272","kana_pref":"ﾌｸｲｹﾝ","kana_city":"ﾂﾙｶﾞｼ","kana_address":"ｱｶｻｷ","pref":"福井県","city":"敦賀市","address":"赤崎"},
{"zip_code":"9140075","kana_pref":"ﾌｸｲｹﾝ","kana_city":"ﾂﾙｶﾞｼ","kana_address":"ｱｹﾎﾞﾉﾁｮｳ","pref":"福井県","city":"敦賀市","address":"曙町"},
{"zip_code":"9140266","kana_pref":"ﾌｸｲｹﾝ","kana_city":"ﾂﾙｶﾞｼ","kana_address":"ｱｹﾞﾉ","pref":"福井県","city":"敦賀市","address":"挙野"},
{"zip_code":"9140315","kana_pref":"ﾌｸｲｹﾝ","kana_city":"ﾂﾙｶﾞｼ","kana_address":"ｱｿｳｸﾞﾁ","pref":"福井県","city":"敦賀市","address":"麻生口"},
{"zip_code":"9140265","kana_pref":"ﾌｸｲｹﾝ","kana_city":"ﾂﾙｶﾞｼ","kana_address":"ｱｿﾞ","pref":"福井県","city":"敦賀市","address":"阿曽"},
{"zip_code":"9140141","kana_pref":"ﾌｸｲｹﾝ","kana_city":"ﾂﾙｶﾞｼ","kana_address":"ｱｿﾞﾉ","pref":"福井県","city":"敦賀市","address":"莇生野"},
{"zip_code":"9140014","kana_pref":"ﾌｸｲｹﾝ","kana_city":"ﾂﾙｶﾞｼ","kana_address":"ｲｶﾞﾜ","pref":"福井県","city":"敦賀市","address":"井川"},
{"zip_code":"9140004","kana_pref":"ﾌｸｲｹﾝ","kana_city":"ﾂﾙｶﾞｼ","kana_address":"ｲｹﾉｺｳﾁ","pref":"福井県","city":"敦賀市","address":"池河内"},
{"zip_code":"9140042","kana_pref":"ﾌｸｲｹﾝ","kana_city":"ﾂﾙｶﾞｼ","kana_address":"ｲｼｶﾞﾁｮｳ","pref":"福井県","city":"敦賀市","address":"石ケ町"},
{"zip_code":"9140021","kana_pref":"ﾌｸｲｹﾝ","kana_city":"ﾂﾙｶﾞｼ","kana_address":"ｲｽﾞﾐｶﾞｵｶﾁｮｳ","pref":"福井県","city":"敦賀市","address":"泉ケ丘町"},
{"zip_code":"9140124","kana_pref":"ﾌｸｲｹﾝ","kana_city":"ﾂﾙｶﾞｼ","kana_address":"ｲﾁﾉﾉ","pref":"福井県","city":"敦賀市","address":"市野々"},
{"zip_code":"9140124","kana_pref":"ﾌｸｲｹﾝ","kana_city":"ﾂﾙｶﾞｼ","kana_address":"ｲﾁﾉﾉﾁｮｳ","pref":"福井県","city":"敦賀市","address":"市野々町"},
{"zip_code":"9140301","kana_pref":"ﾌｸｲｹﾝ","kana_city":"ﾂﾙｶﾞｼ","kana_address":"ｲﾁﾊｼ","pref":"福井県","city":"敦賀市","address":"市橋"},
{"zip_code":"9140267","kana_pref":"ﾌｸｲｹﾝ","kana_city":"ﾂﾙｶﾞｼ","kana_address":"ｲﾂﾊﾀ","pref":"福井県","city":"敦賀市","address":"五幡"},
{"zip_code":"9140805","kana_pref":"ﾌｸｲｹﾝ","kana_city":"ﾂﾙｶﾞｼ","kana_address":"ｲﾓｼﾞﾁｮｳ","pref":"福井県","city":"敦賀市","address":"鋳物師町"},
{"zip_code":"9140844","kana_pref":"ﾌｸｲｹﾝ","kana_city":"ﾂﾙｶﾞｼ","kana_address":"ｲﾛﾊﾏ","pref":"福井県","city":"敦賀市","address":"色浜"},
{"zip_code":"9140003","kana_pref":"ﾌｸｲｹﾝ","kana_city":"ﾂﾙｶﾞｼ","kana_address":"ｳｿｺﾞｳﾁ","pref":"福井県","city":"敦賀市","address":"獺河内"},
{"zip_code":"9140843","kana_pref":"ﾌｸｲｹﾝ","kana_city":"ﾂﾙｶﾞｼ","kana_address":"ｳﾗｿｺ","pref":"福井県","city":"敦賀市","address":"浦底"},
{"zip_code":"9140825","kana_pref":"ﾌｸｲｹﾝ","kana_city":"ﾂﾙｶﾞｼ","kana_address":"ｴｲﾀﾞｲﾁｮｳ","pref":"福井県","city":"敦賀市","address":"永大町"},
{"zip_code":"9140268","kana_pref":"ﾌｸｲｹﾝ","kana_city":"ﾂﾙｶﾞｼ","kana_address":"ｴﾗ","pref":"福井県","city":"敦賀市","address":"江良"},
{"zip_code":"9140303","kana_pref":"ﾌｸｲｹﾝ","kana_city":"ﾂﾙｶﾞｼ","kana_address":"ｵｲﾜｹ","pref":"福井県","city":"敦賀市","address":"追分"},
{"zip_code":"9140018","kana_pref":"ﾌｸｲｹﾝ","kana_city":"ﾂﾙｶﾞｼ","kana_address":"ｵｵｸﾗ","pref":"福井県","city":"敦賀市","address":"大蔵"},
{"zip_code":"9140262","kana_pref":"ﾌｸｲｹﾝ","kana_city":"ﾂﾙｶﾞｼ","kana_address":"ｵｵﾋﾀﾞ","pref":"福井県","city":"敦賀市","address":"大比田"},
{"zip_code":"9140044","kana_pref":"ﾌｸｲｹﾝ","kana_city":"ﾂﾙｶﾞｼ","kana_address":"ｵｶﾔﾏﾁｮｳ","pref":"福井県","city":"敦賀市","address":"岡山町"},
{"zip_code":"9140316","kana_pref":"ﾌｸｲｹﾝ","kana_city":"ﾂﾙｶﾞｼ","kana_address":"ｵｸｱｿｳ","pref":"福井県","city":"敦賀市","address":"奥麻生"},
{"zip_code":"9140311","kana_pref":"ﾌｸｲｹﾝ","kana_city":"ﾂﾙｶﾞｼ","kana_address":"ｵｸﾉ","pref":"福井県","city":"敦賀市","address":"奥野"},
{"zip_code":"9140032","kana_pref":"ﾌｸｲｹﾝ","kana_city":"ﾂﾙｶﾞｼ","kana_address":"ｵｺﾞ","pref":"福井県","city":"敦賀市","address":"小河"},
{"zip_code":"9140034","kana_pref":"ﾌｸｲｹﾝ","kana_city":"ﾂﾙｶﾞｼ","kana_address":"ｵｺﾞｸﾞﾁ","pref":"福井県","city":"敦賀市","address":"小河口"},
{"zip_code":"9140006","kana_pref":"ﾌｸｲｹﾝ","kana_city":"ﾂﾙｶﾞｼ","kana_address":"ｵｯｻｶ","pref":"福井県","city":"敦賀市","address":"越坂"},
{"zip_code":"9140063","kana_pref":"ﾌｸｲｹﾝ","kana_city":"ﾂﾙｶﾞｼ","kana_address":"ｶｸﾞﾗﾁｮｳ","pref":"福井県","city":"敦賀市","address":"神楽町"},
{"zip_code":"9140005","kana_pref":"ﾌｸｲｹﾝ","kana_city":"ﾂﾙｶﾞｼ","kana_address":"ｶｼﾏｶﾞﾘ","pref":"福井県","city":"敦賀市","address":"樫曲"},
{"zip_code":"9140146","kana_pref":"ﾌｸｲｹﾝ","kana_city":"ﾂﾙｶﾞｼ","kana_address":"ｶﾅﾔﾏ","pref":"福井県","city":"敦賀市","address":"金山"},
{"zip_code":"9140055","kana_pref":"ﾌｸｲｹﾝ","kana_city":"ﾂﾙｶﾞｼ","kana_address":"ｶﾅﾜﾁｮｳ","pref":"福井県","city":"敦賀市","address":"鉄輪町"},
{"zip_code":"9140072","kana_pref":"ﾌｸｲｹﾝ","kana_city":"ﾂﾙｶﾞｼ","kana_address":"ｶﾈｶﾞｻｷﾁｮｳ","pref":"福井県","city":"敦賀市","address":"金ケ崎町"},
{"zip_code":"9140066","kana_pref":"ﾌｸｲｹﾝ","kana_city":"ﾂﾙｶﾞｼ","kana_address":"ｶﾜｻｷﾁｮｳ","pref":"福井県","city":"敦賀市","address":"川崎町"},
{"zip_code":"9140012","kana_pref":"ﾌｸｲｹﾝ","kana_city":"ﾂﾙｶﾞｼ","kana_address":"ｶﾜｷﾀ","pref":"福井県","city":"敦賀市","address":"川北"},
{"zip_code":"9140015","kana_pref":"ﾌｸｲｹﾝ","kana_city":"ﾂﾙｶﾞｼ","kana_address":"ｶﾜﾊﾗﾁｮｳ","pref":"福井県","city":"敦賀市","address":"河原町"},
{"zip_code":"9140039","kana_pref":"ﾌｸｲｹﾝ","kana_city":"ﾂﾙｶﾞｼ","kana_address":"ｶﾝﾉﾝﾁｮｳ","pref":"福井県","city":"敦賀市","address":"観音町"},
{"zip_code":"9140814","kana_pref":"ﾌｸｲｹﾝ","kana_city":"ﾂﾙｶﾞｼ","kana_address":"ｷｻﾞｷ","pref":"福井県","city":"敦賀市","address":"木崎"},
{"zip_code":"9140043","kana_pref":"ﾌｸｲｹﾝ","kana_city":"ﾂﾙｶﾞｼ","kana_address":"ｷﾇｶｹﾁｮｳ","pref":"福井県","city":"敦賀市","address":"衣掛町"},
{"zip_code":"9140026","kana_pref":"ﾌｸｲｹﾝ","kana_city":"ﾂﾙｶﾞｼ","kana_address":"ｷﾉﾒﾁｮｳ","pref":"福井県","city":"敦賀市","address":"木ノ芽町"},
{"zip_code":"9140052","kana_pref":"ﾌｸｲｹﾝ","kana_city":"ﾂﾙｶﾞｼ","kana_address":"ｷﾖﾐｽﾞﾁｮｳ","pref":"福井県","city":"敦賀市","address":"清水町"},
{"zip_code":"9140821","kana_pref":"ﾌｸｲｹﾝ","kana_city":"ﾂﾙｶﾞｼ","kana_address":"ｸｼｶﾜ","pref":"福井県","city":"敦賀市","address":"櫛川"},
{"zip_code":"9140822","kana_pref":"ﾌｸｲｹﾝ","kana_city":"ﾂﾙｶﾞｼ","kana_address":"ｸｼｶﾜﾁｮｳ","pref":"福井県","city":"敦賀市","address":"櫛川町"},
{"zip_code":"9140138","kana_pref":"ﾌｸｲｹﾝ","kana_city":"ﾂﾙｶﾞｼ","kana_address":"ｸｼﾊﾞﾔｼ","pref":"福井県","city":"敦賀市","address":"櫛林"},
{"zip_code":"9140831","kana_pref":"ﾌｸｲｹﾝ","kana_city":"ﾂﾙｶﾞｼ","kana_address":"ｸﾂ","pref":"福井県","city":"敦賀市","address":"沓"},
{"zip_code":"9140823","kana_pref":"ﾌｸｲｹﾝ","kana_city":"ﾂﾙｶﾞｼ","kana_address":"ｸﾂﾐ","pref":"福井県","city":"敦賀市","address":"沓見"},
{"zip_code":"9140059","kana_pref":"ﾌｸｲｹﾝ","kana_city":"ﾂﾙｶﾞｼ","kana_address":"ｸﾆﾋﾛﾁｮｳ","pref":"福井県","city":"敦賀市","address":"国広町"},
{"zip_code":"9140131","kana_pref":"ﾌｸｲｹﾝ","kana_city":"ﾂﾙｶﾞｼ","kana_address":"ｸﾓﾝﾐｮｳ","pref":"福井県","city":"敦賀市","address":"公文名"},
{"zip_code":"9140802","kana_pref":"ﾌｸｲｹﾝ","kana_city":"ﾂﾙｶﾞｼ","kana_address":"ｸﾚﾀｹﾁｮｳ","pref":"福井県","city":"敦賀市","address":"呉竹町"},
{"zip_code":"9140813","kana_pref":"ﾌｸｲｹﾝ","kana_city":"ﾂﾙｶﾞｼ","kana_address":"ｸﾚﾊﾁｮｳ","pref":"福井県","city":"敦賀市","address":"呉羽町"},
{"zip_code":"9140045","kana_pref":"ﾌｸｲｹﾝ","kana_city":"ﾂﾙｶﾞｼ","kana_address":"ｺﾀｶﾘ","pref":"福井県","city":"敦賀市","address":"古田刈"},
{"zip_code":"9140132","kana_pref":"ﾌｸｲｹﾝ","kana_city":"ﾂﾙｶﾞｼ","kana_address":"ｺﾞﾐｮｳ","pref":"福井県","city":"敦賀市","address":"御名"},
{"zip_code":"9140077","kana_pref":"ﾌｸｲｹﾝ","kana_city":"ﾂﾙｶﾞｼ","kana_address":"ｻｶｴｼﾝﾏﾁ","pref":"福井県","city":"敦賀市","address":"栄新町"},
{"zip_code":"9140038","kana_pref":"ﾌｸｲｹﾝ","kana_city":"ﾂﾙｶﾞｼ","kana_address":"ｻｶﾉｼﾀ","pref":"福井県","city":"敦賀市","address":"坂下"},
{"zip_code":"9140144","kana_pref":"ﾌｸｲｹﾝ","kana_city":"ﾂﾙｶﾞｼ","kana_address":"ｻｸﾗｶﾞｵｶﾁｮｳ","pref":"福井県","city":"敦賀市","address":"桜ケ丘町"},
{"zip_code":"9140078","kana_pref":"ﾌｸｲｹﾝ","kana_city":"ﾂﾙｶﾞｼ","kana_address":"ｻｸﾗﾁｮｳ","pref":"福井県","city":"敦賀市","address":"桜町"},
{"zip_code":"9140143","kana_pref":"ﾌｸｲｹﾝ","kana_city":"ﾂﾙｶﾞｼ","kana_address":"ｻﾜ","pref":"福井県","city":"敦賀市","address":"沢"},
{"zip_code":"9140071","kana_pref":"ﾌｸｲｹﾝ","kana_city":"ﾂﾙｶﾞｼ","kana_address":"ｼﾐｽﾞ","pref":"福井県","city":"敦賀市","address":"泉"},
{"zip_code":"9140271","kana_pref":"ﾌｸｲｹﾝ","kana_city":"ﾂﾙｶﾞｼ","kana_address":"ｼﾐｽﾞ","pref":"福井県","city":"敦賀市","address":"泉"},
{"zip_code":"9140832","kana_pref":"ﾌｸｲｹﾝ","kana_city":"ﾂﾙｶﾞｼ","kana_address":"ｼﾞｮｳｸﾞｳ","pref":"福井県","city":"敦賀市","address":"常宮"},
{"zip_code":"9140812","kana_pref":"ﾌｸｲｹﾝ","kana_city":"ﾂﾙｶﾞｼ","kana_address":"ｼｮｳﾜﾁｮｳ","pref":"福井県","city":"敦賀市","address":"昭和町"},
{"zip_code":"9140054","kana_pref":"ﾌｸｲｹﾝ","kana_city":"ﾂﾙｶﾞｼ","kana_address":"ｼﾛｶﾞﾈﾁｮｳ","pref":"福井県","city":"敦賀市","address":"白銀町"},
{"zip_code":"9140317","kana_pref":"ﾌｸｲｹﾝ","kana_city":"ﾂﾙｶﾞｼ","kana_address":"ｼﾝﾄﾞｳ","pref":"福井県","city":"敦賀市","address":"新道"},
{"zip_code":"9140001","kana_pref":"ﾌｸｲｹﾝ","kana_city":"ﾂﾙｶﾞｼ","kana_address":"ｼﾝﾎﾞ","pref":"福井県","city":"敦賀市","address":"新保"},
{"zip_code":"9140803","kana_pref":"ﾌｸｲｹﾝ","kana_city":"ﾂﾙｶﾞｼ","kana_address":"ｼﾝﾏﾂｼﾏﾁｮｳ","pref":"福井県","city":"敦賀市","address":"新松島町"},
{"zip_code":"9140122","kana_pref":"ﾌｸｲｹﾝ","kana_city":"ﾂﾙｶﾞｼ","kana_address":"ｼﾝﾜﾁｮｳ","pref":"福井県","city":"敦賀市","address":"新和町"},
{"zip_code":"9140264","kana_pref":"ﾌｸｲｹﾝ","kana_city":"ﾂﾙｶﾞｼ","kana_address":"ｽｲﾂﾞ","pref":"福井県","city":"敦賀市","address":"杉津"},
{"zip_code":"9140314","kana_pref":"ﾌｸｲｹﾝ","kana_city":"ﾂﾙｶﾞｼ","kana_address":"ｽｷﾞﾊｼ","pref":"福井県","city":"敦賀市","address":"杉箸"},
{"zip_code":"9140136","kana_pref":"ﾌｸｲｹﾝ","kana_city":"ﾂﾙｶﾞｼ","kana_address":"ｽﾅｶﾞﾚ","pref":"福井県","city":"敦賀市","address":"砂流"},
{"zip_code":"9140147","kana_pref":"ﾌｸｲｹﾝ","kana_city":"ﾂﾙｶﾞｼ","kana_address":"ｾｷ","pref":"福井県","city":"敦賀市","address":"関"},
{"zip_code":"9140312","kana_pref":"ﾌｸｲｹﾝ","kana_city":"ﾂﾙｶﾞｼ","kana_address":"ｿｿｷﾞ","pref":"福井県","city":"敦賀市","address":"曽々木"},
{"zip_code":"9140273","kana_pref":"ﾌｸｲｹﾝ","kana_city":"ﾂﾙｶﾞｼ","kana_address":"ﾀｲ","pref":"福井県","city":"敦賀市","address":"田結"},
{"zip_code":"9140022","kana_pref":"ﾌｸｲｹﾝ","kana_city":"ﾂﾙｶﾞｼ","kana_address":"ﾀｶﾉ","pref":"福井県","city":"敦賀市","address":"高野"},
{"zip_code":"9140305","kana_pref":"ﾌｸｲｹﾝ","kana_city":"ﾂﾙｶﾞｼ","kana_address":"ﾀﾞｸﾞﾁ","pref":"福井県","city":"敦賀市","address":"駄口"},
{"zip_code":"9140007","kana_pref":"ﾌｸｲｹﾝ","kana_city":"ﾂﾙｶﾞｼ","kana_address":"ﾀｼﾞﾘ","pref":"福井県","city":"敦賀市","address":"田尻"},
{"zip_code":"9140841","kana_pref":"ﾌｸｲｹﾝ","kana_city":"ﾂﾙｶﾞｼ","kana_address":"ﾀﾃｲｼ","pref":"福井県","city":"敦賀市","address":"立石"},
{"zip_code":"9140031","kana_pref":"ﾌｸｲｹﾝ","kana_city":"ﾂﾙｶﾞｼ","kana_address":"ﾀﾆ","pref":"福井県","city":"敦賀市","address":"谷"},
{"zip_code":"9140013","kana_pref":"ﾌｸｲｹﾝ","kana_city":"ﾂﾙｶﾞｼ","kana_address":"ﾀﾆｸﾞﾁ","pref":"福井県","city":"敦賀市","address":"谷口"},
{"zip_code":"9140811","kana_pref":"ﾌｸｲｹﾝ","kana_city":"ﾂﾙｶﾞｼ","kana_address":"ﾁｭｳｵｳﾁｮｳ","pref":"福井県","city":"敦賀市","address":"中央町"},
{"zip_code":"9140056","kana_pref":"ﾌｸｲｹﾝ","kana_city":"ﾂﾙｶﾞｼ","kana_address":"ﾂﾅｲﾁｮｳ","pref":"福井県","city":"敦賀市","address":"津内町"},
{"zip_code":"9140074","kana_pref":"ﾌｸｲｹﾝ","kana_city":"ﾂﾙｶﾞｼ","kana_address":"ﾂﾉｶﾞﾁｮｳ","pref":"福井県","city":"敦賀市","address":"角鹿町"},
{"zip_code":"9140845","kana_pref":"ﾌｸｲｹﾝ","kana_city":"ﾂﾙｶﾞｼ","kana_address":"ﾃ","pref":"福井県","city":"敦賀市","address":"手"},
{"zip_code":"9140073","kana_pref":"ﾌｸｲｹﾝ","kana_city":"ﾂﾙｶﾞｼ","kana_address":"ﾃﾂﾞﾂﾁｮｳ","pref":"福井県","city":"敦賀市","address":"天筒町"},
{"zip_code":"9140036","kana_pref":"ﾌｸｲｹﾝ","kana_city":"ﾂﾙｶﾞｼ","kana_address":"ﾄﾞｳ","pref":"福井県","city":"敦賀市","address":"堂"},
{"zip_code":"9140047","kana_pref":"ﾌｸｲｹﾝ","kana_city":"ﾂﾙｶﾞｼ","kana_address":"ﾄｳﾖｳﾁｮｳ","pref":"福井県","city":"敦賀市","address":"東洋町"},
{"zip_code":"9140313","kana_pref":"ﾌｸｲｹﾝ","kana_city":"ﾂﾙｶﾞｼ","kana_address":"ﾄﾈ","pref":"福井県","city":"敦賀市","address":"刀根"},
{"zip_code":"9140028","kana_pref":"ﾌｸｲｹﾝ","kana_city":"ﾂﾙｶﾞｼ","kana_address":"ﾅｶ","pref":"福井県","city":"敦賀市","address":"中"},
{"zip_code":"9140046","kana_pref":"ﾌｸｲｹﾝ","kana_city":"ﾂﾙｶﾞｼ","kana_address":"ﾅｶﾞｿ","pref":"福井県","city":"敦賀市","address":"長沢"},
{"zip_code":"9140135","kana_pref":"ﾌｸｲｹﾝ","kana_city":"ﾂﾙｶﾞｼ","kana_address":"ﾅｶﾞﾀﾆ","pref":"福井県","city":"敦賀市","address":"長谷"},
{"zip_code":"9140834","kana_pref":"ﾌｸｲｹﾝ","kana_city":"ﾂﾙｶﾞｼ","kana_address":"ﾅｺﾞ","pref":"福井県","city":"敦賀市","address":"名子"},
{"zip_code":"9140041","kana_pref":"ﾌｸｲｹﾝ","kana_city":"ﾂﾙｶﾞｼ","kana_address":"ﾇﾉﾀﾞﾁｮｳ","pref":"福井県","city":"敦賀市","address":"布田町"},
{"zip_code":"9140833","kana_pref":"ﾌｸｲｹﾝ","kana_city":"ﾂﾙｶﾞｼ","kana_address":"ﾉｳﾏ","pref":"福井県","city":"敦賀市","address":"縄間"},
{"zip_code":"9140121","kana_pref":"ﾌｸｲｹﾝ","kana_city":"ﾂﾙｶﾞｼ","kana_address":"ﾉｶﾞﾐ","pref":"福井県","city":"敦賀市","address":"野神"},
{"zip_code":"9140145","kana_pref":"ﾌｸｲｹﾝ","kana_city":"ﾂﾙｶﾞｼ","kana_address":"ﾉｻｶ","pref":"福井県","city":"敦賀市","address":"野坂"},
{"zip_code":"9140039","kana_pref":"ﾌｸｲｹﾝ","kana_city":"ﾂﾙｶﾞｼ","kana_address":"ﾊｵﾘﾁｮｳ","pref":"福井県","city":"敦賀市","address":"羽織町"},
{"zip_code":"9140142","kana_pref":"ﾌｸｲｹﾝ","kana_city":"ﾂﾙｶﾞｼ","kana_address":"ﾊｷﾞﾉﾁｮｳ","pref":"福井県","city":"敦賀市","address":"萩野町"},
{"zip_code":"9140033","kana_pref":"ﾌｸｲｹﾝ","kana_city":"ﾂﾙｶﾞｼ","kana_address":"ﾊﾄﾊﾗ","pref":"福井県","city":"敦賀市","address":"鳩原"},
{"zip_code":"9140002","kana_pref":"ﾌｸｲｹﾝ","kana_city":"ﾂﾙｶﾞｼ","kana_address":"ﾊﾊﾞﾗ","pref":"福井県","city":"敦賀市","address":"葉原"},
{"zip_code":"9140824","kana_pref":"ﾌｸｲｹﾝ","kana_city":"ﾂﾙｶﾞｼ","kana_address":"ﾊﾗ","pref":"福井県","city":"敦賀市","address":"原"},
{"zip_code":"9140302","kana_pref":"ﾌｸｲｹﾝ","kana_city":"ﾂﾙｶﾞｼ","kana_address":"ﾋｷﾀﾞ","pref":"福井県","city":"敦賀市","address":"疋田"},
{"zip_code":"9140025","kana_pref":"ﾌｸｲｹﾝ","kana_city":"ﾂﾙｶﾞｼ","kana_address":"ﾋﾉﾐｽﾞﾁｮｳ","pref":"福井県","city":"敦賀市","address":"樋ノ水町"},
{"zip_code":"9140137","kana_pref":"ﾌｸｲｹﾝ","kana_city":"ﾂﾙｶﾞｼ","kana_address":"ﾋﾊﾞﾘｶﾞｵｶﾁｮｳ","pref":"福井県","city":"敦賀市","address":"ひばりケ丘町"},
{"zip_code":"9140057","kana_pref":"ﾌｸｲｹﾝ","kana_city":"ﾂﾙｶﾞｼ","kana_address":"ﾋﾗｷﾁｮｳ","pref":"福井県","city":"敦賀市","address":"開町"},
{"zip_code":"9140023","kana_pref":"ﾌｸｲｹﾝ","kana_city":"ﾂﾙｶﾞｼ","kana_address":"ﾌｶｶﾞﾜﾁｮｳ","pref":"福井県","city":"敦賀市","address":"深川町"},
{"zip_code":"9140304","kana_pref":"ﾌｸｲｹﾝ","kana_city":"ﾂﾙｶﾞｼ","kana_address":"ﾌｶｻｶ","pref":"福井県","city":"敦賀市","address":"深坂"},
{"zip_code":"9140017","kana_pref":"ﾌｸｲｹﾝ","kana_city":"ﾂﾙｶﾞｼ","kana_address":"ﾌｼﾞｶﾞｵｶﾁｮｳ","pref":"福井県","city":"敦賀市","address":"藤ケ丘町"},
{"zip_code":"9140835","kana_pref":"ﾌｸｲｹﾝ","kana_city":"ﾂﾙｶﾞｼ","kana_address":"ﾌﾀﾑﾗ","pref":"福井県","city":"敦賀市","address":"二村"},
{"zip_code":"9140815","kana_pref":"ﾌｸｲｹﾝ","kana_city":"ﾂﾙｶﾞｼ","kana_address":"ﾍｲﾜﾁｮｳ","pref":"福井県","city":"敦賀市","address":"平和町"},
{"zip_code":"9140061","kana_pref":"ﾌｸｲｹﾝ","kana_city":"ﾂﾙｶﾞｼ","kana_address":"ﾎｳﾗｲﾁｮｳ","pref":"福井県","city":"敦賀市","address":"蓬莱町"},
{"zip_code":"9140051","kana_pref":"ﾌｸｲｹﾝ","kana_city":"ﾂﾙｶﾞｼ","kana_address":"ﾎﾝﾏﾁ","pref":"福井県","city":"敦賀市","address":"本町"},
{"zip_code":"9140053","kana_pref":"ﾌｸｲｹﾝ","kana_city":"ﾂﾙｶﾞｼ","kana_address":"ﾏｲｻﾞｷﾁｮｳ","pref":"福井県","city":"敦賀市","address":"舞崎町"},
{"zip_code":"9140065","kana_pref":"ﾌｸｲｹﾝ","kana_city":"ﾂﾙｶﾞｼ","kana_address":"ﾏﾂｴﾁｮｳ","pref":"福井県","city":"敦賀市","address":"松栄町"},
{"zip_code":"9140801","kana_pref":"ﾌｸｲｹﾝ","kana_city":"ﾂﾙｶﾞｼ","kana_address":"ﾏﾂｼﾏﾁｮｳ","pref":"福井県","city":"敦賀市","address":"松島町"},
{"zip_code":"9140807","kana_pref":"ﾌｸｲｹﾝ","kana_city":"ﾂﾙｶﾞｼ","kana_address":"ﾏﾂﾊﾞﾁｮｳ","pref":"福井県","city":"敦賀市","address":"松葉町"},
{"zip_code":"9140806","kana_pref":"ﾌｸｲｹﾝ","kana_city":"ﾂﾙｶﾞｼ","kana_address":"ﾏﾂﾊﾞﾗﾁｮｳ","pref":"福井県","city":"敦賀市","address":"松原町"},
{"zip_code":"9140274","kana_pref":"ﾌｸｲｹﾝ","kana_city":"ﾂﾙｶﾞｼ","kana_address":"ﾏﾙﾔﾏ","pref":"福井県","city":"敦賀市","address":"鞠山"},
{"zip_code":"9140058","kana_pref":"ﾌｸｲｹﾝ","kana_city":"ﾂﾙｶﾞｼ","kana_address":"ﾐｼﾏﾁｮｳ","pref":"福井県","city":"敦賀市","address":"三島町"},
{"zip_code":"9140037","kana_pref":"ﾌｸｲｹﾝ","kana_city":"ﾂﾙｶﾞｼ","kana_address":"ﾐﾁﾉｸﾁ","pref":"福井県","city":"敦賀市","address":"道口"},
{"zip_code":"9140133","kana_pref":"ﾌｸｲｹﾝ","kana_city":"ﾂﾙｶﾞｼ","kana_address":"ﾐﾄﾞﾘｶﾞｵｶﾁｮｳ","pref":"福井県","city":"敦賀市","address":"みどりケ丘町"},
{"zip_code":"9140079","kana_pref":"ﾌｸｲｹﾝ","kana_city":"ﾂﾙｶﾞｼ","kana_address":"ﾐﾅﾄﾏﾁ","pref":"福井県","city":"敦賀市","address":"港町"},
{"zip_code":"9140011","kana_pref":"ﾌｸｲｹﾝ","kana_city":"ﾂﾙｶﾞｼ","kana_address":"ﾐﾔﾏﾃﾞﾗ","pref":"福井県","city":"敦賀市","address":"深山寺"},
{"zip_code":"9140842","kana_pref":"ﾌｸｲｹﾝ","kana_city":"ﾂﾙｶﾞｼ","kana_address":"ﾐｮｳｼﾞﾝﾁｮｳ","pref":"福井県","city":"敦賀市","address":"明神町"},
{"zip_code":"9140261","kana_pref":"ﾌｸｲｹﾝ","kana_city":"ﾂﾙｶﾞｼ","kana_address":"ﾓﾄﾋﾀﾞ","pref":"福井県","city":"敦賀市","address":"元比田"},
{"zip_code":"9140076","kana_pref":"ﾌｸｲｹﾝ","kana_city":"ﾂﾙｶﾞｼ","kana_address":"ﾓﾄﾏﾁ","pref":"福井県","city":"敦賀市","address":"元町"},
{"zip_code":"9140134","kana_pref":"ﾌｸｲｹﾝ","kana_city":"ﾂﾙｶﾞｼ","kana_address":"ﾔﾏ","pref":"福井県","city":"敦賀市","address":"山"},
{"zip_code":"9140035","kana_pref":"ﾌｸｲｹﾝ","kana_city":"ﾂﾙｶﾞｼ","kana_address":"ﾔﾏｼﾐｽﾞ","pref":"福井県","city":"敦賀市","address":"山泉"},
{"zip_code":"9140306","kana_pref":"ﾌｸｲｹﾝ","kana_city":"ﾂﾙｶﾞｼ","kana_address":"ﾔﾏﾅｶ","pref":"福井県","city":"敦賀市","address":"山中"},
{"zip_code":"9140064","kana_pref":"ﾌｸｲｹﾝ","kana_city":"ﾂﾙｶﾞｼ","kana_address":"ﾕｳｷﾁｮｳ","pref":"福井県","city":"敦賀市","address":"結城町"},
{"zip_code":"9140263","kana_pref":"ﾌｸｲｹﾝ","kana_city":"ﾂﾙｶﾞｼ","kana_address":"ﾖｺﾊﾏ","pref":"福井県","city":"敦賀市","address":"横浜"},
{"zip_code":"9140016","kana_pref":"ﾌｸｲｹﾝ","kana_city":"ﾂﾙｶﾞｼ","kana_address":"ﾖｻﾞ","pref":"福井県","city":"敦賀市","address":"余座"},
{"zip_code":"9140024","kana_pref":"ﾌｸｲｹﾝ","kana_city":"ﾂﾙｶﾞｼ","kana_address":"ﾖｼｺ","pref":"福井県","city":"敦賀市","address":"吉河"},
{"zip_code":"9140027","kana_pref":"ﾌｸｲｹﾝ","kana_city":"ﾂﾙｶﾞｼ","kana_address":"ﾜｶｲｽﾞﾐﾁｮｳ","pref":"福井県","city":"敦賀市","address":"若泉町"},
{"zip_code":"9140125","kana_pref":"ﾌｸｲｹﾝ","kana_city":"ﾂﾙｶﾞｼ","kana_address":"ﾜｶﾊﾞﾁｮｳ","pref":"福井県","city":"敦賀市","address":"若葉町"},
{"zip_code":"9140123","kana_pref":"ﾌｸｲｹﾝ","kana_city":"ﾂﾙｶﾞｼ","kana_address":"ﾜｸﾉ","pref":"福井県","city":"敦賀市","address":"和久野"}]}