{"zip_code":[
{"zip_code":"9170000","kana_pref":"ﾌｸｲｹﾝ","kana_city":"ｵﾊﾞﾏｼ","kana_address":"","pref":"福井県","city":"小浜市","address":""},
{"zip_code":"9170037","kana_pref":"ﾌｸｲｹﾝ","kana_city":"ｵﾊﾞﾏｼ","kana_address":"ｱｲｵｲ","pref":"福井県","city":"小浜市","address":"相生"},
{"zip_code":"9170041","kana_pref":"ﾌｸｲｹﾝ","kana_city":"ｵﾊﾞﾏｼ","kana_address":"ｱｵｲ","pref":"福井県","city":"小浜市","address":"青井"},
{"zip_code":"9170105","kana_pref":"ﾌｸｲｹﾝ","kana_city":"ｵﾊﾞﾏｼ","kana_address":"ｱﾉ","pref":"福井県","city":"小浜市","address":"阿納"},
{"zip_code":"9170106","kana_pref":"ﾌｸｲｹﾝ","kana_city":"ｵﾊﾞﾏｼ","kana_address":"ｱﾉｼﾞﾘ","pref":"福井県","city":"小浜市","address":"阿納尻"},
{"zip_code":"9170044","kana_pref":"ﾌｸｲｹﾝ","kana_city":"ｵﾊﾞﾏｼ","kana_address":"ｱﾗｷ","pref":"福井県","city":"小浜市","address":"荒木"},
{"zip_code":"9170238","kana_pref":"ﾌｸｲｹﾝ","kana_city":"ｵﾊﾞﾏｼ","kana_address":"ｲｹﾉｺｳﾁ","pref":"福井県","city":"小浜市","address":"池河内"},
{"zip_code":"9170241","kana_pref":"ﾌｸｲｹﾝ","kana_city":"ｵﾊﾞﾏｼ","kana_address":"ｲｹﾀﾞ","pref":"福井県","city":"小浜市","address":"池田"},
{"zip_code":"9170027","kana_pref":"ﾌｸｲｹﾝ","kana_city":"ｵﾊﾞﾏｼ","kana_address":"ｲｺﾞﾓﾘ","pref":"福井県","city":"小浜市","address":"生守"},
{"zip_code":"9170027","kana_pref":"ﾌｸｲｹﾝ","kana_city":"ｵﾊﾞﾏｼ","kana_address":"ｲｺﾞﾓﾘﾀﾞﾝﾁ","pref":"福井県","city":"小浜市","address":"生守団地"},
{"zip_code":"9170005","kana_pref":"ﾌｸｲｹﾝ","kana_city":"ｵﾊﾞﾏｼ","kana_address":"ｲﾀﾔﾏﾁ","pref":"福井県","city":"小浜市","address":"板屋町"},
{"zip_code":"9170241","kana_pref":"ﾌｸｲｹﾝ","kana_city":"ｵﾊﾞﾏｼ","kana_address":"ｲﾁﾊﾞ","pref":"福井県","city":"小浜市","address":"市場"},
{"zip_code":"9170071","kana_pref":"ﾌｸｲｹﾝ","kana_city":"ｵﾊﾞﾏｼ","kana_address":"ｲﾁﾊﾞﾝﾁｮｳ","pref":"福井県","city":"小浜市","address":"一番町"},
{"zip_code":"9170104","kana_pref":"ﾌｸｲｹﾝ","kana_city":"ｵﾊﾞﾏｼ","kana_address":"ｲﾉｸﾏ","pref":"福井県","city":"小浜市","address":"犬熊"},
{"zip_code":"9170234","kana_pref":"ﾌｸｲｹﾝ","kana_city":"ｵﾊﾞﾏｼ","kana_address":"ｳｴﾉ","pref":"福井県","city":"小浜市","address":"上野"},
{"zip_code":"9170113","kana_pref":"ﾌｸｲｹﾝ","kana_city":"ｵﾊﾞﾏｼ","kana_address":"ｳｸﾞ","pref":"福井県","city":"小浜市","address":"宇久"},
{"zip_code":"9170096","kana_pref":"ﾌｸｲｹﾝ","kana_city":"ｵﾊﾞﾏｼ","kana_address":"ｳﾝﾋﾟﾝ","pref":"福井県","city":"小浜市","address":"雲浜"},
{"zip_code":"9170077","kana_pref":"ﾌｸｲｹﾝ","kana_city":"ｵﾊﾞﾏｼ","kana_address":"ｴｷﾏｴﾁｮｳ","pref":"福井県","city":"小浜市","address":"駅前町"},
{"zip_code":"9170017","kana_pref":"ﾌｸｲｹﾝ","kana_city":"ｵﾊﾞﾏｼ","kana_address":"ｴｺﾞｶﾞﾜ","pref":"福井県","city":"小浜市","address":"江古川"},
{"zip_code":"9170221","kana_pref":"ﾌｸｲｹﾝ","kana_city":"ｵﾊﾞﾏｼ","kana_address":"ｵｵﾀﾆ","pref":"福井県","city":"小浜市","address":"大谷"},
{"zip_code":"9170078","kana_pref":"ﾌｸｲｹﾝ","kana_city":"ｵﾊﾞﾏｼ","kana_address":"ｵｵﾃﾁｮｳ","pref":"福井県","city":"小浜市","address":"大手町"},
{"zip_code":"9170223","kana_pref":"ﾌｸｲｹﾝ","kana_city":"ｵﾊﾞﾏｼ","kana_address":"ｵｵﾄﾞ","pref":"福井県","city":"小浜市","address":"大戸"},
{"zip_code":"9170004","kana_pref":"ﾌｸｲｹﾝ","kana_city":"ｵﾊﾞﾏｼ","kana_address":"ｵｵﾐﾅﾄ","pref":"福井県","city":"小浜市","address":"大湊"},
{"zip_code":"9170034","kana_pref":"ﾌｸｲｹﾝ","kana_city":"ｵﾊﾞﾏｼ","kana_address":"ｵｸﾀﾞﾉ","pref":"福井県","city":"小浜市","address":"奥田縄"},
{"zip_code":"9170046","kana_pref":"ﾌｸｲｹﾝ","kana_city":"ｵﾊﾞﾏｼ","kana_address":"ｵｺﾂﾞ","pref":"福井県","city":"小浜市","address":"岡津"},
{"zip_code":"9170032","kana_pref":"ﾌｸｲｹﾝ","kana_city":"ｵﾊﾞﾏｼ","kana_address":"ｵｻﾞｷ","pref":"福井県","city":"小浜市","address":"尾崎"},
{"zip_code":"9170241","kana_pref":"ﾌｸｲｹﾝ","kana_city":"ｵﾊﾞﾏｼ","kana_address":"ｵﾆｭｳ","pref":"福井県","city":"小浜市","address":"遠敷"},
{"zip_code":"9170055","kana_pref":"ﾌｸｲｹﾝ","kana_city":"ｵﾊﾞﾏｼ","kana_address":"ｵﾊﾞﾏｱｻﾏ","pref":"福井県","city":"小浜市","address":"小浜浅間"},
{"zip_code":"9170057","kana_pref":"ﾌｸｲｹﾝ","kana_city":"ｵﾊﾞﾏｼ","kana_address":"ｵﾊﾞﾏｱｽｶ","pref":"福井県","city":"小浜市","address":"小浜飛鳥"},
{"zip_code":"9170085","kana_pref":"ﾌｸｲｹﾝ","kana_city":"ｵﾊﾞﾏｼ","kana_address":"ｵﾊﾞﾏｲｸﾀﾞﾏ","pref":"福井県","city":"小浜市","address":"小浜生玉"},
{"zip_code":"9170062","kana_pref":"ﾌｸｲｹﾝ","kana_city":"ｵﾊﾞﾏｼ","kana_address":"ｵﾊﾞﾏｲﾏﾐﾔ","pref":"福井県","city":"小浜市","address":"小浜今宮"},
{"zip_code":"9170056","kana_pref":"ﾌｸｲｹﾝ","kana_city":"ｵﾊﾞﾏｼ","kana_address":"ｵﾊﾞﾏｵｵﾊﾗ","pref":"福井県","city":"小浜市","address":"小浜大原"},
{"zip_code":"9170053","kana_pref":"ﾌｸｲｹﾝ","kana_city":"ｵﾊﾞﾏｼ","kana_address":"ｵﾊﾞﾏｵｵﾐﾔ","pref":"福井県","city":"小浜市","address":"小浜大宮"},
{"zip_code":"9170052","kana_pref":"ﾌｸｲｹﾝ","kana_city":"ｵﾊﾞﾏｼ","kana_address":"ｵﾊﾞﾏｵﾄｺﾔﾏ","pref":"福井県","city":"小浜市","address":"小浜男山"},
{"zip_code":"9170067","kana_pref":"ﾌｸｲｹﾝ","kana_city":"ｵﾊﾞﾏｼ","kana_address":"ｵﾊﾞﾏｶｼﾏ","pref":"福井県","city":"小浜市","address":"小浜鹿島"},
{"zip_code":"9170058","kana_pref":"ﾌｸｲｹﾝ","kana_city":"ｵﾊﾞﾏｼ","kana_address":"ｵﾊﾞﾏｶﾄﾘ","pref":"福井県","city":"小浜市","address":"小浜香取"},
{"zip_code":"9170066","kana_pref":"ﾌｸｲｹﾝ","kana_city":"ｵﾊﾞﾏｼ","kana_address":"ｵﾊﾞﾏｶﾝﾀﾞ","pref":"福井県","city":"小浜市","address":"小浜神田"},
{"zip_code":"9170059","kana_pref":"ﾌｸｲｹﾝ","kana_city":"ｵﾊﾞﾏｼ","kana_address":"ｵﾊﾞﾏｷﾌﾈ","pref":"福井県","city":"小浜市","address":"小浜貴船"},
{"zip_code":"9170083","kana_pref":"ﾌｸｲｹﾝ","kana_city":"ｵﾊﾞﾏｼ","kana_address":"ｵﾊﾞﾏｷﾖﾀｷ","pref":"福井県","city":"小浜市","address":"小浜清滝"},
{"zip_code":"9170063","kana_pref":"ﾌｸｲｹﾝ","kana_city":"ｵﾊﾞﾏｼ","kana_address":"ｵﾊﾞﾏｻｶｲ","pref":"福井県","city":"小浜市","address":"小浜酒井"},
{"zip_code":"9170086","kana_pref":"ﾌｸｲｹﾝ","kana_city":"ｵﾊﾞﾏｼ","kana_address":"ｵﾊﾞﾏｼｵｶﾞﾏ","pref":"福井県","city":"小浜市","address":"小浜塩竈"},
{"zip_code":"9170051","kana_pref":"ﾌｸｲｹﾝ","kana_city":"ｵﾊﾞﾏｼ","kana_address":"ｵﾊﾞﾏｼﾗﾄﾘ","pref":"福井県","city":"小浜市","address":"小浜白鳥"},
{"zip_code":"9170069","kana_pref":"ﾌｸｲｹﾝ","kana_city":"ｵﾊﾞﾏｼ","kana_address":"ｵﾊﾞﾏｼﾗﾋｹﾞ","pref":"福井県","city":"小浜市","address":"小浜白鬚"},
{"zip_code":"9170087","kana_pref":"ﾌｸｲｹﾝ","kana_city":"ｵﾊﾞﾏｼ","kana_address":"ｵﾊﾞﾏｽｽﾞｶ","pref":"福井県","city":"小浜市","address":"小浜鈴鹿"},
{"zip_code":"9170065","kana_pref":"ﾌｸｲｹﾝ","kana_city":"ｵﾊﾞﾏｼ","kana_address":"ｵﾊﾞﾏｽﾐﾖｼ","pref":"福井県","city":"小浜市","address":"小浜住吉"},
{"zip_code":"9170088","kana_pref":"ﾌｸｲｹﾝ","kana_city":"ｵﾊﾞﾏｼ","kana_address":"ｵﾊﾞﾏﾀｶﾞ","pref":"福井県","city":"小浜市","address":"小浜多賀"},
{"zip_code":"9170064","kana_pref":"ﾌｸｲｹﾝ","kana_city":"ｵﾊﾞﾏｼ","kana_address":"ｵﾊﾞﾏﾀﾂﾀ","pref":"福井県","city":"小浜市","address":"小浜竜田"},
{"zip_code":"9170061","kana_pref":"ﾌｸｲｹﾝ","kana_city":"ｵﾊﾞﾏｼ","kana_address":"ｵﾊﾞﾏﾀﾏﾏｴ","pref":"福井県","city":"小浜市","address":"小浜玉前"},
{"zip_code":"9170082","kana_pref":"ﾌｸｲｹﾝ","kana_city":"ｵﾊﾞﾏｼ","kana_address":"ｵﾊﾞﾏﾂｼﾏ","pref":"福井県","city":"小浜市","address":"小浜津島"},
{"zip_code":"9170068","kana_pref":"ﾌｸｲｹﾝ","kana_city":"ｵﾊﾞﾏｼ","kana_address":"ｵﾊﾞﾏﾋﾖｼ","pref":"福井県","city":"小浜市","address":"小浜日吉"},
{"zip_code":"9170084","kana_pref":"ﾌｸｲｹﾝ","kana_city":"ｵﾊﾞﾏｼ","kana_address":"ｵﾊﾞﾏﾋﾛﾐﾈ","pref":"福井県","city":"小浜市","address":"小浜広峰"},
{"zip_code":"9170357","kana_pref":"ﾌｸｲｹﾝ","kana_city":"ｵﾊﾞﾏｼ","kana_address":"ｵﾔ","pref":"福井県","city":"小浜市","address":"小屋"},
{"zip_code":"9170112","kana_pref":"ﾌｸｲｹﾝ","kana_city":"ｵﾊﾞﾏｼ","kana_address":"ｶｵ","pref":"福井県","city":"小浜市","address":"加尾"},
{"zip_code":"9170003","kana_pref":"ﾌｸｲｹﾝ","kana_city":"ｵﾊﾞﾏｼ","kana_address":"ｶﾞｸｴﾝﾁｮｳ","pref":"福井県","city":"小浜市","address":"学園町"},
{"zip_code":"9170116","kana_pref":"ﾌｸｲｹﾝ","kana_city":"ｵﾊﾞﾏｼ","kana_address":"ｶﾂﾐ","pref":"福井県","city":"小浜市","address":"堅海"},
{"zip_code":"9170045","kana_pref":"ﾌｸｲｹﾝ","kana_city":"ｵﾊﾞﾏｼ","kana_address":"ｶﾄﾞ","pref":"福井県","city":"小浜市","address":"加斗"},
{"zip_code":"9170242","kana_pref":"ﾌｸｲｹﾝ","kana_city":"ｵﾊﾞﾏｼ","kana_address":"ｶﾅﾔ","pref":"福井県","city":"小浜市","address":"金屋"},
{"zip_code":"9170045","kana_pref":"ﾌｸｲｹﾝ","kana_city":"ｵﾊﾞﾏｼ","kana_address":"ｶﾐｶﾄﾞ","pref":"福井県","city":"小浜市","address":"上加斗"},
{"zip_code":"9170356","kana_pref":"ﾌｸｲｹﾝ","kana_city":"ｵﾊﾞﾏｼ","kana_address":"ｶﾐﾀ","pref":"福井県","city":"小浜市","address":"上田"},
{"zip_code":"9170022","kana_pref":"ﾌｸｲｹﾝ","kana_city":"ｵﾊﾞﾏｼ","kana_address":"ｶﾐﾀﾜﾗ","pref":"福井県","city":"小浜市","address":"上竹原"},
{"zip_code":"9170036","kana_pref":"ﾌｸｲｹﾝ","kana_city":"ｵﾊﾞﾏｼ","kana_address":"ｶﾐﾅｶｲ","pref":"福井県","city":"小浜市","address":"上中井"},
{"zip_code":"9170248","kana_pref":"ﾌｸｲｹﾝ","kana_city":"ｵﾊﾞﾏｼ","kana_address":"ｶﾐﾈｺﾞﾘ","pref":"福井県","city":"小浜市","address":"上根来"},
{"zip_code":"9170223","kana_pref":"ﾌｸｲｹﾝ","kana_city":"ｵﾊﾞﾏｼ","kana_address":"ｶﾓ","pref":"福井県","city":"小浜市","address":"加茂"},
{"zip_code":"9170081","kana_pref":"ﾌｸｲｹﾝ","kana_city":"ｵﾊﾞﾏｼ","kana_address":"ｶﾜｻｷ","pref":"福井県","city":"小浜市","address":"川崎"},
{"zip_code":"9170025","kana_pref":"ﾌｸｲｹﾝ","kana_city":"ｵﾊﾞﾏｼ","kana_address":"ｷｻﾞｷ","pref":"福井県","city":"小浜市","address":"木崎"},
{"zip_code":"9170014","kana_pref":"ﾌｸｲｹﾝ","kana_city":"ｵﾊﾞﾏｼ","kana_address":"ｷﾀｶﾞﾜ","pref":"福井県","city":"小浜市","address":"北川"},
{"zip_code":"9170002","kana_pref":"ﾌｸｲｹﾝ","kana_city":"ｵﾊﾞﾏｼ","kana_address":"ｷﾀﾅｶﾞﾏﾁ","pref":"福井県","city":"小浜市","address":"北長町"},
{"zip_code":"9170002","kana_pref":"ﾌｸｲｹﾝ","kana_city":"ｵﾊﾞﾏｼ","kana_address":"ｷﾀｼｵﾔ","pref":"福井県","city":"小浜市","address":"北塩屋"},
{"zip_code":"9170035","kana_pref":"ﾌｸｲｹﾝ","kana_city":"ｵﾊﾞﾏｼ","kana_address":"ｸﾁﾀﾞﾉ","pref":"福井県","city":"小浜市","address":"口田縄"},
{"zip_code":"9170012","kana_pref":"ﾌｸｲｹﾝ","kana_city":"ｵﾊﾞﾏｼ","kana_address":"ｸﾏﾉ","pref":"福井県","city":"小浜市","address":"熊野"},
{"zip_code":"9170015","kana_pref":"ﾌｸｲｹﾝ","kana_city":"ｵﾊﾞﾏｼ","kana_address":"ｸﾘﾀ","pref":"福井県","city":"小浜市","address":"栗田"},
{"zip_code":"9170044","kana_pref":"ﾌｸｲｹﾝ","kana_city":"ｵﾊﾞﾏｼ","kana_address":"ｸﾛｺﾏ","pref":"福井県","city":"小浜市","address":"黒駒"},
{"zip_code":"9170241","kana_pref":"ﾌｸｲｹﾝ","kana_city":"ｵﾊﾞﾏｼ","kana_address":"ｹﾝﾐｻﾞｶ","pref":"福井県","city":"小浜市","address":"検見坂"},
{"zip_code":"9170047","kana_pref":"ﾌｸｲｹﾝ","kana_city":"ｵﾊﾞﾏｼ","kana_address":"ｺｲｶﾞﾜ","pref":"福井県","city":"小浜市","address":"鯉川"},
{"zip_code":"9170107","kana_pref":"ﾌｸｲｹﾝ","kana_city":"ｵﾊﾞﾏｼ","kana_address":"ｺｶﾞｻｷ","pref":"福井県","city":"小浜市","address":"甲ケ崎"},
{"zip_code":"9170231","kana_pref":"ﾌｸｲｹﾝ","kana_city":"ｵﾊﾞﾏｼ","kana_address":"ｺｸﾌﾞ","pref":"福井県","city":"小浜市","address":"国分"},
{"zip_code":"9170006","kana_pref":"ﾌｸｲｹﾝ","kana_city":"ｵﾊﾞﾏｼ","kana_address":"ｺﾏﾂﾊﾞﾗ","pref":"福井県","city":"小浜市","address":"小松原"},
{"zip_code":"9170004","kana_pref":"ﾌｸｲｹﾝ","kana_city":"ｵﾊﾞﾏｼ","kana_address":"ｺﾐﾅﾄ","pref":"福井県","city":"小浜市","address":"小湊"},
{"zip_code":"9170019","kana_pref":"ﾌｸｲｹﾝ","kana_city":"ｵﾊﾞﾏｼ","kana_address":"ｻﾝﾉｳﾏｴ","pref":"福井県","city":"小浜市","address":"山王前"},
{"zip_code":"9170236","kana_pref":"ﾌｸｲｹﾝ","kana_city":"ｵﾊﾞﾏｼ","kana_address":"ｻﾝﾌﾞｲﾁ","pref":"福井県","city":"小浜市","address":"三分一"},
{"zip_code":"9170103","kana_pref":"ﾌｸｲｹﾝ","kana_city":"ｵﾊﾞﾏｼ","kana_address":"ｼﾂﾐ","pref":"福井県","city":"小浜市","address":"志積"},
{"zip_code":"9170235","kana_pref":"ﾌｸｲｹﾝ","kana_city":"ｵﾊﾞﾏｼ","kana_address":"ｼﾌﾞｲﾁ","pref":"福井県","city":"小浜市","address":"四分一"},
{"zip_code":"9170241","kana_pref":"ﾌｸｲｹﾝ","kana_city":"ｵﾊﾞﾏｼ","kana_address":"ｼﾏ","pref":"福井県","city":"小浜市","address":"島"},
{"zip_code":"9170355","kana_pref":"ﾌｸｲｹﾝ","kana_city":"ｵﾊﾞﾏｼ","kana_address":"ｼﾓﾀ","pref":"福井県","city":"小浜市","address":"下田"},
{"zip_code":"9170045","kana_pref":"ﾌｸｲｹﾝ","kana_city":"ｵﾊﾞﾏｼ","kana_address":"ｼﾓｶﾄﾞ","pref":"福井県","city":"小浜市","address":"下加斗"},
{"zip_code":"9170007","kana_pref":"ﾌｸｲｹﾝ","kana_city":"ｵﾊﾞﾏｼ","kana_address":"ｼﾓﾀﾞﾜﾗ","pref":"福井県","city":"小浜市","address":"下竹原"},
{"zip_code":"9170036","kana_pref":"ﾌｸｲｹﾝ","kana_city":"ｵﾊﾞﾏｼ","kana_address":"ｼﾓﾅｶｲ","pref":"福井県","city":"小浜市","address":"下中井"},
{"zip_code":"9170246","kana_pref":"ﾌｸｲｹﾝ","kana_city":"ｵﾊﾞﾏｼ","kana_address":"ｼﾓﾈｺﾞﾘ","pref":"福井県","city":"小浜市","address":"下根来"},
{"zip_code":"9170095","kana_pref":"ﾌｸｲｹﾝ","kana_city":"ｵﾊﾞﾏｼ","kana_address":"ｼﾞｮｳﾅｲ","pref":"福井県","city":"小浜市","address":"城内"},
{"zip_code":"9170244","kana_pref":"ﾌｸｲｹﾝ","kana_city":"ｵﾊﾞﾏｼ","kana_address":"ｼﾞﾝｸﾞｳｼﾞ","pref":"福井県","city":"小浜市","address":"神宮寺"},
{"zip_code":"9170008","kana_pref":"ﾌｸｲｹﾝ","kana_city":"ｵﾊﾞﾏｼ","kana_address":"ｼﾝｺﾏﾂﾊﾞﾗ","pref":"福井県","city":"小浜市","address":"新小松原"},
{"zip_code":"9170036","kana_pref":"ﾌｸｲｹﾝ","kana_city":"ｵﾊﾞﾏｼ","kana_address":"ｼﾝﾀｷ","pref":"福井県","city":"小浜市","address":"新滝"},
{"zip_code":"9170222","kana_pref":"ﾌｸｲｹﾝ","kana_city":"ｵﾊﾞﾏｼ","kana_address":"ｼﾝﾎﾞ","pref":"福井県","city":"小浜市","address":"新保"},
{"zip_code":"9170033","kana_pref":"ﾌｸｲｹﾝ","kana_city":"ｵﾊﾞﾏｼ","kana_address":"ｽﾉ","pref":"福井県","city":"小浜市","address":"須縄"},
{"zip_code":"9170021","kana_pref":"ﾌｸｲｹﾝ","kana_city":"ｵﾊﾞﾏｼ","kana_address":"ｾｷ","pref":"福井県","city":"小浜市","address":"関"},
{"zip_code":"9170233","kana_pref":"ﾌｸｲｹﾝ","kana_city":"ｵﾊﾞﾏｼ","kana_address":"ﾀｲｺｳｼﾞ","pref":"福井県","city":"小浜市","address":"太興寺"},
{"zip_code":"9170014","kana_pref":"ﾌｸｲｹﾝ","kana_city":"ｵﾊﾞﾏｼ","kana_address":"ﾀｶﾂｶ","pref":"福井県","city":"小浜市","address":"高塚"},
{"zip_code":"9170036","kana_pref":"ﾌｸｲｹﾝ","kana_city":"ｵﾊﾞﾏｼ","kana_address":"ﾀｷﾀﾞﾆ","pref":"福井県","city":"小浜市","address":"滝谷"},
{"zip_code":"9170351","kana_pref":"ﾌｸｲｹﾝ","kana_city":"ｵﾊﾞﾏｼ","kana_address":"ﾀﾓﾀﾆ","pref":"福井県","city":"小浜市","address":"田茂谷"},
{"zip_code":"9170101","kana_pref":"ﾌｸｲｹﾝ","kana_city":"ｵﾊﾞﾏｼ","kana_address":"ﾀｶﾞﾗｽ","pref":"福井県","city":"小浜市","address":"田烏"},
{"zip_code":"9170224","kana_pref":"ﾌｸｲｹﾝ","kana_city":"ｵﾊﾞﾏｼ","kana_address":"ﾀｹﾅｶﾞ","pref":"福井県","city":"小浜市","address":"竹長"},
{"zip_code":"9170026","kana_pref":"ﾌｸｲｹﾝ","kana_city":"ｵﾊﾞﾏｼ","kana_address":"ﾀﾀﾞ","pref":"福井県","city":"小浜市","address":"多田"},
{"zip_code":"9170013","kana_pref":"ﾌｸｲｹﾝ","kana_city":"ｵﾊﾞﾏｼ","kana_address":"ﾀﾗﾉｼｮｳ","pref":"福井県","city":"小浜市","address":"太良庄"},
{"zip_code":"9170021","kana_pref":"ﾌｸｲｹﾝ","kana_city":"ｵﾊﾞﾏｼ","kana_address":"ﾀﾜﾗ","pref":"福井県","city":"小浜市","address":"竹原"},
{"zip_code":"9170072","kana_pref":"ﾌｸｲｹﾝ","kana_city":"ｵﾊﾞﾏｼ","kana_address":"ﾁｸﾞｻ","pref":"福井県","city":"小浜市","address":"千種"},
{"zip_code":"9170245","kana_pref":"ﾌｸｲｹﾝ","kana_city":"ｵﾊﾞﾏｼ","kana_address":"ﾁｭｳﾉ","pref":"福井県","city":"小浜市","address":"忠野"},
{"zip_code":"9170016","kana_pref":"ﾌｸｲｹﾝ","kana_city":"ｵﾊﾞﾏｼ","kana_address":"ﾂｷﾞﾖｼ","pref":"福井県","city":"小浜市","address":"次吉"},
{"zip_code":"9170232","kana_pref":"ﾌｸｲｹﾝ","kana_city":"ｵﾊﾞﾏｼ","kana_address":"ﾄｲﾁﾊﾞ","pref":"福井県","city":"小浜市","address":"東市場"},
{"zip_code":"9170117","kana_pref":"ﾌｸｲｹﾝ","kana_city":"ｵﾊﾞﾏｼ","kana_address":"ﾄﾏﾘ","pref":"福井県","city":"小浜市","address":"泊"},
{"zip_code":"9170036","kana_pref":"ﾌｸｲｹﾝ","kana_city":"ｵﾊﾞﾏｼ","kana_address":"ﾅｶｲ","pref":"福井県","city":"小浜市","address":"中井"},
{"zip_code":"9170247","kana_pref":"ﾌｸｲｹﾝ","kana_city":"ｵﾊﾞﾏｼ","kana_address":"ﾅｶﾉﾊﾀ","pref":"福井県","city":"小浜市","address":"中ノ畑"},
{"zip_code":"9170242","kana_pref":"ﾌｸｲｹﾝ","kana_city":"ｵﾊﾞﾏｼ","kana_address":"ﾅｶﾉﾐﾔ","pref":"福井県","city":"小浜市","address":"中の宮"},
{"zip_code":"9170241","kana_pref":"ﾌｸｲｹﾝ","kana_city":"ｵﾊﾞﾏｼ","kana_address":"ﾅｶﾑﾗ","pref":"福井県","city":"小浜市","address":"中村"},
{"zip_code":"9170011","kana_pref":"ﾌｸｲｹﾝ","kana_city":"ｵﾊﾞﾏｼ","kana_address":"ﾅｺﾞ","pref":"福井県","city":"小浜市","address":"奈胡"},
{"zip_code":"9170037","kana_pref":"ﾌｸｲｹﾝ","kana_city":"ｵﾊﾞﾏｼ","kana_address":"ﾆｼｱｲｵｲ","pref":"福井県","city":"小浜市","address":"西相生"},
{"zip_code":"9170111","kana_pref":"ﾌｸｲｹﾝ","kana_city":"ｵﾊﾞﾏｼ","kana_address":"ﾆｼｵｶﾞﾜ","pref":"福井県","city":"小浜市","address":"西小川"},
{"zip_code":"9170043","kana_pref":"ﾌｸｲｹﾝ","kana_city":"ｵﾊﾞﾏｼ","kana_address":"ﾆｼｾｲ","pref":"福井県","city":"小浜市","address":"西勢"},
{"zip_code":"9170091","kana_pref":"ﾌｸｲｹﾝ","kana_city":"ｵﾊﾞﾏｼ","kana_address":"ﾆｼﾂﾞ","pref":"福井県","city":"小浜市","address":"西津"},
{"zip_code":"9170007","kana_pref":"ﾌｸｲｹﾝ","kana_city":"ｵﾊﾞﾏｼ","kana_address":"ﾆｼﾅｶﾞﾏﾁ","pref":"福井県","city":"小浜市","address":"西長町"},
{"zip_code":"9170028","kana_pref":"ﾌｸｲｹﾝ","kana_city":"ｵﾊﾞﾏｼ","kana_address":"ﾉﾀﾞｲ","pref":"福井県","city":"小浜市","address":"野代"},
{"zip_code":"9170074","kana_pref":"ﾌｸｲｹﾝ","kana_city":"ｵﾊﾞﾏｼ","kana_address":"ﾉﾁｾﾁｮｳ","pref":"福井県","city":"小浜市","address":"後瀬町"},
{"zip_code":"9170044","kana_pref":"ﾌｸｲｹﾝ","kana_city":"ｵﾊﾞﾏｼ","kana_address":"ﾉﾘｶｲ","pref":"福井県","city":"小浜市","address":"法海"},
{"zip_code":"9170017","kana_pref":"ﾌｸｲｹﾝ","kana_city":"ｵﾊﾞﾏｼ","kana_address":"ﾊｶﾞ","pref":"福井県","city":"小浜市","address":"羽賀"},
{"zip_code":"9170044","kana_pref":"ﾌｸｲｹﾝ","kana_city":"ｵﾊﾞﾏｼ","kana_address":"ﾊﾝｾｲ","pref":"福井県","city":"小浜市","address":"飯盛"},
{"zip_code":"9170037","kana_pref":"ﾌｸｲｹﾝ","kana_city":"ｵﾊﾞﾏｼ","kana_address":"ﾋｶﾞｼｱｲｵｲ","pref":"福井県","city":"小浜市","address":"東相生"},
{"zip_code":"9170042","kana_pref":"ﾌｸｲｹﾝ","kana_city":"ｵﾊﾞﾏｼ","kana_address":"ﾋｶﾞｼｾｲ","pref":"福井県","city":"小浜市","address":"東勢"},
{"zip_code":"9170226","kana_pref":"ﾌｸｲｹﾝ","kana_city":"ｵﾊﾞﾏｼ","kana_address":"ﾋﾗﾉ","pref":"福井県","city":"小浜市","address":"平野"},
{"zip_code":"9170352","kana_pref":"ﾌｸｲｹﾝ","kana_city":"ｵﾊﾞﾏｼ","kana_address":"ﾌｶﾀﾆ","pref":"福井県","city":"小浜市","address":"深谷"},
{"zip_code":"9170353","kana_pref":"ﾌｸｲｹﾝ","kana_city":"ｵﾊﾞﾏｼ","kana_address":"ﾌｶﾉ","pref":"福井県","city":"小浜市","address":"深野"},
{"zip_code":"9170001","kana_pref":"ﾌｸｲｹﾝ","kana_city":"ｵﾊﾞﾏｼ","kana_address":"ﾌｸﾀﾆ","pref":"福井県","city":"小浜市","address":"福谷"},
{"zip_code":"9170054","kana_pref":"ﾌｸｲｹﾝ","kana_city":"ｵﾊﾞﾏｼ","kana_address":"ﾌｼﾜﾗ","pref":"福井県","city":"小浜市","address":"伏原"},
{"zip_code":"9170023","kana_pref":"ﾌｸｲｹﾝ","kana_city":"ｵﾊﾞﾏｼ","kana_address":"ﾌﾁｭｳ","pref":"福井県","city":"小浜市","address":"府中"},
{"zip_code":"9170115","kana_pref":"ﾌｸｲｹﾝ","kana_city":"ｵﾊﾞﾏｼ","kana_address":"ﾎﾄｹﾀﾞﾆ","pref":"福井県","city":"小浜市","address":"仏谷"},
{"zip_code":"9170097","kana_pref":"ﾌｸｲｹﾝ","kana_city":"ｵﾊﾞﾏｼ","kana_address":"ﾎﾘﾔｼｷ","pref":"福井県","city":"小浜市","address":"堀屋敷"},
{"zip_code":"9170225","kana_pref":"ﾌｸｲｹﾝ","kana_city":"ｵﾊﾞﾏｼ","kana_address":"ﾎﾝﾎﾞ","pref":"福井県","city":"小浜市","address":"本保"},
{"zip_code":"9170018","kana_pref":"ﾌｸｲｹﾝ","kana_city":"ｵﾊﾞﾏｼ","kana_address":"ﾏﾂｶﾞｻｷ","pref":"福井県","city":"小浜市","address":"松ケ崎"},
{"zip_code":"9170094","kana_pref":"ﾌｸｲｹﾝ","kana_city":"ｵﾊﾞﾏｼ","kana_address":"ﾏﾙﾔﾏ","pref":"福井県","city":"小浜市","address":"丸山"},
{"zip_code":"9170093","kana_pref":"ﾌｸｲｹﾝ","kana_city":"ｵﾊﾞﾏｼ","kana_address":"ﾐｽﾞﾄﾘ","pref":"福井県","city":"小浜市","address":"水取"},
{"zip_code":"9170004","kana_pref":"ﾌｸｲｹﾝ","kana_city":"ｵﾊﾞﾏｼ","kana_address":"ﾐﾅﾄ","pref":"福井県","city":"小浜市","address":"湊"},
{"zip_code":"9170075","kana_pref":"ﾌｸｲｹﾝ","kana_city":"ｵﾊﾞﾏｼ","kana_address":"ﾐﾅﾐｶﾞﾜﾁｮｳ","pref":"福井県","city":"小浜市","address":"南川町"},
{"zip_code":"9170249","kana_pref":"ﾌｸｲｹﾝ","kana_city":"ｵﾊﾞﾏｼ","kana_address":"ﾐﾔﾉﾏｴ","pref":"福井県","city":"小浜市","address":"宮の前"},
{"zip_code":"9170237","kana_pref":"ﾌｸｲｹﾝ","kana_city":"ｵﾊﾞﾏｼ","kana_address":"ﾓﾝｾﾞﾝ","pref":"福井県","city":"小浜市","address":"門前"},
{"zip_code":"9170102","kana_pref":"ﾌｸｲｹﾝ","kana_city":"ｵﾊﾞﾏｼ","kana_address":"ﾔｼﾛ","pref":"福井県","city":"小浜市","address":"矢代"},
{"zip_code":"9170031","kana_pref":"ﾌｸｲｹﾝ","kana_city":"ｵﾊﾞﾏｼ","kana_address":"ﾔﾀﾍﾞ","pref":"福井県","city":"小浜市","address":"谷田部"},
{"zip_code":"9170092","kana_pref":"ﾌｸｲｹﾝ","kana_city":"ｵﾊﾞﾏｼ","kana_address":"ﾔﾏﾃ","pref":"福井県","city":"小浜市","address":"山手"},
{"zip_code":"9170076","kana_pref":"ﾌｸｲｹﾝ","kana_city":"ｵﾊﾞﾏｼ","kana_address":"ﾕﾉｵｶ","pref":"福井県","city":"小浜市","address":"湯岡"},
{"zip_code":"9170073","kana_pref":"ﾌｸｲｹﾝ","kana_city":"ｵﾊﾞﾏｼ","kana_address":"ﾖﾂﾔﾁｮｳ","pref":"福井県","city":"小浜市","address":"四谷町"},
{"zip_code":"9170243","kana_pref":"ﾌｸｲｹﾝ","kana_city":"ｵﾊﾞﾏｼ","kana_address":"ﾘｭｳｾﾞﾝ","pref":"福井県","city":"小浜市","address":"竜前"},
{"zip_code":"9170114","kana_pref":"ﾌｸｲｹﾝ","kana_city":"ｵﾊﾞﾏｼ","kana_address":"ﾜｶｻ","pref":"福井県","city":"小浜市","address":"若狭"},
{"zip_code":"9170024","kana_pref":"ﾌｸｲｹﾝ","kana_city":"ｵﾊﾞﾏｼ","kana_address":"ﾜｸﾘ","pref":"福井県","city":"小浜市","address":"和久里"},
{"zip_code":"9170354","kana_pref":"ﾌｸｲｹﾝ","kana_city":"ｵﾊﾞﾏｼ","kana_address":"ﾜﾀﾞﾀ","pref":"福井県","city":"小浜市","address":"和多田"},
{"zip_code":"9170363","kana_pref":"ﾌｸｲｹﾝ","kana_city":"ｵｵｲｸﾞﾝｵｵｲﾁｮｳ","kana_address":"ﾅﾀｼｮｳｱｹﾞﾉ","pref":"福井県","city":"大飯郡おおい町","address":"名田庄挙野"},
{"zip_code":"9170361","kana_pref":"ﾌｸｲｹﾝ","kana_city":"ｵｵｲｸﾞﾝｵｵｲﾁｮｳ","kana_address":"ﾅﾀｼｮｳｱｹﾞﾊﾗ","pref":"福井県","city":"大飯郡おおい町","address":"名田庄挙原"},
{"zip_code":"9170385","kana_pref":"ﾌｸｲｹﾝ","kana_city":"ｵｵｲｸﾞﾝｵｵｲﾁｮｳ","kana_address":"ﾅﾀｼｮｳｲｶﾞﾐ","pref":"福井県","city":"大飯郡おおい町","address":"名田庄井上"},
{"zip_code":"9170387","kana_pref":"ﾌｸｲｹﾝ","kana_city":"ｵｵｲｸﾞﾝｵｵｲﾁｮｳ","kana_address":"ﾅﾀｼｮｳｵｸｻｶﾓﾄ","pref":"福井県","city":"大飯郡おおい町","address":"名田庄奥坂本"},
{"zip_code":"9170371","kana_pref":"ﾌｸｲｹﾝ","kana_city":"ｵｵｲｸﾞﾝｵｵｲﾁｮｳ","kana_address":"ﾅﾀｼｮｳｵｸﾞﾗ","pref":"福井県","city":"大飯郡おおい町","address":"名田庄小倉"},
{"zip_code":"9170365","kana_pref":"ﾌｸｲｹﾝ","kana_city":"ｵｵｲｸﾞﾝｵｵｲﾁｮｳ","kana_address":"ﾅﾀｼｮｳｵｸﾞﾗﾊﾀ","pref":"福井県","city":"大飯郡おおい町","address":"名田庄小倉畑"},
{"zip_code":"9170361","kana_pref":"ﾌｸｲｹﾝ","kana_city":"ｵｵｲｸﾞﾝｵｵｲﾁｮｳ","kana_address":"ﾅﾀｼｮｳｷﾀﾞﾆ","pref":"福井県","city":"大飯郡おおい町","address":"名田庄木谷"},
{"zip_code":"9170386","kana_pref":"ﾌｸｲｹﾝ","kana_city":"ｵｵｲｸﾞﾝｵｵｲﾁｮｳ","kana_address":"ﾅﾀｼｮｳｸﾁｻｶﾓﾄ","pref":"福井県","city":"大飯郡おおい町","address":"名田庄口坂本"},
{"zip_code":"9170383","kana_pref":"ﾌｸｲｹﾝ","kana_city":"ｵｵｲｸﾞﾝｵｵｲﾁｮｳ","kana_address":"ﾅﾀｼｮｳｼﾓ","pref":"福井県","city":"大飯郡おおい町","address":"名田庄下"},
{"zip_code":"9170373","kana_pref":"ﾌｸｲｹﾝ","kana_city":"ｵｵｲｸﾞﾝｵｵｲﾁｮｳ","kana_address":"ﾅﾀｼｮｳｿﾒｶﾞﾀﾆ","pref":"福井県","city":"大飯郡おおい町","address":"名田庄染ケ谷"},
{"zip_code":"9170361","kana_pref":"ﾌｸｲｹﾝ","kana_city":"ｵｵｲｸﾞﾝｵｵｲﾁｮｳ","kana_address":"ﾅﾀｼｮｳﾃﾞｱｲ","pref":"福井県","city":"大飯郡おおい町","address":"名田庄出合"},
{"zip_code":"9170372","kana_pref":"ﾌｸｲｹﾝ","kana_city":"ｵｵｲｸﾞﾝｵｵｲﾁｮｳ","kana_address":"ﾅﾀｼｮｳﾄﾞｳﾓﾄ","pref":"福井県","city":"大飯郡おおい町","address":"名田庄堂本"},
{"zip_code":"9170374","kana_pref":"ﾌｸｲｹﾝ","kana_city":"ｵｵｲｸﾞﾝｵｵｲﾁｮｳ","kana_address":"ﾅﾀｼｮｳﾅｶ","pref":"福井県","city":"大飯郡おおい町","address":"名田庄中"},
{"zip_code":"9170362","kana_pref":"ﾌｸｲｹﾝ","kana_city":"ｵｵｲｸﾞﾝｵｵｲﾁｮｳ","kana_address":"ﾅﾀｼｮｳﾅｶﾞﾀﾆ","pref":"福井県","city":"大飯郡おおい町","address":"名田庄永谷"},
{"zip_code":"9170384","kana_pref":"ﾌｸｲｹﾝ","kana_city":"ｵｵｲｸﾞﾝｵｵｲﾁｮｳ","kana_address":"ﾅﾀｼｮｳﾆｼﾀﾞﾆ","pref":"福井県","city":"大飯郡おおい町","address":"名田庄西谷"},
{"zip_code":"9170375","kana_pref":"ﾌｸｲｹﾝ","kana_city":"ｵｵｲｸﾞﾝｵｵｲﾁｮｳ","kana_address":"ﾅﾀｼｮｳﾉﾀｵｲ","pref":"福井県","city":"大飯郡おおい町","address":"名田庄納田終"},
{"zip_code":"9170382","kana_pref":"ﾌｸｲｹﾝ","kana_city":"ｵｵｲｸﾞﾝｵｵｲﾁｮｳ","kana_address":"ﾅﾀｼｮｳﾋｻｻｶ","pref":"福井県","city":"大飯郡おおい町","address":"名田庄久坂"},
{"zip_code":"9170373","kana_pref":"ﾌｸｲｹﾝ","kana_city":"ｵｵｲｸﾞﾝｵｵｲﾁｮｳ","kana_address":"ﾅﾀｼｮｳﾏｷﾀﾞﾆ","pref":"福井県","city":"大飯郡おおい町","address":"名田庄槇谷"},
{"zip_code":"9170381","kana_pref":"ﾌｸｲｹﾝ","kana_city":"ｵｵｲｸﾞﾝｵｵｲﾁｮｳ","kana_address":"ﾅﾀｼｮｳﾐｴ","pref":"福井県","city":"大飯郡おおい町","address":"名田庄三重"},
{"zip_code":"9170364","kana_pref":"ﾌｸｲｹﾝ","kana_city":"ｵｵｲｸﾞﾝｵｵｲﾁｮｳ","kana_address":"ﾅﾀｼｮｳﾑｼｶﾞﾉ","pref":"福井県","city":"大飯郡おおい町","address":"名田庄虫鹿野"},
{"zip_code":"9170361","kana_pref":"ﾌｸｲｹﾝ","kana_city":"ｵｵｲｸﾞﾝｵｵｲﾁｮｳ","kana_address":"ﾅﾀｼｮｳﾑｼﾀﾞﾆ","pref":"福井県","city":"大飯郡おおい町","address":"名田庄虫谷"}]}