{"zip_code":[
{"zip_code":"9180000","kana_pref":"ﾌｸｲｹﾝ","kana_city":"ﾌｸｲｼ","kana_address":"","pref":"福井県","city":"福井市","address":""},
{"zip_code":"9188052","kana_pref":"ﾌｸｲｹﾝ","kana_city":"ﾌｸｲｼ","kana_address":"ｱｶﾘﾁｮｳ","pref":"福井県","city":"福井市","address":"明里町"},
{"zip_code":"9188007","kana_pref":"ﾌｸｲｹﾝ","kana_city":"ﾌｸｲｼ","kana_address":"ｱｽﾜ","pref":"福井県","city":"福井市","address":"足羽"},
{"zip_code":"9188006","kana_pref":"ﾌｸｲｹﾝ","kana_city":"ﾌｸｲｼ","kana_address":"ｱｽﾜｶﾐﾁｮｳ","pref":"福井県","city":"福井市","address":"足羽上町"},
{"zip_code":"9188183","kana_pref":"ﾌｸｲｹﾝ","kana_city":"ﾌｸｲｼ","kana_address":"ｱｿｳｽﾞｻﾝｶﾞﾁｮｳ","pref":"福井県","city":"福井市","address":"浅水三ケ町"},
{"zip_code":"9188181","kana_pref":"ﾌｸｲｹﾝ","kana_city":"ﾌｸｲｼ","kana_address":"ｱｿｳｽﾞﾁｮｳ","pref":"福井県","city":"福井市","address":"浅水町"},
{"zip_code":"9188182","kana_pref":"ﾌｸｲｹﾝ","kana_city":"ﾌｸｲｼ","kana_address":"ｱｿｳｽﾞﾌﾂｶﾏﾁ","pref":"福井県","city":"福井市","address":"浅水二日町"},
{"zip_code":"9188153","kana_pref":"ﾌｸｲｹﾝ","kana_city":"ﾌｸｲｼ","kana_address":"ｱﾎﾞﾁｮｳ","pref":"福井県","city":"福井市","address":"安保町"},
{"zip_code":"9188232","kana_pref":"ﾌｸｲｹﾝ","kana_city":"ﾌｸｲｼ","kana_address":"ｱﾗｷﾍﾞｯｼﾖﾁｮｳ","pref":"福井県","city":"福井市","address":"荒木別所町"},
{"zip_code":"9188067","kana_pref":"ﾌｸｲｹﾝ","kana_city":"ﾌｸｲｼ","kana_address":"ｲｲﾂﾞｶﾁｮｳ","pref":"福井県","city":"福井市","address":"飯塚町"},
{"zip_code":"9188104","kana_pref":"ﾌｸｲｹﾝ","kana_city":"ﾌｸｲｼ","kana_address":"ｲﾀｶﾞｷ","pref":"福井県","city":"福井市","address":"板垣"},
{"zip_code":"9188103","kana_pref":"ﾌｸｲｹﾝ","kana_city":"ﾌｸｲｼ","kana_address":"ｲﾀｶﾞｷﾁｮｳ","pref":"福井県","city":"福井市","address":"板垣町"},
{"zip_code":"9188101","kana_pref":"ﾌｸｲｹﾝ","kana_city":"ﾌｸｲｼ","kana_address":"ｲｯﾎﾟﾝｷﾞﾁｮｳ","pref":"福井県","city":"福井市","address":"一本木町"},
{"zip_code":"9188213","kana_pref":"ﾌｸｲｹﾝ","kana_city":"ﾌｸｲｼ","kana_address":"ｲﾏｲｽﾞﾐﾁｮｳ","pref":"福井県","city":"福井市","address":"今泉町"},
{"zip_code":"9188152","kana_pref":"ﾌｸｲｹﾝ","kana_city":"ﾌｸｲｼ","kana_address":"ｲﾏｲﾁﾁｮｳ","pref":"福井県","city":"福井市","address":"今市町"},
{"zip_code":"9188217","kana_pref":"ﾌｸｲｹﾝ","kana_city":"ﾌｸｲｼ","kana_address":"ｲﾝﾃﾞﾝﾁｮｳ","pref":"福井県","city":"福井市","address":"印田町"},
{"zip_code":"9188114","kana_pref":"ﾌｸｲｹﾝ","kana_city":"ﾌｸｲｼ","kana_address":"ｳｽｲ","pref":"福井県","city":"福井市","address":"羽水"},
{"zip_code":"9188111","kana_pref":"ﾌｸｲｹﾝ","kana_city":"ﾌｸｲｼ","kana_address":"ｳﾏｶﾞｷﾁｮｳ","pref":"福井県","city":"福井市","address":"馬垣町"},
{"zip_code":"9188046","kana_pref":"ﾌｸｲｹﾝ","kana_city":"ﾌｸｲｼ","kana_address":"ｳﾝﾄﾞｳｺｳｴﾝ","pref":"福井県","city":"福井市","address":"運動公園"},
{"zip_code":"9188175","kana_pref":"ﾌｸｲｹﾝ","kana_city":"ﾌｸｲｼ","kana_address":"ｴｼﾞﾘｶﾞｵｶﾁｮｳ","pref":"福井県","city":"福井市","address":"江尻ケ丘町"},
{"zip_code":"9188016","kana_pref":"ﾌｸｲｹﾝ","kana_city":"ﾌｸｲｼ","kana_address":"ｴﾊﾞﾀﾁｮｳ","pref":"福井県","city":"福井市","address":"江端町"},
{"zip_code":"9188025","kana_pref":"ﾌｸｲｹﾝ","kana_city":"ﾌｸｲｼ","kana_address":"ｴﾓﾘﾅｶ","pref":"福井県","city":"福井市","address":"江守中"},
{"zip_code":"9188025","kana_pref":"ﾌｸｲｹﾝ","kana_city":"ﾌｸｲｼ","kana_address":"ｴﾓﾘﾅｶﾁｮｳ","pref":"福井県","city":"福井市","address":"江守中町"},
{"zip_code":"9188035","kana_pref":"ﾌｸｲｹﾝ","kana_city":"ﾌｸｲｼ","kana_address":"ｴﾓﾘﾉｻﾄ","pref":"福井県","city":"福井市","address":"江守の里"},
{"zip_code":"9188207","kana_pref":"ﾌｸｲｹﾝ","kana_city":"ﾌｸｲｼ","kana_address":"ｴﾝｻﾞﾝ","pref":"福井県","city":"福井市","address":"円山"},
{"zip_code":"9188018","kana_pref":"ﾌｸｲｹﾝ","kana_city":"ﾌｸｲｼ","kana_address":"ｵｵｼﾏﾁｮｳ","pref":"福井県","city":"福井市","address":"大島町"},
{"zip_code":"9188063","kana_pref":"ﾌｸｲｹﾝ","kana_city":"ﾌｸｲｼ","kana_address":"ｵｵｾﾁｮｳ","pref":"福井県","city":"福井市","address":"大瀬町"},
{"zip_code":"9188116","kana_pref":"ﾌｸｲｹﾝ","kana_city":"ﾌｸｲｼ","kana_address":"ｵｵﾏﾁ","pref":"福井県","city":"福井市","address":"大町"},
{"zip_code":"9188228","kana_pref":"ﾌｸｲｹﾝ","kana_city":"ﾌｸｲｼ","kana_address":"ｵｶﾆｼﾀﾆﾁｮｳ","pref":"福井県","city":"福井市","address":"岡西谷町"},
{"zip_code":"9188071","kana_pref":"ﾌｸｲｹﾝ","kana_city":"ﾌｸｲｼ","kana_address":"ｵｿｶﾞﾐﾁｮｳ","pref":"福井県","city":"福井市","address":"恐神町"},
{"zip_code":"9188226","kana_pref":"ﾌｸｲｹﾝ","kana_city":"ﾌｸｲｼ","kana_address":"ｵﾊﾞﾀｹﾁｮｳ","pref":"福井県","city":"福井市","address":"大畑町"},
{"zip_code":"9188053","kana_pref":"ﾌｸｲｹﾝ","kana_city":"ﾌｸｲｼ","kana_address":"ｵﾔﾏﾀﾞﾆﾁｮｳ","pref":"福井県","city":"福井市","address":"小山谷町"},
{"zip_code":"9188108","kana_pref":"ﾌｸｲｹﾝ","kana_city":"ﾌｸｲｼ","kana_address":"ｶｽｶﾞ","pref":"福井県","city":"福井市","address":"春日"},
{"zip_code":"9188107","kana_pref":"ﾌｸｲｹﾝ","kana_city":"ﾌｸｲｼ","kana_address":"ｶｽｶﾞﾁｮｳ","pref":"福井県","city":"福井市","address":"春日町"},
{"zip_code":"9188166","kana_pref":"ﾌｸｲｹﾝ","kana_city":"ﾌｸｲｼ","kana_address":"ｶｽﾞｴﾅｶﾁｮｳ","pref":"福井県","city":"福井市","address":"主計中町"},
{"zip_code":"9188061","kana_pref":"ﾌｸｲｹﾝ","kana_city":"ﾌｸｲｼ","kana_address":"ｶﾅﾔﾁｮｳ","pref":"福井県","city":"福井市","address":"金屋町"},
{"zip_code":"9188133","kana_pref":"ﾌｸｲｹﾝ","kana_city":"ﾌｸｲｼ","kana_address":"ｶﾐｱｿﾞｳﾀﾞﾁｮｳ","pref":"福井県","city":"福井市","address":"上莇生田町"},
{"zip_code":"9188081","kana_pref":"ﾌｸｲｹﾝ","kana_city":"ﾌｸｲｼ","kana_address":"ｶﾐｲｶﾘﾁｮｳ","pref":"福井県","city":"福井市","address":"上一光町"},
{"zip_code":"9188174","kana_pref":"ﾌｸｲｹﾝ","kana_city":"ﾌｸｲｼ","kana_address":"ｶﾐｴｼﾞﾘﾁｮｳ","pref":"福井県","city":"福井市","address":"上江尻町"},
{"zip_code":"9188203","kana_pref":"ﾌｸｲｹﾝ","kana_city":"ﾌｸｲｼ","kana_address":"ｶﾐｷﾀﾉ","pref":"福井県","city":"福井市","address":"上北野"},
{"zip_code":"9188132","kana_pref":"ﾌｸｲｹﾝ","kana_city":"ﾌｸｲｼ","kana_address":"ｶﾐﾛｸｼﾞｮｳﾁｮｳ","pref":"福井県","city":"福井市","address":"上六条町"},
{"zip_code":"9188057","kana_pref":"ﾌｸｲｹﾝ","kana_city":"ﾌｸｲｼ","kana_address":"ｶﾓｶﾞﾜﾗ","pref":"福井県","city":"福井市","address":"加茂河原"},
{"zip_code":"9188054","kana_pref":"ﾌｸｲｹﾝ","kana_city":"ﾌｸｲｼ","kana_address":"ｶﾓｶﾞﾜﾗﾁｮｳ","pref":"福井県","city":"福井市","address":"加茂河原町"},
{"zip_code":"9188058","kana_pref":"ﾌｸｲｹﾝ","kana_city":"ﾌｸｲｼ","kana_address":"ｶﾓﾘｮｸｴﾝﾁｮｳ","pref":"福井県","city":"福井市","address":"加茂緑苑町"},
{"zip_code":"9188212","kana_pref":"ﾌｸｲｹﾝ","kana_city":"ﾌｸｲｼ","kana_address":"ｷﾀｲﾏｲｽﾞﾐﾁｮｳ","pref":"福井県","city":"福井市","address":"北今泉町"},
{"zip_code":"9188072","kana_pref":"ﾌｸｲｹﾝ","kana_city":"ﾌｸｲｼ","kana_address":"ｷﾀﾎﾘﾁｮｳ","pref":"福井県","city":"福井市","address":"北堀町"},
{"zip_code":"9188205","kana_pref":"ﾌｸｲｹﾝ","kana_city":"ﾌｸｲｼ","kana_address":"ｷﾀﾖﾂｲ","pref":"福井県","city":"福井市","address":"北四ツ居"},
{"zip_code":"9188206","kana_pref":"ﾌｸｲｹﾝ","kana_city":"ﾌｸｲｼ","kana_address":"ｷﾀﾖﾂｲﾁｮｳ","pref":"福井県","city":"福井市","address":"北四ツ居町"},
{"zip_code":"9188105","kana_pref":"ﾌｸｲｹﾝ","kana_city":"ﾌｸｲｼ","kana_address":"ｷﾀﾞ","pref":"福井県","city":"福井市","address":"木田"},
{"zip_code":"9188106","kana_pref":"ﾌｸｲｹﾝ","kana_city":"ﾌｸｲｼ","kana_address":"ｷﾀﾞﾁｮｳ","pref":"福井県","city":"福井市","address":"木田町"},
{"zip_code":"9188043","kana_pref":"ﾌｸｲｹﾝ","kana_city":"ﾌｸｲｼ","kana_address":"ｷﾂﾈﾊﾞｼ","pref":"福井県","city":"福井市","address":"狐橋"},
{"zip_code":"9188047","kana_pref":"ﾌｸｲｹﾝ","kana_city":"ﾌｸｲｼ","kana_address":"ｸｷﾂﾞﾁｮｳ","pref":"福井県","city":"福井市","address":"久喜津町"},
{"zip_code":"9188112","kana_pref":"ﾌｸｲｹﾝ","kana_city":"ﾌｸｲｼ","kana_address":"ｹﾞﾊﾞ","pref":"福井県","city":"福井市","address":"下馬"},
{"zip_code":"9188113","kana_pref":"ﾌｸｲｹﾝ","kana_city":"ﾌｸｲｼ","kana_address":"ｹﾞﾊﾞﾁｮｳ","pref":"福井県","city":"福井市","address":"下馬町"},
{"zip_code":"9188003","kana_pref":"ﾌｸｲｹﾝ","kana_city":"ﾌｸｲｼ","kana_address":"ｹﾔ","pref":"福井県","city":"福井市","address":"毛矢"},
{"zip_code":"9188221","kana_pref":"ﾌｸｲｹﾝ","kana_city":"ﾌｸｲｼ","kana_address":"ｹﾞﾝﾀﾞﾂﾁｮｳ","pref":"福井県","city":"福井市","address":"堅達町"},
{"zip_code":"9188131","kana_pref":"ﾌｸｲｹﾝ","kana_city":"ﾌｸｲｼ","kana_address":"ｺｲﾅﾂﾞﾁｮｳ","pref":"福井県","city":"福井市","address":"小稲津町"},
{"zip_code":"9188233","kana_pref":"ﾌｸｲｹﾝ","kana_city":"ﾌｸｲｼ","kana_address":"ｺﾞｳｼﾏﾁｮｳ","pref":"福井県","city":"福井市","address":"合島町"},
{"zip_code":"9188223","kana_pref":"ﾌｸｲｹﾝ","kana_city":"ﾌｸｲｼ","kana_address":"ｺｳｽｲﾁｮｳ","pref":"福井県","city":"福井市","address":"河水町"},
{"zip_code":"9188033","kana_pref":"ﾌｸｲｹﾝ","kana_city":"ﾌｸｲｼ","kana_address":"ｺﾞｳﾀﾞﾆﾁｮｳ","pref":"福井県","city":"福井市","address":"合谷町"},
{"zip_code":"9188218","kana_pref":"ﾌｸｲｹﾝ","kana_city":"ﾌｸｲｼ","kana_address":"ｺｳﾏｽﾁｮｳ","pref":"福井県","city":"福井市","address":"河増町"},
{"zip_code":"9188083","kana_pref":"ﾌｸｲｹﾝ","kana_city":"ﾌｸｲｼ","kana_address":"ｺﾞﾀｲｼﾁｮｳ","pref":"福井県","city":"福井市","address":"五太子町"},
{"zip_code":"9188222","kana_pref":"ﾌｸｲｹﾝ","kana_city":"ﾌｸｲｼ","kana_address":"ｻｶｼﾀﾁｮｳ","pref":"福井県","city":"福井市","address":"坂下町"},
{"zip_code":"9188002","kana_pref":"ﾌｸｲｹﾝ","kana_city":"ﾌｸｲｼ","kana_address":"ｻﾅｲﾁｮｳ","pref":"福井県","city":"福井市","address":"左内町"},
{"zip_code":"9188078","kana_pref":"ﾌｸｲｹﾝ","kana_city":"ﾌｸｲｼ","kana_address":"ｻﾗｹﾞﾁｮｳ","pref":"福井県","city":"福井市","address":"更毛町"},
{"zip_code":"9188176","kana_pref":"ﾌｸｲｹﾝ","kana_city":"ﾌｸｲｼ","kana_address":"ｻﾝｼﾞｭｳﾊｯｼｬﾁｮｳ","pref":"福井県","city":"福井市","address":"三十八社町"},
{"zip_code":"9188164","kana_pref":"ﾌｸｲｹﾝ","kana_city":"ﾌｸｲｼ","kana_address":"ｻﾝﾎﾞﾝｷﾞﾁｮｳ","pref":"福井県","city":"福井市","address":"三本木町"},
{"zip_code":"9188134","kana_pref":"ﾌｸｲｹﾝ","kana_city":"ﾌｸｲｼ","kana_address":"ｼﾓｱｿﾞｳﾀﾞﾁｮｳ","pref":"福井県","city":"福井市","address":"下莇生田町"},
{"zip_code":"9188017","kana_pref":"ﾌｸｲｹﾝ","kana_city":"ﾌｸｲｼ","kana_address":"ｼﾓｱﾗｲﾁｮｳ","pref":"福井県","city":"福井市","address":"下荒井町"},
{"zip_code":"9188082","kana_pref":"ﾌｸｲｹﾝ","kana_city":"ﾌｸｲｼ","kana_address":"ｼﾓｲｶﾘﾁｮｳ","pref":"福井県","city":"福井市","address":"下一光町"},
{"zip_code":"9188062","kana_pref":"ﾌｸｲｹﾝ","kana_city":"ﾌｸｲｼ","kana_address":"ｼﾓｲﾁﾁｮｳ","pref":"福井県","city":"福井市","address":"下市町"},
{"zip_code":"9188173","kana_pref":"ﾌｸｲｹﾝ","kana_city":"ﾌｸｲｼ","kana_address":"ｼﾓｴｼﾞﾘﾁｮｳ","pref":"福井県","city":"福井市","address":"下江尻町"},
{"zip_code":"9188037","kana_pref":"ﾌｸｲｹﾝ","kana_city":"ﾌｸｲｼ","kana_address":"ｼﾓｴﾓﾘﾁｮｳ","pref":"福井県","city":"福井市","address":"下江守町"},
{"zip_code":"9188211","kana_pref":"ﾌｸｲｹﾝ","kana_city":"ﾌｸｲｼ","kana_address":"ｼﾓﾅｶﾁｮｳ","pref":"福井県","city":"福井市","address":"下中町"},
{"zip_code":"9188135","kana_pref":"ﾌｸｲｹﾝ","kana_city":"ﾌｸｲｼ","kana_address":"ｼﾓﾛｸｼﾞｮｳﾁｮｳ","pref":"福井県","city":"福井市","address":"下六条町"},
{"zip_code":"9188163","kana_pref":"ﾌｸｲｹﾝ","kana_city":"ﾌｸｲｼ","kana_address":"ｼｮｳﾉﾁｮｳ","pref":"福井県","city":"福井市","address":"生野町"},
{"zip_code":"9188227","kana_pref":"ﾌｸｲｹﾝ","kana_city":"ﾌｸｲｼ","kana_address":"ｼﾞﾛｳﾏﾙﾁｮｳ","pref":"福井県","city":"福井市","address":"次郎丸町"},
{"zip_code":"9188036","kana_pref":"ﾌｸｲｹﾝ","kana_city":"ﾌｸｲｼ","kana_address":"ｼﾝｼﾓｴﾓﾘﾁｮｳ","pref":"福井県","city":"福井市","address":"新下江守町"},
{"zip_code":"9188172","kana_pref":"ﾌｸｲｹﾝ","kana_city":"ﾌｸｲｼ","kana_address":"ｽｴﾋﾛﾏﾁ","pref":"福井県","city":"福井市","address":"末広町"},
{"zip_code":"9188077","kana_pref":"ﾌｸｲｹﾝ","kana_city":"ﾌｸｲｼ","kana_address":"ｽｴﾏﾁ","pref":"福井県","city":"福井市","address":"末町"},
{"zip_code":"9188155","kana_pref":"ﾌｸｲｹﾝ","kana_city":"ﾌｸｲｼ","kana_address":"ｽｷﾞﾀﾆﾁｮｳ","pref":"福井県","city":"福井市","address":"杉谷町"},
{"zip_code":"9188239","kana_pref":"ﾌｸｲｹﾝ","kana_city":"ﾌｸｲｼ","kana_address":"ｾｲﾜ","pref":"福井県","city":"福井市","address":"成和"},
{"zip_code":"9188234","kana_pref":"ﾌｸｲｹﾝ","kana_city":"ﾌｸｲｼ","kana_address":"ｿﾝﾎﾞﾁｮｳ","pref":"福井県","city":"福井市","address":"曽万布町"},
{"zip_code":"9188202","kana_pref":"ﾌｸｲｹﾝ","kana_city":"ﾌｸｲｼ","kana_address":"ﾀﾞｲﾄｳ","pref":"福井県","city":"福井市","address":"大東"},
{"zip_code":"9188044","kana_pref":"ﾌｸｲｹﾝ","kana_city":"ﾌｸｲｼ","kana_address":"ﾀｶﾂｶﾁｮｳ","pref":"福井県","city":"福井市","address":"高塚町"},
{"zip_code":"9188031","kana_pref":"ﾌｸｲｹﾝ","kana_city":"ﾌｸｲｼ","kana_address":"ﾀﾅｲｹ","pref":"福井県","city":"福井市","address":"種池"},
{"zip_code":"9188031","kana_pref":"ﾌｸｲｹﾝ","kana_city":"ﾌｸｲｼ","kana_address":"ﾀﾅｲｹﾁｮｳ","pref":"福井県","city":"福井市","address":"種池町"},
{"zip_code":"9188011","kana_pref":"ﾌｸｲｹﾝ","kana_city":"ﾌｸｲｼ","kana_address":"ﾂｷﾐ","pref":"福井県","city":"福井市","address":"月見"},
{"zip_code":"9188001","kana_pref":"ﾌｸｲｹﾝ","kana_city":"ﾌｸｲｼ","kana_address":"ﾂｸﾓ","pref":"福井県","city":"福井市","address":"つくも"},
{"zip_code":"9188068","kana_pref":"ﾌｸｲｹﾝ","kana_city":"ﾌｸｲｼ","kana_address":"ﾂﾉｵﾘﾁｮｳ","pref":"福井県","city":"福井市","address":"角折町"},
{"zip_code":"9188162","kana_pref":"ﾌｸｲｹﾝ","kana_city":"ﾌｸｲｼ","kana_address":"ﾂﾉﾊﾗﾁｮｳ","pref":"福井県","city":"福井市","address":"角原町"},
{"zip_code":"9188216","kana_pref":"ﾌｸｲｹﾝ","kana_city":"ﾌｸｲｼ","kana_address":"ﾃﾝｶﾞﾁｮｳ","pref":"福井県","city":"福井市","address":"殿下町"},
{"zip_code":"9188136","kana_pref":"ﾌｸｲｹﾝ","kana_city":"ﾌｸｲｼ","kana_address":"ﾃﾝﾉｳﾁｮｳ","pref":"福井県","city":"福井市","address":"天王町"},
{"zip_code":"9188231","kana_pref":"ﾌｸｲｹﾝ","kana_city":"ﾌｸｲｼ","kana_address":"ﾄｲﾔﾁｮｳ","pref":"福井県","city":"福井市","address":"問屋町"},
{"zip_code":"9188165","kana_pref":"ﾌｸｲｹﾝ","kana_city":"ﾌｸｲｼ","kana_address":"ﾄｸｵﾁｮｳ","pref":"福井県","city":"福井市","address":"徳尾町"},
{"zip_code":"9188151","kana_pref":"ﾌｸｲｹﾝ","kana_city":"ﾌｸｲｼ","kana_address":"ﾅｶｱﾗｲﾏﾁ","pref":"福井県","city":"福井市","address":"中荒井町"},
{"zip_code":"9188186","kana_pref":"ﾌｸｲｹﾝ","kana_city":"ﾌｸｲｼ","kana_address":"ﾅｶﾉ","pref":"福井県","city":"福井市","address":"中野"},
{"zip_code":"9188185","kana_pref":"ﾌｸｲｹﾝ","kana_city":"ﾌｸｲｼ","kana_address":"ﾅｶﾉﾁｮｳ","pref":"福井県","city":"福井市","address":"中野町"},
{"zip_code":"9188034","kana_pref":"ﾌｸｲｹﾝ","kana_city":"ﾌｸｲｼ","kana_address":"ﾅｺﾞﾁｮｳ","pref":"福井県","city":"福井市","address":"南居町"},
{"zip_code":"9188102","kana_pref":"ﾌｸｲｹﾝ","kana_city":"ﾌｸｲｼ","kana_address":"ﾆｼｲﾀｶﾞｷﾁｮｳ","pref":"福井県","city":"福井市","address":"西板垣町"},
{"zip_code":"9188064","kana_pref":"ﾌｸｲｹﾝ","kana_city":"ﾌｸｲｼ","kana_address":"ﾆｼｶﾞｸｴﾝ","pref":"福井県","city":"福井市","address":"西学園"},
{"zip_code":"9188004","kana_pref":"ﾌｸｲｹﾝ","kana_city":"ﾌｸｲｼ","kana_address":"ﾆｼｷﾀﾞ","pref":"福井県","city":"福井市","address":"西木田"},
{"zip_code":"9188041","kana_pref":"ﾌｸｲｹﾝ","kana_city":"ﾌｸｲｼ","kana_address":"ﾆｼｼﾓﾉﾁｮｳ","pref":"福井県","city":"福井市","address":"西下野町"},
{"zip_code":"9188023","kana_pref":"ﾌｸｲｹﾝ","kana_city":"ﾌｸｲｼ","kana_address":"ﾆｼﾀﾆ","pref":"福井県","city":"福井市","address":"西谷"},
{"zip_code":"9188022","kana_pref":"ﾌｸｲｹﾝ","kana_city":"ﾌｸｲｼ","kana_address":"ﾆｼﾀﾆﾁｮｳ","pref":"福井県","city":"福井市","address":"西谷町"},
{"zip_code":"9188075","kana_pref":"ﾌｸｲｹﾝ","kana_city":"ﾌｸｲｼ","kana_address":"ﾊｻﾞｶﾁｮｳ","pref":"福井県","city":"福井市","address":"羽坂町"},
{"zip_code":"9188224","kana_pref":"ﾌｸｲｹﾝ","kana_city":"ﾌｸｲｼ","kana_address":"ﾊﾅﾉﾀﾆﾁｮｳ","pref":"福井県","city":"福井市","address":"花野谷町"},
{"zip_code":"9188187","kana_pref":"ﾌｸｲｹﾝ","kana_city":"ﾌｸｲｼ","kana_address":"ﾊﾅﾓﾘﾁｮｳ","pref":"福井県","city":"福井市","address":"花守町"},
{"zip_code":"9188014","kana_pref":"ﾌｸｲｹﾝ","kana_city":"ﾌｸｲｼ","kana_address":"ﾊﾅﾝﾄﾞｳﾅｶ","pref":"福井県","city":"福井市","address":"花堂中"},
{"zip_code":"9188013","kana_pref":"ﾌｸｲｹﾝ","kana_city":"ﾌｸｲｼ","kana_address":"ﾊﾅﾝﾄﾞｳﾋｶﾞｼ","pref":"福井県","city":"福井市","address":"花堂東"},
{"zip_code":"9188015","kana_pref":"ﾌｸｲｹﾝ","kana_city":"ﾌｸｲｼ","kana_address":"ﾊﾅﾝﾄﾞｳﾐﾅﾐ","pref":"福井県","city":"福井市","address":"花堂南"},
{"zip_code":"9188012","kana_pref":"ﾌｸｲｹﾝ","kana_city":"ﾌｸｲｼ","kana_address":"ﾊﾅﾝﾄﾞｳｷﾀ","pref":"福井県","city":"福井市","address":"花堂北"},
{"zip_code":"9188214","kana_pref":"ﾌｸｲｹﾝ","kana_city":"ﾌｸｲｼ","kana_address":"ﾋｶﾞｼｲﾏｲｽﾞﾐﾁｮｳ","pref":"福井県","city":"福井市","address":"東今泉町"},
{"zip_code":"9188042","kana_pref":"ﾌｸｲｹﾝ","kana_city":"ﾌｸｲｼ","kana_address":"ﾋｶﾞｼｼﾓﾉﾁｮｳ","pref":"福井県","city":"福井市","address":"東下野町"},
{"zip_code":"9188156","kana_pref":"ﾌｸｲｹﾝ","kana_city":"ﾌｸｲｼ","kana_address":"ﾋｷﾒﾁｮｳ","pref":"福井県","city":"福井市","address":"引目町"},
{"zip_code":"9188045","kana_pref":"ﾌｸｲｹﾝ","kana_city":"ﾌｸｲｼ","kana_address":"ﾌｸｼﾝﾏﾁ","pref":"福井県","city":"福井市","address":"福新町"},
{"zip_code":"9188027","kana_pref":"ﾌｸｲｹﾝ","kana_city":"ﾌｸｲｼ","kana_address":"ﾌｸ","pref":"福井県","city":"福井市","address":"福"},
{"zip_code":"9188027","kana_pref":"ﾌｸｲｹﾝ","kana_city":"ﾌｸｲｼ","kana_address":"ﾌｸﾏﾁ","pref":"福井県","city":"福井市","address":"福町"},
{"zip_code":"9188026","kana_pref":"ﾌｸｲｹﾝ","kana_city":"ﾌｸｲｼ","kana_address":"ﾌﾁ","pref":"福井県","city":"福井市","address":"渕"},
{"zip_code":"9188026","kana_pref":"ﾌｸｲｹﾝ","kana_city":"ﾌｸｲｼ","kana_address":"ﾌﾁﾏﾁ","pref":"福井県","city":"福井市","address":"渕町"},
{"zip_code":"9188154","kana_pref":"ﾌｸｲｹﾝ","kana_city":"ﾌｸｲｼ","kana_address":"ﾌﾕﾉﾁｮｳ","pref":"福井県","city":"福井市","address":"冬野町"},
{"zip_code":"9188115","kana_pref":"ﾌｸｲｹﾝ","kana_city":"ﾌｸｲｼ","kana_address":"ﾍﾞｯｼｮﾁｮｳ","pref":"福井県","city":"福井市","address":"別所町"},
{"zip_code":"9188161","kana_pref":"ﾌｸｲｹﾝ","kana_city":"ﾌｸｲｼ","kana_address":"ﾎｺｶﾞｻｷﾁｮｳ","pref":"福井県","city":"福井市","address":"鉾ケ崎町"},
{"zip_code":"9188074","kana_pref":"ﾌｸｲｹﾝ","kana_city":"ﾌｸｲｼ","kana_address":"ﾎｿｻｶﾁｮｳ","pref":"福井県","city":"福井市","address":"細坂町"},
{"zip_code":"9188076","kana_pref":"ﾌｸｲｹﾝ","kana_city":"ﾌｸｲｼ","kana_address":"ﾎﾝﾄﾞｳﾁｮｳ","pref":"福井県","city":"福井市","address":"本堂町"},
{"zip_code":"9188024","kana_pref":"ﾌｸｲｹﾝ","kana_city":"ﾌｸｲｼ","kana_address":"ﾏｲﾔﾁｮｳ","pref":"福井県","city":"福井市","address":"舞屋町"},
{"zip_code":"9188184","kana_pref":"ﾌｸｲｹﾝ","kana_city":"ﾌｸｲｼ","kana_address":"ﾏｷﾁｮｳ","pref":"福井県","city":"福井市","address":"真木町"},
{"zip_code":"9188188","kana_pref":"ﾌｸｲｹﾝ","kana_city":"ﾌｸｲｼ","kana_address":"ﾐｵﾉﾁｮｳ","pref":"福井県","city":"福井市","address":"三尾野町"},
{"zip_code":"9188065","kana_pref":"ﾌｸｲｹﾝ","kana_city":"ﾌｸｲｼ","kana_address":"ﾐｽﾞｺｼ","pref":"福井県","city":"福井市","address":"水越"},
{"zip_code":"9188032","kana_pref":"ﾌｸｲｹﾝ","kana_city":"ﾌｸｲｼ","kana_address":"ﾐﾅﾐｴﾓﾘﾁｮｳ","pref":"福井県","city":"福井市","address":"南江守町"},
{"zip_code":"9188204","kana_pref":"ﾌｸｲｹﾝ","kana_city":"ﾌｸｲｼ","kana_address":"ﾐﾅﾐﾖﾂｲ","pref":"福井県","city":"福井市","address":"南四ツ居"},
{"zip_code":"9188201","kana_pref":"ﾌｸｲｹﾝ","kana_city":"ﾌｸｲｼ","kana_address":"ﾐﾅﾐﾖﾂｲﾁｮｳ","pref":"福井県","city":"福井市","address":"南四ツ居町"},
{"zip_code":"9188005","kana_pref":"ﾌｸｲｹﾝ","kana_city":"ﾌｸｲｼ","kana_address":"ﾐﾉﾘ","pref":"福井県","city":"福井市","address":"みのり"},
{"zip_code":"9188225","kana_pref":"ﾌｸｲｹﾝ","kana_city":"ﾌｸｲｼ","kana_address":"ﾐﾔｼﾞﾁｮｳ","pref":"福井県","city":"福井市","address":"宮地町"},
{"zip_code":"9188051","kana_pref":"ﾌｸｲｹﾝ","kana_city":"ﾌｸｲｼ","kana_address":"ﾓﾓｿﾞﾉ","pref":"福井県","city":"福井市","address":"桃園"},
{"zip_code":"9188171","kana_pref":"ﾌｸｲｹﾝ","kana_city":"ﾌｸｲｼ","kana_address":"ﾓﾘﾕｷﾁｮｳ","pref":"福井県","city":"福井市","address":"森行町"},
{"zip_code":"9188021","kana_pref":"ﾌｸｲｹﾝ","kana_city":"ﾌｸｲｼ","kana_address":"ﾓﾝｾﾞﾝ","pref":"福井県","city":"福井市","address":"門前"},
{"zip_code":"9188021","kana_pref":"ﾌｸｲｹﾝ","kana_city":"ﾌｸｲｼ","kana_address":"ﾓﾝｾﾞﾝﾁｮｳ","pref":"福井県","city":"福井市","address":"門前町"},
{"zip_code":"9188073","kana_pref":"ﾌｸｲｹﾝ","kana_city":"ﾌｸｲｼ","kana_address":"ﾔｽﾀﾞﾁｮｳ","pref":"福井県","city":"福井市","address":"安田町"},
{"zip_code":"9188009","kana_pref":"ﾌｸｲｹﾝ","kana_city":"ﾌｸｲｼ","kana_address":"ﾔﾏｵｸﾁｮｳ","pref":"福井県","city":"福井市","address":"山奥町"},
{"zip_code":"9188008","kana_pref":"ﾌｸｲｹﾝ","kana_city":"ﾌｸｲｼ","kana_address":"ﾕｳﾗｸﾁｮｳ","pref":"福井県","city":"福井市","address":"有楽町"},
{"zip_code":"9188215","kana_pref":"ﾌｸｲｹﾝ","kana_city":"ﾌｸｲｼ","kana_address":"ﾘｮｳﾏﾁ","pref":"福井県","city":"福井市","address":"寮町"},
{"zip_code":"9188055","kana_pref":"ﾌｸｲｹﾝ","kana_city":"ﾌｸｲｼ","kana_address":"ﾜｶｽｷﾞ","pref":"福井県","city":"福井市","address":"若杉"},
{"zip_code":"9188055","kana_pref":"ﾌｸｲｹﾝ","kana_city":"ﾌｸｲｼ","kana_address":"ﾜｶｽｷﾞﾁｮｳ","pref":"福井県","city":"福井市","address":"若杉町"},
{"zip_code":"9188056","kana_pref":"ﾌｸｲｹﾝ","kana_city":"ﾌｸｲｼ","kana_address":"ﾜｶｽｷﾞﾊﾏ","pref":"福井県","city":"福井市","address":"若杉浜"},
{"zip_code":"9188066","kana_pref":"ﾌｸｲｹﾝ","kana_city":"ﾌｸｲｼ","kana_address":"ﾜﾀﾘﾁｮｳ","pref":"福井県","city":"福井市","address":"渡町"},
{"zip_code":"9188238","kana_pref":"ﾌｸｲｹﾝ","kana_city":"ﾌｸｲｼ","kana_address":"ﾜﾀﾞ","pref":"福井県","city":"福井市","address":"和田"},
{"zip_code":"9188236","kana_pref":"ﾌｸｲｹﾝ","kana_city":"ﾌｸｲｼ","kana_address":"ﾜﾀﾞﾅｶ","pref":"福井県","city":"福井市","address":"和田中"},
{"zip_code":"9188235","kana_pref":"ﾌｸｲｹﾝ","kana_city":"ﾌｸｲｼ","kana_address":"ﾜﾀﾞﾅｶﾁｮｳ","pref":"福井県","city":"福井市","address":"和田中町"},
{"zip_code":"9188237","kana_pref":"ﾌｸｲｹﾝ","kana_city":"ﾌｸｲｼ","kana_address":"ﾜﾀﾞﾋｶﾞｼ","pref":"福井県","city":"福井市","address":"和田東"}]}