{"zip_code":[
{"zip_code":"9190314","kana_pref":"ﾌｸｲｹﾝ","kana_city":"ﾌｸｲｼ","kana_address":"ｲｹﾌﾞﾁｮｳ","pref":"福井県","city":"福井市","address":"生部町"},
{"zip_code":"9190303","kana_pref":"ﾌｸｲｹﾝ","kana_city":"ﾌｸｲｼ","kana_address":"ｲﾜｸﾗﾁｮｳ","pref":"福井県","city":"福井市","address":"岩倉町"},
{"zip_code":"9190323","kana_pref":"ﾌｸｲｹﾝ","kana_city":"ﾌｸｲｼ","kana_address":"ｵｵﾀﾁｮｳ","pref":"福井県","city":"福井市","address":"太田町"},
{"zip_code":"9190327","kana_pref":"ﾌｸｲｹﾝ","kana_city":"ﾌｸｲｼ","kana_address":"ｵｵﾄﾞﾛﾁｮｳ","pref":"福井県","city":"福井市","address":"大土呂町"},
{"zip_code":"9190316","kana_pref":"ﾌｸｲｹﾝ","kana_city":"ﾌｸｲｼ","kana_address":"ｵｵﾑﾗﾁｮｳ","pref":"福井県","city":"福井市","address":"大村町"},
{"zip_code":"9190322","kana_pref":"ﾌｸｲｹﾝ","kana_city":"ﾌｸｲｼ","kana_address":"ｶﾐｺｷﾞﾀﾁｮｳ","pref":"福井県","city":"福井市","address":"上河北町"},
{"zip_code":"9190302","kana_pref":"ﾌｸｲｹﾝ","kana_city":"ﾌｸｲｼ","kana_address":"ｶﾐﾎｿｴﾁｮｳ","pref":"福井県","city":"福井市","address":"上細江町"},
{"zip_code":"9190318","kana_pref":"ﾌｸｲｹﾝ","kana_city":"ﾌｸｲｼ","kana_address":"ｷﾀﾔﾏｼﾝﾎﾞﾁｮｳ","pref":"福井県","city":"福井市","address":"北山新保町"},
{"zip_code":"9190317","kana_pref":"ﾌｸｲｹﾝ","kana_city":"ﾌｸｲｼ","kana_address":"ｷﾀﾔﾏﾁｮｳ","pref":"福井県","city":"福井市","address":"北山町"},
{"zip_code":"9190321","kana_pref":"ﾌｸｲｹﾝ","kana_city":"ﾌｸｲｼ","kana_address":"ｼﾓｺｷﾞﾀﾁｮｳ","pref":"福井県","city":"福井市","address":"下河北町"},
{"zip_code":"9190373","kana_pref":"ﾌｸｲｹﾝ","kana_city":"ﾌｸｲｼ","kana_address":"ｼﾓﾄｳｺﾞｳﾁｮｳ","pref":"福井県","city":"福井市","address":"下東郷町"},
{"zip_code":"9190301","kana_pref":"ﾌｸｲｹﾝ","kana_city":"ﾌｸｲｼ","kana_address":"ｼﾓﾎｿｴﾁｮｳ","pref":"福井県","city":"福井市","address":"下細江町"},
{"zip_code":"9190328","kana_pref":"ﾌｸｲｹﾝ","kana_city":"ﾌｸｲｼ","kana_address":"ｼﾝﾋﾞﾗｷﾁｮｳ","pref":"福井県","city":"福井市","address":"新開町"},
{"zip_code":"9190311","kana_pref":"ﾌｸｲｹﾝ","kana_city":"ﾌｸｲｼ","kana_address":"ﾀｼﾞｼﾏﾁｮｳ","pref":"福井県","city":"福井市","address":"田治島町"},
{"zip_code":"9190304","kana_pref":"ﾌｸｲｹﾝ","kana_city":"ﾌｸｲｼ","kana_address":"ﾀﾅｶﾁｮｳ","pref":"福井県","city":"福井市","address":"田中町"},
{"zip_code":"9190305","kana_pref":"ﾌｸｲｹﾝ","kana_city":"ﾌｸｲｼ","kana_address":"ﾄｸﾐﾂﾁｮｳ","pref":"福井県","city":"福井市","address":"徳光町"},
{"zip_code":"9190313","kana_pref":"ﾌｸｲｹﾝ","kana_city":"ﾌｸｲｼ","kana_address":"ﾆｼｵｵﾐﾁｮｳ","pref":"福井県","city":"福井市","address":"西大味町"},
{"zip_code":"9190315","kana_pref":"ﾌｸｲｹﾝ","kana_city":"ﾌｸｲｼ","kana_address":"ﾆｼﾌﾞｸﾛﾁｮｳ","pref":"福井県","city":"福井市","address":"西袋町"},
{"zip_code":"9190326","kana_pref":"ﾌｸｲｹﾝ","kana_city":"ﾌｸｲｼ","kana_address":"ﾊﾝﾀﾞﾁｮｳ","pref":"福井県","city":"福井市","address":"半田町"},
{"zip_code":"9190312","kana_pref":"ﾌｸｲｹﾝ","kana_city":"ﾌｸｲｼ","kana_address":"ﾋｶﾞｼｵｵﾐﾁｮｳ","pref":"福井県","city":"福井市","address":"東大味町"},
{"zip_code":"9190325","kana_pref":"ﾌｸｲｹﾝ","kana_city":"ﾌｸｲｼ","kana_address":"ﾌﾀｶﾞﾐﾁｮｳ","pref":"福井県","city":"福井市","address":"二上町"},
{"zip_code":"9190324","kana_pref":"ﾌｸｲｹﾝ","kana_city":"ﾌｸｲｼ","kana_address":"ﾎﾀﾞﾆﾁｮｳ","pref":"福井県","city":"福井市","address":"帆谷町"},
{"zip_code":"9191279","kana_pref":"ﾌｸｲｹﾝ","kana_city":"ﾂﾙｶﾞｼ","kana_address":"ｼﾗｷ","pref":"福井県","city":"敦賀市","address":"白木"},
{"zip_code":"9190600","kana_pref":"ﾌｸｲｹﾝ","kana_city":"ｱﾜﾗｼ","kana_address":"","pref":"福井県","city":"あわら市","address":""},
{"zip_code":"9190814","kana_pref":"ﾌｸｲｹﾝ","kana_city":"ｱﾜﾗｼ","kana_address":"ｱｵﾉｷ","pref":"福井県","city":"あわら市","address":"青ノ木"},
{"zip_code":"9190614","kana_pref":"ﾌｸｲｹﾝ","kana_city":"ｱﾜﾗｼ","kana_address":"ｲｲ","pref":"福井県","city":"あわら市","address":"伊井"},
{"zip_code":"9190615","kana_pref":"ﾌｸｲｹﾝ","kana_city":"ｱﾜﾗｼ","kana_address":"ｲｹｸﾞﾁ","pref":"福井県","city":"あわら市","address":"池口"},
{"zip_code":"9190621","kana_pref":"ﾌｸｲｹﾝ","kana_city":"ｱﾜﾗｼ","kana_address":"ｲﾁﾋﾒ","pref":"福井県","city":"あわら市","address":"市姫"},
{"zip_code":"9190623","kana_pref":"ﾌｸｲｹﾝ","kana_city":"ｱﾜﾗｼ","kana_address":"ｲﾅｺﾞｴ","pref":"福井県","city":"あわら市","address":"稲越"},
{"zip_code":"9190721","kana_pref":"ﾌｸｲｹﾝ","kana_city":"ｱﾜﾗｼ","kana_address":"ｳｼﾉﾔ","pref":"福井県","city":"あわら市","address":"牛ノ谷"},
{"zip_code":"9190735","kana_pref":"ﾌｸｲｹﾝ","kana_city":"ｱﾜﾗｼ","kana_address":"ｳｼﾛﾔﾏ","pref":"福井県","city":"あわら市","address":"後山"},
{"zip_code":"9190722","kana_pref":"ﾌｸｲｹﾝ","kana_city":"ｱﾜﾗｼ","kana_address":"ｳﾈｲﾁﾉﾉ","pref":"福井県","city":"あわら市","address":"畝市野々"},
{"zip_code":"9190742","kana_pref":"ﾌｸｲｹﾝ","kana_city":"ｱﾜﾗｼ","kana_address":"ｳﾘｭｳ","pref":"福井県","city":"あわら市","address":"瓜生"},
{"zip_code":"9190724","kana_pref":"ﾌｸｲｹﾝ","kana_city":"ｱﾜﾗｼ","kana_address":"ｳﾜﾉ","pref":"福井県","city":"あわら市","address":"上野"},
{"zip_code":"9190628","kana_pref":"ﾌｸｲｹﾝ","kana_city":"ｱﾜﾗｼ","kana_address":"ｵｵﾐｿﾞ","pref":"福井県","city":"あわら市","address":"大溝"},
{"zip_code":"9190812","kana_pref":"ﾌｸｲｹﾝ","kana_city":"ｱﾜﾗｼ","kana_address":"ｶｷﾊﾞﾗ","pref":"福井県","city":"あわら市","address":"柿原"},
{"zip_code":"9190732","kana_pref":"ﾌｸｲｹﾝ","kana_city":"ｱﾜﾗｼ","kana_address":"ｶﾏﾀﾞﾆ","pref":"福井県","city":"あわら市","address":"鎌谷"},
{"zip_code":"9190616","kana_pref":"ﾌｸｲｹﾝ","kana_city":"ｱﾜﾗｼ","kana_address":"ｶﾜﾗｲﾃﾞ","pref":"福井県","city":"あわら市","address":"河原井手"},
{"zip_code":"9190749","kana_pref":"ﾌｸｲｹﾝ","kana_city":"ｱﾜﾗｼ","kana_address":"ｷﾀ","pref":"福井県","city":"あわら市","address":"北"},
{"zip_code":"9190634","kana_pref":"ﾌｸｲｹﾝ","kana_city":"ｱﾜﾗｼ","kana_address":"ｷﾀｶﾅﾂﾞ","pref":"福井県","city":"あわら市","address":"北金津"},
{"zip_code":"9190748","kana_pref":"ﾌｸｲｹﾝ","kana_city":"ｱﾜﾗｼ","kana_address":"ｷﾀﾉ","pref":"福井県","city":"あわら市","address":"北野"},
{"zip_code":"9190744","kana_pref":"ﾌｸｲｹﾝ","kana_city":"ｱﾜﾗｼ","kana_address":"ｷﾀﾋｷﾀﾞ","pref":"福井県","city":"あわら市","address":"北疋田"},
{"zip_code":"9190733","kana_pref":"ﾌｸｲｹﾝ","kana_city":"ｱﾜﾗｼ","kana_address":"ｷﾖﾀｷ","pref":"福井県","city":"あわら市","address":"清滝"},
{"zip_code":"9190736","kana_pref":"ﾌｸｲｹﾝ","kana_city":"ｱﾜﾗｼ","kana_address":"ｸﾇｷﾞ","pref":"福井県","city":"あわら市","address":"椚"},
{"zip_code":"9190723","kana_pref":"ﾌｸｲｹﾝ","kana_city":"ｱﾜﾗｼ","kana_address":"ｸﾏｻｶ","pref":"福井県","city":"あわら市","address":"熊坂"},
{"zip_code":"9190612","kana_pref":"ﾌｸｲｹﾝ","kana_city":"ｱﾜﾗｼ","kana_address":"ｸﾜﾊﾞﾗ","pref":"福井県","city":"あわら市","address":"桑原"},
{"zip_code":"9190737","kana_pref":"ﾌｸｲｹﾝ","kana_city":"ｱﾜﾗｼ","kana_address":"ｺﾞﾝｾﾞ","pref":"福井県","city":"あわら市","address":"権世"},
{"zip_code":"9190731","kana_pref":"ﾌｸｲｹﾝ","kana_city":"ｱﾜﾗｼ","kana_address":"ｺﾞﾝｾﾞｲﾁﾉﾉ","pref":"福井県","city":"あわら市","address":"権世市野々"},
{"zip_code":"9190817","kana_pref":"ﾌｸｲｹﾝ","kana_city":"ｱﾜﾗｼ","kana_address":"ｻｶｸﾞﾁ","pref":"福井県","city":"あわら市","address":"坂口"},
{"zip_code":"9190726","kana_pref":"ﾌｸｲｹﾝ","kana_city":"ｱﾜﾗｼ","kana_address":"ｻｻｵｶ","pref":"福井県","city":"あわら市","address":"笹岡"},
{"zip_code":"9190804","kana_pref":"ﾌｸｲｹﾝ","kana_city":"ｱﾜﾗｼ","kana_address":"ｻﾜ","pref":"福井県","city":"あわら市","address":"沢"},
{"zip_code":"9190727","kana_pref":"ﾌｸｲｹﾝ","kana_city":"ｱﾜﾗｼ","kana_address":"ｼﾓｶﾅﾔ","pref":"福井県","city":"あわら市","address":"下金屋"},
{"zip_code":"9190604","kana_pref":"ﾌｸｲｹﾝ","kana_city":"ｱﾜﾗｼ","kana_address":"ｼﾞﾕｳｶﾞｵｶ","pref":"福井県","city":"あわら市","address":"自由ケ丘"},
{"zip_code":"9190745","kana_pref":"ﾌｸｲｹﾝ","kana_city":"ｱﾜﾗｼ","kana_address":"ｼﾞﾛｳﾏﾙ","pref":"福井県","city":"あわら市","address":"次郎丸"},
{"zip_code":"9190602","kana_pref":"ﾌｸｲｹﾝ","kana_city":"ｱﾜﾗｼ","kana_address":"ｽｶﾞﾉ","pref":"福井県","city":"あわら市","address":"菅野"},
{"zip_code":"9190815","kana_pref":"ﾌｸｲｹﾝ","kana_city":"ｱﾜﾗｼ","kana_address":"ｾｲｵｳ","pref":"福井県","city":"あわら市","address":"清王"},
{"zip_code":"9190611","kana_pref":"ﾌｸｲｹﾝ","kana_city":"ｱﾜﾗｼ","kana_address":"ｾｲﾏ","pref":"福井県","city":"あわら市","address":"清間"},
{"zip_code":"9190631","kana_pref":"ﾌｸｲｹﾝ","kana_city":"ｱﾜﾗｼ","kana_address":"ﾀｶﾂｶ","pref":"福井県","city":"あわら市","address":"高塚"},
{"zip_code":"9190805","kana_pref":"ﾌｸｲｹﾝ","kana_city":"ｱﾜﾗｼ","kana_address":"ﾀｷ","pref":"福井県","city":"あわら市","address":"滝"},
{"zip_code":"9190741","kana_pref":"ﾌｸｲｹﾝ","kana_city":"ｱﾜﾗｼ","kana_address":"ﾅｶｶﾞﾜ","pref":"福井県","city":"あわら市","address":"中川"},
{"zip_code":"9190802","kana_pref":"ﾌｸｲｹﾝ","kana_city":"ｱﾜﾗｼ","kana_address":"ﾊｼﾔ","pref":"福井県","city":"あわら市","address":"橋屋"},
{"zip_code":"9190811","kana_pref":"ﾌｸｲｹﾝ","kana_city":"ｱﾜﾗｼ","kana_address":"ﾊｽｶﾞｳﾗ","pref":"福井県","city":"あわら市","address":"蓮ケ浦"},
{"zip_code":"9190633","kana_pref":"ﾌｸｲｹﾝ","kana_city":"ｱﾜﾗｼ","kana_address":"ﾊﾅﾉﾓﾘ","pref":"福井県","city":"あわら市","address":"花乃杜"},
{"zip_code":"9190632","kana_pref":"ﾌｸｲｹﾝ","kana_city":"ｱﾜﾗｼ","kana_address":"ﾊﾙﾐﾔ","pref":"福井県","city":"あわら市","address":"春宮"},
{"zip_code":"9190746","kana_pref":"ﾌｸｲｹﾝ","kana_city":"ｱﾜﾗｼ","kana_address":"ﾋｶﾞｼﾀﾅｶ","pref":"福井県","city":"あわら市","address":"東田中"},
{"zip_code":"9190734","kana_pref":"ﾌｸｲｹﾝ","kana_city":"ｱﾜﾗｼ","kana_address":"ﾋｶﾞｼﾔﾏ","pref":"福井県","city":"あわら市","address":"東山"},
{"zip_code":"9190803","kana_pref":"ﾌｸｲｹﾝ","kana_city":"ｱﾜﾗｼ","kana_address":"ﾋﾔﾏ","pref":"福井県","city":"あわら市","address":"樋山"},
{"zip_code":"9190613","kana_pref":"ﾌｸｲｹﾝ","kana_city":"ｱﾜﾗｼ","kana_address":"ﾌﾙﾔｲｼﾂﾞｶ","pref":"福井県","city":"あわら市","address":"古屋石塚"},
{"zip_code":"9190801","kana_pref":"ﾌｸｲｹﾝ","kana_city":"ｱﾜﾗｼ","kana_address":"ﾎｿﾛｷﾞ","pref":"福井県","city":"あわら市","address":"細呂木"},
{"zip_code":"9190725","kana_pref":"ﾌｸｲｹﾝ","kana_city":"ｱﾜﾗｼ","kana_address":"ﾏｴﾀﾞﾆ","pref":"福井県","city":"あわら市","address":"前谷"},
{"zip_code":"9190747","kana_pref":"ﾌｸｲｹﾝ","kana_city":"ｱﾜﾗｼ","kana_address":"ﾐｽﾉｵ","pref":"福井県","city":"あわら市","address":"御簾尾"},
{"zip_code":"9190743","kana_pref":"ﾌｸｲｹﾝ","kana_city":"ｱﾜﾗｼ","kana_address":"ﾐﾅﾐﾋｷﾀﾞ","pref":"福井県","city":"あわら市","address":"南疋田"},
{"zip_code":"9190806","kana_pref":"ﾌｸｲｹﾝ","kana_city":"ｱﾜﾗｼ","kana_address":"ﾐﾔﾀﾞﾆ","pref":"福井県","city":"あわら市","address":"宮谷"},
{"zip_code":"9190603","kana_pref":"ﾌｸｲｹﾝ","kana_city":"ｱﾜﾗｼ","kana_address":"ﾔﾁ","pref":"福井県","city":"あわら市","address":"矢地"},
{"zip_code":"9190813","kana_pref":"ﾌｸｲｹﾝ","kana_city":"ｱﾜﾗｼ","kana_address":"ﾔﾏｻｲﾎｳｼﾞ","pref":"福井県","city":"あわら市","address":"山西方寺"},
{"zip_code":"9190816","kana_pref":"ﾌｸｲｹﾝ","kana_city":"ｱﾜﾗｼ","kana_address":"ﾔﾏｼﾞｭｳﾗｸ","pref":"福井県","city":"あわら市","address":"山十楽"},
{"zip_code":"9190601","kana_pref":"ﾌｸｲｹﾝ","kana_city":"ｱﾜﾗｼ","kana_address":"ﾔﾏﾑﾛ","pref":"福井県","city":"あわら市","address":"山室"},
{"zip_code":"9190807","kana_pref":"ﾌｸｲｹﾝ","kana_city":"ｱﾜﾗｼ","kana_address":"ﾕﾋﾞﾅｶ","pref":"福井県","city":"あわら市","address":"指中"},
{"zip_code":"9190517","kana_pref":"ﾌｸｲｹﾝ","kana_city":"ｻｶｲｼ","kana_address":"ｻｶｲﾁｮｳｱｻﾋ","pref":"福井県","city":"坂井市","address":"坂井町朝日"},
{"zip_code":"9190531","kana_pref":"ﾌｸｲｹﾝ","kana_city":"ｻｶｲｼ","kana_address":"ｻｶｲﾁｮｳｲﾏｲ","pref":"福井県","city":"坂井市","address":"坂井町今井"},
{"zip_code":"9190547","kana_pref":"ﾌｸｲｹﾝ","kana_city":"ｻｶｲｼ","kana_address":"ｻｶｲﾁｮｳｵｵﾐ","pref":"福井県","city":"坂井市","address":"坂井町大味"},
{"zip_code":"9190537","kana_pref":"ﾌｸｲｹﾝ","kana_city":"ｻｶｲｼ","kana_address":"ｻｶｲﾁｮｳｵﾘﾄ","pref":"福井県","city":"坂井市","address":"坂井町折戸"},
{"zip_code":"9190522","kana_pref":"ﾌｸｲｹﾝ","kana_city":"ｻｶｲｼ","kana_address":"ｻｶｲﾁｮｳｶﾐｼﾝｼﾞｮｳ","pref":"福井県","city":"坂井市","address":"坂井町上新庄"},
{"zip_code":"9190502","kana_pref":"ﾌｸｲｹﾝ","kana_city":"ｻｶｲｼ","kana_address":"ｻｶｲﾁｮｳｶﾐｾﾞｷ","pref":"福井県","city":"坂井市","address":"坂井町上関"},
{"zip_code":"9190526","kana_pref":"ﾌｸｲｹﾝ","kana_city":"ｻｶｲｼ","kana_address":"ｻｶｲﾁｮｳｶﾐﾋｮｳｺﾞ","pref":"福井県","city":"坂井市","address":"坂井町上兵庫"},
{"zip_code":"9190505","kana_pref":"ﾌｸｲｹﾝ","kana_city":"ｻｶｲｼ","kana_address":"ｻｶｲﾁｮｳｶﾜﾀﾞ","pref":"福井県","city":"坂井市","address":"坂井町河和田"},
{"zip_code":"9190536","kana_pref":"ﾌｸｲｹﾝ","kana_city":"ｻｶｲｼ","kana_address":"ｻｶｲﾁｮｳｷﾍﾞｼﾝﾎﾞ","pref":"福井県","city":"坂井市","address":"坂井町木部新保"},
{"zip_code":"9190533","kana_pref":"ﾌｸｲｹﾝ","kana_city":"ｻｶｲｼ","kana_address":"ｻｶｲﾁｮｳｷﾍﾞﾋｶﾞｼ","pref":"福井県","city":"坂井市","address":"坂井町木部東"},
{"zip_code":"9190534","kana_pref":"ﾌｸｲｹﾝ","kana_city":"ｻｶｲｼ","kana_address":"ｻｶｲﾁｮｳｷﾖﾅｶﾞ","pref":"福井県","city":"坂井市","address":"坂井町清永"},
{"zip_code":"9190542","kana_pref":"ﾌｸｲｹﾝ","kana_city":"ｻｶｲｼ","kana_address":"ｻｶｲﾁｮｳｸﾗｶﾞｲﾁ","pref":"福井県","city":"坂井市","address":"坂井町蔵垣内"},
{"zip_code":"9190507","kana_pref":"ﾌｸｲｹﾝ","kana_city":"ｻｶｲｼ","kana_address":"ｻｶｲﾁｮｳｺﾞﾎﾝ","pref":"福井県","city":"坂井市","address":"坂井町五本"},
{"zip_code":"9190504","kana_pref":"ﾌｸｲｹﾝ","kana_city":"ｻｶｲｼ","kana_address":"ｻｶｲﾁｮｳｺﾞﾕｳﾃﾞﾝ","pref":"福井県","city":"坂井市","address":"坂井町御油田"},
{"zip_code":"9190506","kana_pref":"ﾌｸｲｹﾝ","kana_city":"ｻｶｲｼ","kana_address":"ｻｶｲﾁｮｳｻﾀﾞﾑﾈ","pref":"福井県","city":"坂井市","address":"坂井町定旨"},
{"zip_code":"9190535","kana_pref":"ﾌｸｲｹﾝ","kana_city":"ｻｶｲｼ","kana_address":"ｻｶｲﾁｮｳｼﾏ","pref":"福井県","city":"坂井市","address":"坂井町島"},
{"zip_code":"9190521","kana_pref":"ﾌｸｲｹﾝ","kana_city":"ｻｶｲｼ","kana_address":"ｻｶｲﾁｮｳｼﾓｼﾝｼﾞｮｳ","pref":"福井県","city":"坂井市","address":"坂井町下新庄"},
{"zip_code":"9190501","kana_pref":"ﾌｸｲｹﾝ","kana_city":"ｻｶｲｼ","kana_address":"ｻｶｲﾁｮｳｼﾓｾﾞｷ","pref":"福井県","city":"坂井市","address":"坂井町下関"},
{"zip_code":"9190527","kana_pref":"ﾌｸｲｹﾝ","kana_city":"ｻｶｲｼ","kana_address":"ｻｶｲﾁｮｳｼﾓﾋｮｳｺﾞ","pref":"福井県","city":"坂井市","address":"坂井町下兵庫"},
{"zip_code":"9190523","kana_pref":"ﾌｸｲｹﾝ","kana_city":"ｻｶｲｼ","kana_address":"ｻｶｲﾁｮｳｼﾝｼﾞｮｳ","pref":"福井県","city":"坂井市","address":"坂井町新庄"},
{"zip_code":"9190532","kana_pref":"ﾌｸｲｹﾝ","kana_city":"ｻｶｲｼ","kana_address":"ｻｶｲﾁｮｳﾀｶﾔﾅｷﾞ","pref":"福井県","city":"坂井市","address":"坂井町高柳"},
{"zip_code":"9190546","kana_pref":"ﾌｸｲｹﾝ","kana_city":"ｻｶｲｼ","kana_address":"ｻｶｲﾁｮｳﾀｺ","pref":"福井県","city":"坂井市","address":"坂井町蛸"},
{"zip_code":"9190513","kana_pref":"ﾌｸｲｹﾝ","kana_city":"ｻｶｲｼ","kana_address":"ｻｶｲﾁｮｳﾀｼﾞﾏ","pref":"福井県","city":"坂井市","address":"坂井町田島"},
{"zip_code":"9190514","kana_pref":"ﾌｸｲｹﾝ","kana_city":"ｻｶｲｼ","kana_address":"ｻｶｲﾁｮｳﾀｼﾞﾏｸﾎﾞ","pref":"福井県","city":"坂井市","address":"坂井町田島窪"},
{"zip_code":"9190525","kana_pref":"ﾌｸｲｹﾝ","kana_city":"ｻｶｲｼ","kana_address":"ｻｶｲﾁｮｳﾄｸﾌﾞﾝﾃﾞﾝ","pref":"福井県","city":"坂井市","address":"坂井町徳分田"},
{"zip_code":"9190511","kana_pref":"ﾌｸｲｹﾝ","kana_city":"ｻｶｲｼ","kana_address":"ｻｶｲﾁｮｳﾅｶﾞﾊﾞﾀｹ","pref":"福井県","city":"坂井市","address":"坂井町長畑"},
{"zip_code":"9190503","kana_pref":"ﾌｸｲｹﾝ","kana_city":"ｻｶｲｼ","kana_address":"ｻｶｲﾁｮｳﾅｶﾞﾔ","pref":"福井県","city":"坂井市","address":"坂井町長屋"},
{"zip_code":"9190543","kana_pref":"ﾌｸｲｹﾝ","kana_city":"ｻｶｲｼ","kana_address":"ｻｶｲﾁｮｳﾆｼ","pref":"福井県","city":"坂井市","address":"坂井町西"},
{"zip_code":"9190541","kana_pref":"ﾌｸｲｹﾝ","kana_city":"ｻｶｲｼ","kana_address":"ｻｶｲﾁｮｳﾋｶﾞｼ","pref":"福井県","city":"坂井市","address":"坂井町東"},
{"zip_code":"9190545","kana_pref":"ﾌｸｲｹﾝ","kana_city":"ｻｶｲｼ","kana_address":"ｻｶｲﾁｮｳﾋｶﾞｼｱﾗｲ","pref":"福井県","city":"坂井市","address":"坂井町東荒井"},
{"zip_code":"9190524","kana_pref":"ﾌｸｲｹﾝ","kana_city":"ｻｶｲｼ","kana_address":"ｻｶｲﾁｮｳﾋｶﾞｼﾅｶﾞﾀ","pref":"福井県","city":"坂井市","address":"坂井町東長田"},
{"zip_code":"9190544","kana_pref":"ﾌｸｲｹﾝ","kana_city":"ｻｶｲｼ","kana_address":"ｻｶｲﾁｮｳﾋｶﾞｼﾅｶﾉ","pref":"福井県","city":"坂井市","address":"坂井町東中野"},
{"zip_code":"9190516","kana_pref":"ﾌｸｲｹﾝ","kana_city":"ｻｶｲｼ","kana_address":"ｻｶｲﾁｮｳﾌｸｼﾏ","pref":"福井県","city":"坂井市","address":"坂井町福島"},
{"zip_code":"9190512","kana_pref":"ﾌｸｲｹﾝ","kana_city":"ｻｶｲｼ","kana_address":"ｻｶｲﾁｮｳﾐﾔﾘｮｳ","pref":"福井県","city":"坂井市","address":"坂井町宮領"},
{"zip_code":"9190515","kana_pref":"ﾌｸｲｹﾝ","kana_city":"ｻｶｲｼ","kana_address":"ｻｶｲﾁｮｳﾜｶﾐﾔ","pref":"福井県","city":"坂井市","address":"坂井町若宮"},
{"zip_code":"9190483","kana_pref":"ﾌｸｲｹﾝ","kana_city":"ｻｶｲｼ","kana_address":"ﾊﾙｴﾁｮｳｲｼﾂﾞｶ","pref":"福井県","city":"坂井市","address":"春江町石塚"},
{"zip_code":"9190423","kana_pref":"ﾌｸｲｹﾝ","kana_city":"ｻｶｲｼ","kana_address":"ﾊﾙｴﾁｮｳｲｼﾎﾞﾄｹ","pref":"福井県","city":"坂井市","address":"春江町石仏"},
{"zip_code":"9190424","kana_pref":"ﾌｸｲｹﾝ","kana_city":"ｻｶｲｼ","kana_address":"ﾊﾙｴﾁｮｳｲﾁｲﾉ","pref":"福井県","city":"坂井市","address":"春江町いちい野"},
{"zip_code":"9190425","kana_pref":"ﾌｸｲｹﾝ","kana_city":"ｻｶｲｼ","kana_address":"ﾊﾙｴﾁｮｳｲﾁｲﾉｷﾀ","pref":"福井県","city":"坂井市","address":"春江町いちい野北"},
{"zip_code":"9190426","kana_pref":"ﾌｸｲｹﾝ","kana_city":"ｻｶｲｼ","kana_address":"ﾊﾙｴﾁｮｳｲﾁｲﾉﾁｭｳｵｳ","pref":"福井県","city":"坂井市","address":"春江町いちい野中央"},
{"zip_code":"9190403","kana_pref":"ﾌｸｲｹﾝ","kana_city":"ｻｶｲｼ","kana_address":"ﾊﾙｴﾁｮｳｲﾉﾑｶｲ","pref":"福井県","city":"坂井市","address":"春江町井向"},
{"zip_code":"9190455","kana_pref":"ﾌｸｲｹﾝ","kana_city":"ｻｶｲｼ","kana_address":"ﾊﾙｴﾁｮｳｴﾄﾞﾒｶﾐ","pref":"福井県","city":"坂井市","address":"春江町江留上"},
{"zip_code":"9190451","kana_pref":"ﾌｸｲｹﾝ","kana_city":"ｻｶｲｼ","kana_address":"ﾊﾙｴﾁｮｳｴﾄﾞﾒｶﾐｱｻﾋ","pref":"福井県","city":"坂井市","address":"春江町江留上旭"},
{"zip_code":"9190463","kana_pref":"ﾌｸｲｹﾝ","kana_city":"ｻｶｲｼ","kana_address":"ﾊﾙｴﾁｮｳｴﾄﾞﾒｶﾐｼｮｳﾜ","pref":"福井県","city":"坂井市","address":"春江町江留上昭和"},
{"zip_code":"9190465","kana_pref":"ﾌｸｲｹﾝ","kana_city":"ｻｶｲｼ","kana_address":"ﾊﾙｴﾁｮｳｴﾄﾞﾒｶﾐｼﾝﾏﾁ","pref":"福井県","city":"坂井市","address":"春江町江留上新町"},
{"zip_code":"9190453","kana_pref":"ﾌｸｲｹﾝ","kana_city":"ｻｶｲｼ","kana_address":"ﾊﾙｴﾁｮｳｴﾄﾞﾒｶﾐﾁｭｳｵｳ","pref":"福井県","city":"坂井市","address":"春江町江留上中央"},
{"zip_code":"9190464","kana_pref":"ﾌｸｲｹﾝ","kana_city":"ｻｶｲｼ","kana_address":"ﾊﾙｴﾁｮｳｴﾄﾞﾒｶﾐﾆｼｷ","pref":"福井県","city":"坂井市","address":"春江町江留上錦"},
{"zip_code":"9190454","kana_pref":"ﾌｸｲｹﾝ","kana_city":"ｻｶｲｼ","kana_address":"ﾊﾙｴﾁｮｳｴﾄﾞﾒｶﾐﾋﾉﾃﾞ","pref":"福井県","city":"坂井市","address":"春江町江留上日の出"},
{"zip_code":"9190452","kana_pref":"ﾌｸｲｹﾝ","kana_city":"ｻｶｲｼ","kana_address":"ﾊﾙｴﾁｮｳｴﾄﾞﾒｶﾐﾎﾝﾏﾁ","pref":"福井県","city":"坂井市","address":"春江町江留上本町"},
{"zip_code":"9190461","kana_pref":"ﾌｸｲｹﾝ","kana_city":"ｻｶｲｼ","kana_address":"ﾊﾙｴﾁｮｳｴﾄﾞﾒｶﾐﾐﾄﾞﾘ","pref":"福井県","city":"坂井市","address":"春江町江留上緑"},
{"zip_code":"9190462","kana_pref":"ﾌｸｲｹﾝ","kana_city":"ｻｶｲｼ","kana_address":"ﾊﾙｴﾁｮｳｴﾄﾞﾒｶﾐﾔﾏﾄ","pref":"福井県","city":"坂井市","address":"春江町江留上大和"},
{"zip_code":"9190415","kana_pref":"ﾌｸｲｹﾝ","kana_city":"ｻｶｲｼ","kana_address":"ﾊﾙｴﾁｮｳｴﾄﾞﾒｼﾓ","pref":"福井県","city":"坂井市","address":"春江町江留下"},
{"zip_code":"9190417","kana_pref":"ﾌｸｲｹﾝ","kana_city":"ｻｶｲｼ","kana_address":"ﾊﾙｴﾁｮｳｴﾄﾞﾒｼﾓｱｲﾃﾞﾝ","pref":"福井県","city":"坂井市","address":"春江町江留下相田"},
{"zip_code":"9190416","kana_pref":"ﾌｸｲｹﾝ","kana_city":"ｻｶｲｼ","kana_address":"ﾊﾙｴﾁｮｳｴﾄﾞﾒｼﾓｳﾜｴ","pref":"福井県","city":"坂井市","address":"春江町江留下宇和江"},
{"zip_code":"9190418","kana_pref":"ﾌｸｲｹﾝ","kana_city":"ｻｶｲｼ","kana_address":"ﾊﾙｴﾁｮｳｴﾄﾞﾒｼﾓﾀｶﾐﾁ","pref":"福井県","city":"坂井市","address":"春江町江留下高道"},
{"zip_code":"9190414","kana_pref":"ﾌｸｲｹﾝ","kana_city":"ｻｶｲｼ","kana_address":"ﾊﾙｴﾁｮｳｴﾄﾞﾒｼﾓﾔｼｷ","pref":"福井県","city":"坂井市","address":"春江町江留下屋敷"},
{"zip_code":"9190412","kana_pref":"ﾌｸｲｹﾝ","kana_city":"ｻｶｲｼ","kana_address":"ﾊﾙｴﾁｮｳｴﾄﾞﾒﾅｶ","pref":"福井県","city":"坂井市","address":"春江町江留中"},
{"zip_code":"9190421","kana_pref":"ﾌｸｲｹﾝ","kana_city":"ｻｶｲｼ","kana_address":"ﾊﾙｴﾁｮｳｵｵﾊﾞﾘ","pref":"福井県","city":"坂井市","address":"春江町大針"},
{"zip_code":"9190402","kana_pref":"ﾌｸｲｹﾝ","kana_city":"ｻｶｲｼ","kana_address":"ﾊﾙｴﾁｮｳｵｵﾏｷ","pref":"福井県","city":"坂井市","address":"春江町大牧"},
{"zip_code":"9190422","kana_pref":"ﾌｸｲｹﾝ","kana_city":"ｻｶｲｼ","kana_address":"ﾊﾙｴﾁｮｳｵｷﾇﾉﾒ","pref":"福井県","city":"坂井市","address":"春江町沖布目"},
{"zip_code":"9190405","kana_pref":"ﾌｸｲｹﾝ","kana_city":"ｻｶｲｼ","kana_address":"ﾊﾙｴﾁｮｳｶﾐｺﾓﾘ","pref":"福井県","city":"坂井市","address":"春江町上小森"},
{"zip_code":"9190408","kana_pref":"ﾌｸｲｹﾝ","kana_city":"ｻｶｲｼ","kana_address":"ﾊﾙｴﾁｮｳｷﾍﾞｻｲﾎｳｼﾞ","pref":"福井県","city":"坂井市","address":"春江町木部西方寺"},
{"zip_code":"9190471","kana_pref":"ﾌｸｲｹﾝ","kana_city":"ｻｶｲｼ","kana_address":"ﾊﾙｴﾁｮｳｺﾝｺﾞｳｼﾞ","pref":"福井県","city":"坂井市","address":"春江町金剛寺"},
{"zip_code":"9190434","kana_pref":"ﾌｸｲｹﾝ","kana_city":"ｻｶｲｼ","kana_address":"ﾊﾙｴﾁｮｳｻｶｲ","pref":"福井県","city":"坂井市","address":"春江町境"},
{"zip_code":"9190434","kana_pref":"ﾌｸｲｹﾝ","kana_city":"ｻｶｲｼ","kana_address":"ﾊﾙｴﾁｮｳｻｶｲｶﾐﾁｮｳ","pref":"福井県","city":"坂井市","address":"春江町境上町"},
{"zip_code":"9190434","kana_pref":"ﾌｸｲｹﾝ","kana_city":"ｻｶｲｼ","kana_address":"ﾊﾙｴﾁｮｳｻｶｲﾓﾄﾏﾁ","pref":"福井県","city":"坂井市","address":"春江町境元町"},
{"zip_code":"9190441","kana_pref":"ﾌｸｲｹﾝ","kana_city":"ｻｶｲｼ","kana_address":"ﾊﾙｴﾁｮｳｻﾀﾞｼｹﾞ","pref":"福井県","city":"坂井市","address":"春江町定重"},
{"zip_code":"9190409","kana_pref":"ﾌｸｲｹﾝ","kana_city":"ｻｶｲｼ","kana_address":"ﾊﾙｴﾁｮｳｻﾀﾞﾋﾛ","pref":"福井県","city":"坂井市","address":"春江町定広"},
{"zip_code":"9190406","kana_pref":"ﾌｸｲｹﾝ","kana_city":"ｻｶｲｼ","kana_address":"ﾊﾙｴﾁｮｳｼﾓｺﾓﾘ","pref":"福井県","city":"坂井市","address":"春江町下小森"},
{"zip_code":"9190487","kana_pref":"ﾌｸｲｹﾝ","kana_city":"ｻｶｲｼ","kana_address":"ﾊﾙｴﾁｮｳｼｮｳｾﾞﾝ","pref":"福井県","city":"坂井市","address":"春江町正善"},
{"zip_code":"9190443","kana_pref":"ﾌｸｲｹﾝ","kana_city":"ｻｶｲｼ","kana_address":"ﾊﾙｴﾁｮｳｼｮｳﾚﾝｹﾞ","pref":"福井県","city":"坂井市","address":"春江町正蓮花"},
{"zip_code":"9190413","kana_pref":"ﾌｸｲｹﾝ","kana_city":"ｻｶｲｼ","kana_address":"ﾊﾙｴﾁｮｳｽﾞｲｵｳｼﾞ","pref":"福井県","city":"坂井市","address":"春江町随応寺"},
{"zip_code":"9190481","kana_pref":"ﾌｸｲｹﾝ","kana_city":"ｻｶｲｼ","kana_address":"ﾊﾙｴﾁｮｳｾﾝﾎﾞｳｼﾞ","pref":"福井県","city":"坂井市","address":"春江町千歩寺"},
{"zip_code":"9190479","kana_pref":"ﾌｸｲｹﾝ","kana_city":"ｻｶｲｼ","kana_address":"ﾊﾙｴﾁｮｳﾀｶｴ","pref":"福井県","city":"坂井市","address":"春江町高江"},
{"zip_code":"9190477","kana_pref":"ﾌｸｲｹﾝ","kana_city":"ｻｶｲｼ","kana_address":"ﾊﾙｴﾁｮｳﾀﾊﾞﾀ","pref":"福井県","city":"坂井市","address":"春江町田端"},
{"zip_code":"9190431","kana_pref":"ﾌｸｲｹﾝ","kana_city":"ｻｶｲｼ","kana_address":"ﾊﾙｴﾁｮｳﾀﾒｸﾆ","pref":"福井県","city":"坂井市","address":"春江町為国"},
{"zip_code":"9190432","kana_pref":"ﾌｸｲｹﾝ","kana_city":"ｻｶｲｼ","kana_address":"ﾊﾙｴﾁｮｳﾀﾒｸﾆｶﾒｶﾞｸﾎﾞ","pref":"福井県","city":"坂井市","address":"春江町為国亀ケ久保"},
{"zip_code":"9190435","kana_pref":"ﾌｸｲｹﾝ","kana_city":"ｻｶｲｼ","kana_address":"ﾊﾙｴﾁｮｳﾀﾒｸﾆｻｲﾜｲ","pref":"福井県","city":"坂井市","address":"春江町為国幸"},
{"zip_code":"9190436","kana_pref":"ﾌｸｲｹﾝ","kana_city":"ｻｶｲｼ","kana_address":"ﾊﾙｴﾁｮｳﾀﾒｸﾆﾅｶｸ","pref":"福井県","city":"坂井市","address":"春江町為国中区"},
{"zip_code":"9190437","kana_pref":"ﾌｸｲｹﾝ","kana_city":"ｻｶｲｼ","kana_address":"ﾊﾙｴﾁｮｳﾀﾒｸﾆﾆｼﾉﾐﾔ","pref":"福井県","city":"坂井市","address":"春江町為国西の宮"},
{"zip_code":"9190433","kana_pref":"ﾌｸｲｹﾝ","kana_city":"ｻｶｲｼ","kana_address":"ﾊﾙｴﾁｮｳﾀﾒｸﾆﾍｲｾｲ","pref":"福井県","city":"坂井市","address":"春江町為国平成"},
{"zip_code":"9190407","kana_pref":"ﾌｸｲｹﾝ","kana_city":"ｻｶｲｼ","kana_address":"ﾊﾙｴﾁｮｳﾂｼﾞ","pref":"福井県","city":"坂井市","address":"春江町辻"},
{"zip_code":"9190485","kana_pref":"ﾌｸｲｹﾝ","kana_city":"ｻｶｲｼ","kana_address":"ﾊﾙｴﾁｮｳﾄﾘﾂｷﾞ","pref":"福井県","city":"坂井市","address":"春江町取次"},
{"zip_code":"9190449","kana_pref":"ﾌｸｲｹﾝ","kana_city":"ｻｶｲｼ","kana_address":"ﾊﾙｴﾁｮｳﾅｶｽｼﾞ","pref":"福井県","city":"坂井市","address":"春江町中筋"},
{"zip_code":"9190447","kana_pref":"ﾌｸｲｹﾝ","kana_city":"ｻｶｲｼ","kana_address":"ﾊﾙｴﾁｮｳﾅｶｽｼﾞｵｵﾃ","pref":"福井県","city":"坂井市","address":"春江町中筋大手"},
{"zip_code":"9190446","kana_pref":"ﾌｸｲｹﾝ","kana_city":"ｻｶｲｼ","kana_address":"ﾊﾙｴﾁｮｳﾅｶｽｼﾞｶｽｶﾞ","pref":"福井県","city":"坂井市","address":"春江町中筋春日"},
{"zip_code":"9190448","kana_pref":"ﾌｸｲｹﾝ","kana_city":"ｻｶｲｼ","kana_address":"ﾊﾙｴﾁｮｳﾅｶｽｼﾞｷﾀｳﾗ","pref":"福井県","city":"坂井市","address":"春江町中筋北浦"},
{"zip_code":"9190445","kana_pref":"ﾌｸｲｹﾝ","kana_city":"ｻｶｲｼ","kana_address":"ﾊﾙｴﾁｮｳﾅｶｽｼﾞﾀｶﾀﾞ","pref":"福井県","city":"坂井市","address":"春江町中筋高田"},
{"zip_code":"9190444","kana_pref":"ﾌｸｲｹﾝ","kana_city":"ｻｶｲｼ","kana_address":"ﾊﾙｴﾁｮｳﾅｶｽｼﾞﾐﾂﾔ","pref":"福井県","city":"坂井市","address":"春江町中筋三ツ屋"},
{"zip_code":"9190482","kana_pref":"ﾌｸｲｹﾝ","kana_city":"ｻｶｲｼ","kana_address":"ﾊﾙｴﾁｮｳﾅｶﾉｼｮｳ","pref":"福井県","city":"坂井市","address":"春江町中庄"},
{"zip_code":"9190474","kana_pref":"ﾌｸｲｹﾝ","kana_city":"ｻｶｲｼ","kana_address":"ﾊﾙｴﾁｮｳﾆｼﾀﾛｳﾏﾙ","pref":"福井県","city":"坂井市","address":"春江町西太郎丸"},
{"zip_code":"9190404","kana_pref":"ﾌｸｲｹﾝ","kana_city":"ｻｶｲｼ","kana_address":"ﾊﾙｴﾁｮｳﾆｼﾅｶﾞﾀ","pref":"福井県","city":"坂井市","address":"春江町西長田"},
{"zip_code":"9190476","kana_pref":"ﾌｸｲｹﾝ","kana_city":"ｻｶｲｼ","kana_address":"ﾊﾙｴﾁｮｳﾊﾘﾊﾞﾗ","pref":"福井県","city":"坂井市","address":"春江町針原"},
{"zip_code":"9190475","kana_pref":"ﾌｸｲｹﾝ","kana_city":"ｻｶｲｼ","kana_address":"ﾊﾙｴﾁｮｳﾋｶﾞｼﾀﾛｳﾏﾙ","pref":"福井県","city":"坂井市","address":"春江町東太郎丸"},
{"zip_code":"9190488","kana_pref":"ﾌｸｲｹﾝ","kana_city":"ｻｶｲｼ","kana_address":"ﾊﾙｴﾁｮｳﾋﾒｵｳ","pref":"福井県","city":"坂井市","address":"春江町姫王"},
{"zip_code":"9190411","kana_pref":"ﾌｸｲｹﾝ","kana_city":"ｻｶｲｼ","kana_address":"ﾊﾙｴﾁｮｳﾌｼﾞﾜｼﾂﾞｶ","pref":"福井県","city":"坂井市","address":"春江町藤鷲塚"},
{"zip_code":"9190486","kana_pref":"ﾌｸｲｹﾝ","kana_city":"ｻｶｲｼ","kana_address":"ﾊﾙｴﾁｮｳﾌｾﾀﾞｼﾝ","pref":"福井県","city":"坂井市","address":"春江町布施田新"},
{"zip_code":"9190401","kana_pref":"ﾌｸｲｹﾝ","kana_city":"ｻｶｲｼ","kana_address":"ﾊﾙｴﾁｮｳﾎﾘｺｼ","pref":"福井県","city":"坂井市","address":"春江町堀越"},
{"zip_code":"9190473","kana_pref":"ﾌｸｲｹﾝ","kana_city":"ｻｶｲｼ","kana_address":"ﾊﾙｴﾁｮｳﾎﾝﾄﾞｳ","pref":"福井県","city":"坂井市","address":"春江町本堂"},
{"zip_code":"9190472","kana_pref":"ﾌｸｲｹﾝ","kana_city":"ｻｶｲｼ","kana_address":"ﾊﾙｴﾁｮｳﾏﾂｷ","pref":"福井県","city":"坂井市","address":"春江町松木"},
{"zip_code":"9190484","kana_pref":"ﾌｸｲｹﾝ","kana_city":"ｻｶｲｼ","kana_address":"ﾊﾙｴﾁｮｳﾔｽｻﾞﾜ","pref":"福井県","city":"坂井市","address":"春江町安沢"},
{"zip_code":"9190442","kana_pref":"ﾌｸｲｹﾝ","kana_city":"ｻｶｲｼ","kana_address":"ﾊﾙｴﾁｮｳﾖﾘﾔｽ","pref":"福井県","city":"坂井市","address":"春江町寄安"},
{"zip_code":"9190200","kana_pref":"ﾌｸｲｹﾝ","kana_city":"ﾅﾝｼﾞｮｳｸﾞﾝﾐﾅﾐｴﾁｾﾞﾝﾁｮｳ","kana_address":"","pref":"福井県","city":"南条郡南越前町","address":""},
{"zip_code":"9190121","kana_pref":"ﾌｸｲｹﾝ","kana_city":"ﾅﾝｼﾞｮｳｸﾞﾝﾐﾅﾐｴﾁｾﾞﾝﾁｮｳ","kana_address":"ｱｲﾊﾞ","pref":"福井県","city":"南条郡南越前町","address":"合波"},
{"zip_code":"9190213","kana_pref":"ﾌｸｲｹﾝ","kana_city":"ﾅﾝｼﾞｮｳｸﾞﾝﾐﾅﾐｴﾁｾﾞﾝﾁｮｳ","kana_address":"ｱｸﾜ","pref":"福井県","city":"南条郡南越前町","address":"阿久和"},
{"zip_code":"9190123","kana_pref":"ﾌｸｲｹﾝ","kana_city":"ﾅﾝｼﾞｮｳｸﾞﾝﾐﾅﾐｴﾁｾﾞﾝﾁｮｳ","kana_address":"ｱﾗｲ","pref":"福井県","city":"南条郡南越前町","address":"荒井"},
{"zip_code":"9190128","kana_pref":"ﾌｸｲｹﾝ","kana_city":"ﾅﾝｼﾞｮｳｸﾞﾝﾐﾅﾐｴﾁｾﾞﾝﾁｮｳ","kana_address":"ｲﾀﾄﾞﾘ","pref":"福井県","city":"南条郡南越前町","address":"板取"},
{"zip_code":"9190131","kana_pref":"ﾌｸｲｹﾝ","kana_city":"ﾅﾝｼﾞｮｳｸﾞﾝﾐﾅﾐｴﾁｾﾞﾝﾁｮｳ","kana_address":"ｲﾏｼﾞｮｳ","pref":"福井県","city":"南条郡南越前町","address":"今庄"},
{"zip_code":"9190202","kana_pref":"ﾌｸｲｹﾝ","kana_city":"ﾅﾝｼﾞｮｳｸﾞﾝﾐﾅﾐｴﾁｾﾞﾝﾁｮｳ","kana_address":"ｲﾓﾉｼ","pref":"福井県","city":"南条郡南越前町","address":"鋳物師"},
{"zip_code":"9190204","kana_pref":"ﾌｸｲｹﾝ","kana_city":"ﾅﾝｼﾞｮｳｸﾞﾝﾐﾅﾐｴﾁｾﾞﾝﾁｮｳ","kana_address":"ｳｴﾉ","pref":"福井県","city":"南条郡南越前町","address":"上野"},
{"zip_code":"9190125","kana_pref":"ﾌｸｲｹﾝ","kana_city":"ﾅﾝｼﾞｮｳｸﾞﾝﾐﾅﾐｴﾁｾﾞﾝﾁｮｳ","kana_address":"ｳﾂｵ","pref":"福井県","city":"南条郡南越前町","address":"宇津尾"},
{"zip_code":"9190136","kana_pref":"ﾌｸｲｹﾝ","kana_city":"ﾅﾝｼﾞｮｳｸﾞﾝﾐﾅﾐｴﾁｾﾞﾝﾁｮｳ","kana_address":"ｵｵｷﾞﾘ","pref":"福井県","city":"南条郡南越前町","address":"大桐"},
{"zip_code":"9190215","kana_pref":"ﾌｸｲｹﾝ","kana_city":"ﾅﾝｼﾞｮｳｸﾞﾝﾐﾅﾐｴﾁｾﾞﾝﾁｮｳ","kana_address":"ｵｸﾉﾉ","pref":"福井県","city":"南条郡南越前町","address":"奥野々"},
{"zip_code":"9190114","kana_pref":"ﾌｸｲｹﾝ","kana_city":"ﾅﾝｼﾞｮｳｸﾞﾝﾐﾅﾐｴﾁｾﾞﾝﾁｮｳ","kana_address":"ｵｸﾞﾗﾀﾆ","pref":"福井県","city":"南条郡南越前町","address":"小倉谷"},
{"zip_code":"9190206","kana_pref":"ﾌｸｲｹﾝ","kana_city":"ﾅﾝｼﾞｮｳｸﾞﾝﾐﾅﾐｴﾁｾﾞﾝﾁｮｳ","kana_address":"ｶﾈｶﾞｽ","pref":"福井県","city":"南条郡南越前町","address":"金粕"},
{"zip_code":"9190115","kana_pref":"ﾌｸｲｹﾝ","kana_city":"ﾅﾝｼﾞｮｳｸﾞﾝﾐﾅﾐｴﾁｾﾞﾝﾁｮｳ","kana_address":"ｶﾐﾇｸﾀﾞﾆ","pref":"福井県","city":"南条郡南越前町","address":"上温谷"},
{"zip_code":"9190201","kana_pref":"ﾌｸｲｹﾝ","kana_city":"ﾅﾝｼﾞｮｳｸﾞﾝﾐﾅﾐｴﾁｾﾞﾝﾁｮｳ","kana_address":"ｶﾐﾋﾗﾌﾞｷ","pref":"福井県","city":"南条郡南越前町","address":"上平吹"},
{"zip_code":"9190216","kana_pref":"ﾌｸｲｹﾝ","kana_city":"ﾅﾝｼﾞｮｳｸﾞﾝﾐﾅﾐｴﾁｾﾞﾝﾁｮｳ","kana_address":"ｶﾐﾍﾞｯｼｮ","pref":"福井県","city":"南条郡南越前町","address":"上別所"},
{"zip_code":"9190119","kana_pref":"ﾌｸｲｹﾝ","kana_city":"ﾅﾝｼﾞｮｳｸﾞﾝﾐﾅﾐｴﾁｾﾞﾝﾁｮｳ","kana_address":"ｸｷ","pref":"福井県","city":"南条郡南越前町","address":"久喜"},
{"zip_code":"9190212","kana_pref":"ﾌｸｲｹﾝ","kana_city":"ﾅﾝｼﾞｮｳｸﾞﾝﾐﾅﾐｴﾁｾﾞﾝﾁｮｳ","kana_address":"ｻﾊﾞﾅﾐ","pref":"福井県","city":"南条郡南越前町","address":"鯖波"},
{"zip_code":"9190221","kana_pref":"ﾌｸｲｹﾝ","kana_city":"ﾅﾝｼﾞｮｳｸﾞﾝﾐﾅﾐｴﾁｾﾞﾝﾁｮｳ","kana_address":"ｼﾏ","pref":"福井県","city":"南条郡南越前町","address":"島"},
{"zip_code":"9190226","kana_pref":"ﾌｸｲｹﾝ","kana_city":"ﾅﾝｼﾞｮｳｸﾞﾝﾐﾅﾐｴﾁｾﾞﾝﾁｮｳ","kana_address":"ｼﾐｽﾞ","pref":"福井県","city":"南条郡南越前町","address":"清水"},
{"zip_code":"9190133","kana_pref":"ﾌｸｲｹﾝ","kana_city":"ﾅﾝｼﾞｮｳｸﾞﾝﾐﾅﾐｴﾁｾﾞﾝﾁｮｳ","kana_address":"ｼﾝﾄﾞｳ","pref":"福井県","city":"南条郡南越前町","address":"新道"},
{"zip_code":"9190111","kana_pref":"ﾌｸｲｹﾝ","kana_city":"ﾅﾝｼﾞｮｳｸﾞﾝﾐﾅﾐｴﾁｾﾞﾝﾁｮｳ","kana_address":"ｽｷﾞﾀﾆ","pref":"福井県","city":"南条郡南越前町","address":"杉谷"},
{"zip_code":"9190211","kana_pref":"ﾌｸｲｹﾝ","kana_city":"ﾅﾝｼﾞｮｳｸﾞﾝﾐﾅﾐｴﾁｾﾞﾝﾁｮｳ","kana_address":"ｾｷｶﾞﾊﾅ","pref":"福井県","city":"南条郡南越前町","address":"関ケ鼻"},
{"zip_code":"9190113","kana_pref":"ﾌｸｲｹﾝ","kana_city":"ﾅﾝｼﾞｮｳｸﾞﾝﾐﾅﾐｴﾁｾﾞﾝﾁｮｳ","kana_address":"ｾﾄ","pref":"福井県","city":"南条郡南越前町","address":"瀬戸"},
{"zip_code":"9190112","kana_pref":"ﾌｸｲｹﾝ","kana_city":"ﾅﾝｼﾞｮｳｸﾞﾝﾐﾅﾐｴﾁｾﾞﾝﾁｮｳ","kana_address":"ｿﾏｷﾏﾀ","pref":"福井県","city":"南条郡南越前町","address":"杣木俣"},
{"zip_code":"9190217","kana_pref":"ﾌｸｲｹﾝ","kana_city":"ﾅﾝｼﾞｮｳｸﾞﾝﾐﾅﾐｴﾁｾﾞﾝﾁｮｳ","kana_address":"ｿﾏﾔﾏ","pref":"福井県","city":"南条郡南越前町","address":"杣山"},
{"zip_code":"9190122","kana_pref":"ﾌｸｲｹﾝ","kana_city":"ﾅﾝｼﾞｮｳｸﾞﾝﾐﾅﾐｴﾁｾﾞﾝﾁｮｳ","kana_address":"ﾀﾞｲﾓﾝ","pref":"福井県","city":"南条郡南越前町","address":"大門"},
{"zip_code":"9190205","kana_pref":"ﾌｸｲｹﾝ","kana_city":"ﾅﾝｼﾞｮｳｸﾞﾝﾐﾅﾐｴﾁｾﾞﾝﾁｮｳ","kana_address":"ﾄﾞｳﾐﾔ","pref":"福井県","city":"南条郡南越前町","address":"堂宮"},
{"zip_code":"9190214","kana_pref":"ﾌｸｲｹﾝ","kana_city":"ﾅﾝｼﾞｮｳｸﾞﾝﾐﾅﾐｴﾁｾﾞﾝﾁｮｳ","kana_address":"ﾅｶｺﾞﾔ","pref":"福井県","city":"南条郡南越前町","address":"中小屋"},
{"zip_code":"9190118","kana_pref":"ﾌｸｲｹﾝ","kana_city":"ﾅﾝｼﾞｮｳｸﾞﾝﾐﾅﾐｴﾁｾﾞﾝﾁｮｳ","kana_address":"ﾅｶﾞｻﾜ","pref":"福井県","city":"南条郡南越前町","address":"長沢"},
{"zip_code":"9190224","kana_pref":"ﾌｸｲｹﾝ","kana_city":"ﾅﾝｼﾞｮｳｸﾞﾝﾐﾅﾐｴﾁｾﾞﾝﾁｮｳ","kana_address":"ﾆｼﾀﾞｲﾄﾞｳ","pref":"福井県","city":"南条郡南越前町","address":"西大道"},
{"zip_code":"9190126","kana_pref":"ﾌｸｲｹﾝ","kana_city":"ﾅﾝｼﾞｮｳｸﾞﾝﾐﾅﾐｴﾁｾﾞﾝﾁｮｳ","kana_address":"ﾊｼﾀﾃ","pref":"福井県","city":"南条郡南越前町","address":"橋立"},
{"zip_code":"9190117","kana_pref":"ﾌｸｲｹﾝ","kana_city":"ﾅﾝｼﾞｮｳｸﾞﾝﾐﾅﾐｴﾁｾﾞﾝﾁｮｳ","kana_address":"ﾊﾞｼﾞｮｳﾒﾝ","pref":"福井県","city":"南条郡南越前町","address":"馬上免"},
{"zip_code":"9190104","kana_pref":"ﾌｸｲｹﾝ","kana_city":"ﾅﾝｼﾞｮｳｸﾞﾝﾐﾅﾐｴﾁｾﾞﾝﾁｮｳ","kana_address":"ﾋｳﾁ","pref":"福井県","city":"南条郡南越前町","address":"燧"},
{"zip_code":"9190223","kana_pref":"ﾌｸｲｹﾝ","kana_city":"ﾅﾝｼﾞｮｳｸﾞﾝﾐﾅﾐｴﾁｾﾞﾝﾁｮｳ","kana_address":"ﾋｶﾞｼﾀﾞｲﾄﾞｳ","pref":"福井県","city":"南条郡南越前町","address":"東大道"},
{"zip_code":"9190225","kana_pref":"ﾌｸｲｹﾝ","kana_city":"ﾅﾝｼﾞｮｳｸﾞﾝﾐﾅﾐｴﾁｾﾞﾝﾁｮｳ","kana_address":"ﾋｶﾞｼﾀﾞﾆ","pref":"福井県","city":"南条郡南越前町","address":"東谷"},
{"zip_code":"9190222","kana_pref":"ﾌｸｲｹﾝ","kana_city":"ﾅﾝｼﾞｮｳｸﾞﾝﾐﾅﾐｴﾁｾﾞﾝﾁｮｳ","kana_address":"ﾋﾉ","pref":"福井県","city":"南条郡南越前町","address":"日野"},
{"zip_code":"9190127","kana_pref":"ﾌｸｲｹﾝ","kana_city":"ﾅﾝｼﾞｮｳｸﾞﾝﾐﾅﾐｴﾁｾﾞﾝﾁｮｳ","kana_address":"ﾋﾛﾉ","pref":"福井県","city":"南条郡南越前町","address":"広野"},
{"zip_code":"9190135","kana_pref":"ﾌｸｲｹﾝ","kana_city":"ﾅﾝｼﾞｮｳｸﾞﾝﾐﾅﾐｴﾁｾﾞﾝﾁｮｳ","kana_address":"ﾌﾀﾂﾔ","pref":"福井県","city":"南条郡南越前町","address":"二ツ屋"},
{"zip_code":"9190116","kana_pref":"ﾌｸｲｹﾝ","kana_city":"ﾅﾝｼﾞｮｳｸﾞﾝﾐﾅﾐｴﾁｾﾞﾝﾁｮｳ","kana_address":"ﾌﾙｷ","pref":"福井県","city":"南条郡南越前町","address":"古木"},
{"zip_code":"9190203","kana_pref":"ﾌｸｲｹﾝ","kana_city":"ﾅﾝｼﾞｮｳｸﾞﾝﾐﾅﾐｴﾁｾﾞﾝﾁｮｳ","kana_address":"ﾏｷﾀﾞﾆ","pref":"福井県","city":"南条郡南越前町","address":"牧谷"},
{"zip_code":"9190129","kana_pref":"ﾌｸｲｹﾝ","kana_city":"ﾅﾝｼﾞｮｳｸﾞﾝﾐﾅﾐｴﾁｾﾞﾝﾁｮｳ","kana_address":"ﾏｺﾞﾀﾆ","pref":"福井県","city":"南条郡南越前町","address":"孫谷"},
{"zip_code":"9190132","kana_pref":"ﾌｸｲｹﾝ","kana_city":"ﾅﾝｼﾞｮｳｸﾞﾝﾐﾅﾐｴﾁｾﾞﾝﾁｮｳ","kana_address":"ﾐﾅﾐｲﾏｼﾞｮｳ","pref":"福井県","city":"南条郡南越前町","address":"南今庄"},
{"zip_code":"9190124","kana_pref":"ﾌｸｲｹﾝ","kana_city":"ﾅﾝｼﾞｮｳｸﾞﾝﾐﾅﾐｴﾁｾﾞﾝﾁｮｳ","kana_address":"ﾔｲ","pref":"福井県","city":"南条郡南越前町","address":"八飯"},
{"zip_code":"9190102","kana_pref":"ﾌｸｲｹﾝ","kana_city":"ﾅﾝｼﾞｮｳｸﾞﾝﾐﾅﾐｴﾁｾﾞﾝﾁｮｳ","kana_address":"ﾔｵﾄﾒ","pref":"福井県","city":"南条郡南越前町","address":"八乙女"},
{"zip_code":"9190103","kana_pref":"ﾌｸｲｹﾝ","kana_city":"ﾅﾝｼﾞｮｳｸﾞﾝﾐﾅﾐｴﾁｾﾞﾝﾁｮｳ","kana_address":"ﾔｼﾛﾀﾞﾆ","pref":"福井県","city":"南条郡南越前町","address":"社谷"},
{"zip_code":"9190101","kana_pref":"ﾌｸｲｹﾝ","kana_city":"ﾅﾝｼﾞｮｳｸﾞﾝﾐﾅﾐｴﾁｾﾞﾝﾁｮｳ","kana_address":"ﾕﾉｵ","pref":"福井県","city":"南条郡南越前町","address":"湯尾"},
{"zip_code":"9190227","kana_pref":"ﾌｸｲｹﾝ","kana_city":"ﾅﾝｼﾞｮｳｸﾞﾝﾐﾅﾐｴﾁｾﾞﾝﾁｮｳ","kana_address":"ﾜｷﾓﾄ","pref":"福井県","city":"南条郡南越前町","address":"脇本"},
{"zip_code":"9191100","kana_pref":"ﾌｸｲｹﾝ","kana_city":"ﾐｶﾀｸﾞﾝﾐﾊﾏﾁｮｳ","kana_address":"","pref":"福井県","city":"三方郡美浜町","address":""},
{"zip_code":"9191133","kana_pref":"ﾌｸｲｹﾝ","kana_city":"ﾐｶﾀｸﾞﾝﾐﾊﾏﾁｮｳ","kana_address":"ｱｿ","pref":"福井県","city":"三方郡美浜町","address":"麻生"},
{"zip_code":"9191135","kana_pref":"ﾌｸｲｹﾝ","kana_city":"ﾐｶﾀｸﾞﾝﾐﾊﾏﾁｮｳ","kana_address":"ｲｻﾀﾞﾆ","pref":"福井県","city":"三方郡美浜町","address":"五十谷"},
{"zip_code":"9191206","kana_pref":"ﾌｸｲｹﾝ","kana_city":"ﾐｶﾀｸﾞﾝﾐﾊﾏﾁｮｳ","kana_address":"ｵｵﾀ","pref":"福井県","city":"三方郡美浜町","address":"太田"},
{"zip_code":"9191146","kana_pref":"ﾌｸｲｹﾝ","kana_city":"ﾐｶﾀｸﾞﾝﾐﾊﾏﾁｮｳ","kana_address":"ｵｵﾔﾌﾞ","pref":"福井県","city":"三方郡美浜町","address":"大薮"},
{"zip_code":"9191145","kana_pref":"ﾌｸｲｹﾝ","kana_city":"ﾐｶﾀｸﾞﾝﾐﾊﾏﾁｮｳ","kana_address":"ｶﾅﾔﾏ","pref":"福井県","city":"三方郡美浜町","address":"金山"},
{"zip_code":"9191138","kana_pref":"ﾌｸｲｹﾝ","kana_city":"ﾐｶﾀｸﾞﾝﾐﾊﾏﾁｮｳ","kana_address":"ｶﾜﾗｲﾁ","pref":"福井県","city":"三方郡美浜町","address":"河原市"},
{"zip_code":"9191204","kana_pref":"ﾌｸｲｹﾝ","kana_city":"ﾐｶﾀｸﾞﾝﾐﾊﾏﾁｮｳ","kana_address":"ｷﾀﾀﾞ","pref":"福井県","city":"三方郡美浜町","address":"北田"},
{"zip_code":"9191131","kana_pref":"ﾌｸｲｹﾝ","kana_city":"ﾐｶﾀｸﾞﾝﾐﾊﾏﾁｮｳ","kana_address":"ｷﾉ","pref":"福井県","city":"三方郡美浜町","address":"木野"},
{"zip_code":"9191147","kana_pref":"ﾌｸｲｹﾝ","kana_city":"ﾐｶﾀｸﾞﾝﾐﾊﾏﾁｮｳ","kana_address":"ｷﾔﾏ","pref":"福井県","city":"三方郡美浜町","address":"気山"},
{"zip_code":"9191123","kana_pref":"ﾌｸｲｹﾝ","kana_city":"ﾐｶﾀｸﾞﾝﾐﾊﾏﾁｮｳ","kana_address":"ｸｸﾞｼ","pref":"福井県","city":"三方郡美浜町","address":"久々子"},
{"zip_code":"9191141","kana_pref":"ﾌｸｲｹﾝ","kana_city":"ﾐｶﾀｸﾞﾝﾐﾊﾏﾁｮｳ","kana_address":"ｺﾞｲﾁ","pref":"福井県","city":"三方郡美浜町","address":"郷市"},
{"zip_code":"9191142","kana_pref":"ﾌｸｲｹﾝ","kana_city":"ﾐｶﾀｸﾞﾝﾐﾊﾏﾁｮｳ","kana_address":"ｺｳﾄﾞｳｼﾞ","pref":"福井県","city":"三方郡美浜町","address":"興道寺"},
{"zip_code":"9191208","kana_pref":"ﾌｸｲｹﾝ","kana_city":"ﾐｶﾀｸﾞﾝﾐﾊﾏﾁｮｳ","kana_address":"ｻｶｼﾞﾘ","pref":"福井県","city":"三方郡美浜町","address":"坂尻"},
{"zip_code":"9191132","kana_pref":"ﾌｸｲｹﾝ","kana_city":"ﾐｶﾀｸﾞﾝﾐﾊﾏﾁｮｳ","kana_address":"ｻｶﾞｷ","pref":"福井県","city":"三方郡美浜町","address":"佐柿"},
{"zip_code":"9191125","kana_pref":"ﾌｸｲｹﾝ","kana_city":"ﾐｶﾀｸﾞﾝﾐﾊﾏﾁｮｳ","kana_address":"ｻｻﾀﾞ","pref":"福井県","city":"三方郡美浜町","address":"笹田"},
{"zip_code":"9191205","kana_pref":"ﾌｸｲｹﾝ","kana_city":"ﾐｶﾀｸﾞﾝﾐﾊﾏﾁｮｳ","kana_address":"ｻﾀ","pref":"福井県","city":"三方郡美浜町","address":"佐田"},
{"zip_code":"9191143","kana_pref":"ﾌｸｲｹﾝ","kana_city":"ﾐｶﾀｸﾞﾝﾐﾊﾏﾁｮｳ","kana_address":"ｻﾉ","pref":"福井県","city":"三方郡美浜町","address":"佐野"},
{"zip_code":"9191144","kana_pref":"ﾌｸｲｹﾝ","kana_city":"ﾐｶﾀｸﾞﾝﾐﾊﾏﾁｮｳ","kana_address":"ｼﾝｼﾞｮｳ","pref":"福井県","city":"三方郡美浜町","address":"新庄"},
{"zip_code":"9191203","kana_pref":"ﾌｸｲｹﾝ","kana_city":"ﾐｶﾀｸﾞﾝﾐﾊﾏﾁｮｳ","kana_address":"ｽｶﾞﾊﾏ","pref":"福井県","city":"三方郡美浜町","address":"菅浜"},
{"zip_code":"9191202","kana_pref":"ﾌｸｲｹﾝ","kana_city":"ﾐｶﾀｸﾞﾝﾐﾊﾏﾁｮｳ","kana_address":"ﾀｹﾅﾐ","pref":"福井県","city":"三方郡美浜町","address":"竹波"},
{"zip_code":"9191136","kana_pref":"ﾌｸｲｹﾝ","kana_city":"ﾐｶﾀｸﾞﾝﾐﾊﾏﾁｮｳ","kana_address":"ﾅｶﾃﾞﾗ","pref":"福井県","city":"三方郡美浜町","address":"中寺"},
{"zip_code":"9191201","kana_pref":"ﾌｸｲｹﾝ","kana_city":"ﾐｶﾀｸﾞﾝﾐﾊﾏﾁｮｳ","kana_address":"ﾆｭｳ","pref":"福井県","city":"三方郡美浜町","address":"丹生"},
{"zip_code":"9191124","kana_pref":"ﾌｸｲｹﾝ","kana_city":"ﾐｶﾀｸﾞﾝﾐﾊﾏﾁｮｳ","kana_address":"ﾊﾔｾ","pref":"福井県","city":"三方郡美浜町","address":"早瀬"},
{"zip_code":"9191126","kana_pref":"ﾌｸｲｹﾝ","kana_city":"ﾐｶﾀｸﾞﾝﾐﾊﾏﾁｮｳ","kana_address":"ﾋﾙｶﾞ","pref":"福井県","city":"三方郡美浜町","address":"日向"},
{"zip_code":"9191122","kana_pref":"ﾌｸｲｹﾝ","kana_city":"ﾐｶﾀｸﾞﾝﾐﾊﾏﾁｮｳ","kana_address":"ﾏﾂﾊﾞﾗ","pref":"福井県","city":"三方郡美浜町","address":"松原"},
{"zip_code":"9191137","kana_pref":"ﾌｸｲｹﾝ","kana_city":"ﾐｶﾀｸﾞﾝﾐﾊﾏﾁｮｳ","kana_address":"ﾐﾅﾐｲﾁ","pref":"福井県","city":"三方郡美浜町","address":"南市"},
{"zip_code":"9191134","kana_pref":"ﾌｸｲｹﾝ","kana_city":"ﾐｶﾀｸﾞﾝﾐﾊﾏﾁｮｳ","kana_address":"ﾐﾔｼﾛ","pref":"福井県","city":"三方郡美浜町","address":"宮代"},
{"zip_code":"9191135","kana_pref":"ﾌｸｲｹﾝ","kana_city":"ﾐｶﾀｸﾞﾝﾐﾊﾏﾁｮｳ","kana_address":"ﾔｽｴ","pref":"福井県","city":"三方郡美浜町","address":"安江"},
{"zip_code":"9191207","kana_pref":"ﾌｸｲｹﾝ","kana_city":"ﾐｶﾀｸﾞﾝﾐﾊﾏﾁｮｳ","kana_address":"ﾔﾏｶﾞﾐ","pref":"福井県","city":"三方郡美浜町","address":"山上"},
{"zip_code":"9191135","kana_pref":"ﾌｸｲｹﾝ","kana_city":"ﾐｶﾀｸﾞﾝﾐﾊﾏﾁｮｳ","kana_address":"ﾖﾘﾄ","pref":"福井県","city":"三方郡美浜町","address":"寄戸"},
{"zip_code":"9191121","kana_pref":"ﾌｸｲｹﾝ","kana_city":"ﾐｶﾀｸﾞﾝﾐﾊﾏﾁｮｳ","kana_address":"ﾜﾀﾞ","pref":"福井県","city":"三方郡美浜町","address":"和田"},
{"zip_code":"9192200","kana_pref":"ﾌｸｲｹﾝ","kana_city":"ｵｵｲｸﾞﾝﾀｶﾊﾏﾁｮｳ","kana_address":"","pref":"福井県","city":"大飯郡高浜町","address":""},
{"zip_code":"9192384","kana_pref":"ﾌｸｲｹﾝ","kana_city":"ｵｵｲｸﾞﾝﾀｶﾊﾏﾁｮｳ","kana_address":"ｱｵ","pref":"福井県","city":"大飯郡高浜町","address":"青"},
{"zip_code":"9192204","kana_pref":"ﾌｸｲｹﾝ","kana_city":"ｵｵｲｸﾞﾝﾀｶﾊﾏﾁｮｳ","kana_address":"ｱｵﾄ","pref":"福井県","city":"大飯郡高浜町","address":"青戸"},
{"zip_code":"9192375","kana_pref":"ﾌｸｲｹﾝ","kana_city":"ｵｵｲｸﾞﾝﾀｶﾊﾏﾁｮｳ","kana_address":"ｱｻﾋｶﾞｵｶ","pref":"福井県","city":"大飯郡高浜町","address":"旭ケ丘"},
{"zip_code":"9192202","kana_pref":"ﾌｸｲｹﾝ","kana_city":"ｵｵｲｸﾞﾝﾀｶﾊﾏﾁｮｳ","kana_address":"ｱﾂﾞﾁ","pref":"福井県","city":"大飯郡高浜町","address":"安土"},
{"zip_code":"9192376","kana_pref":"ﾌｸｲｹﾝ","kana_city":"ｵｵｲｸﾞﾝﾀｶﾊﾏﾁｮｳ","kana_address":"ｲﾏﾃﾞﾗ","pref":"福井県","city":"大飯郡高浜町","address":"今寺"},
{"zip_code":"9192222","kana_pref":"ﾌｸｲｹﾝ","kana_city":"ｵｵｲｸﾞﾝﾀｶﾊﾏﾁｮｳ","kana_address":"ｲﾜｶﾞﾐ","pref":"福井県","city":"大飯郡高浜町","address":"岩神"},
{"zip_code":"9192356","kana_pref":"ﾌｸｲｹﾝ","kana_city":"ｵｵｲｸﾞﾝﾀｶﾊﾏﾁｮｳ","kana_address":"ｳﾜｾ","pref":"福井県","city":"大飯郡高浜町","address":"上瀬"},
{"zip_code":"9192363","kana_pref":"ﾌｸｲｹﾝ","kana_city":"ｵｵｲｸﾞﾝﾀｶﾊﾏﾁｮｳ","kana_address":"ｵｸﾞﾙｲ","pref":"福井県","city":"大飯郡高浜町","address":"小黒飯"},
{"zip_code":"9192361","kana_pref":"ﾌｸｲｹﾝ","kana_city":"ｵｵｲｸﾞﾝﾀｶﾊﾏﾁｮｳ","kana_address":"ｵﾄﾐ","pref":"福井県","city":"大飯郡高浜町","address":"音海"},
{"zip_code":"9192216","kana_pref":"ﾌｸｲｹﾝ","kana_city":"ｵｵｲｸﾞﾝﾀｶﾊﾏﾁｮｳ","kana_address":"ｶｻﾊﾗ","pref":"福井県","city":"大飯郡高浜町","address":"笠原"},
{"zip_code":"9192212","kana_pref":"ﾌｸｲｹﾝ","kana_city":"ｵｵｲｸﾞﾝﾀｶﾊﾏﾁｮｳ","kana_address":"ｶﾈﾖﾘ","pref":"福井県","city":"大飯郡高浜町","address":"鐘寄"},
{"zip_code":"9192352","kana_pref":"ﾌｸｲｹﾝ","kana_city":"ｵｵｲｸﾞﾝﾀｶﾊﾏﾁｮｳ","kana_address":"ｶﾏｸﾗ","pref":"福井県","city":"大飯郡高浜町","address":"鎌倉"},
{"zip_code":"9192206","kana_pref":"ﾌｸｲｹﾝ","kana_city":"ｵｵｲｸﾞﾝﾀｶﾊﾏﾁｮｳ","kana_address":"ｶﾐｸﾗﾓﾁ","pref":"福井県","city":"大飯郡高浜町","address":"上車持"},
{"zip_code":"9192365","kana_pref":"ﾌｸｲｹﾝ","kana_city":"ｵｵｲｸﾞﾝﾀｶﾊﾏﾁｮｳ","kana_address":"ｺｳﾉ","pref":"福井県","city":"大飯郡高浜町","address":"神野"},
{"zip_code":"9192366","kana_pref":"ﾌｸｲｹﾝ","kana_city":"ｵｵｲｸﾞﾝﾀｶﾊﾏﾁｮｳ","kana_address":"ｺｳﾉｳﾗ","pref":"福井県","city":"大飯郡高浜町","address":"神野浦"},
{"zip_code":"9192221","kana_pref":"ﾌｸｲｹﾝ","kana_city":"ｵｵｲｸﾞﾝﾀｶﾊﾏﾁｮｳ","kana_address":"ｺﾄｼﾛ","pref":"福井県","city":"大飯郡高浜町","address":"事代"},
{"zip_code":"9192216","kana_pref":"ﾌｸｲｹﾝ","kana_city":"ｵｵｲｸﾞﾝﾀｶﾊﾏﾁｮｳ","kana_address":"ｺﾋﾞ","pref":"福井県","city":"大飯郡高浜町","address":"子生"},
{"zip_code":"9192373","kana_pref":"ﾌｸｲｹﾝ","kana_city":"ｵｵｲｸﾞﾝﾀｶﾊﾏﾁｮｳ","kana_address":"ｺﾜﾀﾞ","pref":"福井県","city":"大飯郡高浜町","address":"小和田"},
{"zip_code":"9192216","kana_pref":"ﾌｸｲｹﾝ","kana_city":"ｵｵｲｸﾞﾝﾀｶﾊﾏﾁｮｳ","kana_address":"ｻｶﾀ","pref":"福井県","city":"大飯郡高浜町","address":"坂田"},
{"zip_code":"9192229","kana_pref":"ﾌｸｲｹﾝ","kana_city":"ｵｵｲｸﾞﾝﾀｶﾊﾏﾁｮｳ","kana_address":"ｻﾝﾒｲ","pref":"福井県","city":"大飯郡高浜町","address":"三明"},
{"zip_code":"9192228","kana_pref":"ﾌｸｲｹﾝ","kana_city":"ｵｵｲｸﾞﾝﾀｶﾊﾏﾁｮｳ","kana_address":"ｼｵﾄﾞ","pref":"福井県","city":"大飯郡高浜町","address":"塩土"},
{"zip_code":"9192223","kana_pref":"ﾌｸｲｹﾝ","kana_city":"ｵｵｲｸﾞﾝﾀｶﾊﾏﾁｮｳ","kana_address":"ｼｽｲｶﾞｵｶ","pref":"福井県","city":"大飯郡高浜町","address":"紫水ケ丘"},
{"zip_code":"9192353","kana_pref":"ﾌｸｲｹﾝ","kana_city":"ｵｵｲｸﾞﾝﾀｶﾊﾏﾁｮｳ","kana_address":"ｼﾓ","pref":"福井県","city":"大飯郡高浜町","address":"下"},
{"zip_code":"9192205","kana_pref":"ﾌｸｲｹﾝ","kana_city":"ｵｵｲｸﾞﾝﾀｶﾊﾏﾁｮｳ","kana_address":"ｼﾓｸﾗﾓﾁ","pref":"福井県","city":"大飯郡高浜町","address":"下車持"},
{"zip_code":"9192203","kana_pref":"ﾌｸｲｹﾝ","kana_city":"ｵｵｲｸﾞﾝﾀｶﾊﾏﾁｮｳ","kana_address":"ｽｲﾒｲ","pref":"福井県","city":"大飯郡高浜町","address":"水明"},
{"zip_code":"9192386","kana_pref":"ﾌｸｲｹﾝ","kana_city":"ｵｵｲｸﾞﾝﾀｶﾊﾏﾁｮｳ","kana_address":"ｾｷﾔ","pref":"福井県","city":"大飯郡高浜町","address":"関屋"},
{"zip_code":"9192224","kana_pref":"ﾌｸｲｹﾝ","kana_city":"ｵｵｲｸﾞﾝﾀｶﾊﾏﾁｮｳ","kana_address":"ｿﾉﾍﾞ","pref":"福井県","city":"大飯郡高浜町","address":"薗部"},
{"zip_code":"9192374","kana_pref":"ﾌｸｲｹﾝ","kana_city":"ｵｵｲｸﾞﾝﾀｶﾊﾏﾁｮｳ","kana_address":"ﾀｶﾉ","pref":"福井県","city":"大飯郡高浜町","address":"高野"},
{"zip_code":"9192372","kana_pref":"ﾌｸｲｹﾝ","kana_city":"ｵｵｲｸﾞﾝﾀｶﾊﾏﾁｮｳ","kana_address":"ﾀｶﾔ","pref":"福井県","city":"大飯郡高浜町","address":"高屋"},
{"zip_code":"9192226","kana_pref":"ﾌｸｲｹﾝ","kana_city":"ｵｵｲｸﾞﾝﾀｶﾊﾏﾁｮｳ","kana_address":"ﾀﾃｲｼ","pref":"福井県","city":"大飯郡高浜町","address":"立石"},
{"zip_code":"9192362","kana_pref":"ﾌｸｲｹﾝ","kana_city":"ｵｵｲｸﾞﾝﾀｶﾊﾏﾁｮｳ","kana_address":"ﾀﾉｳﾗ","pref":"福井県","city":"大飯郡高浜町","address":"田ノ浦"},
{"zip_code":"9192211","kana_pref":"ﾌｸｲｹﾝ","kana_city":"ｵｵｲｸﾞﾝﾀｶﾊﾏﾁｮｳ","kana_address":"ﾅｶﾂﾐ","pref":"福井県","city":"大飯郡高浜町","address":"中津海"},
{"zip_code":"9192371","kana_pref":"ﾌｸｲｹﾝ","kana_city":"ｵｵｲｸﾞﾝﾀｶﾊﾏﾁｮｳ","kana_address":"ﾅｶﾔﾏ","pref":"福井県","city":"大飯郡高浜町","address":"中山"},
{"zip_code":"9192364","kana_pref":"ﾌｸｲｹﾝ","kana_city":"ｵｵｲｸﾞﾝﾀｶﾊﾏﾁｮｳ","kana_address":"ﾅﾊﾞｴ","pref":"福井県","city":"大飯郡高浜町","address":"難波江"},
{"zip_code":"9192381","kana_pref":"ﾌｸｲｹﾝ","kana_city":"ｵｵｲｸﾞﾝﾀｶﾊﾏﾁｮｳ","kana_address":"ﾆｼﾐﾂﾏﾂ","pref":"福井県","city":"大飯郡高浜町","address":"西三松"},
{"zip_code":"9192213","kana_pref":"ﾌｸｲｹﾝ","kana_city":"ｵｵｲｸﾞﾝﾀｶﾊﾏﾁｮｳ","kana_address":"ﾊﾀ","pref":"福井県","city":"大飯郡高浜町","address":"畑"},
{"zip_code":"9192382","kana_pref":"ﾌｸｲｹﾝ","kana_city":"ｵｵｲｸﾞﾝﾀｶﾊﾏﾁｮｳ","kana_address":"ﾋｶﾞｼﾐﾂﾏﾂ","pref":"福井県","city":"大飯郡高浜町","address":"東三松"},
{"zip_code":"9192383","kana_pref":"ﾌｸｲｹﾝ","kana_city":"ｵｵｲｸﾞﾝﾀｶﾊﾏﾁｮｳ","kana_address":"ﾋｷ","pref":"福井県","city":"大飯郡高浜町","address":"日置"},
{"zip_code":"9192355","kana_pref":"ﾌｸｲｹﾝ","kana_city":"ｵｵｲｸﾞﾝﾀｶﾊﾏﾁｮｳ","kana_address":"ﾋﾋﾞｷ","pref":"福井県","city":"大飯郡高浜町","address":"日引"},
{"zip_code":"9192375","kana_pref":"ﾌｸｲｹﾝ","kana_city":"ｵｵｲｸﾞﾝﾀｶﾊﾏﾁｮｳ","kana_address":"ﾋﾙﾊﾞﾀｹ","pref":"福井県","city":"大飯郡高浜町","address":"蒜畠"},
{"zip_code":"9192207","kana_pref":"ﾌｸｲｹﾝ","kana_city":"ｵｵｲｸﾞﾝﾀｶﾊﾏﾁｮｳ","kana_address":"ﾏｺﾞｼﾞ","pref":"福井県","city":"大飯郡高浜町","address":"馬居寺"},
{"zip_code":"9192372","kana_pref":"ﾌｸｲｹﾝ","kana_city":"ｵｵｲｸﾞﾝﾀｶﾊﾏﾁｮｳ","kana_address":"ﾐﾄﾞﾘｶﾞｵｶ","pref":"福井県","city":"大飯郡高浜町","address":"緑ケ丘"},
{"zip_code":"9192215","kana_pref":"ﾌｸｲｹﾝ","kana_city":"ｵｵｲｸﾞﾝﾀｶﾊﾏﾁｮｳ","kana_address":"ﾐﾅﾐﾀﾞﾝﾁ","pref":"福井県","city":"大飯郡高浜町","address":"南団地"},
{"zip_code":"9192354","kana_pref":"ﾌｸｲｹﾝ","kana_city":"ｵｵｲｸﾞﾝﾀｶﾊﾏﾁｮｳ","kana_address":"ﾐﾔｵ","pref":"福井県","city":"大飯郡高浜町","address":"宮尾"},
{"zip_code":"9192225","kana_pref":"ﾌｸｲｹﾝ","kana_city":"ｵｵｲｸﾞﾝﾀｶﾊﾏﾁｮｳ","kana_address":"ﾐﾔｻﾞｷ","pref":"福井県","city":"大飯郡高浜町","address":"宮崎"},
{"zip_code":"9192351","kana_pref":"ﾌｸｲｹﾝ","kana_city":"ｵｵｲｸﾞﾝﾀｶﾊﾏﾁｮｳ","kana_address":"ﾔﾏﾅｶ","pref":"福井県","city":"大飯郡高浜町","address":"山中"},
{"zip_code":"9192214","kana_pref":"ﾌｸｲｹﾝ","kana_city":"ｵｵｲｸﾞﾝﾀｶﾊﾏﾁｮｳ","kana_address":"ﾕﾀﾆ","pref":"福井県","city":"大飯郡高浜町","address":"湯谷"},
{"zip_code":"9192385","kana_pref":"ﾌｸｲｹﾝ","kana_city":"ｵｵｲｸﾞﾝﾀｶﾊﾏﾁｮｳ","kana_address":"ﾖｺﾂﾐ","pref":"福井県","city":"大飯郡高浜町","address":"横津海"},
{"zip_code":"9192387","kana_pref":"ﾌｸｲｹﾝ","kana_city":"ｵｵｲｸﾞﾝﾀｶﾊﾏﾁｮｳ","kana_address":"ﾛｸﾛﾀﾞﾆ","pref":"福井県","city":"大飯郡高浜町","address":"六路谷"},
{"zip_code":"9192227","kana_pref":"ﾌｸｲｹﾝ","kana_city":"ｵｵｲｸﾞﾝﾀｶﾊﾏﾁｮｳ","kana_address":"ﾜｶﾐﾔ","pref":"福井県","city":"大飯郡高浜町","address":"若宮"},
{"zip_code":"9192201","kana_pref":"ﾌｸｲｹﾝ","kana_city":"ｵｵｲｸﾞﾝﾀｶﾊﾏﾁｮｳ","kana_address":"ﾜﾀﾞ","pref":"福井県","city":"大飯郡高浜町","address":"和田"},
{"zip_code":"9192100","kana_pref":"ﾌｸｲｹﾝ","kana_city":"ｵｵｲｸﾞﾝｵｵｲﾁｮｳ","kana_address":"","pref":"福井県","city":"大飯郡おおい町","address":""},
{"zip_code":"9192125","kana_pref":"ﾌｸｲｹﾝ","kana_city":"ｵｵｲｸﾞﾝｵｵｲﾁｮｳ","kana_address":"ｲｼﾔﾏ","pref":"福井県","city":"大飯郡おおい町","address":"石山"},
{"zip_code":"9192106","kana_pref":"ﾌｸｲｹﾝ","kana_city":"ｵｵｲｸﾞﾝｵｵｲﾁｮｳ","kana_address":"ｲﾇﾐ","pref":"福井県","city":"大飯郡おおい町","address":"犬見"},
{"zip_code":"9192101","kana_pref":"ﾌｸｲｹﾝ","kana_city":"ｵｵｲｸﾞﾝｵｵｲﾁｮｳ","kana_address":"ｵｵｼﾏ","pref":"福井県","city":"大飯郡おおい町","address":"大島"},
{"zip_code":"9192116","kana_pref":"ﾌｸｲｹﾝ","kana_city":"ｵｵｲｸﾞﾝｵｵｲﾁｮｳ","kana_address":"ｵｶﾀ","pref":"福井県","city":"大飯郡おおい町","address":"岡田"},
{"zip_code":"9192128","kana_pref":"ﾌｸｲｹﾝ","kana_city":"ｵｵｲｸﾞﾝｵｵｲﾁｮｳ","kana_address":"ｵｶﾔｽ","pref":"福井県","city":"大飯郡おおい町","address":"岡安"},
{"zip_code":"9192103","kana_pref":"ﾌｸｲｹﾝ","kana_city":"ｵｵｲｸﾞﾝｵｵｲﾁｮｳ","kana_address":"ｵﾅｲ","pref":"福井県","city":"大飯郡おおい町","address":"尾内"},
{"zip_code":"9192134","kana_pref":"ﾌｸｲｹﾝ","kana_city":"ｵｵｲｸﾞﾝｵｵｲﾁｮｳ","kana_address":"ｶﾜｶﾐ","pref":"福井県","city":"大飯郡おおい町","address":"川上"},
{"zip_code":"9192133","kana_pref":"ﾌｸｲｹﾝ","kana_city":"ｵｵｲｸﾞﾝｵｵｲﾁｮｳ","kana_address":"ｸﾎﾞ","pref":"福井県","city":"大飯郡おおい町","address":"久保"},
{"zip_code":"9192122","kana_pref":"ﾌｸｲｹﾝ","kana_city":"ｵｵｲｸﾞﾝｵｵｲﾁｮｳ","kana_address":"ｺｳｻﾞｷ","pref":"福井県","city":"大飯郡おおい町","address":"神崎"},
{"zip_code":"9192124","kana_pref":"ﾌｸｲｹﾝ","kana_city":"ｵｵｲｸﾞﾝｵｵｲﾁｮｳ","kana_address":"ｺｼﾔﾀ","pref":"福井県","city":"大飯郡おおい町","address":"小車田"},
{"zip_code":"9192105","kana_pref":"ﾌｸｲｹﾝ","kana_city":"ｵｵｲｸﾞﾝｵｵｲﾁｮｳ","kana_address":"ｺﾎﾘ","pref":"福井県","city":"大飯郡おおい町","address":"小堀"},
{"zip_code":"9192127","kana_pref":"ﾌｸｲｹﾝ","kana_city":"ｵｵｲｸﾞﾝｵｵｲﾁｮｳ","kana_address":"ｻｻﾀﾞﾆ","pref":"福井県","city":"大飯郡おおい町","address":"笹谷"},
{"zip_code":"9192126","kana_pref":"ﾌｸｲｹﾝ","kana_city":"ｵｵｲｸﾞﾝｵｵｲﾁｮｳ","kana_address":"ｻﾊﾞﾀ","pref":"福井県","city":"大飯郡おおい町","address":"佐畑"},
{"zip_code":"9192123","kana_pref":"ﾌｸｲｹﾝ","kana_city":"ｵｵｲｸﾞﾝｵｵｲﾁｮｳ","kana_address":"ｼｶﾉ","pref":"福井県","city":"大飯郡おおい町","address":"鹿野"},
{"zip_code":"9192113","kana_pref":"ﾌｸｲｹﾝ","kana_city":"ｵｵｲｸﾞﾝｵｵｲﾁｮｳ","kana_address":"ｼﾊﾞｻｷ","pref":"福井県","city":"大飯郡おおい町","address":"芝崎"},
{"zip_code":"9192104","kana_pref":"ﾌｸｲｹﾝ","kana_city":"ｵｵｲｸﾞﾝｵｵｲﾁｮｳ","kana_address":"ｾｲﾜ","pref":"福井県","city":"大飯郡おおい町","address":"成和"},
{"zip_code":"9192115","kana_pref":"ﾌｸｲｹﾝ","kana_city":"ｵｵｲｸﾞﾝｵｵｲﾁｮｳ","kana_address":"ﾁﾁｼ","pref":"福井県","city":"大飯郡おおい町","address":"父子"},
{"zip_code":"9192102","kana_pref":"ﾌｸｲｹﾝ","kana_city":"ｵｵｲｸﾞﾝｵｵｲﾁｮｳ","kana_address":"ﾅｶﾞｲ","pref":"福井県","city":"大飯郡おおい町","address":"長井"},
{"zip_code":"9192107","kana_pref":"ﾌｸｲｹﾝ","kana_city":"ｵｵｲｸﾞﾝｵｵｲﾁｮｳ","kana_address":"ﾅﾙﾐ","pref":"福井県","city":"大飯郡おおい町","address":"成海"},
{"zip_code":"9192114","kana_pref":"ﾌｸｲｹﾝ","kana_city":"ｵｵｲｸﾞﾝｵｵｲﾁｮｳ","kana_address":"ﾉｼﾞﾘ","pref":"福井県","city":"大飯郡おおい町","address":"野尻"},
{"zip_code":"9192129","kana_pref":"ﾌｸｲｹﾝ","kana_city":"ｵｵｲｸﾞﾝｵｵｲﾁｮｳ","kana_address":"ﾋﾛｵｶ","pref":"福井県","city":"大飯郡おおい町","address":"広岡"},
{"zip_code":"9192131","kana_pref":"ﾌｸｲｹﾝ","kana_city":"ｵｵｲｸﾞﾝｵｵｲﾁｮｳ","kana_address":"ﾌｸﾀﾆ","pref":"福井県","city":"大飯郡おおい町","address":"福谷"},
{"zip_code":"9192111","kana_pref":"ﾌｸｲｹﾝ","kana_city":"ｵｵｲｸﾞﾝｵｵｲﾁｮｳ","kana_address":"ﾎﾝｺﾞｳ","pref":"福井県","city":"大飯郡おおい町","address":"本郷"},
{"zip_code":"9192121","kana_pref":"ﾌｸｲｹﾝ","kana_city":"ｵｵｲｸﾞﾝｵｵｲﾁｮｳ","kana_address":"ﾏﾝｶﾞﾝｼﾞ","pref":"福井県","city":"大飯郡おおい町","address":"万願寺"},
{"zip_code":"9192135","kana_pref":"ﾌｸｲｹﾝ","kana_city":"ｵｵｲｸﾞﾝｵｵｲﾁｮｳ","kana_address":"ﾐﾂﾓﾘ","pref":"福井県","city":"大飯郡おおい町","address":"三森"},
{"zip_code":"9192132","kana_pref":"ﾌｸｲｹﾝ","kana_city":"ｵｵｲｸﾞﾝｵｵｲﾁｮｳ","kana_address":"ﾔｽｶﾜ","pref":"福井県","city":"大飯郡おおい町","address":"安川"},
{"zip_code":"9192112","kana_pref":"ﾌｸｲｹﾝ","kana_city":"ｵｵｲｸﾞﾝｵｵｲﾁｮｳ","kana_address":"ﾔﾏﾀﾞ","pref":"福井県","city":"大飯郡おおい町","address":"山田"},
{"zip_code":"9191300","kana_pref":"ﾌｸｲｹﾝ","kana_city":"ﾐｶﾀｶﾐﾅｶｸﾞﾝﾜｶｻﾁｮｳ","kana_address":"","pref":"福井県","city":"三方上中郡若狭町","address":""},
{"zip_code":"9191312","kana_pref":"ﾌｸｲｹﾝ","kana_city":"ﾐｶﾀｶﾐﾅｶｸﾞﾝﾜｶｻﾁｮｳ","kana_address":"ｱｲﾀﾞ","pref":"福井県","city":"三方上中郡若狭町","address":"相田"},
{"zip_code":"9191523","kana_pref":"ﾌｸｲｹﾝ","kana_city":"ﾐｶﾀｶﾐﾅｶｸﾞﾝﾜｶｻﾁｮｳ","kana_address":"ｱｶﾞﾘ","pref":"福井県","city":"三方上中郡若狭町","address":"安賀里"},
{"zip_code":"9191502","kana_pref":"ﾌｸｲｹﾝ","kana_city":"ﾐｶﾀｶﾐﾅｶｸﾞﾝﾜｶｻﾁｮｳ","kana_address":"ｱｿﾉ","pref":"福井県","city":"三方上中郡若狭町","address":"麻生野"},
{"zip_code":"9191501","kana_pref":"ﾌｸｲｹﾝ","kana_city":"ﾐｶﾀｶﾐﾅｶｸﾞﾝﾜｶｻﾁｮｳ","kana_address":"ｱﾏｻｶ","pref":"福井県","city":"三方上中郡若狭町","address":"海士坂"},
{"zip_code":"9191507","kana_pref":"ﾌｸｲｹﾝ","kana_city":"ﾐｶﾀｶﾐﾅｶｸﾞﾝﾜｶｻﾁｮｳ","kana_address":"ｱﾘﾀﾞ","pref":"福井県","city":"三方上中郡若狭町","address":"有田"},
{"zip_code":"9191304","kana_pref":"ﾌｸｲｹﾝ","kana_city":"ﾐｶﾀｶﾐﾅｶｸﾞﾝﾜｶｻﾁｮｳ","kana_address":"ｲｸﾗ","pref":"福井県","city":"三方上中郡若狭町","address":"生倉"},
{"zip_code":"9191316","kana_pref":"ﾌｸｲｹﾝ","kana_city":"ﾐｶﾀｶﾐﾅｶｸﾞﾝﾜｶｻﾁｮｳ","kana_address":"ｲｻﾞｷ","pref":"福井県","city":"三方上中郡若狭町","address":"井崎"},
{"zip_code":"9191541","kana_pref":"ﾌｸｲｹﾝ","kana_city":"ﾐｶﾀｶﾐﾅｶｸﾞﾝﾜｶｻﾁｮｳ","kana_address":"ｲﾁﾊﾞ","pref":"福井県","city":"三方上中郡若狭町","address":"市場"},
{"zip_code":"9191542","kana_pref":"ﾌｸｲｹﾝ","kana_city":"ﾐｶﾀｶﾐﾅｶｸﾞﾝﾜｶｻﾁｮｳ","kana_address":"ｲﾉｸﾁ","pref":"福井県","city":"三方上中郡若狭町","address":"井ノ口"},
{"zip_code":"9191325","kana_pref":"ﾌｸｲｹﾝ","kana_city":"ﾐｶﾀｶﾐﾅｶｸﾞﾝﾜｶｻﾁｮｳ","kana_address":"ｲﾜﾔ","pref":"福井県","city":"三方上中郡若狭町","address":"岩屋"},
{"zip_code":"9191321","kana_pref":"ﾌｸｲｹﾝ","kana_city":"ﾐｶﾀｶﾐﾅｶｸﾞﾝﾜｶｻﾁｮｳ","kana_address":"ｳｴﾉ","pref":"福井県","city":"三方上中郡若狭町","address":"上野"},
{"zip_code":"9191461","kana_pref":"ﾌｸｲｹﾝ","kana_city":"ﾐｶﾀｶﾐﾅｶｸﾞﾝﾜｶｻﾁｮｳ","kana_address":"ｳﾐﾔﾏ","pref":"福井県","city":"三方上中郡若狭町","address":"海山"},
{"zip_code":"9191525","kana_pref":"ﾌｸｲｹﾝ","kana_city":"ﾐｶﾀｶﾐﾅｶｸﾞﾝﾜｶｻﾁｮｳ","kana_address":"ｳﾘｭｳ","pref":"福井県","city":"三方上中郡若狭町","address":"瓜生"},
{"zip_code":"9191302","kana_pref":"ﾌｸｲｹﾝ","kana_city":"ﾐｶﾀｶﾐﾅｶｸﾞﾝﾜｶｻﾁｮｳ","kana_address":"ｳﾜｾ","pref":"福井県","city":"三方上中郡若狭町","address":"上瀬"},
{"zip_code":"9191504","kana_pref":"ﾌｸｲｹﾝ","kana_city":"ﾐｶﾀｶﾐﾅｶｸﾞﾝﾜｶｻﾁｮｳ","kana_address":"ｵｵﾄﾊﾞ","pref":"福井県","city":"三方上中郡若狭町","address":"大鳥羽"},
{"zip_code":"9191453","kana_pref":"ﾌｸｲｹﾝ","kana_city":"ﾐｶﾀｶﾐﾅｶｸﾞﾝﾜｶｻﾁｮｳ","kana_address":"ｵｶﾞﾜ","pref":"福井県","city":"三方上中郡若狭町","address":"小川"},
{"zip_code":"9191514","kana_pref":"ﾌｸｲｹﾝ","kana_city":"ﾐｶﾀｶﾐﾅｶｸﾞﾝﾜｶｻﾁｮｳ","kana_address":"ｵﾊﾗ","pref":"福井県","city":"三方上中郡若狭町","address":"小原"},
{"zip_code":"9191554","kana_pref":"ﾌｸｲｹﾝ","kana_city":"ﾐｶﾀｶﾐﾅｶｸﾞﾝﾜｶｻﾁｮｳ","kana_address":"ｶﾈﾀﾞ","pref":"福井県","city":"三方上中郡若狭町","address":"兼田"},
{"zip_code":"9191503","kana_pref":"ﾌｸｲｹﾝ","kana_city":"ﾐｶﾀｶﾐﾅｶｸﾞﾝﾜｶｻﾁｮｳ","kana_address":"ｶﾐｸﾛﾀﾞ","pref":"福井県","city":"三方上中郡若狭町","address":"上黒田"},
{"zip_code":"9191557","kana_pref":"ﾌｸｲｹﾝ","kana_city":"ﾐｶﾀｶﾐﾅｶｸﾞﾝﾜｶｻﾁｮｳ","kana_address":"ｶﾐﾉｷﾞ","pref":"福井県","city":"三方上中郡若狭町","address":"上野木"},
{"zip_code":"9191527","kana_pref":"ﾌｸｲｹﾝ","kana_city":"ﾐｶﾀｶﾐﾅｶｸﾞﾝﾜｶｻﾁｮｳ","kana_address":"ｶﾐﾖｼﾀﾞ","pref":"福井県","city":"三方上中郡若狭町","address":"上吉田"},
{"zip_code":"9191534","kana_pref":"ﾌｸｲｹﾝ","kana_city":"ﾐｶﾀｶﾐﾅｶｸﾞﾝﾜｶｻﾁｮｳ","kana_address":"ｶﾘﾔ","pref":"福井県","city":"三方上中郡若狭町","address":"仮屋"},
{"zip_code":"9191305","kana_pref":"ﾌｸｲｹﾝ","kana_city":"ﾐｶﾀｶﾐﾅｶｸﾞﾝﾜｶｻﾁｮｳ","kana_address":"ｷﾀﾏｴｶﾞﾜ","pref":"福井県","city":"三方上中郡若狭町","address":"北前川"},
{"zip_code":"9191301","kana_pref":"ﾌｸｲｹﾝ","kana_city":"ﾐｶﾀｶﾐﾅｶｸﾞﾝﾜｶｻﾁｮｳ","kana_address":"ｷﾔﾏ","pref":"福井県","city":"三方上中郡若狭町","address":"気山"},
{"zip_code":"9191532","kana_pref":"ﾌｸｲｹﾝ","kana_city":"ﾐｶﾀｶﾐﾅｶｸﾞﾝﾜｶｻﾁｮｳ","kana_address":"ｸﾏｶﾞﾜ","pref":"福井県","city":"三方上中郡若狭町","address":"熊川"},
{"zip_code":"9191323","kana_pref":"ﾌｸｲｹﾝ","kana_city":"ﾐｶﾀｶﾐﾅｶｸﾞﾝﾜｶｻﾁｮｳ","kana_address":"ｸﾗﾐ","pref":"福井県","city":"三方上中郡若狭町","address":"倉見"},
{"zip_code":"9191544","kana_pref":"ﾌｸｲｹﾝ","kana_city":"ﾐｶﾀｶﾐﾅｶｸﾞﾝﾜｶｻﾁｮｳ","kana_address":"ｺｳﾀﾞﾆ","pref":"福井県","city":"三方上中郡若狭町","address":"神谷"},
{"zip_code":"9191533","kana_pref":"ﾌｸｲｹﾝ","kana_city":"ﾐｶﾀｶﾐﾅｶｸﾞﾝﾜｶｻﾁｮｳ","kana_address":"ｺｳﾁ","pref":"福井県","city":"三方上中郡若狭町","address":"河内"},
{"zip_code":"9191512","kana_pref":"ﾌｸｲｹﾝ","kana_city":"ﾐｶﾀｶﾐﾅｶｸﾞﾝﾜｶｻﾁｮｳ","kana_address":"ｻｶﾅｼ","pref":"福井県","city":"三方上中郡若狭町","address":"無悪"},
{"zip_code":"9191335","kana_pref":"ﾌｸｲｹﾝ","kana_city":"ﾐｶﾀｶﾐﾅｶｸﾞﾝﾜｶｻﾁｮｳ","kana_address":"ｻｺ","pref":"福井県","city":"三方上中郡若狭町","address":"佐古"},
{"zip_code":"9191521","kana_pref":"ﾌｸｲｹﾝ","kana_city":"ﾐｶﾀｶﾐﾅｶｸﾞﾝﾜｶｻﾁｮｳ","kana_address":"ｼﾀﾅｶ","pref":"福井県","city":"三方上中郡若狭町","address":"下タ中"},
{"zip_code":"9191462","kana_pref":"ﾌｸｲｹﾝ","kana_city":"ﾐｶﾀｶﾐﾅｶｸﾞﾝﾜｶｻﾁｮｳ","kana_address":"ｼﾏﾉｳﾁ","pref":"福井県","city":"三方上中郡若狭町","address":"島の内"},
{"zip_code":"9191559","kana_pref":"ﾌｸｲｹﾝ","kana_city":"ﾐｶﾀｶﾐﾅｶｸﾞﾝﾜｶｻﾁｮｳ","kana_address":"ｼﾓﾉｷﾞ","pref":"福井県","city":"三方上中郡若狭町","address":"下野木"},
{"zip_code":"9191528","kana_pref":"ﾌｸｲｹﾝ","kana_city":"ﾐｶﾀｶﾐﾅｶｸﾞﾝﾜｶｻﾁｮｳ","kana_address":"ｼﾓﾖｼﾀﾞ","pref":"福井県","city":"三方上中郡若狭町","address":"下吉田"},
{"zip_code":"9191455","kana_pref":"ﾌｸｲｹﾝ","kana_city":"ﾐｶﾀｶﾐﾅｶｸﾞﾝﾜｶｻﾁｮｳ","kana_address":"ｼｬｸｼ","pref":"福井県","city":"三方上中郡若狭町","address":"塩坂越"},
{"zip_code":"9191322","kana_pref":"ﾌｸｲｹﾝ","kana_city":"ﾐｶﾀｶﾐﾅｶｸﾞﾝﾜｶｻﾁｮｳ","kana_address":"ｼﾞｮｳｶﾞﾝｼﾞ","pref":"福井県","city":"三方上中郡若狭町","address":"成願寺"},
{"zip_code":"9191324","kana_pref":"ﾌｸｲｹﾝ","kana_city":"ﾐｶﾀｶﾐﾅｶｸﾞﾝﾜｶｻﾁｮｳ","kana_address":"ｼﾛﾔ","pref":"福井県","city":"三方上中郡若狭町","address":"白屋"},
{"zip_code":"9191531","kana_pref":"ﾌｸｲｹﾝ","kana_city":"ﾐｶﾀｶﾐﾅｶｸﾞﾝﾜｶｻﾁｮｳ","kana_address":"ｼﾝﾄﾞｳ","pref":"福井県","city":"三方上中郡若狭町","address":"新道"},
{"zip_code":"9191522","kana_pref":"ﾌｸｲｹﾝ","kana_city":"ﾐｶﾀｶﾐﾅｶｸﾞﾝﾜｶｻﾁｮｳ","kana_address":"ｽｴﾉ","pref":"福井県","city":"三方上中郡若狭町","address":"末野"},
{"zip_code":"9191551","kana_pref":"ﾌｸｲｹﾝ","kana_city":"ﾐｶﾀｶﾐﾅｶｸﾞﾝﾜｶｻﾁｮｳ","kana_address":"ｽｷﾞﾔﾏ","pref":"福井県","city":"三方上中郡若狭町","address":"杉山"},
{"zip_code":"9191526","kana_pref":"ﾌｸｲｹﾝ","kana_city":"ﾐｶﾀｶﾐﾅｶｸﾞﾝﾜｶｻﾁｮｳ","kana_address":"ｾｷ","pref":"福井県","city":"三方上中郡若狭町","address":"関"},
{"zip_code":"9191464","kana_pref":"ﾌｸｲｹﾝ","kana_city":"ﾐｶﾀｶﾐﾅｶｸﾞﾝﾜｶｻﾁｮｳ","kana_address":"ｾｸﾐ","pref":"福井県","city":"三方上中郡若狭町","address":"世久見"},
{"zip_code":"9191462","kana_pref":"ﾌｸｲｹﾝ","kana_city":"ﾐｶﾀｶﾐﾅｶｸﾞﾝﾜｶｻﾁｮｳ","kana_address":"ﾀｲ","pref":"福井県","city":"三方上中郡若狭町","address":"田井"},
{"zip_code":"9191315","kana_pref":"ﾌｸｲｹﾝ","kana_city":"ﾐｶﾀｶﾐﾅｶｸﾞﾝﾜｶｻﾁｮｳ","kana_address":"ﾀｶｷﾞｼ","pref":"福井県","city":"三方上中郡若狭町","address":"高岸"},
{"zip_code":"9191326","kana_pref":"ﾌｸｲｹﾝ","kana_city":"ﾐｶﾀｶﾐﾅｶｸﾞﾝﾜｶｻﾁｮｳ","kana_address":"ﾀｶﾞﾐ","pref":"福井県","city":"三方上中郡若狭町","address":"田上"},
{"zip_code":"9191332","kana_pref":"ﾌｸｲｹﾝ","kana_city":"ﾐｶﾀｶﾐﾅｶｸﾞﾝﾜｶｻﾁｮｳ","kana_address":"ﾀﾁｶﾜ","pref":"福井県","city":"三方上中郡若狭町","address":"館川"},
{"zip_code":"9191334","kana_pref":"ﾌｸｲｹﾝ","kana_city":"ﾐｶﾀｶﾐﾅｶｸﾞﾝﾜｶｻﾁｮｳ","kana_address":"ﾀﾅ","pref":"福井県","city":"三方上中郡若狭町","address":"田名"},
{"zip_code":"9191556","kana_pref":"ﾌｸｲｹﾝ","kana_city":"ﾐｶﾀｶﾐﾅｶｸﾞﾝﾜｶｻﾁｮｳ","kana_address":"ﾀﾏｷ","pref":"福井県","city":"三方上中郡若狭町","address":"玉置"},
{"zip_code":"9191333","kana_pref":"ﾌｸｲｹﾝ","kana_city":"ﾐｶﾀｶﾐﾅｶｸﾞﾝﾜｶｻﾁｮｳ","kana_address":"ﾁｭｳｵｳ","pref":"福井県","city":"三方上中郡若狭町","address":"中央"},
{"zip_code":"9191553","kana_pref":"ﾌｸｲｹﾝ","kana_city":"ﾐｶﾀｶﾐﾅｶｸﾞﾝﾜｶｻﾁｮｳ","kana_address":"ﾂﾂﾐ","pref":"福井県","city":"三方上中郡若狭町","address":"堤"},
{"zip_code":"9191451","kana_pref":"ﾌｸｲｹﾝ","kana_city":"ﾐｶﾀｶﾐﾅｶｸﾞﾝﾜｶｻﾁｮｳ","kana_address":"ﾂﾈｶﾐ","pref":"福井県","city":"三方上中郡若狭町","address":"常神"},
{"zip_code":"9191543","kana_pref":"ﾌｸｲｹﾝ","kana_city":"ﾐｶﾀｶﾐﾅｶｸﾞﾝﾜｶｻﾁｮｳ","kana_address":"ﾃﾝﾄｸｼﾞ","pref":"福井県","city":"三方上中郡若狭町","address":"天徳寺"},
{"zip_code":"9191331","kana_pref":"ﾌｸｲｹﾝ","kana_city":"ﾐｶﾀｶﾐﾅｶｸﾞﾝﾜｶｻﾁｮｳ","kana_address":"ﾄﾘﾊﾏ","pref":"福井県","city":"三方上中郡若狭町","address":"鳥浜"},
{"zip_code":"9191505","kana_pref":"ﾌｸｲｹﾝ","kana_city":"ﾐｶﾀｶﾐﾅｶｸﾞﾝﾜｶｻﾁｮｳ","kana_address":"ﾅｶﾞｴ","pref":"福井県","city":"三方上中郡若狭町","address":"長江"},
{"zip_code":"9191558","kana_pref":"ﾌｸｲｹﾝ","kana_city":"ﾐｶﾀｶﾐﾅｶｸﾞﾝﾜｶｻﾁｮｳ","kana_address":"ﾅｶﾉｷﾞ","pref":"福井県","city":"三方上中郡若狭町","address":"中野木"},
{"zip_code":"9191463","kana_pref":"ﾌｸｲｹﾝ","kana_city":"ﾐｶﾀｶﾐﾅｶｸﾞﾝﾜｶｻﾁｮｳ","kana_address":"ﾅﾙﾃﾞ","pref":"福井県","city":"三方上中郡若狭町","address":"成出"},
{"zip_code":"9191314","kana_pref":"ﾌｸｲｹﾝ","kana_city":"ﾐｶﾀｶﾐﾅｶｸﾞﾝﾜｶｻﾁｮｳ","kana_address":"ﾉﾄﾉ","pref":"福井県","city":"三方上中郡若狭町","address":"能登野"},
{"zip_code":"9191545","kana_pref":"ﾌｸｲｹﾝ","kana_city":"ﾐｶﾀｶﾐﾅｶｸﾞﾝﾜｶｻﾁｮｳ","kana_address":"ﾋｶｻ","pref":"福井県","city":"三方上中郡若狭町","address":"日笠"},
{"zip_code":"9191327","kana_pref":"ﾌｸｲｹﾝ","kana_city":"ﾐｶﾀｶﾐﾅｶｸﾞﾝﾜｶｻﾁｮｳ","kana_address":"ﾋｶﾞｼｸﾛﾀ","pref":"福井県","city":"三方上中郡若狭町","address":"東黒田"},
{"zip_code":"9191311","kana_pref":"ﾌｸｲｹﾝ","kana_city":"ﾐｶﾀｶﾐﾅｶｸﾞﾝﾜｶｻﾁｮｳ","kana_address":"ﾌｼﾞｲ","pref":"福井県","city":"三方上中郡若狭町","address":"藤井"},
{"zip_code":"9191303","kana_pref":"ﾌｸｲｹﾝ","kana_city":"ﾐｶﾀｶﾐﾅｶｸﾞﾝﾜｶｻﾁｮｳ","kana_address":"ﾐｶﾀ","pref":"福井県","city":"三方上中郡若狭町","address":"三方"},
{"zip_code":"9191452","kana_pref":"ﾌｸｲｹﾝ","kana_city":"ﾐｶﾀｶﾐﾅｶｸﾞﾝﾜｶｻﾁｮｳ","kana_address":"ﾐｺ","pref":"福井県","city":"三方上中郡若狭町","address":"神子"},
{"zip_code":"9191511","kana_pref":"ﾌｸｲｹﾝ","kana_city":"ﾐｶﾀｶﾐﾅｶｸﾞﾝﾜｶｻﾁｮｳ","kana_address":"ﾐｼｮｳﾉ","pref":"福井県","city":"三方上中郡若狭町","address":"三生野"},
{"zip_code":"9191328","kana_pref":"ﾌｸｲｹﾝ","kana_city":"ﾐｶﾀｶﾐﾅｶｸﾞﾝﾜｶｻﾁｮｳ","kana_address":"ﾐｿﾐﾀﾞﾝﾁ","pref":"福井県","city":"三方上中郡若狭町","address":"三十三団地"},
{"zip_code":"9191513","kana_pref":"ﾌｸｲｹﾝ","kana_city":"ﾐｶﾀｶﾐﾅｶｸﾞﾝﾜｶｻﾁｮｳ","kana_address":"ﾐﾀ","pref":"福井県","city":"三方上中郡若狭町","address":"三田"},
{"zip_code":"9191515","kana_pref":"ﾌｸｲｹﾝ","kana_city":"ﾐｶﾀｶﾐﾅｶｸﾞﾝﾜｶｻﾁｮｳ","kana_address":"ﾐﾅﾐ","pref":"福井県","city":"三方上中郡若狭町","address":"南"},
{"zip_code":"9191306","kana_pref":"ﾌｸｲｹﾝ","kana_city":"ﾐｶﾀｶﾐﾅｶｸﾞﾝﾜｶｻﾁｮｳ","kana_address":"ﾐﾅﾐﾏｴｶﾞﾜ","pref":"福井県","city":"三方上中郡若狭町","address":"南前川"},
{"zip_code":"9191536","kana_pref":"ﾌｸｲｹﾝ","kana_city":"ﾐｶﾀｶﾐﾅｶｸﾞﾝﾜｶｻﾁｮｳ","kana_address":"ﾐﾔｹ","pref":"福井県","city":"三方上中郡若狭町","address":"三宅"},
{"zip_code":"9191336","kana_pref":"ﾌｸｲｹﾝ","kana_city":"ﾐｶﾀｶﾐﾅｶｸﾞﾝﾜｶｻﾁｮｳ","kana_address":"ﾑｶｻ","pref":"福井県","city":"三方上中郡若狭町","address":"向笠"},
{"zip_code":"9191555","kana_pref":"ﾌｸｲｹﾝ","kana_city":"ﾐｶﾀｶﾐﾅｶｸﾞﾝﾜｶｻﾁｮｳ","kana_address":"ﾑｼｭｳ","pref":"福井県","city":"三方上中郡若狭町","address":"武生"},
{"zip_code":"9191506","kana_pref":"ﾌｸｲｹﾝ","kana_city":"ﾐｶﾀｶﾐﾅｶｸﾞﾝﾜｶｻﾁｮｳ","kana_address":"ﾓﾁﾀﾞ","pref":"福井県","city":"三方上中郡若狭町","address":"持田"},
{"zip_code":"9191516","kana_pref":"ﾌｸｲｹﾝ","kana_city":"ﾐｶﾀｶﾐﾅｶｸﾞﾝﾜｶｻﾁｮｳ","kana_address":"ﾔﾏｳﾁ","pref":"福井県","city":"三方上中郡若狭町","address":"山内"},
{"zip_code":"9191454","kana_pref":"ﾌｸｲｹﾝ","kana_city":"ﾐｶﾀｶﾐﾅｶｸﾞﾝﾜｶｻﾁｮｳ","kana_address":"ﾕｳｼ","pref":"福井県","city":"三方上中郡若狭町","address":"遊子"},
{"zip_code":"9191313","kana_pref":"ﾌｸｲｹﾝ","kana_city":"ﾐｶﾀｶﾐﾅｶｸﾞﾝﾜｶｻﾁｮｳ","kana_address":"ﾖｺﾜﾀﾘ","pref":"福井県","city":"三方上中郡若狭町","address":"横渡"},
{"zip_code":"9191535","kana_pref":"ﾌｸｲｹﾝ","kana_city":"ﾐｶﾀｶﾐﾅｶｸﾞﾝﾜｶｻﾁｮｳ","kana_address":"ﾜｶｵｳｼﾞ","pref":"福井県","city":"三方上中郡若狭町","address":"若王子"},
{"zip_code":"9191552","kana_pref":"ﾌｸｲｹﾝ","kana_city":"ﾐｶﾀｶﾐﾅｶｸﾞﾝﾜｶｻﾁｮｳ","kana_address":"ﾜｶｻﾃｸﾉﾊﾞﾚｰ","pref":"福井県","city":"三方上中郡若狭町","address":"若狭テクノバレー"},
{"zip_code":"9191524","kana_pref":"ﾌｸｲｹﾝ","kana_city":"ﾐｶﾀｶﾐﾅｶｸﾞﾝﾜｶｻﾁｮｳ","kana_address":"ﾜｷﾌﾞｸﾛ","pref":"福井県","city":"三方上中郡若狭町","address":"脇袋"}]}