{"zip_code":[
{"zip_code":"9200000","kana_pref":"ｲｼｶﾜｹﾝ","kana_city":"ｶﾅｻﾞﾜｼ","kana_address":"","pref":"石川県","city":"金沢市","address":""},
{"zip_code":"9200907","kana_pref":"ｲｼｶﾜｹﾝ","kana_city":"ｶﾅｻﾞﾜｼ","kana_address":"ｱｵｸｻﾏﾁ","pref":"石川県","city":"金沢市","address":"青草町"},
{"zip_code":"9201322","kana_pref":"ｲｼｶﾜｹﾝ","kana_city":"ｶﾅｻﾞﾜｼ","kana_address":"ｱｵﾀﾞﾆﾏﾁ","pref":"石川県","city":"金沢市","address":"相合谷町"},
{"zip_code":"9200926","kana_pref":"ｲｼｶﾜｹﾝ","kana_city":"ｶﾅｻﾞﾜｼ","kana_address":"ｱｶﾂｷﾏﾁ","pref":"石川県","city":"金沢市","address":"暁町"},
{"zip_code":"9200353","kana_pref":"ｲｼｶﾜｹﾝ","kana_city":"ｶﾅｻﾞﾜｼ","kana_address":"ｱｶﾂﾁﾏﾁ","pref":"石川県","city":"金沢市","address":"赤土町"},
{"zip_code":"9200111","kana_pref":"ｲｼｶﾜｹﾝ","kana_city":"ｶﾅｻﾞﾜｼ","kana_address":"ｱｻｵｶﾏﾁ","pref":"石川県","city":"金沢市","address":"浅丘町"},
{"zip_code":"9201132","kana_pref":"ｲｼｶﾜｹﾝ","kana_city":"ｶﾅｻﾞﾜｼ","kana_address":"ｱｻｶﾔﾏﾁ","pref":"石川県","city":"金沢市","address":"朝加屋町"},
{"zip_code":"9201145","kana_pref":"ｲｼｶﾜｹﾝ","kana_city":"ｶﾅｻﾞﾜｼ","kana_address":"ｱｻｶﾜﾏﾁ","pref":"石川県","city":"金沢市","address":"浅川町"},
{"zip_code":"9200841","kana_pref":"ｲｼｶﾜｹﾝ","kana_city":"ｶﾅｻﾞﾜｼ","kana_address":"ｱｻﾉﾎﾝﾏﾁ","pref":"石川県","city":"金沢市","address":"浅野本町"},
{"zip_code":"9200126","kana_pref":"ｲｼｶﾜｹﾝ","kana_city":"ｶﾅｻﾞﾜｼ","kana_address":"ｱｻﾋﾏｷﾏﾁ","pref":"石川県","city":"金沢市","address":"朝日牧町"},
{"zip_code":"9200941","kana_pref":"ｲｼｶﾜｹﾝ","kana_city":"ｶﾅｻﾞﾜｼ","kana_address":"ｱｻﾋﾏﾁ","pref":"石川県","city":"金沢市","address":"旭町"},
{"zip_code":"9201107","kana_pref":"ｲｼｶﾜｹﾝ","kana_city":"ｶﾅｻﾞﾜｼ","kana_address":"ｱｽﾞｷｻﾞﾜﾏﾁ","pref":"石川県","city":"金沢市","address":"小豆沢町"},
{"zip_code":"9200996","kana_pref":"ｲｼｶﾜｹﾝ","kana_city":"ｶﾅｻﾞﾜｼ","kana_address":"ｱﾌﾞﾗｸﾞﾙﾏ","pref":"石川県","city":"金沢市","address":"油車"},
{"zip_code":"9201331","kana_pref":"ｲｼｶﾜｹﾝ","kana_city":"ｶﾅｻﾞﾜｼ","kana_address":"ｱﾏｲｹﾏﾁ","pref":"石川県","city":"金沢市","address":"天池町"},
{"zip_code":"9203124","kana_pref":"ｲｼｶﾜｹﾝ","kana_city":"ｶﾅｻﾞﾜｼ","kana_address":"ｱﾗﾔ","pref":"石川県","city":"金沢市","address":"荒屋"},
{"zip_code":"9203125","kana_pref":"ｲｼｶﾜｹﾝ","kana_city":"ｶﾅｻﾞﾜｼ","kana_address":"ｱﾗﾔﾏﾁ","pref":"石川県","city":"金沢市","address":"荒屋町"},
{"zip_code":"9201101","kana_pref":"ｲｼｶﾜｹﾝ","kana_city":"ｶﾅｻﾞﾜｼ","kana_address":"ｱﾗﾔﾏﾏﾁ","pref":"石川県","city":"金沢市","address":"荒山町"},
{"zip_code":"9200226","kana_pref":"ｲｼｶﾜｹﾝ","kana_city":"ｶﾅｻﾞﾜｼ","kana_address":"ｱﾜｶﾞｻｷﾏﾁ","pref":"石川県","city":"金沢市","address":"粟崎町"},
{"zip_code":"9200227","kana_pref":"ｲｼｶﾜｹﾝ","kana_city":"ｶﾅｻﾞﾜｼ","kana_address":"ｱﾜｶﾞｻｷﾊﾏﾏﾁ","pref":"石川県","city":"金沢市","address":"粟崎浜町"},
{"zip_code":"9200983","kana_pref":"ｲｼｶﾜｹﾝ","kana_city":"ｶﾅｻﾞﾜｼ","kana_address":"ｲｹﾀﾞﾏﾁ1ﾊﾞﾝﾁｮｳ","pref":"石川県","city":"金沢市","address":"池田町一番丁"},
{"zip_code":"9200984","kana_pref":"ｲｼｶﾜｹﾝ","kana_city":"ｶﾅｻﾞﾜｼ","kana_address":"ｲｹﾀﾞﾏﾁ2ﾊﾞﾝﾁｮｳ","pref":"石川県","city":"金沢市","address":"池田町二番丁"},
{"zip_code":"9200985","kana_pref":"ｲｼｶﾜｹﾝ","kana_city":"ｶﾅｻﾞﾜｼ","kana_address":"ｲｹﾀﾞﾏﾁ3ﾊﾞﾝﾁｮｳ","pref":"石川県","city":"金沢市","address":"池田町三番丁"},
{"zip_code":"9200986","kana_pref":"ｲｼｶﾜｹﾝ","kana_city":"ｶﾅｻﾞﾜｼ","kana_address":"ｲｹﾀﾞﾏﾁ4ﾊﾞﾝﾁｮｳ","pref":"石川県","city":"金沢市","address":"池田町四番丁"},
{"zip_code":"9200987","kana_pref":"ｲｼｶﾜｹﾝ","kana_city":"ｶﾅｻﾞﾜｼ","kana_address":"ｲｹﾀﾞﾏﾁﾀﾃﾁｮｳ","pref":"石川県","city":"金沢市","address":"池田町立丁"},
{"zip_code":"9201115","kana_pref":"ｲｼｶﾜｹﾝ","kana_city":"ｶﾅｻﾞﾜｼ","kana_address":"ｲｼｸﾞﾛﾏﾁ","pref":"石川県","city":"金沢市","address":"石黒町"},
{"zip_code":"9200935","kana_pref":"ｲｼｶﾜｹﾝ","kana_city":"ｶﾅｻﾞﾜｼ","kana_address":"ｲｼﾋﾞｷ","pref":"石川県","city":"金沢市","address":"石引"},
{"zip_code":"9200056","kana_pref":"ｲｼｶﾜｹﾝ","kana_city":"ｶﾅｻﾞﾜｼ","kana_address":"ｲｽﾞﾓﾏﾁ","pref":"石川県","city":"金沢市","address":"出雲町"},
{"zip_code":"9200012","kana_pref":"ｲｼｶﾜｹﾝ","kana_city":"ｶﾅｻﾞﾜｼ","kana_address":"ｲｿﾍﾞﾏﾁ","pref":"石川県","city":"金沢市","address":"磯部町"},
{"zip_code":"9201116","kana_pref":"ｲｼｶﾜｹﾝ","kana_city":"ｶﾅｻﾞﾜｼ","kana_address":"ｲﾀｶﾞﾔﾏﾁ","pref":"石川県","city":"金沢市","address":"板ケ谷町"},
{"zip_code":"9200145","kana_pref":"ｲｼｶﾜｹﾝ","kana_city":"ｶﾅｻﾞﾜｼ","kana_address":"ｲﾁﾉｾﾏﾁ","pref":"石川県","city":"金沢市","address":"市瀬町"},
{"zip_code":"9200378","kana_pref":"ｲｼｶﾜｹﾝ","kana_city":"ｶﾅｻﾞﾜｼ","kana_address":"ｲﾅﾎ","pref":"石川県","city":"金沢市","address":"いなほ"},
{"zip_code":"9200994","kana_pref":"ｲｼｶﾜｹﾝ","kana_city":"ｶﾅｻﾞﾜｼ","kana_address":"ｲﾊﾞﾗｷﾞﾁｮｳ","pref":"石川県","city":"金沢市","address":"茨木町"},
{"zip_code":"9200125","kana_pref":"ｲｼｶﾜｹﾝ","kana_city":"ｶﾅｻﾞﾜｼ","kana_address":"ｲﾏｲｽﾞﾐﾏﾁ","pref":"石川県","city":"金沢市","address":"今泉町"},
{"zip_code":"9200008","kana_pref":"ｲｼｶﾜｹﾝ","kana_city":"ｶﾅｻﾞﾜｼ","kana_address":"ｲﾏｼｮｳﾏﾁ","pref":"石川県","city":"金沢市","address":"今昭町"},
{"zip_code":"9200106","kana_pref":"ｲｼｶﾜｹﾝ","kana_city":"ｶﾅｻﾞﾜｼ","kana_address":"ｲﾏﾏﾁ","pref":"石川県","city":"金沢市","address":"今町"},
{"zip_code":"9200171","kana_pref":"ｲｼｶﾜｹﾝ","kana_city":"ｶﾅｻﾞﾜｼ","kana_address":"ｲﾜﾃﾞﾏﾁ","pref":"石川県","city":"金沢市","address":"岩出町"},
{"zip_code":"9200943","kana_pref":"ｲｼｶﾜｹﾝ","kana_city":"ｶﾅｻﾞﾜｼ","kana_address":"ｳｴﾉﾎﾝﾏﾁ","pref":"石川県","city":"金沢市","address":"上野本町"},
{"zip_code":"9201113","kana_pref":"ｲｼｶﾜｹﾝ","kana_city":"ｶﾅｻﾞﾜｼ","kana_address":"ｳｴﾔﾏﾏﾁ","pref":"石川県","city":"金沢市","address":"上山町"},
{"zip_code":"9201111","kana_pref":"ｲｼｶﾜｹﾝ","kana_city":"ｶﾅｻﾞﾜｼ","kana_address":"ｳｵｶﾞｴﾘﾏﾁ","pref":"石川県","city":"金沢市","address":"魚帰町"},
{"zip_code":"9200837","kana_pref":"ｲｼｶﾜｹﾝ","kana_city":"ｶﾅｻﾞﾜｼ","kana_address":"ｳｸﾞｲｽﾏﾁ","pref":"石川県","city":"金沢市","address":"鶯町"},
{"zip_code":"9200832","kana_pref":"ｲｼｶﾜｹﾝ","kana_city":"ｶﾅｻﾞﾜｼ","kana_address":"ｳﾀﾂﾏﾁ","pref":"石川県","city":"金沢市","address":"卯辰町"},
{"zip_code":"9201149","kana_pref":"ｲｼｶﾜｹﾝ","kana_city":"ｶﾅｻﾞﾜｼ","kana_address":"ｳﾁｵﾏﾁ","pref":"石川県","city":"金沢市","address":"打尾町"},
{"zip_code":"9200377","kana_pref":"ｲｼｶﾜｹﾝ","kana_city":"ｶﾅｻﾞﾜｼ","kana_address":"ｳﾂｷﾞﾏﾁ","pref":"石川県","city":"金沢市","address":"打木町"},
{"zip_code":"9200343","kana_pref":"ｲｼｶﾜｹﾝ","kana_city":"ｶﾅｻﾞﾜｼ","kana_address":"ｳﾈﾀﾞﾅｶ","pref":"石川県","city":"金沢市","address":"畝田中"},
{"zip_code":"9200342","kana_pref":"ｲｼｶﾜｹﾝ","kana_city":"ｶﾅｻﾞﾜｼ","kana_address":"ｳﾈﾀﾞﾏﾁ","pref":"石川県","city":"金沢市","address":"畝田町"},
{"zip_code":"9200344","kana_pref":"ｲｼｶﾜｹﾝ","kana_city":"ｶﾅｻﾞﾜｼ","kana_address":"ｳﾈﾀﾞﾋｶﾞｼ","pref":"石川県","city":"金沢市","address":"畝田東"},
{"zip_code":"9200342","kana_pref":"ｲｼｶﾜｹﾝ","kana_city":"ｶﾅｻﾞﾜｼ","kana_address":"ｳﾈﾀﾞﾆｼ","pref":"石川県","city":"金沢市","address":"畝田西"},
{"zip_code":"9203111","kana_pref":"ｲｼｶﾜｹﾝ","kana_city":"ｶﾅｻﾞﾜｼ","kana_address":"ｳﾒﾀﾞﾏﾁ","pref":"石川県","city":"金沢市","address":"梅田町"},
{"zip_code":"9200971","kana_pref":"ｲｼｶﾜｹﾝ","kana_city":"ｶﾅｻﾞﾜｼ","kana_address":"ｳﾛｺﾏﾁ","pref":"石川県","city":"金沢市","address":"鱗町"},
{"zip_code":"9200122","kana_pref":"ｲｼｶﾜｹﾝ","kana_city":"ｶﾅｻﾞﾜｼ","kana_address":"ｳﾜﾀﾞｲﾗﾏﾁ","pref":"石川県","city":"金沢市","address":"上平町"},
{"zip_code":"9201301","kana_pref":"ｲｼｶﾜｹﾝ","kana_city":"ｶﾅｻﾞﾜｼ","kana_address":"ｴｲｱﾝﾁｮｳ","pref":"石川県","city":"金沢市","address":"永安町"},
{"zip_code":"9200027","kana_pref":"ｲｼｶﾜｹﾝ","kana_city":"ｶﾅｻﾞﾜｼ","kana_address":"ｴｷﾆｼｼﾝﾏﾁ","pref":"石川県","city":"金沢市","address":"駅西新町"},
{"zip_code":"9200025","kana_pref":"ｲｼｶﾜｹﾝ","kana_city":"ｶﾅｻﾞﾜｼ","kana_address":"ｴｷﾆｼﾎﾝﾏﾁ","pref":"石川県","city":"金沢市","address":"駅西本町"},
{"zip_code":"9200973","kana_pref":"ｲｼｶﾜｹﾝ","kana_city":"ｶﾅｻﾞﾜｼ","kana_address":"ｴﾀﾞﾏﾁ","pref":"石川県","city":"金沢市","address":"枝町"},
{"zip_code":"9200112","kana_pref":"ｲｼｶﾜｹﾝ","kana_city":"ｶﾅｻﾞﾜｼ","kana_address":"ｴﾉｷｵﾏﾁ","pref":"石川県","city":"金沢市","address":"榎尾町"},
{"zip_code":"9200162","kana_pref":"ｲｼｶﾜｹﾝ","kana_city":"ｶﾅｻﾞﾜｼ","kana_address":"ｵｲｹﾏﾁ","pref":"石川県","city":"金沢市","address":"小池町"},
{"zip_code":"9200927","kana_pref":"ｲｼｶﾜｹﾝ","kana_city":"ｶﾅｻﾞﾜｼ","kana_address":"ｵｳｷﾞﾏﾁ","pref":"石川県","city":"金沢市","address":"扇町"},
{"zip_code":"9200205","kana_pref":"ｲｼｶﾜｹﾝ","kana_city":"ｶﾅｻﾞﾜｼ","kana_address":"ｵｵｳﾗﾏﾁ","pref":"石川県","city":"金沢市","address":"大浦町"},
{"zip_code":"9200945","kana_pref":"ｲｼｶﾜｹﾝ","kana_city":"ｶﾅｻﾞﾜｼ","kana_address":"ｵｵｸﾜｼﾝﾏﾁ","pref":"石川県","city":"金沢市","address":"大桑新町"},
{"zip_code":"9200946","kana_pref":"ｲｼｶﾜｹﾝ","kana_city":"ｶﾅｻﾞﾜｼ","kana_address":"ｵｵｸﾜﾏﾁ","pref":"石川県","city":"金沢市","address":"大桑町"},
{"zip_code":"9200912","kana_pref":"ｲｼｶﾜｹﾝ","kana_city":"ｶﾅｻﾞﾜｼ","kana_address":"ｵｵﾃﾏﾁ","pref":"石川県","city":"金沢市","address":"大手町"},
{"zip_code":"9208205","kana_pref":"ｲｼｶﾜｹﾝ","kana_city":"ｶﾅｻﾞﾜｼ","kana_address":"ｵｵﾄﾓ","pref":"石川県","city":"金沢市","address":"大友"},
{"zip_code":"9208222","kana_pref":"ｲｼｶﾜｹﾝ","kana_city":"ｶﾅｻﾞﾜｼ","kana_address":"ｵｵﾄﾓﾏﾁ","pref":"石川県","city":"金沢市","address":"大友町"},
{"zip_code":"9200231","kana_pref":"ｲｼｶﾜｹﾝ","kana_city":"ｶﾅｻﾞﾜｼ","kana_address":"ｵｵﾉﾏﾁ","pref":"石川県","city":"金沢市","address":"大野町"},
{"zip_code":"9200331","kana_pref":"ｲｼｶﾜｹﾝ","kana_city":"ｶﾅｻﾞﾜｼ","kana_address":"ｵｵﾉﾏﾁ","pref":"石川県","city":"金沢市","address":"大野町"},
{"zip_code":"9200225","kana_pref":"ｲｼｶﾜｹﾝ","kana_city":"ｶﾅｻﾞﾜｼ","kana_address":"ｵｵﾉﾏﾁｼﾝﾏﾁ","pref":"石川県","city":"金沢市","address":"大野町新町"},
{"zip_code":"9203121","kana_pref":"ｲｼｶﾜｹﾝ","kana_city":"ｶﾅｻﾞﾜｼ","kana_address":"ｵｵﾊﾞﾏﾁ","pref":"石川県","city":"金沢市","address":"大場町"},
{"zip_code":"9200818","kana_pref":"ｲｼｶﾜｹﾝ","kana_city":"ｶﾅｻﾞﾜｼ","kana_address":"ｵｵﾋﾏﾁ","pref":"石川県","city":"金沢市","address":"大樋町"},
{"zip_code":"9201335","kana_pref":"ｲｼｶﾜｹﾝ","kana_city":"ｶﾅｻﾞﾜｼ","kana_address":"ｵｵﾋﾗｿｳﾏﾁ","pref":"石川県","city":"金沢市","address":"大平沢町"},
{"zip_code":"9200013","kana_pref":"ｲｼｶﾜｹﾝ","kana_city":"ｶﾅｻﾞﾜｼ","kana_address":"ｵｷﾏﾁ","pref":"石川県","city":"金沢市","address":"沖町"},
{"zip_code":"9201101","kana_pref":"ｲｼｶﾜｹﾝ","kana_city":"ｶﾅｻﾞﾜｼ","kana_address":"ｵｸｼﾝﾎﾞﾏﾁ","pref":"石川県","city":"金沢市","address":"奥新保町"},
{"zip_code":"9200213","kana_pref":"ｲｼｶﾜｹﾝ","kana_city":"ｶﾅｻﾞﾜｼ","kana_address":"ｵｺﾊﾞﾀﾏﾁ","pref":"石川県","city":"金沢市","address":"大河端町"},
{"zip_code":"9201324","kana_pref":"ｲｼｶﾜｹﾝ","kana_city":"ｶﾅｻﾞﾜｼ","kana_address":"ｵｼﾊﾗﾏﾁ","pref":"石川県","city":"金沢市","address":"鴛原町"},
{"zip_code":"9200807","kana_pref":"ｲｼｶﾜｹﾝ","kana_city":"ｶﾅｻﾞﾜｼ","kana_address":"ｵﾄﾏﾙﾏﾁ","pref":"石川県","city":"金沢市","address":"乙丸町"},
{"zip_code":"9201343","kana_pref":"ｲｼｶﾜｹﾝ","kana_city":"ｶﾅｻﾞﾜｼ","kana_address":"ｵﾊﾗﾏﾁ","pref":"石川県","city":"金沢市","address":"小原町"},
{"zip_code":"9201111","kana_pref":"ｲｼｶﾜｹﾝ","kana_city":"ｶﾅｻﾞﾜｼ","kana_address":"ｵﾋﾞｼｹﾏﾁ","pref":"石川県","city":"金沢市","address":"大菱池町"},
{"zip_code":"9200918","kana_pref":"ｲｼｶﾜｹﾝ","kana_city":"ｶﾅｻﾞﾜｼ","kana_address":"ｵﾔﾏﾏﾁ","pref":"石川県","city":"金沢市","address":"尾山町"},
{"zip_code":"9201112","kana_pref":"ｲｼｶﾜｹﾝ","kana_city":"ｶﾅｻﾞﾜｼ","kana_address":"ｵﾘﾀﾆﾏﾁ","pref":"石川県","city":"金沢市","address":"折谷町"},
{"zip_code":"9200902","kana_pref":"ｲｼｶﾜｹﾝ","kana_city":"ｶﾅｻﾞﾜｼ","kana_address":"ｵﾜﾘﾁｮｳ","pref":"石川県","city":"金沢市","address":"尾張町"},
{"zip_code":"9200114","kana_pref":"ｲｼｶﾜｹﾝ","kana_city":"ｶﾅｻﾞﾜｼ","kana_address":"ｶｶﾞｱｻﾋﾏﾁ","pref":"石川県","city":"金沢市","address":"加賀朝日町"},
{"zip_code":"9200208","kana_pref":"ｲｼｶﾜｹﾝ","kana_city":"ｶﾅｻﾞﾜｼ","kana_address":"ｶｶﾞﾂﾒﾏﾁ","pref":"石川県","city":"金沢市","address":"蚊爪町"},
{"zip_code":"9200999","kana_pref":"ｲｼｶﾜｹﾝ","kana_city":"ｶﾅｻﾞﾜｼ","kana_address":"ｶｷﾉｷﾊﾞﾀｹ","pref":"石川県","city":"金沢市","address":"柿木畠"},
{"zip_code":"9201163","kana_pref":"ｲｼｶﾜｹﾝ","kana_city":"ｶﾅｻﾞﾜｼ","kana_address":"ｶｸﾏｼﾝﾏﾁ","pref":"石川県","city":"金沢市","address":"角間新町"},
{"zip_code":"9201164","kana_pref":"ｲｼｶﾜｹﾝ","kana_city":"ｶﾅｻﾞﾜｼ","kana_address":"ｶｸﾏﾏﾁ","pref":"石川県","city":"金沢市","address":"角間町"},
{"zip_code":"9200851","kana_pref":"ｲｼｶﾜｹﾝ","kana_city":"ｶﾅｻﾞﾜｼ","kana_address":"ｶｻｲﾁﾏﾁ","pref":"石川県","city":"金沢市","address":"笠市町"},
{"zip_code":"9200965","kana_pref":"ｲｼｶﾜｹﾝ","kana_city":"ｶﾅｻﾞﾜｼ","kana_address":"ｶｻﾏｲ","pref":"石川県","city":"金沢市","address":"笠舞"},
{"zip_code":"9200947","kana_pref":"ｲｼｶﾜｹﾝ","kana_city":"ｶﾅｻﾞﾜｼ","kana_address":"ｶｻﾏｲﾎﾝﾏﾁ","pref":"石川県","city":"金沢市","address":"笠舞本町"},
{"zip_code":"9201332","kana_pref":"ｲｼｶﾜｹﾝ","kana_city":"ｶﾅｻﾞﾜｼ","kana_address":"ｶｼﾐﾏﾁ","pref":"石川県","city":"金沢市","address":"樫見町"},
{"zip_code":"9200908","kana_pref":"ｲｼｶﾜｹﾝ","kana_city":"ｶﾅｻﾞﾜｼ","kana_address":"ｶｽﾞｴﾏﾁ","pref":"石川県","city":"金沢市","address":"主計町"},
{"zip_code":"9200817","kana_pref":"ｲｼｶﾜｹﾝ","kana_city":"ｶﾅｻﾞﾜｼ","kana_address":"ｶｽｶﾞﾏﾁ","pref":"石川県","city":"金沢市","address":"春日町"},
{"zip_code":"9200164","kana_pref":"ｲｼｶﾜｹﾝ","kana_city":"ｶﾅｻﾞﾜｼ","kana_address":"ｶﾀﾀﾏﾁ","pref":"石川県","city":"金沢市","address":"堅田町"},
{"zip_code":"9200219","kana_pref":"ｲｼｶﾜｹﾝ","kana_city":"ｶﾅｻﾞﾜｼ","kana_address":"ｶﾀﾂ","pref":"石川県","city":"金沢市","address":"かたつ"},
{"zip_code":"9200981","kana_pref":"ｲｼｶﾜｹﾝ","kana_city":"ｶﾅｻﾞﾜｼ","kana_address":"ｶﾀﾏﾁ","pref":"石川県","city":"金沢市","address":"片町"},
{"zip_code":"9200334","kana_pref":"ｲｼｶﾜｹﾝ","kana_city":"ｶﾅｻﾞﾜｼ","kana_address":"ｶﾂﾗﾏﾁ","pref":"石川県","city":"金沢市","address":"桂町"},
{"zip_code":"9203134","kana_pref":"ｲｼｶﾜｹﾝ","kana_city":"ｶﾅｻﾞﾜｼ","kana_address":"ｶﾅｲﾁﾏﾁ","pref":"石川県","city":"金沢市","address":"金市町"},
{"zip_code":"9200336","kana_pref":"ｲｼｶﾜｹﾝ","kana_city":"ｶﾅｻﾞﾜｼ","kana_address":"ｶﾅｲﾜﾎﾝﾏﾁ","pref":"石川県","city":"金沢市","address":"金石本町"},
{"zip_code":"9200335","kana_pref":"ｲｼｶﾜｹﾝ","kana_city":"ｶﾅｻﾞﾜｼ","kana_address":"ｶﾅｲﾜﾋｶﾞｼ","pref":"石川県","city":"金沢市","address":"金石東"},
{"zip_code":"9200337","kana_pref":"ｲｼｶﾜｹﾝ","kana_city":"ｶﾅｻﾞﾜｼ","kana_address":"ｶﾅｲﾜﾆｼ","pref":"石川県","city":"金沢市","address":"金石西"},
{"zip_code":"9200338","kana_pref":"ｲｼｶﾜｹﾝ","kana_city":"ｶﾅｻﾞﾜｼ","kana_address":"ｶﾅｲﾜｷﾀ","pref":"石川県","city":"金沢市","address":"金石北"},
{"zip_code":"9201148","kana_pref":"ｲｼｶﾜｹﾝ","kana_city":"ｶﾅｻﾞﾜｼ","kana_address":"ｶﾅｶﾞﾜﾏﾁ","pref":"石川県","city":"金沢市","address":"金川町"},
{"zip_code":"9200905","kana_pref":"ｲｼｶﾜｹﾝ","kana_city":"ｶﾅｻﾞﾜｼ","kana_address":"ｶﾐｵｳﾐﾁｮｳ","pref":"石川県","city":"金沢市","address":"上近江町"},
{"zip_code":"9200992","kana_pref":"ｲｼｶﾜｹﾝ","kana_city":"ｶﾅｻﾞﾜｼ","kana_address":"ｶﾐｶｷﾉｷﾊﾞﾀｹ","pref":"石川県","city":"金沢市","address":"上柿木畠"},
{"zip_code":"9201304","kana_pref":"ｲｼｶﾜｹﾝ","kana_city":"ｶﾅｻﾞﾜｼ","kana_address":"ｶﾐﾀﾂﾐﾏﾁ","pref":"石川県","city":"金沢市","address":"上辰巳町"},
{"zip_code":"9200869","kana_pref":"ｲｼｶﾜｹﾝ","kana_city":"ｶﾅｻﾞﾜｼ","kana_address":"ｶﾐﾂﾂﾐﾁｮｳ","pref":"石川県","city":"金沢市","address":"上堤町"},
{"zip_code":"9201146","kana_pref":"ｲｼｶﾜｹﾝ","kana_city":"ｶﾅｻﾞﾜｼ","kana_address":"ｶﾐﾅｶﾏﾁ","pref":"石川県","city":"金沢市","address":"上中町"},
{"zip_code":"9200368","kana_pref":"ｲｼｶﾜｹﾝ","kana_city":"ｶﾅｻﾞﾜｼ","kana_address":"ｶﾐﾉ","pref":"石川県","city":"金沢市","address":"神野"},
{"zip_code":"9200365","kana_pref":"ｲｼｶﾜｹﾝ","kana_city":"ｶﾅｻﾞﾜｼ","kana_address":"ｶﾐﾉﾏﾁ","pref":"石川県","city":"金沢市","address":"神野町"},
{"zip_code":"9200370","kana_pref":"ｲｼｶﾜｹﾝ","kana_city":"ｶﾅｻﾞﾜｼ","kana_address":"ｶﾐﾔｽﾊﾗ","pref":"石川県","city":"金沢市","address":"上安原"},
{"zip_code":"9200374","kana_pref":"ｲｼｶﾜｹﾝ","kana_city":"ｶﾅｻﾞﾜｼ","kana_address":"ｶﾐﾔｽﾊﾗﾏﾁ","pref":"石川県","city":"金沢市","address":"上安原町"},
{"zip_code":"9200374","kana_pref":"ｲｼｶﾜｹﾝ","kana_city":"ｶﾅｻﾞﾜｼ","kana_address":"ｶﾐﾔｽﾊﾗﾐﾅﾐ","pref":"石川県","city":"金沢市","address":"上安原南"},
{"zip_code":"9200801","kana_pref":"ｲｼｶﾜｹﾝ","kana_city":"ｶﾅｻﾞﾜｼ","kana_address":"ｶﾐﾔﾁﾏﾁ","pref":"石川県","city":"金沢市","address":"神谷内町"},
{"zip_code":"9201166","kana_pref":"ｲｼｶﾜｹﾝ","kana_city":"ｶﾅｻﾞﾜｼ","kana_address":"ｶﾐﾜｶﾏﾂﾏﾁ","pref":"石川県","city":"金沢市","address":"上若松町"},
{"zip_code":"9200175","kana_pref":"ｲｼｶﾜｹﾝ","kana_city":"ｶﾅｻﾞﾜｼ","kana_address":"ｶﾐﾜｸﾅﾐﾏﾁ","pref":"石川県","city":"金沢市","address":"上涌波町"},
{"zip_code":"9200974","kana_pref":"ｲｼｶﾜｹﾝ","kana_city":"ｶﾅｻﾞﾜｼ","kana_address":"ｶﾜｷﾞｼﾏﾁ","pref":"石川県","city":"金沢市","address":"川岸町"},
{"zip_code":"9200172","kana_pref":"ｲｼｶﾜｹﾝ","kana_city":"ｶﾅｻﾞﾜｼ","kana_address":"ｶﾜﾗｲﾁﾏﾁ","pref":"石川県","city":"金沢市","address":"河原市町"},
{"zip_code":"9200352","kana_pref":"ｲｼｶﾜｹﾝ","kana_city":"ｶﾅｻﾞﾜｼ","kana_address":"ｶﾝﾉﾝﾄﾞｳﾏﾁ","pref":"石川県","city":"金沢市","address":"観音堂町"},
{"zip_code":"9200838","kana_pref":"ｲｼｶﾜｹﾝ","kana_city":"ｶﾅｻﾞﾜｼ","kana_address":"ｶﾝﾉﾝﾏﾁ","pref":"石川県","city":"金沢市","address":"観音町"},
{"zip_code":"9201125","kana_pref":"ｲｼｶﾜｹﾝ","kana_city":"ｶﾅｻﾞﾜｼ","kana_address":"ｶﾝﾊﾞﾗﾏﾁ","pref":"石川県","city":"金沢市","address":"上原町"},
{"zip_code":"9203112","kana_pref":"ｲｼｶﾜｹﾝ","kana_city":"ｶﾅｻﾞﾜｼ","kana_address":"ｶﾝﾎﾟｳｼﾞﾏﾁ","pref":"石川県","city":"金沢市","address":"観法寺町"},
{"zip_code":"9200967","kana_pref":"ｲｼｶﾜｹﾝ","kana_city":"ｶﾅｻﾞﾜｼ","kana_address":"ｷｸｶﾞﾜ","pref":"石川県","city":"金沢市","address":"菊川"},
{"zip_code":"9200988","kana_pref":"ｲｼｶﾜｹﾝ","kana_city":"ｶﾅｻﾞﾜｼ","kana_address":"ｷｸﾞﾗﾏﾁ","pref":"石川県","city":"金沢市","address":"木倉町"},
{"zip_code":"9200202","kana_pref":"ｲｼｶﾜｹﾝ","kana_city":"ｶﾅｻﾞﾜｼ","kana_address":"ｷｺﾞｼ","pref":"石川県","city":"金沢市","address":"木越"},
{"zip_code":"9200201","kana_pref":"ｲｼｶﾜｹﾝ","kana_city":"ｶﾅｻﾞﾜｼ","kana_address":"ｷｺﾞｼﾏﾁ","pref":"石川県","city":"金沢市","address":"木越町"},
{"zip_code":"9200203","kana_pref":"ｲｼｶﾜｹﾝ","kana_city":"ｶﾅｻﾞﾜｼ","kana_address":"ｷｺﾞｼﾏﾁ","pref":"石川県","city":"金沢市","address":"木越町"},
{"zip_code":"9200102","kana_pref":"ｲｼｶﾜｹﾝ","kana_city":"ｶﾅｻﾞﾜｼ","kana_address":"ｷｼｶﾞﾜﾏﾁ","pref":"石川県","city":"金沢市","address":"岸川町"},
{"zip_code":"9200143","kana_pref":"ｲｼｶﾜｹﾝ","kana_city":"ｶﾅｻﾞﾜｼ","kana_address":"ｷﾀｶﾞﾀﾏﾁ","pref":"石川県","city":"金沢市","address":"北方町"},
{"zip_code":"9200128","kana_pref":"ｲｼｶﾜｹﾝ","kana_city":"ｶﾅｻﾞﾜｼ","kana_address":"ｷﾀｾﾝｺﾞｸﾏﾁ","pref":"石川県","city":"金沢市","address":"北千石町"},
{"zip_code":"9200367","kana_pref":"ｲｼｶﾜｹﾝ","kana_city":"ｶﾅｻﾞﾜｼ","kana_address":"ｷﾀﾂﾞｶﾏﾁ","pref":"石川県","city":"金沢市","address":"北塚町"},
{"zip_code":"9200206","kana_pref":"ｲｼｶﾜｹﾝ","kana_city":"ｶﾅｻﾞﾜｼ","kana_address":"ｷﾀﾃﾞﾗﾏﾁ","pref":"石川県","city":"金沢市","address":"北寺町"},
{"zip_code":"9201135","kana_pref":"ｲｼｶﾜｹﾝ","kana_city":"ｶﾅｻﾞﾜｼ","kana_address":"ｷﾀﾌﾞｸﾛﾏﾁ","pref":"石川県","city":"金沢市","address":"北袋町"},
{"zip_code":"9200055","kana_pref":"ｲｼｶﾜｹﾝ","kana_city":"ｶﾅｻﾞﾜｼ","kana_address":"ｷﾀﾏﾁ","pref":"石川県","city":"金沢市","address":"北町"},
{"zip_code":"9200212","kana_pref":"ｲｼｶﾜｹﾝ","kana_city":"ｶﾅｻﾞﾜｼ","kana_address":"ｷﾀﾏﾏﾁ","pref":"石川県","city":"金沢市","address":"北間町"},
{"zip_code":"9203117","kana_pref":"ｲｼｶﾜｹﾝ","kana_city":"ｶﾅｻﾞﾜｼ","kana_address":"ｷﾀﾓﾘﾓﾄﾏﾁ","pref":"石川県","city":"金沢市","address":"北森本町"},
{"zip_code":"9200022","kana_pref":"ｲｼｶﾜｹﾝ","kana_city":"ｶﾅｻﾞﾜｼ","kana_address":"ｷﾀﾔｽｴ","pref":"石川県","city":"金沢市","address":"北安江"},
{"zip_code":"9200023","kana_pref":"ｲｼｶﾜｹﾝ","kana_city":"ｶﾅｻﾞﾜｼ","kana_address":"ｷﾀﾔｽｴﾁｮｳ","pref":"石川県","city":"金沢市","address":"北安江町"},
{"zip_code":"9200858","kana_pref":"ｲｼｶﾜｹﾝ","kana_city":"ｶﾅｻﾞﾜｼ","kana_address":"ｷﾉｼﾝﾎﾞﾏﾁ","pref":"石川県","city":"金沢市","address":"木ノ新保町"},
{"zip_code":"9200848","kana_pref":"ｲｼｶﾜｹﾝ","kana_city":"ｶﾅｻﾞﾜｼ","kana_address":"ｷｮｳﾏﾁ","pref":"石川県","city":"金沢市","address":"京町"},
{"zip_code":"9200163","kana_pref":"ｲｼｶﾜｹﾝ","kana_city":"ｶﾅｻﾞﾜｼ","kana_address":"ｷﾘﾔﾏﾏﾁ","pref":"石川県","city":"金沢市","address":"桐山町"},
{"zip_code":"9201333","kana_pref":"ｲｼｶﾜｹﾝ","kana_city":"ｶﾅｻﾞﾜｼ","kana_address":"ｸﾆﾐﾁｮｳ","pref":"石川県","city":"金沢市","address":"国見町"},
{"zip_code":"9201326","kana_pref":"ｲｼｶﾜｹﾝ","kana_city":"ｶﾅｻﾞﾜｼ","kana_address":"ｸﾏﾊﾞｼﾘﾏﾁ","pref":"石川県","city":"金沢市","address":"熊走町"},
{"zip_code":"9208203","kana_pref":"ｲｼｶﾜｹﾝ","kana_city":"ｶﾅｻﾞﾜｼ","kana_address":"ｸﾗﾂｷ","pref":"石川県","city":"金沢市","address":"鞍月"},
{"zip_code":"9208201","kana_pref":"ｲｼｶﾜｹﾝ","kana_city":"ｶﾅｻﾞﾜｼ","kana_address":"ｸﾗﾂｷﾋｶﾞｼ","pref":"石川県","city":"金沢市","address":"鞍月東"},
{"zip_code":"9200157","kana_pref":"ｲｼｶﾜｹﾝ","kana_city":"ｶﾅｻﾞﾜｼ","kana_address":"ｸﾙﾏﾏﾁ","pref":"石川県","city":"金沢市","address":"車町"},
{"zip_code":"9200936","kana_pref":"ｲｼｶﾜｹﾝ","kana_city":"ｶﾅｻﾞﾜｼ","kana_address":"ｹﾝﾛｸﾏﾁ","pref":"石川県","city":"金沢市","address":"兼六町"},
{"zip_code":"9200931","kana_pref":"ｲｼｶﾜｹﾝ","kana_city":"ｶﾅｻﾞﾜｼ","kana_address":"ｹﾝﾛｸﾓﾄﾏﾁ","pref":"石川県","city":"金沢市","address":"兼六元町"},
{"zip_code":"9200961","kana_pref":"ｲｼｶﾜｹﾝ","kana_city":"ｶﾅｻﾞﾜｼ","kana_address":"ｺｳﾘﾝﾎﾞｳ","pref":"石川県","city":"金沢市","address":"香林坊"},
{"zip_code":"9200805","kana_pref":"ｲｼｶﾜｹﾝ","kana_city":"ｶﾅｻﾞﾜｼ","kana_address":"ｺｶﾞﾈﾏﾁ","pref":"石川県","city":"金沢市","address":"小金町"},
{"zip_code":"9201114","kana_pref":"ｲｼｶﾜｹﾝ","kana_city":"ｶﾅｻﾞﾜｼ","kana_address":"ｺｷｮｳﾏﾁ","pref":"石川県","city":"金沢市","address":"古郷町"},
{"zip_code":"9208221","kana_pref":"ｲｼｶﾜｹﾝ","kana_city":"ｶﾅｻﾞﾜｼ","kana_address":"ｺﾞｸﾃﾞﾝﾏﾁ","pref":"石川県","city":"金沢市","address":"御供田町"},
{"zip_code":"9200811","kana_pref":"ｲｼｶﾜｹﾝ","kana_city":"ｶﾅｻﾞﾜｼ","kana_address":"ｺｻｶﾏﾁ","pref":"石川県","city":"金沢市","address":"小坂町"},
{"zip_code":"9200932","kana_pref":"ｲｼｶﾜｹﾝ","kana_city":"ｶﾅｻﾞﾜｼ","kana_address":"ｺｼｮｳﾏﾁ","pref":"石川県","city":"金沢市","address":"小将町"},
{"zip_code":"9200813","kana_pref":"ｲｼｶﾜｹﾝ","kana_city":"ｶﾅｻﾞﾜｼ","kana_address":"ｺﾞｼｮﾏﾁ","pref":"石川県","city":"金沢市","address":"御所町"},
{"zip_code":"9200942","kana_pref":"ｲｼｶﾜｹﾝ","kana_city":"ｶﾅｻﾞﾜｼ","kana_address":"ｺﾀﾞﾂﾉ","pref":"石川県","city":"金沢市","address":"小立野"},
{"zip_code":"9200129","kana_pref":"ｲｼｶﾜｹﾝ","kana_city":"ｶﾅｻﾞﾜｼ","kana_address":"ｺﾄｻｶﾏﾁ","pref":"石川県","city":"金沢市","address":"琴坂町"},
{"zip_code":"9200121","kana_pref":"ｲｼｶﾜｹﾝ","kana_city":"ｶﾅｻﾞﾜｼ","kana_address":"ｺﾄﾏﾁ","pref":"石川県","city":"金沢市","address":"琴町"},
{"zip_code":"9203107","kana_pref":"ｲｼｶﾜｹﾝ","kana_city":"ｶﾅｻﾞﾜｼ","kana_address":"ｺﾅﾝﾏﾁ","pref":"石川県","city":"金沢市","address":"湖南町"},
{"zip_code":"9200852","kana_pref":"ｲｼｶﾜｹﾝ","kana_city":"ｶﾅｻﾞﾜｼ","kana_address":"ｺﾉﾊﾅﾏﾁ","pref":"石川県","city":"金沢市","address":"此花町"},
{"zip_code":"9200168","kana_pref":"ｲｼｶﾜｹﾝ","kana_city":"ｶﾅｻﾞﾜｼ","kana_address":"ｺﾉﾏﾁ","pref":"石川県","city":"金沢市","address":"小野町"},
{"zip_code":"9200844","kana_pref":"ｲｼｶﾜｹﾝ","kana_city":"ｶﾅｻﾞﾜｼ","kana_address":"ｺﾊﾞｼﾏﾁ","pref":"石川県","city":"金沢市","address":"小橋町"},
{"zip_code":"9201111","kana_pref":"ｲｼｶﾜｹﾝ","kana_city":"ｶﾅｻﾞﾜｼ","kana_address":"ｺﾋﾞｼｹﾏﾁ","pref":"石川県","city":"金沢市","address":"小菱池町"},
{"zip_code":"9200826","kana_pref":"ｲｼｶﾜｹﾝ","kana_city":"ｶﾅｻﾞﾜｼ","kana_address":"ｺﾌﾀﾏﾀﾏﾁ","pref":"石川県","city":"金沢市","address":"小二又町"},
{"zip_code":"9200362","kana_pref":"ｲｼｶﾜｹﾝ","kana_city":"ｶﾅｻﾞﾜｼ","kana_address":"ｺﾌﾞ","pref":"石川県","city":"金沢市","address":"古府"},
{"zip_code":"9200362","kana_pref":"ｲｼｶﾜｹﾝ","kana_city":"ｶﾅｻﾞﾜｼ","kana_address":"ｺﾌﾞﾏﾁ","pref":"石川県","city":"金沢市","address":"古府町"},
{"zip_code":"9200362","kana_pref":"ｲｼｶﾜｹﾝ","kana_city":"ｶﾅｻﾞﾜｼ","kana_address":"ｺﾌﾞﾏﾁ","pref":"石川県","city":"金沢市","address":"古府町"},
{"zip_code":"9200363","kana_pref":"ｲｼｶﾜｹﾝ","kana_city":"ｶﾅｻﾞﾜｼ","kana_address":"ｺﾌﾞﾏﾁ","pref":"石川県","city":"金沢市","address":"古府町"},
{"zip_code":"9201313","kana_pref":"ｲｼｶﾜｹﾝ","kana_city":"ｶﾅｻﾞﾜｼ","kana_address":"ｺﾏｶﾞｴﾘﾏﾁ","pref":"石川県","city":"金沢市","address":"駒帰町"},
{"zip_code":"9200144","kana_pref":"ｲｼｶﾜｹﾝ","kana_city":"ｶﾅｻﾞﾜｼ","kana_address":"ｺﾐﾈﾏﾁ","pref":"石川県","city":"金沢市","address":"小嶺町"},
{"zip_code":"9203103","kana_pref":"ｲｼｶﾜｹﾝ","kana_city":"ｶﾅｻﾞﾜｼ","kana_address":"ｺﾖｳ","pref":"石川県","city":"金沢市","address":"湖陽"},
{"zip_code":"9200836","kana_pref":"ｲｼｶﾜｹﾝ","kana_city":"ｶﾅｻﾞﾜｼ","kana_address":"ｺﾗｲﾏﾁ","pref":"石川県","city":"金沢市","address":"子来町"},
{"zip_code":"9200224","kana_pref":"ｲｼｶﾜｹﾝ","kana_city":"ｶﾅｻﾞﾜｼ","kana_address":"ｺﾞﾛｼﾞﾏﾏﾁ","pref":"石川県","city":"金沢市","address":"五郎島町"},
{"zip_code":"9203101","kana_pref":"ｲｼｶﾜｹﾝ","kana_city":"ｶﾅｻﾞﾜｼ","kana_address":"ｻｲﾀﾞﾏﾁ","pref":"石川県","city":"金沢市","address":"才田町"},
{"zip_code":"9200024","kana_pref":"ｲｼｶﾜｹﾝ","kana_city":"ｶﾅｻﾞﾜｼ","kana_address":"ｻｲﾈﾝ","pref":"石川県","city":"金沢市","address":"西念"},
{"zip_code":"9200026","kana_pref":"ｲｼｶﾜｹﾝ","kana_city":"ｶﾅｻﾞﾜｼ","kana_address":"ｻｲﾈﾝﾏﾁ","pref":"石川県","city":"金沢市","address":"西念町"},
{"zip_code":"9200921","kana_pref":"ｲｼｶﾜｹﾝ","kana_city":"ｶﾅｻﾞﾜｼ","kana_address":"ｻﾞｲﾓｸﾁｮｳ","pref":"石川県","city":"金沢市","address":"材木町"},
{"zip_code":"9200968","kana_pref":"ｲｼｶﾜｹﾝ","kana_city":"ｶﾅｻﾞﾜｼ","kana_address":"ｻｲﾜｲﾏﾁ","pref":"石川県","city":"金沢市","address":"幸町"},
{"zip_code":"9200357","kana_pref":"ｲｼｶﾜｹﾝ","kana_city":"ｶﾅｻﾞﾜｼ","kana_address":"ｻｷﾓﾘﾏﾁ","pref":"石川県","city":"金沢市","address":"佐奇森町"},
{"zip_code":"9200057","kana_pref":"ｲｼｶﾜｹﾝ","kana_city":"ｶﾅｻﾞﾜｼ","kana_address":"ｻｸﾗﾀﾞﾏﾁ","pref":"石川県","city":"金沢市","address":"桜田町"},
{"zip_code":"9200923","kana_pref":"ｲｼｶﾜｹﾝ","kana_city":"ｶﾅｻﾞﾜｼ","kana_address":"ｻｸﾗﾏﾁ","pref":"石川県","city":"金沢市","address":"桜町"},
{"zip_code":"9200998","kana_pref":"ｲｼｶﾜｹﾝ","kana_city":"ｶﾅｻﾞﾜｼ","kana_address":"ｻﾄﾐﾁｮｳ","pref":"石川県","city":"金沢市","address":"里見町"},
{"zip_code":"9200034","kana_pref":"ｲｼｶﾜｹﾝ","kana_city":"ｶﾅｻﾞﾜｼ","kana_address":"ｻﾒｶﾞｲﾁｮｳ","pref":"石川県","city":"金沢市","address":"醒ケ井町"},
{"zip_code":"9200861","kana_pref":"ｲｼｶﾜｹﾝ","kana_city":"ｶﾅｻﾞﾜｼ","kana_address":"ｻﾝｼﾞｬﾏﾁ","pref":"石川県","city":"金沢市","address":"三社町"},
{"zip_code":"9200821","kana_pref":"ｲｼｶﾜｹﾝ","kana_city":"ｶﾅｻﾞﾜｼ","kana_address":"ｻﾝﾉｳﾏﾁ","pref":"石川県","city":"金沢市","address":"山王町"},
{"zip_code":"9200166","kana_pref":"ｲｼｶﾜｹﾝ","kana_city":"ｶﾅｻﾞﾜｼ","kana_address":"ｼｵｳｼﾞﾏﾁ","pref":"石川県","city":"金沢市","address":"四王寺町"},
{"zip_code":"9200116","kana_pref":"ｲｼｶﾜｹﾝ","kana_city":"ｶﾅｻﾞﾜｼ","kana_address":"ｼﾞﾀﾞｲﾏﾁ","pref":"石川県","city":"金沢市","address":"地代町"},
{"zip_code":"9200341","kana_pref":"ｲｼｶﾜｹﾝ","kana_city":"ｶﾅｻﾞﾜｼ","kana_address":"ｼﾞﾁｭｳﾏﾁ","pref":"石川県","city":"金沢市","address":"寺中町"},
{"zip_code":"9200906","kana_pref":"ｲｼｶﾜｹﾝ","kana_city":"ｶﾅｻﾞﾜｼ","kana_address":"ｼﾞﾂｹﾝﾏﾁ","pref":"石川県","city":"金沢市","address":"十間町"},
{"zip_code":"9201129","kana_pref":"ｲｼｶﾜｹﾝ","kana_city":"ｶﾅｻﾞﾜｼ","kana_address":"ｼﾊﾞﾊﾗﾏﾁ","pref":"石川県","city":"金沢市","address":"芝原町"},
{"zip_code":"9200104","kana_pref":"ｲｼｶﾜｹﾝ","kana_city":"ｶﾅｻﾞﾜｼ","kana_address":"ｼﾎﾞｳﾀｶｻｶﾏﾁ","pref":"石川県","city":"金沢市","address":"四坊高坂町"},
{"zip_code":"9200104","kana_pref":"ｲｼｶﾜｹﾝ","kana_city":"ｶﾅｻﾞﾜｼ","kana_address":"ｼﾎﾞｳﾏﾁ","pref":"石川県","city":"金沢市","address":"四坊町"},
{"zip_code":"9200132","kana_pref":"ｲｼｶﾜｹﾝ","kana_city":"ｶﾅｻﾞﾜｼ","kana_address":"ｼﾐｽﾞﾀﾞﾆﾏﾁ","pref":"石川県","city":"金沢市","address":"清水谷町"},
{"zip_code":"9201104","kana_pref":"ｲｼｶﾜｹﾝ","kana_city":"ｶﾅｻﾞﾜｼ","kana_address":"ｼﾐｽﾞﾏﾁ","pref":"石川県","city":"金沢市","address":"清水町"},
{"zip_code":"9200058","kana_pref":"ｲｼｶﾜｹﾝ","kana_city":"ｶﾅｻﾞﾜｼ","kana_address":"ｼﾒﾉﾅｶﾏﾁ","pref":"石川県","city":"金沢市","address":"示野中町"},
{"zip_code":"9200059","kana_pref":"ｲｼｶﾜｹﾝ","kana_city":"ｶﾅｻﾞﾜｼ","kana_address":"ｼﾒﾉﾏﾁ","pref":"石川県","city":"金沢市","address":"示野町"},
{"zip_code":"9200939","kana_pref":"ｲｼｶﾜｹﾝ","kana_city":"ｶﾅｻﾞﾜｼ","kana_address":"ｼﾓｲｼﾋﾞｷﾏﾁ","pref":"石川県","city":"金沢市","address":"下石引町"},
{"zip_code":"9200904","kana_pref":"ｲｼｶﾜｹﾝ","kana_city":"ｶﾅｻﾞﾜｼ","kana_address":"ｼﾓｵｳﾐﾁｮｳ","pref":"石川県","city":"金沢市","address":"下近江町"},
{"zip_code":"9201323","kana_pref":"ｲｼｶﾜｹﾝ","kana_city":"ｶﾅｻﾞﾜｼ","kana_address":"ｼﾓｵｼﾊﾗﾏﾁ","pref":"石川県","city":"金沢市","address":"下鴛原町"},
{"zip_code":"9200991","kana_pref":"ｲｼｶﾜｹﾝ","kana_city":"ｶﾅｻﾞﾜｼ","kana_address":"ｼﾓｶｷﾉｷﾊﾞﾀｹ","pref":"石川県","city":"金沢市","address":"下柿木畠"},
{"zip_code":"9200910","kana_pref":"ｲｼｶﾜｹﾝ","kana_city":"ｶﾅｻﾞﾜｼ","kana_address":"ｼﾓｼﾝﾁｮｳ","pref":"石川県","city":"金沢市","address":"下新町"},
{"zip_code":"9201127","kana_pref":"ｲｼｶﾜｹﾝ","kana_city":"ｶﾅｻﾞﾜｼ","kana_address":"ｼﾓﾀﾞﾆﾏﾁ","pref":"石川県","city":"金沢市","address":"下谷町"},
{"zip_code":"9200917","kana_pref":"ｲｼｶﾜｹﾝ","kana_city":"ｶﾅｻﾞﾜｼ","kana_address":"ｼﾓﾂﾂﾐﾁｮｳ","pref":"石川県","city":"金沢市","address":"下堤町"},
{"zip_code":"9200993","kana_pref":"ｲｼｶﾜｹﾝ","kana_city":"ｶﾅｻﾞﾜｼ","kana_address":"ｼﾓﾎﾝﾀﾞﾏﾁ","pref":"石川県","city":"金沢市","address":"下本多町"},
{"zip_code":"9200916","kana_pref":"ｲｼｶﾜｹﾝ","kana_city":"ｶﾅｻﾞﾜｼ","kana_address":"ｼﾓﾏﾂﾊﾞﾗﾁｮｳ","pref":"石川県","city":"金沢市","address":"下松原町"},
{"zip_code":"9200371","kana_pref":"ｲｼｶﾜｹﾝ","kana_city":"ｶﾅｻﾞﾜｼ","kana_address":"ｼﾓﾔｽﾊﾗﾏﾁ","pref":"石川県","city":"金沢市","address":"下安原町"},
{"zip_code":"9200176","kana_pref":"ｲｼｶﾜｹﾝ","kana_city":"ｶﾅｻﾞﾜｼ","kana_address":"ｼﾓﾜｸﾅﾐﾏﾁ","pref":"石川県","city":"金沢市","address":"下涌波町"},
{"zip_code":"9200976","kana_pref":"ｲｼｶﾜｹﾝ","kana_city":"ｶﾅｻﾞﾜｼ","kana_address":"ｼﾞｭｳｻﾝｹﾞﾝﾏﾁ","pref":"石川県","city":"金沢市","address":"十三間町"},
{"zip_code":"9200977","kana_pref":"ｲｼｶﾜｹﾝ","kana_city":"ｶﾅｻﾞﾜｼ","kana_address":"ｼﾞｭｳｻﾝｹﾞﾝﾏﾁﾅｶﾁｮｳ","pref":"石川県","city":"金沢市","address":"十三間町中丁"},
{"zip_code":"9200846","kana_pref":"ｲｼｶﾜｹﾝ","kana_city":"ｶﾅｻﾞﾜｼ","kana_address":"ｼｮｳｴｲﾏﾁ","pref":"石川県","city":"金沢市","address":"昌永町"},
{"zip_code":"9200966","kana_pref":"ｲｼｶﾜｹﾝ","kana_city":"ｶﾅｻﾞﾜｼ","kana_address":"ｼﾞｮｳﾅﾝ","pref":"石川県","city":"金沢市","address":"城南"},
{"zip_code":"9200154","kana_pref":"ｲｼｶﾜｹﾝ","kana_city":"ｶﾅｻﾞﾜｼ","kana_address":"ｼｮｳﾌﾞﾏﾁ","pref":"石川県","city":"金沢市","address":"正部町"},
{"zip_code":"9201325","kana_pref":"ｲｼｶﾜｹﾝ","kana_city":"ｶﾅｻﾞﾜｼ","kana_address":"ｼﾞｮｳﾘｷﾏﾁ","pref":"石川県","city":"金沢市","address":"城力町"},
{"zip_code":"9200856","kana_pref":"ｲｼｶﾜｹﾝ","kana_city":"ｶﾅｻﾞﾜｼ","kana_address":"ｼｮｳﾜﾏﾁ","pref":"石川県","city":"金沢市","address":"昭和町"},
{"zip_code":"9201126","kana_pref":"ｲｼｶﾜｹﾝ","kana_city":"ｶﾅｻﾞﾜｼ","kana_address":"ｼﾛﾐﾏﾁ","pref":"石川県","city":"金沢市","address":"白見町"},
{"zip_code":"9200806","kana_pref":"ｲｼｶﾜｹﾝ","kana_city":"ｶﾅｻﾞﾜｼ","kana_address":"ｼﾞﾝｸﾞｳｼﾞ","pref":"石川県","city":"金沢市","address":"神宮寺"},
{"zip_code":"9200803","kana_pref":"ｲｼｶﾜｹﾝ","kana_city":"ｶﾅｻﾞﾜｼ","kana_address":"ｼﾞﾝｸﾞｳｼﾞﾏﾁ","pref":"石川県","city":"金沢市","address":"神宮寺町"},
{"zip_code":"9200995","kana_pref":"ｲｼｶﾜｹﾝ","kana_city":"ｶﾅｻﾞﾜｼ","kana_address":"ｼﾝﾀﾃﾏﾁ","pref":"石川県","city":"金沢市","address":"新竪町"},
{"zip_code":"9201345","kana_pref":"ｲｼｶﾜｹﾝ","kana_city":"ｶﾅｻﾞﾜｼ","kana_address":"ｼﾝﾎﾞﾏﾁ","pref":"石川県","city":"金沢市","address":"新保町"},
{"zip_code":"9200833","kana_pref":"ｲｼｶﾜｹﾝ","kana_city":"ｶﾅｻﾞﾜｼ","kana_address":"ｽｴﾋﾛﾏﾁ","pref":"石川県","city":"金沢市","address":"末広町"},
{"zip_code":"9201302","kana_pref":"ｲｼｶﾜｹﾝ","kana_city":"ｶﾅｻﾞﾜｼ","kana_address":"ｽｴﾏﾁ","pref":"石川県","city":"金沢市","address":"末町"},
{"zip_code":"9201311","kana_pref":"ｲｼｶﾜｹﾝ","kana_city":"ｶﾅｻﾞﾜｼ","kana_address":"ｽｶﾞｲｹﾏﾁ","pref":"石川県","city":"金沢市","address":"菅池町"},
{"zip_code":"9200972","kana_pref":"ｲｼｶﾜｹﾝ","kana_city":"ｶﾅｻﾞﾜｼ","kana_address":"ｽｷﾞｳﾗﾏﾁ","pref":"石川県","city":"金沢市","address":"杉浦町"},
{"zip_code":"9200207","kana_pref":"ｲｼｶﾜｹﾝ","kana_city":"ｶﾅｻﾞﾜｼ","kana_address":"ｽｻﾞｷﾏﾁ","pref":"石川県","city":"金沢市","address":"須崎町"},
{"zip_code":"9200857","kana_pref":"ｲｼｶﾜｹﾝ","kana_city":"ｶﾅｻﾞﾜｼ","kana_address":"ｽｼﾞｶｲﾏﾁ","pref":"石川県","city":"金沢市","address":"折違町"},
{"zip_code":"9201161","kana_pref":"ｲｼｶﾜｹﾝ","kana_city":"ｶﾅｻﾞﾜｼ","kana_address":"ｽｽﾞﾐﾀﾞｲ","pref":"石川県","city":"金沢市","address":"鈴見台"},
{"zip_code":"9201162","kana_pref":"ｲｼｶﾜｹﾝ","kana_city":"ｶﾅｻﾞﾜｼ","kana_address":"ｽｽﾞﾐﾏﾁ","pref":"石川県","city":"金沢市","address":"鈴見町"},
{"zip_code":"9201101","kana_pref":"ｲｼｶﾜｹﾝ","kana_city":"ｶﾅｻﾞﾜｼ","kana_address":"ｽﾅｺﾞｻﾞｶﾏﾁ","pref":"石川県","city":"金沢市","address":"砂子坂町"},
{"zip_code":"9201344","kana_pref":"ｲｼｶﾜｹﾝ","kana_city":"ｶﾅｻﾞﾜｼ","kana_address":"ｽﾐﾖｼﾏﾁ","pref":"石川県","city":"金沢市","address":"住吉町"},
{"zip_code":"9208202","kana_pref":"ｲｼｶﾜｹﾝ","kana_city":"ｶﾅｻﾞﾜｼ","kana_address":"ｾｲﾄ","pref":"石川県","city":"金沢市","address":"西都"},
{"zip_code":"9200002","kana_pref":"ｲｼｶﾜｹﾝ","kana_city":"ｶﾅｻﾞﾜｼ","kana_address":"ｾｷﾞ","pref":"石川県","city":"金沢市","address":"千木"},
{"zip_code":"9200001","kana_pref":"ｲｼｶﾜｹﾝ","kana_city":"ｶﾅｻﾞﾜｼ","kana_address":"ｾｷﾞﾏﾁ","pref":"石川県","city":"金沢市","address":"千木町"},
{"zip_code":"9201312","kana_pref":"ｲｼｶﾜｹﾝ","kana_city":"ｶﾅｻﾞﾜｼ","kana_address":"ｾﾘｮｳﾏﾁ","pref":"石川県","city":"金沢市","address":"瀬領町"},
{"zip_code":"9200356","kana_pref":"ｲｼｶﾜｹﾝ","kana_city":"ｶﾅｻﾞﾜｼ","kana_address":"ｾﾝｺｳｼﾞﾏﾁ","pref":"石川県","city":"金沢市","address":"専光寺町"},
{"zip_code":"9200204","kana_pref":"ｲｼｶﾜｹﾝ","kana_city":"ｶﾅｻﾞﾜｼ","kana_address":"ｾﾝﾀﾞﾏﾁ","pref":"石川県","city":"金沢市","address":"千田町"},
{"zip_code":"9200115","kana_pref":"ｲｼｶﾜｹﾝ","kana_city":"ｶﾅｻﾞﾜｼ","kana_address":"ｾﾝﾉｽｷﾞﾏﾁ","pref":"石川県","city":"金沢市","address":"千杉町"},
{"zip_code":"9200982","kana_pref":"ｲｼｶﾜｹﾝ","kana_city":"ｶﾅｻﾞﾜｼ","kana_address":"ﾀﾞｲｸﾏﾁ","pref":"石川県","city":"金沢市","address":"大工町"},
{"zip_code":"9200924","kana_pref":"ｲｼｶﾜｹﾝ","kana_city":"ｶﾅｻﾞﾜｼ","kana_address":"ﾀｲﾏﾁ","pref":"石川県","city":"金沢市","address":"田井町"},
{"zip_code":"9201154","kana_pref":"ｲｼｶﾜｹﾝ","kana_city":"ｶﾅｻﾞﾜｼ","kana_address":"ﾀｲﾖｳｶﾞｵｶ","pref":"石川県","city":"金沢市","address":"太陽が丘"},
{"zip_code":"9201141","kana_pref":"ｲｼｶﾜｹﾝ","kana_city":"ｶﾅｻﾞﾜｼ","kana_address":"ﾀﾞｲﾗﾎﾝﾏﾁ","pref":"石川県","city":"金沢市","address":"平等本町"},
{"zip_code":"9201334","kana_pref":"ｲｼｶﾜｹﾝ","kana_city":"ｶﾅｻﾞﾜｼ","kana_address":"ﾀｲﾗﾏﾁ","pref":"石川県","city":"金沢市","address":"平町"},
{"zip_code":"9200046","kana_pref":"ｲｼｶﾜｹﾝ","kana_city":"ｶﾅｻﾞﾜｼ","kana_address":"ﾀﾞｲﾜﾏﾁ","pref":"石川県","city":"金沢市","address":"大和町"},
{"zip_code":"9201143","kana_pref":"ｲｼｶﾜｹﾝ","kana_city":"ｶﾅｻﾞﾜｼ","kana_address":"ﾀｶｲｹﾏﾁ","pref":"石川県","city":"金沢市","address":"高池町"},
{"zip_code":"9200864","kana_pref":"ｲｼｶﾜｹﾝ","kana_city":"ｶﾅｻﾞﾜｼ","kana_address":"ﾀｶｵｶﾏﾁ","pref":"石川県","city":"金沢市","address":"高岡町"},
{"zip_code":"9200155","kana_pref":"ｲｼｶﾜｹﾝ","kana_city":"ｶﾅｻﾞﾜｼ","kana_address":"ﾀｶｻｶﾏﾁ","pref":"石川県","city":"金沢市","address":"高坂町"},
{"zip_code":"9200005","kana_pref":"ｲｼｶﾜｹﾝ","kana_city":"ｶﾅｻﾞﾜｼ","kana_address":"ﾀｶﾔﾅｷﾞﾏﾁ","pref":"石川県","city":"金沢市","address":"高柳町"},
{"zip_code":"9200934","kana_pref":"ｲｼｶﾜｹﾝ","kana_city":"ｶﾅｻﾞﾜｼ","kana_address":"ﾀｶﾗﾏﾁ","pref":"石川県","city":"金沢市","address":"宝町"},
{"zip_code":"9201152","kana_pref":"ｲｼｶﾜｹﾝ","kana_city":"ｶﾅｻﾞﾜｼ","kana_address":"ﾀｶﾞﾐ","pref":"石川県","city":"金沢市","address":"田上"},
{"zip_code":"9201153","kana_pref":"ｲｼｶﾜｹﾝ","kana_city":"ｶﾅｻﾞﾜｼ","kana_address":"ﾀｶﾞﾐｼﾝﾏﾁ","pref":"石川県","city":"金沢市","address":"田上新町"},
{"zip_code":"9201155","kana_pref":"ｲｼｶﾜｹﾝ","kana_city":"ｶﾅｻﾞﾜｼ","kana_address":"ﾀｶﾞﾐﾎﾝﾏﾁ","pref":"石川県","city":"金沢市","address":"田上本町"},
{"zip_code":"9201151","kana_pref":"ｲｼｶﾜｹﾝ","kana_city":"ｶﾅｻﾞﾜｼ","kana_address":"ﾀｶﾞﾐﾏﾁ","pref":"石川県","city":"金沢市","address":"田上町"},
{"zip_code":"9200123","kana_pref":"ｲｼｶﾜｹﾝ","kana_city":"ｶﾅｻﾞﾜｼ","kana_address":"ﾀｷｼﾀﾏﾁ","pref":"石川県","city":"金沢市","address":"滝下町"},
{"zip_code":"9200137","kana_pref":"ｲｼｶﾜｹﾝ","kana_city":"ｶﾅｻﾞﾜｼ","kana_address":"ﾀｹﾏﾀﾏﾁ","pref":"石川県","city":"金沢市","address":"竹又町"},
{"zip_code":"9203102","kana_pref":"ｲｼｶﾜｹﾝ","kana_city":"ｶﾅｻﾞﾜｼ","kana_address":"ﾀﾀﾞﾅﾜﾏﾁ","pref":"石川県","city":"金沢市","address":"忠縄町"},
{"zip_code":"9200957","kana_pref":"ｲｼｶﾜｹﾝ","kana_city":"ｶﾅｻﾞﾜｼ","kana_address":"ﾀﾁﾏﾁ","pref":"石川県","city":"金沢市","address":"舘町"},
{"zip_code":"9200956","kana_pref":"ｲｼｶﾜｹﾝ","kana_city":"ｶﾅｻﾞﾜｼ","kana_address":"ﾀﾁﾔﾏﾏﾁ","pref":"石川県","city":"金沢市","address":"舘山町"},
{"zip_code":"9201303","kana_pref":"ｲｼｶﾜｹﾝ","kana_city":"ｶﾅｻﾞﾜｼ","kana_address":"ﾀﾂﾐﾏﾁ","pref":"石川県","city":"金沢市","address":"辰巳町"},
{"zip_code":"9200997","kana_pref":"ｲｼｶﾜｹﾝ","kana_city":"ｶﾅｻﾞﾜｼ","kana_address":"ﾀﾃﾏﾁ","pref":"石川県","city":"金沢市","address":"竪町"},
{"zip_code":"9200007","kana_pref":"ｲｼｶﾜｹﾝ","kana_city":"ｶﾅｻﾞﾜｼ","kana_address":"ﾀﾅｶﾏﾁ","pref":"石川県","city":"金沢市","address":"田中町"},
{"zip_code":"9201103","kana_pref":"ｲｼｶﾜｹﾝ","kana_city":"ｶﾅｻﾞﾜｼ","kana_address":"ﾀﾉｼﾏﾏﾁ","pref":"石川県","city":"金沢市","address":"田島町"},
{"zip_code":"9200863","kana_pref":"ｲｼｶﾜｹﾝ","kana_city":"ｶﾅｻﾞﾜｼ","kana_address":"ﾀﾏｶﾞﾜﾁｮｳ","pref":"石川県","city":"金沢市","address":"玉川町"},
{"zip_code":"9200113","kana_pref":"ｲｼｶﾜｹﾝ","kana_city":"ｶﾅｻﾞﾜｼ","kana_address":"ﾀﾗﾜﾗﾏﾁ","pref":"石川県","city":"金沢市","address":"俵原町"},
{"zip_code":"9201108","kana_pref":"ｲｼｶﾜｹﾝ","kana_city":"ｶﾅｻﾞﾜｼ","kana_address":"ﾀﾜﾗﾏﾁ","pref":"石川県","city":"金沢市","address":"俵町"},
{"zip_code":"9208217","kana_pref":"ｲｼｶﾜｹﾝ","kana_city":"ｶﾅｻﾞﾜｼ","kana_address":"ﾁｶｵｶﾏﾁ","pref":"石川県","city":"金沢市","address":"近岡町"},
{"zip_code":"9201138","kana_pref":"ｲｼｶﾜｹﾝ","kana_city":"ｶﾅｻﾞﾜｼ","kana_address":"ﾁﾊﾗﾏﾁ","pref":"石川県","city":"金沢市","address":"茅原町"},
{"zip_code":"9200866","kana_pref":"ｲｼｶﾜｹﾝ","kana_city":"ｶﾅｻﾞﾜｼ","kana_address":"ﾁｭｳｵｳﾄﾞｵﾘﾏﾁ","pref":"石川県","city":"金沢市","address":"中央通町"},
{"zip_code":"9201147","kana_pref":"ｲｼｶﾜｹﾝ","kana_city":"ｶﾅｻﾞﾜｼ","kana_address":"ﾁｮｳｼﾏﾁ","pref":"石川県","city":"金沢市","address":"銚子町"},
{"zip_code":"9203113","kana_pref":"ｲｼｶﾜｹﾝ","kana_city":"ｶﾅｻﾞﾜｼ","kana_address":"ﾂｶｻﾞｷﾏﾁ","pref":"石川県","city":"金沢市","address":"塚崎町"},
{"zip_code":"9200178","kana_pref":"ｲｼｶﾜｹﾝ","kana_city":"ｶﾅｻﾞﾜｼ","kana_address":"ﾂｷｳﾗﾏﾁ","pref":"石川県","city":"金沢市","address":"月浦町"},
{"zip_code":"9200105","kana_pref":"ｲｼｶﾜｹﾝ","kana_city":"ｶﾅｻﾞﾜｼ","kana_address":"ﾂｷｶｹﾞﾏﾁ","pref":"石川県","city":"金沢市","address":"月影町"},
{"zip_code":"9200135","kana_pref":"ｲｼｶﾜｹﾝ","kana_city":"ｶﾅｻﾞﾜｼ","kana_address":"ﾂﾁｺﾊﾗﾏﾁ","pref":"石川県","city":"金沢市","address":"土子原町"},
{"zip_code":"9200955","kana_pref":"ｲｼｶﾜｹﾝ","kana_city":"ｶﾅｻﾞﾜｼ","kana_address":"ﾂﾁｼﾐｽﾞ","pref":"石川県","city":"金沢市","address":"土清水"},
{"zip_code":"9200161","kana_pref":"ｲｼｶﾜｹﾝ","kana_city":"ｶﾅｻﾞﾜｼ","kana_address":"ﾂﾂﾞﾐﾄﾞｳﾏﾁ","pref":"石川県","city":"金沢市","address":"鞁筒町"},
{"zip_code":"9200825","kana_pref":"ｲｼｶﾜｹﾝ","kana_city":"ｶﾅｻﾞﾜｼ","kana_address":"ﾂﾙﾍﾞﾏﾁ","pref":"石川県","city":"金沢市","address":"釣部町"},
{"zip_code":"9201315","kana_pref":"ｲｼｶﾜｹﾝ","kana_city":"ｶﾅｻﾞﾜｼ","kana_address":"ﾃﾗﾂﾞﾏﾁ","pref":"石川県","city":"金沢市","address":"寺津町"},
{"zip_code":"9200925","kana_pref":"ｲｼｶﾜｹﾝ","kana_city":"ｶﾅｻﾞﾜｼ","kana_address":"ﾃﾝｼﾞﾝﾏﾁ","pref":"石川県","city":"金沢市","address":"天神町"},
{"zip_code":"9200963","kana_pref":"ｲｼｶﾜｹﾝ","kana_city":"ｶﾅｻﾞﾜｼ","kana_address":"ﾃﾞﾜﾏﾁ","pref":"石川県","city":"金沢市","address":"出羽町"},
{"zip_code":"9200824","kana_pref":"ｲｼｶﾜｹﾝ","kana_city":"ｶﾅｻﾞﾜｼ","kana_address":"ﾃﾞﾝﾄﾞｳｼﾞﾏﾁ","pref":"石川県","city":"金沢市","address":"伝燈寺町"},
{"zip_code":"9200061","kana_pref":"ｲｼｶﾜｹﾝ","kana_city":"ｶﾅｻﾞﾜｼ","kana_address":"ﾄｲﾔﾏﾁ","pref":"石川県","city":"金沢市","address":"問屋町"},
{"zip_code":"9201133","kana_pref":"ｲｼｶﾜｹﾝ","kana_city":"ｶﾅｻﾞﾜｼ","kana_address":"ﾄｳﾛｸﾏﾁ","pref":"石川県","city":"金沢市","address":"藤六町"},
{"zip_code":"9200834","kana_pref":"ｲｼｶﾜｹﾝ","kana_city":"ｶﾅｻﾞﾜｼ","kana_address":"ﾄｷﾜﾏﾁ","pref":"石川県","city":"金沢市","address":"常盤町"},
{"zip_code":"9200101","kana_pref":"ｲｼｶﾜｹﾝ","kana_city":"ｶﾅｻﾞﾜｼ","kana_address":"ﾄｷﾞﾔﾏﾁ","pref":"石川県","city":"金沢市","address":"利屋町"},
{"zip_code":"9200938","kana_pref":"ｲｼｶﾜｹﾝ","kana_city":"ｶﾅｻﾞﾜｼ","kana_address":"ﾄﾋﾞｳﾒﾁｮｳ","pref":"石川県","city":"金沢市","address":"飛梅町"},
{"zip_code":"9208204","kana_pref":"ｲｼｶﾜｹﾝ","kana_city":"ｶﾅｻﾞﾜｼ","kana_address":"ﾄﾐｽﾞ","pref":"石川県","city":"金沢市","address":"戸水"},
{"zip_code":"9200223","kana_pref":"ｲｼｶﾜｹﾝ","kana_city":"ｶﾅｻﾞﾜｼ","kana_address":"ﾄﾐｽﾞﾏﾁ","pref":"石川県","city":"金沢市","address":"戸水町"},
{"zip_code":"9201105","kana_pref":"ｲｼｶﾜｹﾝ","kana_city":"ｶﾅｻﾞﾜｼ","kana_address":"ﾄﾑﾛｼﾝﾎﾞ","pref":"石川県","city":"金沢市","address":"戸室新保"},
{"zip_code":"9201106","kana_pref":"ｲｼｶﾜｹﾝ","kana_city":"ｶﾅｻﾞﾜｼ","kana_address":"ﾄﾑﾛﾍﾞｯｼｮ","pref":"石川県","city":"金沢市","address":"戸室別所"},
{"zip_code":"9200372","kana_pref":"ｲｼｶﾜｹﾝ","kana_city":"ｶﾅｻﾞﾜｼ","kana_address":"ﾄﾖﾎﾏﾁ","pref":"石川県","city":"金沢市","address":"豊穂町"},
{"zip_code":"9208218","kana_pref":"ｲｼｶﾜｹﾝ","kana_city":"ｶﾅｻﾞﾜｼ","kana_address":"ﾅｵｴｷﾀ","pref":"石川県","city":"金沢市","address":"直江北"},
{"zip_code":"9200141","kana_pref":"ｲｼｶﾜｹﾝ","kana_city":"ｶﾅｻﾞﾜｼ","kana_address":"ﾅｵｴﾉﾏﾁ","pref":"石川県","city":"金沢市","address":"直江野町"},
{"zip_code":"9208216","kana_pref":"ｲｼｶﾜｹﾝ","kana_city":"ｶﾅｻﾞﾜｼ","kana_address":"ﾅｵｴﾏﾁ","pref":"石川県","city":"金沢市","address":"直江町"},
{"zip_code":"9200124","kana_pref":"ｲｼｶﾜｹﾝ","kana_city":"ｶﾅｻﾞﾜｼ","kana_address":"ﾅｶｵﾏﾁ","pref":"石川県","city":"金沢市","address":"中尾町"},
{"zip_code":"9200975","kana_pref":"ｲｼｶﾜｹﾝ","kana_city":"ｶﾅｻﾞﾜｼ","kana_address":"ﾅｶｶﾜﾖｹﾏﾁ","pref":"石川県","city":"金沢市","address":"中川除町"},
{"zip_code":"9201336","kana_pref":"ｲｼｶﾜｹﾝ","kana_city":"ｶﾅｻﾞﾜｼ","kana_address":"ﾅｶﾄﾏﾁ","pref":"石川県","city":"金沢市","address":"中戸町"},
{"zip_code":"9200035","kana_pref":"ｲｼｶﾜｹﾝ","kana_city":"ｶﾅｻﾞﾜｼ","kana_address":"ﾅｶﾊﾞｼﾏﾁ","pref":"石川県","city":"金沢市","address":"中橋町"},
{"zip_code":"9200381","kana_pref":"ｲｼｶﾜｹﾝ","kana_city":"ｶﾅｻﾞﾜｼ","kana_address":"ﾅｶﾔ","pref":"石川県","city":"金沢市","address":"中屋"},
{"zip_code":"9200375","kana_pref":"ｲｼｶﾜｹﾝ","kana_city":"ｶﾅｻﾞﾜｼ","kana_address":"ﾅｶﾔﾏﾁ","pref":"石川県","city":"金沢市","address":"中屋町"},
{"zip_code":"9201109","kana_pref":"ｲｼｶﾜｹﾝ","kana_city":"ｶﾅｻﾞﾜｼ","kana_address":"ﾅｶﾔﾏﾏﾁ","pref":"石川県","city":"金沢市","address":"中山町"},
{"zip_code":"9200379","kana_pref":"ｲｼｶﾜｹﾝ","kana_city":"ｶﾅｻﾞﾜｼ","kana_address":"ﾅｶﾔﾐﾅﾐ","pref":"石川県","city":"金沢市","address":"中屋南"},
{"zip_code":"9200043","kana_pref":"ｲｼｶﾜｹﾝ","kana_city":"ｶﾅｻﾞﾜｼ","kana_address":"ﾅｶﾞﾀ","pref":"石川県","city":"金沢市","address":"長田"},
{"zip_code":"9200041","kana_pref":"ｲｼｶﾜｹﾝ","kana_city":"ｶﾅｻﾞﾜｼ","kana_address":"ﾅｶﾞﾀﾎﾝﾏﾁ","pref":"石川県","city":"金沢市","address":"長田本町"},
{"zip_code":"9200042","kana_pref":"ｲｼｶﾜｹﾝ","kana_city":"ｶﾅｻﾞﾜｼ","kana_address":"ﾅｶﾞﾀﾏﾁ","pref":"石川県","city":"金沢市","address":"長田町"},
{"zip_code":"9200867","kana_pref":"ｲｼｶﾜｹﾝ","kana_city":"ｶﾅｻﾞﾜｼ","kana_address":"ﾅｶﾞﾄﾞﾍ","pref":"石川県","city":"金沢市","address":"長土塀"},
{"zip_code":"9200865","kana_pref":"ｲｼｶﾜｹﾝ","kana_city":"ｶﾅｻﾞﾜｼ","kana_address":"ﾅｶﾞﾏﾁ","pref":"石川県","city":"金沢市","address":"長町"},
{"zip_code":"9200151","kana_pref":"ｲｼｶﾜｹﾝ","kana_city":"ｶﾅｻﾞﾜｼ","kana_address":"ﾅｼﾉｷﾏﾁ","pref":"石川県","city":"金沢市","address":"梨木町"},
{"zip_code":"9200021","kana_pref":"ｲｼｶﾜｹﾝ","kana_city":"ｶﾅｻﾞﾜｼ","kana_address":"ﾅﾅﾂﾔﾏﾁ","pref":"石川県","city":"金沢市","address":"七ツ屋町"},
{"zip_code":"9201137","kana_pref":"ｲｼｶﾜｹﾝ","kana_city":"ｶﾅｻﾞﾜｼ","kana_address":"ﾅﾅﾏｶﾞﾘﾏﾁ","pref":"石川県","city":"金沢市","address":"七曲町"},
{"zip_code":"9200928","kana_pref":"ｲｼｶﾜｹﾝ","kana_city":"ｶﾅｻﾞﾜｼ","kana_address":"ﾅﾐｷﾏﾁ","pref":"石川県","city":"金沢市","address":"並木町"},
{"zip_code":"9200152","kana_pref":"ｲｼｶﾜｹﾝ","kana_city":"ｶﾅｻﾞﾜｼ","kana_address":"ﾅﾗｾﾓﾄﾏﾁ","pref":"石川県","city":"金沢市","address":"鳴瀬元町"},
{"zip_code":"9200804","kana_pref":"ｲｼｶﾜｹﾝ","kana_city":"ｶﾅｻﾞﾜｼ","kana_address":"ﾅﾙﾜ","pref":"石川県","city":"金沢市","address":"鳴和"},
{"zip_code":"9200815","kana_pref":"ｲｼｶﾜｹﾝ","kana_city":"ｶﾅｻﾞﾜｼ","kana_address":"ﾅﾙﾜﾀﾞｲ","pref":"石川県","city":"金沢市","address":"鳴和台"},
{"zip_code":"9200814","kana_pref":"ｲｼｶﾜｹﾝ","kana_city":"ｶﾅｻﾞﾜｼ","kana_address":"ﾅﾙﾜﾏﾁ","pref":"石川県","city":"金沢市","address":"鳴和町"},
{"zip_code":"9201136","kana_pref":"ｲｼｶﾜｹﾝ","kana_city":"ｶﾅｻﾞﾜｼ","kana_address":"ﾆｼｲﾁﾉｾﾏﾁ","pref":"石川県","city":"金沢市","address":"西市瀬町"},
{"zip_code":"9200952","kana_pref":"ｲｼｶﾜｹﾝ","kana_city":"ｶﾅｻﾞﾜｼ","kana_address":"ﾆｼｷﾏﾁ","pref":"石川県","city":"金沢市","address":"錦町"},
{"zip_code":"9200913","kana_pref":"ｲｼｶﾜｹﾝ","kana_city":"ｶﾅｻﾞﾜｼ","kana_address":"ﾆｼﾁｮｳ3ﾊﾞﾝﾁｮｳ","pref":"石川県","city":"金沢市","address":"西町三番丁"},
{"zip_code":"9200914","kana_pref":"ｲｼｶﾜｹﾝ","kana_city":"ｶﾅｻﾞﾜｼ","kana_address":"ﾆｼﾁｮｳ4ﾊﾞﾝﾁｮｳ","pref":"石川県","city":"金沢市","address":"西町四番丁"},
{"zip_code":"9200915","kana_pref":"ｲｼｶﾜｹﾝ","kana_city":"ｶﾅｻﾞﾜｼ","kana_address":"ﾆｼﾁｮｳﾔﾌﾞﾉｳﾁﾄﾞｵﾘ","pref":"石川県","city":"金沢市","address":"西町藪ノ内通"},
{"zip_code":"9200067","kana_pref":"ｲｼｶﾜｹﾝ","kana_city":"ｶﾅｻﾞﾜｼ","kana_address":"ﾆﾉﾐﾔﾏﾁ","pref":"石川県","city":"金沢市","address":"二宮町"},
{"zip_code":"9200142","kana_pref":"ｲｼｶﾜｹﾝ","kana_city":"ｶﾅｻﾞﾜｼ","kana_address":"ﾉｳﾈﾝﾏﾁ","pref":"石川県","city":"金沢市","address":"納年町"},
{"zip_code":"9200903","kana_pref":"ｲｼｶﾜｹﾝ","kana_city":"ｶﾅｻﾞﾜｼ","kana_address":"ﾊﾞｸﾛﾏﾁ","pref":"石川県","city":"金沢市","address":"博労町"},
{"zip_code":"9200911","kana_pref":"ｲｼｶﾜｹﾝ","kana_city":"ｶﾅｻﾞﾜｼ","kana_address":"ﾊｼﾊﾞﾁｮｳ","pref":"石川県","city":"金沢市","address":"橋場町"},
{"zip_code":"9203106","kana_pref":"ｲｼｶﾜｹﾝ","kana_city":"ｶﾅｻﾞﾜｼ","kana_address":"ﾊｯﾀﾏﾁ","pref":"石川県","city":"金沢市","address":"八田町"},
{"zip_code":"9203104","kana_pref":"ｲｼｶﾜｹﾝ","kana_city":"ｶﾅｻﾞﾜｼ","kana_address":"ﾊｯﾀﾏﾁﾋｶﾞｼ","pref":"石川県","city":"金沢市","address":"八田町東"},
{"zip_code":"9203105","kana_pref":"ｲｼｶﾜｹﾝ","kana_city":"ｶﾅｻﾞﾜｼ","kana_address":"ﾊｯﾀﾏﾁﾆｼ","pref":"石川県","city":"金沢市","address":"八田町西"},
{"zip_code":"9200951","kana_pref":"ｲｼｶﾜｹﾝ","kana_city":"ｶﾅｻﾞﾜｼ","kana_address":"ﾊﾅｻﾞﾄﾏﾁ","pref":"石川県","city":"金沢市","address":"花里町"},
{"zip_code":"9200103","kana_pref":"ｲｼｶﾜｹﾝ","kana_city":"ｶﾅｻﾞﾜｼ","kana_address":"ﾊﾅｿﾞﾉﾔﾜﾀﾏﾁ","pref":"石川県","city":"金沢市","address":"花園八幡町"},
{"zip_code":"9201128","kana_pref":"ｲｼｶﾜｹﾝ","kana_city":"ｶﾅｻﾞﾜｼ","kana_address":"ﾊﾊﾞﾏﾁ","pref":"石川県","city":"金沢市","address":"羽場町"},
{"zip_code":"9201131","kana_pref":"ｲｼｶﾜｹﾝ","kana_city":"ｶﾅｻﾞﾜｼ","kana_address":"ﾋｶﾞｼｱﾗﾔﾏﾁ","pref":"石川県","city":"金沢市","address":"東荒屋町"},
{"zip_code":"9201134","kana_pref":"ｲｼｶﾜｹﾝ","kana_city":"ｶﾅｻﾞﾜｼ","kana_address":"ﾋｶﾞｼｲﾁﾉｾﾏﾁ","pref":"石川県","city":"金沢市","address":"東市瀬町"},
{"zip_code":"9200209","kana_pref":"ｲｼｶﾜｹﾝ","kana_city":"ｶﾅｻﾞﾜｼ","kana_address":"ﾋｶﾞｼｶｶﾞﾂﾒﾏﾁ","pref":"石川県","city":"金沢市","address":"東蚊爪町"},
{"zip_code":"9200933","kana_pref":"ｲｼｶﾜｹﾝ","kana_city":"ｶﾅｻﾞﾜｼ","kana_address":"ﾋｶﾞｼｹﾝﾛｸﾏﾁ","pref":"石川県","city":"金沢市","address":"東兼六町"},
{"zip_code":"9200822","kana_pref":"ｲｼｶﾜｹﾝ","kana_city":"ｶﾅｻﾞﾜｼ","kana_address":"ﾋｶﾞｼﾅｶﾞｴﾏﾁ","pref":"石川県","city":"金沢市","address":"東長江町"},
{"zip_code":"9200131","kana_pref":"ｲｼｶﾜｹﾝ","kana_city":"ｶﾅｻﾞﾜｼ","kana_address":"ﾋｶﾞｼﾊﾗﾏﾁ","pref":"石川県","city":"金沢市","address":"東原町"},
{"zip_code":"9201121","kana_pref":"ｲｼｶﾜｹﾝ","kana_city":"ｶﾅｻﾞﾜｼ","kana_address":"ﾋｶﾞｼﾏﾁ","pref":"石川県","city":"金沢市","address":"東町"},
{"zip_code":"9200835","kana_pref":"ｲｼｶﾜｹﾝ","kana_city":"ｶﾅｻﾞﾜｼ","kana_address":"ﾋｶﾞｼﾐｶｹﾞﾏﾁ","pref":"石川県","city":"金沢市","address":"東御影町"},
{"zip_code":"9200831","kana_pref":"ｲｼｶﾜｹﾝ","kana_city":"ｶﾅｻﾞﾜｼ","kana_address":"ﾋｶﾞｼﾔﾏ","pref":"石川県","city":"金沢市","address":"東山"},
{"zip_code":"9200003","kana_pref":"ｲｼｶﾜｹﾝ","kana_city":"ｶﾅｻﾞﾜｼ","kana_address":"ﾋｷﾀﾞ","pref":"石川県","city":"金沢市","address":"疋田"},
{"zip_code":"9200004","kana_pref":"ｲｼｶﾜｹﾝ","kana_city":"ｶﾅｻﾞﾜｼ","kana_address":"ﾋｷﾀﾞﾏﾁ","pref":"石川県","city":"金沢市","address":"疋田町"},
{"zip_code":"9200901","kana_pref":"ｲｼｶﾜｹﾝ","kana_city":"ｶﾅｻﾞﾜｼ","kana_address":"ﾋｺｿﾏﾁ","pref":"石川県","city":"金沢市","address":"彦三町"},
{"zip_code":"9201111","kana_pref":"ｲｼｶﾜｹﾝ","kana_city":"ｶﾅｻﾞﾜｼ","kana_address":"ﾋｼｲｹｵﾊﾗﾏﾁ","pref":"石川県","city":"金沢市","address":"菱池小原町"},
{"zip_code":"9200845","kana_pref":"ｲｼｶﾜｹﾝ","kana_city":"ｶﾅｻﾞﾜｼ","kana_address":"ﾋｮｳﾀﾝﾏﾁ","pref":"石川県","city":"金沢市","address":"瓢箪町"},
{"zip_code":"9200033","kana_pref":"ｲｼｶﾜｹﾝ","kana_city":"ｶﾅｻﾞﾜｼ","kana_address":"ﾋﾖｼﾏﾁ","pref":"石川県","city":"金沢市","address":"日吉町"},
{"zip_code":"9200031","kana_pref":"ｲｼｶﾜｹﾝ","kana_city":"ｶﾅｻﾞﾜｼ","kana_address":"ﾋﾛｵｶ","pref":"石川県","city":"金沢市","address":"広岡"},
{"zip_code":"9200032","kana_pref":"ｲｼｶﾜｹﾝ","kana_city":"ｶﾅｻﾞﾜｼ","kana_address":"ﾋﾛｵｶﾏﾁ","pref":"石川県","city":"金沢市","address":"広岡町"},
{"zip_code":"9200962","kana_pref":"ｲｼｶﾜｹﾝ","kana_city":"ｶﾅｻﾞﾜｼ","kana_address":"ﾋﾛｻｶ","pref":"石川県","city":"金沢市","address":"広坂"},
{"zip_code":"9200165","kana_pref":"ｲｼｶﾜｹﾝ","kana_city":"ｶﾅｻﾞﾜｼ","kana_address":"ﾌｶﾀﾆﾏﾁ","pref":"石川県","city":"金沢市","address":"深谷町"},
{"zip_code":"9200167","kana_pref":"ｲｼｶﾜｹﾝ","kana_city":"ｶﾅｻﾞﾜｼ","kana_address":"ﾌｸﾊﾞﾀｹﾏﾁ","pref":"石川県","city":"金沢市","address":"福畠町"},
{"zip_code":"9203126","kana_pref":"ｲｼｶﾜｹﾝ","kana_city":"ｶﾅｻﾞﾜｼ","kana_address":"ﾌｸﾋｻ","pref":"石川県","city":"金沢市","address":"福久"},
{"zip_code":"9203122","kana_pref":"ｲｼｶﾜｹﾝ","kana_city":"ｶﾅｻﾞﾜｼ","kana_address":"ﾌｸﾋｻﾏﾁ","pref":"石川県","city":"金沢市","address":"福久町"},
{"zip_code":"9203123","kana_pref":"ｲｼｶﾜｹﾝ","kana_city":"ｶﾅｻﾞﾜｼ","kana_address":"ﾌｸﾋｻﾋｶﾞｼ","pref":"石川県","city":"金沢市","address":"福久東"},
{"zip_code":"9200376","kana_pref":"ｲｼｶﾜｹﾝ","kana_city":"ｶﾅｻﾞﾜｼ","kana_address":"ﾌｸﾏｽﾏﾁ","pref":"石川県","city":"金沢市","address":"福増町"},
{"zip_code":"9201144","kana_pref":"ｲｼｶﾜｹﾝ","kana_city":"ｶﾅｻﾞﾜｼ","kana_address":"ﾌｸﾛｲﾀﾔﾏﾁ","pref":"石川県","city":"金沢市","address":"袋板屋町"},
{"zip_code":"9200361","kana_pref":"ｲｼｶﾜｹﾝ","kana_city":"ｶﾅｻﾞﾜｼ","kana_address":"ﾌｸﾛﾊﾞﾀｹﾏﾁ","pref":"石川県","city":"金沢市","address":"袋畠町"},
{"zip_code":"9200909","kana_pref":"ｲｼｶﾜｹﾝ","kana_city":"ｶﾅｻﾞﾜｼ","kana_address":"ﾌｸﾛﾏﾁ","pref":"石川県","city":"金沢市","address":"袋町"},
{"zip_code":"9200351","kana_pref":"ｲｼｶﾜｹﾝ","kana_city":"ｶﾅｻﾞﾜｼ","kana_address":"ﾌｼｮｳｼﾞﾏﾁ","pref":"石川県","city":"金沢市","address":"普正寺町"},
{"zip_code":"9200346","kana_pref":"ｲｼｶﾜｹﾝ","kana_city":"ｶﾅｻﾞﾜｼ","kana_address":"ﾌｼﾞｴﾐﾅﾐ","pref":"石川県","city":"金沢市","address":"藤江南"},
{"zip_code":"9200345","kana_pref":"ｲｼｶﾜｹﾝ","kana_city":"ｶﾅｻﾞﾜｼ","kana_address":"ﾌｼﾞｴｷﾀ","pref":"石川県","city":"金沢市","address":"藤江北"},
{"zip_code":"9200051","kana_pref":"ｲｼｶﾜｹﾝ","kana_city":"ｶﾅｻﾞﾜｼ","kana_address":"ﾌﾀｸﾁﾏﾁ","pref":"石川県","city":"金沢市","address":"二口町"},
{"zip_code":"9200354","kana_pref":"ｲｼｶﾜｹﾝ","kana_city":"ｶﾅｻﾞﾜｼ","kana_address":"ﾌﾀﾂﾃﾞﾗﾏﾁ","pref":"石川県","city":"金沢市","address":"二ツ寺町"},
{"zip_code":"9200065","kana_pref":"ｲｼｶﾜｹﾝ","kana_city":"ｶﾅｻﾞﾜｼ","kana_address":"ﾌﾀﾂﾔﾏﾁ","pref":"石川県","city":"金沢市","address":"二ツ屋町"},
{"zip_code":"9201316","kana_pref":"ｲｼｶﾜｹﾝ","kana_city":"ｶﾅｻﾞﾜｼ","kana_address":"ﾌﾀﾏﾀｼﾝﾏﾁ","pref":"石川県","city":"金沢市","address":"二又新町"},
{"zip_code":"9201102","kana_pref":"ｲｼｶﾜｹﾝ","kana_city":"ｶﾅｻﾞﾜｼ","kana_address":"ﾌﾀﾏﾀﾏﾁ","pref":"石川県","city":"金沢市","address":"二俣町"},
{"zip_code":"9200107","kana_pref":"ｲｼｶﾜｹﾝ","kana_city":"ｶﾅｻﾞﾜｼ","kana_address":"ﾌﾂｶｲﾁﾏﾁ","pref":"石川県","city":"金沢市","address":"二日市町"},
{"zip_code":"9200173","kana_pref":"ｲｼｶﾜｹﾝ","kana_city":"ｶﾅｻﾞﾜｼ","kana_address":"ﾌﾄﾞｳｼﾞﾏﾁ","pref":"石川県","city":"金沢市","address":"不動寺町"},
{"zip_code":"9200147","kana_pref":"ｲｼｶﾜｹﾝ","kana_city":"ｶﾅｻﾞﾜｼ","kana_address":"ﾌﾑﾛﾏﾁ","pref":"石川県","city":"金沢市","address":"不室町"},
{"zip_code":"9200156","kana_pref":"ｲｼｶﾜｹﾝ","kana_city":"ｶﾅｻﾞﾜｼ","kana_address":"ﾌﾙﾔﾀﾞﾆﾏﾁ","pref":"石川県","city":"金沢市","address":"古屋谷町"},
{"zip_code":"9201341","kana_pref":"ｲｼｶﾜｹﾝ","kana_city":"ｶﾅｻﾞﾜｼ","kana_address":"ﾍﾞｯｼｮﾏﾁ","pref":"石川県","city":"金沢市","address":"別所町"},
{"zip_code":"9203132","kana_pref":"ｲｼｶﾜｹﾝ","kana_city":"ｶﾅｻﾞﾜｼ","kana_address":"ﾎｳｺｳｼﾞﾏﾁ","pref":"石川県","city":"金沢市","address":"法光寺町"},
{"zip_code":"9200862","kana_pref":"ｲｼｶﾜｹﾝ","kana_city":"ｶﾅｻﾞﾜｼ","kana_address":"ﾎｳｻｲ","pref":"石川県","city":"金沢市","address":"芳斉"},
{"zip_code":"9200177","kana_pref":"ｲｼｶﾜｹﾝ","kana_city":"ｶﾅｻﾞﾜｼ","kana_address":"ﾎｸﾖｳﾀﾞｲ","pref":"石川県","city":"金沢市","address":"北陽台"},
{"zip_code":"9200849","kana_pref":"ｲｼｶﾜｹﾝ","kana_city":"ｶﾅｻﾞﾜｼ","kana_address":"ﾎﾘｶﾜｼﾝﾏﾁ","pref":"石川県","city":"金沢市","address":"堀川新町"},
{"zip_code":"9200847","kana_pref":"ｲｼｶﾜｹﾝ","kana_city":"ｶﾅｻﾞﾜｼ","kana_address":"ﾎﾘｶﾜﾏﾁ","pref":"石川県","city":"金沢市","address":"堀川町"},
{"zip_code":"9200133","kana_pref":"ｲｼｶﾜｹﾝ","kana_city":"ｶﾅｻﾞﾜｼ","kana_address":"ﾎﾘｷﾘﾏﾁ","pref":"石川県","city":"金沢市","address":"堀切町"},
{"zip_code":"9200964","kana_pref":"ｲｼｶﾜｹﾝ","kana_city":"ｶﾅｻﾞﾜｼ","kana_address":"ﾎﾝﾀﾞﾏﾁ","pref":"石川県","city":"金沢市","address":"本多町"},
{"zip_code":"9200853","kana_pref":"ｲｼｶﾜｹﾝ","kana_city":"ｶﾅｻﾞﾜｼ","kana_address":"ﾎﾝﾏﾁ","pref":"石川県","city":"金沢市","address":"本町"},
{"zip_code":"9200827","kana_pref":"ｲｼｶﾜｹﾝ","kana_city":"ｶﾅｻﾞﾜｼ","kana_address":"ﾏｷﾏﾁ","pref":"石川県","city":"金沢市","address":"牧町"},
{"zip_code":"9200148","kana_pref":"ｲｼｶﾜｹﾝ","kana_city":"ｶﾅｻﾞﾜｼ","kana_address":"ﾏｷﾔﾏﾏﾁ","pref":"石川県","city":"金沢市","address":"牧山町"},
{"zip_code":"9200134","kana_pref":"ｲｼｶﾜｹﾝ","kana_city":"ｶﾅｻﾞﾜｼ","kana_address":"ﾏｹﾞｼﾊﾗﾏﾁ","pref":"石川県","city":"金沢市","address":"曲子原町"},
{"zip_code":"9200364","kana_pref":"ｲｼｶﾜｹﾝ","kana_city":"ｶﾅｻﾞﾜｼ","kana_address":"ﾏﾂｼﾏ","pref":"石川県","city":"金沢市","address":"松島"},
{"zip_code":"9200364","kana_pref":"ｲｼｶﾜｹﾝ","kana_city":"ｶﾅｻﾞﾜｼ","kana_address":"ﾏﾂｼﾏﾏﾁ","pref":"石川県","city":"金沢市","address":"松島町"},
{"zip_code":"9200011","kana_pref":"ｲｼｶﾜｹﾝ","kana_city":"ｶﾅｻﾞﾜｼ","kana_address":"ﾏﾂﾃﾞﾗﾏﾁ","pref":"石川県","city":"金沢市","address":"松寺町"},
{"zip_code":"9200136","kana_pref":"ｲｼｶﾜｹﾝ","kana_city":"ｶﾅｻﾞﾜｼ","kana_address":"ﾏﾂﾈﾏﾁ","pref":"石川県","city":"金沢市","address":"松根町"},
{"zip_code":"9200348","kana_pref":"ｲｼｶﾜｹﾝ","kana_city":"ｶﾅｻﾞﾜｼ","kana_address":"ﾏﾂﾑﾗ","pref":"石川県","city":"金沢市","address":"松村"},
{"zip_code":"9200347","kana_pref":"ｲｼｶﾜｹﾝ","kana_city":"ｶﾅｻﾞﾜｼ","kana_address":"ﾏﾂﾑﾗﾏﾁ","pref":"石川県","city":"金沢市","address":"松村町"},
{"zip_code":"9200047","kana_pref":"ｲｼｶﾜｹﾝ","kana_city":"ｶﾅｻﾞﾜｼ","kana_address":"ﾏﾒﾀﾞﾎﾝﾏﾁ","pref":"石川県","city":"金沢市","address":"大豆田本町"},
{"zip_code":"9200937","kana_pref":"ｲｼｶﾜｹﾝ","kana_city":"ｶﾅｻﾞﾜｼ","kana_address":"ﾏﾙﾉｳﾁ","pref":"石川県","city":"金沢市","address":"丸の内"},
{"zip_code":"9200808","kana_pref":"ｲｼｶﾜｹﾝ","kana_city":"ｶﾅｻﾞﾜｼ","kana_address":"ﾐｲｹｼﾝﾏﾁ","pref":"石川県","city":"金沢市","address":"三池新町"},
{"zip_code":"9200802","kana_pref":"ｲｼｶﾜｹﾝ","kana_city":"ｶﾅｻﾞﾜｼ","kana_address":"ﾐｲｹﾏﾁ","pref":"石川県","city":"金沢市","address":"三池町"},
{"zip_code":"9200063","kana_pref":"ｲｼｶﾜｹﾝ","kana_city":"ｶﾅｻﾞﾜｼ","kana_address":"ﾐｳﾗﾏﾁ","pref":"石川県","city":"金沢市","address":"三浦町"},
{"zip_code":"9200201","kana_pref":"ｲｼｶﾜｹﾝ","kana_city":"ｶﾅｻﾞﾜｼ","kana_address":"ﾐｽﾞｷ","pref":"石川県","city":"金沢市","address":"みずき"},
{"zip_code":"9200978","kana_pref":"ｲｼｶﾜｹﾝ","kana_city":"ｶﾅｻﾞﾜｼ","kana_address":"ﾐｽﾞﾀﾒﾏﾁ","pref":"石川県","city":"金沢市","address":"水溜町"},
{"zip_code":"9201321","kana_pref":"ｲｼｶﾜｹﾝ","kana_city":"ｶﾅｻﾞﾜｼ","kana_address":"ﾐｽﾞﾌﾞﾁﾏﾁ","pref":"石川県","city":"金沢市","address":"水淵町"},
{"zip_code":"9200944","kana_pref":"ｲｼｶﾜｹﾝ","kana_city":"ｶﾅｻﾞﾜｼ","kana_address":"ﾐﾂｸﾁｼﾝﾏﾁ","pref":"石川県","city":"金沢市","address":"三口新町"},
{"zip_code":"9200018","kana_pref":"ｲｼｶﾜｹﾝ","kana_city":"ｶﾅｻﾞﾜｼ","kana_address":"ﾐﾂｸﾁﾏﾁ","pref":"石川県","city":"金沢市","address":"三口町"},
{"zip_code":"9201346","kana_pref":"ｲｼｶﾜｹﾝ","kana_city":"ｶﾅｻﾞﾜｼ","kana_address":"ﾐﾂｺｳｼﾞﾏﾁ","pref":"石川県","city":"金沢市","address":"三小牛町"},
{"zip_code":"9200214","kana_pref":"ｲｼｶﾜｹﾝ","kana_city":"ｶﾅｻﾞﾜｼ","kana_address":"ﾐﾂﾔﾏﾁ","pref":"石川県","city":"金沢市","address":"三ツ屋町"},
{"zip_code":"9200373","kana_pref":"ｲｼｶﾜｹﾝ","kana_city":"ｶﾅｻﾞﾜｼ","kana_address":"ﾐﾄﾞﾘ","pref":"石川県","city":"金沢市","address":"みどり"},
{"zip_code":"9200211","kana_pref":"ｲｼｶﾜｹﾝ","kana_city":"ｶﾅｻﾞﾜｼ","kana_address":"ﾐﾅﾄ","pref":"石川県","city":"金沢市","address":"湊"},
{"zip_code":"9200812","kana_pref":"ｲｼｶﾜｹﾝ","kana_city":"ｶﾅｻﾞﾜｼ","kana_address":"ﾐﾅﾐｺﾞｼｮﾏﾁ","pref":"石川県","city":"金沢市","address":"南御所町"},
{"zip_code":"9200064","kana_pref":"ｲｼｶﾜｹﾝ","kana_city":"ｶﾅｻﾞﾜｼ","kana_address":"ﾐﾅﾐｼﾝﾎﾞﾏﾁ","pref":"石川県","city":"金沢市","address":"南新保町"},
{"zip_code":"9200127","kana_pref":"ｲｼｶﾜｹﾝ","kana_city":"ｶﾅｻﾞﾜｼ","kana_address":"ﾐﾅﾐｾﾝｺﾞｸﾏﾁ","pref":"石川県","city":"金沢市","address":"南千谷町"},
{"zip_code":"9200919","kana_pref":"ｲｼｶﾜｹﾝ","kana_city":"ｶﾅｻﾞﾜｼ","kana_address":"ﾐﾅﾐﾁｮｳ","pref":"石川県","city":"金沢市","address":"南町"},
{"zip_code":"9200366","kana_pref":"ｲｼｶﾜｹﾝ","kana_city":"ｶﾅｻﾞﾜｼ","kana_address":"ﾐﾅﾐﾂﾞｶﾏﾁ","pref":"石川県","city":"金沢市","address":"南塚町"},
{"zip_code":"9200044","kana_pref":"ｲｼｶﾜｹﾝ","kana_city":"ｶﾅｻﾞﾜｼ","kana_address":"ﾐﾅﾐﾋﾛｵｶﾏﾁ","pref":"石川県","city":"金沢市","address":"南広岡町"},
{"zip_code":"9203116","kana_pref":"ｲｼｶﾜｹﾝ","kana_city":"ｶﾅｻﾞﾜｼ","kana_address":"ﾐﾅﾐﾓﾘﾓﾄﾏﾁ","pref":"石川県","city":"金沢市","address":"南森本町"},
{"zip_code":"9200153","kana_pref":"ｲｼｶﾜｹﾝ","kana_city":"ｶﾅｻﾞﾜｼ","kana_address":"ﾐﾔﾉﾏﾁ","pref":"石川県","city":"金沢市","address":"宮野町"},
{"zip_code":"9200006","kana_pref":"ｲｼｶﾜｹﾝ","kana_city":"ｶﾅｻﾞﾜｼ","kana_address":"ﾐﾔﾎﾞﾏﾁ","pref":"石川県","city":"金沢市","address":"宮保町"},
{"zip_code":"9203115","kana_pref":"ｲｼｶﾜｹﾝ","kana_city":"ｶﾅｻﾞﾜｼ","kana_address":"ﾐﾛｸﾏﾁ","pref":"石川県","city":"金沢市","address":"弥勒町"},
{"zip_code":"9200045","kana_pref":"ｲｼｶﾜｹﾝ","kana_city":"ｶﾅｻﾞﾜｼ","kana_address":"ﾑｺｳﾅｶﾏﾁ","pref":"石川県","city":"金沢市","address":"向中町"},
{"zip_code":"9200855","kana_pref":"ｲｼｶﾜｹﾝ","kana_city":"ｶﾅｻﾞﾜｼ","kana_address":"ﾑｻｼﾏﾁ","pref":"石川県","city":"金沢市","address":"武蔵町"},
{"zip_code":"9200333","kana_pref":"ｲｼｶﾜｹﾝ","kana_city":"ｶﾅｻﾞﾜｼ","kana_address":"ﾑﾘｮｳｼﾞ","pref":"石川県","city":"金沢市","address":"無量寺"},
{"zip_code":"9200332","kana_pref":"ｲｼｶﾜｹﾝ","kana_city":"ｶﾅｻﾞﾜｼ","kana_address":"ﾑﾘｮｳｼﾞﾏﾁ","pref":"石川県","city":"金沢市","address":"無量寺町"},
{"zip_code":"9201314","kana_pref":"ｲｼｶﾜｹﾝ","kana_city":"ｶﾅｻﾞﾜｼ","kana_address":"ﾒｵﾄｽｷﾞﾏﾁ","pref":"石川県","city":"金沢市","address":"娚杉町"},
{"zip_code":"9200036","kana_pref":"ｲｼｶﾜｹﾝ","kana_city":"ｶﾅｻﾞﾜｼ","kana_address":"ﾓﾄｷﾞｸﾁｮｳ","pref":"石川県","city":"金沢市","address":"元菊町"},
{"zip_code":"9200842","kana_pref":"ｲｼｶﾜｹﾝ","kana_city":"ｶﾅｻﾞﾜｼ","kana_address":"ﾓﾄﾏﾁ","pref":"石川県","city":"金沢市","address":"元町"},
{"zip_code":"9203131","kana_pref":"ｲｼｶﾜｹﾝ","kana_city":"ｶﾅｻﾞﾜｼ","kana_address":"ﾓﾓｻｶﾏﾁ","pref":"石川県","city":"金沢市","address":"百坂町"},
{"zip_code":"9201167","kana_pref":"ｲｼｶﾜｹﾝ","kana_city":"ｶﾅｻﾞﾜｼ","kana_address":"ﾓﾘﾉｻﾄ","pref":"石川県","city":"金沢市","address":"もりの里"},
{"zip_code":"9200843","kana_pref":"ｲｼｶﾜｹﾝ","kana_city":"ｶﾅｻﾞﾜｼ","kana_address":"ﾓﾘﾔﾏ","pref":"石川県","city":"金沢市","address":"森山"},
{"zip_code":"9200014","kana_pref":"ｲｼｶﾜｹﾝ","kana_city":"ｶﾅｻﾞﾜｼ","kana_address":"ﾓﾛｴﾏﾁ","pref":"石川県","city":"金沢市","address":"諸江町"},
{"zip_code":"9200015","kana_pref":"ｲｼｶﾜｹﾝ","kana_city":"ｶﾅｻﾞﾜｼ","kana_address":"ﾓﾛｴﾏﾁ","pref":"石川県","city":"金沢市","address":"諸江町"},
{"zip_code":"9200016","kana_pref":"ｲｼｶﾜｹﾝ","kana_city":"ｶﾅｻﾞﾜｼ","kana_address":"ﾓﾛｴﾏﾁ","pref":"石川県","city":"金沢市","address":"諸江町"},
{"zip_code":"9200017","kana_pref":"ｲｼｶﾜｹﾝ","kana_city":"ｶﾅｻﾞﾜｼ","kana_address":"ﾓﾛｴﾏﾁ","pref":"石川県","city":"金沢市","address":"諸江町"},
{"zip_code":"9200052","kana_pref":"ｲｼｶﾜｹﾝ","kana_city":"ｶﾅｻﾞﾜｼ","kana_address":"ﾔｸｼﾄﾞｳﾏﾁ","pref":"石川県","city":"金沢市","address":"薬師堂町"},
{"zip_code":"9200174","kana_pref":"ｲｼｶﾜｹﾝ","kana_city":"ｶﾅｻﾞﾜｼ","kana_address":"ﾔｸｼﾏﾁ","pref":"石川県","city":"金沢市","address":"薬師町"},
{"zip_code":"9200854","kana_pref":"ｲｼｶﾜｹﾝ","kana_city":"ｶﾅｻﾞﾜｼ","kana_address":"ﾔｽｴﾁｮｳ","pref":"石川県","city":"金沢市","address":"安江町"},
{"zip_code":"9203133","kana_pref":"ｲｼｶﾜｹﾝ","kana_city":"ｶﾅｻﾞﾜｼ","kana_address":"ﾔﾅｷﾞﾊﾞｼﾏﾁ","pref":"石川県","city":"金沢市","address":"柳橋町"},
{"zip_code":"9201337","kana_pref":"ｲｼｶﾜｹﾝ","kana_city":"ｶﾅｻﾞﾜｼ","kana_address":"ﾔﾏｺﾞﾏﾁ","pref":"石川県","city":"金沢市","address":"山川町"},
{"zip_code":"9200816","kana_pref":"ｲｼｶﾜｹﾝ","kana_city":"ｶﾅｻﾞﾜｼ","kana_address":"ﾔﾏﾉｳｴﾏﾁ","pref":"石川県","city":"金沢市","address":"山の上町"},
{"zip_code":"9200823","kana_pref":"ｲｼｶﾜｹﾝ","kana_city":"ｶﾅｻﾞﾜｼ","kana_address":"ﾕｳﾋﾃﾞﾗﾏﾁ","pref":"石川県","city":"金沢市","address":"夕日寺町"},
{"zip_code":"9200146","kana_pref":"ｲｼｶﾜｹﾝ","kana_city":"ｶﾅｻﾞﾜｼ","kana_address":"ﾕﾉｷﾏﾁ","pref":"石川県","city":"金沢市","address":"柚木町"},
{"zip_code":"9200215","kana_pref":"ｲｼｶﾜｹﾝ","kana_city":"ｶﾅｻﾞﾜｼ","kana_address":"ﾕﾐﾄﾘﾏﾁ","pref":"石川県","city":"金沢市","address":"弓取町"},
{"zip_code":"9201106","kana_pref":"ｲｼｶﾜｹﾝ","kana_city":"ｶﾅｻﾞﾜｼ","kana_address":"ﾕﾔｶﾞﾊﾗﾏﾁ","pref":"石川県","city":"金沢市","address":"湯谷原町"},
{"zip_code":"9201122","kana_pref":"ｲｼｶﾜｹﾝ","kana_city":"ｶﾅｻﾞﾜｼ","kana_address":"ﾕﾜｸｱﾗﾔﾏﾁ","pref":"石川県","city":"金沢市","address":"湯涌荒屋町"},
{"zip_code":"9201118","kana_pref":"ｲｼｶﾜｹﾝ","kana_city":"ｶﾅｻﾞﾜｼ","kana_address":"ﾕﾜｸｶﾜﾁﾏﾁ","pref":"石川県","city":"金沢市","address":"湯涌河内町"},
{"zip_code":"9201124","kana_pref":"ｲｼｶﾜｹﾝ","kana_city":"ｶﾅｻﾞﾜｼ","kana_address":"ﾕﾜｸﾀｺﾞｼﾞﾏﾏﾁ","pref":"石川県","city":"金沢市","address":"湯涌田子島町"},
{"zip_code":"9201119","kana_pref":"ｲｼｶﾜｹﾝ","kana_city":"ｶﾅｻﾞﾜｼ","kana_address":"ﾕﾜｸﾏｶﾞﾘﾏﾁ","pref":"石川県","city":"金沢市","address":"湯涌曲町"},
{"zip_code":"9201123","kana_pref":"ｲｼｶﾜｹﾝ","kana_city":"ｶﾅｻﾞﾜｼ","kana_address":"ﾕﾜｸﾏﾁ","pref":"石川県","city":"金沢市","address":"湯涌町"},
{"zip_code":"9201117","kana_pref":"ｲｼｶﾜｹﾝ","kana_city":"ｶﾅｻﾞﾜｼ","kana_address":"ﾖｺﾀﾆﾏﾁ","pref":"石川県","city":"金沢市","address":"横谷町"},
{"zip_code":"9203135","kana_pref":"ｲｼｶﾜｹﾝ","kana_city":"ｶﾅｻﾞﾜｼ","kana_address":"ﾖｺﾏｸﾗﾏﾁ","pref":"石川県","city":"金沢市","address":"横枕町"},
{"zip_code":"9200922","kana_pref":"ｲｼｶﾜｹﾝ","kana_city":"ｶﾅｻﾞﾜｼ","kana_address":"ﾖｺﾔﾏﾏﾁ","pref":"石川県","city":"金沢市","address":"横山町"},
{"zip_code":"9203114","kana_pref":"ｲｼｶﾜｹﾝ","kana_city":"ｶﾅｻﾞﾜｼ","kana_address":"ﾖｼﾜﾗﾏﾁ","pref":"石川県","city":"金沢市","address":"吉原町"},
{"zip_code":"9201342","kana_pref":"ｲｼｶﾜｹﾝ","kana_city":"ｶﾅｻﾞﾜｼ","kana_address":"ﾚﾝｹﾞﾏﾁ","pref":"石川県","city":"金沢市","address":"蓮花町"},
{"zip_code":"9201142","kana_pref":"ｲｼｶﾜｹﾝ","kana_city":"ｶﾅｻﾞﾜｼ","kana_address":"ﾚﾝﾆｮﾏﾁ","pref":"石川県","city":"金沢市","address":"蓮如町"},
{"zip_code":"9200868","kana_pref":"ｲｼｶﾜｹﾝ","kana_city":"ｶﾅｻﾞﾜｼ","kana_address":"ﾛｸﾏｲﾏﾁ","pref":"石川県","city":"金沢市","address":"六枚町"},
{"zip_code":"9200355","kana_pref":"ｲｼｶﾜｹﾝ","kana_city":"ｶﾅｻﾞﾜｼ","kana_address":"ﾜｶﾋﾉﾏﾁ","pref":"石川県","city":"金沢市","address":"稚日野町"},
{"zip_code":"9201165","kana_pref":"ｲｼｶﾜｹﾝ","kana_city":"ｶﾅｻﾞﾜｼ","kana_address":"ﾜｶﾏﾂﾏﾁ","pref":"石川県","city":"金沢市","address":"若松町"},
{"zip_code":"9200054","kana_pref":"ｲｼｶﾜｹﾝ","kana_city":"ｶﾅｻﾞﾜｼ","kana_address":"ﾜｶﾐﾔ","pref":"石川県","city":"金沢市","address":"若宮"},
{"zip_code":"9200053","kana_pref":"ｲｼｶﾜｹﾝ","kana_city":"ｶﾅｻﾞﾜｼ","kana_address":"ﾜｶﾐﾔﾏﾁ","pref":"石川県","city":"金沢市","address":"若宮町"},
{"zip_code":"9200953","kana_pref":"ｲｼｶﾜｹﾝ","kana_city":"ｶﾅｻﾞﾜｼ","kana_address":"ﾜｸﾅﾐ","pref":"石川県","city":"金沢市","address":"涌波"},
{"zip_code":"9200954","kana_pref":"ｲｼｶﾜｹﾝ","kana_city":"ｶﾅｻﾞﾜｼ","kana_address":"ﾜｸﾅﾐﾏﾁ","pref":"石川県","city":"金沢市","address":"涌波町"},
{"zip_code":"9200062","kana_pref":"ｲｼｶﾜｹﾝ","kana_city":"ｶﾅｻﾞﾜｼ","kana_address":"ﾜﾘﾀﾞｼﾏﾁ","pref":"石川県","city":"金沢市","address":"割出町"},
{"zip_code":"9202367","kana_pref":"ｲｼｶﾜｹﾝ","kana_city":"ﾊｸｻﾝｼ","kana_address":"ｱｲﾀｷﾏﾁ","pref":"石川県","city":"白山市","address":"相滝町"},
{"zip_code":"9202132","kana_pref":"ｲｼｶﾜｹﾝ","kana_city":"ﾊｸｻﾝｼ","kana_address":"ｱｶﾗｼﾞﾏﾏﾁ","pref":"石川県","city":"白山市","address":"明島町"},
{"zip_code":"9202356","kana_pref":"ｲｼｶﾜｹﾝ","kana_city":"ﾊｸｻﾝｼ","kana_address":"ｱﾃﾏﾁ","pref":"石川県","city":"白山市","address":"阿手町"},
{"zip_code":"9202332","kana_pref":"ｲｼｶﾜｹﾝ","kana_city":"ﾊｸｻﾝｼ","kana_address":"ｱﾗﾀﾆ","pref":"石川県","city":"白山市","address":"荒谷"},
{"zip_code":"9202151","kana_pref":"ｲｼｶﾜｹﾝ","kana_city":"ﾊｸｻﾝｼ","kana_address":"ｱﾗﾔﾏﾁ","pref":"石川県","city":"白山市","address":"荒屋町"},
{"zip_code":"9202148","kana_pref":"ｲｼｶﾜｹﾝ","kana_city":"ﾊｸｻﾝｼ","kana_address":"ｱﾙｷﾏﾁ","pref":"石川県","city":"白山市","address":"行町"},
{"zip_code":"9202141","kana_pref":"ｲｼｶﾜｹﾝ","kana_city":"ﾊｸｻﾝｼ","kana_address":"ｱﾝﾖｳｼﾞﾏﾁ","pref":"石川県","city":"白山市","address":"安養寺町"},
{"zip_code":"9202327","kana_pref":"ｲｼｶﾜｹﾝ","kana_city":"ﾊｸｻﾝｼ","kana_address":"ｲﾁﾊﾗ","pref":"石川県","city":"白山市","address":"市原"},
{"zip_code":"9202154","kana_pref":"ｲｼｶﾜｹﾝ","kana_city":"ﾊｸｻﾝｼ","kana_address":"ｲﾉｸﾁﾏﾁ","pref":"石川県","city":"白山市","address":"井口町"},
{"zip_code":"9202144","kana_pref":"ｲｼｶﾜｹﾝ","kana_city":"ﾊｸｻﾝｼ","kana_address":"ｵｵﾀﾞｹﾏﾁ","pref":"石川県","city":"白山市","address":"大竹町"},
{"zip_code":"9202333","kana_pref":"ｲｼｶﾜｹﾝ","kana_city":"ﾊｸｻﾝｼ","kana_address":"ｵｿﾞｳ","pref":"石川県","city":"白山市","address":"尾添"},
{"zip_code":"9202335","kana_pref":"ｲｼｶﾜｹﾝ","kana_city":"ﾊｸｻﾝｼ","kana_address":"ｵﾅﾊﾞﾗ","pref":"石川県","city":"白山市","address":"女原"},
{"zip_code":"9202103","kana_pref":"ｲｼｶﾜｹﾝ","kana_city":"ﾊｸｻﾝｼ","kana_address":"ｵﾔﾅｷﾞﾏﾁ","pref":"石川県","city":"白山市","address":"小柳町"},
{"zip_code":"9202355","kana_pref":"ｲｼｶﾜｹﾝ","kana_city":"ﾊｸｻﾝｼ","kana_address":"ｶｽﾞｾﾏﾁ","pref":"石川県","city":"白山市","address":"数瀬町"},
{"zip_code":"9202341","kana_pref":"ｲｼｶﾜｹﾝ","kana_city":"ﾊｸｻﾝｼ","kana_address":"ｶﾏｼﾐｽﾞﾏﾁ","pref":"石川県","city":"白山市","address":"釜清水町"},
{"zip_code":"9202338","kana_pref":"ｲｼｶﾜｹﾝ","kana_city":"ﾊｸｻﾝｼ","kana_address":"ｶﾏﾀﾞﾆ","pref":"石川県","city":"白山市","address":"釜谷"},
{"zip_code":"9202375","kana_pref":"ｲｼｶﾜｹﾝ","kana_city":"ﾊｸｻﾝｼ","kana_address":"ｶﾐﾉﾏﾁ","pref":"石川県","city":"白山市","address":"上野町"},
{"zip_code":"9202344","kana_pref":"ｲｼｶﾜｹﾝ","kana_city":"ﾊｸｻﾝｼ","kana_address":"ｶﾐﾖｼﾀﾆﾏﾁ","pref":"石川県","city":"白山市","address":"上吉谷町"},
{"zip_code":"9202373","kana_pref":"ｲｼｶﾜｹﾝ","kana_city":"ﾊｸｻﾝｼ","kana_address":"ｶﾜｲﾏﾁ","pref":"石川県","city":"白山市","address":"河合町"},
{"zip_code":"9202315","kana_pref":"ｲｼｶﾜｹﾝ","kana_city":"ﾊｸｻﾝｼ","kana_address":"ｶﾜﾁﾏﾁｲﾀｵ","pref":"石川県","city":"白山市","address":"河内町板尾"},
{"zip_code":"9202318","kana_pref":"ｲｼｶﾜｹﾝ","kana_city":"ﾊｸｻﾝｼ","kana_address":"ｶﾜﾁﾏﾁｳﾂｵ","pref":"石川県","city":"白山市","address":"河内町内尾"},
{"zip_code":"9202312","kana_pref":"ｲｼｶﾜｹﾝ","kana_city":"ﾊｸｻﾝｼ","kana_address":"ｶﾜﾁﾏﾁｵｸｲｹ","pref":"石川県","city":"白山市","address":"河内町奥池"},
{"zip_code":"9202304","kana_pref":"ｲｼｶﾜｹﾝ","kana_city":"ﾊｸｻﾝｼ","kana_address":"ｶﾜﾁﾏﾁｷﾘﾉｻﾄ","pref":"石川県","city":"白山市","address":"河内町きりの里"},
{"zip_code":"9202316","kana_pref":"ｲｼｶﾜｹﾝ","kana_city":"ﾊｸｻﾝｼ","kana_address":"ｶﾜﾁﾏﾁｷﾝﾏ","pref":"石川県","city":"白山市","address":"河内町金間"},
{"zip_code":"9202301","kana_pref":"ｲｼｶﾜｹﾝ","kana_city":"ﾊｸｻﾝｼ","kana_address":"ｶﾜﾁﾏﾁｸﾁﾉﾐ","pref":"石川県","city":"白山市","address":"河内町口直海"},
{"zip_code":"9202313","kana_pref":"ｲｼｶﾜｹﾝ","kana_city":"ﾊｸｻﾝｼ","kana_address":"ｶﾜﾁﾏﾁｸﾎﾞ","pref":"石川県","city":"白山市","address":"河内町久保"},
{"zip_code":"9202305","kana_pref":"ｲｼｶﾜｹﾝ","kana_city":"ﾊｸｻﾝｼ","kana_address":"ｶﾜﾁﾏﾁｺﾞｳﾂﾞ","pref":"石川県","city":"白山市","address":"河内町江津"},
{"zip_code":"9202317","kana_pref":"ｲｼｶﾜｹﾝ","kana_city":"ﾊｸｻﾝｼ","kana_address":"ｶﾜﾁﾏﾁｿｿﾘ","pref":"石川県","city":"白山市","address":"河内町下折"},
{"zip_code":"9202311","kana_pref":"ｲｼｶﾜｹﾝ","kana_city":"ﾊｸｻﾝｼ","kana_address":"ｶﾜﾁﾏﾁﾅｶﾉﾐ","pref":"石川県","city":"白山市","address":"河内町中直海"},
{"zip_code":"9202314","kana_pref":"ｲｼｶﾜｹﾝ","kana_city":"ﾊｸｻﾝｼ","kana_address":"ｶﾜﾁﾏﾁﾌｷｱｹﾞ","pref":"石川県","city":"白山市","address":"河内町吹上"},
{"zip_code":"9202303","kana_pref":"ｲｼｶﾜｹﾝ","kana_city":"ﾊｸｻﾝｼ","kana_address":"ｶﾜﾁﾏﾁﾌｸｵｶ","pref":"石川県","city":"白山市","address":"河内町福岡"},
{"zip_code":"9202302","kana_pref":"ｲｼｶﾜｹﾝ","kana_city":"ﾊｸｻﾝｼ","kana_address":"ｶﾜﾁﾏﾁﾌｼﾞｶﾞｵｶ","pref":"石川県","city":"白山市","address":"河内町ふじが丘"},
{"zip_code":"9202306","kana_pref":"ｲｼｶﾜｹﾝ","kana_city":"ﾊｸｻﾝｼ","kana_address":"ｶﾜﾁﾏﾁﾖｼｵｶ","pref":"石川県","city":"白山市","address":"河内町吉岡"},
{"zip_code":"9202346","kana_pref":"ｲｼｶﾜｹﾝ","kana_city":"ﾊｸｻﾝｼ","kana_address":"ｶﾜﾊﾗﾔﾏﾏﾁ","pref":"石川県","city":"白山市","address":"河原山町"},
{"zip_code":"9202326","kana_pref":"ｲｼｶﾜｹﾝ","kana_city":"ﾊｸｻﾝｼ","kana_address":"ｷﾅﾒﾘ","pref":"石川県","city":"白山市","address":"木滑"},
{"zip_code":"9202325","kana_pref":"ｲｼｶﾜｹﾝ","kana_city":"ﾊｸｻﾝｼ","kana_address":"ｷﾅﾒﾘｼﾝ","pref":"石川県","city":"白山市","address":"木滑新"},
{"zip_code":"9202502","kana_pref":"ｲｼｶﾜｹﾝ","kana_city":"ﾊｸｻﾝｼ","kana_address":"ｸﾜｼﾞﾏ","pref":"石川県","city":"白山市","address":"桑島"},
{"zip_code":"9202357","kana_pref":"ｲｼｶﾜｹﾝ","kana_city":"ﾊｸｻﾝｼ","kana_address":"ｺﾞｼﾞｭｳﾀﾞﾆﾏﾁ","pref":"石川県","city":"白山市","address":"五十谷町"},
{"zip_code":"9202337","kana_pref":"ｲｼｶﾜｹﾝ","kana_city":"ﾊｸｻﾝｼ","kana_address":"ｺﾞﾐｼﾞﾏ","pref":"石川県","city":"白山市","address":"五味島"},
{"zip_code":"9202102","kana_pref":"ｲｼｶﾜｹﾝ","kana_city":"ﾊｸｻﾝｼ","kana_address":"ｻｶｼﾞﾘﾏﾁ","pref":"石川県","city":"白山市","address":"坂尻町"},
{"zip_code":"9202322","kana_pref":"ｲｼｶﾜｹﾝ","kana_city":"ﾊｸｻﾝｼ","kana_address":"ｻﾗ","pref":"石川県","city":"白山市","address":"佐良"},
{"zip_code":"9202114","kana_pref":"ｲｼｶﾜｹﾝ","kana_city":"ﾊｸｻﾝｼ","kana_address":"ｻﾝﾉﾐﾔﾏﾁ","pref":"石川県","city":"白山市","address":"三宮町"},
{"zip_code":"9202143","kana_pref":"ｲｼｶﾜｹﾝ","kana_city":"ﾊｸｻﾝｼ","kana_address":"ｼﾁﾊﾗﾏﾁ","pref":"石川県","city":"白山市","address":"七原町"},
{"zip_code":"9202164","kana_pref":"ｲｼｶﾜｹﾝ","kana_city":"ﾊｸｻﾝｼ","kana_address":"ｼﾊﾞｷ","pref":"石川県","city":"白山市","address":"柴木"},
{"zip_code":"9202163","kana_pref":"ｲｼｶﾜｹﾝ","kana_city":"ﾊｸｻﾝｼ","kana_address":"ｼﾊﾞｷﾏﾁ","pref":"石川県","city":"白山市","address":"柴木町"},
{"zip_code":"9202503","kana_pref":"ｲｼｶﾜｹﾝ","kana_city":"ﾊｸｻﾝｼ","kana_address":"ｼﾓﾀﾜﾗ","pref":"石川県","city":"白山市","address":"下田原"},
{"zip_code":"9202374","kana_pref":"ｲｼｶﾜｹﾝ","kana_city":"ﾊｸｻﾝｼ","kana_address":"ｼﾓﾉﾏﾁ","pref":"石川県","city":"白山市","address":"下野町"},
{"zip_code":"9202342","kana_pref":"ｲｼｶﾜｹﾝ","kana_city":"ﾊｸｻﾝｼ","kana_address":"ｼﾓﾖｼﾀﾆﾏﾁ","pref":"石川県","city":"白山市","address":"下吉谷町"},
{"zip_code":"9202501","kana_pref":"ｲｼｶﾜｹﾝ","kana_city":"ﾊｸｻﾝｼ","kana_address":"ｼﾗﾐﾈ","pref":"石川県","city":"白山市","address":"白峰"},
{"zip_code":"9202115","kana_pref":"ｲｼｶﾜｹﾝ","kana_city":"ﾊｸｻﾝｼ","kana_address":"ｼﾗﾔﾏﾏﾁ","pref":"石川県","city":"白山市","address":"白山町"},
{"zip_code":"9202364","kana_pref":"ｲｼｶﾜｹﾝ","kana_city":"ﾊｸｻﾝｼ","kana_address":"ｽｷﾞﾓﾘﾏﾁ","pref":"石川県","city":"白山市","address":"杉森町"},
{"zip_code":"9202372","kana_pref":"ｲｼｶﾜｹﾝ","kana_city":"ﾊｸｻﾝｼ","kana_address":"ｾｷﾞﾉﾏﾁ","pref":"石川県","city":"白山市","address":"瀬木野町"},
{"zip_code":"9202331","kana_pref":"ｲｼｶﾜｹﾝ","kana_city":"ﾊｸｻﾝｼ","kana_address":"ｾﾄ","pref":"石川県","city":"白山市","address":"瀬戸"},
{"zip_code":"9202323","kana_pref":"ｲｼｶﾜｹﾝ","kana_city":"ﾊｸｻﾝｼ","kana_address":"ｾﾅﾐ","pref":"石川県","city":"白山市","address":"瀬波"},
{"zip_code":"9202101","kana_pref":"ｲｼｶﾜｹﾝ","kana_city":"ﾊｸｻﾝｼ","kana_address":"ｿﾀﾞﾆﾏﾁ","pref":"石川県","city":"白山市","address":"曽谷町"},
{"zip_code":"9202155","kana_pref":"ｲｼｶﾜｹﾝ","kana_city":"ﾊｸｻﾝｼ","kana_address":"ﾁｷｼﾞﾏﾁ","pref":"石川県","city":"白山市","address":"知気寺町"},
{"zip_code":"9202324","kana_pref":"ｲｼｶﾜｹﾝ","kana_city":"ﾊｸｻﾝｼ","kana_address":"ﾁｭｳｸﾞｳ","pref":"石川県","city":"白山市","address":"中宮"},
{"zip_code":"9202104","kana_pref":"ｲｼｶﾜｹﾝ","kana_city":"ﾊｸｻﾝｼ","kana_address":"ﾂｷﾊｼﾏﾁ","pref":"石川県","city":"白山市","address":"月橋町"},
{"zip_code":"9202111","kana_pref":"ｲｼｶﾜｹﾝ","kana_city":"ﾊｸｻﾝｼ","kana_address":"ﾂﾙｷﾞｱｻﾋﾏﾁ","pref":"石川県","city":"白山市","address":"鶴来朝日町"},
{"zip_code":"9202125","kana_pref":"ｲｼｶﾜｹﾝ","kana_city":"ﾊｸｻﾝｼ","kana_address":"ﾂﾙｷﾞｲﾏﾏﾁ","pref":"石川県","city":"白山市","address":"鶴来今町"},
{"zip_code":"9202133","kana_pref":"ｲｼｶﾜｹﾝ","kana_city":"ﾊｸｻﾝｼ","kana_address":"ﾂﾙｷﾞｵｵｸﾆﾏﾁ","pref":"石川県","city":"白山市","address":"鶴来大国町"},
{"zip_code":"9202127","kana_pref":"ｲｼｶﾜｹﾝ","kana_city":"ﾊｸｻﾝｼ","kana_address":"ﾂﾙｷﾞｶﾐﾋｶﾞｼﾏﾁ","pref":"石川県","city":"白山市","address":"鶴来上東町"},
{"zip_code":"9202166","kana_pref":"ｲｼｶﾜｹﾝ","kana_city":"ﾊｸｻﾝｼ","kana_address":"ﾂﾙｷﾞｸﾜｼﾞﾏﾏﾁ","pref":"石川県","city":"白山市","address":"鶴来桑島町"},
{"zip_code":"9202128","kana_pref":"ｲｼｶﾜｹﾝ","kana_city":"ﾊｸｻﾝｼ","kana_address":"ﾂﾙｷﾞｼﾓﾋｶﾞｼﾏﾁ","pref":"石川県","city":"白山市","address":"鶴来下東町"},
{"zip_code":"9202126","kana_pref":"ｲｼｶﾜｹﾝ","kana_city":"ﾊｸｻﾝｼ","kana_address":"ﾂﾙｷﾞｼﾝﾏﾁ","pref":"石川県","city":"白山市","address":"鶴来新町"},
{"zip_code":"9202124","kana_pref":"ｲｼｶﾜｹﾝ","kana_city":"ﾊｸｻﾝｼ","kana_address":"ﾂﾙｷﾞｾｲｻﾜﾏﾁ","pref":"石川県","city":"白山市","address":"鶴来清沢町"},
{"zip_code":"9202122","kana_pref":"ｲｼｶﾜｹﾝ","kana_city":"ﾊｸｻﾝｼ","kana_address":"ﾂﾙｷﾞﾁﾓﾘﾁｮｳ","pref":"石川県","city":"白山市","address":"鶴来知守町"},
{"zip_code":"9202123","kana_pref":"ｲｼｶﾜｹﾝ","kana_city":"ﾊｸｻﾝｼ","kana_address":"ﾂﾙｷﾞﾋﾂﾞﾒﾁｮｳ","pref":"石川県","city":"白山市","address":"鶴来日詰町"},
{"zip_code":"9202112","kana_pref":"ｲｼｶﾜｹﾝ","kana_city":"ﾊｸｻﾝｼ","kana_address":"ﾂﾙｷﾞﾋﾖｼﾏﾁ","pref":"石川県","city":"白山市","address":"鶴来日吉町"},
{"zip_code":"9202129","kana_pref":"ｲｼｶﾜｹﾝ","kana_city":"ﾊｸｻﾝｼ","kana_address":"ﾂﾙｷﾞﾌﾙﾏﾁ","pref":"石川県","city":"白山市","address":"鶴来古町"},
{"zip_code":"9202121","kana_pref":"ｲｼｶﾜｹﾝ","kana_city":"ﾊｸｻﾝｼ","kana_address":"ﾂﾙｷﾞﾎﾝﾏﾁ","pref":"石川県","city":"白山市","address":"鶴来本町"},
{"zip_code":"9202134","kana_pref":"ｲｼｶﾜｹﾝ","kana_city":"ﾊｸｻﾝｼ","kana_address":"ﾂﾙｷﾞﾐﾄﾏﾁ","pref":"石川県","city":"白山市","address":"鶴来水戸町"},
{"zip_code":"9202368","kana_pref":"ｲｼｶﾜｹﾝ","kana_city":"ﾊｸｻﾝｼ","kana_address":"ﾃﾞｱｲﾏﾁ","pref":"石川県","city":"白山市","address":"出合町"},
{"zip_code":"9202162","kana_pref":"ｲｼｶﾜｹﾝ","kana_city":"ﾊｸｻﾝｼ","kana_address":"ﾄﾞｳﾎｳｼﾞﾏﾁ","pref":"石川県","city":"白山市","address":"道法寺町"},
{"zip_code":"9202165","kana_pref":"ｲｼｶﾜｹﾝ","kana_city":"ﾊｸｻﾝｼ","kana_address":"ﾄﾐｺｳｼﾞﾏﾁ","pref":"石川県","city":"白山市","address":"富光寺町"},
{"zip_code":"9202116","kana_pref":"ｲｼｶﾜｹﾝ","kana_city":"ﾊｸｻﾝｼ","kana_address":"ﾅｶｼﾞﾏﾏﾁ","pref":"石川県","city":"白山市","address":"中島町"},
{"zip_code":"9202339","kana_pref":"ｲｼｶﾜｹﾝ","kana_city":"ﾊｸｻﾝｼ","kana_address":"ﾄｶﾞﾀﾆ","pref":"石川県","city":"白山市","address":"鴇ケ谷"},
{"zip_code":"9202147","kana_pref":"ｲｼｶﾜｹﾝ","kana_city":"ﾊｸｻﾝｼ","kana_address":"ﾅｶﾉｺﾞｳﾏﾁ","pref":"石川県","city":"白山市","address":"中ノ郷町"},
{"zip_code":"9202343","kana_pref":"ｲｼｶﾜｹﾝ","kana_city":"ﾊｸｻﾝｼ","kana_address":"ﾆｼｻﾗﾏﾁ","pref":"石川県","city":"白山市","address":"西佐良町"},
{"zip_code":"9202161","kana_pref":"ｲｼｶﾜｹﾝ","kana_city":"ﾊｸｻﾝｼ","kana_address":"ﾈﾂﾉﾏﾁ","pref":"石川県","city":"白山市","address":"熱野町"},
{"zip_code":"9202352","kana_pref":"ｲｼｶﾜｹﾝ","kana_city":"ﾊｸｻﾝｼ","kana_address":"ﾉｳﾁﾞﾏﾁ","pref":"石川県","city":"白山市","address":"野地町"},
{"zip_code":"9202336","kana_pref":"ｲｼｶﾜｹﾝ","kana_city":"ﾊｸｻﾝｼ","kana_address":"ﾋｶﾞｼﾌﾀｸﾁ","pref":"石川県","city":"白山市","address":"東二口"},
{"zip_code":"9202353","kana_pref":"ｲｼｶﾜｹﾝ","kana_city":"ﾊｸｻﾝｼ","kana_address":"ﾋﾀﾞﾘﾂﾌﾞﾃﾏﾁ","pref":"石川県","city":"白山市","address":"左礫町"},
{"zip_code":"9202153","kana_pref":"ｲｼｶﾜｹﾝ","kana_city":"ﾊｸｻﾝｼ","kana_address":"ﾋﾉﾐｺﾏﾁ","pref":"石川県","city":"白山市","address":"日御子町"},
{"zip_code":"9202146","kana_pref":"ｲｼｶﾜｹﾝ","kana_city":"ﾊｸｻﾝｼ","kana_address":"ﾋｭｳｶﾞﾏﾁ","pref":"石川県","city":"白山市","address":"日向町"},
{"zip_code":"9202371","kana_pref":"ｲｼｶﾜｹﾝ","kana_city":"ﾊｸｻﾝｼ","kana_address":"ﾋﾛｾﾏﾁ","pref":"石川県","city":"白山市","address":"広瀬町"},
{"zip_code":"9202334","kana_pref":"ｲｼｶﾜｹﾝ","kana_city":"ﾊｸｻﾝｼ","kana_address":"ﾌｶｾﾞ","pref":"石川県","city":"白山市","address":"深瀬"},
{"zip_code":"9202142","kana_pref":"ｲｼｶﾜｹﾝ","kana_city":"ﾊｸｻﾝｼ","kana_address":"ﾌｶｾﾞｼﾝﾏﾁ","pref":"石川県","city":"白山市","address":"深瀬新町"},
{"zip_code":"9202347","kana_pref":"ｲｼｶﾜｹﾝ","kana_city":"ﾊｸｻﾝｼ","kana_address":"ﾌﾞｼｶﾞﾉﾏﾁ","pref":"石川県","city":"白山市","address":"仏師ケ野町"},
{"zip_code":"9202167","kana_pref":"ｲｼｶﾜｹﾝ","kana_city":"ﾊｸｻﾝｼ","kana_address":"ﾌﾞﾆｭｳﾄﾞｳﾏﾁ","pref":"石川県","city":"白山市","address":"部入道町"},
{"zip_code":"9202363","kana_pref":"ｲｼｶﾜｹﾝ","kana_city":"ﾊｸｻﾝｼ","kana_address":"ﾍﾞﾂｸﾃﾞﾏﾁ","pref":"石川県","city":"白山市","address":"別宮出町"},
{"zip_code":"9202362","kana_pref":"ｲｼｶﾜｹﾝ","kana_city":"ﾊｸｻﾝｼ","kana_address":"ﾍﾞﾂｸﾏﾁ","pref":"石川県","city":"白山市","address":"別宮町"},
{"zip_code":"9202365","kana_pref":"ｲｼｶﾜｹﾝ","kana_city":"ﾊｸｻﾝｼ","kana_address":"ﾐｺｼﾐｽﾞﾏﾁ","pref":"石川県","city":"白山市","address":"神子清水町"},
{"zip_code":"9202361","kana_pref":"ｲｼｶﾜｹﾝ","kana_city":"ﾊｸｻﾝｼ","kana_address":"ﾐｻｶﾏﾁ","pref":"石川県","city":"白山市","address":"三坂町"},
{"zip_code":"9202354","kana_pref":"ｲｼｶﾜｹﾝ","kana_city":"ﾊｸｻﾝｼ","kana_address":"ﾐﾂｾﾏﾁ","pref":"石川県","city":"白山市","address":"三ツ瀬町"},
{"zip_code":"9202345","kana_pref":"ｲｼｶﾜｹﾝ","kana_city":"ﾊｸｻﾝｼ","kana_address":"ﾐﾂﾔﾉﾏﾁ","pref":"石川県","city":"白山市","address":"三ツ屋野町"},
{"zip_code":"9202145","kana_pref":"ｲｼｶﾜｹﾝ","kana_city":"ﾊｸｻﾝｼ","kana_address":"ﾐｮｳﾎｳｼﾞﾏﾏﾁ","pref":"石川県","city":"白山市","address":"明法島町"},
{"zip_code":"9202152","kana_pref":"ｲｼｶﾜｹﾝ","kana_city":"ﾊｸｻﾝｼ","kana_address":"ﾒｲｺｳ","pref":"石川県","city":"白山市","address":"明光"},
{"zip_code":"9202131","kana_pref":"ｲｼｶﾜｹﾝ","kana_city":"ﾊｸｻﾝｼ","kana_address":"ﾓﾘｼﾞﾏﾏﾁ","pref":"石川県","city":"白山市","address":"森島町"},
{"zip_code":"9202351","kana_pref":"ｲｼｶﾜｹﾝ","kana_city":"ﾊｸｻﾝｼ","kana_address":"ﾔﾅｷﾞﾊﾗﾏﾁ","pref":"石川県","city":"白山市","address":"柳原町"},
{"zip_code":"9202113","kana_pref":"ｲｼｶﾜｹﾝ","kana_city":"ﾊｸｻﾝｼ","kana_address":"ﾔﾜﾀﾏﾁ","pref":"石川県","city":"白山市","address":"八幡町"},
{"zip_code":"9202321","kana_pref":"ｲｼｶﾜｹﾝ","kana_city":"ﾊｸｻﾝｼ","kana_address":"ﾖｼﾉ","pref":"石川県","city":"白山市","address":"吉野"},
{"zip_code":"9202376","kana_pref":"ｲｼｶﾜｹﾝ","kana_city":"ﾊｸｻﾝｼ","kana_address":"ﾜｶﾊﾞﾗﾏﾁ","pref":"石川県","city":"白山市","address":"若原町"},
{"zip_code":"9202366","kana_pref":"ｲｼｶﾜｹﾝ","kana_city":"ﾊｸｻﾝｼ","kana_address":"ﾜﾀﾂﾞﾏﾁ","pref":"石川県","city":"白山市","address":"渡津町"},
{"zip_code":"9200200","kana_pref":"ｲｼｶﾜｹﾝ","kana_city":"ｶﾎｸｸﾞﾝｳﾁﾅﾀﾞﾏﾁ","kana_address":"","pref":"石川県","city":"河北郡内灘町","address":""},
{"zip_code":"9200273","kana_pref":"ｲｼｶﾜｹﾝ","kana_city":"ｶﾎｸｸﾞﾝｳﾁﾅﾀﾞﾏﾁ","kana_address":"ｱｶｼｱ","pref":"石川県","city":"河北郡内灘町","address":"アカシア"},
{"zip_code":"9200275","kana_pref":"ｲｼｶﾜｹﾝ","kana_city":"ｶﾎｸｸﾞﾝｳﾁﾅﾀﾞﾏﾁ","kana_address":"ｱｻﾋｶﾞｵｶ","pref":"石川県","city":"河北郡内灘町","address":"旭ケ丘"},
{"zip_code":"9200266","kana_pref":"ｲｼｶﾜｹﾝ","kana_city":"ｶﾎｸｸﾞﾝｳﾁﾅﾀﾞﾏﾁ","kana_address":"ｵｵﾈﾌﾞ","pref":"石川県","city":"河北郡内灘町","address":"大根布"},
{"zip_code":"9200272","kana_pref":"ｲｼｶﾜｹﾝ","kana_city":"ｶﾎｸｸﾞﾝｳﾁﾅﾀﾞﾏﾁ","kana_address":"ｺｳﾖｳﾀﾞｲ","pref":"石川県","city":"河北郡内灘町","address":"向陽台"},
{"zip_code":"9200263","kana_pref":"ｲｼｶﾜｹﾝ","kana_city":"ｶﾎｸｸﾞﾝｳﾁﾅﾀﾞﾏﾁ","kana_address":"ｺｾｲ","pref":"石川県","city":"河北郡内灘町","address":"湖西"},
{"zip_code":"9200269","kana_pref":"ｲｼｶﾜｹﾝ","kana_city":"ｶﾎｸｸﾞﾝｳﾁﾅﾀﾞﾏﾁ","kana_address":"ｼﾗﾎﾀﾞｲ","pref":"石川県","city":"河北郡内灘町","address":"白帆台"},
{"zip_code":"9200265","kana_pref":"ｲｼｶﾜｹﾝ","kana_city":"ｶﾎｸｸﾞﾝｳﾁﾅﾀﾞﾏﾁ","kana_address":"ﾀﾞｲｶﾞｸ","pref":"石川県","city":"河北郡内灘町","address":"大学"},
{"zip_code":"9200267","kana_pref":"ｲｼｶﾜｹﾝ","kana_city":"ｶﾎｸｸﾞﾝｳﾁﾅﾀﾞﾏﾁ","kana_address":"ﾀｲｾｲﾀﾞｲ","pref":"石川県","city":"河北郡内灘町","address":"大清台"},
{"zip_code":"9200277","kana_pref":"ｲｼｶﾜｹﾝ","kana_city":"ｶﾎｸｸﾞﾝｳﾁﾅﾀﾞﾏﾁ","kana_address":"ﾁﾄﾞﾘﾀﾞｲ","pref":"石川県","city":"河北郡内灘町","address":"千鳥台"},
{"zip_code":"9200271","kana_pref":"ｲｼｶﾜｹﾝ","kana_city":"ｶﾎｸｸﾞﾝｳﾁﾅﾀﾞﾏﾁ","kana_address":"ﾂﾙｶﾞｵｶ","pref":"石川県","city":"河北郡内灘町","address":"鶴ケ丘"},
{"zip_code":"9200262","kana_pref":"ｲｼｶﾜｹﾝ","kana_city":"ｶﾎｸｸﾞﾝｳﾁﾅﾀﾞﾏﾁ","kana_address":"ﾆｼｱﾗﾔ","pref":"石川県","city":"河北郡内灘町","address":"西荒屋"},
{"zip_code":"9200268","kana_pref":"ｲｼｶﾜｹﾝ","kana_city":"ｶﾎｸｸﾞﾝｳﾁﾅﾀﾞﾏﾁ","kana_address":"ﾊﾏﾅｽ","pref":"石川県","city":"河北郡内灘町","address":"ハマナス"},
{"zip_code":"9200276","kana_pref":"ｲｼｶﾜｹﾝ","kana_city":"ｶﾎｸｸﾞﾝｳﾁﾅﾀﾞﾏﾁ","kana_address":"ﾐﾄﾞﾘﾀﾞｲ","pref":"石川県","city":"河北郡内灘町","address":"緑台"},
{"zip_code":"9200264","kana_pref":"ｲｼｶﾜｹﾝ","kana_city":"ｶﾎｸｸﾞﾝｳﾁﾅﾀﾞﾏﾁ","kana_address":"ﾐﾔｻｶ","pref":"石川県","city":"河北郡内灘町","address":"宮坂"},
{"zip_code":"9200274","kana_pref":"ｲｼｶﾜｹﾝ","kana_city":"ｶﾎｸｸﾞﾝｳﾁﾅﾀﾞﾏﾁ","kana_address":"ﾑｶｲｱﾜｶﾞｻｷ","pref":"石川県","city":"河北郡内灘町","address":"向粟崎"},
{"zip_code":"9200261","kana_pref":"ｲｼｶﾜｹﾝ","kana_city":"ｶﾎｸｸﾞﾝｳﾁﾅﾀﾞﾏﾁ","kana_address":"ﾑﾛ","pref":"石川県","city":"河北郡内灘町","address":"室"}]}