{"zip_code":[
{"zip_code":"9218161","kana_pref":"ｲｼｶﾜｹﾝ","kana_city":"ｶﾅｻﾞﾜｼ","kana_address":"ｱﾘﾏﾂ","pref":"石川県","city":"金沢市","address":"有松"},
{"zip_code":"9218041","kana_pref":"ｲｼｶﾜｹﾝ","kana_city":"ｶﾅｻﾞﾜｼ","kana_address":"ｲｽﾞﾐ","pref":"石川県","city":"金沢市","address":"泉"},
{"zip_code":"9218035","kana_pref":"ｲｼｶﾜｹﾝ","kana_city":"ｶﾅｻﾞﾜｼ","kana_address":"ｲｽﾞﾐｶﾞｵｶ","pref":"石川県","city":"金沢市","address":"泉が丘"},
{"zip_code":"9218116","kana_pref":"ｲｼｶﾜｹﾝ","kana_city":"ｶﾅｻﾞﾜｼ","kana_address":"ｲｽﾞﾐﾉﾃﾞﾏﾁ","pref":"石川県","city":"金沢市","address":"泉野出町"},
{"zip_code":"9218034","kana_pref":"ｲｼｶﾜｹﾝ","kana_city":"ｶﾅｻﾞﾜｼ","kana_address":"ｲｽﾞﾐﾉﾏﾁ","pref":"石川県","city":"金沢市","address":"泉野町"},
{"zip_code":"9218042","kana_pref":"ｲｼｶﾜｹﾝ","kana_city":"ｶﾅｻﾞﾜｼ","kana_address":"ｲｽﾞﾐﾎﾝﾏﾁ","pref":"石川県","city":"金沢市","address":"泉本町"},
{"zip_code":"9218014","kana_pref":"ｲｼｶﾜｹﾝ","kana_city":"ｶﾅｻﾞﾜｼ","kana_address":"ｲﾄﾀﾞ","pref":"石川県","city":"金沢市","address":"糸田"},
{"zip_code":"9218026","kana_pref":"ｲｼｶﾜｹﾝ","kana_city":"ｶﾅｻﾞﾜｼ","kana_address":"ｲﾄﾀﾞｼﾝﾏﾁ","pref":"石川県","city":"金沢市","address":"糸田新町"},
{"zip_code":"9218011","kana_pref":"ｲｼｶﾜｹﾝ","kana_city":"ｶﾅｻﾞﾜｼ","kana_address":"ｲﾘｴ","pref":"石川県","city":"金沢市","address":"入江"},
{"zip_code":"9218173","kana_pref":"ｲｼｶﾜｹﾝ","kana_city":"ｶﾅｻﾞﾜｼ","kana_address":"ｴﾝｺｳｼﾞ","pref":"石川県","city":"金沢市","address":"円光寺"},
{"zip_code":"9218176","kana_pref":"ｲｼｶﾜｹﾝ","kana_city":"ｶﾅｻﾞﾜｼ","kana_address":"ｴﾝｺｳｼﾞﾎﾝﾏﾁ","pref":"石川県","city":"金沢市","address":"円光寺本町"},
{"zip_code":"9218045","kana_pref":"ｲｼｶﾜｹﾝ","kana_city":"ｶﾅｻﾞﾜｼ","kana_address":"ｵｵｸﾜ","pref":"石川県","city":"金沢市","address":"大桑"},
{"zip_code":"9218046","kana_pref":"ｲｼｶﾜｹﾝ","kana_city":"ｶﾅｻﾞﾜｼ","kana_address":"ｵｵｸﾜﾏﾁ","pref":"石川県","city":"金沢市","address":"大桑町"},
{"zip_code":"9218147","kana_pref":"ｲｼｶﾜｹﾝ","kana_city":"ｶﾅｻﾞﾜｼ","kana_address":"ｵｵﾇｶ","pref":"石川県","city":"金沢市","address":"大額"},
{"zip_code":"9218143","kana_pref":"ｲｼｶﾜｹﾝ","kana_city":"ｶﾅｻﾞﾜｼ","kana_address":"ｵｵﾇｶﾏﾁ","pref":"石川県","city":"金沢市","address":"大額町"},
{"zip_code":"9218056","kana_pref":"ｲｼｶﾜｹﾝ","kana_city":"ｶﾅｻﾞﾜｼ","kana_address":"ｵｼﾉ","pref":"石川県","city":"金沢市","address":"押野"},
{"zip_code":"9218065","kana_pref":"ｲｼｶﾜｹﾝ","kana_city":"ｶﾅｻﾞﾜｼ","kana_address":"ｶﾐｱﾗﾔ","pref":"石川県","city":"金沢市","address":"上荒屋"},
{"zip_code":"9218027","kana_pref":"ｲｼｶﾜｹﾝ","kana_city":"ｶﾅｻﾞﾜｼ","kana_address":"ｶﾝﾀﾞ","pref":"石川県","city":"金沢市","address":"神田"},
{"zip_code":"9218032","kana_pref":"ｲｼｶﾜｹﾝ","kana_city":"ｶﾅｻﾞﾜｼ","kana_address":"ｷﾖｶﾜﾏﾁ","pref":"石川県","city":"金沢市","address":"清川町"},
{"zip_code":"9218122","kana_pref":"ｲｼｶﾜｹﾝ","kana_city":"ｶﾅｻﾞﾜｼ","kana_address":"ｷﾖｾﾏﾁ","pref":"石川県","city":"金沢市","address":"清瀬町"},
{"zip_code":"9218151","kana_pref":"ｲｼｶﾜｹﾝ","kana_city":"ｶﾅｻﾞﾜｼ","kana_address":"ｸﾎﾞ","pref":"石川県","city":"金沢市","address":"窪"},
{"zip_code":"9218124","kana_pref":"ｲｼｶﾜｹﾝ","kana_city":"ｶﾅｻﾞﾜｼ","kana_address":"ｸﾗｶﾞﾀｹ","pref":"石川県","city":"金沢市","address":"倉ケ嶽"},
{"zip_code":"9218051","kana_pref":"ｲｼｶﾜｹﾝ","kana_city":"ｶﾅｻﾞﾜｼ","kana_address":"ｸﾛﾀﾞ","pref":"石川県","city":"金沢市","address":"黒田"},
{"zip_code":"9218131","kana_pref":"ｲｼｶﾜｹﾝ","kana_city":"ｶﾅｻﾞﾜｼ","kana_address":"ｻﾝｼﾞｭｳｶﾞﾘﾏﾁ","pref":"石川県","city":"金沢市","address":"三十苅町"},
{"zip_code":"9218135","kana_pref":"ｲｼｶﾜｹﾝ","kana_city":"ｶﾅｻﾞﾜｼ","kana_address":"ｼｼﾞﾏ","pref":"石川県","city":"金沢市","address":"四十万"},
{"zip_code":"9218132","kana_pref":"ｲｼｶﾜｹﾝ","kana_city":"ｶﾅｻﾞﾜｼ","kana_address":"ｼｼﾞﾏﾀﾞｲ","pref":"石川県","city":"金沢市","address":"しじま台"},
{"zip_code":"9218133","kana_pref":"ｲｼｶﾜｹﾝ","kana_city":"ｶﾅｻﾞﾜｼ","kana_address":"ｼｼﾞﾏﾏﾁ","pref":"石川県","city":"金沢市","address":"四十万町"},
{"zip_code":"9218106","kana_pref":"ｲｼｶﾜｹﾝ","kana_city":"ｶﾅｻﾞﾜｼ","kana_address":"ｼﾞｭｳｲﾁﾔﾏﾁ","pref":"石川県","city":"金沢市","address":"十一屋町"},
{"zip_code":"9218024","kana_pref":"ｲｼｶﾜｹﾝ","kana_city":"ｶﾅｻﾞﾜｼ","kana_address":"ｼﾗｷﾞｸﾁｮｳ","pref":"石川県","city":"金沢市","address":"白菊町"},
{"zip_code":"9218013","kana_pref":"ｲｼｶﾜｹﾝ","kana_city":"ｶﾅｻﾞﾜｼ","kana_address":"ｼﾝｶﾝﾀﾞ","pref":"石川県","city":"金沢市","address":"新神田"},
{"zip_code":"9218062","kana_pref":"ｲｼｶﾜｹﾝ","kana_city":"ｶﾅｻﾞﾜｼ","kana_address":"ｼﾝﾎﾞﾎﾝ","pref":"石川県","city":"金沢市","address":"新保本"},
{"zip_code":"9218006","kana_pref":"ｲｼｶﾜｹﾝ","kana_city":"ｶﾅｻﾞﾜｼ","kana_address":"ｼﾝﾜﾏﾁ","pref":"石川県","city":"金沢市","address":"進和町"},
{"zip_code":"9218023","kana_pref":"ｲｼｶﾜｹﾝ","kana_city":"ｶﾅｻﾞﾜｼ","kana_address":"ｾﾝﾆﾁﾏﾁ","pref":"石川県","city":"金沢市","address":"千日町"},
{"zip_code":"9218152","kana_pref":"ｲｼｶﾜｹﾝ","kana_city":"ｶﾅｻﾞﾜｼ","kana_address":"ﾀｶｵ","pref":"石川県","city":"金沢市","address":"高尾"},
{"zip_code":"9218155","kana_pref":"ｲｼｶﾜｹﾝ","kana_city":"ｶﾅｻﾞﾜｼ","kana_address":"ﾀｶｵﾀﾞｲ","pref":"石川県","city":"金沢市","address":"高尾台"},
{"zip_code":"9218153","kana_pref":"ｲｼｶﾜｹﾝ","kana_city":"ｶﾅｻﾞﾜｼ","kana_address":"ﾀｶｵﾏﾁ","pref":"石川県","city":"金沢市","address":"高尾町"},
{"zip_code":"9218154","kana_pref":"ｲｼｶﾜｹﾝ","kana_city":"ｶﾅｻﾞﾜｼ","kana_address":"ﾀｶｵﾐﾅﾐ","pref":"石川県","city":"金沢市","address":"高尾南"},
{"zip_code":"9218001","kana_pref":"ｲｼｶﾜｹﾝ","kana_city":"ｶﾅｻﾞﾜｼ","kana_address":"ﾀｶﾊﾞﾀｹ","pref":"石川県","city":"金沢市","address":"高畠"},
{"zip_code":"9218002","kana_pref":"ｲｼｶﾜｹﾝ","kana_city":"ｶﾅｻﾞﾜｼ","kana_address":"ﾀﾏﾎﾞｺ","pref":"石川県","city":"金沢市","address":"玉鉾"},
{"zip_code":"9218003","kana_pref":"ｲｼｶﾜｹﾝ","kana_city":"ｶﾅｻﾞﾜｼ","kana_address":"ﾀﾏﾎﾞｺﾏﾁ","pref":"石川県","city":"金沢市","address":"玉鉾町"},
{"zip_code":"9218103","kana_pref":"ｲｼｶﾜｹﾝ","kana_city":"ｶﾅｻﾞﾜｼ","kana_address":"ﾂﾂｼﾞｶﾞｵｶ","pref":"石川県","city":"金沢市","address":"つつじが丘"},
{"zip_code":"9218123","kana_pref":"ｲｼｶﾜｹﾝ","kana_city":"ｶﾅｻﾞﾜｼ","kana_address":"ﾂﾎﾞﾉﾏﾁ","pref":"石川県","city":"金沢市","address":"坪野町"},
{"zip_code":"9218178","kana_pref":"ｲｼｶﾜｹﾝ","kana_city":"ｶﾅｻﾞﾜｼ","kana_address":"ﾃﾗｼﾞ","pref":"石川県","city":"金沢市","address":"寺地"},
{"zip_code":"9218033","kana_pref":"ｲｼｶﾜｹﾝ","kana_city":"ｶﾅｻﾞﾜｼ","kana_address":"ﾃﾗﾏﾁ","pref":"石川県","city":"金沢市","address":"寺町"},
{"zip_code":"9218015","kana_pref":"ｲｼｶﾜｹﾝ","kana_city":"ｶﾅｻﾞﾜｼ","kana_address":"ﾄｳﾘｷ","pref":"石川県","city":"金沢市","address":"東力"},
{"zip_code":"9218016","kana_pref":"ｲｼｶﾜｹﾝ","kana_city":"ｶﾅｻﾞﾜｼ","kana_address":"ﾄｳﾘｷﾏﾁ","pref":"石川県","city":"金沢市","address":"東力町"},
{"zip_code":"9218171","kana_pref":"ｲｼｶﾜｹﾝ","kana_city":"ｶﾅｻﾞﾜｼ","kana_address":"ﾄｶﾞｼ","pref":"石川県","city":"金沢市","address":"富樫"},
{"zip_code":"9218022","kana_pref":"ｲｼｶﾜｹﾝ","kana_city":"ｶﾅｻﾞﾜｼ","kana_address":"ﾅｶﾑﾗﾏﾁ","pref":"石川県","city":"金沢市","address":"中村町"},
{"zip_code":"9218112","kana_pref":"ｲｼｶﾜｹﾝ","kana_city":"ｶﾅｻﾞﾜｼ","kana_address":"ﾅｶﾞｻｶ","pref":"石川県","city":"金沢市","address":"長坂"},
{"zip_code":"9218115","kana_pref":"ｲｼｶﾜｹﾝ","kana_city":"ｶﾅｻﾞﾜｼ","kana_address":"ﾅｶﾞｻｶﾀﾞｲ","pref":"石川県","city":"金沢市","address":"長坂台"},
{"zip_code":"9218114","kana_pref":"ｲｼｶﾜｹﾝ","kana_city":"ｶﾅｻﾞﾜｼ","kana_address":"ﾅｶﾞｻｶﾏﾁ","pref":"石川県","city":"金沢市","address":"長坂町"},
{"zip_code":"9218043","kana_pref":"ｲｼｶﾜｹﾝ","kana_city":"ｶﾅｻﾞﾜｼ","kana_address":"ﾆｼｲｽﾞﾐ","pref":"石川県","city":"金沢市","address":"西泉"},
{"zip_code":"9218102","kana_pref":"ｲｼｶﾜｹﾝ","kana_city":"ｶﾅｻﾞﾜｼ","kana_address":"ﾆｼｵｵｸﾜﾏﾁ","pref":"石川県","city":"金沢市","address":"西大桑町"},
{"zip_code":"9218054","kana_pref":"ｲｼｶﾜｹﾝ","kana_city":"ｶﾅｻﾞﾜｼ","kana_address":"ﾆｼｶﾅｻﾞﾜ","pref":"石川県","city":"金沢市","address":"西金沢"},
{"zip_code":"9218055","kana_pref":"ｲｼｶﾜｹﾝ","kana_city":"ｶﾅｻﾞﾜｼ","kana_address":"ﾆｼｶﾅｻﾞﾜｼﾝﾏﾁ","pref":"石川県","city":"金沢市","address":"西金沢新町"},
{"zip_code":"9218146","kana_pref":"ｲｼｶﾜｹﾝ","kana_city":"ｶﾅｻﾞﾜｼ","kana_address":"ﾇｶｵﾄﾏﾙﾏﾁ","pref":"石川県","city":"金沢市","address":"額乙丸町"},
{"zip_code":"9218148","kana_pref":"ｲｼｶﾜｹﾝ","kana_city":"ｶﾅｻﾞﾜｼ","kana_address":"ﾇｶｼﾝﾎﾞ","pref":"石川県","city":"金沢市","address":"額新保"},
{"zip_code":"9218149","kana_pref":"ｲｼｶﾜｹﾝ","kana_city":"ｶﾅｻﾞﾜｼ","kana_address":"ﾇｶｼﾝﾏﾁ","pref":"石川県","city":"金沢市","address":"額新町"},
{"zip_code":"9218145","kana_pref":"ｲｼｶﾜｹﾝ","kana_city":"ｶﾅｻﾞﾜｼ","kana_address":"ﾇｶﾀﾞﾆ","pref":"石川県","city":"金沢市","address":"額谷"},
{"zip_code":"9218144","kana_pref":"ｲｼｶﾜｹﾝ","kana_city":"ｶﾅｻﾞﾜｼ","kana_address":"ﾇｶﾀﾞﾆﾏﾁ","pref":"石川県","city":"金沢市","address":"額谷町"},
{"zip_code":"9218104","kana_pref":"ｲｼｶﾜｹﾝ","kana_city":"ｶﾅｻﾞﾜｼ","kana_address":"ﾉﾀﾞﾏﾁ","pref":"石川県","city":"金沢市","address":"野田町"},
{"zip_code":"9218031","kana_pref":"ｲｼｶﾜｹﾝ","kana_city":"ｶﾅｻﾞﾜｼ","kana_address":"ﾉﾏﾁ","pref":"石川県","city":"金沢市","address":"野町"},
{"zip_code":"9218142","kana_pref":"ｲｼｶﾜｹﾝ","kana_city":"ｶﾅｻﾞﾜｼ","kana_address":"ﾋｶﾘｶﾞｵｶ","pref":"石川県","city":"金沢市","address":"光が丘"},
{"zip_code":"9218164","kana_pref":"ｲｼｶﾜｹﾝ","kana_city":"ｶﾅｻﾞﾜｼ","kana_address":"ﾋｻﾔｽ","pref":"石川県","city":"金沢市","address":"久安"},
{"zip_code":"9218121","kana_pref":"ｲｼｶﾜｹﾝ","kana_city":"ｶﾅｻﾞﾜｼ","kana_address":"ﾋﾗｸﾞﾘ","pref":"石川県","city":"金沢市","address":"平栗"},
{"zip_code":"9218172","kana_pref":"ｲｼｶﾜｹﾝ","kana_city":"ｶﾅｻﾞﾜｼ","kana_address":"ﾌｼﾐｼﾝﾏﾁ","pref":"石川県","city":"金沢市","address":"伏見新町"},
{"zip_code":"9218177","kana_pref":"ｲｼｶﾜｹﾝ","kana_city":"ｶﾅｻﾞﾜｼ","kana_address":"ﾌｼﾐﾀﾞｲ","pref":"石川県","city":"金沢市","address":"伏見台"},
{"zip_code":"9218105","kana_pref":"ｲｼｶﾜｹﾝ","kana_city":"ｶﾅｻﾞﾜｼ","kana_address":"ﾍｲﾜﾏﾁ","pref":"石川県","city":"金沢市","address":"平和町"},
{"zip_code":"9218101","kana_pref":"ｲｼｶﾜｹﾝ","kana_city":"ｶﾅｻﾞﾜｼ","kana_address":"ﾎｳｼﾏﾏﾁ","pref":"石川県","city":"金沢市","address":"法島町"},
{"zip_code":"9218052","kana_pref":"ｲｼｶﾜｹﾝ","kana_city":"ｶﾅｻﾞﾜｼ","kana_address":"ﾎｺﾞ","pref":"石川県","city":"金沢市","address":"保古"},
{"zip_code":"9218053","kana_pref":"ｲｼｶﾜｹﾝ","kana_city":"ｶﾅｻﾞﾜｼ","kana_address":"ﾎｺﾞﾏﾁ","pref":"石川県","city":"金沢市","address":"保古町"},
{"zip_code":"9218141","kana_pref":"ｲｼｶﾜｹﾝ","kana_city":"ｶﾅｻﾞﾜｼ","kana_address":"ﾏｶﾞｴ","pref":"石川県","city":"金沢市","address":"馬替"},
{"zip_code":"9218005","kana_pref":"ｲｼｶﾜｹﾝ","kana_city":"ｶﾅｻﾞﾜｼ","kana_address":"ﾏｷﾞﾗﾏﾁ","pref":"石川県","city":"金沢市","address":"間明町"},
{"zip_code":"9218025","kana_pref":"ｲｼｶﾜｹﾝ","kana_city":"ｶﾅｻﾞﾜｼ","kana_address":"ﾏｽｲｽﾞﾐ","pref":"石川県","city":"金沢市","address":"増泉"},
{"zip_code":"9218047","kana_pref":"ｲｼｶﾜｹﾝ","kana_city":"ｶﾅｻﾞﾜｼ","kana_address":"ﾏﾒﾀﾞﾎﾝﾏﾁ","pref":"石川県","city":"金沢市","address":"大豆田本町"},
{"zip_code":"9218021","kana_pref":"ｲｼｶﾜｹﾝ","kana_city":"ｶﾅｻﾞﾜｼ","kana_address":"ﾐｶｹﾞﾏﾁ","pref":"石川県","city":"金沢市","address":"御影町"},
{"zip_code":"9218046","kana_pref":"ｲｼｶﾜｹﾝ","kana_city":"ｶﾅｻﾞﾜｼ","kana_address":"ﾐﾂｺｳｼﾞﾏﾁ","pref":"石川県","city":"金沢市","address":"三小牛町"},
{"zip_code":"9218117","kana_pref":"ｲｼｶﾜｹﾝ","kana_city":"ｶﾅｻﾞﾜｼ","kana_address":"ﾐﾄﾞﾘｶﾞｵｶ","pref":"石川県","city":"金沢市","address":"緑が丘"},
{"zip_code":"9218134","kana_pref":"ｲｼｶﾜｹﾝ","kana_city":"ｶﾅｻﾞﾜｼ","kana_address":"ﾐﾅﾐｼｼﾞﾏ","pref":"石川県","city":"金沢市","address":"南四十万"},
{"zip_code":"9218162","kana_pref":"ｲｼｶﾜｹﾝ","kana_city":"ｶﾅｻﾞﾜｼ","kana_address":"ﾐﾝﾏ","pref":"石川県","city":"金沢市","address":"三馬"},
{"zip_code":"9218012","kana_pref":"ｲｼｶﾜｹﾝ","kana_city":"ｶﾅｻﾞﾜｼ","kana_address":"ﾓﾄｴﾁｮｳ","pref":"石川県","city":"金沢市","address":"本江町"},
{"zip_code":"9218061","kana_pref":"ｲｼｶﾜｹﾝ","kana_city":"ｶﾅｻﾞﾜｼ","kana_address":"ﾓﾘﾄ","pref":"石川県","city":"金沢市","address":"森戸"},
{"zip_code":"9218066","kana_pref":"ｲｼｶﾜｹﾝ","kana_city":"ｶﾅｻﾞﾜｼ","kana_address":"ﾔｷﾞ","pref":"石川県","city":"金沢市","address":"矢木"},
{"zip_code":"9218175","kana_pref":"ｲｼｶﾜｹﾝ","kana_city":"ｶﾅｻﾞﾜｼ","kana_address":"ﾔﾏｼﾅ","pref":"石川県","city":"金沢市","address":"山科"},
{"zip_code":"9218174","kana_pref":"ｲｼｶﾜｹﾝ","kana_city":"ｶﾅｻﾞﾜｼ","kana_address":"ﾔﾏｼﾅﾏﾁ","pref":"石川県","city":"金沢市","address":"山科町"},
{"zip_code":"9218036","kana_pref":"ｲｼｶﾜｹﾝ","kana_city":"ｶﾅｻﾞﾜｼ","kana_address":"ﾔﾖｲ","pref":"石川県","city":"金沢市","address":"弥生"},
{"zip_code":"9218064","kana_pref":"ｲｼｶﾜｹﾝ","kana_city":"ｶﾅｻﾞﾜｼ","kana_address":"ﾖｳｶｲﾁ","pref":"石川県","city":"金沢市","address":"八日市"},
{"zip_code":"9218063","kana_pref":"ｲｼｶﾜｹﾝ","kana_city":"ｶﾅｻﾞﾜｼ","kana_address":"ﾖｳｶｲﾁﾃﾞﾏﾁ","pref":"石川県","city":"金沢市","address":"八日市出町"},
{"zip_code":"9218163","kana_pref":"ｲｼｶﾜｹﾝ","kana_city":"ｶﾅｻﾞﾜｼ","kana_address":"ﾖｺｶﾞﾜ","pref":"石川県","city":"金沢市","address":"横川"},
{"zip_code":"9218044","kana_pref":"ｲｼｶﾜｹﾝ","kana_city":"ｶﾅｻﾞﾜｼ","kana_address":"ﾖﾅｲｽﾞﾐﾏﾁ","pref":"石川県","city":"金沢市","address":"米泉町"},
{"zip_code":"9218004","kana_pref":"ｲｼｶﾜｹﾝ","kana_city":"ｶﾅｻﾞﾜｼ","kana_address":"ﾖﾈﾏﾙﾏﾁ","pref":"石川県","city":"金沢市","address":"米丸町"},
{"zip_code":"9218111","kana_pref":"ｲｼｶﾜｹﾝ","kana_city":"ｶﾅｻﾞﾜｼ","kana_address":"ﾜｶｸｻﾏﾁ","pref":"石川県","city":"金沢市","address":"若草町"},
{"zip_code":"9210000","kana_pref":"ｲｼｶﾜｹﾝ","kana_city":"ﾉﾉｲﾁｼ","kana_address":"","pref":"石川県","city":"野々市市","address":""},
{"zip_code":"9218823","kana_pref":"ｲｼｶﾜｹﾝ","kana_city":"ﾉﾉｲﾁｼ","kana_address":"ｱﾜﾀﾞ","pref":"石川県","city":"野々市市","address":"粟田"},
{"zip_code":"9218805","kana_pref":"ｲｼｶﾜｹﾝ","kana_city":"ﾉﾉｲﾁｼ","kana_address":"ｲﾅﾘ","pref":"石川県","city":"野々市市","address":"稲荷"},
{"zip_code":"9218812","kana_pref":"ｲｼｶﾜｹﾝ","kana_city":"ﾉﾉｲﾁｼ","kana_address":"ｵｳｷﾞｶﾞｵｶ","pref":"石川県","city":"野々市市","address":"扇が丘"},
{"zip_code":"9218801","kana_pref":"ｲｼｶﾜｹﾝ","kana_city":"ﾉﾉｲﾁｼ","kana_address":"ｵｷｮｳﾂﾞｶ","pref":"石川県","city":"野々市市","address":"御経塚"},
{"zip_code":"9218803","kana_pref":"ｲｼｶﾜｹﾝ","kana_city":"ﾉﾉｲﾁｼ","kana_address":"ｵｼｺｼ","pref":"石川県","city":"野々市市","address":"押越"},
{"zip_code":"9218802","kana_pref":"ｲｼｶﾜｹﾝ","kana_city":"ﾉﾉｲﾁｼ","kana_address":"ｵｼﾉ","pref":"石川県","city":"野々市市","address":"押野"},
{"zip_code":"9218835","kana_pref":"ｲｼｶﾜｹﾝ","kana_city":"ﾉﾉｲﾁｼ","kana_address":"ｶﾝﾊﾞﾔｼ","pref":"石川県","city":"野々市市","address":"上林"},
{"zip_code":"9218837","kana_pref":"ｲｼｶﾜｹﾝ","kana_city":"ﾉﾉｲﾁｼ","kana_address":"ｷﾖｶﾈ","pref":"石川県","city":"野々市市","address":"清金"},
{"zip_code":"9218846","kana_pref":"ｲｼｶﾜｹﾝ","kana_city":"ﾉﾉｲﾁｼ","kana_address":"ｸﾗｲｶﾞﾜ","pref":"石川県","city":"野々市市","address":"位川"},
{"zip_code":"9218841","kana_pref":"ｲｼｶﾜｹﾝ","kana_city":"ﾉﾉｲﾁｼ","kana_address":"ｺﾞｳﾏﾁ","pref":"石川県","city":"野々市市","address":"郷町"},
{"zip_code":"9218825","kana_pref":"ｲｼｶﾜｹﾝ","kana_city":"ﾉﾉｲﾁｼ","kana_address":"ｻﾝﾉ","pref":"石川県","city":"野々市市","address":"三納"},
{"zip_code":"9218831","kana_pref":"ｲｼｶﾜｹﾝ","kana_city":"ﾉﾉｲﾁｼ","kana_address":"ｼﾓﾊﾞﾔｼ","pref":"石川県","city":"野々市市","address":"下林"},
{"zip_code":"9218824","kana_pref":"ｲｼｶﾜｹﾝ","kana_city":"ﾉﾉｲﾁｼ","kana_address":"ｼﾝｼﾞｮｳ","pref":"石川県","city":"野々市市","address":"新庄"},
{"zip_code":"9218836","kana_pref":"ｲｼｶﾜｹﾝ","kana_city":"ﾉﾉｲﾁｼ","kana_address":"ｽｴﾏﾂ","pref":"石川県","city":"野々市市","address":"末松"},
{"zip_code":"9218814","kana_pref":"ｲｼｶﾜｹﾝ","kana_city":"ﾉﾉｲﾁｼ","kana_address":"ｽｶﾞﾊﾗﾏﾁ","pref":"石川県","city":"野々市市","address":"菅原町"},
{"zip_code":"9218813","kana_pref":"ｲｼｶﾜｹﾝ","kana_city":"ﾉﾉｲﾁｼ","kana_address":"ｽﾐﾖｼﾏﾁ","pref":"石川県","city":"野々市市","address":"住吉町"},
{"zip_code":"9218811","kana_pref":"ｲｼｶﾜｹﾝ","kana_city":"ﾉﾉｲﾁｼ","kana_address":"ﾀｶﾊｼﾏﾁ","pref":"石川県","city":"野々市市","address":"高橋町"},
{"zip_code":"9218843","kana_pref":"ｲｼｶﾜｹﾝ","kana_city":"ﾉﾉｲﾁｼ","kana_address":"ﾀﾉｼﾘﾏﾁ","pref":"石川県","city":"野々市市","address":"田尻町"},
{"zip_code":"9218845","kana_pref":"ｲｼｶﾜｹﾝ","kana_city":"ﾉﾉｲﾁｼ","kana_address":"ﾀﾍｲｼﾞ","pref":"石川県","city":"野々市市","address":"太平寺"},
{"zip_code":"9218842","kana_pref":"ｲｼｶﾜｹﾝ","kana_city":"ﾉﾉｲﾁｼ","kana_address":"ﾄｸﾓﾄﾏﾁ","pref":"石川県","city":"野々市市","address":"徳用町"},
{"zip_code":"9218832","kana_pref":"ｲｼｶﾜｹﾝ","kana_city":"ﾉﾉｲﾁｼ","kana_address":"ﾄﾍｲﾀﾞ","pref":"石川県","city":"野々市市","address":"藤平田"},
{"zip_code":"9218834","kana_pref":"ｲｼｶﾜｹﾝ","kana_city":"ﾉﾉｲﾁｼ","kana_address":"ﾅｶﾊﾞﾔｼ","pref":"石川県","city":"野々市市","address":"中林"},
{"zip_code":"9218808","kana_pref":"ｲｼｶﾜｹﾝ","kana_city":"ﾉﾉｲﾁｼ","kana_address":"ﾅｶﾞｲｹ","pref":"石川県","city":"野々市市","address":"長池"},
{"zip_code":"9218804","kana_pref":"ｲｼｶﾜｹﾝ","kana_city":"ﾉﾉｲﾁｼ","kana_address":"ﾉｼﾛ","pref":"石川県","city":"野々市市","address":"野代"},
{"zip_code":"9218821","kana_pref":"ｲｼｶﾜｹﾝ","kana_city":"ﾉﾉｲﾁｼ","kana_address":"ﾊｸｻﾝﾏﾁ","pref":"石川県","city":"野々市市","address":"白山町"},
{"zip_code":"9218833","kana_pref":"ｲｼｶﾜｹﾝ","kana_city":"ﾉﾉｲﾁｼ","kana_address":"ﾌｼﾞﾋﾗ","pref":"石川県","city":"野々市市","address":"藤平"},
{"zip_code":"9218807","kana_pref":"ｲｼｶﾜｹﾝ","kana_city":"ﾉﾉｲﾁｼ","kana_address":"ﾌﾂｶｲﾁﾏﾁ","pref":"石川県","city":"野々市市","address":"二日市町"},
{"zip_code":"9218844","kana_pref":"ｲｼｶﾜｹﾝ","kana_city":"ﾉﾉｲﾁｼ","kana_address":"ﾎﾘｳﾁ","pref":"石川県","city":"野々市市","address":"堀内"},
{"zip_code":"9218815","kana_pref":"ｲｼｶﾜｹﾝ","kana_city":"ﾉﾉｲﾁｼ","kana_address":"ﾎﾝﾏﾁ","pref":"石川県","city":"野々市市","address":"本町"},
{"zip_code":"9218806","kana_pref":"ｲｼｶﾜｹﾝ","kana_city":"ﾉﾉｲﾁｼ","kana_address":"ﾐｯｶｲﾁﾏﾁ","pref":"石川県","city":"野々市市","address":"三日市町"},
{"zip_code":"9218848","kana_pref":"ｲｼｶﾜｹﾝ","kana_city":"ﾉﾉｲﾁｼ","kana_address":"ﾔﾅｷﾞﾏﾁ","pref":"石川県","city":"野々市市","address":"柳町"},
{"zip_code":"9218822","kana_pref":"ｲｼｶﾜｹﾝ","kana_city":"ﾉﾉｲﾁｼ","kana_address":"ﾔﾊｷﾞ","pref":"石川県","city":"野々市市","address":"矢作"},
{"zip_code":"9218817","kana_pref":"ｲｼｶﾜｹﾝ","kana_city":"ﾉﾉｲﾁｼ","kana_address":"ﾖｺﾐﾔﾏﾁ","pref":"石川県","city":"野々市市","address":"横宮町"},
{"zip_code":"9218847","kana_pref":"ｲｼｶﾜｹﾝ","kana_city":"ﾉﾉｲﾁｼ","kana_address":"ﾚﾝｹﾞｼﾞﾏﾁ","pref":"石川県","city":"野々市市","address":"蓮花寺町"},
{"zip_code":"9218816","kana_pref":"ｲｼｶﾜｹﾝ","kana_city":"ﾉﾉｲﾁｼ","kana_address":"ﾜｶﾏﾂﾏﾁ","pref":"石川県","city":"野々市市","address":"若松町"}]}