{"zip_code":[
{"zip_code":"9220000","kana_pref":"ｲｼｶﾜｹﾝ","kana_city":"ｶｶﾞｼ","kana_address":"","pref":"石川県","city":"加賀市","address":""},
{"zip_code":"9220337","kana_pref":"ｲｼｶﾜｹﾝ","kana_city":"ｶｶﾞｼ","kana_address":"ｱｲｶﾜﾏﾁ","pref":"石川県","city":"加賀市","address":"合河町"},
{"zip_code":"9220278","kana_pref":"ｲｼｶﾜｹﾝ","kana_city":"ｶｶﾞｼ","kana_address":"ｱﾗｷﾏﾁ","pref":"石川県","city":"加賀市","address":"荒木町"},
{"zip_code":"9220406","kana_pref":"ｲｼｶﾜｹﾝ","kana_city":"ｶｶﾞｼ","kana_address":"ｲｷﾘﾏﾁ","pref":"石川県","city":"加賀市","address":"伊切町"},
{"zip_code":"9220403","kana_pref":"ｲｼｶﾜｹﾝ","kana_city":"ｶｶﾞｼ","kana_address":"ｲｯﾊﾟｸﾏﾁ","pref":"石川県","city":"加賀市","address":"一白町"},
{"zip_code":"9220331","kana_pref":"ｲｼｶﾜｹﾝ","kana_city":"ｶｶﾞｼ","kana_address":"ｲﾌﾞﾘﾊｼﾏﾁ","pref":"石川県","city":"加賀市","address":"動橋町"},
{"zip_code":"9220411","kana_pref":"ｲｼｶﾜｹﾝ","kana_city":"ｶｶﾞｼ","kana_address":"ｳｼｵﾂﾞﾏﾁ","pref":"石川県","city":"加賀市","address":"潮津町"},
{"zip_code":"9220312","kana_pref":"ｲｼｶﾜｹﾝ","kana_city":"ｶｶﾞｼ","kana_address":"ｳﾀﾞﾆﾏﾁ","pref":"石川県","city":"加賀市","address":"宇谷町"},
{"zip_code":"9220302","kana_pref":"ｲｼｶﾜｹﾝ","kana_city":"ｶｶﾞｼ","kana_address":"ｳﾁｺｼﾏﾁ","pref":"石川県","city":"加賀市","address":"打越町"},
{"zip_code":"9220222","kana_pref":"ｲｼｶﾜｹﾝ","kana_city":"ｶｶﾞｼ","kana_address":"ｳﾜﾉﾏﾁ","pref":"石川県","city":"加賀市","address":"上野町"},
{"zip_code":"9220322","kana_pref":"ｲｼｶﾜｹﾝ","kana_city":"ｶｶﾞｼ","kana_address":"ｳﾜﾉﾏﾁ","pref":"石川県","city":"加賀市","address":"上野町"},
{"zip_code":"9220425","kana_pref":"ｲｼｶﾜｹﾝ","kana_city":"ｶｶﾞｼ","kana_address":"ｵｵｽｶﾞﾅﾐﾏﾁ","pref":"石川県","city":"加賀市","address":"大菅波町"},
{"zip_code":"9220856","kana_pref":"ｲｼｶﾜｹﾝ","kana_city":"ｶｶﾞｼ","kana_address":"ｵｸﾉﾔﾏﾁ","pref":"石川県","city":"加賀市","address":"奥谷町"},
{"zip_code":"9220445","kana_pref":"ｲｼｶﾜｹﾝ","kana_city":"ｶｶﾞｼ","kana_address":"ｵｼｵﾂｼﾞﾏﾁ","pref":"石川県","city":"加賀市","address":"小塩辻町"},
{"zip_code":"9220553","kana_pref":"ｲｼｶﾜｹﾝ","kana_city":"ｶｶﾞｼ","kana_address":"ｵｼｵﾏﾁ","pref":"石川県","city":"加賀市","address":"小塩町"},
{"zip_code":"9220428","kana_pref":"ｲｼｶﾜｹﾝ","kana_city":"ｶｶﾞｼ","kana_address":"ｵﾁｭｳﾏﾁ","pref":"石川県","city":"加賀市","address":"尾中町"},
{"zip_code":"9220271","kana_pref":"ｲｼｶﾜｹﾝ","kana_city":"ｶｶﾞｼ","kana_address":"ｵﾏﾀﾏﾁ","pref":"石川県","city":"加賀市","address":"尾俣町"},
{"zip_code":"9220272","kana_pref":"ｲｼｶﾜｹﾝ","kana_city":"ｶｶﾞｼ","kana_address":"ｵﾏﾀﾏﾁ","pref":"石川県","city":"加賀市","address":"尾俣町"},
{"zip_code":"9220262","kana_pref":"ｲｼｶﾜｹﾝ","kana_city":"ｶｶﾞｼ","kana_address":"ｶｼﾜﾉﾏﾁ","pref":"石川県","city":"加賀市","address":"柏野町"},
{"zip_code":"9220305","kana_pref":"ｲｼｶﾜｹﾝ","kana_city":"ｶｶﾞｼ","kana_address":"ｶｼﾞｲﾏﾁ","pref":"石川県","city":"加賀市","address":"梶井町"},
{"zip_code":"9220564","kana_pref":"ｲｼｶﾜｹﾝ","kana_city":"ｶｶﾞｼ","kana_address":"ｶﾀﾉﾏﾁ","pref":"石川県","city":"加賀市","address":"片野町"},
{"zip_code":"9220412","kana_pref":"ｲｼｶﾜｹﾝ","kana_city":"ｶｶﾞｼ","kana_address":"ｶﾀﾔﾏﾂﾞｵﾝｾﾝ","pref":"石川県","city":"加賀市","address":"片山津温泉"},
{"zip_code":"9220414","kana_pref":"ｲｼｶﾜｹﾝ","kana_city":"ｶｶﾞｼ","kana_address":"ｶﾀﾔﾏﾂﾞﾏﾁ","pref":"石川県","city":"加賀市","address":"片山津町"},
{"zip_code":"9220273","kana_pref":"ｲｼｶﾜｹﾝ","kana_city":"ｶｶﾞｼ","kana_address":"ｶﾂﾗﾀﾆﾏﾁ","pref":"石川県","city":"加賀市","address":"桂谷町"},
{"zip_code":"9220013","kana_pref":"ｲｼｶﾜｹﾝ","kana_city":"ｶｶﾞｼ","kana_address":"ｶﾐｶﾜｻｷﾏﾁ","pref":"石川県","city":"加賀市","address":"上河崎町"},
{"zip_code":"9220241","kana_pref":"ｲｼｶﾜｹﾝ","kana_city":"ｶｶﾞｼ","kana_address":"ｶﾓﾏﾁ","pref":"石川県","city":"加賀市","address":"加茂町"},
{"zip_code":"9220277","kana_pref":"ｲｼｶﾜｹﾝ","kana_city":"ｶｶﾞｼ","kana_address":"ｶﾜﾐﾅﾐﾏﾁ","pref":"石川県","city":"加賀市","address":"河南町"},
{"zip_code":"9220276","kana_pref":"ｲｼｶﾜｹﾝ","kana_city":"ｶｶﾞｼ","kana_address":"ｶﾜﾐﾅﾐﾏﾁ","pref":"石川県","city":"加賀市","address":"河南町"},
{"zip_code":"9220314","kana_pref":"ｲｼｶﾜｹﾝ","kana_city":"ｶｶﾞｼ","kana_address":"ｶﾜﾗﾏﾁ","pref":"石川県","city":"加賀市","address":"河原町"},
{"zip_code":"9220307","kana_pref":"ｲｼｶﾜｹﾝ","kana_city":"ｶｶﾞｼ","kana_address":"ｶﾝﾀｸﾁｮｳ","pref":"石川県","city":"加賀市","address":"干拓町"},
{"zip_code":"9220434","kana_pref":"ｲｼｶﾜｹﾝ","kana_city":"ｶｶﾞｼ","kana_address":"ｷﾀﾔﾏﾀﾞﾏﾁ","pref":"石川県","city":"加賀市","address":"北山田町"},
{"zip_code":"9220435","kana_pref":"ｲｼｶﾜｹﾝ","kana_city":"ｶｶﾞｼ","kana_address":"ｷﾎﾞｳｶﾞｵｶ","pref":"石川県","city":"加賀市","address":"希望が丘"},
{"zip_code":"9220842","kana_pref":"ｲｼｶﾜｹﾝ","kana_city":"ｶｶﾞｼ","kana_address":"ｸﾏｻｶﾏﾁ","pref":"石川県","city":"加賀市","address":"熊坂町"},
{"zip_code":"9220565","kana_pref":"ｲｼｶﾜｹﾝ","kana_city":"ｶｶﾞｼ","kana_address":"ｸﾛｻｷﾏﾁ","pref":"石川県","city":"加賀市","address":"黒崎町"},
{"zip_code":"9220823","kana_pref":"ｲｼｶﾜｹﾝ","kana_city":"ｶｶﾞｼ","kana_address":"ｸﾛｾﾏﾁ","pref":"石川県","city":"加賀市","address":"黒瀬町"},
{"zip_code":"9220326","kana_pref":"ｲｼｶﾜｹﾝ","kana_city":"ｶｶﾞｼ","kana_address":"ｸﾜﾊﾞﾗﾏﾁ","pref":"石川県","city":"加賀市","address":"桑原町"},
{"zip_code":"9220404","kana_pref":"ｲｼｶﾜｹﾝ","kana_city":"ｶｶﾞｼ","kana_address":"ｹﾞﾝﾍﾟｲﾏﾁ","pref":"石川県","city":"加賀市","address":"源平町"},
{"zip_code":"9220266","kana_pref":"ｲｼｶﾜｹﾝ","kana_city":"ｶｶﾞｼ","kana_address":"ｺｻｶﾏﾁ","pref":"石川県","city":"加賀市","address":"小坂町"},
{"zip_code":"9220413","kana_pref":"ｲｼｶﾜｹﾝ","kana_city":"ｶｶﾞｼ","kana_address":"ｺｼﾞｮｳﾏﾁ","pref":"石川県","city":"加賀市","address":"湖城町"},
{"zip_code":"9220424","kana_pref":"ｲｼｶﾜｹﾝ","kana_city":"ｶｶﾞｼ","kana_address":"ｺｽｶﾞﾅﾐﾏﾁ","pref":"石川県","city":"加賀市","address":"小菅波町"},
{"zip_code":"9220831","kana_pref":"ｲｼｶﾜｹﾝ","kana_city":"ｶｶﾞｼ","kana_address":"ｻｲﾜｲﾏﾁ","pref":"石川県","city":"加賀市","address":"幸町"},
{"zip_code":"9220311","kana_pref":"ｲｼｶﾜｹﾝ","kana_city":"ｶｶﾞｼ","kana_address":"ｻｶｴﾀﾞﾆﾏﾁ","pref":"石川県","city":"加賀市","address":"栄谷町"},
{"zip_code":"9220423","kana_pref":"ｲｼｶﾜｹﾝ","kana_city":"ｶｶﾞｼ","kana_address":"ｻｸﾐﾏﾁ","pref":"石川県","city":"加賀市","address":"作見町"},
{"zip_code":"9220446","kana_pref":"ｲｼｶﾜｹﾝ","kana_city":"ｶｶﾞｼ","kana_address":"ｼｵﾊﾏﾏﾁ","pref":"石川県","city":"加賀市","address":"塩浜町"},
{"zip_code":"9220673","kana_pref":"ｲｼｶﾜｹﾝ","kana_city":"ｶｶﾞｼ","kana_address":"ｼｵﾔﾏﾁ","pref":"石川県","city":"加賀市","address":"塩屋町"},
{"zip_code":"9220441","kana_pref":"ｲｼｶﾜｹﾝ","kana_city":"ｶｶﾞｼ","kana_address":"ｼﾉﾊﾗｼﾝﾏﾁ","pref":"石川県","city":"加賀市","address":"篠原新町"},
{"zip_code":"9220442","kana_pref":"ｲｼｶﾜｹﾝ","kana_city":"ｶｶﾞｼ","kana_address":"ｼﾉﾊﾗﾏﾁ","pref":"石川県","city":"加賀市","address":"篠原町"},
{"zip_code":"9220402","kana_pref":"ｲｼｶﾜｹﾝ","kana_city":"ｶｶﾞｼ","kana_address":"ｼﾊﾞﾔﾏﾏﾁ","pref":"石川県","city":"加賀市","address":"柴山町"},
{"zip_code":"9220315","kana_pref":"ｲｼｶﾜｹﾝ","kana_city":"ｶｶﾞｼ","kana_address":"ｼﾐｽﾞﾏﾁ","pref":"石川県","city":"加賀市","address":"清水町"},
{"zip_code":"9220012","kana_pref":"ｲｼｶﾜｹﾝ","kana_city":"ｶｶﾞｼ","kana_address":"ｼﾓｶﾜｻｷﾏﾁ","pref":"石川県","city":"加賀市","address":"下河崎町"},
{"zip_code":"9220332","kana_pref":"ｲｼｶﾜｹﾝ","kana_city":"ｶｶﾞｼ","kana_address":"ｼｮｳﾏﾁ","pref":"石川県","city":"加賀市","address":"庄町"},
{"zip_code":"9220836","kana_pref":"ｲｼｶﾜｹﾝ","kana_city":"ｶｶﾞｼ","kana_address":"ｼﾗﾄﾘﾏﾁ","pref":"石川県","city":"加賀市","address":"白鳥町"},
{"zip_code":"9220401","kana_pref":"ｲｼｶﾜｹﾝ","kana_city":"ｶｶﾞｼ","kana_address":"ｼﾝﾎﾞﾏﾁ","pref":"石川県","city":"加賀市","address":"新保町"},
{"zip_code":"9220822","kana_pref":"ｲｼｶﾜｹﾝ","kana_city":"ｶｶﾞｼ","kana_address":"ｽｲｻｶﾏﾁ","pref":"石川県","city":"加賀市","address":"吸坂町"},
{"zip_code":"9220264","kana_pref":"ｲｼｶﾜｹﾝ","kana_city":"ｶｶﾞｼ","kana_address":"ｽﾀﾞﾆﾏﾁ","pref":"石川県","city":"加賀市","address":"須谷町"},
{"zip_code":"9220833","kana_pref":"ｲｼｶﾜｹﾝ","kana_city":"ｶｶﾞｼ","kana_address":"ｿｳﾏﾁ","pref":"石川県","city":"加賀市","address":"曾宇町"},
{"zip_code":"9220825","kana_pref":"ｲｼｶﾜｹﾝ","kana_city":"ｶｶﾞｼ","kana_address":"ｿｿﾘﾏﾁ","pref":"石川県","city":"加賀市","address":"直下町"},
{"zip_code":"9220061","kana_pref":"ｲｼｶﾜｹﾝ","kana_city":"ｶｶﾞｼ","kana_address":"ﾀﾞｲｼｮｳｼﾞｱｲｵｲﾁｮｳ","pref":"石川県","city":"加賀市","address":"大聖寺相生町"},
{"zip_code":"9220022","kana_pref":"ｲｼｶﾜｹﾝ","kana_city":"ｶｶﾞｼ","kana_address":"ﾀﾞｲｼｮｳｼﾞｱｹﾎﾞﾉﾁｮｳ","pref":"石川県","city":"加賀市","address":"大聖寺曙町"},
{"zip_code":"9220028","kana_pref":"ｲｼｶﾜｹﾝ","kana_city":"ｶｶﾞｼ","kana_address":"ﾀﾞｲｼｮｳｼﾞｱｻﾊﾞﾀｹﾏﾁ","pref":"石川県","city":"加賀市","address":"大聖寺麻畠町"},
{"zip_code":"9220004","kana_pref":"ｲｼｶﾜｹﾝ","kana_city":"ｶｶﾞｼ","kana_address":"ﾀﾞｲｼｮｳｼﾞｱｻﾋﾏﾁ","pref":"石川県","city":"加賀市","address":"大聖寺朝日町"},
{"zip_code":"9220034","kana_pref":"ｲｼｶﾜｹﾝ","kana_city":"ｶｶﾞｼ","kana_address":"ﾀﾞｲｼｮｳｼﾞｱﾗﾏﾁ","pref":"石川県","city":"加賀市","address":"大聖寺荒町"},
{"zip_code":"9220036","kana_pref":"ｲｼｶﾜｹﾝ","kana_city":"ｶｶﾞｼ","kana_address":"ﾀﾞｲｼｮｳｼﾞｲｯﾎﾟﾝﾊﾞｼﾏﾁ","pref":"石川県","city":"加賀市","address":"大聖寺一本橋町"},
{"zip_code":"9220863","kana_pref":"ｲｼｶﾜｹﾝ","kana_city":"ｶｶﾞｼ","kana_address":"ﾀﾞｲｼｮｳｼﾞｲﾏﾃﾞﾏﾁ","pref":"石川県","city":"加賀市","address":"大聖寺今出町"},
{"zip_code":"9220042","kana_pref":"ｲｼｶﾜｹﾝ","kana_city":"ｶｶﾞｼ","kana_address":"ﾀﾞｲｼｮｳｼﾞｳｵﾏﾁ","pref":"石川県","city":"加賀市","address":"大聖寺魚町"},
{"zip_code":"9220001","kana_pref":"ｲｼｶﾜｹﾝ","kana_city":"ｶｶﾞｼ","kana_address":"ﾀﾞｲｼｮｳｼﾞｳﾜｷﾞﾏﾁ","pref":"石川県","city":"加賀市","address":"大聖寺上木町"},
{"zip_code":"9220802","kana_pref":"ｲｼｶﾜｹﾝ","kana_city":"ｶｶﾞｼ","kana_address":"ﾀﾞｲｼｮｳｼﾞｴﾁｾﾞﾝﾏﾁ","pref":"石川県","city":"加賀市","address":"大聖寺越前町"},
{"zip_code":"9220803","kana_pref":"ｲｼｶﾜｹﾝ","kana_city":"ｶｶﾞｼ","kana_address":"ﾀﾞｲｼｮｳｼﾞｴﾁｾﾞﾝﾐﾂﾔﾏﾁ","pref":"石川県","city":"加賀市","address":"大聖寺越前三ツ屋町"},
{"zip_code":"9220806","kana_pref":"ｲｼｶﾜｹﾝ","kana_city":"ｶｶﾞｼ","kana_address":"ﾀﾞｲｼｮｳｼﾞｵｵｼﾝﾐﾁ","pref":"石川県","city":"加賀市","address":"大聖寺大新道"},
{"zip_code":"9220005","kana_pref":"ｲｼｶﾜｹﾝ","kana_city":"ｶｶﾞｼ","kana_address":"ﾀﾞｲｼｮｳｼﾞｵｶﾏﾁ","pref":"石川県","city":"加賀市","address":"大聖寺岡町"},
{"zip_code":"9220003","kana_pref":"ｲｼｶﾜｹﾝ","kana_city":"ｶｶﾞｼ","kana_address":"ﾀﾞｲｼｮｳｼﾞｵｷﾞｭｳﾏﾁ","pref":"石川県","city":"加賀市","address":"大聖寺荻生町"},
{"zip_code":"9220037","kana_pref":"ｲｼｶﾜｹﾝ","kana_city":"ｶｶﾞｼ","kana_address":"ﾀﾞｲｼｮｳｼﾞｶｼﾞﾏﾁ","pref":"石川県","city":"加賀市","address":"大聖寺鍛冶町"},
{"zip_code":"9220011","kana_pref":"ｲｼｶﾜｹﾝ","kana_city":"ｶｶﾞｼ","kana_address":"ﾀﾞｲｼｮｳｼﾞｶｽｶﾞﾁｮｳ","pref":"石川県","city":"加賀市","address":"大聖寺春日町"},
{"zip_code":"9220056","kana_pref":"ｲｼｶﾜｹﾝ","kana_city":"ｶｶﾞｼ","kana_address":"ﾀﾞｲｼｮｳｼﾞｶﾀﾊﾗﾏﾁ","pref":"石川県","city":"加賀市","address":"大聖寺片原町"},
{"zip_code":"9220032","kana_pref":"ｲｼｶﾜｹﾝ","kana_city":"ｶｶﾞｼ","kana_address":"ﾀﾞｲｼｮｳｼﾞｶﾈｺﾏﾁ","pref":"石川県","city":"加賀市","address":"大聖寺金子町"},
{"zip_code":"9220004","kana_pref":"ｲｼｶﾜｹﾝ","kana_city":"ｶｶﾞｼ","kana_address":"ﾀﾞｲｼｮｳｼﾞｶﾐﾌｸﾀﾞﾏﾁ","pref":"石川県","city":"加賀市","address":"大聖寺上福田町"},
{"zip_code":"9220046","kana_pref":"ｲｼｶﾜｹﾝ","kana_city":"ｶｶﾞｼ","kana_address":"ﾀﾞｲｼｮｳｼﾞｶﾝﾉﾝﾏﾁ","pref":"石川県","city":"加賀市","address":"大聖寺観音町"},
{"zip_code":"9220026","kana_pref":"ｲｼｶﾜｹﾝ","kana_city":"ｶｶﾞｼ","kana_address":"ﾀﾞｲｼｮｳｼﾞｶﾞﾒﾁｮｳ","pref":"石川県","city":"加賀市","address":"大聖寺亀町"},
{"zip_code":"9220064","kana_pref":"ｲｼｶﾜｹﾝ","kana_city":"ｶｶﾞｼ","kana_address":"ﾀﾞｲｼｮｳｼﾞｷﾀｶﾀﾊﾗﾏﾁ","pref":"石川県","city":"加賀市","address":"大聖寺北片原町"},
{"zip_code":"9220055","kana_pref":"ｲｼｶﾜｹﾝ","kana_city":"ｶｶﾞｼ","kana_address":"ﾀﾞｲｼｮｳｼﾞｷｮｳﾏﾁ","pref":"石川県","city":"加賀市","address":"大聖寺京町"},
{"zip_code":"9220851","kana_pref":"ｲｼｶﾜｹﾝ","kana_city":"ｶｶﾞｼ","kana_address":"ﾀﾞｲｼｮｳｼﾞｷﾝｼﾞｮｳｶﾞｵｶ","pref":"石川県","city":"加賀市","address":"大聖寺錦城ケ丘"},
{"zip_code":"9220031","kana_pref":"ｲｼｶﾜｹﾝ","kana_city":"ｶｶﾞｼ","kana_address":"ﾀﾞｲｼｮｳｼﾞｺﾛﾊﾞﾏﾁ","pref":"石川県","city":"加賀市","address":"大聖寺木呂場町"},
{"zip_code":"9220043","kana_pref":"ｲｼｶﾜｹﾝ","kana_city":"ｶｶﾞｼ","kana_address":"ﾀﾞｲｼｮｳｼﾞｺﾞｹﾝﾁｮｳ","pref":"石川県","city":"加賀市","address":"大聖寺五軒町"},
{"zip_code":"9220011","kana_pref":"ｲｼｶﾜｹﾝ","kana_city":"ｶｶﾞｼ","kana_address":"ﾀﾞｲｼｮｳｼﾞｼｷｼﾞ","pref":"石川県","city":"加賀市","address":"大聖寺敷地"},
{"zip_code":"9220841","kana_pref":"ｲｼｶﾜｹﾝ","kana_city":"ｶｶﾞｼ","kana_address":"ﾀﾞｲｼｮｳｼﾞｼﾀﾔｼｷﾏﾁ","pref":"石川県","city":"加賀市","address":"大聖寺下屋敷町"},
{"zip_code":"9220002","kana_pref":"ｲｼｶﾜｹﾝ","kana_city":"ｶｶﾞｼ","kana_address":"ﾀﾞｲｼｮｳｼﾞｼﾓﾌｸﾀﾞﾏﾁ","pref":"石川県","city":"加賀市","address":"大聖寺下福田町"},
{"zip_code":"9220004","kana_pref":"ｲｼｶﾜｹﾝ","kana_city":"ｶｶﾞｼ","kana_address":"ﾀﾞｲｼｮｳｼﾞｼﾝｶﾜﾏﾁ","pref":"石川県","city":"加賀市","address":"大聖寺新川町"},
{"zip_code":"9220065","kana_pref":"ｲｼｶﾜｹﾝ","kana_city":"ｶｶﾞｼ","kana_address":"ﾀﾞｲｼｮｳｼﾞｼﾝｷﾖｳﾏﾁ","pref":"石川県","city":"加賀市","address":"大聖寺新旗陽町"},
{"zip_code":"9220068","kana_pref":"ｲｼｶﾜｹﾝ","kana_city":"ｶｶﾞｼ","kana_address":"ﾀﾞｲｼｮｳｼﾞｼﾝｸﾐﾁｮｳ","pref":"石川県","city":"加賀市","address":"大聖寺新組町"},
{"zip_code":"9220021","kana_pref":"ｲｼｶﾜｹﾝ","kana_city":"ｶｶﾞｼ","kana_address":"ﾀﾞｲｼｮｳｼﾞｼﾝｻｶｴﾏﾁ","pref":"石川県","city":"加賀市","address":"大聖寺新栄町"},
{"zip_code":"9220063","kana_pref":"ｲｼｶﾜｹﾝ","kana_city":"ｶｶﾞｼ","kana_address":"ﾀﾞｲｼｮｳｼﾞｼﾝﾁｮｳ","pref":"石川県","city":"加賀市","address":"大聖寺新町"},
{"zip_code":"9220807","kana_pref":"ｲｼｶﾜｹﾝ","kana_city":"ｶｶﾞｼ","kana_address":"ﾀﾞｲｼｮｳｼﾞｼﾝﾒｲﾁｮｳ","pref":"石川県","city":"加賀市","address":"大聖寺神明町"},
{"zip_code":"9220805","kana_pref":"ｲｼｶﾜｹﾝ","kana_city":"ｶｶﾞｼ","kana_address":"ﾀﾞｲｼｮｳｼﾞｼﾝﾔｼｷﾏﾁ","pref":"石川県","city":"加賀市","address":"大聖寺新屋敷町"},
{"zip_code":"9220861","kana_pref":"ｲｼｶﾜｹﾝ","kana_city":"ｶｶﾞｼ","kana_address":"ﾀﾞｲｼｮｳｼﾞｼﾞｶﾀﾏﾁ","pref":"石川県","city":"加賀市","address":"大聖寺地方町"},
{"zip_code":"9220045","kana_pref":"ｲｼｶﾜｹﾝ","kana_city":"ｶｶﾞｼ","kana_address":"ﾀﾞｲｼｮｳｼﾞｼﾞｭｳｲﾁﾏﾁ","pref":"石川県","city":"加賀市","address":"大聖寺十一町"},
{"zip_code":"9220815","kana_pref":"ｲｼｶﾜｹﾝ","kana_city":"ｶｶﾞｼ","kana_address":"ﾀﾞｲｼｮｳｼﾞｽｺﾞｳ","pref":"石川県","city":"加賀市","address":"大聖寺菅生"},
{"zip_code":"9220814","kana_pref":"ｲｼｶﾜｹﾝ","kana_city":"ｶｶﾞｼ","kana_address":"ﾀﾞｲｼｮｳｼﾞｽｺﾞｳﾏﾁ","pref":"石川県","city":"加賀市","address":"大聖寺菅生町"},
{"zip_code":"9220801","kana_pref":"ｲｼｶﾜｹﾝ","kana_city":"ｶｶﾞｼ","kana_address":"ﾀﾞｲｼｮｳｼﾞｾｷﾏﾁ","pref":"石川県","city":"加賀市","address":"大聖寺関町"},
{"zip_code":"9220671","kana_pref":"ｲｼｶﾜｹﾝ","kana_city":"ｶｶﾞｼ","kana_address":"ﾀﾞｲｼｮｳｼﾞｾｺﾞｴﾏﾁ","pref":"石川県","city":"加賀市","address":"大聖寺瀬越町"},
{"zip_code":"9220053","kana_pref":"ｲｼｶﾜｹﾝ","kana_city":"ｶｶﾞｼ","kana_address":"ﾀﾞｲｼｮｳｼﾞﾀｶｼﾞｮｳﾏﾁ","pref":"石川県","city":"加賀市","address":"大聖寺鷹匠町"},
{"zip_code":"9220812","kana_pref":"ｲｼｶﾜｹﾝ","kana_city":"ｶｶﾞｼ","kana_address":"ﾀﾞｲｼｮｳｼﾞﾀﾜﾗﾏﾁ","pref":"石川県","city":"加賀市","address":"大聖寺田原町"},
{"zip_code":"9220023","kana_pref":"ｲｼｶﾜｹﾝ","kana_city":"ｶｶﾞｼ","kana_address":"ﾀﾞｲｼｮｳｼﾞﾀﾞｲﾐｮｳﾀﾞｹﾏﾁ","pref":"石川県","city":"加賀市","address":"大聖寺大名竹町"},
{"zip_code":"9220035","kana_pref":"ｲｼｶﾜｹﾝ","kana_city":"ｶｶﾞｼ","kana_address":"ﾀﾞｲｼｮｳｼﾞﾃｯﾎﾟｳﾏﾁ","pref":"石川県","city":"加賀市","address":"大聖寺鉄砲町"},
{"zip_code":"9220054","kana_pref":"ｲｼｶﾜｹﾝ","kana_city":"ｶｶﾞｼ","kana_address":"ﾀﾞｲｼｮｳｼﾞﾃﾗﾏﾁ","pref":"石川県","city":"加賀市","address":"大聖寺寺町"},
{"zip_code":"9220007","kana_pref":"ｲｼｶﾜｹﾝ","kana_city":"ｶｶﾞｼ","kana_address":"ﾀﾞｲｼｮｳｼﾞﾃﾝｼﾞﾝｼﾀﾏﾁ","pref":"石川県","city":"加賀市","address":"大聖寺天神下町"},
{"zip_code":"9220066","kana_pref":"ｲｼｶﾜｹﾝ","kana_city":"ｶｶﾞｼ","kana_address":"ﾀﾞｲｼｮｳｼﾞﾄﾉﾏﾁ","pref":"石川県","city":"加賀市","address":"大聖寺殿町"},
{"zip_code":"9220804","kana_pref":"ｲｼｶﾜｹﾝ","kana_city":"ｶｶﾞｼ","kana_address":"ﾀﾞｲｼｮｳｼﾞﾅｶｼﾝﾐﾁ","pref":"石川県","city":"加賀市","address":"大聖寺中新道"},
{"zip_code":"9220051","kana_pref":"ｲｼｶﾜｹﾝ","kana_city":"ｶｶﾞｼ","kana_address":"ﾀﾞｲｼｮｳｼﾞﾅｶﾁｮｳ","pref":"石川県","city":"加賀市","address":"大聖寺仲町"},
{"zip_code":"9220047","kana_pref":"ｲｼｶﾜｹﾝ","kana_city":"ｶｶﾞｼ","kana_address":"ﾀﾞｲｼｮｳｼﾞﾅｶﾏﾁ","pref":"石川県","city":"加賀市","address":"大聖寺中町"},
{"zip_code":"9220024","kana_pref":"ｲｼｶﾜｹﾝ","kana_city":"ｶｶﾞｼ","kana_address":"ﾀﾞｲｼｮｳｼﾞﾅｶﾞﾏﾁ","pref":"石川県","city":"加賀市","address":"大聖寺永町"},
{"zip_code":"9220862","kana_pref":"ｲｼｶﾜｹﾝ","kana_city":"ｶｶﾞｼ","kana_address":"ﾀﾞｲｼｮｳｼﾞﾆｼｷﾁｮｳ","pref":"石川県","city":"加賀市","address":"大聖寺錦町"},
{"zip_code":"9220864","kana_pref":"ｲｼｶﾜｹﾝ","kana_city":"ｶｶﾞｼ","kana_address":"ﾀﾞｲｼｮｳｼﾞﾆｼｻｶｴﾏﾁ","pref":"石川県","city":"加賀市","address":"大聖寺西栄町"},
{"zip_code":"9220865","kana_pref":"ｲｼｶﾜｹﾝ","kana_city":"ｶｶﾞｼ","kana_address":"ﾀﾞｲｼｮｳｼﾞﾆｼﾁｮｳ","pref":"石川県","city":"加賀市","address":"大聖寺西町"},
{"zip_code":"9220004","kana_pref":"ｲｼｶﾜｹﾝ","kana_city":"ｶｶﾞｼ","kana_address":"ﾀﾞｲｼｮｳｼﾞﾊﾀﾏﾁ","pref":"石川県","city":"加賀市","address":"大聖寺畑町"},
{"zip_code":"9220004","kana_pref":"ｲｼｶﾜｹﾝ","kana_city":"ｶｶﾞｼ","kana_address":"ﾀﾞｲｼｮｳｼﾞﾊﾀﾔﾏﾏﾁ","pref":"石川県","city":"加賀市","address":"大聖寺畑山町"},
{"zip_code":"9220057","kana_pref":"ｲｼｶﾜｹﾝ","kana_city":"ｶｶﾞｼ","kana_address":"ﾀﾞｲｼｮｳｼﾞﾊﾁｹﾝﾐﾁ","pref":"石川県","city":"加賀市","address":"大聖寺八間道"},
{"zip_code":"9220048","kana_pref":"ｲｼｶﾜｹﾝ","kana_city":"ｶｶﾞｼ","kana_address":"ﾀﾞｲｼｮｳｼﾞﾊﾞﾊﾞﾏﾁ","pref":"石川県","city":"加賀市","address":"大聖寺馬場町"},
{"zip_code":"9220067","kana_pref":"ｲｼｶﾜｹﾝ","kana_city":"ｶｶﾞｼ","kana_address":"ﾀﾞｲｼｮｳｼﾞﾊﾞﾝﾊﾞﾁｮｳ","pref":"石川県","city":"加賀市","address":"大聖寺番場町"},
{"zip_code":"9220011","kana_pref":"ｲｼｶﾜｹﾝ","kana_city":"ｶｶﾞｼ","kana_address":"ﾀﾞｲｼｮｳｼﾞﾋｶﾞｼｼｷｼﾞﾏﾁ","pref":"石川県","city":"加賀市","address":"大聖寺東敷地町"},
{"zip_code":"9220816","kana_pref":"ｲｼｶﾜｹﾝ","kana_city":"ｶｶﾞｼ","kana_address":"ﾀﾞｲｼｮｳｼﾞﾋｶﾞｼﾁｮｳ","pref":"石川県","city":"加賀市","address":"大聖寺東町"},
{"zip_code":"9220044","kana_pref":"ｲｼｶﾜｹﾝ","kana_city":"ｶｶﾞｼ","kana_address":"ﾀﾞｲｼｮｳｼﾞﾋｶﾞｼﾖｺﾏﾁ","pref":"石川県","city":"加賀市","address":"大聖寺東横町"},
{"zip_code":"9220011","kana_pref":"ｲｼｶﾜｹﾝ","kana_city":"ｶｶﾞｼ","kana_address":"ﾀﾞｲｼｮｳｼﾞﾋﾗﾄｺ","pref":"石川県","city":"加賀市","address":"大聖寺平床"},
{"zip_code":"9220052","kana_pref":"ｲｼｶﾜｹﾝ","kana_city":"ｶｶﾞｼ","kana_address":"ﾀﾞｲｼｮｳｼﾞﾌｸﾀﾞﾏﾁ","pref":"石川県","city":"加賀市","address":"大聖寺福田町"},
{"zip_code":"9220006","kana_pref":"ｲｼｶﾜｹﾝ","kana_city":"ｶｶﾞｼ","kana_address":"ﾀﾞｲｼｮｳｼﾞﾌｼﾞﾉｷﾏﾁ","pref":"石川県","city":"加賀市","address":"大聖寺藤ノ木町"},
{"zip_code":"9220033","kana_pref":"ｲｼｶﾜｹﾝ","kana_city":"ｶｶﾞｼ","kana_address":"ﾀﾞｲｼｮｳｼﾞﾎｯｹﾎﾞｳﾏﾁ","pref":"石川県","city":"加賀市","address":"大聖寺法華坊町"},
{"zip_code":"9220041","kana_pref":"ｲｼｶﾜｹﾝ","kana_city":"ｶｶﾞｼ","kana_address":"ﾀﾞｲｼｮｳｼﾞﾎﾝﾏﾁ","pref":"石川県","city":"加賀市","address":"大聖寺本町"},
{"zip_code":"9220062","kana_pref":"ｲｼｶﾜｹﾝ","kana_city":"ｶｶﾞｼ","kana_address":"ﾀﾞｲｼｮｳｼﾞﾏﾂｶﾞﾈﾁｮｳ","pref":"石川県","city":"加賀市","address":"大聖寺松ケ根町"},
{"zip_code":"9220004","kana_pref":"ｲｼｶﾜｹﾝ","kana_city":"ｶｶﾞｼ","kana_address":"ﾀﾞｲｼｮｳｼﾞﾏﾂｼﾏﾏﾁ","pref":"石川県","city":"加賀市","address":"大聖寺松島町"},
{"zip_code":"9220853","kana_pref":"ｲｼｶﾜｹﾝ","kana_city":"ｶｶﾞｼ","kana_address":"ﾀﾞｲｼｮｳｼﾞﾐﾂﾏﾁ","pref":"石川県","city":"加賀市","address":"大聖寺三ツ町"},
{"zip_code":"9220803","kana_pref":"ｲｼｶﾜｹﾝ","kana_city":"ｶｶﾞｼ","kana_address":"ﾀﾞｲｼｮｳｼﾞﾐﾂﾔﾏﾁ","pref":"石川県","city":"加賀市","address":"大聖寺三ツ屋町"},
{"zip_code":"9220852","kana_pref":"ｲｼｶﾜｹﾝ","kana_city":"ｶｶﾞｼ","kana_address":"ﾀﾞｲｼｮｳｼﾞﾐﾄﾞﾘｶﾞｵｶ","pref":"石川県","city":"加賀市","address":"大聖寺緑ケ丘"},
{"zip_code":"9220811","kana_pref":"ｲｼｶﾜｹﾝ","kana_city":"ｶｶﾞｼ","kana_address":"ﾀﾞｲｼｮｳｼﾞﾐﾅﾐﾁｮｳ","pref":"石川県","city":"加賀市","address":"大聖寺南町"},
{"zip_code":"9220025","kana_pref":"ｲｼｶﾜｹﾝ","kana_city":"ｶｶﾞｼ","kana_address":"ﾀﾞｲｼｮｳｼﾞﾐﾐｷﾔﾏﾅｶﾁｮｳ","pref":"石川県","city":"加賀市","address":"大聖寺耳聞山仲町"},
{"zip_code":"9220027","kana_pref":"ｲｼｶﾜｹﾝ","kana_city":"ｶｶﾞｼ","kana_address":"ﾀﾞｲｼｮｳｼﾞﾐﾐｷﾔﾏﾏﾁ","pref":"石川県","city":"加賀市","address":"大聖寺耳聞山町"},
{"zip_code":"9220038","kana_pref":"ｲｼｶﾜｹﾝ","kana_city":"ｶｶﾞｼ","kana_address":"ﾀﾞｲｼｮｳｼﾞﾔﾏﾀﾞﾏﾁ","pref":"石川県","city":"加賀市","address":"大聖寺山田町"},
{"zip_code":"9220813","kana_pref":"ｲｼｶﾜｹﾝ","kana_city":"ｶｶﾞｼ","kana_address":"ﾀﾞｲｼｮｳｼﾞﾕﾐﾁｮｳ","pref":"石川県","city":"加賀市","address":"大聖寺弓町"},
{"zip_code":"9220843","kana_pref":"ｲｼｶﾜｹﾝ","kana_city":"ｶｶﾞｼ","kana_address":"ﾀﾞｲﾄﾞｳﾏﾁ","pref":"石川県","city":"加賀市","address":"大同町"},
{"zip_code":"9220562","kana_pref":"ｲｼｶﾜｹﾝ","kana_city":"ｶｶﾞｼ","kana_address":"ﾀｶｵﾏﾁ","pref":"石川県","city":"加賀市","address":"高尾町"},
{"zip_code":"9220301","kana_pref":"ｲｼｶﾜｹﾝ","kana_city":"ｶｶﾞｼ","kana_address":"ﾀｶﾂｶﾏﾁ","pref":"石川県","city":"加賀市","address":"高塚町"},
{"zip_code":"9220552","kana_pref":"ｲｼｶﾜｹﾝ","kana_city":"ｶｶﾞｼ","kana_address":"ﾀｼﾞﾘﾏﾁ","pref":"石川県","city":"加賀市","address":"田尻町"},
{"zip_code":"9220855","kana_pref":"ｲｼｶﾜｹﾝ","kana_city":"ｶｶﾞｼ","kana_address":"ﾀﾁﾊﾞﾅﾏﾁ","pref":"石川県","city":"加賀市","address":"橘町"},
{"zip_code":"9220313","kana_pref":"ｲｼｶﾜｹﾝ","kana_city":"ｶｶﾞｼ","kana_address":"ﾁｮｸｼﾏﾁ","pref":"石川県","city":"加賀市","address":"勅使町"},
{"zip_code":"9220333","kana_pref":"ｲｼｶﾜｹﾝ","kana_city":"ｶｶﾞｼ","kana_address":"ﾂﾊﾞｸﾗﾏﾁ","pref":"石川県","city":"加賀市","address":"津波倉町"},
{"zip_code":"9220405","kana_pref":"ｲｼｶﾜｹﾝ","kana_city":"ｶｶﾞｼ","kana_address":"ﾃﾂﾞｶﾏﾁ","pref":"石川県","city":"加賀市","address":"手塚町"},
{"zip_code":"9220426","kana_pref":"ｲｼｶﾜｹﾝ","kana_city":"ｶｶﾞｼ","kana_address":"ﾃﾝﾆﾁﾏﾁ","pref":"石川県","city":"加賀市","address":"天日町"},
{"zip_code":"9220427","kana_pref":"ｲｼｶﾜｹﾝ","kana_city":"ｶｶﾞｼ","kana_address":"ﾄｷﾜﾀﾞｲ","pref":"石川県","city":"加賀市","address":"ときわ台"},
{"zip_code":"9220832","kana_pref":"ｲｼｶﾜｹﾝ","kana_city":"ｶｶﾞｼ","kana_address":"ﾄﾞﾄﾞﾏﾁ","pref":"石川県","city":"加賀市","address":"百々町"},
{"zip_code":"9220263","kana_pref":"ｲｼｶﾜｹﾝ","kana_city":"ｶｶﾞｼ","kana_address":"ﾄﾉｵﾏﾁ","pref":"石川県","city":"加賀市","address":"塔尾町"},
{"zip_code":"9220421","kana_pref":"ｲｼｶﾜｹﾝ","kana_city":"ｶｶﾞｼ","kana_address":"ﾄﾐﾂｶﾏﾁ","pref":"石川県","city":"加賀市","address":"冨塚町"},
{"zip_code":"9220306","kana_pref":"ｲｼｶﾜｹﾝ","kana_city":"ｶｶﾞｼ","kana_address":"ﾅｶｼﾞﾏﾏﾁ","pref":"石川県","city":"加賀市","address":"中島町"},
{"zip_code":"9220014","kana_pref":"ｲｼｶﾜｹﾝ","kana_city":"ｶｶﾞｼ","kana_address":"ﾅｶﾀﾞｲﾏﾁ","pref":"石川県","city":"加賀市","address":"中代町"},
{"zip_code":"9220857","kana_pref":"ｲｼｶﾜｹﾝ","kana_city":"ｶｶﾞｼ","kana_address":"ﾅｶﾞｲﾏﾁ","pref":"石川県","city":"加賀市","address":"永井町"},
{"zip_code":"9220324","kana_pref":"ｲｼｶﾜｹﾝ","kana_city":"ｶｶﾞｼ","kana_address":"ﾅﾝｶｲﾁｼﾝﾏﾁ","pref":"石川県","city":"加賀市","address":"七日市新町"},
{"zip_code":"9220335","kana_pref":"ｲｼｶﾜｹﾝ","kana_city":"ｶｶﾞｼ","kana_address":"ﾅﾝｶｲﾁﾏﾁ","pref":"石川県","city":"加賀市","address":"七日市町"},
{"zip_code":"9220821","kana_pref":"ｲｼｶﾜｹﾝ","kana_city":"ｶｶﾞｼ","kana_address":"ﾅﾝｺﾞｳﾏﾁ","pref":"石川県","city":"加賀市","address":"南郷町"},
{"zip_code":"9220334","kana_pref":"ｲｼｶﾜｹﾝ","kana_city":"ｶｶﾞｼ","kana_address":"ﾆｼｼﾞﾏﾏﾁ","pref":"石川県","city":"加賀市","address":"西島町"},
{"zip_code":"9220433","kana_pref":"ｲｼｶﾜｹﾝ","kana_city":"ｶｶﾞｼ","kana_address":"ﾆｼﾔﾏﾀﾞﾏﾁ","pref":"石川県","city":"加賀市","address":"西山田町"},
{"zip_code":"9220443","kana_pref":"ｲｼｶﾜｹﾝ","kana_city":"ｶｶﾞｼ","kana_address":"ﾉﾀﾞﾏﾁ","pref":"石川県","city":"加賀市","address":"野田町"},
{"zip_code":"9220437","kana_pref":"ｲｼｶﾜｹﾝ","kana_city":"ｶｶﾞｼ","kana_address":"ﾊｸｻﾝﾀﾞｲ","pref":"石川県","city":"加賀市","address":"白山台"},
{"zip_code":"9220844","kana_pref":"ｲｼｶﾜｹﾝ","kana_city":"ｶｶﾞｼ","kana_address":"ﾊｸﾎﾞｳﾀﾞｲﾏﾁ","pref":"石川県","city":"加賀市","address":"白望台町"},
{"zip_code":"9220303","kana_pref":"ｲｼｶﾜｹﾝ","kana_city":"ｶｶﾞｼ","kana_address":"ﾊｺﾐﾔﾏﾁ","pref":"石川県","city":"加賀市","address":"箱宮町"},
{"zip_code":"9220554","kana_pref":"ｲｼｶﾜｹﾝ","kana_city":"ｶｶﾞｼ","kana_address":"ﾊｼﾀﾃﾏﾁ","pref":"石川県","city":"加賀市","address":"橋立町"},
{"zip_code":"9220432","kana_pref":"ｲｼｶﾜｹﾝ","kana_city":"ｶｶﾞｼ","kana_address":"ﾋｶﾞｼﾔﾏﾀﾞﾏﾁ","pref":"石川県","city":"加賀市","address":"東山田町"},
{"zip_code":"9220824","kana_pref":"ｲｼｶﾜｹﾝ","kana_city":"ｶｶﾞｼ","kana_address":"ﾋﾉﾔﾏﾁ","pref":"石川県","city":"加賀市","address":"日谷町"},
{"zip_code":"9220566","kana_pref":"ｲｼｶﾜｹﾝ","kana_city":"ｶｶﾞｼ","kana_address":"ﾌｶﾀﾏﾁ","pref":"石川県","city":"加賀市","address":"深田町"},
{"zip_code":"9220325","kana_pref":"ｲｼｶﾜｹﾝ","kana_city":"ｶｶﾞｼ","kana_address":"ﾌﾀｺﾞﾂﾞｶﾏﾁ","pref":"石川県","city":"加賀市","address":"二子塚町"},
{"zip_code":"9220267","kana_pref":"ｲｼｶﾜｹﾝ","kana_city":"ｶｶﾞｼ","kana_address":"ﾌﾀﾂﾔﾏﾁ","pref":"石川県","city":"加賀市","address":"二ツ屋町"},
{"zip_code":"9220304","kana_pref":"ｲｼｶﾜｹﾝ","kana_city":"ｶｶﾞｼ","kana_address":"ﾌﾞﾝｷﾞｮｳﾏﾁ","pref":"石川県","city":"加賀市","address":"分校町"},
{"zip_code":"9220274","kana_pref":"ｲｼｶﾜｹﾝ","kana_city":"ｶｶﾞｼ","kana_address":"ﾍﾞｯｼｮﾏﾁ","pref":"石川県","city":"加賀市","address":"別所町"},
{"zip_code":"9220275","kana_pref":"ｲｼｶﾜｹﾝ","kana_city":"ｶｶﾞｼ","kana_address":"ﾍﾞｯｼｮﾏﾁ","pref":"石川県","city":"加賀市","address":"別所町"},
{"zip_code":"9220015","kana_pref":"ｲｼｶﾜｹﾝ","kana_city":"ｶｶﾞｼ","kana_address":"ﾎｳｶﾞﾏﾁ","pref":"石川県","city":"加賀市","address":"保賀町"},
{"zip_code":"9220835","kana_pref":"ｲｼｶﾜｹﾝ","kana_city":"ｶｶﾞｼ","kana_address":"ﾎｿﾂﾎﾞﾏﾁ","pref":"石川県","city":"加賀市","address":"細坪町"},
{"zip_code":"9220436","kana_pref":"ｲｼｶﾜｹﾝ","kana_city":"ｶｶﾞｼ","kana_address":"ﾏﾂｶﾞｵｶ","pref":"石川県","city":"加賀市","address":"松が丘"},
{"zip_code":"9220316","kana_pref":"ｲｼｶﾜｹﾝ","kana_city":"ｶｶﾞｼ","kana_address":"ﾏﾂﾔﾏﾏﾁ","pref":"石川県","city":"加賀市","address":"松山町"},
{"zip_code":"9220854","kana_pref":"ｲｼｶﾜｹﾝ","kana_city":"ｶｶﾞｼ","kana_address":"ﾐｷﾏﾁ","pref":"石川県","city":"加賀市","address":"三木町"},
{"zip_code":"9220551","kana_pref":"ｲｼｶﾜｹﾝ","kana_city":"ｶｶﾞｼ","kana_address":"ﾐｻｷﾏﾁ","pref":"石川県","city":"加賀市","address":"美岬町"},
{"zip_code":"9220265","kana_pref":"ｲｼｶﾜｹﾝ","kana_city":"ｶｶﾞｼ","kana_address":"ﾐｽﾞﾀﾏﾙﾏﾁ","pref":"石川県","city":"加賀市","address":"水田丸町"},
{"zip_code":"9220834","kana_pref":"ｲｼｶﾜｹﾝ","kana_city":"ｶｶﾞｼ","kana_address":"ﾐﾀﾆｶﾞｵｶ","pref":"石川県","city":"加賀市","address":"美谷が丘"},
{"zip_code":"9220444","kana_pref":"ｲｼｶﾜｹﾝ","kana_city":"ｶｶﾞｼ","kana_address":"ﾐﾔｼﾞﾏﾁ","pref":"石川県","city":"加賀市","address":"宮地町"},
{"zip_code":"9220561","kana_pref":"ｲｼｶﾜｹﾝ","kana_city":"ｶｶﾞｼ","kana_address":"ﾐﾔﾏﾁ","pref":"石川県","city":"加賀市","address":"宮町"},
{"zip_code":"9220321","kana_pref":"ｲｼｶﾜｹﾝ","kana_city":"ｶｶﾞｼ","kana_address":"ﾓﾘﾏﾁ","pref":"石川県","city":"加賀市","address":"森町"},
{"zip_code":"9220242","kana_pref":"ｲｼｶﾜｹﾝ","kana_city":"ｶｶﾞｼ","kana_address":"ﾔﾏｼﾛｵﾝｾﾝ","pref":"石川県","city":"加賀市","address":"山代温泉"},
{"zip_code":"9220247","kana_pref":"ｲｼｶﾜｹﾝ","kana_city":"ｶｶﾞｼ","kana_address":"ﾔﾏｼﾛｵﾝｾﾝ","pref":"石川県","city":"加賀市","address":"山代温泉"},
{"zip_code":"9220254","kana_pref":"ｲｼｶﾜｹﾝ","kana_city":"ｶｶﾞｼ","kana_address":"ﾔﾏｼﾛｵﾝｾﾝ","pref":"石川県","city":"加賀市","address":"山代温泉"},
{"zip_code":"9220257","kana_pref":"ｲｼｶﾜｹﾝ","kana_city":"ｶｶﾞｼ","kana_address":"ﾔﾏｼﾛｵﾝｾﾝ","pref":"石川県","city":"加賀市","address":"山代温泉"},
{"zip_code":"9220252","kana_pref":"ｲｼｶﾜｹﾝ","kana_city":"ｶｶﾞｼ","kana_address":"ﾔﾏｼﾛｵﾝｾﾝ","pref":"石川県","city":"加賀市","address":"山代温泉"},
{"zip_code":"9220255","kana_pref":"ｲｼｶﾜｹﾝ","kana_city":"ｶｶﾞｼ","kana_address":"ﾔﾏｼﾛｵﾝｾﾝ","pref":"石川県","city":"加賀市","address":"山代温泉"},
{"zip_code":"9220244","kana_pref":"ｲｼｶﾜｹﾝ","kana_city":"ｶｶﾞｼ","kana_address":"ﾔﾏｼﾛｵﾝｾﾝ","pref":"石川県","city":"加賀市","address":"山代温泉"},
{"zip_code":"9220246","kana_pref":"ｲｼｶﾜｹﾝ","kana_city":"ｶｶﾞｼ","kana_address":"ﾔﾏｼﾛｵﾝｾﾝ","pref":"石川県","city":"加賀市","address":"山代温泉"},
{"zip_code":"9220256","kana_pref":"ｲｼｶﾜｹﾝ","kana_city":"ｶｶﾞｼ","kana_address":"ﾔﾏｼﾛｵﾝｾﾝ","pref":"石川県","city":"加賀市","address":"山代温泉"},
{"zip_code":"9220253","kana_pref":"ｲｼｶﾜｹﾝ","kana_city":"ｶｶﾞｼ","kana_address":"ﾔﾏｼﾛｵﾝｾﾝ","pref":"石川県","city":"加賀市","address":"山代温泉"},
{"zip_code":"9220243","kana_pref":"ｲｼｶﾜｹﾝ","kana_city":"ｶｶﾞｼ","kana_address":"ﾔﾏｼﾛｵﾝｾﾝ","pref":"石川県","city":"加賀市","address":"山代温泉"},
{"zip_code":"9220258","kana_pref":"ｲｼｶﾜｹﾝ","kana_city":"ｶｶﾞｼ","kana_address":"ﾔﾏｼﾛｵﾝｾﾝ","pref":"石川県","city":"加賀市","address":"山代温泉"},
{"zip_code":"9220245","kana_pref":"ｲｼｶﾜｹﾝ","kana_city":"ｶｶﾞｼ","kana_address":"ﾔﾏｼﾛｵﾝｾﾝ","pref":"石川県","city":"加賀市","address":"山代温泉"},
{"zip_code":"9220251","kana_pref":"ｲｼｶﾜｹﾝ","kana_city":"ｶｶﾞｼ","kana_address":"ﾔﾏｼﾛｵﾝｾﾝ","pref":"石川県","city":"加賀市","address":"山代温泉"},
{"zip_code":"9220250","kana_pref":"ｲｼｶﾜｹﾝ","kana_city":"ｶｶﾞｼ","kana_address":"ﾔﾏｼﾛｵﾝｾﾝｻｸﾗﾏﾁ","pref":"石川県","city":"加賀市","address":"山代温泉桜町"},
{"zip_code":"9220431","kana_pref":"ｲｼｶﾜｹﾝ","kana_city":"ｶｶﾞｼ","kana_address":"ﾔﾏﾀﾞﾏﾁ","pref":"石川県","city":"加賀市","address":"山田町"},
{"zip_code":"9220104","kana_pref":"ｲｼｶﾜｹﾝ","kana_city":"ｶｶﾞｼ","kana_address":"ﾔﾏﾅｶｵﾝｾﾝｱｻﾋﾏﾁ","pref":"石川県","city":"加賀市","address":"山中温泉旭町"},
{"zip_code":"9220134","kana_pref":"ｲｼｶﾜｹﾝ","kana_city":"ｶｶﾞｼ","kana_address":"ﾔﾏﾅｶｵﾝｾﾝｱﾗﾀﾆﾏﾁ","pref":"石川県","city":"加賀市","address":"山中温泉荒谷町"},
{"zip_code":"9220105","kana_pref":"ｲｼｶﾜｹﾝ","kana_city":"ｶｶﾞｼ","kana_address":"ﾔﾏﾅｶｵﾝｾﾝｲｽﾞﾐﾏﾁ","pref":"石川県","city":"加賀市","address":"山中温泉泉町"},
{"zip_code":"9220135","kana_pref":"ｲｼｶﾜｹﾝ","kana_city":"ｶｶﾞｼ","kana_address":"ﾔﾏﾅｶｵﾝｾﾝｲﾏﾀﾞﾁﾏﾁ","pref":"石川県","city":"加賀市","address":"山中温泉今立町"},
{"zip_code":"9220117","kana_pref":"ｲｼｶﾜｹﾝ","kana_city":"ｶｶﾞｼ","kana_address":"ﾔﾏﾅｶｵﾝｾﾝｳｴﾉﾏﾁ","pref":"石川県","city":"加賀市","address":"山中温泉上野町"},
{"zip_code":"9220117","kana_pref":"ｲｼｶﾜｹﾝ","kana_city":"ｶｶﾞｼ","kana_address":"ﾔﾏﾅｶｵﾝｾﾝｳｴﾉﾏﾁ","pref":"石川県","city":"加賀市","address":"山中温泉上野町"},
{"zip_code":"9220107","kana_pref":"ｲｼｶﾜｹﾝ","kana_city":"ｶｶﾞｼ","kana_address":"ﾔﾏﾅｶｵﾝｾﾝｳﾜﾊﾞﾗﾏﾁ","pref":"石川県","city":"加賀市","address":"山中温泉上原町"},
{"zip_code":"9220108","kana_pref":"ｲｼｶﾜｹﾝ","kana_city":"ｶｶﾞｼ","kana_address":"ﾔﾏﾅｶｵﾝｾﾝｳﾜﾊﾞﾗﾏﾁ","pref":"石川県","city":"加賀市","address":"山中温泉上原町"},
{"zip_code":"9220106","kana_pref":"ｲｼｶﾜｹﾝ","kana_city":"ｶｶﾞｼ","kana_address":"ﾔﾏﾅｶｵﾝｾﾝｳﾜﾊﾞﾗﾏﾁ","pref":"石川県","city":"加賀市","address":"山中温泉上原町"},
{"zip_code":"9220135","kana_pref":"ｲｼｶﾜｹﾝ","kana_city":"ｶｶﾞｼ","kana_address":"ﾔﾏﾅｶｵﾝｾﾝｵｵﾂﾞﾁﾏﾁ","pref":"石川県","city":"加賀市","address":"山中温泉大土町"},
{"zip_code":"9220126","kana_pref":"ｲｼｶﾜｹﾝ","kana_city":"ｶｶﾞｼ","kana_address":"ﾔﾏﾅｶｵﾝｾﾝｶｼﾞｶﾏﾁ","pref":"石川県","city":"加賀市","address":"山中温泉河鹿町"},
{"zip_code":"9220137","kana_pref":"ｲｼｶﾜｹﾝ","kana_city":"ｶｶﾞｼ","kana_address":"ﾔﾏﾅｶｵﾝｾﾝｶｾﾞﾀﾆﾏﾁ","pref":"石川県","city":"加賀市","address":"山中温泉風谷町"},
{"zip_code":"9220118","kana_pref":"ｲｼｶﾜｹﾝ","kana_city":"ｶｶﾞｼ","kana_address":"ﾔﾏﾅｶｵﾝｾﾝｶﾐﾔﾀﾞｲ","pref":"石川県","city":"加賀市","address":"山中温泉加美谷台"},
{"zip_code":"9220138","kana_pref":"ｲｼｶﾜｹﾝ","kana_city":"ｶｶﾞｼ","kana_address":"ﾔﾏﾅｶｵﾝｾﾝｶﾔﾉﾏﾁ","pref":"石川県","city":"加賀市","address":"山中温泉栢野町"},
{"zip_code":"9220136","kana_pref":"ｲｼｶﾜｹﾝ","kana_city":"ｶｶﾞｼ","kana_address":"ﾔﾏﾅｶｵﾝｾﾝｶﾚﾌﾞﾁﾏﾁ","pref":"石川県","city":"加賀市","address":"山中温泉枯淵町"},
{"zip_code":"9220136","kana_pref":"ｲｼｶﾜｹﾝ","kana_city":"ｶｶﾞｼ","kana_address":"ﾔﾏﾅｶｵﾝｾﾝｸﾀﾆﾏﾁ","pref":"石川県","city":"加賀市","address":"山中温泉九谷町"},
{"zip_code":"9220128","kana_pref":"ｲｼｶﾜｹﾝ","kana_city":"ｶｶﾞｼ","kana_address":"ﾔﾏﾅｶｵﾝｾﾝｺｵﾛｷﾞﾏﾁ","pref":"石川県","city":"加賀市","address":"山中温泉こおろぎ町"},
{"zip_code":"9220125","kana_pref":"ｲｼｶﾜｹﾝ","kana_city":"ｶｶﾞｼ","kana_address":"ﾔﾏﾅｶｵﾝｾﾝｻｶｴﾏﾁ","pref":"石川県","city":"加賀市","address":"山中温泉栄町"},
{"zip_code":"9220136","kana_pref":"ｲｼｶﾜｹﾝ","kana_city":"ｶｶﾞｼ","kana_address":"ﾔﾏﾅｶｵﾝｾﾝｻｶﾉｼﾓﾏﾁ","pref":"石川県","city":"加賀市","address":"山中温泉坂下町"},
{"zip_code":"9220131","kana_pref":"ｲｼｶﾜｹﾝ","kana_city":"ｶｶﾞｼ","kana_address":"ﾔﾏﾅｶｵﾝｾﾝｼｼﾞｭｳｸｲﾝﾏﾁ","pref":"石川県","city":"加賀市","address":"山中温泉四十九院町"},
{"zip_code":"9220127","kana_pref":"ｲｼｶﾜｹﾝ","kana_city":"ｶｶﾞｼ","kana_address":"ﾔﾏﾅｶｵﾝｾﾝｼﾓﾀﾆﾏﾁ","pref":"石川県","city":"加賀市","address":"山中温泉下谷町"},
{"zip_code":"9220139","kana_pref":"ｲｼｶﾜｹﾝ","kana_city":"ｶｶﾞｼ","kana_address":"ﾔﾏﾅｶｵﾝｾﾝｽｶﾞﾀﾆﾏﾁ","pref":"石川県","city":"加賀市","address":"山中温泉菅谷町"},
{"zip_code":"9220136","kana_pref":"ｲｼｶﾜｹﾝ","kana_city":"ｶｶﾞｼ","kana_address":"ﾔﾏﾅｶｵﾝｾﾝｽｷﾞﾉﾐｽﾞﾏﾁ","pref":"石川県","city":"加賀市","address":"山中温泉杉水町"},
{"zip_code":"9220134","kana_pref":"ｲｼｶﾜｹﾝ","kana_city":"ｶｶﾞｼ","kana_address":"ﾔﾏﾅｶｵﾝｾﾝｽｺﾞｳﾀﾞﾆﾏﾁ","pref":"石川県","city":"加賀市","address":"山中温泉菅生谷町"},
{"zip_code":"9220133","kana_pref":"ｲｼｶﾜｹﾝ","kana_city":"ｶｶﾞｼ","kana_address":"ﾔﾏﾅｶｵﾝｾﾝﾀｷﾏﾁ","pref":"石川県","city":"加賀市","address":"山中温泉滝町"},
{"zip_code":"9220111","kana_pref":"ｲｼｶﾜｹﾝ","kana_city":"ｶｶﾞｼ","kana_address":"ﾔﾏﾅｶｵﾝｾﾝﾂｶﾀﾆﾏﾁ","pref":"石川県","city":"加賀市","address":"山中温泉塚谷町"},
{"zip_code":"9220101","kana_pref":"ｲｼｶﾜｹﾝ","kana_city":"ｶｶﾞｼ","kana_address":"ﾔﾏﾅｶｵﾝｾﾝﾅｶﾀﾞﾏﾁ","pref":"石川県","city":"加賀市","address":"山中温泉中田町"},
{"zip_code":"9220132","kana_pref":"ｲｼｶﾜｹﾝ","kana_city":"ｶｶﾞｼ","kana_address":"ﾔﾏﾅｶｵﾝｾﾝﾅｶﾂﾊﾗﾏﾁ","pref":"石川県","city":"加賀市","address":"山中温泉中津原町"},
{"zip_code":"9220112","kana_pref":"ｲｼｶﾜｹﾝ","kana_city":"ｶｶﾞｼ","kana_address":"ﾔﾏﾅｶｵﾝｾﾝﾆｼｶﾂﾗｷﾞﾏﾁ","pref":"石川県","city":"加賀市","address":"山中温泉西桂木町"},
{"zip_code":"9220101","kana_pref":"ｲｼｶﾜｹﾝ","kana_city":"ｶｶﾞｼ","kana_address":"ﾔﾏﾅｶｵﾝｾﾝﾆﾃﾝﾏﾁ","pref":"石川県","city":"加賀市","address":"山中温泉二天町"},
{"zip_code":"9220116","kana_pref":"ｲｼｶﾜｹﾝ","kana_city":"ｶｶﾞｼ","kana_address":"ﾔﾏﾅｶｵﾝｾﾝﾊｸｻﾝﾏﾁ","pref":"石川県","city":"加賀市","address":"山中温泉白山町"},
{"zip_code":"9220102","kana_pref":"ｲｼｶﾜｹﾝ","kana_city":"ｶｶﾞｼ","kana_address":"ﾔﾏﾅｶｵﾝｾﾝﾊｾﾀﾞﾏﾁ","pref":"石川県","city":"加賀市","address":"山中温泉長谷田町"},
{"zip_code":"9220103","kana_pref":"ｲｼｶﾜｹﾝ","kana_city":"ｶｶﾞｼ","kana_address":"ﾔﾏﾅｶｵﾝｾﾝﾊｾﾀﾞﾏﾁ","pref":"石川県","city":"加賀市","address":"山中温泉長谷田町"},
{"zip_code":"9220113","kana_pref":"ｲｼｶﾜｹﾝ","kana_city":"ｶｶﾞｼ","kana_address":"ﾔﾏﾅｶｵﾝｾﾝﾋｶﾞｼｶﾂﾗｷﾞﾏﾁ","pref":"石川県","city":"加賀市","address":"山中温泉東桂木町"},
{"zip_code":"9220114","kana_pref":"ｲｼｶﾜｹﾝ","kana_city":"ｶｶﾞｼ","kana_address":"ﾔﾏﾅｶｵﾝｾﾝﾋｶﾞｼﾏﾁ","pref":"石川県","city":"加賀市","address":"山中温泉東町"},
{"zip_code":"9220121","kana_pref":"ｲｼｶﾜｹﾝ","kana_city":"ｶｶﾞｼ","kana_address":"ﾔﾏﾅｶｵﾝｾﾝﾌｼﾞﾐﾏﾁ","pref":"石川県","city":"加賀市","address":"山中温泉富士見町"},
{"zip_code":"9220136","kana_pref":"ｲｼｶﾜｹﾝ","kana_city":"ｶｶﾞｼ","kana_address":"ﾔﾏﾅｶｵﾝｾﾝﾍｷﾀﾆﾏﾁ","pref":"石川県","city":"加賀市","address":"山中温泉片谷町"},
{"zip_code":"9220115","kana_pref":"ｲｼｶﾜｹﾝ","kana_city":"ｶｶﾞｼ","kana_address":"ﾔﾏﾅｶｵﾝｾﾝﾎﾝﾏﾁ","pref":"石川県","city":"加賀市","address":"山中温泉本町"},
{"zip_code":"9220136","kana_pref":"ｲｼｶﾜｹﾝ","kana_city":"ｶｶﾞｼ","kana_address":"ﾔﾏﾅｶｵﾝｾﾝﾏﾅｺﾞﾏﾁ","pref":"石川県","city":"加賀市","address":"山中温泉真砂町"},
{"zip_code":"9220129","kana_pref":"ｲｼｶﾜｹﾝ","kana_city":"ｶｶﾞｼ","kana_address":"ﾔﾏﾅｶｵﾝｾﾝﾐﾅﾐﾏﾁ","pref":"石川県","city":"加賀市","address":"山中温泉南町"},
{"zip_code":"9220109","kana_pref":"ｲｼｶﾜｹﾝ","kana_city":"ｶｶﾞｼ","kana_address":"ﾔﾏﾅｶｵﾝｾﾝﾐﾔﾉﾓﾘ","pref":"石川県","city":"加賀市","address":"山中温泉宮の杜"},
{"zip_code":"9220123","kana_pref":"ｲｼｶﾜｹﾝ","kana_city":"ｶｶﾞｼ","kana_address":"ﾔﾏﾅｶｵﾝｾﾝﾔｸｼﾏﾁ","pref":"石川県","city":"加賀市","address":"山中温泉薬師町"},
{"zip_code":"9220124","kana_pref":"ｲｼｶﾜｹﾝ","kana_city":"ｶｶﾞｼ","kana_address":"ﾔﾏﾅｶｵﾝｾﾝﾕﾉﾃﾞﾏﾁ","pref":"石川県","city":"加賀市","address":"山中温泉湯の出町"},
{"zip_code":"9220122","kana_pref":"ｲｼｶﾜｹﾝ","kana_city":"ｶｶﾞｼ","kana_address":"ﾔﾏﾅｶｵﾝｾﾝﾕﾉﾎﾝﾏﾁ","pref":"石川県","city":"加賀市","address":"山中温泉湯の本町"},
{"zip_code":"9220137","kana_pref":"ｲｼｶﾜｹﾝ","kana_city":"ｶｶﾞｼ","kana_address":"ﾔﾏﾅｶｵﾝｾﾝﾜｶﾞﾀﾆﾏﾁ","pref":"石川県","city":"加賀市","address":"山中温泉我谷町"},
{"zip_code":"9220563","kana_pref":"ｲｼｶﾜｹﾝ","kana_city":"ｶｶﾞｼ","kana_address":"ﾕﾀｶﾏﾁ","pref":"石川県","city":"加賀市","address":"豊町"},
{"zip_code":"9220004","kana_pref":"ｲｼｶﾜｹﾝ","kana_city":"ｶｶﾞｼ","kana_address":"ﾕﾀｶﾏﾁ","pref":"石川県","city":"加賀市","address":"豊町"},
{"zip_code":"9220422","kana_pref":"ｲｼｶﾜｹﾝ","kana_city":"ｶｶﾞｼ","kana_address":"ﾕﾐﾅﾐﾏﾁ","pref":"石川県","city":"加賀市","address":"弓波町"},
{"zip_code":"9220336","kana_pref":"ｲｼｶﾜｹﾝ","kana_city":"ｶｶﾞｼ","kana_address":"ﾖｳｶｲﾁﾏﾁ","pref":"石川県","city":"加賀市","address":"八日市町"},
{"zip_code":"9220261","kana_pref":"ｲｼｶﾜｹﾝ","kana_city":"ｶｶﾞｼ","kana_address":"ﾖｺｷﾞﾀﾏﾁ","pref":"石川県","city":"加賀市","address":"横北町"},
{"zip_code":"9220672","kana_pref":"ｲｼｶﾜｹﾝ","kana_city":"ｶｶﾞｼ","kana_address":"ﾖｼｻﾞｷﾏﾁ","pref":"石川県","city":"加賀市","address":"吉崎町"},
{"zip_code":"9220323","kana_pref":"ｲｼｶﾜｹﾝ","kana_city":"ｶｶﾞｼ","kana_address":"ﾜｶﾊﾞﾀﾞｲ","pref":"石川県","city":"加賀市","address":"若葉台"},
{"zip_code":"9220679","kana_pref":"ﾌｸｲｹﾝ","kana_city":"ｱﾜﾗｼ","kana_address":"ﾖｼｻﾞｷ","pref":"福井県","city":"あわら市","address":"吉崎"}]}