{"zip_code":[
{"zip_code":"9240000","kana_pref":"ｲｼｶﾜｹﾝ","kana_city":"ﾊｸｻﾝｼ","kana_address":"","pref":"石川県","city":"白山市","address":""},
{"zip_code":"9240022","kana_pref":"ｲｼｶﾜｹﾝ","kana_city":"ﾊｸｻﾝｼ","kana_address":"ｱｲﾉｷﾏﾁ","pref":"石川県","city":"白山市","address":"相木町"},
{"zip_code":"9240819","kana_pref":"ｲｼｶﾜｹﾝ","kana_city":"ﾊｸｻﾝｼ","kana_address":"ｱｵﾊﾞﾀﾞｲ","pref":"石川県","city":"白山市","address":"青葉台"},
{"zip_code":"9240004","kana_pref":"ｲｼｶﾜｹﾝ","kana_city":"ﾊｸｻﾝｼ","kana_address":"ｱｻﾋｶﾞｵｶ","pref":"石川県","city":"白山市","address":"旭丘"},
{"zip_code":"9240019","kana_pref":"ｲｼｶﾜｹﾝ","kana_city":"ﾊｸｻﾝｼ","kana_address":"ｱｻﾋｿｳｴﾝ","pref":"石川県","city":"白山市","address":"あさひ荘苑"},
{"zip_code":"9240888","kana_pref":"ｲｼｶﾜｹﾝ","kana_city":"ﾊｸｻﾝｼ","kana_address":"ｱｻﾋﾏﾁ","pref":"石川県","city":"白山市","address":"旭町"},
{"zip_code":"9240056","kana_pref":"ｲｼｶﾜｹﾝ","kana_city":"ﾊｸｻﾝｼ","kana_address":"ｱﾐﾀﾞｼﾞﾏﾏﾁ","pref":"石川県","city":"白山市","address":"阿弥陀島町"},
{"zip_code":"9240037","kana_pref":"ｲｼｶﾜｹﾝ","kana_city":"ﾊｸｻﾝｼ","kana_address":"ｱﾗﾔｶｼﾜﾉﾏﾁ","pref":"石川県","city":"白山市","address":"荒屋柏野町"},
{"zip_code":"9240058","kana_pref":"ｲｼｶﾜｹﾝ","kana_city":"ﾊｸｻﾝｼ","kana_address":"ｲｼﾀﾃﾏﾁ","pref":"石川県","city":"白山市","address":"石立町"},
{"zip_code":"9240806","kana_pref":"ｲｼｶﾜｹﾝ","kana_city":"ﾊｸｻﾝｼ","kana_address":"ｲｼﾄﾞｳｼﾝﾏﾁ","pref":"石川県","city":"白山市","address":"石同新町"},
{"zip_code":"9240807","kana_pref":"ｲｼｶﾜｹﾝ","kana_city":"ﾊｸｻﾝｼ","kana_address":"ｲｼﾄﾞｳﾏﾁ","pref":"石川県","city":"白山市","address":"石同町"},
{"zip_code":"9240005","kana_pref":"ｲｼｶﾜｹﾝ","kana_city":"ﾊｸｻﾝｼ","kana_address":"ｲﾁﾂﾞｶﾏﾁ","pref":"石川県","city":"白山市","address":"一塚町"},
{"zip_code":"9240803","kana_pref":"ｲｼｶﾜｹﾝ","kana_city":"ﾊｸｻﾝｼ","kana_address":"ｲﾇｲﾏﾁ","pref":"石川県","city":"白山市","address":"乾町"},
{"zip_code":"9240827","kana_pref":"ｲｼｶﾜｹﾝ","kana_city":"ﾊｸｻﾝｼ","kana_address":"ｲﾏﾋﾗﾏﾁ","pref":"石川県","city":"白山市","address":"今平町"},
{"zip_code":"9240847","kana_pref":"ｲｼｶﾜｹﾝ","kana_city":"ﾊｸｻﾝｼ","kana_address":"ｳﾁｶﾀｼﾝﾎﾞﾏﾁ","pref":"石川県","city":"白山市","address":"内方新保町"},
{"zip_code":"9240835","kana_pref":"ｲｼｶﾜｹﾝ","kana_city":"ﾊｸｻﾝｼ","kana_address":"ｳﾙｼｼﾞﾏﾏﾁ","pref":"石川県","city":"白山市","address":"漆島町"},
{"zip_code":"9240067","kana_pref":"ｲｼｶﾜｹﾝ","kana_city":"ﾊｸｻﾝｼ","kana_address":"ｵｶﾞﾜﾏﾁ","pref":"石川県","city":"白山市","address":"小川町"},
{"zip_code":"9240826","kana_pref":"ｲｼｶﾜｹﾝ","kana_city":"ﾊｸｻﾝｼ","kana_address":"ｵﾄﾏﾙﾏﾁ","pref":"石川県","city":"白山市","address":"乙丸町"},
{"zip_code":"9240062","kana_pref":"ｲｼｶﾜｹﾝ","kana_city":"ﾊｸｻﾝｼ","kana_address":"ｶｻﾏｼﾝ","pref":"石川県","city":"白山市","address":"笠間新"},
{"zip_code":"9240063","kana_pref":"ｲｼｶﾜｹﾝ","kana_city":"ﾊｸｻﾝｼ","kana_address":"ｶｻﾏﾏﾁ","pref":"石川県","city":"白山市","address":"笠間町"},
{"zip_code":"9240876","kana_pref":"ｲｼｶﾜｹﾝ","kana_city":"ﾊｸｻﾝｼ","kana_address":"ｶｼﾞﾏﾁ","pref":"石川県","city":"白山市","address":"鍛治町"},
{"zip_code":"9240043","kana_pref":"ｲｼｶﾜｹﾝ","kana_city":"ﾊｸｻﾝｼ","kana_address":"ｶｼﾜﾏﾁ","pref":"石川県","city":"白山市","address":"柏町"},
{"zip_code":"9240066","kana_pref":"ｲｼｶﾜｹﾝ","kana_city":"ﾊｸｻﾝｼ","kana_address":"ｶﾐｵｶﾞﾜﾏﾁ","pref":"石川県","city":"白山市","address":"上小川町"},
{"zip_code":"9240035","kana_pref":"ｲｼｶﾜｹﾝ","kana_city":"ﾊｸｻﾝｼ","kana_address":"ｶﾐｶｼﾜﾉﾏﾁ","pref":"石川県","city":"白山市","address":"上柏野町"},
{"zip_code":"9240846","kana_pref":"ｲｼｶﾜｹﾝ","kana_city":"ﾊｸｻﾝｼ","kana_address":"ｶﾐｼﾏﾀﾞﾏﾁ","pref":"石川県","city":"白山市","address":"上島田町"},
{"zip_code":"9240828","kana_pref":"ｲｼｶﾜｹﾝ","kana_city":"ﾊｸｻﾝｼ","kana_address":"ｶﾐﾌﾀｸﾁﾏﾁ","pref":"石川県","city":"白山市","address":"上二口町"},
{"zip_code":"9240853","kana_pref":"ｲｼｶﾜｹﾝ","kana_city":"ﾊｸｻﾝｼ","kana_address":"ｶﾐﾔｽﾀﾏﾁ","pref":"石川県","city":"白山市","address":"上安田町"},
{"zip_code":"9240055","kana_pref":"ｲｼｶﾜｹﾝ","kana_city":"ﾊｸｻﾝｼ","kana_address":"ｷﾀｼﾞﾏﾏﾁ","pref":"石川県","city":"白山市","address":"北島町"},
{"zip_code":"9240030","kana_pref":"ｲｼｶﾜｹﾝ","kana_city":"ﾊｸｻﾝｼ","kana_address":"ｷﾀﾅﾘﾏﾁ","pref":"石川県","city":"白山市","address":"北成町"},
{"zip_code":"9240039","kana_pref":"ｲｼｶﾜｹﾝ","kana_city":"ﾊｸｻﾝｼ","kana_address":"ｷﾀﾔｽﾀﾆｼ","pref":"石川県","city":"白山市","address":"北安田西"},
{"zip_code":"9240024","kana_pref":"ｲｼｶﾜｹﾝ","kana_city":"ﾊｸｻﾝｼ","kana_address":"ｷﾀﾔｽﾀﾏﾁ","pref":"石川県","city":"白山市","address":"北安田町"},
{"zip_code":"9240007","kana_pref":"ｲｼｶﾜｹﾝ","kana_city":"ﾊｸｻﾝｼ","kana_address":"ｸﾗﾍﾞﾏﾁ","pref":"石川県","city":"白山市","address":"倉部町"},
{"zip_code":"9240865","kana_pref":"ｲｼｶﾜｹﾝ","kana_city":"ﾊｸｻﾝｼ","kana_address":"ｸﾗﾐﾂ","pref":"石川県","city":"白山市","address":"倉光"},
{"zip_code":"9240866","kana_pref":"ｲｼｶﾜｹﾝ","kana_city":"ﾊｸｻﾝｼ","kana_address":"ｸﾗﾐﾂﾆｼ","pref":"石川県","city":"白山市","address":"倉光西"},
{"zip_code":"9240064","kana_pref":"ｲｼｶﾜｹﾝ","kana_city":"ﾊｸｻﾝｼ","kana_address":"ｸﾛｾﾏﾁ","pref":"石川県","city":"白山市","address":"黒瀬町"},
{"zip_code":"9240842","kana_pref":"ｲｼｶﾜｹﾝ","kana_city":"ﾊｸｻﾝｼ","kana_address":"ｹﾝｻﾞｷﾏﾁ","pref":"石川県","city":"白山市","address":"剣崎町"},
{"zip_code":"9240052","kana_pref":"ｲｼｶﾜｹﾝ","kana_city":"ﾊｸｻﾝｼ","kana_address":"ｹﾞﾝﾍﾟｲｼﾞﾏﾏﾁ","pref":"石川県","city":"白山市","address":"源兵島町"},
{"zip_code":"9240821","kana_pref":"ｲｼｶﾜｹﾝ","kana_city":"ﾊｸｻﾝｼ","kana_address":"ｺｳﾂﾞﾏﾁ","pref":"石川県","city":"白山市","address":"木津町"},
{"zip_code":"9240817","kana_pref":"ｲｼｶﾜｹﾝ","kana_city":"ﾊｸｻﾝｼ","kana_address":"ｺｳﾐｮｳﾏﾁ","pref":"石川県","city":"白山市","address":"幸明町"},
{"zip_code":"9240851","kana_pref":"ｲｼｶﾜｹﾝ","kana_city":"ﾊｸｻﾝｼ","kana_address":"ｺﾞｴﾄﾞｳﾏﾁ","pref":"石川県","city":"白山市","address":"御影堂町"},
{"zip_code":"9240034","kana_pref":"ｲｼｶﾜｹﾝ","kana_city":"ﾊｸｻﾝｼ","kana_address":"ｺｶﾞﾐﾏﾁ","pref":"石川県","city":"白山市","address":"小上町"},
{"zip_code":"9240014","kana_pref":"ｲｼｶﾜｹﾝ","kana_city":"ﾊｸｻﾝｼ","kana_address":"ｺﾞﾎﾞｲﾁﾏﾁ","pref":"石川県","city":"白山市","address":"五歩市町"},
{"zip_code":"9240065","kana_pref":"ｲｼｶﾜｹﾝ","kana_city":"ﾊｸｻﾝｼ","kana_address":"ｼﾁﾛｳﾏﾁ","pref":"石川県","city":"白山市","address":"七郎町"},
{"zip_code":"9240845","kana_pref":"ｲｼｶﾜｹﾝ","kana_city":"ﾊｸｻﾝｼ","kana_address":"ｼﾏﾀﾞﾏﾁ","pref":"石川県","city":"白山市","address":"島田町"},
{"zip_code":"9240038","kana_pref":"ｲｼｶﾜｹﾝ","kana_city":"ﾊｸｻﾝｼ","kana_address":"ｼﾓｶｼﾜﾉﾏﾁ","pref":"石川県","city":"白山市","address":"下柏野町"},
{"zip_code":"9240015","kana_pref":"ｲｼｶﾜｹﾝ","kana_city":"ﾊｸｻﾝｼ","kana_address":"ｼﾝﾃﾞﾝﾏﾁ","pref":"石川県","city":"白山市","address":"新田町"},
{"zip_code":"9240020","kana_pref":"ｲｼｶﾜｹﾝ","kana_city":"ﾊｸｻﾝｼ","kana_address":"ｼﾝﾅﾘ","pref":"石川県","city":"白山市","address":"新成"},
{"zip_code":"9240878","kana_pref":"ｲｼｶﾜｹﾝ","kana_city":"ﾊｸｻﾝｼ","kana_address":"ｽｴﾋﾛ","pref":"石川県","city":"白山市","address":"末広"},
{"zip_code":"9240825","kana_pref":"ｲｼｶﾜｹﾝ","kana_city":"ﾊｸｻﾝｼ","kana_address":"ｽｶﾞﾅﾐﾏﾁ","pref":"石川県","city":"白山市","address":"菅波町"},
{"zip_code":"9240802","kana_pref":"ｲｼｶﾜｹﾝ","kana_city":"ﾊｸｻﾝｼ","kana_address":"ｾﾝﾌﾟｸｼﾞﾏﾁ","pref":"石川県","city":"白山市","address":"専福寺町"},
{"zip_code":"9240028","kana_pref":"ｲｼｶﾜｹﾝ","kana_city":"ﾊｸｻﾝｼ","kana_address":"ｿｳｺﾞｼﾝﾏﾁ","pref":"石川県","city":"白山市","address":"相川新町"},
{"zip_code":"9240027","kana_pref":"ｲｼｶﾜｹﾝ","kana_city":"ﾊｸｻﾝｼ","kana_address":"ｿｳｺﾞﾏﾁ","pref":"石川県","city":"白山市","address":"相川町"},
{"zip_code":"9240021","kana_pref":"ｲｼｶﾜｹﾝ","kana_city":"ﾊｸｻﾝｼ","kana_address":"ﾀｹﾏﾂﾏﾁ","pref":"石川県","city":"白山市","address":"竹松町"},
{"zip_code":"9240824","kana_pref":"ｲｼｶﾜｹﾝ","kana_city":"ﾊｸｻﾝｼ","kana_address":"ﾀﾁﾏﾁ","pref":"石川県","city":"白山市","address":"田地町"},
{"zip_code":"9240875","kana_pref":"ｲｼｶﾜｹﾝ","kana_city":"ﾊｸｻﾝｼ","kana_address":"ﾀﾂﾐﾁｮｳ","pref":"石川県","city":"白山市","address":"辰巳町"},
{"zip_code":"9240801","kana_pref":"ｲｼｶﾜｹﾝ","kana_city":"ﾊｸｻﾝｼ","kana_address":"ﾀﾅｶﾏﾁ","pref":"石川県","city":"白山市","address":"田中町"},
{"zip_code":"9240867","kana_pref":"ｲｼｶﾜｹﾝ","kana_city":"ﾊｸｻﾝｼ","kana_address":"ﾁｬﾔ","pref":"石川県","city":"白山市","address":"茶屋"},
{"zip_code":"9240072","kana_pref":"ｲｼｶﾜｹﾝ","kana_city":"ﾊｸｻﾝｼ","kana_address":"ﾁﾖﾉﾆｼ","pref":"石川県","city":"白山市","address":"千代野西"},
{"zip_code":"9240073","kana_pref":"ｲｼｶﾜｹﾝ","kana_city":"ﾊｸｻﾝｼ","kana_address":"ﾁﾖﾉﾋｶﾞｼ","pref":"石川県","city":"白山市","address":"千代野東"},
{"zip_code":"9240074","kana_pref":"ｲｼｶﾜｹﾝ","kana_city":"ﾊｸｻﾝｼ","kana_address":"ﾁﾖﾉﾐﾅﾐ","pref":"石川県","city":"白山市","address":"千代野南"},
{"zip_code":"9240854","kana_pref":"ｲｼｶﾜｹﾝ","kana_city":"ﾊｸｻﾝｼ","kana_address":"ﾃﾞｱｲｼﾞﾏﾏﾁ","pref":"石川県","city":"白山市","address":"出合島町"},
{"zip_code":"9240804","kana_pref":"ｲｼｶﾜｹﾝ","kana_city":"ﾊｸｻﾝｼ","kana_address":"ﾄｸﾏﾙﾏﾁ","pref":"石川県","city":"白山市","address":"徳丸町"},
{"zip_code":"9240071","kana_pref":"ｲｼｶﾜｹﾝ","kana_city":"ﾊｸｻﾝｼ","kana_address":"ﾄｸﾐﾂﾏﾁ","pref":"石川県","city":"白山市","address":"徳光町"},
{"zip_code":"9240885","kana_pref":"ｲｼｶﾜｹﾝ","kana_city":"ﾊｸｻﾝｼ","kana_address":"ﾄﾉﾏﾁ","pref":"石川県","city":"白山市","address":"殿町"},
{"zip_code":"9240818","kana_pref":"ｲｼｶﾜｹﾝ","kana_city":"ﾊｸｻﾝｼ","kana_address":"ﾅｶｵｸﾏﾁ","pref":"石川県","city":"白山市","address":"中奥町"},
{"zip_code":"9240036","kana_pref":"ｲｼｶﾜｹﾝ","kana_city":"ﾊｸｻﾝｼ","kana_address":"ﾅｶｶｼﾜﾉﾏﾁ","pref":"石川県","city":"白山市","address":"中柏野町"},
{"zip_code":"9240848","kana_pref":"ｲｼｶﾜｹﾝ","kana_city":"ﾊｸｻﾝｼ","kana_address":"ﾅｶﾞｼﾏﾏﾁ","pref":"石川県","city":"白山市","address":"長島町"},
{"zip_code":"9240003","kana_pref":"ｲｼｶﾜｹﾝ","kana_city":"ﾊｸｻﾝｼ","kana_address":"ﾅｶｼﾝﾎﾞﾏﾁ","pref":"石川県","city":"白山市","address":"中新保町"},
{"zip_code":"9240811","kana_pref":"ｲｼｶﾜｹﾝ","kana_city":"ﾊｸｻﾝｼ","kana_address":"ﾅｶﾞﾀｹﾏﾁ","pref":"石川県","city":"白山市","address":"長竹町"},
{"zip_code":"9240029","kana_pref":"ｲｼｶﾜｹﾝ","kana_city":"ﾊｸｻﾝｼ","kana_address":"ﾅｶﾅﾘ","pref":"石川県","city":"白山市","address":"中成"},
{"zip_code":"9240877","kana_pref":"ｲｼｶﾜｹﾝ","kana_city":"ﾊｸｻﾝｼ","kana_address":"ﾅｶﾏﾁ","pref":"石川県","city":"白山市","address":"中町"},
{"zip_code":"9240023","kana_pref":"ｲｼｶﾜｹﾝ","kana_city":"ﾊｸｻﾝｼ","kana_address":"ﾅﾘﾏﾁ","pref":"石川県","city":"白山市","address":"成町"},
{"zip_code":"9240045","kana_pref":"ｲｼｶﾜｹﾝ","kana_city":"ﾊｸｻﾝｼ","kana_address":"ﾆｼｶｼﾜ","pref":"石川県","city":"白山市","address":"西柏"},
{"zip_code":"9240044","kana_pref":"ｲｼｶﾜｹﾝ","kana_city":"ﾊｸｻﾝｼ","kana_address":"ﾆｼｶｼﾜﾏﾁ","pref":"石川県","city":"白山市","address":"西柏町"},
{"zip_code":"9240871","kana_pref":"ｲｼｶﾜｹﾝ","kana_city":"ﾊｸｻﾝｼ","kana_address":"ﾆｼｼﾝﾏﾁ","pref":"石川県","city":"白山市","address":"西新町"},
{"zip_code":"9240046","kana_pref":"ｲｼｶﾜｹﾝ","kana_city":"ﾊｸｻﾝｼ","kana_address":"ﾆｼﾐｻﾜﾉ","pref":"石川県","city":"白山市","address":"西美沢野"},
{"zip_code":"9240047","kana_pref":"ｲｼｶﾜｹﾝ","kana_city":"ﾊｸｻﾝｼ","kana_address":"ﾆｼﾐｻﾜﾉﾏﾁ","pref":"石川県","city":"白山市","address":"西美沢野町"},
{"zip_code":"9240808","kana_pref":"ｲｼｶﾜｹﾝ","kana_city":"ﾊｸｻﾝｼ","kana_address":"ﾇﾉｲﾁ","pref":"石川県","city":"白山市","address":"布市"},
{"zip_code":"9240863","kana_pref":"ｲｼｶﾜｹﾝ","kana_city":"ﾊｸｻﾝｼ","kana_address":"ﾊﾞｸﾛ","pref":"石川県","city":"白山市","address":"博労"},
{"zip_code":"9240814","kana_pref":"ｲｼｶﾜｹﾝ","kana_city":"ﾊｸｻﾝｼ","kana_address":"ﾊｼﾂﾞﾒｼﾝﾏﾁ","pref":"石川県","city":"白山市","address":"橋爪新町"},
{"zip_code":"9240812","kana_pref":"ｲｼｶﾜｹﾝ","kana_city":"ﾊｸｻﾝｼ","kana_address":"ﾊｼﾂﾞﾒﾏﾁ","pref":"石川県","city":"白山市","address":"橋爪町"},
{"zip_code":"9240002","kana_pref":"ｲｼｶﾜｹﾝ","kana_city":"ﾊｸｻﾝｼ","kana_address":"ﾊｯﾀﾅｶﾏﾁ","pref":"石川県","city":"白山市","address":"八田中町"},
{"zip_code":"9240001","kana_pref":"ｲｼｶﾜｹﾝ","kana_city":"ﾊｸｻﾝｼ","kana_address":"ﾊｯﾀﾏﾁ","pref":"石川県","city":"白山市","address":"八田町"},
{"zip_code":"9240864","kana_pref":"ｲｼｶﾜｹﾝ","kana_city":"ﾊｸｻﾝｼ","kana_address":"ﾊﾞﾊﾞ","pref":"石川県","city":"白山市","address":"馬場"},
{"zip_code":"9240013","kana_pref":"ｲｼｶﾜｹﾝ","kana_city":"ﾊｸｻﾝｼ","kana_address":"ﾊﾞﾝｼﾞｮｳﾏﾁ","pref":"石川県","city":"白山市","address":"番匠町"},
{"zip_code":"9240856","kana_pref":"ｲｼｶﾜｹﾝ","kana_city":"ﾊｸｻﾝｼ","kana_address":"ﾊﾞﾝﾀﾞﾏﾁ","pref":"石川県","city":"白山市","address":"番田町"},
{"zip_code":"9240883","kana_pref":"ｲｼｶﾜｹﾝ","kana_city":"ﾊｸｻﾝｼ","kana_address":"ﾋｶﾞｼｲﾁﾊﾞﾝﾁｮｳ","pref":"石川県","city":"白山市","address":"東一番町"},
{"zip_code":"9240042","kana_pref":"ｲｼｶﾜｹﾝ","kana_city":"ﾊｸｻﾝｼ","kana_address":"ﾋｶﾞｼｶｼﾜﾏﾁ","pref":"石川県","city":"白山市","address":"東柏町"},
{"zip_code":"9240887","kana_pref":"ｲｼｶﾜｹﾝ","kana_city":"ﾊｸｻﾝｼ","kana_address":"ﾋｶﾞｼｻﾝﾊﾞﾝﾁｮｳ","pref":"石川県","city":"白山市","address":"東三番町"},
{"zip_code":"9240884","kana_pref":"ｲｼｶﾜｹﾝ","kana_city":"ﾊｸｻﾝｼ","kana_address":"ﾋｶﾞｼｼﾝﾏﾁ","pref":"石川県","city":"白山市","address":"東新町"},
{"zip_code":"9240886","kana_pref":"ｲｼｶﾜｹﾝ","kana_city":"ﾊｸｻﾝｼ","kana_address":"ﾋｶﾞｼﾆﾊﾞﾝﾁｮｳ","pref":"石川県","city":"白山市","address":"東二番町"},
{"zip_code":"9240041","kana_pref":"ｲｼｶﾜｹﾝ","kana_city":"ﾊｸｻﾝｼ","kana_address":"ﾋｶﾞｼﾐｻﾜﾉﾏﾁ","pref":"石川県","city":"白山市","address":"東美沢野町"},
{"zip_code":"9240026","kana_pref":"ｲｼｶﾜｹﾝ","kana_city":"ﾊｸｻﾝｼ","kana_address":"ﾋﾗｷﾞﾏﾁ","pref":"石川県","city":"白山市","address":"平木町"},
{"zip_code":"9240841","kana_pref":"ｲｼｶﾜｹﾝ","kana_city":"ﾊｸｻﾝｼ","kana_address":"ﾋﾗﾏﾂﾏﾁ","pref":"石川県","city":"白山市","address":"平松町"},
{"zip_code":"9240813","kana_pref":"ｲｼｶﾜｹﾝ","kana_city":"ﾊｸｻﾝｼ","kana_address":"ﾌｸｼｮｳｼﾞﾏﾁ","pref":"石川県","city":"白山市","address":"福正寺町"},
{"zip_code":"9240858","kana_pref":"ｲｼｶﾜｹﾝ","kana_city":"ﾊｸｻﾝｼ","kana_address":"ﾌｸｼﾝﾏﾁ","pref":"石川県","city":"白山市","address":"福新町"},
{"zip_code":"9240051","kana_pref":"ｲｼｶﾜｹﾝ","kana_city":"ﾊｸｻﾝｼ","kana_address":"ﾌｸﾄﾞﾒﾏﾁ","pref":"石川県","city":"白山市","address":"福留町"},
{"zip_code":"9240059","kana_pref":"ｲｼｶﾜｹﾝ","kana_city":"ﾊｸｻﾝｼ","kana_address":"ﾌｸﾄﾞﾒﾐﾅﾐ","pref":"石川県","city":"白山市","address":"福留南"},
{"zip_code":"9240857","kana_pref":"ｲｼｶﾜｹﾝ","kana_city":"ﾊｸｻﾝｼ","kana_address":"ﾌｸﾅｶﾞﾏﾁ","pref":"石川県","city":"白山市","address":"福永町"},
{"zip_code":"9240012","kana_pref":"ｲｼｶﾜｹﾝ","kana_city":"ﾊｸｻﾝｼ","kana_address":"ﾌｸﾏｽﾏﾁ","pref":"石川県","city":"白山市","address":"福増町"},
{"zip_code":"9240831","kana_pref":"ｲｼｶﾜｹﾝ","kana_city":"ﾊｸｻﾝｼ","kana_address":"ﾌｼﾞﾅﾐ","pref":"石川県","city":"白山市","address":"藤波"},
{"zip_code":"9240832","kana_pref":"ｲｼｶﾜｹﾝ","kana_city":"ﾊｸｻﾝｼ","kana_address":"ﾌｼﾞﾉｷﾏﾁ","pref":"石川県","city":"白山市","address":"藤木町"},
{"zip_code":"9240025","kana_pref":"ｲｼｶﾜｹﾝ","kana_city":"ﾊｸｻﾝｼ","kana_address":"ﾌﾞｼﾞｮｳ","pref":"石川県","city":"白山市","address":"蕪城"},
{"zip_code":"9240872","kana_pref":"ｲｼｶﾜｹﾝ","kana_city":"ﾊｸｻﾝｼ","kana_address":"ﾌﾙｼﾛﾏﾁ","pref":"石川県","city":"白山市","address":"古城町"},
{"zip_code":"9240076","kana_pref":"ｲｼｶﾜｹﾝ","kana_city":"ﾊｸｻﾝｼ","kana_address":"ﾎｳﾌﾞﾂﾏﾁ","pref":"石川県","city":"白山市","address":"法仏町"},
{"zip_code":"9240823","kana_pref":"ｲｼｶﾜｹﾝ","kana_city":"ﾊｸｻﾝｼ","kana_address":"ﾎﾞｳﾏﾙﾏﾁ","pref":"石川県","city":"白山市","address":"坊丸町"},
{"zip_code":"9240057","kana_pref":"ｲｼｶﾜｹﾝ","kana_city":"ﾊｸｻﾝｼ","kana_address":"ﾏﾂﾓﾄﾏﾁ","pref":"石川県","city":"白山市","address":"松本町"},
{"zip_code":"9240815","kana_pref":"ｲｼｶﾜｹﾝ","kana_city":"ﾊｸｻﾝｼ","kana_address":"ﾐｳﾗﾏﾁ","pref":"石川県","city":"白山市","address":"三浦町"},
{"zip_code":"9240820","kana_pref":"ｲｼｶﾜｹﾝ","kana_city":"ﾊｸｻﾝｼ","kana_address":"ﾐｻﾄﾏﾁ","pref":"石川県","city":"白山市","address":"美里町"},
{"zip_code":"9240048","kana_pref":"ｲｼｶﾜｹﾝ","kana_city":"ﾊｸｻﾝｼ","kana_address":"ﾐｻﾜﾉﾏﾁ","pref":"石川県","city":"白山市","address":"美沢野町"},
{"zip_code":"9240855","kana_pref":"ｲｼｶﾜｹﾝ","kana_city":"ﾊｸｻﾝｼ","kana_address":"ﾐｽﾞｼﾏﾏﾁ","pref":"石川県","city":"白山市","address":"水島町"},
{"zip_code":"9240822","kana_pref":"ｲｼｶﾜｹﾝ","kana_city":"ﾊｸｻﾝｼ","kana_address":"ﾐｽﾞﾎ","pref":"石川県","city":"白山市","address":"みずほ"},
{"zip_code":"9240053","kana_pref":"ｲｼｶﾜｹﾝ","kana_city":"ﾊｸｻﾝｼ","kana_address":"ﾐｽﾐﾏﾁ","pref":"石川県","city":"白山市","address":"水澄町"},
{"zip_code":"9240016","kana_pref":"ｲｼｶﾜｹﾝ","kana_city":"ﾊｸｻﾝｼ","kana_address":"ﾐﾔﾅｶﾞｲﾁﾏﾁ","pref":"石川県","city":"白山市","address":"宮永市町"},
{"zip_code":"9240018","kana_pref":"ｲｼｶﾜｹﾝ","kana_city":"ﾊｸｻﾝｼ","kana_address":"ﾐﾔﾅｶﾞｼﾝﾏﾁ","pref":"石川県","city":"白山市","address":"宮永新町"},
{"zip_code":"9240017","kana_pref":"ｲｼｶﾜｹﾝ","kana_city":"ﾊｸｻﾝｼ","kana_address":"ﾐﾔﾅｶﾞﾏﾁ","pref":"石川県","city":"白山市","address":"宮永町"},
{"zip_code":"9240069","kana_pref":"ｲｼｶﾜｹﾝ","kana_city":"ﾊｸｻﾝｼ","kana_address":"ﾐﾔﾊﾗﾏﾁ","pref":"石川県","city":"白山市","address":"宮原町"},
{"zip_code":"9240068","kana_pref":"ｲｼｶﾜｹﾝ","kana_city":"ﾊｸｻﾝｼ","kana_address":"ﾐﾔﾎﾞｼﾝﾁｮｳ","pref":"石川県","city":"白山市","address":"宮保新町"},
{"zip_code":"9240061","kana_pref":"ｲｼｶﾜｹﾝ","kana_city":"ﾊｸｻﾝｼ","kana_address":"ﾐﾔﾎﾞﾏﾁ","pref":"石川県","city":"白山市","address":"宮保町"},
{"zip_code":"9240033","kana_pref":"ｲｼｶﾜｹﾝ","kana_city":"ﾊｸｻﾝｼ","kana_address":"ﾐﾔﾏﾙﾏﾁ","pref":"石川県","city":"白山市","address":"宮丸町"},
{"zip_code":"9240816","kana_pref":"ｲｼｶﾜｹﾝ","kana_city":"ﾊｸｻﾝｼ","kana_address":"ﾐﾕｷﾏﾁ","pref":"石川県","city":"白山市","address":"三幸町"},
{"zip_code":"9240833","kana_pref":"ｲｼｶﾜｹﾝ","kana_city":"ﾊｸｻﾝｼ","kana_address":"ﾑｶｲｼﾞﾏﾏﾁ","pref":"石川県","city":"白山市","address":"向島町"},
{"zip_code":"9240006","kana_pref":"ｲｼｶﾜｹﾝ","kana_city":"ﾊｸｻﾝｼ","kana_address":"ﾑﾗｲｼﾝﾏﾁ","pref":"石川県","city":"白山市","address":"村井新町"},
{"zip_code":"9240031","kana_pref":"ｲｼｶﾜｹﾝ","kana_city":"ﾊｸｻﾝｼ","kana_address":"ﾑﾗｲﾋｶﾞｼ","pref":"石川県","city":"白山市","address":"村井東"},
{"zip_code":"9240032","kana_pref":"ｲｼｶﾜｹﾝ","kana_city":"ﾊｸｻﾝｼ","kana_address":"ﾑﾗｲﾏﾁ","pref":"石川県","city":"白山市","address":"村井町"},
{"zip_code":"9240834","kana_pref":"ｲｼｶﾜｹﾝ","kana_city":"ﾊｸｻﾝｼ","kana_address":"ﾔｺﾞﾛｼﾞﾏﾏﾁ","pref":"石川県","city":"白山市","address":"矢頃島町"},
{"zip_code":"9240862","kana_pref":"ｲｼｶﾜｹﾝ","kana_city":"ﾊｸｻﾝｼ","kana_address":"ﾔｽﾀﾏﾁ","pref":"石川県","city":"白山市","address":"安田町"},
{"zip_code":"9240843","kana_pref":"ｲｼｶﾜｹﾝ","kana_city":"ﾊｸｻﾝｼ","kana_address":"ﾔｽﾖｼﾏﾁ","pref":"石川県","city":"白山市","address":"安吉町"},
{"zip_code":"9240838","kana_pref":"ｲｼｶﾜｹﾝ","kana_city":"ﾊｸｻﾝｼ","kana_address":"ﾔﾂｶﾎ","pref":"石川県","city":"白山市","address":"八束穂"},
{"zip_code":"9240881","kana_pref":"ｲｼｶﾜｹﾝ","kana_city":"ﾊｸｻﾝｼ","kana_address":"ﾔﾂﾔｼﾝﾏﾁ","pref":"石川県","city":"白山市","address":"八ツ矢新町"},
{"zip_code":"9240882","kana_pref":"ｲｼｶﾜｹﾝ","kana_city":"ﾊｸｻﾝｼ","kana_address":"ﾔﾂﾔﾏﾁ","pref":"石川県","city":"白山市","address":"八ツ矢町"},
{"zip_code":"9240836","kana_pref":"ｲｼｶﾜｹﾝ","kana_city":"ﾊｸｻﾝｼ","kana_address":"ﾔﾏｼﾞﾏﾀﾞｲ","pref":"石川県","city":"白山市","address":"山島台"},
{"zip_code":"9240873","kana_pref":"ｲｼｶﾜｹﾝ","kana_city":"ﾊｸｻﾝｼ","kana_address":"ﾖｳｶｲﾁﾏﾁ","pref":"石川県","city":"白山市","address":"八日市町"},
{"zip_code":"9240011","kana_pref":"ｲｼｶﾜｹﾝ","kana_city":"ﾊｸｻﾝｼ","kana_address":"ﾖｺｴﾏﾁ","pref":"石川県","city":"白山市","address":"横江町"},
{"zip_code":"9240861","kana_pref":"ｲｼｶﾜｹﾝ","kana_city":"ﾊｸｻﾝｼ","kana_address":"ﾖｺﾏﾁ","pref":"石川県","city":"白山市","address":"横町"},
{"zip_code":"9240837","kana_pref":"ｲｼｶﾜｹﾝ","kana_city":"ﾊｸｻﾝｼ","kana_address":"ﾖｼﾀﾞﾏﾁ","pref":"石川県","city":"白山市","address":"吉田町"},
{"zip_code":"9240874","kana_pref":"ｲｼｶﾜｹﾝ","kana_city":"ﾊｸｻﾝｼ","kana_address":"ﾖｯｶｲﾁﾏﾁ","pref":"石川県","city":"白山市","address":"四日市町"},
{"zip_code":"9240852","kana_pref":"ｲｼｶﾜｹﾝ","kana_city":"ﾊｸｻﾝｼ","kana_address":"ﾖﾂﾔﾏﾁ","pref":"石川県","city":"白山市","address":"四ツ屋町"},
{"zip_code":"9240075","kana_pref":"ｲｼｶﾜｹﾝ","kana_city":"ﾊｸｻﾝｼ","kana_address":"ﾖﾈﾅｶﾞﾏﾁ","pref":"石川県","city":"白山市","address":"米永町"},
{"zip_code":"9240054","kana_pref":"ｲｼｶﾜｹﾝ","kana_city":"ﾊｸｻﾝｼ","kana_address":"ﾖﾈﾐﾂﾏﾁ","pref":"石川県","city":"白山市","address":"米光町"},
{"zip_code":"9240844","kana_pref":"ｲｼｶﾜｹﾝ","kana_city":"ﾊｸｻﾝｼ","kana_address":"ﾖﾘｼﾝﾎﾞﾏﾁ","pref":"石川県","city":"白山市","address":"寄新保町"},
{"zip_code":"9240805","kana_pref":"ｲｼｶﾜｹﾝ","kana_city":"ﾊｸｻﾝｼ","kana_address":"ﾜｶﾐﾔ","pref":"石川県","city":"白山市","address":"若宮"}]}