{"zip_code":[
{"zip_code":"9260000","kana_pref":"ｲｼｶﾜｹﾝ","kana_city":"ﾅﾅｵｼ","kana_address":"","pref":"石川県","city":"七尾市","address":""},
{"zip_code":"9260044","kana_pref":"ｲｼｶﾜｹﾝ","kana_city":"ﾅﾅｵｼ","kana_address":"ｱｲｵｲﾁｮｳ","pref":"石川県","city":"七尾市","address":"相生町"},
{"zip_code":"9260823","kana_pref":"ｲｼｶﾜｹﾝ","kana_city":"ﾅﾅｵｼ","kana_address":"ｱｵﾊﾞﾀﾞｲﾏﾁ","pref":"石川県","city":"七尾市","address":"青葉台町"},
{"zip_code":"9260831","kana_pref":"ｲｼｶﾜｹﾝ","kana_city":"ﾅﾅｵｼ","kana_address":"ｱｵﾔﾏﾏﾁ","pref":"石川県","city":"七尾市","address":"青山町"},
{"zip_code":"9260843","kana_pref":"ｲｼｶﾜｹﾝ","kana_city":"ﾅﾅｵｼ","kana_address":"ｱｶｳﾗﾏﾁ","pref":"石川県","city":"七尾市","address":"赤浦町"},
{"zip_code":"9260833","kana_pref":"ｲｼｶﾜｹﾝ","kana_city":"ﾅﾅｵｼ","kana_address":"ｱｻﾋﾏﾁ","pref":"石川県","city":"七尾市","address":"旭町"},
{"zip_code":"9260372","kana_pref":"ｲｼｶﾜｹﾝ","kana_city":"ﾅﾅｵｼ","kana_address":"ｱｿｳﾏﾁ","pref":"石川県","city":"七尾市","address":"麻生町"},
{"zip_code":"9260807","kana_pref":"ｲｼｶﾜｹﾝ","kana_city":"ﾅﾅｵｼ","kana_address":"ｱﾗﾏﾁ","pref":"石川県","city":"七尾市","address":"阿良町"},
{"zip_code":"9260366","kana_pref":"ｲｼｶﾜｹﾝ","kana_city":"ﾅﾅｵｼ","kana_address":"ｲｵﾘﾏﾁ","pref":"石川県","city":"七尾市","address":"庵町"},
{"zip_code":"9260364","kana_pref":"ｲｼｶﾜｹﾝ","kana_city":"ﾅﾅｵｼ","kana_address":"ｲｵﾘﾏﾁ","pref":"石川県","city":"七尾市","address":"庵町"},
{"zip_code":"9260365","kana_pref":"ｲｼｶﾜｹﾝ","kana_city":"ﾅﾅｵｼ","kana_address":"ｲｵﾘﾏﾁ","pref":"石川県","city":"七尾市","address":"庵町"},
{"zip_code":"9260367","kana_pref":"ｲｼｶﾜｹﾝ","kana_city":"ﾅﾅｵｼ","kana_address":"ｲｵﾘﾏﾁ","pref":"石川県","city":"七尾市","address":"庵町"},
{"zip_code":"9260826","kana_pref":"ｲｼｶﾜｹﾝ","kana_city":"ﾅﾅｵｼ","kana_address":"ｲｶﾞﾜﾏﾁ","pref":"石川県","city":"七尾市","address":"飯川町"},
{"zip_code":"9260831","kana_pref":"ｲｼｶﾜｹﾝ","kana_city":"ﾅﾅｵｼ","kana_address":"ｲｹｻﾞｷﾏﾁ","pref":"石川県","city":"七尾市","address":"池崎町"},
{"zip_code":"9260804","kana_pref":"ｲｼｶﾜｹﾝ","kana_city":"ﾅﾅｵｼ","kana_address":"ｲｺﾏﾁｮｳ","pref":"石川県","city":"七尾市","address":"生駒町"},
{"zip_code":"9260171","kana_pref":"ｲｼｶﾜｹﾝ","kana_city":"ﾅﾅｵｼ","kana_address":"ｲｼｻﾞｷﾏﾁ","pref":"石川県","city":"七尾市","address":"石崎町"},
{"zip_code":"9260178","kana_pref":"ｲｼｶﾜｹﾝ","kana_city":"ﾅﾅｵｼ","kana_address":"ｲｼｻﾞｷﾏﾁ","pref":"石川県","city":"七尾市","address":"石崎町"},
{"zip_code":"9260173","kana_pref":"ｲｼｶﾜｹﾝ","kana_city":"ﾅﾅｵｼ","kana_address":"ｲｼｻﾞｷﾏﾁ","pref":"石川県","city":"七尾市","address":"石崎町"},
{"zip_code":"9260172","kana_pref":"ｲｼｶﾜｹﾝ","kana_city":"ﾅﾅｵｼ","kana_address":"ｲｼｻﾞｷﾏﾁ","pref":"石川県","city":"七尾市","address":"石崎町"},
{"zip_code":"9260806","kana_pref":"ｲｼｶﾜｹﾝ","kana_city":"ﾅﾅｵｼ","kana_address":"ｲｯﾎﾟﾝｽｷﾞﾏﾁ","pref":"石川県","city":"七尾市","address":"一本杉町"},
{"zip_code":"9260055","kana_pref":"ｲｼｶﾜｹﾝ","kana_city":"ﾅﾅｵｼ","kana_address":"ｲﾏﾏﾁ","pref":"石川県","city":"七尾市","address":"今町"},
{"zip_code":"9260816","kana_pref":"ｲｼｶﾜｹﾝ","kana_city":"ﾅﾅｵｼ","kana_address":"ｲﾜﾔﾏﾁ","pref":"石川県","city":"七尾市","address":"岩屋町"},
{"zip_code":"9260864","kana_pref":"ｲｼｶﾜｹﾝ","kana_city":"ﾅﾅｵｼ","kana_address":"ｳｵﾏﾁ","pref":"石川県","city":"七尾市","address":"魚町"},
{"zip_code":"9260027","kana_pref":"ｲｼｶﾜｹﾝ","kana_city":"ﾅﾅｵｼ","kana_address":"ｳｼﾛﾊﾞﾀｹﾏﾁ","pref":"石川県","city":"七尾市","address":"後畠町"},
{"zip_code":"9260001","kana_pref":"ｲｼｶﾜｹﾝ","kana_city":"ﾅﾅｵｼ","kana_address":"ｳﾉｳﾗﾏﾁ","pref":"石川県","city":"七尾市","address":"鵜浦町"},
{"zip_code":"9260825","kana_pref":"ｲｼｶﾜｹﾝ","kana_city":"ﾅﾅｵｼ","kana_address":"ｴｿﾏﾁ","pref":"石川県","city":"七尾市","address":"江曽町"},
{"zip_code":"9260363","kana_pref":"ｲｼｶﾜｹﾝ","kana_city":"ﾅﾅｵｼ","kana_address":"ｴﾉﾄﾏﾘﾏﾁ","pref":"石川県","city":"七尾市","address":"江泊町"},
{"zip_code":"9260364","kana_pref":"ｲｼｶﾜｹﾝ","kana_city":"ﾅﾅｵｼ","kana_address":"ｴﾉﾄﾏﾘﾏﾁ","pref":"石川県","city":"七尾市","address":"江泊町"},
{"zip_code":"9260361","kana_pref":"ｲｼｶﾜｹﾝ","kana_city":"ﾅﾅｵｼ","kana_address":"ｴﾉﾄﾏﾘﾏﾁ","pref":"石川県","city":"七尾市","address":"江泊町"},
{"zip_code":"9260006","kana_pref":"ｲｼｶﾜｹﾝ","kana_city":"ﾅﾅｵｼ","kana_address":"ｵｵﾀｼﾝﾏﾁ","pref":"石川県","city":"七尾市","address":"大田新町"},
{"zip_code":"9260006","kana_pref":"ｲｼｶﾜｹﾝ","kana_city":"ﾅﾅｵｼ","kana_address":"ｵｵﾀﾏﾁ","pref":"石川県","city":"七尾市","address":"大田町"},
{"zip_code":"9260047","kana_pref":"ｲｼｶﾜｹﾝ","kana_city":"ﾅﾅｵｼ","kana_address":"ｵｵﾃﾏﾁ","pref":"石川県","city":"七尾市","address":"大手町"},
{"zip_code":"9260384","kana_pref":"ｲｼｶﾜｹﾝ","kana_city":"ﾅﾅｵｼ","kana_address":"ｵｵﾄﾏﾘﾏﾁ","pref":"石川県","city":"七尾市","address":"大泊町"},
{"zip_code":"9260362","kana_pref":"ｲｼｶﾜｹﾝ","kana_city":"ﾅﾅｵｼ","kana_address":"ｵｵﾉｷﾞﾏﾁ","pref":"石川県","city":"七尾市","address":"大野木町"},
{"zip_code":"9260005","kana_pref":"ｲｼｶﾜｹﾝ","kana_city":"ﾅﾅｵｼ","kana_address":"ｵｶﾏﾁ","pref":"石川県","city":"七尾市","address":"岡町"},
{"zip_code":"9260174","kana_pref":"ｲｼｶﾜｹﾝ","kana_city":"ﾅﾅｵｼ","kana_address":"ｵｸﾊﾗﾏﾁ","pref":"石川県","city":"七尾市","address":"奥原町"},
{"zip_code":"9260373","kana_pref":"ｲｼｶﾜｹﾝ","kana_city":"ﾅﾅｵｼ","kana_address":"ｵｸﾞﾘﾏﾁ","pref":"石川県","city":"七尾市","address":"小栗町"},
{"zip_code":"9260057","kana_pref":"ｲｼｶﾜｹﾝ","kana_city":"ﾅﾅｵｼ","kana_address":"ｶｼﾞﾏﾁ","pref":"石川県","city":"七尾市","address":"鍛冶町"},
{"zip_code":"9260053","kana_pref":"ｲｼｶﾜｹﾝ","kana_city":"ﾅﾅｵｼ","kana_address":"ｶﾐﾌﾁｭｳﾏﾁ","pref":"石川県","city":"七尾市","address":"上府中町"},
{"zip_code":"9260805","kana_pref":"ｲｼｶﾜｹﾝ","kana_city":"ﾅﾅｵｼ","kana_address":"ｶﾒﾔﾏﾁｮｳ","pref":"石川県","city":"七尾市","address":"亀山町"},
{"zip_code":"9260054","kana_pref":"ｲｼｶﾜｹﾝ","kana_city":"ﾅﾅｵｼ","kana_address":"ｶﾜﾗﾏﾁ","pref":"石川県","city":"七尾市","address":"川原町"},
{"zip_code":"9260812","kana_pref":"ｲｼｶﾜｹﾝ","kana_city":"ﾅﾅｵｼ","kana_address":"ｷﾀﾌｼﾞﾊｼﾏﾁ","pref":"石川県","city":"七尾市","address":"北藤橋町"},
{"zip_code":"9260808","kana_pref":"ｲｼｶﾜｹﾝ","kana_city":"ﾅﾅｵｼ","kana_address":"ｷﾏﾁ","pref":"石川県","city":"七尾市","address":"木町"},
{"zip_code":"9260387","kana_pref":"ｲｼｶﾜｹﾝ","kana_city":"ﾅﾅｵｼ","kana_address":"ｸﾏﾌﾞﾁﾏﾁ","pref":"石川県","city":"七尾市","address":"熊淵町"},
{"zip_code":"9260389","kana_pref":"ｲｼｶﾜｹﾝ","kana_city":"ﾅﾅｵｼ","kana_address":"ｸﾏﾌﾞﾁﾏﾁ","pref":"石川県","city":"七尾市","address":"熊淵町"},
{"zip_code":"9260388","kana_pref":"ｲｼｶﾜｹﾝ","kana_city":"ﾅﾅｵｼ","kana_address":"ｸﾏﾌﾞﾁﾏﾁ","pref":"石川県","city":"七尾市","address":"熊淵町"},
{"zip_code":"9260381","kana_pref":"ｲｼｶﾜｹﾝ","kana_city":"ﾅﾅｵｼ","kana_address":"ｸﾛｻｷﾏﾁ","pref":"石川県","city":"七尾市","address":"黒崎町"},
{"zip_code":"9260026","kana_pref":"ｲｼｶﾜｹﾝ","kana_city":"ﾅﾅｵｼ","kana_address":"ｺｲｹｶﾞﾜﾗﾏﾁ","pref":"石川県","city":"七尾市","address":"小池川原町"},
{"zip_code":"9260375","kana_pref":"ｲｼｶﾜｹﾝ","kana_city":"ﾅﾅｵｼ","kana_address":"ｺｳｼﾞﾏﾁ","pref":"石川県","city":"七尾市","address":"柑子町"},
{"zip_code":"9260177","kana_pref":"ｲｼｶﾜｹﾝ","kana_city":"ﾅﾅｵｼ","kana_address":"ｺｳﾖｳﾀﾞｲ","pref":"石川県","city":"七尾市","address":"光陽台"},
{"zip_code":"9260051","kana_pref":"ｲｼｶﾜｹﾝ","kana_city":"ﾅﾅｵｼ","kana_address":"ｺｵﾘﾏﾁ","pref":"石川県","city":"七尾市","address":"郡町"},
{"zip_code":"9260037","kana_pref":"ｲｼｶﾜｹﾝ","kana_city":"ﾅﾅｵｼ","kana_address":"ｺｸｶﾞﾏﾁ","pref":"石川県","city":"七尾市","address":"国下町"},
{"zip_code":"9260821","kana_pref":"ｲｼｶﾜｹﾝ","kana_city":"ﾅﾅｵｼ","kana_address":"ｺｸﾌﾞﾏﾁ","pref":"石川県","city":"七尾市","address":"国分町"},
{"zip_code":"9260852","kana_pref":"ｲｼｶﾜｹﾝ","kana_city":"ﾅﾅｵｼ","kana_address":"ｺｼﾞﾏﾏﾁ","pref":"石川県","city":"七尾市","address":"小島町"},
{"zip_code":"9260861","kana_pref":"ｲｼｶﾜｹﾝ","kana_city":"ﾅﾅｵｼ","kana_address":"ｺﾄﾌﾞｷﾁｮｳ","pref":"石川県","city":"七尾市","address":"寿町"},
{"zip_code":"9260855","kana_pref":"ｲｼｶﾜｹﾝ","kana_city":"ﾅﾅｵｼ","kana_address":"ｺﾏﾙﾔﾏﾀﾞｲ","pref":"石川県","city":"七尾市","address":"小丸山台"},
{"zip_code":"9260803","kana_pref":"ｲｼｶﾜｹﾝ","kana_city":"ﾅﾅｵｼ","kana_address":"ｺﾒﾏﾁ","pref":"石川県","city":"七尾市","address":"米町"},
{"zip_code":"9260815","kana_pref":"ｲｼｶﾜｹﾝ","kana_city":"ﾅﾅｵｼ","kana_address":"ｻｶｴﾏﾁ","pref":"石川県","city":"七尾市","address":"栄町"},
{"zip_code":"9260042","kana_pref":"ｲｼｶﾜｹﾝ","kana_city":"ﾅﾅｵｼ","kana_address":"ｻｸｼﾞﾏﾁ","pref":"石川県","city":"七尾市","address":"作事町"},
{"zip_code":"9260867","kana_pref":"ｲｼｶﾜｹﾝ","kana_city":"ﾅﾅｵｼ","kana_address":"ｻｸﾗﾏﾁ","pref":"石川県","city":"七尾市","address":"桜町"},
{"zip_code":"9260371","kana_pref":"ｲｼｶﾜｹﾝ","kana_city":"ﾅﾅｵｼ","kana_address":"ｻｻﾞﾅﾐﾏﾁ","pref":"石川県","city":"七尾市","address":"佐々波町"},
{"zip_code":"9260013","kana_pref":"ｲｼｶﾜｹﾝ","kana_city":"ﾅﾅｵｼ","kana_address":"ｻﾉﾏﾁ","pref":"石川県","city":"七尾市","address":"佐野町"},
{"zip_code":"9260011","kana_pref":"ｲｼｶﾜｹﾝ","kana_city":"ﾅﾅｵｼ","kana_address":"ｻﾐﾏﾁ","pref":"石川県","city":"七尾市","address":"佐味町"},
{"zip_code":"9260003","kana_pref":"ｲｼｶﾜｹﾝ","kana_city":"ﾅﾅｵｼ","kana_address":"ｻﾜﾉﾏﾁ","pref":"石川県","city":"七尾市","address":"沢野町"},
{"zip_code":"9260052","kana_pref":"ｲｼｶﾜｹﾝ","kana_city":"ﾅﾅｵｼ","kana_address":"ｻﾝﾉｳﾏﾁ","pref":"石川県","city":"七尾市","address":"山王町"},
{"zip_code":"9260374","kana_pref":"ｲｼｶﾜｹﾝ","kana_city":"ﾅﾅｵｼ","kana_address":"ｼﾐｽﾞﾀﾞｲﾗﾏﾁ","pref":"石川県","city":"七尾市","address":"清水平町"},
{"zip_code":"9260824","kana_pref":"ｲｼｶﾜｹﾝ","kana_city":"ﾅﾅｵｼ","kana_address":"ｼﾓﾏﾁ","pref":"石川県","city":"七尾市","address":"下町"},
{"zip_code":"9260801","kana_pref":"ｲｼｶﾜｹﾝ","kana_city":"ﾅﾅｵｼ","kana_address":"ｼｮｳﾜﾏﾁ","pref":"石川県","city":"七尾市","address":"昭和町"},
{"zip_code":"9260828","kana_pref":"ｲｼｶﾜｹﾝ","kana_city":"ﾅﾅｵｼ","kana_address":"ｼﾛｳﾏﾏﾁ","pref":"石川県","city":"七尾市","address":"白馬町"},
{"zip_code":"9260863","kana_pref":"ｲｼｶﾜｹﾝ","kana_city":"ﾅﾅｵｼ","kana_address":"ｼﾛｶﾞﾈﾁｮｳ","pref":"石川県","city":"七尾市","address":"白銀町"},
{"zip_code":"9260845","kana_pref":"ｲｼｶﾜｹﾝ","kana_city":"ﾅﾅｵｼ","kana_address":"ｼﾝﾎﾞﾏﾁ","pref":"石川県","city":"七尾市","address":"新保町"},
{"zip_code":"9260046","kana_pref":"ｲｼｶﾜｹﾝ","kana_city":"ﾅﾅｵｼ","kana_address":"ｼﾝﾒｲﾁｮｳ","pref":"石川県","city":"七尾市","address":"神明町"},
{"zip_code":"9260179","kana_pref":"ｲｼｶﾜｹﾝ","kana_city":"ﾅﾅｵｼ","kana_address":"ｾﾝﾅﾝﾀﾞｲ","pref":"石川県","city":"七尾市","address":"泉南台"},
{"zip_code":"9260045","kana_pref":"ｲｼｶﾜｹﾝ","kana_city":"ﾅﾅｵｼ","kana_address":"ｿﾃﾞｶﾞｴﾁｮｳ","pref":"石川県","city":"七尾市","address":"袖ケ江町"},
{"zip_code":"9260376","kana_pref":"ｲｼｶﾜｹﾝ","kana_city":"ﾅﾅｵｼ","kana_address":"ｿﾄﾊﾞﾔｼﾏﾁ","pref":"石川県","city":"七尾市","address":"外林町"},
{"zip_code":"9260846","kana_pref":"ｲｼｶﾜｹﾝ","kana_city":"ﾅﾅｵｼ","kana_address":"ｿﾊﾏﾏﾁ","pref":"石川県","city":"七尾市","address":"祖浜町"},
{"zip_code":"9260023","kana_pref":"ｲｼｶﾜｹﾝ","kana_city":"ﾅﾅｵｼ","kana_address":"ﾀｹﾏﾁ","pref":"石川県","city":"七尾市","address":"竹町"},
{"zip_code":"9260844","kana_pref":"ｲｼｶﾜｹﾝ","kana_city":"ﾅﾅｵｼ","kana_address":"ﾀﾀﾞﾂﾏﾁ","pref":"石川県","city":"七尾市","address":"直津町"},
{"zip_code":"9260043","kana_pref":"ｲｼｶﾜｹﾝ","kana_city":"ﾅﾅｵｼ","kana_address":"ﾀﾁﾊﾞﾅﾁｮｳ","pref":"石川県","city":"七尾市","address":"橘町"},
{"zip_code":"9260034","kana_pref":"ｲｼｶﾜｹﾝ","kana_city":"ﾅﾅｵｼ","kana_address":"ﾀﾈﾏﾁ","pref":"石川県","city":"七尾市","address":"多根町"},
{"zip_code":"9260033","kana_pref":"ｲｼｶﾜｹﾝ","kana_city":"ﾅﾅｵｼ","kana_address":"ﾁﾉﾏﾁ","pref":"石川県","city":"七尾市","address":"千野町"},
{"zip_code":"9260851","kana_pref":"ｲｼｶﾜｹﾝ","kana_city":"ﾅﾅｵｼ","kana_address":"ﾂﾂｼﾞｶﾞﾊﾏ","pref":"石川県","city":"七尾市","address":"つつじが浜"},
{"zip_code":"9260853","kana_pref":"ｲｼｶﾜｹﾝ","kana_city":"ﾅﾅｵｼ","kana_address":"ﾂﾑｷﾞﾏﾁ","pref":"石川県","city":"七尾市","address":"津向町"},
{"zip_code":"9260022","kana_pref":"ｲｼｶﾜｹﾝ","kana_city":"ﾅﾅｵｼ","kana_address":"ﾃﾝｼﾞﾝｶﾜﾗﾏﾁ","pref":"石川県","city":"七尾市","address":"天神川原町"},
{"zip_code":"9260383","kana_pref":"ｲｼｶﾜｹﾝ","kana_city":"ﾅﾅｵｼ","kana_address":"ﾄｳﾉﾊﾏﾏﾁ","pref":"石川県","city":"七尾市","address":"東浜町"},
{"zip_code":"9260862","kana_pref":"ｲｼｶﾜｹﾝ","kana_city":"ﾅﾅｵｼ","kana_address":"ﾄｷﾜﾏﾁ","pref":"石川県","city":"七尾市","address":"常盤町"},
{"zip_code":"9260829","kana_pref":"ｲｼｶﾜｹﾝ","kana_city":"ﾅﾅｵｼ","kana_address":"ﾄｸﾀﾞｼﾝﾏﾁ","pref":"石川県","city":"七尾市","address":"徳田新町"},
{"zip_code":"9260824","kana_pref":"ｲｼｶﾜｹﾝ","kana_city":"ﾅﾅｵｼ","kana_address":"ﾄｸﾀﾞﾏﾁ","pref":"石川県","city":"七尾市","address":"徳田町"},
{"zip_code":"9260814","kana_pref":"ｲｼｶﾜｹﾝ","kana_city":"ﾅﾅｵｼ","kana_address":"ﾄｺﾛｸﾞﾁﾏﾁ","pref":"石川県","city":"七尾市","address":"所口町"},
{"zip_code":"9260004","kana_pref":"ｲｼｶﾜｹﾝ","kana_city":"ﾅﾅｵｼ","kana_address":"ﾄﾉﾏﾁ","pref":"石川県","city":"七尾市","address":"殿町"},
{"zip_code":"9260866","kana_pref":"ｲｼｶﾜｹﾝ","kana_city":"ﾅﾅｵｼ","kana_address":"ﾄﾐｵｶﾁｮｳ","pref":"石川県","city":"七尾市","address":"富岡町"},
{"zip_code":"9260021","kana_pref":"ｲｼｶﾜｹﾝ","kana_city":"ﾅﾅｵｼ","kana_address":"ﾄﾓｴﾏﾁ","pref":"石川県","city":"七尾市","address":"巴町"},
{"zip_code":"9260036","kana_pref":"ｲｼｶﾜｹﾝ","kana_city":"ﾅﾅｵｼ","kana_address":"ﾅｶﾊﾞｻﾐﾏﾁ","pref":"石川県","city":"七尾市","address":"中挾町"},
{"zip_code":"9260854","kana_pref":"ｲｼｶﾜｹﾝ","kana_city":"ﾅﾅｵｼ","kana_address":"ﾅｷﾞﾉｳﾗ","pref":"石川県","city":"七尾市","address":"なぎの浦"},
{"zip_code":"9260817","kana_pref":"ｲｼｶﾜｹﾝ","kana_city":"ﾅﾅｵｼ","kana_address":"ﾆｼﾌｼﾞﾊｼﾏﾁ","pref":"石川県","city":"七尾市","address":"西藤橋町"},
{"zip_code":"9260835","kana_pref":"ｲｼｶﾜｹﾝ","kana_city":"ﾅﾅｵｼ","kana_address":"ﾆｼﾐｶｲﾏﾁ","pref":"石川県","city":"七尾市","address":"西三階町"},
{"zip_code":"9260837","kana_pref":"ｲｼｶﾜｹﾝ","kana_city":"ﾅﾅｵｼ","kana_address":"ﾇｸｲﾏﾁ","pref":"石川県","city":"七尾市","address":"温井町"},
{"zip_code":"9260056","kana_pref":"ｲｼｶﾜｹﾝ","kana_city":"ﾅﾅｵｼ","kana_address":"ﾇｼﾏﾁ","pref":"石川県","city":"七尾市","address":"塗師町"},
{"zip_code":"9260203","kana_pref":"ｲｼｶﾜｹﾝ","kana_city":"ﾅﾅｵｼ","kana_address":"ﾉﾄｼﾞﾏｴﾉﾒﾏﾁ","pref":"石川県","city":"七尾市","address":"能登島えの目町"},
{"zip_code":"9260227","kana_pref":"ｲｼｶﾜｹﾝ","kana_city":"ﾅﾅｵｼ","kana_address":"ﾉﾄｼﾞﾏｸｷﾏﾁ","pref":"石川県","city":"七尾市","address":"能登島久木町"},
{"zip_code":"9260211","kana_pref":"ｲｼｶﾜｹﾝ","kana_city":"ﾅﾅｵｼ","kana_address":"ﾉﾄｼﾞﾏｺｳﾀﾞﾏﾁ","pref":"石川県","city":"七尾市","address":"能登島向田町"},
{"zip_code":"9260212","kana_pref":"ｲｼｶﾜｹﾝ","kana_city":"ﾅﾅｵｼ","kana_address":"ﾉﾄｼﾞﾏｻﾅﾐﾏﾁ","pref":"石川県","city":"七尾市","address":"能登島佐波町"},
{"zip_code":"9260213","kana_pref":"ｲｼｶﾜｹﾝ","kana_city":"ﾅﾅｵｼ","kana_address":"ﾉﾄｼﾞﾏｽｿﾏﾁ","pref":"石川県","city":"七尾市","address":"能登島須曽町"},
{"zip_code":"9260226","kana_pref":"ｲｼｶﾜｹﾝ","kana_city":"ﾅﾅｵｼ","kana_address":"ﾉﾄｼﾞﾏﾀｼﾞﾘﾏﾁ","pref":"石川県","city":"七尾市","address":"能登島田尻町"},
{"zip_code":"9260225","kana_pref":"ｲｼｶﾜｹﾝ","kana_city":"ﾅﾅｵｼ","kana_address":"ﾉﾄｼﾞﾏﾄｵﾘﾏﾁ","pref":"石川県","city":"七尾市","address":"能登島通町"},
{"zip_code":"9260204","kana_pref":"ｲｼｶﾜｹﾝ","kana_city":"ﾅﾅｵｼ","kana_address":"ﾉﾄｼﾞﾏﾅｶﾞｻｷﾏﾁ","pref":"石川県","city":"七尾市","address":"能登島長崎町"},
{"zip_code":"9260222","kana_pref":"ｲｼｶﾜｹﾝ","kana_city":"ﾅﾅｵｼ","kana_address":"ﾉﾄｼﾞﾏﾈﾔﾏﾁ","pref":"石川県","city":"七尾市","address":"能登島閨町"},
{"zip_code":"9260205","kana_pref":"ｲｼｶﾜｹﾝ","kana_city":"ﾅﾅｵｼ","kana_address":"ﾉﾄｼﾞﾏﾉｻﾞｷﾏﾁ","pref":"石川県","city":"七尾市","address":"能登島野崎町"},
{"zip_code":"9260201","kana_pref":"ｲｼｶﾜｹﾝ","kana_city":"ﾅﾅｵｼ","kana_address":"ﾉﾄｼﾞﾏﾊﾞｶﾞｳﾗﾏﾁ","pref":"石川県","city":"七尾市","address":"能登島祖母ケ浦町"},
{"zip_code":"9260202","kana_pref":"ｲｼｶﾜｹﾝ","kana_city":"ﾅﾅｵｼ","kana_address":"ﾉﾄｼﾞﾏﾊﾁｶﾞｻｷﾏﾁ","pref":"石川県","city":"七尾市","address":"能登島八ケ崎町"},
{"zip_code":"9260223","kana_pref":"ｲｼｶﾜｹﾝ","kana_city":"ﾅﾅｵｼ","kana_address":"ﾉﾄｼﾞﾏﾊﾝﾉｳﾗﾏﾁ","pref":"石川県","city":"七尾市","address":"能登島半浦町"},
{"zip_code":"9260206","kana_pref":"ｲｼｶﾜｹﾝ","kana_city":"ﾅﾅｵｼ","kana_address":"ﾉﾄｼﾞﾏﾋﾃﾞｶﾞｼﾏﾏﾁ","pref":"石川県","city":"七尾市","address":"能登島日出ケ島町"},
{"zip_code":"9260224","kana_pref":"ｲｼｶﾜｹﾝ","kana_city":"ﾅﾅｵｼ","kana_address":"ﾉﾄｼﾞﾏﾋｬｸﾏﾝｺﾞｸﾏﾁ","pref":"石川県","city":"七尾市","address":"能登島百万石町"},
{"zip_code":"9260207","kana_pref":"ｲｼｶﾜｹﾝ","kana_city":"ﾅﾅｵｼ","kana_address":"ﾉﾄｼﾞﾏﾌﾀｱﾅﾏﾁ","pref":"石川県","city":"七尾市","address":"能登島二穴町"},
{"zip_code":"9260214","kana_pref":"ｲｼｶﾜｹﾝ","kana_city":"ﾅﾅｵｼ","kana_address":"ﾉﾄｼﾞﾏﾍﾞｯｼｮﾏﾁ","pref":"石川県","city":"七尾市","address":"能登島別所町"},
{"zip_code":"9260216","kana_pref":"ｲｼｶﾜｹﾝ","kana_city":"ﾅﾅｵｼ","kana_address":"ﾉﾄｼﾞﾏﾏｶﾞﾘﾏﾁ","pref":"石川県","city":"七尾市","address":"能登島曲町"},
{"zip_code":"9260215","kana_pref":"ｲｼｶﾜｹﾝ","kana_city":"ﾅﾅｵｼ","kana_address":"ﾉﾄｼﾞﾏﾐﾅﾐﾏﾁ","pref":"石川県","city":"七尾市","address":"能登島南町"},
{"zip_code":"9260221","kana_pref":"ｲｼｶﾜｹﾝ","kana_city":"ﾅﾅｵｼ","kana_address":"ﾉﾄｼﾞﾏﾑｾｷﾏﾁ","pref":"石川県","city":"七尾市","address":"能登島無関町"},
{"zip_code":"9260035","kana_pref":"ｲｼｶﾜｹﾝ","kana_city":"ﾅﾅｵｼ","kana_address":"ﾊｯﾀﾏﾁ","pref":"石川県","city":"七尾市","address":"八田町"},
{"zip_code":"9260382","kana_pref":"ｲｼｶﾜｹﾝ","kana_city":"ﾅﾅｵｼ","kana_address":"ﾊﾅｿﾞﾉﾏﾁ","pref":"石川県","city":"七尾市","address":"花園町"},
{"zip_code":"9260832","kana_pref":"ｲｼｶﾜｹﾝ","kana_city":"ﾅﾅｵｼ","kana_address":"ﾊﾝﾆｬﾉﾏﾁ","pref":"石川県","city":"七尾市","address":"盤若野町"},
{"zip_code":"9260834","kana_pref":"ｲｼｶﾜｹﾝ","kana_city":"ﾅﾅｵｼ","kana_address":"ﾋｶﾞｼﾐｶｲﾏﾁ","pref":"石川県","city":"七尾市","address":"東三階町"},
{"zip_code":"9260048","kana_pref":"ｲｼｶﾜｹﾝ","kana_city":"ﾅﾅｵｼ","kana_address":"ﾋﾓﾉﾏﾁ","pref":"石川県","city":"七尾市","address":"桧物町"},
{"zip_code":"9260028","kana_pref":"ｲｼｶﾜｹﾝ","kana_city":"ﾅﾅｵｼ","kana_address":"ﾌｼﾞﾉﾏﾁ","pref":"石川県","city":"七尾市","address":"藤野町"},
{"zip_code":"9260816","kana_pref":"ｲｼｶﾜｹﾝ","kana_city":"ﾅﾅｵｼ","kana_address":"ﾌｼﾞﾊｼﾏﾁ","pref":"石川県","city":"七尾市","address":"藤橋町"},
{"zip_code":"9260041","kana_pref":"ｲｼｶﾜｹﾝ","kana_city":"ﾅﾅｵｼ","kana_address":"ﾌﾁｭｳﾏﾁ","pref":"石川県","city":"七尾市","address":"府中町"},
{"zip_code":"9260031","kana_pref":"ｲｼｶﾜｹﾝ","kana_city":"ﾅﾅｵｼ","kana_address":"ﾌﾙｺﾏﾁ","pref":"石川県","city":"七尾市","address":"古府町"},
{"zip_code":"9260025","kana_pref":"ｲｼｶﾜｹﾝ","kana_city":"ﾅﾅｵｼ","kana_address":"ﾌﾙｼﾛﾏﾁ","pref":"石川県","city":"七尾市","address":"古城町"},
{"zip_code":"9260024","kana_pref":"ｲｼｶﾜｹﾝ","kana_city":"ﾅﾅｵｼ","kana_address":"ﾌﾙﾔｼｷﾏﾁ","pref":"石川県","city":"七尾市","address":"古屋敷町"},
{"zip_code":"9260012","kana_pref":"ｲｼｶﾜｹﾝ","kana_city":"ﾅﾅｵｼ","kana_address":"ﾎｳｺｸﾏﾁ","pref":"石川県","city":"七尾市","address":"報国町"},
{"zip_code":"9260822","kana_pref":"ｲｼｶﾜｹﾝ","kana_city":"ﾅﾅｵｼ","kana_address":"ﾎｿｸﾞﾁﾏﾁ","pref":"石川県","city":"七尾市","address":"細口町"},
{"zip_code":"9260818","kana_pref":"ｲｼｶﾜｹﾝ","kana_city":"ﾅﾅｵｼ","kana_address":"ﾏﾀﾞｼﾏﾁ","pref":"石川県","city":"七尾市","address":"馬出町"},
{"zip_code":"9260836","kana_pref":"ｲｼｶﾜｹﾝ","kana_city":"ﾅﾅｵｼ","kana_address":"ﾏﾁﾔﾏﾁ","pref":"石川県","city":"七尾市","address":"町屋町"},
{"zip_code":"9260842","kana_pref":"ｲｼｶﾜｹﾝ","kana_city":"ﾅﾅｵｼ","kana_address":"ﾏｯﾄｳｼﾝﾏﾁ","pref":"石川県","city":"七尾市","address":"松百新町"},
{"zip_code":"9260841","kana_pref":"ｲｼｶﾜｹﾝ","kana_city":"ﾅﾅｵｼ","kana_address":"ﾏｯﾄｳﾏﾁ","pref":"石川県","city":"七尾市","address":"松百町"},
{"zip_code":"9260865","kana_pref":"ｲｼｶﾜｹﾝ","kana_city":"ﾅﾅｵｼ","kana_address":"ﾏﾂﾓﾄﾁｮｳ","pref":"石川県","city":"七尾市","address":"松本町"},
{"zip_code":"9260838","kana_pref":"ｲｼｶﾜｹﾝ","kana_city":"ﾅﾅｵｼ","kana_address":"ﾏﾆﾏﾁ","pref":"石川県","city":"七尾市","address":"満仁町"},
{"zip_code":"9260012","kana_pref":"ｲｼｶﾜｹﾝ","kana_city":"ﾅﾅｵｼ","kana_address":"ﾏﾝｷﾞｮｳﾏﾁ","pref":"石川県","city":"七尾市","address":"万行町"},
{"zip_code":"9260802","kana_pref":"ｲｼｶﾜｹﾝ","kana_city":"ﾅﾅｵｼ","kana_address":"ﾐｼﾏﾁｮｳ","pref":"石川県","city":"七尾市","address":"三島町"},
{"zip_code":"9260811","kana_pref":"ｲｼｶﾜｹﾝ","kana_city":"ﾅﾅｵｼ","kana_address":"ﾐｿｷﾞﾁｮｳ","pref":"石川県","city":"七尾市","address":"御祓町"},
{"zip_code":"9260014","kana_pref":"ｲｼｶﾜｹﾝ","kana_city":"ﾅﾅｵｼ","kana_address":"ﾐﾄﾞﾘｶﾞｵｶﾁｮｳ","pref":"石川県","city":"七尾市","address":"緑ケ丘町"},
{"zip_code":"9260058","kana_pref":"ｲｼｶﾜｹﾝ","kana_city":"ﾅﾅｵｼ","kana_address":"ﾐﾅﾄﾁｮｳ","pref":"石川県","city":"七尾市","address":"湊町"},
{"zip_code":"9260032","kana_pref":"ｲｼｶﾜｹﾝ","kana_city":"ﾅﾅｵｼ","kana_address":"ﾐﾅﾐｶﾞｵｶﾏﾁ","pref":"石川県","city":"七尾市","address":"南ケ丘町"},
{"zip_code":"9260813","kana_pref":"ｲｼｶﾜｹﾝ","kana_city":"ﾅﾅｵｼ","kana_address":"ﾐﾅﾐﾌｼﾞﾊｼﾏﾁ","pref":"石川県","city":"七尾市","address":"南藤橋町"},
{"zip_code":"9260007","kana_pref":"ｲｼｶﾜｹﾝ","kana_city":"ﾅﾅｵｼ","kana_address":"ﾐﾑﾛﾏﾁ","pref":"石川県","city":"七尾市","address":"三室町"},
{"zip_code":"9260021","kana_pref":"ｲｼｶﾜｹﾝ","kana_city":"ﾅﾅｵｼ","kana_address":"ﾓﾄﾌﾁｭｳﾏﾁ","pref":"石川県","city":"七尾市","address":"本府中町"},
{"zip_code":"9260015","kana_pref":"ｲｼｶﾜｹﾝ","kana_city":"ﾅﾅｵｼ","kana_address":"ﾔﾀｼﾝﾏﾁ","pref":"石川県","city":"七尾市","address":"矢田新町"},
{"zip_code":"9260014","kana_pref":"ｲｼｶﾜｹﾝ","kana_city":"ﾅﾅｵｼ","kana_address":"ﾔﾀﾏﾁ","pref":"石川県","city":"七尾市","address":"矢田町"},
{"zip_code":"9260385","kana_pref":"ｲｼｶﾜｹﾝ","kana_city":"ﾅﾅｵｼ","kana_address":"ﾔﾏｻﾞｷﾏﾁ","pref":"石川県","city":"七尾市","address":"山崎町"},
{"zip_code":"9260386","kana_pref":"ｲｼｶﾜｹﾝ","kana_city":"ﾅﾅｵｼ","kana_address":"ﾔﾏｻﾞｷﾏﾁ","pref":"石川県","city":"七尾市","address":"山崎町"},
{"zip_code":"9260016","kana_pref":"ｲｼｶﾜｹﾝ","kana_city":"ﾅﾅｵｼ","kana_address":"ﾔﾏﾄﾏﾁ","pref":"石川県","city":"七尾市","address":"大和町"},
{"zip_code":"9260038","kana_pref":"ｲｼｶﾜｹﾝ","kana_city":"ﾅﾅｵｼ","kana_address":"ﾔﾜﾀﾏﾁ","pref":"石川県","city":"七尾市","address":"八幡町"},
{"zip_code":"9260002","kana_pref":"ｲｼｶﾜｹﾝ","kana_city":"ﾅﾅｵｼ","kana_address":"ﾕｶﾞﾜﾏﾁ","pref":"石川県","city":"七尾市","address":"湯川町"},
{"zip_code":"9260827","kana_pref":"ｲｼｶﾜｹﾝ","kana_city":"ﾅﾅｵｼ","kana_address":"ﾜｶﾊﾞﾔｼﾏﾁ","pref":"石川県","city":"七尾市","address":"若林町"},
{"zip_code":"9260175","kana_pref":"ｲｼｶﾜｹﾝ","kana_city":"ﾅﾅｵｼ","kana_address":"ﾜｸﾗﾏﾁ","pref":"石川県","city":"七尾市","address":"和倉町"},
{"zip_code":"9260176","kana_pref":"ｲｼｶﾜｹﾝ","kana_city":"ﾅﾅｵｼ","kana_address":"ﾜｸﾗﾏﾁﾋﾊﾞﾘ","pref":"石川県","city":"七尾市","address":"和倉町ひばり"}]}