{"zip_code":[
{"zip_code":"9272345","kana_pref":"ｲｼｶﾜｹﾝ","kana_city":"ﾜｼﾞﾏｼ","kana_address":"ﾓﾝｾﾞﾝﾏﾁｱｶｶﾐ","pref":"石川県","city":"輪島市","address":"門前町赤神"},
{"zip_code":"9272106","kana_pref":"ｲｼｶﾜｹﾝ","kana_city":"ﾜｼﾞﾏｼ","kana_address":"ﾓﾝｾﾞﾝﾏﾁｱｿﾀﾞ","pref":"石川県","city":"輪島市","address":"門前町浅生田"},
{"zip_code":"9272123","kana_pref":"ｲｼｶﾜｹﾝ","kana_city":"ﾜｼﾞﾏｼ","kana_address":"ﾓﾝｾﾞﾝﾏﾁｱﾗﾔ","pref":"石川県","city":"輪島市","address":"門前町荒屋"},
{"zip_code":"9272107","kana_pref":"ｲｼｶﾜｹﾝ","kana_city":"ﾜｼﾞﾏｼ","kana_address":"ﾓﾝｾﾞﾝﾏﾁｱﾝﾀﾞｲﾊﾗ","pref":"石川県","city":"輪島市","address":"門前町安代原"},
{"zip_code":"9272314","kana_pref":"ｲｼｶﾜｹﾝ","kana_city":"ﾜｼﾞﾏｼ","kana_address":"ﾓﾝｾﾞﾝﾏﾁｲｶﾞﾜﾀﾞﾆ","pref":"石川県","city":"輪島市","address":"門前町飯川谷"},
{"zip_code":"9272286","kana_pref":"ｲｼｶﾜｹﾝ","kana_city":"ﾜｼﾞﾏｼ","kana_address":"ﾓﾝｾﾞﾝﾏﾁｲｷﾞｽ","pref":"石川県","city":"輪島市","address":"門前町五十洲"},
{"zip_code":"9272354","kana_pref":"ｲｼｶﾜｹﾝ","kana_city":"ﾜｼﾞﾏｼ","kana_address":"ﾓﾝｾﾞﾝﾏﾁｲｹﾀﾞ","pref":"石川県","city":"輪島市","address":"門前町池田"},
{"zip_code":"9272274","kana_pref":"ｲｼｶﾜｹﾝ","kana_city":"ﾜｼﾞﾏｼ","kana_address":"ﾓﾝｾﾞﾝﾏﾁｲﾓﾘｱｹﾞｻｶ","pref":"石川県","city":"輪島市","address":"門前町井守上坂"},
{"zip_code":"9272336","kana_pref":"ｲｼｶﾜｹﾝ","kana_city":"ﾜｼﾞﾏｼ","kana_address":"ﾓﾝｾﾞﾝﾏﾁｲﾘﾔﾏ","pref":"石川県","city":"輪島市","address":"門前町入山"},
{"zip_code":"9272137","kana_pref":"ｲｼｶﾜｹﾝ","kana_city":"ﾜｼﾞﾏｼ","kana_address":"ﾓﾝｾﾞﾝﾏﾁｳﾁﾎﾞ","pref":"石川県","city":"輪島市","address":"門前町内保"},
{"zip_code":"9272322","kana_pref":"ｲｼｶﾜｹﾝ","kana_city":"ﾜｼﾞﾏｼ","kana_address":"ﾓﾝｾﾞﾝﾏﾁｳﾂﾛ","pref":"石川県","city":"輪島市","address":"門前町窕"},
{"zip_code":"9272281","kana_pref":"ｲｼｶﾜｹﾝ","kana_city":"ﾜｼﾞﾏｼ","kana_address":"ﾓﾝｾﾞﾝﾏﾁｳﾔﾏ","pref":"石川県","city":"輪島市","address":"門前町鵜山"},
{"zip_code":"9272102","kana_pref":"ｲｼｶﾜｹﾝ","kana_city":"ﾜｼﾞﾏｼ","kana_address":"ﾓﾝｾﾞﾝﾏﾁｳﾗｶﾐ","pref":"石川県","city":"輪島市","address":"門前町浦上"},
{"zip_code":"9272334","kana_pref":"ｲｼｶﾜｹﾝ","kana_city":"ﾜｼﾞﾏｼ","kana_address":"ﾓﾝｾﾞﾝﾏﾁｳﾜﾀﾞｲ","pref":"石川県","city":"輪島市","address":"門前町上代"},
{"zip_code":"9272303","kana_pref":"ｲｼｶﾜｹﾝ","kana_city":"ﾜｼﾞﾏｼ","kana_address":"ﾓﾝｾﾞﾝﾏﾁｴｻｷ","pref":"石川県","city":"輪島市","address":"門前町江崎"},
{"zip_code":"9272141","kana_pref":"ｲｼｶﾜｹﾝ","kana_city":"ﾜｼﾞﾏｼ","kana_address":"ﾓﾝｾﾞﾝﾏﾁｵｲｼ","pref":"石川県","city":"輪島市","address":"門前町小石"},
{"zip_code":"9272341","kana_pref":"ｲｼｶﾜｹﾝ","kana_city":"ﾜｼﾞﾏｼ","kana_address":"ﾓﾝｾﾞﾝﾏﾁｵｵｶﾞﾏ","pref":"石川県","city":"輪島市","address":"門前町大釜"},
{"zip_code":"9272305","kana_pref":"ｲｼｶﾜｹﾝ","kana_city":"ﾜｼﾞﾏｼ","kana_address":"ﾓﾝｾﾞﾝﾏﾁｵｵｷﾞﾘ","pref":"石川県","city":"輪島市","address":"門前町大切"},
{"zip_code":"9272282","kana_pref":"ｲｼｶﾜｹﾝ","kana_city":"ﾜｼﾞﾏｼ","kana_address":"ﾓﾝｾﾞﾝﾏﾁｵｵﾀｷ","pref":"石川県","city":"輪島市","address":"門前町大滝"},
{"zip_code":"9272343","kana_pref":"ｲｼｶﾜｹﾝ","kana_city":"ﾜｼﾞﾏｼ","kana_address":"ﾓﾝｾﾞﾝﾏﾁｵｵﾄﾞﾏﾘ","pref":"石川県","city":"輪島市","address":"門前町大泊"},
{"zip_code":"9272147","kana_pref":"ｲｼｶﾜｹﾝ","kana_city":"ﾜｼﾞﾏｼ","kana_address":"ﾓﾝｾﾞﾝﾏﾁｵﾆﾔ","pref":"石川県","city":"輪島市","address":"門前町鬼屋"},
{"zip_code":"9272163","kana_pref":"ｲｼｶﾜｹﾝ","kana_city":"ﾜｼﾞﾏｼ","kana_address":"ﾓﾝｾﾞﾝﾏﾁｵﾊｴ","pref":"石川県","city":"輪島市","address":"門前町大生"},
{"zip_code":"9272166","kana_pref":"ｲｼｶﾜｹﾝ","kana_city":"ﾜｼﾞﾏｼ","kana_address":"ﾓﾝｾﾞﾝﾏﾁｶｲｿ","pref":"石川県","city":"輪島市","address":"門前町鹿磯"},
{"zip_code":"9272121","kana_pref":"ｲｼｶﾜｹﾝ","kana_city":"ﾜｼﾞﾏｼ","kana_address":"ﾓﾝｾﾞﾝﾏﾁｶｲﾌｷ","pref":"石川県","city":"輪島市","address":"門前町貝吹"},
{"zip_code":"9272143","kana_pref":"ｲｼｶﾜｹﾝ","kana_city":"ﾜｼﾞﾏｼ","kana_address":"ﾓﾝｾﾞﾝﾏﾁｶｻﾞﾊﾗ","pref":"石川県","city":"輪島市","address":"門前町風原"},
{"zip_code":"9272364","kana_pref":"ｲｼｶﾜｹﾝ","kana_city":"ﾜｼﾞﾏｼ","kana_address":"ﾓﾝｾﾞﾝﾏﾁｶｼﾞﾔ","pref":"石川県","city":"輪島市","address":"門前町鍛治屋"},
{"zip_code":"9272162","kana_pref":"ｲｼｶﾜｹﾝ","kana_city":"ﾜｼﾞﾏｼ","kana_address":"ﾓﾝｾﾞﾝﾏﾁｶﾂﾀ","pref":"石川県","city":"輪島市","address":"門前町勝田"},
{"zip_code":"9272142","kana_pref":"ｲｼｶﾜｹﾝ","kana_city":"ﾜｼﾞﾏｼ","kana_address":"ﾓﾝｾﾞﾝﾏﾁｶﾐｶﾞﾜﾁ","pref":"石川県","city":"輪島市","address":"門前町上河内"},
{"zip_code":"9272352","kana_pref":"ｲｼｶﾜｹﾝ","kana_city":"ﾜｼﾞﾏｼ","kana_address":"ﾓﾝｾﾞﾝﾏﾁｷﾀｶﾞﾜ","pref":"石川県","city":"輪島市","address":"門前町北川"},
{"zip_code":"9272332","kana_pref":"ｲｼｶﾜｹﾝ","kana_city":"ﾜｼﾞﾏｼ","kana_address":"ﾓﾝｾﾞﾝﾏﾁｷﾊﾗﾂﾞｷ","pref":"石川県","city":"輪島市","address":"門前町木原月"},
{"zip_code":"9272321","kana_pref":"ｲｼｶﾜｹﾝ","kana_city":"ﾜｼﾞﾏｼ","kana_address":"ﾓﾝｾﾞﾝﾏﾁｷｭｳｶﾜ","pref":"石川県","city":"輪島市","address":"門前町久川"},
{"zip_code":"9272311","kana_pref":"ｲｼｶﾜｹﾝ","kana_city":"ﾜｼﾞﾏｼ","kana_address":"ﾓﾝｾﾞﾝﾏﾁｷﾘﾊﾞｻﾐ","pref":"石川県","city":"輪島市","address":"門前町切狭"},
{"zip_code":"9272273","kana_pref":"ｲｼｶﾜｹﾝ","kana_city":"ﾜｼﾞﾏｼ","kana_address":"ﾓﾝｾﾞﾝﾏﾁｸﾚｻｶ","pref":"石川県","city":"輪島市","address":"門前町暮坂"},
{"zip_code":"9272335","kana_pref":"ｲｼｶﾜｹﾝ","kana_city":"ﾜｼﾞﾏｼ","kana_address":"ﾓﾝｾﾞﾝﾏﾁｸﾛｲﾜ","pref":"石川県","city":"輪島市","address":"門前町黒岩"},
{"zip_code":"9272165","kana_pref":"ｲｼｶﾜｹﾝ","kana_city":"ﾜｼﾞﾏｼ","kana_address":"ﾓﾝｾﾞﾝﾏﾁｸﾛｼﾏﾏﾁ","pref":"石川県","city":"輪島市","address":"門前町黒島町"},
{"zip_code":"9272344","kana_pref":"ｲｼｶﾜｹﾝ","kana_city":"ﾜｼﾞﾏｼ","kana_address":"ﾓﾝｾﾞﾝﾏﾁｺｼﾎﾞｿ","pref":"石川県","city":"輪島市","address":"門前町腰細"},
{"zip_code":"9272145","kana_pref":"ｲｼｶﾜｹﾝ","kana_city":"ﾜｼﾞﾏｼ","kana_address":"ﾓﾝｾﾞﾝﾏﾁｺﾀﾞｷ","pref":"石川県","city":"輪島市","address":"門前町小滝"},
{"zip_code":"9272361","kana_pref":"ｲｼｶﾜｹﾝ","kana_city":"ﾜｼﾞﾏｼ","kana_address":"ﾓﾝｾﾞﾝﾏﾁｺﾔﾏ","pref":"石川県","city":"輪島市","address":"門前町小山"},
{"zip_code":"9272353","kana_pref":"ｲｼｶﾜｹﾝ","kana_city":"ﾜｼﾞﾏｼ","kana_address":"ﾓﾝｾﾞﾝﾏﾁｺﾚｷﾖ","pref":"石川県","city":"輪島市","address":"門前町是清"},
{"zip_code":"9272133","kana_pref":"ｲｼｶﾜｹﾝ","kana_city":"ﾜｼﾞﾏｼ","kana_address":"ﾓﾝｾﾞﾝﾏﾁｻﾀﾞﾋﾛ","pref":"石川県","city":"輪島市","address":"門前町定広"},
{"zip_code":"9272144","kana_pref":"ｲｼｶﾜｹﾝ","kana_city":"ﾜｼﾞﾏｼ","kana_address":"ﾓﾝｾﾞﾝﾏﾁｻﾙﾊｼ","pref":"石川県","city":"輪島市","address":"門前町猿橋"},
{"zip_code":"9272112","kana_pref":"ｲｼｶﾜｹﾝ","kana_city":"ﾜｼﾞﾏｼ","kana_address":"ﾓﾝｾﾞﾝﾏﾁｼｲ","pref":"石川県","city":"輪島市","address":"門前町四位"},
{"zip_code":"9272362","kana_pref":"ｲｼｶﾜｹﾝ","kana_city":"ﾜｼﾞﾏｼ","kana_address":"ﾓﾝｾﾞﾝﾏﾁｼｲﾉｷ","pref":"石川県","city":"輪島市","address":"門前町椎木"},
{"zip_code":"9272175","kana_pref":"ｲｼｶﾜｹﾝ","kana_city":"ﾜｼﾞﾏｼ","kana_address":"ﾓﾝｾﾞﾝﾏﾁｼﾐｽﾞ","pref":"石川県","city":"輪島市","address":"門前町清水"},
{"zip_code":"9272323","kana_pref":"ｲｼｶﾜｹﾝ","kana_city":"ﾜｼﾞﾏｼ","kana_address":"ﾓﾝｾﾞﾝﾏﾁｼﾒﾊﾗ","pref":"石川県","city":"輪島市","address":"門前町神明原"},
{"zip_code":"9272304","kana_pref":"ｲｼｶﾜｹﾝ","kana_city":"ﾜｼﾞﾏｼ","kana_address":"ﾓﾝｾﾞﾝﾏﾁｼﾗﾊｹﾞ","pref":"石川県","city":"輪島市","address":"門前町白禿"},
{"zip_code":"9272363","kana_pref":"ｲｼｶﾜｹﾝ","kana_city":"ﾜｼﾞﾏｼ","kana_address":"ﾓﾝｾﾞﾝﾏﾁｼﾝﾏﾁﾌﾞﾝ","pref":"石川県","city":"輪島市","address":"門前町新町分"},
{"zip_code":"9272275","kana_pref":"ｲｼｶﾜｹﾝ","kana_city":"ﾜｼﾞﾏｼ","kana_address":"ﾓﾝｾﾞﾝﾏﾁｽｽｷﾉ","pref":"石川県","city":"輪島市","address":"門前町薄野"},
{"zip_code":"9272313","kana_pref":"ｲｼｶﾜｹﾝ","kana_city":"ﾜｼﾞﾏｼ","kana_address":"ﾓﾝｾﾞﾝﾏﾁｾｲｻﾞﾜ","pref":"石川県","city":"輪島市","address":"門前町清沢"},
{"zip_code":"9272351","kana_pref":"ｲｼｶﾜｹﾝ","kana_city":"ﾜｼﾞﾏｼ","kana_address":"ﾓﾝｾﾞﾝﾏﾁｾﾝﾀﾞｲ","pref":"石川県","city":"輪島市","address":"門前町千代"},
{"zip_code":"9272131","kana_pref":"ｲｼｶﾜｹﾝ","kana_city":"ﾜｼﾞﾏｼ","kana_address":"ﾓﾝｾﾞﾝﾏﾁﾀｲﾗ","pref":"石川県","city":"輪島市","address":"門前町平"},
{"zip_code":"9272172","kana_pref":"ｲｼｶﾜｹﾝ","kana_city":"ﾜｼﾞﾏｼ","kana_address":"ﾓﾝｾﾞﾝﾏﾁﾀｶﾈｵ","pref":"石川県","city":"輪島市","address":"門前町高根尾"},
{"zip_code":"9272111","kana_pref":"ｲｼｶﾜｹﾝ","kana_city":"ﾜｼﾞﾏｼ","kana_address":"ﾓﾝｾﾞﾝﾏﾁﾀｷﾉｳｴ","pref":"石川県","city":"輪島市","address":"門前町滝上"},
{"zip_code":"9272325","kana_pref":"ｲｼｶﾜｹﾝ","kana_city":"ﾜｼﾞﾏｼ","kana_address":"ﾓﾝｾﾞﾝﾏﾁﾀｷﾏﾁ","pref":"石川県","city":"輪島市","address":"門前町滝町"},
{"zip_code":"9272173","kana_pref":"ｲｼｶﾜｹﾝ","kana_city":"ﾜｼﾞﾏｼ","kana_address":"ﾓﾝｾﾞﾝﾏﾁﾀﾁ","pref":"石川県","city":"輪島市","address":"門前町館"},
{"zip_code":"9272333","kana_pref":"ｲｼｶﾜｹﾝ","kana_city":"ﾜｼﾞﾏｼ","kana_address":"ﾓﾝｾﾞﾝﾏﾁﾀﾁﾌﾞﾝ","pref":"石川県","city":"輪島市","address":"門前町館分"},
{"zip_code":"9272114","kana_pref":"ｲｼｶﾜｹﾝ","kana_city":"ﾜｼﾞﾏｼ","kana_address":"ﾓﾝｾﾞﾝﾏﾁﾀﾆｸﾞﾁ","pref":"石川県","city":"輪島市","address":"門前町谷口"},
{"zip_code":"9272105","kana_pref":"ｲｼｶﾜｹﾝ","kana_city":"ﾜｼﾞﾏｼ","kana_address":"ﾓﾝｾﾞﾝﾏﾁﾀﾑﾗ","pref":"石川県","city":"輪島市","address":"門前町田村"},
{"zip_code":"9272272","kana_pref":"ｲｼｶﾜｹﾝ","kana_city":"ﾜｼﾞﾏｼ","kana_address":"ﾓﾝｾﾞﾝﾏﾁﾀﾙﾐ","pref":"石川県","city":"輪島市","address":"門前町樽見"},
{"zip_code":"9272134","kana_pref":"ｲｼｶﾜｹﾝ","kana_city":"ﾜｼﾞﾏｼ","kana_address":"ﾓﾝｾﾞﾝﾏﾁﾁﾊﾗ","pref":"石川県","city":"輪島市","address":"門前町地原"},
{"zip_code":"9272342","kana_pref":"ｲｼｶﾜｹﾝ","kana_city":"ﾜｼﾞﾏｼ","kana_address":"ﾓﾝｾﾞﾝﾏﾁﾂﾙｷﾞﾁﾞ","pref":"石川県","city":"輪島市","address":"門前町剱地"},
{"zip_code":"9272164","kana_pref":"ｲｼｶﾜｹﾝ","kana_city":"ﾜｼﾞﾏｼ","kana_address":"ﾓﾝｾﾞﾝﾏﾁﾄｳｹﾞ","pref":"石川県","city":"輪島市","address":"門前町道下"},
{"zip_code":"9272135","kana_pref":"ｲｼｶﾜｹﾝ","kana_city":"ﾜｼﾞﾏｼ","kana_address":"ﾓﾝｾﾞﾝﾏﾁﾄﾞｳﾐｷ","pref":"石川県","city":"輪島市","address":"門前町百成"},
{"zip_code":"9272276","kana_pref":"ｲｼｶﾜｹﾝ","kana_city":"ﾜｼﾞﾏｼ","kana_address":"ﾓﾝｾﾞﾝﾏﾁﾄﾞｳﾐｷｵｵｶｸﾏ","pref":"石川県","city":"輪島市","address":"門前町百成大角間"},
{"zip_code":"9272113","kana_pref":"ｲｼｶﾜｹﾝ","kana_city":"ﾜｼﾞﾏｼ","kana_address":"ﾓﾝｾﾞﾝﾏﾁﾄｼｶﾈ","pref":"石川県","city":"輪島市","address":"門前町俊兼"},
{"zip_code":"9272154","kana_pref":"ｲｼｶﾜｹﾝ","kana_city":"ﾜｼﾞﾏｼ","kana_address":"ﾓﾝｾﾞﾝﾏﾁﾄﾁﾉｷ","pref":"石川県","city":"輪島市","address":"門前町栃木"},
{"zip_code":"9272132","kana_pref":"ｲｼｶﾜｹﾝ","kana_city":"ﾜｼﾞﾏｼ","kana_address":"ﾓﾝｾﾞﾝﾏﾁﾅｶﾞｲｻﾞｶ","pref":"石川県","city":"輪島市","address":"門前町長井坂"},
{"zip_code":"9272366","kana_pref":"ｲｼｶﾜｹﾝ","kana_city":"ﾜｼﾞﾏｼ","kana_address":"ﾓﾝｾﾞﾝﾏﾁﾅｶﾀ","pref":"石川県","city":"輪島市","address":"門前町中田"},
{"zip_code":"9272108","kana_pref":"ｲｼｶﾜｹﾝ","kana_city":"ﾜｼﾞﾏｼ","kana_address":"ﾓﾝｾﾞﾝﾏﾁﾅｶﾉﾔ","pref":"石川県","city":"輪島市","address":"門前町中野屋"},
{"zip_code":"9272283","kana_pref":"ｲｼｶﾜｹﾝ","kana_city":"ﾜｼﾞﾏｼ","kana_address":"ﾓﾝｾﾞﾝﾏﾁﾅｶﾔﾁ","pref":"石川県","city":"輪島市","address":"門前町中谷内"},
{"zip_code":"9272146","kana_pref":"ｲｼｶﾜｹﾝ","kana_city":"ﾜｼﾞﾏｼ","kana_address":"ﾓﾝｾﾞﾝﾏﾁﾆｼﾅｶｵ","pref":"石川県","city":"輪島市","address":"門前町西中尾"},
{"zip_code":"9272312","kana_pref":"ｲｼｶﾜｹﾝ","kana_city":"ﾜｼﾞﾏｼ","kana_address":"ﾓﾝｾﾞﾝﾏﾁﾆｼﾅｶﾀﾆ","pref":"石川県","city":"輪島市","address":"門前町西中谷"},
{"zip_code":"9272101","kana_pref":"ｲｼｶﾜｹﾝ","kana_city":"ﾜｼﾞﾏｼ","kana_address":"ﾓﾝｾﾞﾝﾏﾁﾆｼﾏﾙﾔﾏ","pref":"石川県","city":"輪島市","address":"門前町西円山"},
{"zip_code":"9272126","kana_pref":"ｲｼｶﾜｹﾝ","kana_city":"ﾜｼﾞﾏｼ","kana_address":"ﾓﾝｾﾞﾝﾏﾁﾉｳﾉﾔ","pref":"石川県","city":"輪島市","address":"門前町能納屋"},
{"zip_code":"9272151","kana_pref":"ｲｼｶﾜｹﾝ","kana_city":"ﾜｼﾞﾏｼ","kana_address":"ﾓﾝｾﾞﾝﾏﾁﾊｼﾘﾃﾞ","pref":"石川県","city":"輪島市","address":"門前町走出"},
{"zip_code":"9272122","kana_pref":"ｲｼｶﾜｹﾝ","kana_city":"ﾜｼﾞﾏｼ","kana_address":"ﾓﾝｾﾞﾝﾏﾁﾊﾗ","pref":"石川県","city":"輪島市","address":"門前町原"},
{"zip_code":"9272333","kana_pref":"ｲｼｶﾜｹﾝ","kana_city":"ﾜｼﾞﾏｼ","kana_address":"ﾓﾝｾﾞﾝﾏﾁﾊﾞﾝﾊﾞ","pref":"石川県","city":"輪島市","address":"門前町馬場"},
{"zip_code":"9272124","kana_pref":"ｲｼｶﾜｹﾝ","kana_city":"ﾜｼﾞﾏｼ","kana_address":"ﾓﾝｾﾞﾝﾏﾁﾋｶﾞｼｵｵﾏﾁ","pref":"石川県","city":"輪島市","address":"門前町東大町"},
{"zip_code":"9272155","kana_pref":"ｲｼｶﾜｹﾝ","kana_city":"ﾜｼﾞﾏｼ","kana_address":"ﾓﾝｾﾞﾝﾏﾁﾋﾉｵ","pref":"石川県","city":"輪島市","address":"門前町日野尾"},
{"zip_code":"9272174","kana_pref":"ｲｼｶﾜｹﾝ","kana_city":"ﾜｼﾞﾏｼ","kana_address":"ﾓﾝｾﾞﾝﾏﾁﾋﾛｵｶ","pref":"石川県","city":"輪島市","address":"門前町広岡"},
{"zip_code":"9272152","kana_pref":"ｲｼｶﾜｹﾝ","kana_city":"ﾜｼﾞﾏｼ","kana_address":"ﾓﾝｾﾞﾝﾏﾁﾋﾛｾ","pref":"石川県","city":"輪島市","address":"門前町広瀬"},
{"zip_code":"9272153","kana_pref":"ｲｼｶﾜｹﾝ","kana_city":"ﾜｼﾞﾏｼ","kana_address":"ﾓﾝｾﾞﾝﾏﾁﾌｶﾀﾞ","pref":"石川県","city":"輪島市","address":"門前町深田"},
{"zip_code":"9272167","kana_pref":"ｲｼｶﾜｹﾝ","kana_city":"ﾜｼﾞﾏｼ","kana_address":"ﾓﾝｾﾞﾝﾏﾁﾌｶﾐ","pref":"石川県","city":"輪島市","address":"門前町深見"},
{"zip_code":"9272355","kana_pref":"ｲｼｶﾜｹﾝ","kana_city":"ﾜｼﾞﾏｼ","kana_address":"ﾓﾝｾﾞﾝﾏﾁﾌｼﾞﾉﾊﾏ","pref":"石川県","city":"輪島市","address":"門前町藤浜"},
{"zip_code":"9272301","kana_pref":"ｲｼｶﾜｹﾝ","kana_city":"ﾜｼﾞﾏｼ","kana_address":"ﾓﾝｾﾞﾝﾏﾁﾌﾀﾏﾀ","pref":"石川県","city":"輪島市","address":"門前町二又"},
{"zip_code":"9272127","kana_pref":"ｲｼｶﾜｹﾝ","kana_city":"ﾜｼﾞﾏｼ","kana_address":"ﾓﾝｾﾞﾝﾏﾁﾌﾀﾏﾀｶﾞﾜ","pref":"石川県","city":"輪島市","address":"門前町二又川"},
{"zip_code":"9272125","kana_pref":"ｲｼｶﾜｹﾝ","kana_city":"ﾜｼﾞﾏｼ","kana_address":"ﾓﾝｾﾞﾝﾏﾁﾍﾞｯｼｮ","pref":"石川県","city":"輪島市","address":"門前町別所"},
{"zip_code":"9272138","kana_pref":"ｲｼｶﾜｹﾝ","kana_city":"ﾜｼﾞﾏｼ","kana_address":"ﾓﾝｾﾞﾝﾏﾁﾎﾘｺｼ","pref":"石川県","city":"輪島市","address":"門前町堀腰"},
{"zip_code":"9272324","kana_pref":"ｲｼｶﾜｹﾝ","kana_city":"ﾜｼﾞﾏｼ","kana_address":"ﾓﾝｾﾞﾝﾏﾁﾏﾜﾀﾘ","pref":"石川県","city":"輪島市","address":"門前町馬渡"},
{"zip_code":"9272271","kana_pref":"ｲｼｶﾜｹﾝ","kana_city":"ﾜｼﾞﾏｼ","kana_address":"ﾓﾝｾﾞﾝﾏﾁﾐﾅﾂﾞｷ","pref":"石川県","city":"輪島市","address":"門前町皆月"},
{"zip_code":"9272365","kana_pref":"ｲｼｶﾜｹﾝ","kana_city":"ﾜｼﾞﾏｼ","kana_address":"ﾓﾝｾﾞﾝﾏﾁﾐﾅﾐ","pref":"石川県","city":"輪島市","address":"門前町南"},
{"zip_code":"9272113","kana_pref":"ｲｼｶﾜｹﾝ","kana_city":"ﾜｼﾞﾏｼ","kana_address":"ﾓﾝｾﾞﾝﾏﾁﾐﾈ","pref":"石川県","city":"輪島市","address":"門前町嶺"},
{"zip_code":"9272103","kana_pref":"ｲｼｶﾜｹﾝ","kana_city":"ﾜｼﾞﾏｼ","kana_address":"ﾓﾝｾﾞﾝﾏﾁﾐﾔｺﾊﾞ","pref":"石川県","city":"輪島市","address":"門前町宮古場"},
{"zip_code":"9272277","kana_pref":"ｲｼｶﾜｹﾝ","kana_city":"ﾜｼﾞﾏｼ","kana_address":"ﾓﾝｾﾞﾝﾏﾁﾓﾁﾀﾞ","pref":"石川県","city":"輪島市","address":"門前町餅田"},
{"zip_code":"9272171","kana_pref":"ｲｼｶﾜｹﾝ","kana_city":"ﾜｼﾞﾏｼ","kana_address":"ﾓﾝｾﾞﾝﾏﾁﾓﾄｲﾁ","pref":"石川県","city":"輪島市","address":"門前町本市"},
{"zip_code":"9272115","kana_pref":"ｲｼｶﾜｹﾝ","kana_city":"ﾜｼﾞﾏｼ","kana_address":"ﾓﾝｾﾞﾝﾏﾁﾓﾄｳﾁ","pref":"石川県","city":"輪島市","address":"門前町本内"},
{"zip_code":"9272156","kana_pref":"ｲｼｶﾜｹﾝ","kana_city":"ﾜｼﾞﾏｼ","kana_address":"ﾓﾝｾﾞﾝﾏﾁﾓﾝｾﾞﾝ","pref":"石川県","city":"輪島市","address":"門前町門前"},
{"zip_code":"9272284","kana_pref":"ｲｼｶﾜｹﾝ","kana_city":"ﾜｼﾞﾏｼ","kana_address":"ﾓﾝｾﾞﾝﾏﾁﾔﾄｸ","pref":"石川県","city":"輪島市","address":"門前町矢徳"},
{"zip_code":"9272302","kana_pref":"ｲｼｶﾜｹﾝ","kana_city":"ﾜｼﾞﾏｼ","kana_address":"ﾓﾝｾﾞﾝﾏﾁﾔﾏｺﾚｷﾖ","pref":"石川県","city":"輪島市","address":"門前町山是清"},
{"zip_code":"9272104","kana_pref":"ｲｼｶﾜｹﾝ","kana_city":"ﾜｼﾞﾏｼ","kana_address":"ﾓﾝｾﾞﾝﾏﾁﾔﾏﾍﾞ","pref":"石川県","city":"輪島市","address":"門前町山辺"},
{"zip_code":"9272136","kana_pref":"ｲｼｶﾜｹﾝ","kana_city":"ﾜｼﾞﾏｼ","kana_address":"ﾓﾝｾﾞﾝﾏﾁﾔﾘｶﾜ","pref":"石川県","city":"輪島市","address":"門前町鑓川"},
{"zip_code":"9272102","kana_pref":"ｲｼｶﾜｹﾝ","kana_city":"ﾜｼﾞﾏｼ","kana_address":"ﾓﾝｾﾞﾝﾏﾁﾔﾜﾀ","pref":"石川県","city":"輪島市","address":"門前町八幡"},
{"zip_code":"9272285","kana_pref":"ｲｼｶﾜｹﾝ","kana_city":"ﾜｼﾞﾏｼ","kana_address":"ﾓﾝｾﾞﾝﾏﾁﾖｼｳﾗ","pref":"石川県","city":"輪島市","address":"門前町吉浦"},
{"zip_code":"9272161","kana_pref":"ｲｼｶﾜｹﾝ","kana_city":"ﾜｼﾞﾏｼ","kana_address":"ﾓﾝｾﾞﾝﾏﾁﾛｸﾛｷﾞ","pref":"石川県","city":"輪島市","address":"門前町六郎木"},
{"zip_code":"9272176","kana_pref":"ｲｼｶﾜｹﾝ","kana_city":"ﾜｼﾞﾏｼ","kana_address":"ﾓﾝｾﾞﾝﾏﾁﾜﾀﾞ","pref":"石川県","city":"輪島市","address":"門前町和田"},
{"zip_code":"9272331","kana_pref":"ｲｼｶﾜｹﾝ","kana_city":"ﾜｼﾞﾏｼ","kana_address":"ﾓﾝｾﾞﾝﾏﾁﾜﾀｾ","pref":"石川県","city":"輪島市","address":"門前町渡瀬"},
{"zip_code":"9271200","kana_pref":"ｲｼｶﾜｹﾝ","kana_city":"ｽｽﾞｼ","kana_address":"","pref":"石川県","city":"珠洲市","address":""},
{"zip_code":"9271214","kana_pref":"ｲｼｶﾜｹﾝ","kana_city":"ｽｽﾞｼ","kana_address":"ｲｲﾀﾞﾏﾁ","pref":"石川県","city":"珠洲市","address":"飯田町"},
{"zip_code":"9271303","kana_pref":"ｲｼｶﾜｹﾝ","kana_city":"ｽｽﾞｼ","kana_address":"ｲｼｶﾞﾐﾏﾁ","pref":"石川県","city":"珠洲市","address":"石神町"},
{"zip_code":"9271211","kana_pref":"ｲｼｶﾜｹﾝ","kana_city":"ｽｽﾞｼ","kana_address":"ｲﾜｻｶﾏﾁ","pref":"石川県","city":"珠洲市","address":"岩坂町"},
{"zip_code":"9271216","kana_pref":"ｲｼｶﾜｹﾝ","kana_city":"ｽｽﾞｼ","kana_address":"ｳｴﾄﾞﾏﾁｼﾞｼｬ","pref":"石川県","city":"珠洲市","address":"上戸町寺社"},
{"zip_code":"9271217","kana_pref":"ｲｼｶﾜｹﾝ","kana_city":"ｽｽﾞｼ","kana_address":"ｳｴﾄﾞﾏﾁﾐﾅﾐｶﾞﾀ","pref":"石川県","city":"珠洲市","address":"上戸町南方"},
{"zip_code":"9271215","kana_pref":"ｲｼｶﾜｹﾝ","kana_city":"ｽｽﾞｼ","kana_address":"ｳｴﾄﾞﾏﾁｷﾀｶﾞﾀ","pref":"石川県","city":"珠洲市","address":"上戸町北方"},
{"zip_code":"9271321","kana_pref":"ｲｼｶﾜｹﾝ","kana_city":"ｽｽﾞｼ","kana_address":"ｵｵﾀﾆﾏﾁ","pref":"石川県","city":"珠洲市","address":"大谷町"},
{"zip_code":"9271446","kana_pref":"ｲｼｶﾜｹﾝ","kana_city":"ｽｽﾞｼ","kana_address":"ｵﾘﾄﾏﾁ","pref":"石川県","city":"珠洲市","address":"折戸町"},
{"zip_code":"9271323","kana_pref":"ｲｼｶﾜｹﾝ","kana_city":"ｽｽﾞｼ","kana_address":"ｶﾀｲﾜﾏﾁ","pref":"石川県","city":"珠洲市","address":"片岩町"},
{"zip_code":"9271445","kana_pref":"ｲｼｶﾜｹﾝ","kana_city":"ｽｽﾞｼ","kana_address":"ｶﾗｶｻﾏﾁ","pref":"石川県","city":"珠洲市","address":"唐笠町"},
{"zip_code":"9271444","kana_pref":"ｲｼｶﾜｹﾝ","kana_city":"ｽｽﾞｼ","kana_address":"ｶﾗｶｻﾏﾁﾊｯｶﾔﾏ","pref":"石川県","city":"珠洲市","address":"唐笠町八ケ山"},
{"zip_code":"9271447","kana_pref":"ｲｼｶﾜｹﾝ","kana_city":"ｽｽﾞｼ","kana_address":"ｶﾜｳﾗﾏﾁ","pref":"石川県","city":"珠洲市","address":"川浦町"},
{"zip_code":"9271212","kana_pref":"ｲｼｶﾜｹﾝ","kana_city":"ｽｽﾞｼ","kana_address":"ｸﾏﾝﾀﾆﾏﾁ","pref":"石川県","city":"珠洲市","address":"熊谷町"},
{"zip_code":"9271302","kana_pref":"ｲｼｶﾜｹﾝ","kana_city":"ｽｽﾞｼ","kana_address":"ｻｻﾅﾐﾏﾁ","pref":"石川県","city":"珠洲市","address":"笹波町"},
{"zip_code":"9271324","kana_pref":"ｲｼｶﾜｹﾝ","kana_city":"ｽｽﾞｼ","kana_address":"ｼﾐｽﾞﾏﾁ","pref":"石川県","city":"珠洲市","address":"清水町"},
{"zip_code":"9271202","kana_pref":"ｲｼｶﾜｹﾝ","kana_city":"ｽｽﾞｼ","kana_address":"ｼｮｳｲﾝﾏﾁｲｲﾂﾞｶ","pref":"石川県","city":"珠洲市","address":"正院町飯塚"},
{"zip_code":"9271201","kana_pref":"ｲｼｶﾜｹﾝ","kana_city":"ｽｽﾞｼ","kana_address":"ｼｮｳｲﾝﾏﾁｵｶﾀ","pref":"石川県","city":"珠洲市","address":"正院町岡田"},
{"zip_code":"9271205","kana_pref":"ｲｼｶﾜｹﾝ","kana_city":"ｽｽﾞｼ","kana_address":"ｼｮｳｲﾝﾏﾁｶﾜｼﾘ","pref":"石川県","city":"珠洲市","address":"正院町川尻"},
{"zip_code":"9271207","kana_pref":"ｲｼｶﾜｹﾝ","kana_city":"ｽｽﾞｼ","kana_address":"ｼｮｳｲﾝﾏﾁｺｳｼﾞ","pref":"石川県","city":"珠洲市","address":"正院町小路"},
{"zip_code":"9271206","kana_pref":"ｲｼｶﾜｹﾝ","kana_city":"ｽｽﾞｼ","kana_address":"ｼｮｳｲﾝﾏﾁｼｮｳｲﾝ","pref":"石川県","city":"珠洲市","address":"正院町正院"},
{"zip_code":"9271203","kana_pref":"ｲｼｶﾜｹﾝ","kana_city":"ｽｽﾞｼ","kana_address":"ｼｮｳｲﾝﾏﾁﾋﾗﾄｺ","pref":"石川県","city":"珠洲市","address":"正院町平床"},
{"zip_code":"9271301","kana_pref":"ｲｼｶﾜｹﾝ","kana_city":"ｽｽﾞｼ","kana_address":"ﾀｶﾔﾏﾁ","pref":"石川県","city":"珠洲市","address":"高屋町"},
{"zip_code":"9271204","kana_pref":"ｲｼｶﾜｹﾝ","kana_city":"ｽｽﾞｼ","kana_address":"ﾀｺｼﾞﾏﾏﾁ","pref":"石川県","city":"珠洲市","address":"蛸島町"},
{"zip_code":"9271322","kana_pref":"ｲｼｶﾜｹﾝ","kana_city":"ｽｽﾞｼ","kana_address":"ﾅｶﾞﾊｼﾏﾁ","pref":"石川県","city":"珠洲市","address":"長橋町"},
{"zip_code":"9271325","kana_pref":"ｲｼｶﾜｹﾝ","kana_city":"ｽｽﾞｼ","kana_address":"ﾆｴﾏﾁ","pref":"石川県","city":"珠洲市","address":"仁江町"},
{"zip_code":"9271213","kana_pref":"ｲｼｶﾜｹﾝ","kana_city":"ｽｽﾞｼ","kana_address":"ﾉﾉｴﾏﾁ","pref":"石川県","city":"珠洲市","address":"野々江町"},
{"zip_code":"9271442","kana_pref":"ｲｼｶﾜｹﾝ","kana_city":"ｽｽﾞｼ","kana_address":"ﾉﾛｼｼﾝﾏﾁ","pref":"石川県","city":"珠洲市","address":"狼煙新町"},
{"zip_code":"9271441","kana_pref":"ｲｼｶﾜｹﾝ","kana_city":"ｽｽﾞｼ","kana_address":"ﾉﾛｼﾏﾁ","pref":"石川県","city":"珠洲市","address":"狼煙町"},
{"zip_code":"9271443","kana_pref":"ｲｼｶﾜｹﾝ","kana_city":"ｽｽﾞｼ","kana_address":"ﾋｶﾞｼﾔﾏﾅｶﾏﾁ","pref":"石川県","city":"珠洲市","address":"東山中町"},
{"zip_code":"9271222","kana_pref":"ｲｼｶﾜｹﾝ","kana_city":"ｽｽﾞｼ","kana_address":"ﾎｳﾘｭｳﾏﾁｳｶｲ","pref":"石川県","city":"珠洲市","address":"宝立町鵜飼"},
{"zip_code":"9271223","kana_pref":"ｲｼｶﾜｹﾝ","kana_city":"ｽｽﾞｼ","kana_address":"ﾎｳﾘｭｳﾏﾁｳｼﾏ","pref":"石川県","city":"珠洲市","address":"宝立町鵜島"},
{"zip_code":"9271227","kana_pref":"ｲｼｶﾜｹﾝ","kana_city":"ｽｽﾞｼ","kana_address":"ﾎｳﾘｭｳﾏﾁｵｵﾏﾁﾄﾞﾛﾉｷ","pref":"石川県","city":"珠洲市","address":"宝立町大町泥木"},
{"zip_code":"9271228","kana_pref":"ｲｼｶﾜｹﾝ","kana_city":"ｽｽﾞｼ","kana_address":"ﾎｳﾘｭｳﾏﾁｶｼﾊﾗ","pref":"石川県","city":"珠洲市","address":"宝立町柏原"},
{"zip_code":"9271221","kana_pref":"ｲｼｶﾜｹﾝ","kana_city":"ｽｽﾞｼ","kana_address":"ﾎｳﾘｭｳﾏﾁｶｽｶﾞﾉ","pref":"石川県","city":"珠洲市","address":"宝立町春日野"},
{"zip_code":"9271228","kana_pref":"ｲｼｶﾜｹﾝ","kana_city":"ｽｽﾞｼ","kana_address":"ﾎｳﾘｭｳﾏﾁｸﾛﾐﾈ","pref":"石川県","city":"珠洲市","address":"宝立町黒峰"},
{"zip_code":"9271221","kana_pref":"ｲｼｶﾜｹﾝ","kana_city":"ｽｽﾞｼ","kana_address":"ﾎｳﾘｭｳﾏﾁｺﾝﾎﾟｳｼﾞ","pref":"石川県","city":"珠洲市","address":"宝立町金峰寺"},
{"zip_code":"9271225","kana_pref":"ｲｼｶﾜｹﾝ","kana_city":"ｽｽﾞｼ","kana_address":"ﾎｳﾘｭｳﾏﾁｿｳｹﾞﾝ","pref":"石川県","city":"珠洲市","address":"宝立町宗玄"},
{"zip_code":"9271226","kana_pref":"ｲｼｶﾜｹﾝ","kana_city":"ｽｽﾞｼ","kana_address":"ﾎｳﾘｭｳﾏﾁﾏﾜﾀﾘ","pref":"石川県","city":"珠洲市","address":"宝立町馬渡"},
{"zip_code":"9271224","kana_pref":"ｲｼｶﾜｹﾝ","kana_city":"ｽｽﾞｼ","kana_address":"ﾎｳﾘｭｳﾏﾁﾐﾅﾐｸﾛﾏﾙ","pref":"石川県","city":"珠洲市","address":"宝立町南黒丸"},
{"zip_code":"9271227","kana_pref":"ｲｼｶﾜｹﾝ","kana_city":"ｽｽﾞｼ","kana_address":"ﾎｳﾘｭｳﾏﾁﾆｿｳﾌﾈ","pref":"石川県","city":"珠洲市","address":"宝立町二艘丹"},
{"zip_code":"9271326","kana_pref":"ｲｼｶﾜｹﾝ","kana_city":"ｽｽﾞｼ","kana_address":"ﾏｳﾗﾏﾁ","pref":"石川県","city":"珠洲市","address":"真浦町"},
{"zip_code":"9271304","kana_pref":"ｲｼｶﾜｹﾝ","kana_city":"ｽｽﾞｼ","kana_address":"ﾏﾂﾅｷﾞﾏﾁ","pref":"石川県","city":"珠洲市","address":"馬緤町"},
{"zip_code":"9271452","kana_pref":"ｲｼｶﾜｹﾝ","kana_city":"ｽｽﾞｼ","kana_address":"ﾐｻｷﾏﾁｱﾜﾂﾞ","pref":"石川県","city":"珠洲市","address":"三崎町粟津"},
{"zip_code":"9271454","kana_pref":"ｲｼｶﾜｹﾝ","kana_city":"ｽｽﾞｼ","kana_address":"ﾐｻｷﾏﾁｳｼﾞ","pref":"石川県","city":"珠洲市","address":"三崎町宇治"},
{"zip_code":"9271457","kana_pref":"ｲｼｶﾜｹﾝ","kana_city":"ｽｽﾞｼ","kana_address":"ﾐｻｷﾏﾁｵｵﾔ","pref":"石川県","city":"珠洲市","address":"三崎町大屋"},
{"zip_code":"9271456","kana_pref":"ｲｼｶﾜｹﾝ","kana_city":"ｽｽﾞｼ","kana_address":"ﾐｻｷﾏﾁｺｳﾅﾐ","pref":"石川県","city":"珠洲市","address":"三崎町高波"},
{"zip_code":"9271462","kana_pref":"ｲｼｶﾜｹﾝ","kana_city":"ｽｽﾞｼ","kana_address":"ﾐｻｷﾏﾁｺﾄﾞﾏﾘ","pref":"石川県","city":"珠洲市","address":"三崎町小泊"},
{"zip_code":"9271451","kana_pref":"ｲｼｶﾜｹﾝ","kana_city":"ｽｽﾞｼ","kana_address":"ﾐｻｷﾏﾁｼﾞｹ","pref":"石川県","city":"珠洲市","address":"三崎町寺家"},
{"zip_code":"9271466","kana_pref":"ｲｼｶﾜｹﾝ","kana_city":"ｽｽﾞｼ","kana_address":"ﾐｻｷﾏﾁｽｷﾞﾔﾏ","pref":"石川県","city":"珠洲市","address":"三崎町杉山"},
{"zip_code":"9271468","kana_pref":"ｲｼｶﾜｹﾝ","kana_city":"ｽｽﾞｼ","kana_address":"ﾐｻｷﾏﾁﾅｲﾎｳ","pref":"石川県","city":"珠洲市","address":"三崎町内方"},
{"zip_code":"9271465","kana_pref":"ｲｼｶﾜｹﾝ","kana_city":"ｽｽﾞｼ","kana_address":"ﾐｻｷﾏﾁﾆﾎﾝﾏﾂ","pref":"石川県","city":"珠洲市","address":"三崎町二本松"},
{"zip_code":"9271455","kana_pref":"ｲｼｶﾜｹﾝ","kana_city":"ｽｽﾞｼ","kana_address":"ﾐｻｷﾏﾁﾋｷｽﾅ","pref":"石川県","city":"珠洲市","address":"三崎町引砂"},
{"zip_code":"9271461","kana_pref":"ｲｼｶﾜｹﾝ","kana_city":"ｽｽﾞｼ","kana_address":"ﾐｻｷﾏﾁﾌｼﾐ","pref":"石川県","city":"珠洲市","address":"三崎町伏見"},
{"zip_code":"9271464","kana_pref":"ｲｼｶﾜｹﾝ","kana_city":"ｽｽﾞｼ","kana_address":"ﾐｻｷﾏﾁﾎｿﾔ","pref":"石川県","city":"珠洲市","address":"三崎町細屋"},
{"zip_code":"9271467","kana_pref":"ｲｼｶﾜｹﾝ","kana_city":"ｽｽﾞｼ","kana_address":"ﾐｻｷﾏﾁﾎﾝ","pref":"石川県","city":"珠洲市","address":"三崎町本"},
{"zip_code":"9271463","kana_pref":"ｲｼｶﾜｹﾝ","kana_city":"ｽｽﾞｼ","kana_address":"ﾐｻｷﾏﾁﾓﾂﾞ","pref":"石川県","city":"珠洲市","address":"三崎町雲津"},
{"zip_code":"9271453","kana_pref":"ｲｼｶﾜｹﾝ","kana_city":"ｽｽﾞｼ","kana_address":"ﾐｻｷﾏﾁﾓﾘｺｼ","pref":"石川県","city":"珠洲市","address":"三崎町森腰"},
{"zip_code":"9271237","kana_pref":"ｲｼｶﾜｹﾝ","kana_city":"ｽｽﾞｼ","kana_address":"ﾜｶﾔﾏﾏﾁｳﾂﾔﾏ","pref":"石川県","city":"珠洲市","address":"若山町宇都山"},
{"zip_code":"9271314","kana_pref":"ｲｼｶﾜｹﾝ","kana_city":"ｽｽﾞｼ","kana_address":"ﾜｶﾔﾏﾏﾁｶﾐｸﾛﾏﾙ","pref":"石川県","city":"珠洲市","address":"若山町上黒丸"},
{"zip_code":"9271311","kana_pref":"ｲｼｶﾜｹﾝ","kana_city":"ｽｽﾞｼ","kana_address":"ﾜｶﾔﾏﾏﾁｶﾐｼｮｳﾘｷ","pref":"石川県","city":"珠洲市","address":"若山町上正力"},
{"zip_code":"9271317","kana_pref":"ｲｼｶﾜｹﾝ","kana_city":"ｽｽﾞｼ","kana_address":"ﾜｶﾔﾏﾏﾁｶﾐﾔﾏ","pref":"石川県","city":"珠洲市","address":"若山町上山"},
{"zip_code":"9271318","kana_pref":"ｲｼｶﾜｹﾝ","kana_city":"ｽｽﾞｼ","kana_address":"ﾜｶﾔﾏﾏﾁｷﾀﾔﾏ","pref":"石川県","city":"珠洲市","address":"若山町北山"},
{"zip_code":"9271234","kana_pref":"ｲｼｶﾜｹﾝ","kana_city":"ｽｽﾞｼ","kana_address":"ﾜｶﾔﾏﾏﾁｷｮｳﾈﾝ","pref":"石川県","city":"珠洲市","address":"若山町経念"},
{"zip_code":"9271315","kana_pref":"ｲｼｶﾜｹﾝ","kana_city":"ｽｽﾞｼ","kana_address":"ﾜｶﾔﾏﾏﾁｼﾗﾀｷ","pref":"石川県","city":"珠洲市","address":"若山町白滝"},
{"zip_code":"9271231","kana_pref":"ｲｼｶﾜｹﾝ","kana_city":"ｽｽﾞｼ","kana_address":"ﾜｶﾔﾏﾏﾁｽｽﾞﾅｲ","pref":"石川県","city":"珠洲市","address":"若山町鈴内"},
{"zip_code":"9271233","kana_pref":"ｲｼｶﾜｹﾝ","kana_city":"ｽｽﾞｼ","kana_address":"ﾜｶﾔﾏﾏﾁｽｯﾀ","pref":"石川県","city":"珠洲市","address":"若山町出田"},
{"zip_code":"9271316","kana_pref":"ｲｼｶﾜｹﾝ","kana_city":"ｽｽﾞｼ","kana_address":"ﾜｶﾔﾏﾏﾁｽﾏｷ","pref":"石川県","city":"珠洲市","address":"若山町洲巻"},
{"zip_code":"9271237","kana_pref":"ｲｼｶﾜｹﾝ","kana_city":"ｽｽﾞｼ","kana_address":"ﾜｶﾔﾏﾏﾁﾀﾞｲﾎﾞｳ","pref":"石川県","city":"珠洲市","address":"若山町大坊"},
{"zip_code":"9271236","kana_pref":"ｲｼｶﾜｹﾝ","kana_city":"ｽｽﾞｼ","kana_address":"ﾜｶﾔﾏﾏﾁﾅｶ","pref":"石川県","city":"珠洲市","address":"若山町中"},
{"zip_code":"9271235","kana_pref":"ｲｼｶﾜｹﾝ","kana_city":"ｽｽﾞｼ","kana_address":"ﾜｶﾔﾏﾏﾁﾅｶﾀﾞ","pref":"石川県","city":"珠洲市","address":"若山町中田"},
{"zip_code":"9271238","kana_pref":"ｲｼｶﾜｹﾝ","kana_city":"ｽｽﾞｼ","kana_address":"ﾜｶﾔﾏﾏﾁﾉﾌﾞﾀｹ","pref":"石川県","city":"珠洲市","address":"若山町延武"},
{"zip_code":"9271238","kana_pref":"ｲｼｶﾜｹﾝ","kana_city":"ｽｽﾞｼ","kana_address":"ﾜｶﾔﾏﾏﾁﾋﾐﾔ","pref":"石川県","city":"珠洲市","address":"若山町火宮"},
{"zip_code":"9271232","kana_pref":"ｲｼｶﾜｹﾝ","kana_city":"ｽｽﾞｼ","kana_address":"ﾜｶﾔﾏﾏﾁﾋﾛｸﾞﾘ","pref":"石川県","city":"珠洲市","address":"若山町広栗"},
{"zip_code":"9271312","kana_pref":"ｲｼｶﾜｹﾝ","kana_city":"ｽｽﾞｼ","kana_address":"ﾜｶﾔﾏﾏﾁﾌﾀｺﾞ","pref":"石川県","city":"珠洲市","address":"若山町二子"},
{"zip_code":"9271239","kana_pref":"ｲｼｶﾜｹﾝ","kana_city":"ｽｽﾞｼ","kana_address":"ﾜｶﾔﾏﾏﾁﾌﾙｸﾗ","pref":"石川県","city":"珠洲市","address":"若山町古蔵"},
{"zip_code":"9271315","kana_pref":"ｲｼｶﾜｹﾝ","kana_city":"ｽｽﾞｼ","kana_address":"ﾜｶﾔﾏﾏﾁﾐﾅﾐﾔﾏ","pref":"石川県","city":"珠洲市","address":"若山町南山"},
{"zip_code":"9271235","kana_pref":"ｲｼｶﾜｹﾝ","kana_city":"ｽｽﾞｼ","kana_address":"ﾜｶﾔﾏﾏﾁﾑｶｲ","pref":"石川県","city":"珠洲市","address":"若山町向"},
{"zip_code":"9271313","kana_pref":"ｲｼｶﾜｹﾝ","kana_city":"ｽｽﾞｼ","kana_address":"ﾜｶﾔﾏﾏﾁﾑﾈｽｴ","pref":"石川県","city":"珠洲市","address":"若山町宗末"},
{"zip_code":"9271319","kana_pref":"ｲｼｶﾜｹﾝ","kana_city":"ｽｽﾞｼ","kana_address":"ﾜｶﾔﾏﾏﾁﾖｼｶﾞｲｹ","pref":"石川県","city":"珠洲市","address":"若山町吉ケ池"},
{"zip_code":"9270000","kana_pref":"ｲｼｶﾜｹﾝ","kana_city":"ﾎｳｽｸﾞﾝｱﾅﾐｽﾞﾏﾁ","kana_address":"","pref":"石川県","city":"鳳珠郡穴水町","address":""},
{"zip_code":"9270006","kana_pref":"ｲｼｶﾜｹﾝ","kana_city":"ﾎｳｽｸﾞﾝｱﾅﾐｽﾞﾏﾁ","kana_address":"ｱｻﾋｶﾞｵｶ","pref":"石川県","city":"鳳珠郡穴水町","address":"旭ケ丘"},
{"zip_code":"9270003","kana_pref":"ｲｼｶﾜｹﾝ","kana_city":"ﾎｳｽｸﾞﾝｱﾅﾐｽﾞﾏﾁ","kana_address":"ｲｸﾛ","pref":"石川県","city":"鳳珠郡穴水町","address":"伊久留"},
{"zip_code":"9270235","kana_pref":"ｲｼｶﾜｹﾝ","kana_city":"ﾎｳｽｸﾞﾝｱﾅﾐｽﾞﾏﾁ","kana_address":"ｲﾁﾉｻｶ","pref":"石川県","city":"鳳珠郡穴水町","address":"市ノ坂"},
{"zip_code":"9270007","kana_pref":"ｲｼｶﾜｹﾝ","kana_city":"ﾎｳｽｸﾞﾝｱﾅﾐｽﾞﾏﾁ","kana_address":"ｲﾜｸﾞﾙﾏ","pref":"石川県","city":"鳳珠郡穴水町","address":"岩車"},
{"zip_code":"9270205","kana_pref":"ｲｼｶﾜｹﾝ","kana_city":"ﾎｳｽｸﾞﾝｱﾅﾐｽﾞﾏﾁ","kana_address":"ｳｶｶﾞﾜ","pref":"石川県","city":"鳳珠郡穴水町","address":"宇加川"},
{"zip_code":"9270031","kana_pref":"ｲｼｶﾜｹﾝ","kana_city":"ﾎｳｽｸﾞﾝｱﾅﾐｽﾞﾏﾁ","kana_address":"ｳｼﾞﾏ","pref":"石川県","city":"鳳珠郡穴水町","address":"鵜島"},
{"zip_code":"9270025","kana_pref":"ｲｼｶﾜｹﾝ","kana_city":"ﾎｳｽｸﾞﾝｱﾅﾐｽﾞﾏﾁ","kana_address":"ｳﾁｳﾗ","pref":"石川県","city":"鳳珠郡穴水町","address":"内浦"},
{"zip_code":"9270042","kana_pref":"ｲｼｶﾜｹﾝ","kana_city":"ﾎｳｽｸﾞﾝｱﾅﾐｽﾞﾏﾁ","kana_address":"ｳﾙﾁ","pref":"石川県","city":"鳳珠郡穴水町","address":"宇留地"},
{"zip_code":"9270054","kana_pref":"ｲｼｶﾜｹﾝ","kana_city":"ﾎｳｽｸﾞﾝｱﾅﾐｽﾞﾏﾁ","kana_address":"ｳﾜﾉ","pref":"石川県","city":"鳳珠郡穴水町","address":"上野"},
{"zip_code":"9270048","kana_pref":"ｲｼｶﾜｹﾝ","kana_city":"ﾎｳｽｸﾞﾝｱﾅﾐｽﾞﾏﾁ","kana_address":"ｵｵｶｸﾏ","pref":"石川県","city":"鳳珠郡穴水町","address":"大角間"},
{"zip_code":"9270215","kana_pref":"ｲｼｶﾜｹﾝ","kana_city":"ﾎｳｽｸﾞﾝｱﾅﾐｽﾞﾏﾁ","kana_address":"ｵｵｶﾌﾞﾄ","pref":"石川県","city":"鳳珠郡穴水町","address":"大甲"},
{"zip_code":"9270026","kana_pref":"ｲｼｶﾜｹﾝ","kana_city":"ﾎｳｽｸﾞﾝｱﾅﾐｽﾞﾏﾁ","kana_address":"ｵｵﾏﾁ","pref":"石川県","city":"鳳珠郡穴水町","address":"大町"},
{"zip_code":"9270207","kana_pref":"ｲｼｶﾜｹﾝ","kana_city":"ﾎｳｽｸﾞﾝｱﾅﾐｽﾞﾏﾁ","kana_address":"ｵｷﾅﾐ","pref":"石川県","city":"鳳珠郡穴水町","address":"沖波"},
{"zip_code":"9270032","kana_pref":"ｲｼｶﾜｹﾝ","kana_city":"ﾎｳｽｸﾞﾝｱﾅﾐｽﾞﾏﾁ","kana_address":"ｵﾄｶﾞｻｷ","pref":"石川県","city":"鳳珠郡穴水町","address":"乙ケ崎"},
{"zip_code":"9270051","kana_pref":"ｲｼｶﾜｹﾝ","kana_city":"ﾎｳｽｸﾞﾝｱﾅﾐｽﾞﾏﾁ","kana_address":"ｵﾏﾀ","pref":"石川県","city":"鳳珠郡穴水町","address":"小又"},
{"zip_code":"9270038","kana_pref":"ｲｼｶﾜｹﾝ","kana_city":"ﾎｳｽｸﾞﾝｱﾅﾐｽﾞﾏﾁ","kana_address":"ｶｼﾏ","pref":"石川県","city":"鳳珠郡穴水町","address":"鹿島"},
{"zip_code":"9270014","kana_pref":"ｲｼｶﾜｹﾝ","kana_city":"ﾎｳｽｸﾞﾝｱﾅﾐｽﾞﾏﾁ","kana_address":"ｶｼﾞ","pref":"石川県","city":"鳳珠郡穴水町","address":"梶"},
{"zip_code":"9270049","kana_pref":"ｲｼｶﾜｹﾝ","kana_city":"ﾎｳｽｸﾞﾝｱﾅﾐｽﾞﾏﾁ","kana_address":"ｶﾂﾗﾀﾞﾆ","pref":"石川県","city":"鳳珠郡穴水町","address":"桂谷"},
{"zip_code":"9270223","kana_pref":"ｲｼｶﾜｹﾝ","kana_city":"ﾎｳｽｸﾞﾝｱﾅﾐｽﾞﾏﾁ","kana_address":"ｶﾅﾐ","pref":"石川県","city":"鳳珠郡穴水町","address":"鹿波"},
{"zip_code":"9270211","kana_pref":"ｲｼｶﾜｹﾝ","kana_city":"ﾎｳｽｸﾞﾝｱﾅﾐｽﾞﾏﾁ","kana_address":"ｶﾌﾞﾄ","pref":"石川県","city":"鳳珠郡穴水町","address":"甲"},
{"zip_code":"9270056","kana_pref":"ｲｼｶﾜｹﾝ","kana_city":"ﾎｳｽｸﾞﾝｱﾅﾐｽﾞﾏﾁ","kana_address":"ｶﾐｶﾗｶﾜ","pref":"石川県","city":"鳳珠郡穴水町","address":"上唐川"},
{"zip_code":"9270047","kana_pref":"ｲｼｶﾜｹﾝ","kana_city":"ﾎｳｽｸﾞﾝｱﾅﾐｽﾞﾏﾁ","kana_address":"ｶﾐﾅｶ","pref":"石川県","city":"鳳珠郡穴水町","address":"上中"},
{"zip_code":"9270008","kana_pref":"ｲｼｶﾜｹﾝ","kana_city":"ﾎｳｽｸﾞﾝｱﾅﾐｽﾞﾏﾁ","kana_address":"ｶﾜｼﾘ","pref":"石川県","city":"鳳珠郡穴水町","address":"川尻"},
{"zip_code":"9270027","kana_pref":"ｲｼｶﾜｹﾝ","kana_city":"ﾎｳｽｸﾞﾝｱﾅﾐｽﾞﾏﾁ","kana_address":"ｶﾜｼﾞﾏ","pref":"石川県","city":"鳳珠郡穴水町","address":"川島"},
{"zip_code":"9270045","kana_pref":"ｲｼｶﾜｹﾝ","kana_city":"ﾎｳｽｸﾞﾝｱﾅﾐｽﾞﾏﾁ","kana_address":"ｶﾜﾁ","pref":"石川県","city":"鳳珠郡穴水町","address":"河内"},
{"zip_code":"9270022","kana_pref":"ｲｼｶﾜｹﾝ","kana_city":"ﾎｳｽｸﾞﾝｱﾅﾐｽﾞﾏﾁ","kana_address":"ｷﾀｼﾂﾐ","pref":"石川県","city":"鳳珠郡穴水町","address":"北七海"},
{"zip_code":"9270011","kana_pref":"ｲｼｶﾜｹﾝ","kana_city":"ﾎｳｽｸﾞﾝｱﾅﾐｽﾞﾏﾁ","kana_address":"ｷﾊﾗ","pref":"石川県","city":"鳳珠郡穴水町","address":"木原"},
{"zip_code":"9270053","kana_pref":"ｲｼｶﾜｹﾝ","kana_city":"ﾎｳｽｸﾞﾝｱﾅﾐｽﾞﾏﾁ","kana_address":"ｸﾉｷﾞ","pref":"石川県","city":"鳳珠郡穴水町","address":"此木"},
{"zip_code":"9270001","kana_pref":"ｲｼｶﾜｹﾝ","kana_city":"ﾎｳｽｸﾞﾝｱﾅﾐｽﾞﾏﾁ","kana_address":"ｸﾉｷﾞﾀﾆ","pref":"石川県","city":"鳳珠郡穴水町","address":"樟谷"},
{"zip_code":"9270212","kana_pref":"ｲｼｶﾜｹﾝ","kana_city":"ﾎｳｽｸﾞﾝｱﾅﾐｽﾞﾏﾁ","kana_address":"ｸﾛｻｷ","pref":"石川県","city":"鳳珠郡穴水町","address":"黒崎"},
{"zip_code":"9270046","kana_pref":"ｲｼｶﾜｹﾝ","kana_city":"ﾎｳｽｸﾞﾝｱﾅﾐｽﾞﾏﾁ","kana_address":"ｺｴﾄ","pref":"石川県","city":"鳳珠郡穴水町","address":"越渡"},
{"zip_code":"9270214","kana_pref":"ｲｼｶﾜｹﾝ","kana_city":"ﾎｳｽｸﾞﾝｱﾅﾐｽﾞﾏﾁ","kana_address":"ｺｶﾌﾞﾄ","pref":"石川県","city":"鳳珠郡穴水町","address":"小甲"},
{"zip_code":"9270234","kana_pref":"ｲｼｶﾜｹﾝ","kana_city":"ﾎｳｽｸﾞﾝｱﾅﾐｽﾞﾏﾁ","kana_address":"ｺﾏﾀ","pref":"石川県","city":"鳳珠郡穴水町","address":"小又"},
{"zip_code":"9270043","kana_pref":"ｲｼｶﾜｹﾝ","kana_city":"ﾎｳｽｸﾞﾝｱﾅﾐｽﾞﾏﾁ","kana_address":"ｺｼﾉﾊﾗ","pref":"石川県","city":"鳳珠郡穴水町","address":"越の原"},
{"zip_code":"9270224","kana_pref":"ｲｼｶﾜｹﾝ","kana_city":"ﾎｳｽｸﾞﾝｱﾅﾐｽﾞﾏﾁ","kana_address":"ｼｶｶﾞﾐ","pref":"石川県","city":"鳳珠郡穴水町","address":"鹿上"},
{"zip_code":"9270035","kana_pref":"ｲｼｶﾜｹﾝ","kana_city":"ﾎｳｽｸﾞﾝｱﾅﾐｽﾞﾏﾁ","kana_address":"ｼｶﾞｳﾗ","pref":"石川県","city":"鳳珠郡穴水町","address":"志ケ浦"},
{"zip_code":"9270213","kana_pref":"ｲｼｶﾜｹﾝ","kana_city":"ﾎｳｽｸﾞﾝｱﾅﾐｽﾞﾏﾁ","kana_address":"ｼｾｲ","pref":"石川県","city":"鳳珠郡穴水町","address":"至誠"},
{"zip_code":"9270055","kana_pref":"ｲｼｶﾜｹﾝ","kana_city":"ﾎｳｽｸﾞﾝｱﾅﾐｽﾞﾏﾁ","kana_address":"ｼﾞｿﾞｳﾎﾞｳ","pref":"石川県","city":"鳳珠郡穴水町","address":"地蔵坊"},
{"zip_code":"9270021","kana_pref":"ｲｼｶﾜｹﾝ","kana_city":"ﾎｳｽｸﾞﾝｱﾅﾐｽﾞﾏﾁ","kana_address":"ｼﾂﾐ","pref":"石川県","city":"鳳珠郡穴水町","address":"七海"},
{"zip_code":"9270057","kana_pref":"ｲｼｶﾜｹﾝ","kana_city":"ﾎｳｽｸﾞﾝｱﾅﾐｽﾞﾏﾁ","kana_address":"ｼﾓｶﾗｶﾜ","pref":"石川県","city":"鳳珠郡穴水町","address":"下唐川"},
{"zip_code":"9270046","kana_pref":"ｲｼｶﾜｹﾝ","kana_city":"ﾎｳｽｸﾞﾝｱﾅﾐｽﾞﾏﾁ","kana_address":"ｼﾙﾀﾆ","pref":"石川県","city":"鳳珠郡穴水町","address":"汁谷"},
{"zip_code":"9270013","kana_pref":"ｲｼｶﾜｹﾝ","kana_city":"ﾎｳｽｸﾞﾝｱﾅﾐｽﾞﾏﾁ","kana_address":"ｽﾞｲﾎｳ","pref":"石川県","city":"鳳珠郡穴水町","address":"瑞鳳"},
{"zip_code":"9270002","kana_pref":"ｲｼｶﾜｹﾝ","kana_city":"ﾎｳｽｸﾞﾝｱﾅﾐｽﾞﾏﾁ","kana_address":"ｽｹﾞﾝﾀﾆ","pref":"石川県","city":"鳳珠郡穴水町","address":"菅谷"},
{"zip_code":"9270039","kana_pref":"ｲｼｶﾜｹﾝ","kana_city":"ﾎｳｽｸﾞﾝｱﾅﾐｽﾞﾏﾁ","kana_address":"ｿﾌﾞｸ","pref":"石川県","city":"鳳珠郡穴水町","address":"曽福"},
{"zip_code":"9270004","kana_pref":"ｲｼｶﾜｹﾝ","kana_city":"ﾎｳｽｸﾞﾝｱﾅﾐｽﾞﾏﾁ","kana_address":"ｿﾔﾏ","pref":"石川県","city":"鳳珠郡穴水町","address":"曽山"},
{"zip_code":"9270221","kana_pref":"ｲｼｶﾜｹﾝ","kana_city":"ﾎｳｽｸﾞﾝｱﾅﾐｽﾞﾏﾁ","kana_address":"ｿﾗ","pref":"石川県","city":"鳳珠郡穴水町","address":"曽良"},
{"zip_code":"9270222","kana_pref":"ｲｼｶﾜｹﾝ","kana_city":"ﾎｳｽｸﾞﾝｱﾅﾐｽﾞﾏﾁ","kana_address":"ﾀﾞｲｺﾞｳ","pref":"石川県","city":"鳳珠郡穴水町","address":"大郷"},
{"zip_code":"9270201","kana_pref":"ｲｼｶﾜｹﾝ","kana_city":"ﾎｳｽｸﾞﾝｱﾅﾐｽﾞﾏﾁ","kana_address":"ﾀｹﾀﾞ","pref":"石川県","city":"鳳珠郡穴水町","address":"竹太"},
{"zip_code":"9270041","kana_pref":"ｲｼｶﾜｹﾝ","kana_city":"ﾎｳｽｸﾞﾝｱﾅﾐｽﾞﾏﾁ","kana_address":"ﾃﾝｼﾞﾝﾀﾞﾆ","pref":"石川県","city":"鳳珠郡穴水町","address":"天神谷"},
{"zip_code":"9270015","kana_pref":"ｲｼｶﾜｹﾝ","kana_city":"ﾎｳｽｸﾞﾝｱﾅﾐｽﾞﾏﾁ","kana_address":"ﾅｶｲ","pref":"石川県","city":"鳳珠郡穴水町","address":"中居"},
{"zip_code":"9270016","kana_pref":"ｲｼｶﾜｹﾝ","kana_city":"ﾎｳｽｸﾞﾝｱﾅﾐｽﾞﾏﾁ","kana_address":"ﾅｶｲﾐﾅﾐ","pref":"石川県","city":"鳳珠郡穴水町","address":"中居南"},
{"zip_code":"9270034","kana_pref":"ｲｼｶﾜｹﾝ","kana_city":"ﾎｳｽｸﾞﾝｱﾅﾐｽﾞﾏﾁ","kana_address":"ﾆﾝｻﾞｷ","pref":"石川県","city":"鳳珠郡穴水町","address":"新崎"},
{"zip_code":"9270037","kana_pref":"ｲｼｶﾜｹﾝ","kana_city":"ﾎｳｽｸﾞﾝｱﾅﾐｽﾞﾏﾁ","kana_address":"ﾈｷ","pref":"石川県","city":"鳳珠郡穴水町","address":"根木"},
{"zip_code":"9270225","kana_pref":"ｲｼｶﾜｹﾝ","kana_city":"ﾎｳｽｸﾞﾝｱﾅﾐｽﾞﾏﾁ","kana_address":"ﾉﾅﾐ","pref":"石川県","city":"鳳珠郡穴水町","address":"野並"},
{"zip_code":"9270058","kana_pref":"ｲｼｶﾜｹﾝ","kana_city":"ﾎｳｽｸﾞﾝｱﾅﾐｽﾞﾏﾁ","kana_address":"ﾊｻﾐｼ","pref":"石川県","city":"鳳珠郡穴水町","address":"挾石"},
{"zip_code":"9270017","kana_pref":"ｲｼｶﾜｹﾝ","kana_city":"ﾎｳｽｸﾞﾝｱﾅﾐｽﾞﾏﾁ","kana_address":"ﾊｼﾞｶｼ","pref":"石川県","city":"鳳珠郡穴水町","address":"波志借"},
{"zip_code":"9270203","kana_pref":"ｲｼｶﾜｹﾝ","kana_city":"ﾎｳｽｸﾞﾝｱﾅﾐｽﾞﾏﾁ","kana_address":"ﾊﾅｿﾞﾉ","pref":"石川県","city":"鳳珠郡穴水町","address":"花園"},
{"zip_code":"9270005","kana_pref":"ｲｼｶﾜｹﾝ","kana_city":"ﾎｳｽｸﾞﾝｱﾅﾐｽﾞﾏﾁ","kana_address":"ﾋｶﾞｼﾅｶﾝﾀﾆ","pref":"石川県","city":"鳳珠郡穴水町","address":"東中谷"},
{"zip_code":"9270232","kana_pref":"ｲｼｶﾜｹﾝ","kana_city":"ﾎｳｽｸﾞﾝｱﾅﾐｽﾞﾏﾁ","kana_address":"ﾋｶﾞｼﾔﾏ","pref":"石川県","city":"鳳珠郡穴水町","address":"東山"},
{"zip_code":"9270009","kana_pref":"ｲｼｶﾜｹﾝ","kana_city":"ﾎｳｽｸﾞﾝｱﾅﾐｽﾞﾏﾁ","kana_address":"ﾋﾞﾗ","pref":"石川県","city":"鳳珠郡穴水町","address":"比良"},
{"zip_code":"9270052","kana_pref":"ｲｼｶﾜｹﾝ","kana_city":"ﾎｳｽｸﾞﾝｱﾅﾐｽﾞﾏﾁ","kana_address":"ﾋﾗﾉ","pref":"石川県","city":"鳳珠郡穴水町","address":"平野"},
{"zip_code":"9270012","kana_pref":"ｲｼｶﾜｹﾝ","kana_city":"ﾎｳｽｸﾞﾝｱﾅﾐｽﾞﾏﾁ","kana_address":"ﾌｼﾞﾏｷ","pref":"石川県","city":"鳳珠郡穴水町","address":"藤巻"},
{"zip_code":"9270202","kana_pref":"ｲｼｶﾜｹﾝ","kana_city":"ﾎｳｽｸﾞﾝｱﾅﾐｽﾞﾏﾁ","kana_address":"ﾌﾙｷﾐ","pref":"石川県","city":"鳳珠郡穴水町","address":"古君"},
{"zip_code":"9270036","kana_pref":"ｲｼｶﾜｹﾝ","kana_city":"ﾎｳｽｸﾞﾝｱﾅﾐｽﾞﾏﾁ","kana_address":"ﾎﾞｳﾖｳﾀﾞｲ","pref":"石川県","city":"鳳珠郡穴水町","address":"望洋台"},
{"zip_code":"9270206","kana_pref":"ｲｼｶﾜｹﾝ","kana_city":"ﾎｳｽｸﾞﾝｱﾅﾐｽﾞﾏﾁ","kana_address":"ﾏｴﾅﾐ","pref":"石川県","city":"鳳珠郡穴水町","address":"前波"},
{"zip_code":"9270033","kana_pref":"ｲｼｶﾜｹﾝ","kana_city":"ﾎｳｽｸﾞﾝｱﾅﾐｽﾞﾏﾁ","kana_address":"ﾐﾄﾞﾘｶﾞｵｶ","pref":"石川県","city":"鳳珠郡穴水町","address":"緑ケ丘"},
{"zip_code":"9270204","kana_pref":"ｲｼｶﾜｹﾝ","kana_city":"ﾎｳｽｸﾞﾝｱﾅﾐｽﾞﾏﾁ","kana_address":"ﾐｮｳｾﾝｼﾞ","pref":"石川県","city":"鳳珠郡穴水町","address":"明千寺"},
{"zip_code":"9270023","kana_pref":"ｲｼｶﾜｹﾝ","kana_city":"ﾎｳｽｸﾞﾝｱﾅﾐｽﾞﾏﾁ","kana_address":"ﾑｷｶﾞｳﾗ","pref":"石川県","city":"鳳珠郡穴水町","address":"麦ケ浦"},
{"zip_code":"9270233","kana_pref":"ｲｼｶﾜｹﾝ","kana_city":"ﾎｳｽｸﾞﾝｱﾅﾐｽﾞﾏﾁ","kana_address":"ﾒﾗｶﾞﾜ","pref":"石川県","city":"鳳珠郡穴水町","address":"女良川"},
{"zip_code":"9270231","kana_pref":"ｲｼｶﾜｹﾝ","kana_city":"ﾎｳｽｸﾞﾝｱﾅﾐｽﾞﾏﾁ","kana_address":"ﾔﾏﾅｶ","pref":"石川県","city":"鳳珠郡穴水町","address":"山中"},
{"zip_code":"9270024","kana_pref":"ｲｼｶﾜｹﾝ","kana_city":"ﾎｳｽｸﾞﾝｱﾅﾐｽﾞﾏﾁ","kana_address":"ﾕｲｶﾞｵｶ","pref":"石川県","city":"鳳珠郡穴水町","address":"由比ケ丘"},
{"zip_code":"9270044","kana_pref":"ｲｼｶﾜｹﾝ","kana_city":"ﾎｳｽｸﾞﾝｱﾅﾐｽﾞﾏﾁ","kana_address":"ﾛｸﾛ","pref":"石川県","city":"鳳珠郡穴水町","address":"鹿路"},
{"zip_code":"9270400","kana_pref":"ｲｼｶﾜｹﾝ","kana_city":"ﾎｳｽｸﾞﾝﾉﾄﾁｮｳ","kana_address":"","pref":"石川県","city":"鳳珠郡能登町","address":""},
{"zip_code":"9270612","kana_pref":"ｲｼｶﾜｹﾝ","kana_city":"ﾎｳｽｸﾞﾝﾉﾄﾁｮｳ","kana_address":"ｱｷﾖｼ","pref":"石川県","city":"鳳珠郡能登町","address":"秋吉"},
{"zip_code":"9270551","kana_pref":"ｲｼｶﾜｹﾝ","kana_city":"ﾎｳｽｸﾞﾝﾉﾄﾁｮｳ","kana_address":"ｱｹﾉ","pref":"石川県","city":"鳳珠郡能登町","address":"明野"},
{"zip_code":"9270626","kana_pref":"ｲｼｶﾜｹﾝ","kana_city":"ﾎｳｽｸﾞﾝﾉﾄﾁｮｳ","kana_address":"ｲｽﾞﾐ","pref":"石川県","city":"鳳珠郡能登町","address":"泉"},
{"zip_code":"9270554","kana_pref":"ｲｼｶﾜｹﾝ","kana_city":"ﾎｳｽｸﾞﾝﾉﾄﾁｮｳ","kana_address":"ｲﾁﾉｾ","pref":"石川県","city":"鳳珠郡能登町","address":"市之瀬"},
{"zip_code":"9270444","kana_pref":"ｲｼｶﾜｹﾝ","kana_city":"ﾎｳｽｸﾞﾝﾉﾄﾁｮｳ","kana_address":"ｲﾉﾋﾗ","pref":"石川県","city":"鳳珠郡能登町","address":"猪平"},
{"zip_code":"9270452","kana_pref":"ｲｼｶﾜｹﾝ","kana_city":"ﾎｳｽｸﾞﾝﾉﾄﾁｮｳ","kana_address":"ｳｶﾂﾞｶ","pref":"石川県","city":"鳳珠郡能登町","address":"宇加塚"},
{"zip_code":"9270302","kana_pref":"ｲｼｶﾜｹﾝ","kana_city":"ﾎｳｽｸﾞﾝﾉﾄﾁｮｳ","kana_address":"ｳｶﾜ","pref":"石川県","city":"鳳珠郡能登町","address":"鵜川"},
{"zip_code":"9270433","kana_pref":"ｲｼｶﾜｹﾝ","kana_city":"ﾎｳｽｸﾞﾝﾉﾄﾁｮｳ","kana_address":"ｳｼﾂ","pref":"石川県","city":"鳳珠郡能登町","address":"宇出津"},
{"zip_code":"9270432","kana_pref":"ｲｼｶﾜｹﾝ","kana_city":"ﾎｳｽｸﾞﾝﾉﾄﾁｮｳ","kana_address":"ｳｼﾂｼﾝ","pref":"石川県","city":"鳳珠郡能登町","address":"宇出津新"},
{"zip_code":"9270435","kana_pref":"ｲｼｶﾜｹﾝ","kana_city":"ﾎｳｽｸﾞﾝﾉﾄﾁｮｳ","kana_address":"ｳｼﾂｼﾝｺｳ","pref":"石川県","city":"鳳珠郡能登町","address":"宇出津新港"},
{"zip_code":"9270431","kana_pref":"ｲｼｶﾜｹﾝ","kana_city":"ﾎｳｽｸﾞﾝﾉﾄﾁｮｳ","kana_address":"ｳｼﾂﾔﾏﾌﾞﾝ","pref":"石川県","city":"鳳珠郡能登町","address":"宇出津山分"},
{"zip_code":"9270608","kana_pref":"ｲｼｶﾜｹﾝ","kana_city":"ﾎｳｽｸﾞﾝﾉﾄﾁｮｳ","kana_address":"ｳﾁｳﾗﾅｺﾞ","pref":"石川県","city":"鳳珠郡能登町","address":"内浦長尾"},
{"zip_code":"9270564","kana_pref":"ｲｼｶﾜｹﾝ","kana_city":"ﾎｳｽｸﾞﾝﾉﾄﾁｮｳ","kana_address":"ｵｳﾗ","pref":"石川県","city":"鳳珠郡能登町","address":"小浦"},
{"zip_code":"9270325","kana_pref":"ｲｼｶﾜｹﾝ","kana_city":"ﾎｳｽｸﾞﾝﾉﾄﾁｮｳ","kana_address":"ｵｵﾀﾞﾜﾗ","pref":"石川県","city":"鳳珠郡能登町","address":"太田原"},
{"zip_code":"9270303","kana_pref":"ｲｼｶﾜｹﾝ","kana_city":"ﾎｳｽｸﾞﾝﾉﾄﾁｮｳ","kana_address":"ｵｶﾞｷ","pref":"石川県","city":"鳳珠郡能登町","address":"小垣"},
{"zip_code":"9270553","kana_pref":"ｲｼｶﾜｹﾝ","kana_city":"ﾎｳｽｸﾞﾝﾉﾄﾁｮｳ","kana_address":"ｵｷﾞ","pref":"石川県","city":"鳳珠郡能登町","address":"小木"},
{"zip_code":"9270552","kana_pref":"ｲｼｶﾜｹﾝ","kana_city":"ﾎｳｽｸﾞﾝﾉﾄﾁｮｳ","kana_address":"ｵｯｻｶ","pref":"石川県","city":"鳳珠郡能登町","address":"越坂"},
{"zip_code":"9270613","kana_pref":"ｲｼｶﾜｹﾝ","kana_city":"ﾎｳｽｸﾞﾝﾉﾄﾁｮｳ","kana_address":"ｶｶﾞﾀﾆ","pref":"石川県","city":"鳳珠郡能登町","address":"河ケ谷"},
{"zip_code":"9270304","kana_pref":"ｲｼｶﾜｹﾝ","kana_city":"ﾎｳｽｸﾞﾝﾉﾄﾁｮｳ","kana_address":"ｶｷｵ","pref":"石川県","city":"鳳珠郡能登町","address":"柿生"},
{"zip_code":"9270324","kana_pref":"ｲｼｶﾜｹﾝ","kana_city":"ﾎｳｽｸﾞﾝﾉﾄﾁｮｳ","kana_address":"ｶｼﾜｷﾞ","pref":"石川県","city":"鳳珠郡能登町","address":"柏木"},
{"zip_code":"9270621","kana_pref":"ｲｼｶﾜｹﾝ","kana_city":"ﾎｳｽｸﾞﾝﾉﾄﾁｮｳ","kana_address":"ｶﾐ","pref":"石川県","city":"鳳珠郡能登町","address":"上"},
{"zip_code":"9270313","kana_pref":"ｲｼｶﾜｹﾝ","kana_city":"ﾎｳｽｸﾞﾝﾉﾄﾁｮｳ","kana_address":"ｷｽﾞﾐ","pref":"石川県","city":"鳳珠郡能登町","address":"木住"},
{"zip_code":"9270611","kana_pref":"ｲｼｶﾜｹﾝ","kana_city":"ﾎｳｽｸﾞﾝﾉﾄﾁｮｳ","kana_address":"ｷﾖｻﾞﾈ","pref":"石川県","city":"鳳珠郡能登町","address":"清真"},
{"zip_code":"9270625","kana_pref":"ｲｼｶﾜｹﾝ","kana_city":"ﾎｳｽｸﾞﾝﾉﾄﾁｮｳ","kana_address":"ｸﾆｼｹﾞ","pref":"石川県","city":"鳳珠郡能登町","address":"国重"},
{"zip_code":"9270604","kana_pref":"ｲｼｶﾜｹﾝ","kana_city":"ﾎｳｽｸﾞﾝﾉﾄﾁｮｳ","kana_address":"ｸﾘｶﾜｼﾘ","pref":"石川県","city":"鳳珠郡能登町","address":"九里川尻"},
{"zip_code":"9270601","kana_pref":"ｲｼｶﾜｹﾝ","kana_city":"ﾎｳｽｸﾞﾝﾉﾄﾁｮｳ","kana_address":"ｺｲｼﾞ","pref":"石川県","city":"鳳珠郡能登町","address":"恋路"},
{"zip_code":"9270626","kana_pref":"ｲｼｶﾜｹﾝ","kana_city":"ﾎｳｽｸﾞﾝﾉﾄﾁｮｳ","kana_address":"ｺﾏﾜﾀﾘ","pref":"石川県","city":"鳳珠郡能登町","address":"駒渡"},
{"zip_code":"9270434","kana_pref":"ｲｼｶﾜｹﾝ","kana_city":"ﾎｳｽｸﾞﾝﾉﾄﾁｮｳ","kana_address":"ｻｷﾔﾏ","pref":"石川県","city":"鳳珠郡能登町","address":"崎山"},
{"zip_code":"9270323","kana_pref":"ｲｼｶﾜｹﾝ","kana_city":"ﾎｳｽｸﾞﾝﾉﾄﾁｮｳ","kana_address":"ｻｹｵ","pref":"石川県","city":"鳳珠郡能登町","address":"鮭尾"},
{"zip_code":"9270301","kana_pref":"ｲｼｶﾜｹﾝ","kana_city":"ﾎｳｽｸﾞﾝﾉﾄﾁｮｳ","kana_address":"ｼﾁﾐ","pref":"石川県","city":"鳳珠郡能登町","address":"七見"},
{"zip_code":"9270607","kana_pref":"ｲｼｶﾜｹﾝ","kana_city":"ﾎｳｽｸﾞﾝﾉﾄﾁｮｳ","kana_address":"ｼﾛﾏﾙ","pref":"石川県","city":"鳳珠郡能登町","address":"白丸"},
{"zip_code":"9270609","kana_pref":"ｲｼｶﾜｹﾝ","kana_city":"ﾎｳｽｸﾞﾝﾉﾄﾁｮｳ","kana_address":"ｼﾝﾎﾞ","pref":"石川県","city":"鳳珠郡能登町","address":"新保"},
{"zip_code":"9270454","kana_pref":"ｲｼｶﾜｹﾝ","kana_city":"ﾎｳｽｸﾞﾝﾉﾄﾁｮｳ","kana_address":"ｿﾏﾀ","pref":"石川県","city":"鳳珠郡能登町","address":"曽又"},
{"zip_code":"9270627","kana_pref":"ｲｼｶﾜｹﾝ","kana_city":"ﾎｳｽｸﾞﾝﾉﾄﾁｮｳ","kana_address":"ﾀｷﾉﾎﾞ","pref":"石川県","city":"鳳珠郡能登町","address":"滝之坊"},
{"zip_code":"9270626","kana_pref":"ｲｼｶﾜｹﾝ","kana_city":"ﾎｳｽｸﾞﾝﾉﾄﾁｮｳ","kana_address":"ﾀｼﾛ","pref":"石川県","city":"鳳珠郡能登町","address":"田代"},
{"zip_code":"9270605","kana_pref":"ｲｼｶﾜｹﾝ","kana_city":"ﾎｳｽｸﾞﾝﾉﾄﾁｮｳ","kana_address":"ﾀﾃｶﾍﾞ","pref":"石川県","city":"鳳珠郡能登町","address":"立壁"},
{"zip_code":"9270453","kana_pref":"ｲｼｶﾜｹﾝ","kana_city":"ﾎｳｽｸﾞﾝﾉﾄﾁｮｳ","kana_address":"ﾂﾙﾏﾁ","pref":"石川県","city":"鳳珠郡能登町","address":"鶴町"},
{"zip_code":"9270624","kana_pref":"ｲｼｶﾜｹﾝ","kana_city":"ﾎｳｽｸﾞﾝﾉﾄﾁｮｳ","kana_address":"ﾄｷﾅｶﾞ","pref":"石川県","city":"鳳珠郡能登町","address":"時長"},
{"zip_code":"9270315","kana_pref":"ｲｼｶﾜｹﾝ","kana_city":"ﾎｳｽｸﾞﾝﾉﾄﾁｮｳ","kana_address":"ﾄﾖｶﾞｵｶ","pref":"石川県","city":"鳳珠郡能登町","address":"豊ケ丘"},
{"zip_code":"9270603","kana_pref":"ｲｼｶﾜｹﾝ","kana_city":"ﾎｳｽｸﾞﾝﾉﾄﾁｮｳ","kana_address":"ﾇﾉｳﾗ","pref":"石川県","city":"鳳珠郡能登町","address":"布浦"},
{"zip_code":"9270442","kana_pref":"ｲｼｶﾜｹﾝ","kana_city":"ﾎｳｽｸﾞﾝﾉﾄﾁｮｳ","kana_address":"ﾊﾅﾐ","pref":"石川県","city":"鳳珠郡能登町","address":"波並"},
{"zip_code":"9270561","kana_pref":"ｲｼｶﾜｹﾝ","kana_city":"ﾎｳｽｸﾞﾝﾉﾄﾁｮｳ","kana_address":"ﾊﾆｭｳ","pref":"石川県","city":"鳳珠郡能登町","address":"羽生"},
{"zip_code":"9270555","kana_pref":"ｲｼｶﾜｹﾝ","kana_city":"ﾎｳｽｸﾞﾝﾉﾄﾁｮｳ","kana_address":"ﾊﾆｭｳ","pref":"石川県","city":"鳳珠郡能登町","address":"羽生"},
{"zip_code":"9270565","kana_pref":"ｲｼｶﾜｹﾝ","kana_city":"ﾎｳｽｸﾞﾝﾉﾄﾁｮｳ","kana_address":"ﾊﾈ","pref":"石川県","city":"鳳珠郡能登町","address":"羽根"},
{"zip_code":"9270563","kana_pref":"ｲｼｶﾜｹﾝ","kana_city":"ﾎｳｽｸﾞﾝﾉﾄﾁｮｳ","kana_address":"ﾋﾒ","pref":"石川県","city":"鳳珠郡能登町","address":"姫"},
{"zip_code":"9270627","kana_pref":"ｲｼｶﾜｹﾝ","kana_city":"ﾎｳｽｸﾞﾝﾉﾄﾁｮｳ","kana_address":"ﾌｸﾐﾂ","pref":"石川県","city":"鳳珠郡能登町","address":"福光"},
{"zip_code":"9270441","kana_pref":"ｲｼｶﾜｹﾝ","kana_city":"ﾎｳｽｸﾞﾝﾉﾄﾁｮｳ","kana_address":"ﾌｼﾞﾅﾐ","pref":"石川県","city":"鳳珠郡能登町","address":"藤波"},
{"zip_code":"9270451","kana_pref":"ｲｼｶﾜｹﾝ","kana_city":"ﾎｳｽｸﾞﾝﾉﾄﾁｮｳ","kana_address":"ﾌｼﾞﾉｾ","pref":"石川県","city":"鳳珠郡能登町","address":"藤ノ瀬"},
{"zip_code":"9270622","kana_pref":"ｲｼｶﾜｹﾝ","kana_city":"ﾎｳｽｸﾞﾝﾉﾄﾁｮｳ","kana_address":"ﾌﾄﾞｳｼﾞ","pref":"石川県","city":"鳳珠郡能登町","address":"不動寺"},
{"zip_code":"9270312","kana_pref":"ｲｼｶﾜｹﾝ","kana_city":"ﾎｳｽｸﾞﾝﾉﾄﾁｮｳ","kana_address":"ﾎﾝｷ","pref":"石川県","city":"鳳珠郡能登町","address":"本木"},
{"zip_code":"9270602","kana_pref":"ｲｼｶﾜｹﾝ","kana_city":"ﾎｳｽｸﾞﾝﾉﾄﾁｮｳ","kana_address":"ﾏﾂﾅﾐ","pref":"石川県","city":"鳳珠郡能登町","address":"松波"},
{"zip_code":"9270321","kana_pref":"ｲｼｶﾜｹﾝ","kana_city":"ﾎｳｽｸﾞﾝﾉﾄﾁｮｳ","kana_address":"ﾏﾅｲﾀｸﾞﾗ","pref":"石川県","city":"鳳珠郡能登町","address":"爼倉"},
{"zip_code":"9270562","kana_pref":"ｲｼｶﾜｹﾝ","kana_city":"ﾎｳｽｸﾞﾝﾉﾄﾁｮｳ","kana_address":"ﾏﾜｷ","pref":"石川県","city":"鳳珠郡能登町","address":"真脇"},
{"zip_code":"9270614","kana_pref":"ｲｼｶﾜｹﾝ","kana_city":"ﾎｳｽｸﾞﾝﾉﾄﾁｮｳ","kana_address":"ﾏﾝｾﾝｼﾞ","pref":"石川県","city":"鳳珠郡能登町","address":"満泉寺"},
{"zip_code":"9270311","kana_pref":"ｲｼｶﾜｹﾝ","kana_city":"ﾎｳｽｸﾞﾝﾉﾄﾁｮｳ","kana_address":"ﾐｽﾞﾎ","pref":"石川県","city":"鳳珠郡能登町","address":"瑞穂"},
{"zip_code":"9270615","kana_pref":"ｲｼｶﾜｹﾝ","kana_city":"ﾎｳｽｸﾞﾝﾉﾄﾁｮｳ","kana_address":"ﾐﾔｲﾇ","pref":"石川県","city":"鳳珠郡能登町","address":"宮犬"},
{"zip_code":"9270322","kana_pref":"ｲｼｶﾜｹﾝ","kana_city":"ﾎｳｽｸﾞﾝﾉﾄﾁｮｳ","kana_address":"ﾐﾔﾁ","pref":"石川県","city":"鳳珠郡能登町","address":"宮地"},
{"zip_code":"9270602","kana_pref":"ｲｼｶﾜｹﾝ","kana_city":"ﾎｳｽｸﾞﾝﾉﾄﾁｮｳ","kana_address":"ﾐｮｳｼﾞｮｳ","pref":"石川県","city":"鳳珠郡能登町","address":"明生"},
{"zip_code":"9270305","kana_pref":"ｲｼｶﾜｹﾝ","kana_city":"ﾎｳｽｸﾞﾝﾉﾄﾁｮｳ","kana_address":"ﾑﾚ","pref":"石川県","city":"鳳珠郡能登町","address":"武連"},
{"zip_code":"9270443","kana_pref":"ｲｼｶﾜｹﾝ","kana_city":"ﾎｳｽｸﾞﾝﾉﾄﾁｮｳ","kana_address":"ﾔﾅﾐ","pref":"石川県","city":"鳳珠郡能登町","address":"矢波"},
{"zip_code":"9270314","kana_pref":"ｲｼｶﾜｹﾝ","kana_city":"ﾎｳｽｸﾞﾝﾉﾄﾁｮｳ","kana_address":"ﾔﾏﾀﾞ","pref":"石川県","city":"鳳珠郡能登町","address":"山田"},
{"zip_code":"9270614","kana_pref":"ｲｼｶﾜｹﾝ","kana_city":"ﾎｳｽｸﾞﾝﾉﾄﾁｮｳ","kana_address":"ﾔﾏﾅｶ","pref":"石川県","city":"鳳珠郡能登町","address":"山中"},
{"zip_code":"9270623","kana_pref":"ｲｼｶﾜｹﾝ","kana_city":"ﾎｳｽｸﾞﾝﾉﾄﾁｮｳ","kana_address":"ﾕｷﾉﾍﾞ","pref":"石川県","city":"鳳珠郡能登町","address":"行延"},
{"zip_code":"9270606","kana_pref":"ｲｼｶﾜｹﾝ","kana_city":"ﾎｳｽｸﾞﾝﾉﾄﾁｮｳ","kana_address":"ﾖﾓﾔﾏ","pref":"石川県","city":"鳳珠郡能登町","address":"四方山"}]}