{"zip_code":[
{"zip_code":"9280000","kana_pref":"ｲｼｶﾜｹﾝ","kana_city":"ﾜｼﾞﾏｼ","kana_address":"","pref":"石川県","city":"輪島市","address":""},
{"zip_code":"9280053","kana_pref":"ｲｼｶﾜｹﾝ","kana_city":"ﾜｼﾞﾏｼ","kana_address":"ｱｶｻｷﾏﾁ","pref":"石川県","city":"輪島市","address":"赤崎町"},
{"zip_code":"9280072","kana_pref":"ｲｼｶﾜｹﾝ","kana_city":"ﾜｼﾞﾏｼ","kana_address":"ｱﾏﾏﾁ","pref":"石川県","city":"輪島市","address":"海士町"},
{"zip_code":"9280072","kana_pref":"ｲｼｶﾜｹﾝ","kana_city":"ﾜｼﾞﾏｼ","kana_address":"ｱﾏﾏﾁ","pref":"石川県","city":"輪島市","address":"海士町"},
{"zip_code":"9280013","kana_pref":"ｲｼｶﾜｹﾝ","kana_city":"ﾜｼﾞﾏｼ","kana_address":"ｲｼﾔｽﾐﾊﾞﾏﾁ","pref":"石川県","city":"輪島市","address":"石休場町"},
{"zip_code":"9280015","kana_pref":"ｲｼｶﾜｹﾝ","kana_city":"ﾜｼﾞﾏｼ","kana_address":"ｲﾁﾉｾﾏﾁ","pref":"石川県","city":"輪島市","address":"市ノ瀬町"},
{"zip_code":"9280004","kana_pref":"ｲｼｶﾜｹﾝ","kana_city":"ﾜｼﾞﾏｼ","kana_address":"ｲﾅﾌﾞﾈﾏﾁ","pref":"石川県","city":"輪島市","address":"稲舟町"},
{"zip_code":"9280028","kana_pref":"ｲｼｶﾜｹﾝ","kana_city":"ﾜｼﾞﾏｼ","kana_address":"ｳﾁｺｼﾏﾁ","pref":"石川県","city":"輪島市","address":"打越町"},
{"zip_code":"9280065","kana_pref":"ｲｼｶﾜｹﾝ","kana_city":"ﾜｼﾞﾏｼ","kana_address":"ｳﾆｭｳﾏﾁ","pref":"石川県","city":"輪島市","address":"鵜入町"},
{"zip_code":"9280051","kana_pref":"ｲｼｶﾜｹﾝ","kana_city":"ﾜｼﾞﾏｼ","kana_address":"ｵｲｹﾏﾁ","pref":"石川県","city":"輪島市","address":"小池町"},
{"zip_code":"9280032","kana_pref":"ｲｼｶﾜｹﾝ","kana_city":"ﾜｼﾞﾏｼ","kana_address":"ｵｲｾﾏﾁ","pref":"石川県","city":"輪島市","address":"小伊勢町"},
{"zip_code":"9280054","kana_pref":"ｲｼｶﾜｹﾝ","kana_city":"ﾜｼﾞﾏｼ","kana_address":"ｵｵｻﾞﾜﾏﾁ","pref":"石川県","city":"輪島市","address":"大沢町"},
{"zip_code":"9280005","kana_pref":"ｲｼｶﾜｹﾝ","kana_city":"ﾜｼﾞﾏｼ","kana_address":"ｵｵﾉﾏﾁ","pref":"石川県","city":"輪島市","address":"大野町"},
{"zip_code":"9280251","kana_pref":"ｲｼｶﾜｹﾝ","kana_city":"ﾜｼﾞﾏｼ","kana_address":"ｵﾀﾞﾔﾏﾁ","pref":"石川県","city":"輪島市","address":"小田屋町"},
{"zip_code":"9280064","kana_pref":"ｲｼｶﾜｹﾝ","kana_city":"ﾜｼﾞﾏｼ","kana_address":"ｶﾏﾔﾀﾞﾆﾏﾁ","pref":"石川県","city":"輪島市","address":"釜屋谷町"},
{"zip_code":"9280055","kana_pref":"ｲｼｶﾜｹﾝ","kana_city":"ﾜｼﾞﾏｼ","kana_address":"ｶﾐｵｵｻﾞﾜﾏﾁ","pref":"石川県","city":"輪島市","address":"上大沢町"},
{"zip_code":"9280045","kana_pref":"ｲｼｶﾜｹﾝ","kana_city":"ﾜｼﾞﾏｼ","kana_address":"ｶﾐｸﾛｶﾞﾜﾏﾁ","pref":"石川県","city":"輪島市","address":"上黒川町"},
{"zip_code":"9280057","kana_pref":"ｲｼｶﾜｹﾝ","kana_city":"ﾜｼﾞﾏｼ","kana_address":"ｶﾐﾔﾏﾏﾁ","pref":"石川県","city":"輪島市","address":"上山町"},
{"zip_code":"9280001","kana_pref":"ｲｼｶﾜｹﾝ","kana_city":"ﾜｼﾞﾏｼ","kana_address":"ｶﾜｲﾏﾁ","pref":"石川県","city":"輪島市","address":"河井町"},
{"zip_code":"9280027","kana_pref":"ｲｼｶﾜｹﾝ","kana_city":"ﾜｼﾞﾏｼ","kana_address":"ｷﾀﾀﾞﾆﾏﾁ","pref":"石川県","city":"輪島市","address":"北谷町"},
{"zip_code":"9280016","kana_pref":"ｲｼｶﾜｹﾝ","kana_city":"ﾜｼﾞﾏｼ","kana_address":"ｸﾏﾉﾏﾁ","pref":"石川県","city":"輪島市","address":"熊野町"},
{"zip_code":"9280023","kana_pref":"ｲｼｶﾜｹﾝ","kana_city":"ﾜｼﾞﾏｼ","kana_address":"ｹｶﾁﾀﾞｲﾗﾏﾁ","pref":"石川県","city":"輪島市","address":"気勝平町"},
{"zip_code":"9280246","kana_pref":"ｲｼｶﾜｹﾝ","kana_city":"ﾜｼﾞﾏｼ","kana_address":"ｻﾄﾏﾁ","pref":"石川県","city":"輪島市","address":"里町"},
{"zip_code":"9280252","kana_pref":"ｲｼｶﾜｹﾝ","kana_city":"ﾜｼﾞﾏｼ","kana_address":"ｼﾉﾌﾞﾏﾁ","pref":"石川県","city":"輪島市","address":"忍町"},
{"zip_code":"9280241","kana_pref":"ｲｼｶﾜｹﾝ","kana_city":"ﾜｼﾞﾏｼ","kana_address":"ｼﾌﾞﾀﾏﾁ","pref":"石川県","city":"輪島市","address":"渋田町"},
{"zip_code":"9280044","kana_pref":"ｲｼｶﾜｹﾝ","kana_city":"ﾜｼﾞﾏｼ","kana_address":"ｼﾓｸﾛｶﾞﾜﾏﾁ","pref":"石川県","city":"輪島市","address":"下黒川町"},
{"zip_code":"9280052","kana_pref":"ｲｼｶﾜｹﾝ","kana_city":"ﾜｼﾞﾏｼ","kana_address":"ｼﾓﾔﾏﾏﾁ","pref":"石川県","city":"輪島市","address":"下山町"},
{"zip_code":"9280256","kana_pref":"ｲｼｶﾜｹﾝ","kana_city":"ﾜｼﾞﾏｼ","kana_address":"ｼﾛﾖﾈﾏﾁ","pref":"石川県","city":"輪島市","address":"白米町"},
{"zip_code":"9280061","kana_pref":"ｲｼｶﾜｹﾝ","kana_city":"ﾜｼﾞﾏｼ","kana_address":"ｼﾝﾊﾞｼﾄﾞｵﾘ","pref":"石川県","city":"輪島市","address":"新橋通"},
{"zip_code":"9280011","kana_pref":"ｲｼｶﾜｹﾝ","kana_city":"ﾜｼﾞﾏｼ","kana_address":"ｽｷﾞﾋﾗﾏﾁ","pref":"石川県","city":"輪島市","address":"杉平町"},
{"zip_code":"9280006","kana_pref":"ｲｼｶﾜｹﾝ","kana_city":"ﾜｼﾞﾏｼ","kana_address":"ｿｳﾘｮｳﾏﾁ","pref":"石川県","city":"輪島市","address":"惣領町"},
{"zip_code":"9280037","kana_pref":"ｲｼｶﾜｹﾝ","kana_city":"ﾜｼﾞﾏｼ","kana_address":"ｿﾗｸﾏﾏﾁ","pref":"石川県","city":"輪島市","address":"空熊町"},
{"zip_code":"9280253","kana_pref":"ｲｼｶﾜｹﾝ","kana_city":"ﾜｼﾞﾏｼ","kana_address":"ｿﾘｼﾞﾏﾁ","pref":"石川県","city":"輪島市","address":"尊利地町"},
{"zip_code":"9280036","kana_pref":"ｲｼｶﾜｹﾝ","kana_city":"ﾜｼﾞﾏｼ","kana_address":"ﾀｷﾏﾀﾏﾁ","pref":"石川県","city":"輪島市","address":"滝又町"},
{"zip_code":"9280022","kana_pref":"ｲｼｶﾜｹﾝ","kana_city":"ﾜｼﾞﾏｼ","kana_address":"ﾀｸﾀﾞﾏﾁ","pref":"石川県","city":"輪島市","address":"宅田町"},
{"zip_code":"9280041","kana_pref":"ｲｼｶﾜｹﾝ","kana_city":"ﾜｼﾞﾏｼ","kana_address":"ﾁｭｳﾀﾞﾏﾁ","pref":"石川県","city":"輪島市","address":"中段町"},
{"zip_code":"9280003","kana_pref":"ｲｼｶﾜｹﾝ","kana_city":"ﾜｼﾞﾏｼ","kana_address":"ﾂｶﾀﾞﾏﾁ","pref":"石川県","city":"輪島市","address":"塚田町"},
{"zip_code":"9280033","kana_pref":"ｲｼｶﾜｹﾝ","kana_city":"ﾜｼﾞﾏｼ","kana_address":"ﾄｳﾔﾏﾁ","pref":"石川県","city":"輪島市","address":"稲屋町"},
{"zip_code":"9280034","kana_pref":"ｲｼｶﾜｹﾝ","kana_city":"ﾜｼﾞﾏｼ","kana_address":"ﾅｶﾞｲﾏﾁ","pref":"石川県","city":"輪島市","address":"長井町"},
{"zip_code":"9280254","kana_pref":"ｲｼｶﾜｹﾝ","kana_city":"ﾜｼﾞﾏｼ","kana_address":"ﾅﾌﾈﾏﾁ","pref":"石川県","city":"輪島市","address":"名舟町"},
{"zip_code":"9280047","kana_pref":"ｲｼｶﾜｹﾝ","kana_city":"ﾜｼﾞﾏｼ","kana_address":"ﾅﾜﾏﾀﾏﾁ","pref":"石川県","city":"輪島市","address":"繩又町"},
{"zip_code":"9280244","kana_pref":"ｲｼｶﾜｹﾝ","kana_city":"ﾜｼﾞﾏｼ","kana_address":"ﾆｼｲﾝﾅｲﾏﾁ","pref":"石川県","city":"輪島市","address":"西院内町"},
{"zip_code":"9280056","kana_pref":"ｲｼｶﾜｹﾝ","kana_city":"ﾜｼﾞﾏｼ","kana_address":"ﾆｼﾌﾀﾏﾀﾏﾁ","pref":"石川県","city":"輪島市","address":"西二又町"},
{"zip_code":"9280243","kana_pref":"ｲｼｶﾜｹﾝ","kana_city":"ﾜｼﾞﾏｼ","kana_address":"ﾆｼﾔﾏﾏﾁ","pref":"石川県","city":"輪島市","address":"西山町"},
{"zip_code":"9280026","kana_pref":"ｲｼｶﾜｹﾝ","kana_city":"ﾜｼﾞﾏｼ","kana_address":"ﾆｼﾜｷﾏﾁ","pref":"石川県","city":"輪島市","address":"西脇町"},
{"zip_code":"9280255","kana_pref":"ｲｼｶﾜｹﾝ","kana_city":"ﾜｼﾞﾏｼ","kana_address":"ﾉﾀﾞﾏﾁ","pref":"石川県","city":"輪島市","address":"野田町"},
{"zip_code":"9280067","kana_pref":"ｲｼｶﾜｹﾝ","kana_city":"ﾜｼﾞﾏｼ","kana_address":"ﾋｶﾘｳﾗﾏﾁ","pref":"石川県","city":"輪島市","address":"光浦町"},
{"zip_code":"9280242","kana_pref":"ｲｼｶﾜｹﾝ","kana_city":"ﾜｼﾞﾏｼ","kana_address":"ﾋｶﾞｼｲﾝﾅｲﾏﾁ","pref":"石川県","city":"輪島市","address":"東印内町"},
{"zip_code":"9280025","kana_pref":"ｲｼｶﾜｹﾝ","kana_city":"ﾜｼﾞﾏｼ","kana_address":"ﾋｶﾞｼﾅｶｵﾏﾁ","pref":"石川県","city":"輪島市","address":"東中尾町"},
{"zip_code":"9280245","kana_pref":"ｲｼｶﾜｹﾝ","kana_city":"ﾜｼﾞﾏｼ","kana_address":"ﾋｶﾞｼﾔﾏﾏﾁ","pref":"石川県","city":"輪島市","address":"東山町"},
{"zip_code":"9280007","kana_pref":"ｲｼｶﾜｹﾝ","kana_city":"ﾜｼﾞﾏｼ","kana_address":"ﾌｶﾐﾏﾁ","pref":"石川県","city":"輪島市","address":"深見町"},
{"zip_code":"9280073","kana_pref":"ｲｼｶﾜｹﾝ","kana_city":"ﾜｼﾞﾏｼ","kana_address":"ﾌｹﾞｼﾏﾁ","pref":"石川県","city":"輪島市","address":"鳳至町"},
{"zip_code":"9280076","kana_pref":"ｲｼｶﾜｹﾝ","kana_city":"ﾜｼﾞﾏｼ","kana_address":"ﾌｹﾞｼﾏﾁ","pref":"石川県","city":"輪島市","address":"鳳至町"},
{"zip_code":"9280078","kana_pref":"ｲｼｶﾜｹﾝ","kana_city":"ﾜｼﾞﾏｼ","kana_address":"ﾌｹﾞｼﾏﾁ","pref":"石川県","city":"輪島市","address":"鳳至町"},
{"zip_code":"9280077","kana_pref":"ｲｼｶﾜｹﾝ","kana_city":"ﾜｼﾞﾏｼ","kana_address":"ﾌｹﾞｼﾏﾁ","pref":"石川県","city":"輪島市","address":"鳳至町"},
{"zip_code":"9280075","kana_pref":"ｲｼｶﾜｹﾝ","kana_city":"ﾜｼﾞﾏｼ","kana_address":"ﾌｹﾞｼﾏﾁ","pref":"石川県","city":"輪島市","address":"鳳至町"},
{"zip_code":"9280073","kana_pref":"ｲｼｶﾜｹﾝ","kana_city":"ﾜｼﾞﾏｼ","kana_address":"ﾌｹﾞｼﾏﾁ","pref":"石川県","city":"輪島市","address":"鳳至町"},
{"zip_code":"9280077","kana_pref":"ｲｼｶﾜｹﾝ","kana_city":"ﾜｼﾞﾏｼ","kana_address":"ﾌｹﾞｼﾏﾁ","pref":"石川県","city":"輪島市","address":"鳳至町"},
{"zip_code":"9280079","kana_pref":"ｲｼｶﾜｹﾝ","kana_city":"ﾜｼﾞﾏｼ","kana_address":"ﾌｹﾞｼﾏﾁ","pref":"石川県","city":"輪島市","address":"鳳至町"},
{"zip_code":"9280074","kana_pref":"ｲｼｶﾜｹﾝ","kana_city":"ﾜｼﾞﾏｼ","kana_address":"ﾌｹﾞｼﾏﾁ","pref":"石川県","city":"輪島市","address":"鳳至町"},
{"zip_code":"9280043","kana_pref":"ｲｼｶﾜｹﾝ","kana_city":"ﾜｼﾞﾏｼ","kana_address":"ﾌｻﾀﾞﾏﾁ","pref":"石川県","city":"輪島市","address":"房田町"},
{"zip_code":"9280031","kana_pref":"ｲｼｶﾜｹﾝ","kana_city":"ﾜｼﾞﾏｼ","kana_address":"ﾌﾀｾﾏﾁ","pref":"石川県","city":"輪島市","address":"二勢町"},
{"zip_code":"9280021","kana_pref":"ｲｼｶﾜｹﾝ","kana_city":"ﾜｼﾞﾏｼ","kana_address":"ﾌﾀﾂﾔﾏﾁ","pref":"石川県","city":"輪島市","address":"二ツ屋町"},
{"zip_code":"9280046","kana_pref":"ｲｼｶﾜｹﾝ","kana_city":"ﾜｼﾞﾏｼ","kana_address":"ﾌﾀﾏﾀﾏﾁ","pref":"石川県","city":"輪島市","address":"二俣町"},
{"zip_code":"9280002","kana_pref":"ｲｼｶﾜｹﾝ","kana_city":"ﾜｼﾞﾏｼ","kana_address":"ﾌﾃｶﾞﾜﾏﾁ","pref":"石川県","city":"輪島市","address":"久手川町"},
{"zip_code":"9280068","kana_pref":"ｲｼｶﾜｹﾝ","kana_city":"ﾜｼﾞﾏｼ","kana_address":"ﾍｲｾｲﾏﾁ","pref":"石川県","city":"輪島市","address":"平成町"},
{"zip_code":"9280035","kana_pref":"ｲｼｶﾜｹﾝ","kana_city":"ﾜｼﾞﾏｼ","kana_address":"ﾍﾞｯｼｮﾀﾞﾆﾏﾁ","pref":"石川県","city":"輪島市","address":"別所谷町"},
{"zip_code":"9280062","kana_pref":"ｲｼｶﾜｹﾝ","kana_city":"ﾜｼﾞﾏｼ","kana_address":"ﾎﾘﾏﾁ","pref":"石川県","city":"輪島市","address":"堀町"},
{"zip_code":"9280215","kana_pref":"ｲｼｶﾜｹﾝ","kana_city":"ﾜｼﾞﾏｼ","kana_address":"ﾏﾁﾉﾏﾁｱﾜｸﾞﾗ","pref":"石川県","city":"輪島市","address":"町野町粟蔵"},
{"zip_code":"9280217","kana_pref":"ｲｼｶﾜｹﾝ","kana_city":"ﾜｼﾞﾏｼ","kana_address":"ﾏﾁﾉﾏﾁｲﾉﾓﾃ","pref":"石川県","city":"輪島市","address":"町野町井面"},
{"zip_code":"9280211","kana_pref":"ｲｼｶﾜｹﾝ","kana_city":"ﾜｼﾞﾏｼ","kana_address":"ﾏﾁﾉﾏﾁｳｼｵ","pref":"石川県","city":"輪島市","address":"町野町牛尾"},
{"zip_code":"9280231","kana_pref":"ｲｼｶﾜｹﾝ","kana_city":"ﾜｼﾞﾏｼ","kana_address":"ﾏﾁﾉﾏﾁｵｵｶﾜ","pref":"石川県","city":"輪島市","address":"町野町大川"},
{"zip_code":"9280216","kana_pref":"ｲｼｶﾜｹﾝ","kana_city":"ﾜｼﾞﾏｼ","kana_address":"ﾏﾁﾉﾏﾁｵｹﾄﾞ","pref":"石川県","city":"輪島市","address":"町野町桶戸"},
{"zip_code":"9280236","kana_pref":"ｲｼｶﾜｹﾝ","kana_city":"ﾜｼﾞﾏｼ","kana_address":"ﾏﾁﾉﾏﾁｶﾅｸﾗ","pref":"石川県","city":"輪島市","address":"町野町金蔵"},
{"zip_code":"9280235","kana_pref":"ｲｼｶﾜｹﾝ","kana_city":"ﾜｼﾞﾏｼ","kana_address":"ﾏﾁﾉﾏﾁｶﾜﾆｼ","pref":"石川県","city":"輪島市","address":"町野町川西"},
{"zip_code":"9280223","kana_pref":"ｲｼｶﾜｹﾝ","kana_city":"ﾜｼﾞﾏｼ","kana_address":"ﾏﾁﾉﾏﾁｷﾀﾏﾙﾔﾏ","pref":"石川県","city":"輪島市","address":"町野町北円山"},
{"zip_code":"9280214","kana_pref":"ｲｼｶﾜｹﾝ","kana_city":"ﾜｼﾞﾏｼ","kana_address":"ﾏﾁﾉﾏﾁｻﾉ","pref":"石川県","city":"輪島市","address":"町野町佐野"},
{"zip_code":"9280221","kana_pref":"ｲｼｶﾜｹﾝ","kana_city":"ﾜｼﾞﾏｼ","kana_address":"ﾏﾁﾉﾏﾁｻﾝｻ","pref":"石川県","city":"輪島市","address":"町野町真久"},
{"zip_code":"9280203","kana_pref":"ｲｼｶﾜｹﾝ","kana_city":"ﾜｼﾞﾏｼ","kana_address":"ﾏﾁﾉﾏﾁｼｷﾄﾞ","pref":"石川県","city":"輪島市","address":"町野町敷戸"},
{"zip_code":"9280218","kana_pref":"ｲｼｶﾜｹﾝ","kana_city":"ﾜｼﾞﾏｼ","kana_address":"ﾏﾁﾉﾏﾁｽｽﾞﾔ","pref":"石川県","city":"輪島市","address":"町野町鈴屋"},
{"zip_code":"9280206","kana_pref":"ｲｼｶﾜｹﾝ","kana_city":"ﾜｼﾞﾏｼ","kana_address":"ﾏﾁﾉﾏﾁｿｿｷﾞ","pref":"石川県","city":"輪島市","address":"町野町曽々木"},
{"zip_code":"9280202","kana_pref":"ｲｼｶﾜｹﾝ","kana_city":"ﾜｼﾞﾏｼ","kana_address":"ﾏﾁﾉﾏﾁﾃﾗｼﾞ","pref":"石川県","city":"輪島市","address":"町野町寺地"},
{"zip_code":"9280212","kana_pref":"ｲｼｶﾜｹﾝ","kana_city":"ﾜｼﾞﾏｼ","kana_address":"ﾏﾁﾉﾏﾁﾃﾗﾔﾏ","pref":"石川県","city":"輪島市","address":"町野町寺山"},
{"zip_code":"9280226","kana_pref":"ｲｼｶﾜｹﾝ","kana_city":"ﾜｼﾞﾏｼ","kana_address":"ﾏﾁﾉﾏﾁﾄｸﾅﾘ","pref":"石川県","city":"輪島市","address":"町野町徳成"},
{"zip_code":"9280225","kana_pref":"ｲｼｶﾜｹﾝ","kana_city":"ﾜｼﾞﾏｼ","kana_address":"ﾏﾁﾉﾏﾁﾄｸﾅﾘﾔﾁ","pref":"石川県","city":"輪島市","address":"町野町徳成谷内"},
{"zip_code":"9280205","kana_pref":"ｲｼｶﾜｹﾝ","kana_city":"ﾜｼﾞﾏｼ","kana_address":"ﾏﾁﾉﾏﾁﾆｼﾄｷｸﾆ","pref":"石川県","city":"輪島市","address":"町野町西時国"},
{"zip_code":"9280222","kana_pref":"ｲｼｶﾜｹﾝ","kana_city":"ﾜｼﾞﾏｼ","kana_address":"ﾏﾁﾉﾏﾁﾋｶﾞｼ","pref":"石川県","city":"輪島市","address":"町野町東"},
{"zip_code":"9280233","kana_pref":"ｲｼｶﾜｹﾝ","kana_city":"ﾜｼﾞﾏｼ","kana_address":"ﾏﾁﾉﾏﾁﾋｶﾞｼｵｵﾉ","pref":"石川県","city":"輪島市","address":"町野町東大野"},
{"zip_code":"9280201","kana_pref":"ｲｼｶﾜｹﾝ","kana_city":"ﾜｼﾞﾏｼ","kana_address":"ﾏﾁﾉﾏﾁﾋﾛｴ","pref":"石川県","city":"輪島市","address":"町野町広江"},
{"zip_code":"9280232","kana_pref":"ｲｼｶﾜｹﾝ","kana_city":"ﾜｼﾞﾏｼ","kana_address":"ﾏﾁﾉﾏﾁﾌｾﾄﾞ","pref":"石川県","city":"輪島市","address":"町野町伏戸"},
{"zip_code":"9280213","kana_pref":"ｲｼｶﾜｹﾝ","kana_city":"ﾜｼﾞﾏｼ","kana_address":"ﾏﾁﾉﾏﾁﾏｲﾀﾞﾆ","pref":"石川県","city":"輪島市","address":"町野町舞谷"},
{"zip_code":"9280234","kana_pref":"ｲｼｶﾜｹﾝ","kana_city":"ﾜｼﾞﾏｼ","kana_address":"ﾏﾁﾉﾏﾁﾏｷﾉ","pref":"石川県","city":"輪島市","address":"町野町真喜野"},
{"zip_code":"9280204","kana_pref":"ｲｼｶﾜｹﾝ","kana_city":"ﾜｼﾞﾏｼ","kana_address":"ﾏﾁﾉﾏﾁﾐﾅﾐﾄｷｸﾆ","pref":"石川県","city":"輪島市","address":"町野町南時国"},
{"zip_code":"9280224","kana_pref":"ｲｼｶﾜｹﾝ","kana_city":"ﾜｼﾞﾏｼ","kana_address":"ﾏﾁﾉﾏﾁﾑｷﾞｭｳﾉ","pref":"石川県","city":"輪島市","address":"町野町麦生野"},
{"zip_code":"9280008","kana_pref":"ｲｼｶﾜｹﾝ","kana_city":"ﾜｼﾞﾏｼ","kana_address":"ﾏﾘﾝﾀｳﾝ","pref":"石川県","city":"輪島市","address":"マリンタウン"},
{"zip_code":"9280066","kana_pref":"ｲｼｶﾜｹﾝ","kana_city":"ﾜｼﾞﾏｼ","kana_address":"ﾐﾀﾆﾏﾁ","pref":"石川県","city":"輪島市","address":"美谷町"},
{"zip_code":"9280063","kana_pref":"ｲｼｶﾜｹﾝ","kana_city":"ﾜｼﾞﾏｼ","kana_address":"ﾐﾄﾓﾘﾏﾁ","pref":"石川県","city":"輪島市","address":"水守町"},
{"zip_code":"9280062","kana_pref":"ｲｼｶﾜｹﾝ","kana_city":"ﾜｼﾞﾏｼ","kana_address":"ﾐﾅﾐﾁｮｳ","pref":"石川県","city":"輪島市","address":"南町"},
{"zip_code":"9280024","kana_pref":"ｲｼｶﾜｹﾝ","kana_city":"ﾜｼﾞﾏｼ","kana_address":"ﾔﾏｷﾞｼﾏﾁ","pref":"石川県","city":"輪島市","address":"山岸町"},
{"zip_code":"9280014","kana_pref":"ｲｼｶﾜｹﾝ","kana_city":"ﾜｼﾞﾏｼ","kana_address":"ﾔﾏﾉｳｴﾏﾁ","pref":"石川県","city":"輪島市","address":"山ノ上町"},
{"zip_code":"9280042","kana_pref":"ｲｼｶﾜｹﾝ","kana_city":"ﾜｼﾞﾏｼ","kana_address":"ﾔﾏﾓﾄﾏﾁ","pref":"石川県","city":"輪島市","address":"山本町"},
{"zip_code":"9280012","kana_pref":"ｲｼｶﾜｹﾝ","kana_city":"ﾜｼﾞﾏｼ","kana_address":"ﾖｺｼﾞﾏﾁ","pref":"石川県","city":"輪島市","address":"横地町"},
{"zip_code":"9280071","kana_pref":"ｲｼｶﾜｹﾝ","kana_city":"ﾜｼﾞﾏｼ","kana_address":"ﾜｼﾞﾏｻﾞｷﾏﾁ","pref":"石川県","city":"輪島市","address":"輪島崎町"},
{"zip_code":"9280332","kana_pref":"ｲｼｶﾜｹﾝ","kana_city":"ﾎｳｽｸﾞﾝﾉﾄﾁｮｳ","kana_address":"ｲｶﾘ","pref":"石川県","city":"鳳珠郡能登町","address":"五十里"},
{"zip_code":"9280306","kana_pref":"ｲｼｶﾜｹﾝ","kana_city":"ﾎｳｽｸﾞﾝﾉﾄﾁｮｳ","kana_address":"ｲｼｲ","pref":"石川県","city":"鳳珠郡能登町","address":"石井"},
{"zip_code":"9280335","kana_pref":"ｲｼｶﾜｹﾝ","kana_city":"ﾎｳｽｸﾞﾝﾉﾄﾁｮｳ","kana_address":"ｵｵﾊﾞｺ","pref":"石川県","city":"鳳珠郡能登町","address":"大箱"},
{"zip_code":"9280302","kana_pref":"ｲｼｶﾜｹﾝ","kana_city":"ﾎｳｽｸﾞﾝﾉﾄﾁｮｳ","kana_address":"ｵﾓｳ","pref":"石川県","city":"鳳珠郡能登町","address":"小間生"},
{"zip_code":"9280301","kana_pref":"ｲｼｶﾜｹﾝ","kana_city":"ﾎｳｽｸﾞﾝﾉﾄﾁｮｳ","kana_address":"ｶﾐﾅｶﾞｵ","pref":"石川県","city":"鳳珠郡能登町","address":"上長尾"},
{"zip_code":"9280325","kana_pref":"ｲｼｶﾜｹﾝ","kana_city":"ﾎｳｽｸﾞﾝﾉﾄﾁｮｳ","kana_address":"ｶﾐﾜｽﾐ","pref":"石川県","city":"鳳珠郡能登町","address":"神和住"},
{"zip_code":"9280308","kana_pref":"ｲｼｶﾜｹﾝ","kana_city":"ﾎｳｽｸﾞﾝﾉﾄﾁｮｳ","kana_address":"ｶﾓｶﾞﾜ","pref":"石川県","city":"鳳珠郡能登町","address":"鴨川"},
{"zip_code":"9280312","kana_pref":"ｲｼｶﾜｹﾝ","kana_city":"ﾎｳｽｸﾞﾝﾉﾄﾁｮｳ","kana_address":"ｶﾝﾏﾁ","pref":"石川県","city":"鳳珠郡能登町","address":"上町"},
{"zip_code":"9280336","kana_pref":"ｲｼｶﾜｹﾝ","kana_city":"ﾎｳｽｸﾞﾝﾉﾄﾁｮｳ","kana_address":"ｷﾀｶﾜﾁ","pref":"石川県","city":"鳳珠郡能登町","address":"北河内"},
{"zip_code":"9280305","kana_pref":"ｲｼｶﾜｹﾝ","kana_city":"ﾎｳｽｸﾞﾝﾉﾄﾁｮｳ","kana_address":"ｷｭｳﾃﾞﾝ","pref":"石川県","city":"鳳珠郡能登町","address":"久田"},
{"zip_code":"9280303","kana_pref":"ｲｼｶﾜｹﾝ","kana_city":"ﾎｳｽｸﾞﾝﾉﾄﾁｮｳ","kana_address":"ｷﾘﾊﾀ","pref":"石川県","city":"鳳珠郡能登町","address":"桐畑"},
{"zip_code":"9280307","kana_pref":"ｲｼｶﾜｹﾝ","kana_city":"ﾎｳｽｸﾞﾝﾉﾄﾁｮｳ","kana_address":"ｸﾆﾐﾂ","pref":"石川県","city":"鳳珠郡能登町","address":"国光"},
{"zip_code":"9280333","kana_pref":"ｲｼｶﾜｹﾝ","kana_city":"ﾎｳｽｸﾞﾝﾉﾄﾁｮｳ","kana_address":"ｸﾛｶﾜ","pref":"石川県","city":"鳳珠郡能登町","address":"黒川"},
{"zip_code":"9280311","kana_pref":"ｲｼｶﾜｹﾝ","kana_city":"ﾎｳｽｸﾞﾝﾉﾄﾁｮｳ","kana_address":"ｺﾞｳﾛｸ","pref":"石川県","city":"鳳珠郡能登町","address":"合鹿"},
{"zip_code":"9280323","kana_pref":"ｲｼｶﾜｹﾝ","kana_city":"ﾎｳｽｸﾞﾝﾉﾄﾁｮｳ","kana_address":"ｺﾞﾛｻﾞｴﾓﾝﾌﾞﾝ","pref":"石川県","city":"鳳珠郡能登町","address":"五郎左エ門分"},
{"zip_code":"9280326","kana_pref":"ｲｼｶﾜｹﾝ","kana_city":"ﾎｳｽｸﾞﾝﾉﾄﾁｮｳ","kana_address":"ｻｲﾜ","pref":"石川県","city":"鳳珠郡能登町","address":"斉和"},
{"zip_code":"9280314","kana_pref":"ｲｼｶﾜｹﾝ","kana_city":"ﾎｳｽｸﾞﾝﾉﾄﾁｮｳ","kana_address":"ｻｻｶﾞﾜ","pref":"石川県","city":"鳳珠郡能登町","address":"笹川"},
{"zip_code":"9280321","kana_pref":"ｲｼｶﾜｹﾝ","kana_city":"ﾎｳｽｸﾞﾝﾉﾄﾁｮｳ","kana_address":"ｼﾞｭｳﾛﾊﾞﾗ","pref":"石川県","city":"鳳珠郡能登町","address":"十郎原"},
{"zip_code":"9280304","kana_pref":"ｲｼｶﾜｹﾝ","kana_city":"ﾎｳｽｸﾞﾝﾉﾄﾁｮｳ","kana_address":"ｽｽﾞｶﾞﾐﾈ","pref":"石川県","city":"鳳珠郡能登町","address":"鈴ケ嶺"},
{"zip_code":"9280322","kana_pref":"ｲｼｶﾜｹﾝ","kana_city":"ﾎｳｽｸﾞﾝﾉﾄﾁｮｳ","kana_address":"ﾃﾗﾌﾞﾝ","pref":"石川県","city":"鳳珠郡能登町","address":"寺分"},
{"zip_code":"9280313","kana_pref":"ｲｼｶﾜｹﾝ","kana_city":"ﾎｳｽｸﾞﾝﾉﾄﾁｮｳ","kana_address":"ﾃﾝｻﾞｶ","pref":"石川県","city":"鳳珠郡能登町","address":"天坂"},
{"zip_code":"9280334","kana_pref":"ｲｼｶﾜｹﾝ","kana_city":"ﾎｳｽｸﾞﾝﾉﾄﾁｮｳ","kana_address":"ﾄｳﾒ","pref":"石川県","city":"鳳珠郡能登町","address":"当目"},
{"zip_code":"9280324","kana_pref":"ｲｼｶﾜｹﾝ","kana_city":"ﾎｳｽｸﾞﾝﾉﾄﾁｮｳ","kana_address":"ﾅｶｻｲ","pref":"石川県","city":"鳳珠郡能登町","address":"中斉"},
{"zip_code":"9280331","kana_pref":"ｲｼｶﾜｹﾝ","kana_city":"ﾎｳｽｸﾞﾝﾉﾄﾁｮｳ","kana_address":"ﾔﾅｷﾞﾀﾞ","pref":"石川県","city":"鳳珠郡能登町","address":"柳田"}]}