{"zip_code":[
{"zip_code":"9292105","kana_pref":"ｲｼｶﾜｹﾝ","kana_city":"ﾅﾅｵｼ","kana_address":"ｱﾗﾔﾏﾁ","pref":"石川県","city":"七尾市","address":"新屋町"},
{"zip_code":"9292114","kana_pref":"ｲｼｶﾜｹﾝ","kana_city":"ﾅﾅｵｼ","kana_address":"ｲｸﾛﾏﾁ","pref":"石川県","city":"七尾市","address":"伊久留町"},
{"zip_code":"9292122","kana_pref":"ｲｼｶﾜｹﾝ","kana_city":"ﾅﾅｵｼ","kana_address":"ｳﾜﾉｶﾞｵｶﾏﾁ","pref":"石川県","city":"七尾市","address":"上野ケ丘町"},
{"zip_code":"9292126","kana_pref":"ｲｼｶﾜｹﾝ","kana_city":"ﾅﾅｵｼ","kana_address":"ｵｵﾂﾏﾁ","pref":"石川県","city":"七尾市","address":"大津町"},
{"zip_code":"9292104","kana_pref":"ｲｼｶﾜｹﾝ","kana_city":"ﾅﾅｵｼ","kana_address":"ｶｷﾖｼﾏﾁ","pref":"石川県","city":"七尾市","address":"垣吉町"},
{"zip_code":"9292101","kana_pref":"ｲｼｶﾜｹﾝ","kana_city":"ﾅﾅｵｼ","kana_address":"ｶﾜｼﾘﾏﾁ","pref":"石川県","city":"七尾市","address":"川尻町"},
{"zip_code":"9292115","kana_pref":"ｲｼｶﾜｹﾝ","kana_city":"ﾅﾅｵｼ","kana_address":"ｼﾂﾊﾗﾏﾁ","pref":"石川県","city":"七尾市","address":"七原町"},
{"zip_code":"9292124","kana_pref":"ｲｼｶﾜｹﾝ","kana_city":"ﾅﾅｵｼ","kana_address":"ｼﾗﾊﾏﾏﾁ","pref":"石川県","city":"七尾市","address":"白浜町"},
{"zip_code":"9292112","kana_pref":"ｲｼｶﾜｹﾝ","kana_city":"ﾅﾅｵｼ","kana_address":"ｽｷﾞﾓﾘﾏﾁ","pref":"石川県","city":"七尾市","address":"杉森町"},
{"zip_code":"9292111","kana_pref":"ｲｼｶﾜｹﾝ","kana_city":"ﾅﾅｵｼ","kana_address":"ﾀｶﾀﾏﾁ","pref":"石川県","city":"七尾市","address":"高田町"},
{"zip_code":"9292121","kana_pref":"ｲｼｶﾜｹﾝ","kana_city":"ﾅﾅｵｼ","kana_address":"ﾀﾂﾙﾊﾏﾏﾁ","pref":"石川県","city":"七尾市","address":"田鶴浜町"},
{"zip_code":"9292204","kana_pref":"ｲｼｶﾜｹﾝ","kana_city":"ﾅﾅｵｼ","kana_address":"ﾅｶｼﾞﾏﾏﾁｳﾜﾊﾞﾀｹ","pref":"石川県","city":"七尾市","address":"中島町上畠"},
{"zip_code":"9292207","kana_pref":"ｲｼｶﾜｹﾝ","kana_city":"ﾅﾅｵｼ","kana_address":"ﾅｶｼﾞﾏﾏﾁｵｵﾀﾞｲﾗ","pref":"石川県","city":"七尾市","address":"中島町大平"},
{"zip_code":"9292231","kana_pref":"ｲｼｶﾜｹﾝ","kana_city":"ﾅﾅｵｼ","kana_address":"ﾅｶｼﾞﾏﾏﾁｵｸﾖｼﾀ","pref":"石川県","city":"七尾市","address":"中島町奥吉田"},
{"zip_code":"9292214","kana_pref":"ｲｼｶﾜｹﾝ","kana_city":"ﾅﾅｵｼ","kana_address":"ﾅｶｼﾞﾏﾏﾁｵﾏｷ","pref":"石川県","city":"七尾市","address":"中島町小牧"},
{"zip_code":"9292233","kana_pref":"ｲｼｶﾜｹﾝ","kana_city":"ﾅﾅｵｼ","kana_address":"ﾅｶｼﾞﾏﾏﾁｶｻｼ","pref":"石川県","city":"七尾市","address":"中島町笠師"},
{"zip_code":"9292217","kana_pref":"ｲｼｶﾜｹﾝ","kana_city":"ﾅﾅｵｼ","kana_address":"ﾅｶｼﾞﾏﾏﾁｶｼﾏﾀﾞｲ","pref":"石川県","city":"七尾市","address":"中島町鹿島台"},
{"zip_code":"9292243","kana_pref":"ｲｼｶﾜｹﾝ","kana_city":"ﾅﾅｵｼ","kana_address":"ﾅｶｼﾞﾏﾏﾁｶﾜｻﾞｷ","pref":"石川県","city":"七尾市","address":"中島町河崎"},
{"zip_code":"9292201","kana_pref":"ｲｼｶﾜｹﾝ","kana_city":"ﾅﾅｵｼ","kana_address":"ﾅｶｼﾞﾏﾏﾁｶﾜﾁ","pref":"石川県","city":"七尾市","address":"中島町河内"},
{"zip_code":"9292223","kana_pref":"ｲｼｶﾜｹﾝ","kana_city":"ﾅﾅｵｼ","kana_address":"ﾅｶｼﾞﾏﾏﾁｶﾝﾏﾁ","pref":"石川県","city":"七尾市","address":"中島町上町"},
{"zip_code":"9292203","kana_pref":"ｲｼｶﾜｹﾝ","kana_city":"ﾅﾅｵｼ","kana_address":"ﾅｶｼﾞﾏﾏﾁｷﾀﾒﾝﾃﾞﾝ","pref":"石川県","city":"七尾市","address":"中島町北免田"},
{"zip_code":"9292242","kana_pref":"ｲｼｶﾜｹﾝ","kana_city":"ﾅﾅｵｼ","kana_address":"ﾅｶｼﾞﾏﾏﾁｻｷﾔﾏ","pref":"石川県","city":"七尾市","address":"中島町崎山"},
{"zip_code":"9292234","kana_pref":"ｲｼｶﾜｹﾝ","kana_city":"ﾅﾅｵｼ","kana_address":"ﾅｶｼﾞﾏﾏﾁｼｵﾂ","pref":"石川県","city":"七尾市","address":"中島町塩津"},
{"zip_code":"9292218","kana_pref":"ｲｼｶﾜｹﾝ","kana_city":"ﾅﾅｵｼ","kana_address":"ﾅｶｼﾞﾏﾏﾁｾｱﾗｼ","pref":"石川県","city":"七尾市","address":"中島町瀬嵐"},
{"zip_code":"9292213","kana_pref":"ｲｼｶﾜｹﾝ","kana_city":"ﾅﾅｵｼ","kana_address":"ﾅｶｼﾞﾏﾏﾁｿﾃﾞ","pref":"石川県","city":"七尾市","address":"中島町外"},
{"zip_code":"9292247","kana_pref":"ｲｼｶﾜｹﾝ","kana_city":"ﾅﾅｵｼ","kana_address":"ﾅｶｼﾞﾏﾏﾁｿﾄﾞﾊﾗ","pref":"石川県","city":"七尾市","address":"中島町外原"},
{"zip_code":"9292212","kana_pref":"ｲｼｶﾜｹﾝ","kana_city":"ﾅﾅｵｼ","kana_address":"ﾅｶｼﾞﾏﾏﾁﾀｷﾞｼ","pref":"石川県","city":"七尾市","address":"中島町田岸"},
{"zip_code":"9292246","kana_pref":"ｲｼｶﾜｹﾝ","kana_city":"ﾅﾅｵｼ","kana_address":"ﾅｶｼﾞﾏﾏﾁﾂﾁｶﾜ","pref":"石川県","city":"七尾市","address":"中島町土川"},
{"zip_code":"9292245","kana_pref":"ｲｼｶﾜｹﾝ","kana_city":"ﾅﾅｵｼ","kana_address":"ﾅｶｼﾞﾏﾏﾁﾄﾖﾀ","pref":"石川県","city":"七尾市","address":"中島町豊田"},
{"zip_code":"9292244","kana_pref":"ｲｼｶﾜｹﾝ","kana_city":"ﾅﾅｵｼ","kana_address":"ﾅｶｼﾞﾏﾏﾁﾄﾖﾀﾏﾁ","pref":"石川県","city":"七尾市","address":"中島町豊田町"},
{"zip_code":"9292206","kana_pref":"ｲｼｶﾜｹﾝ","kana_city":"ﾅﾅｵｼ","kana_address":"ﾅｶｼﾞﾏﾏﾁﾄﾘｺﾞｴ","pref":"石川県","city":"七尾市","address":"中島町鳥越"},
{"zip_code":"9292216","kana_pref":"ｲｼｶﾜｹﾝ","kana_city":"ﾅﾅｵｼ","kana_address":"ﾅｶｼﾞﾏﾏﾁﾅｶﾞｳﾗ","pref":"石川県","city":"七尾市","address":"中島町長浦"},
{"zip_code":"9292222","kana_pref":"ｲｼｶﾜｹﾝ","kana_city":"ﾅﾅｵｼ","kana_address":"ﾅｶｼﾞﾏﾏﾁﾅｶｼﾞﾏ","pref":"石川県","city":"七尾市","address":"中島町中島"},
{"zip_code":"9292209","kana_pref":"ｲｼｶﾜｹﾝ","kana_city":"ﾅﾅｵｼ","kana_address":"ﾅｶｼﾞﾏﾏﾁﾆｼﾔﾁ","pref":"石川県","city":"七尾市","address":"中島町西谷内"},
{"zip_code":"9292241","kana_pref":"ｲｼｶﾜｹﾝ","kana_city":"ﾅﾅｵｼ","kana_address":"ﾅｶｼﾞﾏﾏﾁﾊﾏﾀﾞ","pref":"石川県","city":"七尾市","address":"中島町浜田"},
{"zip_code":"9292215","kana_pref":"ｲｼｶﾜｹﾝ","kana_city":"ﾅﾅｵｼ","kana_address":"ﾅｶｼﾞﾏﾏﾁﾌｶｳﾗ","pref":"石川県","city":"七尾市","address":"中島町深浦"},
{"zip_code":"9292227","kana_pref":"ｲｼｶﾜｹﾝ","kana_city":"ﾅﾅｵｼ","kana_address":"ﾅｶｼﾞﾏﾏﾁﾌｼﾞﾉｾ","pref":"石川県","city":"七尾市","address":"中島町藤瀬"},
{"zip_code":"9292232","kana_pref":"ｲｼｶﾜｹﾝ","kana_city":"ﾅﾅｵｼ","kana_address":"ﾅｶｼﾞﾏﾏﾁﾌﾃﾞｿﾒ","pref":"石川県","city":"七尾市","address":"中島町筆染"},
{"zip_code":"9292208","kana_pref":"ｲｼｶﾜｹﾝ","kana_city":"ﾅﾅｵｼ","kana_address":"ﾅｶｼﾞﾏﾏﾁﾌﾙｴ","pref":"石川県","city":"七尾市","address":"中島町古江"},
{"zip_code":"9292202","kana_pref":"ｲｼｶﾜｹﾝ","kana_city":"ﾅﾅｵｼ","kana_address":"ﾅｶｼﾞﾏﾏﾁﾍﾞｯｼｮ","pref":"石川県","city":"七尾市","address":"中島町別所"},
{"zip_code":"9292205","kana_pref":"ｲｼｶﾜｹﾝ","kana_city":"ﾅﾅｵｼ","kana_address":"ﾅｶｼﾞﾏﾏﾁﾏﾁﾔ","pref":"石川県","city":"七尾市","address":"中島町町屋"},
{"zip_code":"9292225","kana_pref":"ｲｼｶﾜｹﾝ","kana_city":"ﾅﾅｵｼ","kana_address":"ﾅｶｼﾞﾏﾏﾁﾐﾔﾉﾏｴ","pref":"石川県","city":"七尾市","address":"中島町宮前"},
{"zip_code":"9292221","kana_pref":"ｲｼｶﾜｹﾝ","kana_city":"ﾅﾅｵｼ","kana_address":"ﾅｶｼﾞﾏﾏﾁﾔﾁ","pref":"石川県","city":"七尾市","address":"中島町谷内"},
{"zip_code":"9292224","kana_pref":"ｲｼｶﾜｹﾝ","kana_city":"ﾅﾅｵｼ","kana_address":"ﾅｶｼﾞﾏﾏﾁﾔﾏﾄﾀﾞ","pref":"石川県","city":"七尾市","address":"中島町山戸田"},
{"zip_code":"9292226","kana_pref":"ｲｼｶﾜｹﾝ","kana_city":"ﾅﾅｵｼ","kana_address":"ﾅｶｼﾞﾏﾏﾁﾖｺﾀ","pref":"石川県","city":"七尾市","address":"中島町横田"},
{"zip_code":"9292211","kana_pref":"ｲｼｶﾜｹﾝ","kana_city":"ﾅﾅｵｼ","kana_address":"ﾅｶｼﾞﾏﾏﾁﾖｺﾐ","pref":"石川県","city":"七尾市","address":"中島町横見"},
{"zip_code":"9292113","kana_pref":"ｲｼｶﾜｹﾝ","kana_city":"ﾅﾅｵｼ","kana_address":"ﾆｼｼﾓﾏﾁ","pref":"石川県","city":"七尾市","address":"西下町"},
{"zip_code":"9292103","kana_pref":"ｲｼｶﾜｹﾝ","kana_city":"ﾅﾅｵｼ","kana_address":"ﾋｶﾞｼﾔﾏﾏﾁ","pref":"石川県","city":"七尾市","address":"東山町"},
{"zip_code":"9292125","kana_pref":"ｲｼｶﾜｹﾝ","kana_city":"ﾅﾅｵｼ","kana_address":"ﾌｶﾐﾏﾁ","pref":"石川県","city":"七尾市","address":"深見町"},
{"zip_code":"9292102","kana_pref":"ｲｼｶﾜｹﾝ","kana_city":"ﾅﾅｵｼ","kana_address":"ﾌﾉｵﾏﾁ","pref":"石川県","city":"七尾市","address":"舟尾町"},
{"zip_code":"9292123","kana_pref":"ｲｼｶﾜｹﾝ","kana_city":"ﾅﾅｵｼ","kana_address":"ﾐﾋﾞｷﾏﾁ","pref":"石川県","city":"七尾市","address":"三引町"},
{"zip_code":"9292116","kana_pref":"ｲｼｶﾜｹﾝ","kana_city":"ﾅﾅｵｼ","kana_address":"ﾖｼﾀﾏﾁ","pref":"石川県","city":"七尾市","address":"吉田町"},
{"zip_code":"9292373","kana_pref":"ｲｼｶﾜｹﾝ","kana_city":"ﾜｼﾞﾏｼ","kana_address":"ﾐｲﾏﾁｲﾁﾉｻｶ","pref":"石川県","city":"輪島市","address":"三井町市ノ坂"},
{"zip_code":"9292374","kana_pref":"ｲｼｶﾜｹﾝ","kana_city":"ﾜｼﾞﾏｼ","kana_address":"ﾐｲﾏﾁｳﾁﾔ","pref":"石川県","city":"輪島市","address":"三井町内屋"},
{"zip_code":"9292377","kana_pref":"ｲｼｶﾜｹﾝ","kana_city":"ﾜｼﾞﾏｼ","kana_address":"ﾐｲﾏﾁｳﾙｼﾊﾗ","pref":"石川県","city":"輪島市","address":"三井町漆原"},
{"zip_code":"9292378","kana_pref":"ｲｼｶﾜｹﾝ","kana_city":"ﾜｼﾞﾏｼ","kana_address":"ﾐｲﾏﾁｺｲｽﾞﾐ","pref":"石川県","city":"輪島市","address":"三井町小泉"},
{"zip_code":"9292363","kana_pref":"ｲｼｶﾜｹﾝ","kana_city":"ﾜｼﾞﾏｼ","kana_address":"ﾐｲﾏﾁｺｳﾄｸｼﾞ","pref":"石川県","city":"輪島市","address":"三井町興徳寺"},
{"zip_code":"9292376","kana_pref":"ｲｼｶﾜｹﾝ","kana_city":"ﾜｼﾞﾏｼ","kana_address":"ﾐｲﾏﾁｼﾝﾎﾞ","pref":"石川県","city":"輪島市","address":"三井町新保"},
{"zip_code":"9292372","kana_pref":"ｲｼｶﾜｹﾝ","kana_city":"ﾜｼﾞﾏｼ","kana_address":"ﾐｲﾏﾁｽｴ","pref":"石川県","city":"輪島市","address":"三井町洲衛"},
{"zip_code":"9292365","kana_pref":"ｲｼｶﾜｹﾝ","kana_city":"ﾜｼﾞﾏｼ","kana_address":"ﾐｲﾏﾁﾄﾞｱｲ","pref":"石川県","city":"輪島市","address":"三井町渡合"},
{"zip_code":"9292362","kana_pref":"ｲｼｶﾜｹﾝ","kana_city":"ﾜｼﾞﾏｼ","kana_address":"ﾐｲﾏﾁﾅｶ","pref":"石川県","city":"輪島市","address":"三井町中"},
{"zip_code":"9292379","kana_pref":"ｲｼｶﾜｹﾝ","kana_city":"ﾜｼﾞﾏｼ","kana_address":"ﾐｲﾏﾁﾅｶﾞｻﾜ","pref":"石川県","city":"輪島市","address":"三井町長沢"},
{"zip_code":"9292367","kana_pref":"ｲｼｶﾜｹﾝ","kana_city":"ﾜｼﾞﾏｼ","kana_address":"ﾐｲﾏﾁﾆｷﾞｮｳ","pref":"石川県","city":"輪島市","address":"三井町仁行"},
{"zip_code":"9292375","kana_pref":"ｲｼｶﾜｹﾝ","kana_city":"ﾜｼﾞﾏｼ","kana_address":"ﾐｲﾏﾁﾎｿﾔ","pref":"石川県","city":"輪島市","address":"三井町細屋"},
{"zip_code":"9292366","kana_pref":"ｲｼｶﾜｹﾝ","kana_city":"ﾜｼﾞﾏｼ","kana_address":"ﾐｲﾏﾁﾎﾝｺｳ","pref":"石川県","city":"輪島市","address":"三井町本江"},
{"zip_code":"9292371","kana_pref":"ｲｼｶﾜｹﾝ","kana_city":"ﾜｼﾞﾏｼ","kana_address":"ﾐｲﾏﾁﾐｽﾞﾎ","pref":"石川県","city":"輪島市","address":"三井町三洲穂"},
{"zip_code":"9292361","kana_pref":"ｲｼｶﾜｹﾝ","kana_city":"ﾜｼﾞﾏｼ","kana_address":"ﾐｲﾏﾁﾖﾛﾐ","pref":"石川県","city":"輪島市","address":"三井町与呂見"},
{"zip_code":"9292364","kana_pref":"ｲｼｶﾜｹﾝ","kana_city":"ﾜｼﾞﾏｼ","kana_address":"ﾔﾏﾄﾏﾁ","pref":"石川県","city":"輪島市","address":"大和町"},
{"zip_code":"9291572","kana_pref":"ｲｼｶﾜｹﾝ","kana_city":"ﾊｸｲｼ","kana_address":"ｵｵﾏﾁ","pref":"石川県","city":"羽咋市","address":"大町"},
{"zip_code":"9291576","kana_pref":"ｲｼｶﾜｹﾝ","kana_city":"ﾊｸｲｼ","kana_address":"ｶｼﾏｼﾞﾏﾁ","pref":"石川県","city":"羽咋市","address":"鹿島路町"},
{"zip_code":"9291575","kana_pref":"ｲｼｶﾜｹﾝ","kana_city":"ﾊｸｲｼ","kana_address":"ｶﾈﾏﾙﾃﾞﾏﾁ","pref":"石川県","city":"羽咋市","address":"金丸出町"},
{"zip_code":"9291574","kana_pref":"ｲｼｶﾜｹﾝ","kana_city":"ﾊｸｲｼ","kana_address":"ｻｶｲﾏﾁ","pref":"石川県","city":"羽咋市","address":"酒井町"},
{"zip_code":"9291571","kana_pref":"ｲｼｶﾜｹﾝ","kana_city":"ﾊｸｲｼ","kana_address":"ｼﾓｿﾈﾏﾁ","pref":"石川県","city":"羽咋市","address":"下曽祢町"},
{"zip_code":"9291577","kana_pref":"ｲｼｶﾜｹﾝ","kana_city":"ﾊｸｲｼ","kana_address":"ﾋｶﾞｼｶﾀﾏﾁ","pref":"石川県","city":"羽咋市","address":"東潟町"},
{"zip_code":"9291573","kana_pref":"ｲｼｶﾜｹﾝ","kana_city":"ﾊｸｲｼ","kana_address":"ﾖﾂﾔﾅｷﾞﾏﾁ","pref":"石川県","city":"羽咋市","address":"四柳町"},
{"zip_code":"9291100","kana_pref":"ｲｼｶﾜｹﾝ","kana_city":"ｶﾎｸｼ","kana_address":"","pref":"石川県","city":"かほく市","address":""},
{"zip_code":"9291175","kana_pref":"ｲｼｶﾜｹﾝ","kana_city":"ｶﾎｸｼ","kana_address":"ｱｷﾊﾏ","pref":"石川県","city":"かほく市","address":"秋浜"},
{"zip_code":"9291121","kana_pref":"ｲｼｶﾜｹﾝ","kana_city":"ｶﾎｸｼ","kana_address":"ｳｹ","pref":"石川県","city":"かほく市","address":"宇気"},
{"zip_code":"9291214","kana_pref":"ｲｼｶﾜｹﾝ","kana_city":"ｶﾎｸｼ","kana_address":"ｳﾁﾀｶﾏﾂ","pref":"石川県","city":"かほく市","address":"内高松"},
{"zip_code":"9291126","kana_pref":"ｲｼｶﾜｹﾝ","kana_city":"ｶﾎｸｼ","kana_address":"ｳﾁﾋｽﾐ","pref":"石川県","city":"かほく市","address":"内日角"},
{"zip_code":"9291125","kana_pref":"ｲｼｶﾜｹﾝ","kana_city":"ｶﾎｸｼ","kana_address":"ｳﾉｹ","pref":"石川県","city":"かほく市","address":"宇野気"},
{"zip_code":"9291102","kana_pref":"ｲｼｶﾜｹﾝ","kana_city":"ｶﾎｸｼ","kana_address":"ｳﾜﾀﾞﾅ","pref":"石川県","city":"かほく市","address":"上田名"},
{"zip_code":"9291127","kana_pref":"ｲｼｶﾜｹﾝ","kana_city":"ｶﾎｸｼ","kana_address":"ｵｵｻｷ","pref":"石川県","city":"かほく市","address":"大崎"},
{"zip_code":"9291210","kana_pref":"ｲｼｶﾜｹﾝ","kana_city":"ｶﾎｸｼ","kana_address":"ｶﾞｸｴﾝﾀﾞｲ","pref":"石川県","city":"かほく市","address":"学園台"},
{"zip_code":"9291104","kana_pref":"ｲｼｶﾜｹﾝ","kana_city":"ｶﾎｸｼ","kana_address":"ｶｻｼﾏ","pref":"石川県","city":"かほく市","address":"笠島"},
{"zip_code":"9291115","kana_pref":"ｲｼｶﾜｹﾝ","kana_city":"ｶﾎｸｼ","kana_address":"ｶﾐﾔﾏﾀﾞ","pref":"石川県","city":"かほく市","address":"上山田"},
{"zip_code":"9291114","kana_pref":"ｲｼｶﾜｹﾝ","kana_city":"ｶﾎｸｼ","kana_address":"ｶﾙｶﾞﾉ","pref":"石川県","city":"かほく市","address":"狩鹿野"},
{"zip_code":"9291206","kana_pref":"ｲｼｶﾜｹﾝ","kana_city":"ｶﾎｸｼ","kana_address":"ｶﾞﾝﾆｮ","pref":"石川県","city":"かほく市","address":"元女"},
{"zip_code":"9291171","kana_pref":"ｲｼｶﾜｹﾝ","kana_city":"ｶﾎｸｼ","kana_address":"ｷﾂﾞ","pref":"石川県","city":"かほく市","address":"木津"},
{"zip_code":"9291111","kana_pref":"ｲｼｶﾜｹﾝ","kana_city":"ｶﾎｸｼ","kana_address":"ｷﾔ","pref":"石川県","city":"かほく市","address":"気屋"},
{"zip_code":"9291203","kana_pref":"ｲｼｶﾜｹﾝ","kana_city":"ｶﾎｸｼ","kana_address":"ｸﾛｶﾞﾜ","pref":"石川県","city":"かほく市","address":"黒川"},
{"zip_code":"9291113","kana_pref":"ｲｼｶﾜｹﾝ","kana_city":"ｶﾎｸｼ","kana_address":"ｻｼｴ","pref":"石川県","city":"かほく市","address":"指江"},
{"zip_code":"9291116","kana_pref":"ｲｼｶﾜｹﾝ","kana_city":"ｶﾎｸｼ","kana_address":"ｼﾓﾔﾏﾀﾞ","pref":"石川県","city":"かほく市","address":"下山田"},
{"zip_code":"9291177","kana_pref":"ｲｼｶﾜｹﾝ","kana_city":"ｶﾎｸｼ","kana_address":"ｼﾛｵ","pref":"石川県","city":"かほく市","address":"白尾"},
{"zip_code":"9291208","kana_pref":"ｲｼｶﾜｹﾝ","kana_city":"ｶﾎｸｼ","kana_address":"ｾﾄﾏﾁ","pref":"石川県","city":"かほく市","address":"瀬戸町"},
{"zip_code":"9291176","kana_pref":"ｲｼｶﾜｹﾝ","kana_city":"ｶﾎｸｼ","kana_address":"ｿﾄﾋｽﾐ","pref":"石川県","city":"かほく市","address":"外日角"},
{"zip_code":"9291215","kana_pref":"ｲｼｶﾜｹﾝ","kana_city":"ｶﾎｸｼ","kana_address":"ﾀｶﾏﾂ","pref":"石川県","city":"かほく市","address":"高松"},
{"zip_code":"9291112","kana_pref":"ｲｼｶﾜｹﾝ","kana_city":"ｶﾎｸｼ","kana_address":"ﾀﾀﾞ","pref":"石川県","city":"かほく市","address":"多田"},
{"zip_code":"9291103","kana_pref":"ｲｼｶﾜｹﾝ","kana_city":"ｶﾎｸｼ","kana_address":"ﾀﾆ","pref":"石川県","city":"かほく市","address":"谷"},
{"zip_code":"9291173","kana_pref":"ｲｼｶﾜｹﾝ","kana_city":"ｶﾎｸｼ","kana_address":"ﾄｵﾂﾞｶ","pref":"石川県","city":"かほく市","address":"遠塚"},
{"zip_code":"9291212","kana_pref":"ｲｼｶﾜｹﾝ","kana_city":"ｶﾎｸｼ","kana_address":"ﾅｶﾇﾏ","pref":"石川県","city":"かほく市","address":"中沼"},
{"zip_code":"9291213","kana_pref":"ｲｼｶﾜｹﾝ","kana_city":"ｶﾎｸｼ","kana_address":"ﾅｶﾞﾗﾏﾁ","pref":"石川県","city":"かほく市","address":"長柄町"},
{"zip_code":"9291207","kana_pref":"ｲｼｶﾜｹﾝ","kana_city":"ｶﾎｸｼ","kana_address":"ﾅﾂｸﾞﾘ","pref":"石川県","city":"かほく市","address":"夏栗"},
{"zip_code":"9291122","kana_pref":"ｲｼｶﾜｹﾝ","kana_city":"ｶﾎｸｼ","kana_address":"ﾅﾅｸﾎﾞ","pref":"石川県","city":"かほく市","address":"七窪"},
{"zip_code":"9291201","kana_pref":"ｲｼｶﾜｹﾝ","kana_city":"ｶﾎｸｼ","kana_address":"ﾉﾃﾞﾗ","pref":"石川県","city":"かほく市","address":"野寺"},
{"zip_code":"9291202","kana_pref":"ｲｼｶﾜｹﾝ","kana_city":"ｶﾎｸｼ","kana_address":"ﾊﾁﾉ","pref":"石川県","city":"かほく市","address":"八野"},
{"zip_code":"9291117","kana_pref":"ｲｼｶﾜｹﾝ","kana_city":"ｶﾎｸｼ","kana_address":"ﾊﾁﾌﾞｾ","pref":"石川県","city":"かほく市","address":"鉢伏"},
{"zip_code":"9291174","kana_pref":"ｲｼｶﾜｹﾝ","kana_city":"ｶﾎｸｼ","kana_address":"ﾊﾏｷﾀ","pref":"石川県","city":"かほく市","address":"浜北"},
{"zip_code":"9291211","kana_pref":"ｲｼｶﾜｹﾝ","kana_city":"ｶﾎｸｼ","kana_address":"ﾌﾀﾂﾔ","pref":"石川県","city":"かほく市","address":"二ツ屋"},
{"zip_code":"9291172","kana_pref":"ｲｼｶﾜｹﾝ","kana_city":"ｶﾎｸｼ","kana_address":"ﾏﾂﾊﾏ","pref":"石川県","city":"かほく市","address":"松浜"},
{"zip_code":"9291204","kana_pref":"ｲｼｶﾜｹﾝ","kana_city":"ｶﾎｸｼ","kana_address":"ﾐｳﾁ","pref":"石川県","city":"かほく市","address":"箕打"},
{"zip_code":"9291123","kana_pref":"ｲｼｶﾜｹﾝ","kana_city":"ｶﾎｸｼ","kana_address":"ﾓﾘ","pref":"石川県","city":"かほく市","address":"森"},
{"zip_code":"9291105","kana_pref":"ｲｼｶﾜｹﾝ","kana_city":"ｶﾎｸｼ","kana_address":"ﾖｺﾔﾏ","pref":"石川県","city":"かほく市","address":"横山"},
{"zip_code":"9291101","kana_pref":"ｲｼｶﾜｹﾝ","kana_city":"ｶﾎｸｼ","kana_address":"ﾖﾁ","pref":"石川県","city":"かほく市","address":"余地"},
{"zip_code":"9291205","kana_pref":"ｲｼｶﾜｹﾝ","kana_city":"ｶﾎｸｼ","kana_address":"ﾜｶﾐﾄﾞﾘ","pref":"石川県","city":"かほく市","address":"若緑"},
{"zip_code":"9290211","kana_pref":"ｲｼｶﾜｹﾝ","kana_city":"ﾊｸｻﾝｼ","kana_address":"ｲｾｷﾏﾁ","pref":"石川県","city":"白山市","address":"井関町"},
{"zip_code":"9290206","kana_pref":"ｲｼｶﾜｹﾝ","kana_city":"ﾊｸｻﾝｼ","kana_address":"ｶｼﾏﾀﾞｲﾗ","pref":"石川県","city":"白山市","address":"鹿島平"},
{"zip_code":"9290201","kana_pref":"ｲｼｶﾜｹﾝ","kana_city":"ﾊｸｻﾝｼ","kana_address":"ｶｼﾏﾏﾁ","pref":"石川県","city":"白山市","address":"鹿島町"},
{"zip_code":"9290213","kana_pref":"ｲｼｶﾜｹﾝ","kana_city":"ﾊｸｻﾝｼ","kana_address":"ｽｴﾏｻﾏﾁ","pref":"石川県","city":"白山市","address":"末正町"},
{"zip_code":"9290214","kana_pref":"ｲｼｶﾜｹﾝ","kana_city":"ﾊｸｻﾝｼ","kana_address":"ﾁｮｳﾔﾏﾁ","pref":"石川県","city":"白山市","address":"長屋町"},
{"zip_code":"9290212","kana_pref":"ｲｼｶﾜｹﾝ","kana_city":"ﾊｸｻﾝｼ","kana_address":"ﾃﾄﾞﾘﾏﾁ","pref":"石川県","city":"白山市","address":"手取町"},
{"zip_code":"9290202","kana_pref":"ｲｼｶﾜｹﾝ","kana_city":"ﾊｸｻﾝｼ","kana_address":"ﾆｼﾖﾈﾐﾂﾏﾁ","pref":"石川県","city":"白山市","address":"西米光町"},
{"zip_code":"9290205","kana_pref":"ｲｼｶﾜｹﾝ","kana_city":"ﾊｸｻﾝｼ","kana_address":"ﾊｽｲｹﾏﾁ","pref":"石川県","city":"白山市","address":"蓮池町"},
{"zip_code":"9290204","kana_pref":"ｲｼｶﾜｹﾝ","kana_city":"ﾊｸｻﾝｼ","kana_address":"ﾋﾗｶﾏﾁ","pref":"石川県","city":"白山市","address":"平加町"},
{"zip_code":"9290221","kana_pref":"ｲｼｶﾜｹﾝ","kana_city":"ﾊｸｻﾝｼ","kana_address":"ﾐｶﾜｲﾏﾏﾁ","pref":"石川県","city":"白山市","address":"美川今町"},
{"zip_code":"9290235","kana_pref":"ｲｼｶﾜｹﾝ","kana_city":"ﾊｸｻﾝｼ","kana_address":"ﾐｶﾜｴｲﾀｲﾏﾁ","pref":"石川県","city":"白山市","address":"美川永代町"},
{"zip_code":"9290223","kana_pref":"ｲｼｶﾜｹﾝ","kana_city":"ﾊｸｻﾝｼ","kana_address":"ﾐｶﾜｷﾀﾏﾁ","pref":"石川県","city":"白山市","address":"美川北町"},
{"zip_code":"9290234","kana_pref":"ｲｼｶﾜｹﾝ","kana_city":"ﾊｸｻﾝｼ","kana_address":"ﾐｶﾜｼﾞﾝｺｳﾏﾁ","pref":"石川県","city":"白山市","address":"美川神幸町"},
{"zip_code":"9290222","kana_pref":"ｲｼｶﾜｹﾝ","kana_city":"ﾊｸｻﾝｼ","kana_address":"ﾐｶﾜｼﾝﾏﾁ","pref":"石川県","city":"白山市","address":"美川新町"},
{"zip_code":"9290232","kana_pref":"ｲｼｶﾜｹﾝ","kana_city":"ﾊｸｻﾝｼ","kana_address":"ﾐｶﾜｽｴﾋﾛﾏﾁ","pref":"石川県","city":"白山市","address":"美川末広町"},
{"zip_code":"9290224","kana_pref":"ｲｼｶﾜｹﾝ","kana_city":"ﾊｸｻﾝｼ","kana_address":"ﾐｶﾜﾅｶﾏﾁ","pref":"石川県","city":"白山市","address":"美川中町"},
{"zip_code":"9290233","kana_pref":"ｲｼｶﾜｹﾝ","kana_city":"ﾊｸｻﾝｼ","kana_address":"ﾐｶﾜﾊﾏﾏﾁ","pref":"石川県","city":"白山市","address":"美川浜町"},
{"zip_code":"9290215","kana_pref":"ｲｼｶﾜｹﾝ","kana_city":"ﾊｸｻﾝｼ","kana_address":"ﾐｶﾜﾐﾅﾐﾏﾁ","pref":"石川県","city":"白山市","address":"美川南町"},
{"zip_code":"9290216","kana_pref":"ｲｼｶﾜｹﾝ","kana_city":"ﾊｸｻﾝｼ","kana_address":"ﾐｶﾜﾓﾄﾖｼﾏﾁ","pref":"石川県","city":"白山市","address":"美川本吉町"},
{"zip_code":"9290231","kana_pref":"ｲｼｶﾜｹﾝ","kana_city":"ﾊｸｻﾝｼ","kana_address":"ﾐｶﾜﾜﾅﾐﾏﾁ","pref":"石川県","city":"白山市","address":"美川和波町"},
{"zip_code":"9290217","kana_pref":"ｲｼｶﾜｹﾝ","kana_city":"ﾊｸｻﾝｼ","kana_address":"ﾐﾅﾄﾏﾁ","pref":"石川県","city":"白山市","address":"湊町"},
{"zip_code":"9290203","kana_pref":"ｲｼｶﾜｹﾝ","kana_city":"ﾊｸｻﾝｼ","kana_address":"ﾜｶｸｻﾏﾁ","pref":"石川県","city":"白山市","address":"若草町"},
{"zip_code":"9290101","kana_pref":"ｲｼｶﾜｹﾝ","kana_city":"ﾉﾐｼ","kana_address":"ｱｶｲﾏﾁ","pref":"石川県","city":"能美市","address":"赤井町"},
{"zip_code":"9290122","kana_pref":"ｲｼｶﾜｹﾝ","kana_city":"ﾉﾐｼ","kana_address":"ｵｵﾊﾏﾏﾁ","pref":"石川県","city":"能美市","address":"大浜町"},
{"zip_code":"9290103","kana_pref":"ｲｼｶﾜｹﾝ","kana_city":"ﾉﾐｼ","kana_address":"ｺﾞｹﾝﾄﾞｳﾏﾁ","pref":"石川県","city":"能美市","address":"五間堂町"},
{"zip_code":"9290115","kana_pref":"ｲｼｶﾜｹﾝ","kana_city":"ﾉﾐｼ","kana_address":"ｼﾓﾉｺﾞｳﾏﾁ","pref":"石川県","city":"能美市","address":"下ノ江町"},
{"zip_code":"9290113","kana_pref":"ｲｼｶﾜｹﾝ","kana_city":"ﾉﾐｼ","kana_address":"ﾀｲｾｲﾏﾁ","pref":"石川県","city":"能美市","address":"大成町"},
{"zip_code":"9290116","kana_pref":"ｲｼｶﾜｹﾝ","kana_city":"ﾉﾐｼ","kana_address":"ﾀｶｻｶﾏﾁ","pref":"石川県","city":"能美市","address":"高坂町"},
{"zip_code":"9290125","kana_pref":"ｲｼｶﾜｹﾝ","kana_city":"ﾉﾐｼ","kana_address":"ﾄﾞｳﾘﾝﾏﾁ","pref":"石川県","city":"能美市","address":"道林町"},
{"zip_code":"9290105","kana_pref":"ｲｼｶﾜｹﾝ","kana_city":"ﾉﾐｼ","kana_address":"ﾅｶﾉｺﾞｳﾏﾁ","pref":"石川県","city":"能美市","address":"中ノ江町"},
{"zip_code":"9290104","kana_pref":"ｲｼｶﾜｹﾝ","kana_city":"ﾉﾐｼ","kana_address":"ﾅｶﾉｼｮｳﾏﾁ","pref":"石川県","city":"能美市","address":"中庄町"},
{"zip_code":"9290123","kana_pref":"ｲｼｶﾜｹﾝ","kana_city":"ﾉﾐｼ","kana_address":"ﾅｶﾏﾁ","pref":"石川県","city":"能美市","address":"中町"},
{"zip_code":"9290102","kana_pref":"ｲｼｶﾜｹﾝ","kana_city":"ﾉﾐｼ","kana_address":"ﾆｼﾄｳﾀﾞﾏﾁ","pref":"石川県","city":"能美市","address":"西任田町"},
{"zip_code":"9290106","kana_pref":"ｲｼｶﾜｹﾝ","kana_city":"ﾉﾐｼ","kana_address":"ﾆｼﾌﾀｸﾁﾏﾁ","pref":"石川県","city":"能美市","address":"西二口町"},
{"zip_code":"9290116","kana_pref":"ｲｼｶﾜｹﾝ","kana_city":"ﾉﾐｼ","kana_address":"ﾈｱｶﾞﾘﾏﾁ","pref":"石川県","city":"能美市","address":"根上町"},
{"zip_code":"9290108","kana_pref":"ｲｼｶﾜｹﾝ","kana_city":"ﾉﾐｼ","kana_address":"ﾉﾐ","pref":"石川県","city":"能美市","address":"能美"},
{"zip_code":"9290114","kana_pref":"ｲｼｶﾜｹﾝ","kana_city":"ﾉﾐｼ","kana_address":"ﾊﾏｶｲﾊﾂﾏﾁ","pref":"石川県","city":"能美市","address":"浜開発町"},
{"zip_code":"9290124","kana_pref":"ｲｼｶﾜｹﾝ","kana_city":"ﾉﾐｼ","kana_address":"ﾊﾏﾏﾁ","pref":"石川県","city":"能美市","address":"浜町"},
{"zip_code":"9290107","kana_pref":"ｲｼｶﾜｹﾝ","kana_city":"ﾉﾐｼ","kana_address":"ﾌｸｵｶﾏﾁ","pref":"石川県","city":"能美市","address":"福岡町"},
{"zip_code":"9290112","kana_pref":"ｲｼｶﾜｹﾝ","kana_city":"ﾉﾐｼ","kana_address":"ﾌｸｼﾏﾏﾁ","pref":"石川県","city":"能美市","address":"福島町"},
{"zip_code":"9290126","kana_pref":"ｲｼｶﾜｹﾝ","kana_city":"ﾉﾐｼ","kana_address":"ﾔﾏｸﾞﾁﾏﾁ","pref":"石川県","city":"能美市","address":"山口町"},
{"zip_code":"9290121","kana_pref":"ｲｼｶﾜｹﾝ","kana_city":"ﾉﾐｼ","kana_address":"ﾖｼﾊﾗｶﾞﾏﾔﾏﾁ","pref":"石川県","city":"能美市","address":"吉原釜屋町"},
{"zip_code":"9290111","kana_pref":"ｲｼｶﾜｹﾝ","kana_city":"ﾉﾐｼ","kana_address":"ﾖｼﾊﾗﾏﾁ","pref":"石川県","city":"能美市","address":"吉原町"},
{"zip_code":"9290300","kana_pref":"ｲｼｶﾜｹﾝ","kana_city":"ｶﾎｸｸﾞﾝﾂﾊﾞﾀﾏﾁ","kana_address":"","pref":"石川県","city":"河北郡津幡町","address":""},
{"zip_code":"9290437","kana_pref":"ｲｼｶﾜｹﾝ","kana_city":"ｶﾎｸｸﾞﾝﾂﾊﾞﾀﾏﾁ","kana_address":"ｱｲｸﾎﾞ","pref":"石川県","city":"河北郡津幡町","address":"相窪"},
{"zip_code":"9290324","kana_pref":"ｲｼｶﾜｹﾝ","kana_city":"ｶﾎｸｸﾞﾝﾂﾊﾞﾀﾏﾁ","kana_address":"ｱｻﾀﾞ","pref":"石川県","city":"河北郡津幡町","address":"浅田"},
{"zip_code":"9290436","kana_pref":"ｲｼｶﾜｹﾝ","kana_city":"ｶﾎｸｸﾞﾝﾂﾊﾞﾀﾏﾁ","kana_address":"ｱｻﾋﾊﾞﾀ","pref":"石川県","city":"河北郡津幡町","address":"朝日畑"},
{"zip_code":"9290447","kana_pref":"ｲｼｶﾜｹﾝ","kana_city":"ｶﾎｸｸﾞﾝﾂﾊﾞﾀﾏﾁ","kana_address":"ｱｻﾋﾔﾏ","pref":"石川県","city":"河北郡津幡町","address":"旭山"},
{"zip_code":"9290344","kana_pref":"ｲｼｶﾜｹﾝ","kana_city":"ｶﾎｸｸﾞﾝﾂﾊﾞﾀﾏﾁ","kana_address":"ｱｻﾝﾀﾆ","pref":"石川県","city":"河北郡津幡町","address":"浅谷"},
{"zip_code":"9290403","kana_pref":"ｲｼｶﾜｹﾝ","kana_city":"ｶﾎｸｸﾞﾝﾂﾊﾞﾀﾏﾁ","kana_address":"ｱｻﾞﾐﾀﾞﾆ","pref":"石川県","city":"河北郡津幡町","address":"莇谷"},
{"zip_code":"9290311","kana_pref":"ｲｼｶﾜｹﾝ","kana_city":"ｶﾎｸｸﾞﾝﾂﾊﾞﾀﾏﾁ","kana_address":"ｲｹｶﾞﾊﾗ","pref":"石川県","city":"河北郡津幡町","address":"池ケ原"},
{"zip_code":"9290462","kana_pref":"ｲｼｶﾜｹﾝ","kana_city":"ｶﾎｸｸﾞﾝﾂﾊﾞﾀﾏﾁ","kana_address":"ｲﾁﾉﾀﾆ","pref":"石川県","city":"河北郡津幡町","address":"市谷"},
{"zip_code":"9290335","kana_pref":"ｲｼｶﾜｹﾝ","kana_city":"ｶﾎｸｸﾞﾝﾂﾊﾞﾀﾏﾁ","kana_address":"ｲﾉｳｴﾉｼｮｳ","pref":"石川県","city":"河北郡津幡町","address":"井上の荘"},
{"zip_code":"9290445","kana_pref":"ｲｼｶﾜｹﾝ","kana_city":"ｶﾎｸｸﾞﾝﾂﾊﾞﾀﾏﾁ","kana_address":"ｲﾉｶﾜﾁ","pref":"石川県","city":"河北郡津幡町","address":"井野河内"},
{"zip_code":"9290453","kana_pref":"ｲｼｶﾜｹﾝ","kana_city":"ｶﾎｸｸﾞﾝﾂﾊﾞﾀﾏﾁ","kana_address":"ｲﾜｻｷ","pref":"石川県","city":"河北郡津幡町","address":"岩崎"},
{"zip_code":"9290303","kana_pref":"ｲｼｶﾜｹﾝ","kana_city":"ｶﾎｸｸﾞﾝﾂﾊﾞﾀﾏﾁ","kana_address":"ｳｼｸﾋﾞ","pref":"石川県","city":"河北郡津幡町","address":"牛首"},
{"zip_code":"9290301","kana_pref":"ｲｼｶﾜｹﾝ","kana_city":"ｶﾎｸｸﾞﾝﾂﾊﾞﾀﾏﾁ","kana_address":"ｳﾘｭｳ","pref":"石川県","city":"河北郡津幡町","address":"瓜生"},
{"zip_code":"9290405","kana_pref":"ｲｼｶﾜｹﾝ","kana_city":"ｶﾎｸｸﾞﾝﾂﾊﾞﾀﾏﾁ","kana_address":"ｳﾜﾉ","pref":"石川県","city":"河北郡津幡町","address":"上野"},
{"zip_code":"9290415","kana_pref":"ｲｼｶﾜｹﾝ","kana_city":"ｶﾎｸｸﾞﾝﾂﾊﾞﾀﾏﾁ","kana_address":"ｴｯﾁｭｳｻﾞｶ","pref":"石川県","city":"河北郡津幡町","address":"越中坂"},
{"zip_code":"9290431","kana_pref":"ｲｼｶﾜｹﾝ","kana_city":"ｶﾎｸｸﾞﾝﾂﾊﾞﾀﾏﾁ","kana_address":"ｵｵｸﾎﾞ","pref":"石川県","city":"河北郡津幡町","address":"大窪"},
{"zip_code":"9290345","kana_pref":"ｲｼｶﾜｹﾝ","kana_city":"ｶﾎｸｸﾞﾝﾂﾊﾞﾀﾏﾁ","kana_address":"ｵｵﾀ","pref":"石川県","city":"河北郡津幡町","address":"太田"},
{"zip_code":"9290442","kana_pref":"ｲｼｶﾜｹﾝ","kana_city":"ｶﾎｸｸﾞﾝﾂﾊﾞﾀﾏﾁ","kana_address":"ｵｵﾂﾎﾞ","pref":"石川県","city":"河北郡津幡町","address":"大坪"},
{"zip_code":"9290404","kana_pref":"ｲｼｶﾜｹﾝ","kana_city":"ｶﾎｸｸﾞﾝﾂﾊﾞﾀﾏﾁ","kana_address":"ｵｵﾊﾞﾀｹ","pref":"石川県","city":"河北郡津幡町","address":"大畠"},
{"zip_code":"9290467","kana_pref":"ｲｼｶﾜｹﾝ","kana_city":"ｶﾎｸｸﾞﾝﾂﾊﾞﾀﾏﾁ","kana_address":"ｵﾝﾏ","pref":"石川県","city":"河北郡津幡町","address":"大熊"},
{"zip_code":"9290325","kana_pref":"ｲｼｶﾜｹﾝ","kana_city":"ｶﾎｸｸﾞﾝﾂﾊﾞﾀﾏﾁ","kana_address":"ｶｶﾞﾂﾒ","pref":"石川県","city":"河北郡津幡町","address":"加賀爪"},
{"zip_code":"9290402","kana_pref":"ｲｼｶﾜｹﾝ","kana_city":"ｶﾎｸｸﾞﾝﾂﾊﾞﾀﾏﾁ","kana_address":"ｶｻｲｹｶﾞﾊﾗ","pref":"石川県","city":"河北郡津幡町","address":"笠池ケ原"},
{"zip_code":"9290346","kana_pref":"ｲｼｶﾜｹﾝ","kana_city":"ｶﾎｸｸﾞﾝﾂﾊﾞﾀﾏﾁ","kana_address":"ｶﾀﾊﾞﾀ","pref":"石川県","city":"河北郡津幡町","address":"潟端"},
{"zip_code":"9290309","kana_pref":"ｲｼｶﾜｹﾝ","kana_city":"ｶﾎｸｸﾞﾝﾂﾊﾞﾀﾏﾁ","kana_address":"ｶﾐｵｵﾀ","pref":"石川県","city":"河北郡津幡町","address":"上大田"},
{"zip_code":"9290304","kana_pref":"ｲｼｶﾜｹﾝ","kana_city":"ｶﾎｸｸﾞﾝﾂﾊﾞﾀﾏﾁ","kana_address":"ｶﾐｶﾜｲ","pref":"石川県","city":"河北郡津幡町","address":"上河合"},
{"zip_code":"9290422","kana_pref":"ｲｼｶﾜｹﾝ","kana_city":"ｶﾎｸｸﾞﾝﾂﾊﾞﾀﾏﾁ","kana_address":"ｶﾐﾌｼﾞﾏﾀ","pref":"石川県","city":"河北郡津幡町","address":"上藤又"},
{"zip_code":"9290314","kana_pref":"ｲｼｶﾜｹﾝ","kana_city":"ｶﾎｸｸﾞﾝﾂﾊﾞﾀﾏﾁ","kana_address":"ｶﾐﾔﾀ","pref":"石川県","city":"河北郡津幡町","address":"上矢田"},
{"zip_code":"9290321","kana_pref":"ｲｼｶﾜｹﾝ","kana_city":"ｶﾎｸｸﾞﾝﾂﾊﾞﾀﾏﾁ","kana_address":"ｶﾓ","pref":"石川県","city":"河北郡津幡町","address":"加茂"},
{"zip_code":"9290416","kana_pref":"ｲｼｶﾜｹﾝ","kana_city":"ｶﾎｸｸﾞﾝﾂﾊﾞﾀﾏﾁ","kana_address":"ｶﾘﾔｽ","pref":"石川県","city":"河北郡津幡町","address":"刈安"},
{"zip_code":"9290334","kana_pref":"ｲｼｶﾜｹﾝ","kana_city":"ｶﾎｸｸﾞﾝﾂﾊﾞﾀﾏﾁ","kana_address":"ｶﾜｼﾘ","pref":"石川県","city":"河北郡津幡町","address":"川尻"},
{"zip_code":"9290411","kana_pref":"ｲｼｶﾜｹﾝ","kana_city":"ｶﾎｸｸﾞﾝﾂﾊﾞﾀﾏﾁ","kana_address":"ｶﾜﾁ","pref":"石川県","city":"河北郡津幡町","address":"河内"},
{"zip_code":"9290342","kana_pref":"ｲｼｶﾜｹﾝ","kana_city":"ｶﾎｸｸﾞﾝﾂﾊﾞﾀﾏﾁ","kana_address":"ｷﾀﾁｭｳｼﾞｮｳ","pref":"石川県","city":"河北郡津幡町","address":"北中条"},
{"zip_code":"9290432","kana_pref":"ｲｼｶﾜｹﾝ","kana_city":"ｶﾎｸｸﾞﾝﾂﾊﾞﾀﾏﾁ","kana_address":"ｷﾀﾖｺﾈ","pref":"石川県","city":"河北郡津幡町","address":"北横根"},
{"zip_code":"9290302","kana_pref":"ｲｼｶﾜｹﾝ","kana_city":"ｶﾎｸｸﾞﾝﾂﾊﾞﾀﾏﾁ","kana_address":"ｷﾉｸﾎﾞ","pref":"石川県","city":"河北郡津幡町","address":"木ノ窪"},
{"zip_code":"9290306","kana_pref":"ｲｼｶﾜｹﾝ","kana_city":"ｶﾎｸｸﾞﾝﾂﾊﾞﾀﾏﾁ","kana_address":"ｷｮｳﾂﾞ","pref":"石川県","city":"河北郡津幡町","address":"興津"},
{"zip_code":"9290455","kana_pref":"ｲｼｶﾜｹﾝ","kana_city":"ｶﾎｸｸﾞﾝﾂﾊﾞﾀﾏﾁ","kana_address":"ｸﾗﾐ","pref":"石川県","city":"河北郡津幡町","address":"倉見"},
{"zip_code":"9290413","kana_pref":"ｲｼｶﾜｹﾝ","kana_city":"ｶﾎｸｸﾞﾝﾂﾊﾞﾀﾏﾁ","kana_address":"ｸﾘｶﾗ","pref":"石川県","city":"河北郡津幡町","address":"倶利伽羅"},
{"zip_code":"9290444","kana_pref":"ｲｼｶﾜｹﾝ","kana_city":"ｶﾎｸｸﾞﾝﾂﾊﾞﾀﾏﾁ","kana_address":"ｹｼｮｳ","pref":"石川県","city":"河北郡津幡町","address":"仮生"},
{"zip_code":"9290333","kana_pref":"ｲｼｶﾜｹﾝ","kana_city":"ｶﾎｸｸﾞﾝﾂﾊﾞﾀﾏﾁ","kana_address":"ｺﾞﾀﾝﾀﾞ","pref":"石川県","city":"河北郡津幡町","address":"五反田"},
{"zip_code":"9290328","kana_pref":"ｲｼｶﾜｹﾝ","kana_city":"ｶﾎｸｸﾞﾝﾂﾊﾞﾀﾏﾁ","kana_address":"ｺﾄｳ","pref":"石川県","city":"河北郡津幡町","address":"湖東"},
{"zip_code":"9290406","kana_pref":"ｲｼｶﾜｹﾝ","kana_city":"ｶﾎｸｸﾞﾝﾂﾊﾞﾀﾏﾁ","kana_address":"ｺﾓﾂｷ","pref":"石川県","city":"河北郡津幡町","address":"籠月"},
{"zip_code":"9290312","kana_pref":"ｲｼｶﾜｹﾝ","kana_city":"ｶﾎｸｸﾞﾝﾂﾊﾞﾀﾏﾁ","kana_address":"ｺﾝﾏ","pref":"石川県","city":"河北郡津幡町","address":"小熊"},
{"zip_code":"9290435","kana_pref":"ｲｼｶﾜｹﾝ","kana_city":"ｶﾎｸｸﾞﾝﾂﾊﾞﾀﾏﾁ","kana_address":"ｻﾞｲﾓｸ","pref":"石川県","city":"河北郡津幡町","address":"材木"},
{"zip_code":"9290417","kana_pref":"ｲｼｶﾜｹﾝ","kana_city":"ｶﾎｸｸﾞﾝﾂﾊﾞﾀﾏﾁ","kana_address":"ｻｶﾄﾞ","pref":"石川県","city":"河北郡津幡町","address":"坂戸"},
{"zip_code":"9290456","kana_pref":"ｲｼｶﾜｹﾝ","kana_city":"ｶﾎｸｸﾞﾝﾂﾊﾞﾀﾏﾁ","kana_address":"ｼﾁｸﾛ","pref":"石川県","city":"河北郡津幡町","address":"七黒"},
{"zip_code":"9290425","kana_pref":"ｲｼｶﾜｹﾝ","kana_city":"ｶﾎｸｸﾞﾝﾂﾊﾞﾀﾏﾁ","kana_address":"ｼﾁﾉ","pref":"石川県","city":"河北郡津幡町","address":"七野"},
{"zip_code":"9290326","kana_pref":"ｲｼｶﾜｹﾝ","kana_city":"ｶﾎｸｸﾞﾝﾂﾊﾞﾀﾏﾁ","kana_address":"ｼﾐｽﾞ","pref":"石川県","city":"河北郡津幡町","address":"清水"},
{"zip_code":"9290305","kana_pref":"ｲｼｶﾜｹﾝ","kana_city":"ｶﾎｸｸﾞﾝﾂﾊﾞﾀﾏﾁ","kana_address":"ｼﾓｶﾜｲ","pref":"石川県","city":"河北郡津幡町","address":"下河合"},
{"zip_code":"9290423","kana_pref":"ｲｼｶﾜｹﾝ","kana_city":"ｶﾎｸｸﾞﾝﾂﾊﾞﾀﾏﾁ","kana_address":"ｼﾓﾅｶ","pref":"石川県","city":"河北郡津幡町","address":"下中"},
{"zip_code":"9290424","kana_pref":"ｲｼｶﾜｹﾝ","kana_city":"ｶﾎｸｸﾞﾝﾂﾊﾞﾀﾏﾁ","kana_address":"ｼﾓﾌｼﾞﾏﾀ","pref":"石川県","city":"河北郡津幡町","address":"下藤又"},
{"zip_code":"9290315","kana_pref":"ｲｼｶﾜｹﾝ","kana_city":"ｶﾎｸｸﾞﾝﾂﾊﾞﾀﾏﾁ","kana_address":"ｼﾓﾔﾀ","pref":"石川県","city":"河北郡津幡町","address":"下矢田"},
{"zip_code":"9290327","kana_pref":"ｲｼｶﾜｹﾝ","kana_city":"ｶﾎｸｸﾞﾝﾂﾊﾞﾀﾏﾁ","kana_address":"ｼｮｳ","pref":"石川県","city":"河北郡津幡町","address":"庄"},
{"zip_code":"9290434","kana_pref":"ｲｼｶﾜｹﾝ","kana_city":"ｶﾎｸｸﾞﾝﾂﾊﾞﾀﾏﾁ","kana_address":"ｼﾞｮｳﾄｸ","pref":"石川県","city":"河北郡津幡町","address":"常徳"},
{"zip_code":"9290454","kana_pref":"ｲｼｶﾜｹﾝ","kana_city":"ｶﾎｸｸﾞﾝﾂﾊﾞﾀﾏﾁ","kana_address":"ｽｷﾞﾉｾ","pref":"石川県","city":"河北郡津幡町","address":"杉瀬"},
{"zip_code":"9290426","kana_pref":"ｲｼｶﾜｹﾝ","kana_city":"ｶﾎｸｸﾞﾝﾂﾊﾞﾀﾏﾁ","kana_address":"ﾀｹﾊｼ","pref":"石川県","city":"河北郡津幡町","address":"竹橋"},
{"zip_code":"9290307","kana_pref":"ｲｼｶﾜｹﾝ","kana_city":"ｶﾎｸｸﾞﾝﾂﾊﾞﾀﾏﾁ","kana_address":"ﾀﾈ","pref":"石川県","city":"河北郡津幡町","address":"種"},
{"zip_code":"9290452","kana_pref":"ｲｼｶﾜｹﾝ","kana_city":"ｶﾎｸｸﾞﾝﾂﾊﾞﾀﾏﾁ","kana_address":"ﾀﾔ","pref":"石川県","city":"河北郡津幡町","address":"田屋"},
{"zip_code":"9290412","kana_pref":"ｲｼｶﾜｹﾝ","kana_city":"ｶﾎｸｸﾞﾝﾂﾊﾞﾀﾏﾁ","kana_address":"ﾂﾂﾞﾗｵﾘ","pref":"石川県","city":"河北郡津幡町","address":"九折"},
{"zip_code":"9290323","kana_pref":"ｲｼｶﾜｹﾝ","kana_city":"ｶﾎｸｸﾞﾝﾂﾊﾞﾀﾏﾁ","kana_address":"ﾂﾊﾞﾀ","pref":"石川県","city":"河北郡津幡町","address":"津幡"},
{"zip_code":"9290427","kana_pref":"ｲｼｶﾜｹﾝ","kana_city":"ｶﾎｸｸﾞﾝﾂﾊﾞﾀﾏﾁ","kana_address":"ﾄﾐﾀ","pref":"石川県","city":"河北郡津幡町","address":"富田"},
{"zip_code":"9290465","kana_pref":"ｲｼｶﾜｹﾝ","kana_city":"ｶﾎｸｸﾞﾝﾂﾊﾞﾀﾏﾁ","kana_address":"ﾄﾘｺﾞｴ","pref":"石川県","city":"河北郡津幡町","address":"鳥越"},
{"zip_code":"9290407","kana_pref":"ｲｼｶﾜｹﾝ","kana_city":"ｶﾎｸｸﾞﾝﾂﾊﾞﾀﾏﾁ","kana_address":"ﾄﾘﾔｵ","pref":"石川県","city":"河北郡津幡町","address":"鳥屋尾"},
{"zip_code":"9290332","kana_pref":"ｲｼｶﾜｹﾝ","kana_city":"ｶﾎｸｸﾞﾝﾂﾊﾞﾀﾏﾁ","kana_address":"ﾅｶｽｶ","pref":"石川県","city":"河北郡津幡町","address":"中須加"},
{"zip_code":"9290331","kana_pref":"ｲｼｶﾜｹﾝ","kana_city":"ｶﾎｸｸﾞﾝﾂﾊﾞﾀﾏﾁ","kana_address":"ﾅｶﾊﾞｼ","pref":"石川県","city":"河北郡津幡町","address":"中橋"},
{"zip_code":"9290313","kana_pref":"ｲｼｶﾜｹﾝ","kana_city":"ｶﾎｸｸﾞﾝﾂﾊﾞﾀﾏﾁ","kana_address":"ﾅｶﾔﾏ","pref":"石川県","city":"河北郡津幡町","address":"中山"},
{"zip_code":"9290319","kana_pref":"ｲｼｶﾜｹﾝ","kana_city":"ｶﾎｸｸﾞﾝﾂﾊﾞﾀﾏﾁ","kana_address":"ﾉｾ","pref":"石川県","city":"河北郡津幡町","address":"能瀬"},
{"zip_code":"9290461","kana_pref":"ｲｼｶﾜｹﾝ","kana_city":"ｶﾎｸｸﾞﾝﾂﾊﾞﾀﾏﾁ","kana_address":"ﾊﾁﾉﾀﾆ","pref":"石川県","city":"河北郡津幡町","address":"八ノ谷"},
{"zip_code":"9290421","kana_pref":"ｲｼｶﾜｹﾝ","kana_city":"ｶﾎｸｸﾞﾝﾂﾊﾞﾀﾏﾁ","kana_address":"ﾊﾗ","pref":"石川県","city":"河北郡津幡町","address":"原"},
{"zip_code":"9290441","kana_pref":"ｲｼｶﾜｹﾝ","kana_city":"ｶﾎｸｸﾞﾝﾂﾊﾞﾀﾏﾁ","kana_address":"ﾋｶﾞｼｱﾗﾔ","pref":"石川県","city":"河北郡津幡町","address":"東荒屋"},
{"zip_code":"9290401","kana_pref":"ｲｼｶﾜｹﾝ","kana_city":"ｶﾎｸｸﾞﾝﾂﾊﾞﾀﾏﾁ","kana_address":"ﾋｺﾀﾛｳﾊﾞﾀｹ","pref":"石川県","city":"河北郡津幡町","address":"彦太郎畠"},
{"zip_code":"9290307","kana_pref":"ｲｼｶﾜｹﾝ","kana_city":"ｶﾎｸｸﾞﾝﾂﾊﾞﾀﾏﾁ","kana_address":"ﾋﾗﾉ","pref":"石川県","city":"河北郡津幡町","address":"平野"},
{"zip_code":"9290434","kana_pref":"ｲｼｶﾜｹﾝ","kana_city":"ｶﾎｸｸﾞﾝﾂﾊﾞﾀﾏﾁ","kana_address":"ﾌﾅｵ","pref":"石川県","city":"河北郡津幡町","address":"舟尾"},
{"zip_code":"9290328","kana_pref":"ｲｼｶﾜｹﾝ","kana_city":"ｶﾎｸｸﾞﾝﾂﾊﾞﾀﾏﾁ","kana_address":"ﾌﾅﾊﾞｼ","pref":"石川県","city":"河北郡津幡町","address":"舟橋"},
{"zip_code":"9290443","kana_pref":"ｲｼｶﾜｹﾝ","kana_city":"ｶﾎｸｸﾞﾝﾂﾊﾞﾀﾏﾁ","kana_address":"ﾍﾞｯｼｮ","pref":"石川県","city":"河北郡津幡町","address":"別所"},
{"zip_code":"9290308","kana_pref":"ｲｼｶﾜｹﾝ","kana_city":"ｶﾎｸｸﾞﾝﾂﾊﾞﾀﾏﾁ","kana_address":"ﾎﾞﾀﾞｲｼﾞ","pref":"石川県","city":"河北郡津幡町","address":"菩提寺"},
{"zip_code":"9290316","kana_pref":"ｲｼｶﾜｹﾝ","kana_city":"ｶﾎｸｸﾞﾝﾂﾊﾞﾀﾏﾁ","kana_address":"ﾐｶﾄﾞ","pref":"石川県","city":"河北郡津幡町","address":"御門"},
{"zip_code":"9290322","kana_pref":"ｲｼｶﾜｹﾝ","kana_city":"ｶﾎｸｸﾞﾝﾂﾊﾞﾀﾏﾁ","kana_address":"ﾐﾄﾞﾘｶﾞｵｶ","pref":"石川県","city":"河北郡津幡町","address":"緑が丘"},
{"zip_code":"9290343","kana_pref":"ｲｼｶﾜｹﾝ","kana_city":"ｶﾎｸｸﾞﾝﾂﾊﾞﾀﾏﾁ","kana_address":"ﾐﾅﾐﾁｭｳｼﾞｮｳ","pref":"石川県","city":"河北郡津幡町","address":"南中条"},
{"zip_code":"9290433","kana_pref":"ｲｼｶﾜｹﾝ","kana_city":"ｶﾎｸｸﾞﾝﾂﾊﾞﾀﾏﾁ","kana_address":"ﾐﾅﾐﾖｺﾈ","pref":"石川県","city":"河北郡津幡町","address":"南横根"},
{"zip_code":"9290451","kana_pref":"ｲｼｶﾜｹﾝ","kana_city":"ｶﾎｸｸﾞﾝﾂﾊﾞﾀﾏﾁ","kana_address":"ﾐﾔﾀﾞ","pref":"石川県","city":"河北郡津幡町","address":"宮田"},
{"zip_code":"9290446","kana_pref":"ｲｼｶﾜｹﾝ","kana_city":"ｶﾎｸｸﾞﾝﾂﾊﾞﾀﾏﾁ","kana_address":"ﾐｮｳｼﾞﾝ","pref":"石川県","city":"河北郡津幡町","address":"明神"},
{"zip_code":"9290317","kana_pref":"ｲｼｶﾜｹﾝ","kana_city":"ｶﾎｸｸﾞﾝﾂﾊﾞﾀﾏﾁ","kana_address":"ﾔﾁ","pref":"石川県","city":"河北郡津幡町","address":"谷内"},
{"zip_code":"9290414","kana_pref":"ｲｼｶﾜｹﾝ","kana_city":"ｶﾎｸｸﾞﾝﾂﾊﾞﾀﾏﾁ","kana_address":"ﾔﾏﾓﾘ","pref":"石川県","city":"河北郡津幡町","address":"山森"},
{"zip_code":"9290464","kana_pref":"ｲｼｶﾜｹﾝ","kana_city":"ｶﾎｸｸﾞﾝﾂﾊﾞﾀﾏﾁ","kana_address":"ﾔﾏｷﾀ","pref":"石川県","city":"河北郡津幡町","address":"山北"},
{"zip_code":"9290341","kana_pref":"ｲｼｶﾜｹﾝ","kana_city":"ｶﾎｸｸﾞﾝﾂﾊﾞﾀﾏﾁ","kana_address":"ﾖｺﾊﾏ","pref":"石川県","city":"河北郡津幡町","address":"横浜"},
{"zip_code":"9290466","kana_pref":"ｲｼｶﾜｹﾝ","kana_city":"ｶﾎｸｸﾞﾝﾂﾊﾞﾀﾏﾁ","kana_address":"ﾖｼｸﾗ","pref":"石川県","city":"河北郡津幡町","address":"吉倉"},
{"zip_code":"9290318","kana_pref":"ｲｼｶﾜｹﾝ","kana_city":"ｶﾎｸｸﾞﾝﾂﾊﾞﾀﾏﾁ","kana_address":"ﾘｮｳｹ","pref":"石川県","city":"河北郡津幡町","address":"領家"},
{"zip_code":"9290463","kana_pref":"ｲｼｶﾜｹﾝ","kana_city":"ｶﾎｸｸﾞﾝﾂﾊﾞﾀﾏﾁ","kana_address":"ﾚﾝｹﾞｼﾞ","pref":"石川県","city":"河北郡津幡町","address":"蓮花寺"},
{"zip_code":"9291300","kana_pref":"ｲｼｶﾜｹﾝ","kana_city":"ﾊｸｲｸﾞﾝﾎｳﾀﾞﾂｼﾐｽﾞﾁｮｳ","kana_address":"","pref":"石川県","city":"羽咋郡宝達志水町","address":""},
{"zip_code":"9291313","kana_pref":"ｲｼｶﾜｹﾝ","kana_city":"ﾊｸｲｸﾞﾝﾎｳﾀﾞﾂｼﾐｽﾞﾁｮｳ","kana_address":"ｱｽﾞﾏ","pref":"石川県","city":"羽咋郡宝達志水町","address":"東間"},
{"zip_code":"9291406","kana_pref":"ｲｼｶﾜｹﾝ","kana_city":"ﾊｸｲｸﾞﾝﾎｳﾀﾞﾂｼﾐｽﾞﾁｮｳ","kana_address":"ｲｼｻｶ","pref":"石川県","city":"羽咋郡宝達志水町","address":"石坂"},
{"zip_code":"9291344","kana_pref":"ｲｼｶﾜｹﾝ","kana_city":"ﾊｸｲｸﾞﾝﾎｳﾀﾞﾂｼﾐｽﾞﾁｮｳ","kana_address":"ｲﾏﾊﾏ","pref":"石川県","city":"羽咋郡宝達志水町","address":"今浜"},
{"zip_code":"9291345","kana_pref":"ｲｼｶﾜｹﾝ","kana_city":"ﾊｸｲｸﾞﾝﾎｳﾀﾞﾂｼﾐｽﾞﾁｮｳ","kana_address":"ｲﾏﾊﾏｼﾝ","pref":"石川県","city":"羽咋郡宝達志水町","address":"今浜新"},
{"zip_code":"9291312","kana_pref":"ｲｼｶﾜｹﾝ","kana_city":"ﾊｸｲｸﾞﾝﾎｳﾀﾞﾂｼﾐｽﾞﾁｮｳ","kana_address":"ｳﾜﾀﾞ","pref":"石川県","city":"羽咋郡宝達志水町","address":"上田"},
{"zip_code":"9291321","kana_pref":"ｲｼｶﾜｹﾝ","kana_city":"ﾊｸｲｸﾞﾝﾎｳﾀﾞﾂｼﾐｽﾞﾁｮｳ","kana_address":"ｳﾜﾀﾞﾃﾞ","pref":"石川県","city":"羽咋郡宝達志水町","address":"上田出"},
{"zip_code":"9291405","kana_pref":"ｲｼｶﾜｹﾝ","kana_city":"ﾊｸｲｸﾞﾝﾎｳﾀﾞﾂｼﾐｽﾞﾁｮｳ","kana_address":"ｴﾋﾞｻｶ","pref":"石川県","city":"羽咋郡宝達志水町","address":"海老坂"},
{"zip_code":"9291343","kana_pref":"ｲｼｶﾜｹﾝ","kana_city":"ﾊｸｲｸﾞﾝﾎｳﾀﾞﾂｼﾐｽﾞﾁｮｳ","kana_address":"ｵｶﾞﾜ","pref":"石川県","city":"羽咋郡宝達志水町","address":"小川"},
{"zip_code":"9291426","kana_pref":"ｲｼｶﾜｹﾝ","kana_city":"ﾊｸｲｸﾞﾝﾎｳﾀﾞﾂｼﾐｽﾞﾁｮｳ","kana_address":"ｵｷﾞﾁ","pref":"石川県","city":"羽咋郡宝達志水町","address":"荻市"},
{"zip_code":"9291412","kana_pref":"ｲｼｶﾜｹﾝ","kana_city":"ﾊｸｲｸﾞﾝﾎｳﾀﾞﾂｼﾐｽﾞﾁｮｳ","kana_address":"ｵｷﾞﾉｼﾏ","pref":"石川県","city":"羽咋郡宝達志水町","address":"荻島"},
{"zip_code":"9291413","kana_pref":"ｲｼｶﾜｹﾝ","kana_city":"ﾊｸｲｸﾞﾝﾎｳﾀﾞﾂｼﾐｽﾞﾁｮｳ","kana_address":"ｵｷﾞﾉﾔﾁ","pref":"石川県","city":"羽咋郡宝達志水町","address":"荻谷"},
{"zip_code":"9291323","kana_pref":"ｲｼｶﾜｹﾝ","kana_city":"ﾊｸｲｸﾞﾝﾎｳﾀﾞﾂｼﾐｽﾞﾁｮｳ","kana_address":"ｵﾀﾁ","pref":"石川県","city":"羽咋郡宝達志水町","address":"御舘"},
{"zip_code":"9291303","kana_pref":"ｲｼｶﾜｹﾝ","kana_city":"ﾊｸｲｸﾞﾝﾎｳﾀﾞﾂｼﾐｽﾞﾁｮｳ","kana_address":"ｶﾜﾗ","pref":"石川県","city":"羽咋郡宝達志水町","address":"河原"},
{"zip_code":"9291332","kana_pref":"ｲｼｶﾜｹﾝ","kana_city":"ﾊｸｲｸﾞﾝﾎｳﾀﾞﾂｼﾐｽﾞﾁｮｳ","kana_address":"ｷﾀｶﾜｼﾘ","pref":"石川県","city":"羽咋郡宝達志水町","address":"北川尻"},
{"zip_code":"9291331","kana_pref":"ｲｼｶﾜｹﾝ","kana_city":"ﾊｸｲｸﾞﾝﾎｳﾀﾞﾂｼﾐｽﾞﾁｮｳ","kana_address":"ｺﾒﾀﾞｼ","pref":"石川県","city":"羽咋郡宝達志水町","address":"米出"},
{"zip_code":"9291314","kana_pref":"ｲｼｶﾜｹﾝ","kana_city":"ﾊｸｲｸﾞﾝﾎｳﾀﾞﾂｼﾐｽﾞﾁｮｳ","kana_address":"ｺﾝﾔﾏﾁ","pref":"石川県","city":"羽咋郡宝達志水町","address":"紺屋町"},
{"zip_code":"9291406","kana_pref":"ｲｼｶﾜｹﾝ","kana_city":"ﾊｸｲｸﾞﾝﾎｳﾀﾞﾂｼﾐｽﾞﾁｮｳ","kana_address":"ｻｶﾞﾘｼ","pref":"石川県","city":"羽咋郡宝達志水町","address":"下石"},
{"zip_code":"9291406","kana_pref":"ｲｼｶﾜｹﾝ","kana_city":"ﾊｸｲｸﾞﾝﾎｳﾀﾞﾂｼﾐｽﾞﾁｮｳ","kana_address":"ｻﾝﾃﾞﾝ","pref":"石川県","city":"羽咋郡宝達志水町","address":"散田"},
{"zip_code":"9291425","kana_pref":"ｲｼｶﾜｹﾝ","kana_city":"ﾊｸｲｸﾞﾝﾎｳﾀﾞﾂｼﾐｽﾞﾁｮｳ","kana_address":"ｼｵ","pref":"石川県","city":"羽咋郡宝達志水町","address":"子浦"},
{"zip_code":"9291414","kana_pref":"ｲｼｶﾜｹﾝ","kana_city":"ﾊｸｲｸﾞﾝﾎｳﾀﾞﾂｼﾐｽﾞﾁｮｳ","kana_address":"ｼｷﾅﾐ","pref":"石川県","city":"羽咋郡宝達志水町","address":"敷波"},
{"zip_code":"9291415","kana_pref":"ｲｼｶﾜｹﾝ","kana_city":"ﾊｸｲｸﾞﾝﾎｳﾀﾞﾂｼﾐｽﾞﾁｮｳ","kana_address":"ｼｷﾅﾐ","pref":"石川県","city":"羽咋郡宝達志水町","address":"敷浪"},
{"zip_code":"9291402","kana_pref":"ｲｼｶﾜｹﾝ","kana_city":"ﾊｸｲｸﾞﾝﾎｳﾀﾞﾂｼﾐｽﾞﾁｮｳ","kana_address":"ｼﾐｽﾞﾊﾞﾗ","pref":"石川県","city":"羽咋郡宝達志水町","address":"清水原"},
{"zip_code":"9291341","kana_pref":"ｲｼｶﾜｹﾝ","kana_city":"ﾊｸｲｸﾞﾝﾎｳﾀﾞﾂｼﾐｽﾞﾁｮｳ","kana_address":"ｼｭｸ","pref":"石川県","city":"羽咋郡宝達志水町","address":"宿"},
{"zip_code":"9291403","kana_pref":"ｲｼｶﾜｹﾝ","kana_city":"ﾊｸｲｸﾞﾝﾎｳﾀﾞﾂｼﾐｽﾞﾁｮｳ","kana_address":"ｼｮｼﾊﾗ","pref":"石川県","city":"羽咋郡宝達志水町","address":"所司原"},
{"zip_code":"9291404","kana_pref":"ｲｼｶﾜｹﾝ","kana_city":"ﾊｸｲｸﾞﾝﾎｳﾀﾞﾂｼﾐｽﾞﾁｮｳ","kana_address":"ｼﾝｸﾞｳ","pref":"石川県","city":"羽咋郡宝達志水町","address":"新宮"},
{"zip_code":"9291423","kana_pref":"ｲｼｶﾜｹﾝ","kana_city":"ﾊｸｲｸﾞﾝﾎｳﾀﾞﾂｼﾐｽﾞﾁｮｳ","kana_address":"ｽｶﾞﾊﾗ","pref":"石川県","city":"羽咋郡宝達志水町","address":"菅原"},
{"zip_code":"9291422","kana_pref":"ｲｼｶﾜｹﾝ","kana_city":"ﾊｸｲｸﾞﾝﾎｳﾀﾞﾂｼﾐｽﾞﾁｮｳ","kana_address":"ｽｷﾞﾉﾔ","pref":"石川県","city":"羽咋郡宝達志水町","address":"杉野屋"},
{"zip_code":"9291305","kana_pref":"ｲｼｶﾜｹﾝ","kana_city":"ﾊｸｲｸﾞﾝﾎｳﾀﾞﾂｼﾐｽﾞﾁｮｳ","kana_address":"ﾀｺﾉ","pref":"石川県","city":"羽咋郡宝達志水町","address":"竹生野"},
{"zip_code":"9291325","kana_pref":"ｲｼｶﾜｹﾝ","kana_city":"ﾊｸｲｸﾞﾝﾎｳﾀﾞﾂｼﾐｽﾞﾁｮｳ","kana_address":"ﾂﾎﾞﾔﾏ","pref":"石川県","city":"羽咋郡宝達志水町","address":"坪山"},
{"zip_code":"9291416","kana_pref":"ｲｼｶﾜｹﾝ","kana_city":"ﾊｸｲｸﾞﾝﾎｳﾀﾞﾂｼﾐｽﾞﾁｮｳ","kana_address":"ﾃﾞﾊﾏ","pref":"石川県","city":"羽咋郡宝達志水町","address":"出浜"},
{"zip_code":"9291404","kana_pref":"ｲｼｶﾜｹﾝ","kana_city":"ﾊｸｲｸﾞﾝﾎｳﾀﾞﾂｼﾐｽﾞﾁｮｳ","kana_address":"ﾄｳﾉｸﾏ","pref":"石川県","city":"羽咋郡宝達志水町","address":"当熊"},
{"zip_code":"9291316","kana_pref":"ｲｼｶﾜｹﾝ","kana_city":"ﾊｸｲｸﾞﾝﾎｳﾀﾞﾂｼﾐｽﾞﾁｮｳ","kana_address":"ﾅｶﾉ","pref":"石川県","city":"羽咋郡宝達志水町","address":"中野"},
{"zip_code":"9291402","kana_pref":"ｲｼｶﾜｹﾝ","kana_city":"ﾊｸｲｸﾞﾝﾎｳﾀﾞﾂｼﾐｽﾞﾁｮｳ","kana_address":"ﾊｼﾘ","pref":"石川県","city":"羽咋郡宝達志水町","address":"走入"},
{"zip_code":"9291404","kana_pref":"ｲｼｶﾜｹﾝ","kana_city":"ﾊｸｲｸﾞﾝﾎｳﾀﾞﾂｼﾐｽﾞﾁｮｳ","kana_address":"ﾊﾗ","pref":"石川県","city":"羽咋郡宝達志水町","address":"原"},
{"zip_code":"9291405","kana_pref":"ｲｼｶﾜｹﾝ","kana_city":"ﾊｸｲｸﾞﾝﾎｳﾀﾞﾂｼﾐｽﾞﾁｮｳ","kana_address":"ﾊﾘﾔﾏ","pref":"石川県","city":"羽咋郡宝達志水町","address":"針山"},
{"zip_code":"9291315","kana_pref":"ｲｼｶﾜｹﾝ","kana_city":"ﾊｸｲｸﾞﾝﾎｳﾀﾞﾂｼﾐｽﾞﾁｮｳ","kana_address":"ﾋｶﾞｼﾉ","pref":"石川県","city":"羽咋郡宝達志水町","address":"東野"},
{"zip_code":"9291405","kana_pref":"ｲｼｶﾜｹﾝ","kana_city":"ﾊｸｲｸﾞﾝﾎｳﾀﾞﾂｼﾐｽﾞﾁｮｳ","kana_address":"ﾋｼﾞﾘｶﾜ","pref":"石川県","city":"羽咋郡宝達志水町","address":"聖川"},
{"zip_code":"9291405","kana_pref":"ｲｼｶﾜｹﾝ","kana_city":"ﾊｸｲｸﾞﾝﾎｳﾀﾞﾂｼﾐｽﾞﾁｮｳ","kana_address":"ﾋﾗﾄｺ","pref":"石川県","city":"羽咋郡宝達志水町","address":"平床"},
{"zip_code":"9291421","kana_pref":"ｲｼｶﾜｹﾝ","kana_city":"ﾊｸｲｸﾞﾝﾎｳﾀﾞﾂｼﾐｽﾞﾁｮｳ","kana_address":"ﾌﾀｸﾁ","pref":"石川県","city":"羽咋郡宝達志水町","address":"二口"},
{"zip_code":"9291326","kana_pref":"ｲｼｶﾜｹﾝ","kana_city":"ﾊｸｲｸﾞﾝﾎｳﾀﾞﾂｼﾐｽﾞﾁｮｳ","kana_address":"ﾌﾕﾉ","pref":"石川県","city":"羽咋郡宝達志水町","address":"冬野"},
{"zip_code":"9291301","kana_pref":"ｲｼｶﾜｹﾝ","kana_city":"ﾊｸｲｸﾞﾝﾎｳﾀﾞﾂｼﾐｽﾞﾁｮｳ","kana_address":"ﾎｳﾀﾞﾂ","pref":"石川県","city":"羽咋郡宝達志水町","address":"宝達"},
{"zip_code":"9291324","kana_pref":"ｲｼｶﾜｹﾝ","kana_city":"ﾊｸｲｸﾞﾝﾎｳﾀﾞﾂｼﾐｽﾞﾁｮｳ","kana_address":"ﾏｻﾄﾓ","pref":"石川県","city":"羽咋郡宝達志水町","address":"正友"},
{"zip_code":"9291402","kana_pref":"ｲｼｶﾜｹﾝ","kana_city":"ﾊｸｲｸﾞﾝﾎｳﾀﾞﾂｼﾐｽﾞﾁｮｳ","kana_address":"ﾐｻｺﾞ","pref":"石川県","city":"羽咋郡宝達志水町","address":"見砂"},
{"zip_code":"9291322","kana_pref":"ｲｼｶﾜｹﾝ","kana_city":"ﾊｸｲｸﾞﾝﾎｳﾀﾞﾂｼﾐｽﾞﾁｮｳ","kana_address":"ﾐｯｶﾏﾁ","pref":"石川県","city":"羽咋郡宝達志水町","address":"三日町"},
{"zip_code":"9291304","kana_pref":"ｲｼｶﾜｹﾝ","kana_city":"ﾊｸｲｸﾞﾝﾎｳﾀﾞﾂｼﾐｽﾞﾁｮｳ","kana_address":"ﾐﾅﾐﾖｼﾀ","pref":"石川県","city":"羽咋郡宝達志水町","address":"南吉田"},
{"zip_code":"9291342","kana_pref":"ｲｼｶﾜｹﾝ","kana_city":"ﾊｸｲｸﾞﾝﾎｳﾀﾞﾂｼﾐｽﾞﾁｮｳ","kana_address":"ﾑｷﾞｳ","pref":"石川県","city":"羽咋郡宝達志水町","address":"麦生"},
{"zip_code":"9291401","kana_pref":"ｲｼｶﾜｹﾝ","kana_city":"ﾊｸｲｸﾞﾝﾎｳﾀﾞﾂｼﾐｽﾞﾁｮｳ","kana_address":"ﾑｺｾ","pref":"石川県","city":"羽咋郡宝達志水町","address":"向瀬"},
{"zip_code":"9291333","kana_pref":"ｲｼｶﾜｹﾝ","kana_city":"ﾊｸｲｸﾞﾝﾎｳﾀﾞﾂｼﾐｽﾞﾁｮｳ","kana_address":"ﾒﾝﾃﾞﾝ","pref":"石川県","city":"羽咋郡宝達志水町","address":"免田"},
{"zip_code":"9291327","kana_pref":"ｲｼｶﾜｹﾝ","kana_city":"ﾊｸｲｸﾞﾝﾎｳﾀﾞﾂｼﾐｽﾞﾁｮｳ","kana_address":"ﾓﾘﾓﾄ","pref":"石川県","city":"羽咋郡宝達志水町","address":"森本"},
{"zip_code":"9291311","kana_pref":"ｲｼｶﾜｹﾝ","kana_city":"ﾊｸｲｸﾞﾝﾎｳﾀﾞﾂｼﾐｽﾞﾁｮｳ","kana_address":"ﾓﾝｾﾞﾝ","pref":"石川県","city":"羽咋郡宝達志水町","address":"門前"},
{"zip_code":"9291411","kana_pref":"ｲｼｶﾜｹﾝ","kana_city":"ﾊｸｲｸﾞﾝﾎｳﾀﾞﾂｼﾐｽﾞﾁｮｳ","kana_address":"ﾔﾅｾ","pref":"石川県","city":"羽咋郡宝達志水町","address":"柳瀬"},
{"zip_code":"9291302","kana_pref":"ｲｼｶﾜｹﾝ","kana_city":"ﾊｸｲｸﾞﾝﾎｳﾀﾞﾂｼﾐｽﾞﾁｮｳ","kana_address":"ﾔﾏｻﾞｷ","pref":"石川県","city":"羽咋郡宝達志水町","address":"山崎"},
{"zip_code":"9291424","kana_pref":"ｲｼｶﾜｹﾝ","kana_city":"ﾊｸｲｸﾞﾝﾎｳﾀﾞﾂｼﾐｽﾞﾁｮｳ","kana_address":"ﾖｼﾉﾔ","pref":"石川県","city":"羽咋郡宝達志水町","address":"吉野屋"},
{"zip_code":"9291700","kana_pref":"ｲｼｶﾜｹﾝ","kana_city":"ｶｼﾏｸﾞﾝﾅｶﾉﾄﾏﾁ","kana_address":"","pref":"石川県","city":"鹿島郡中能登町","address":""},
{"zip_code":"9291816","kana_pref":"ｲｼｶﾜｹﾝ","kana_city":"ｶｼﾏｸﾞﾝﾅｶﾉﾄﾏﾁ","kana_address":"ｱｻｲ","pref":"石川県","city":"鹿島郡中能登町","address":"浅井"},
{"zip_code":"9291813","kana_pref":"ｲｼｶﾜｹﾝ","kana_city":"ｶｼﾏｸﾞﾝﾅｶﾉﾄﾏﾁ","kana_address":"ｱﾘｶﾞﾊﾗ","pref":"石川県","city":"鹿島郡中能登町","address":"蟻ケ原"},
{"zip_code":"9291804","kana_pref":"ｲｼｶﾜｹﾝ","kana_city":"ｶｼﾏｸﾞﾝﾅｶﾉﾄﾏﾁ","kana_address":"ｱﾙｴ","pref":"石川県","city":"鹿島郡中能登町","address":"在江"},
{"zip_code":"9291721","kana_pref":"ｲｼｶﾜｹﾝ","kana_city":"ｶｼﾏｸﾞﾝﾅｶﾉﾄﾏﾁ","kana_address":"ｲﾀﾞ","pref":"石川県","city":"鹿島郡中能登町","address":"井田"},
{"zip_code":"9291713","kana_pref":"ｲｼｶﾜｹﾝ","kana_city":"ｶｼﾏｸﾞﾝﾅｶﾉﾄﾏﾁ","kana_address":"ｲﾏﾊｻﾞｶ","pref":"石川県","city":"鹿島郡中能登町","address":"今羽坂"},
{"zip_code":"9291702","kana_pref":"ｲｼｶﾜｹﾝ","kana_city":"ｶｼﾏｸﾞﾝﾅｶﾉﾄﾏﾁ","kana_address":"ｵｵﾂﾞｷ","pref":"石川県","city":"鹿島郡中能登町","address":"大槻"},
{"zip_code":"9291724","kana_pref":"ｲｼｶﾜｹﾝ","kana_city":"ｶｼﾏｸﾞﾝﾅｶﾉﾄﾏﾁ","kana_address":"ｵｻｷ","pref":"石川県","city":"鹿島郡中能登町","address":"尾崎"},
{"zip_code":"9291722","kana_pref":"ｲｼｶﾜｹﾝ","kana_city":"ｶｼﾏｸﾞﾝﾅｶﾉﾄﾏﾁ","kana_address":"ｵﾀﾞｹ","pref":"石川県","city":"鹿島郡中能登町","address":"小竹"},
{"zip_code":"9291521","kana_pref":"ｲｼｶﾜｹﾝ","kana_city":"ｶｼﾏｸﾞﾝﾅｶﾉﾄﾏﾁ","kana_address":"ｶﾈﾏﾙ","pref":"石川県","city":"鹿島郡中能登町","address":"金丸"},
{"zip_code":"9291606","kana_pref":"ｲｼｶﾜｹﾝ","kana_city":"ｶｼﾏｸﾞﾝﾅｶﾉﾄﾏﾁ","kana_address":"ｶﾐｳｼﾛﾔﾏ","pref":"石川県","city":"鹿島郡中能登町","address":"上後山"},
{"zip_code":"9291701","kana_pref":"ｲｼｶﾜｹﾝ","kana_city":"ｶｼﾏｸﾞﾝﾅｶﾉﾄﾏﾁ","kana_address":"ｶﾜﾀﾞ","pref":"石川県","city":"鹿島郡中能登町","address":"川田"},
{"zip_code":"9291631","kana_pref":"ｲｼｶﾜｹﾝ","kana_city":"ｶｼﾏｸﾞﾝﾅｶﾉﾄﾏﾁ","kana_address":"ｸｴ","pref":"石川県","city":"鹿島郡中能登町","address":"久江"},
{"zip_code":"9291801","kana_pref":"ｲｼｶﾜｹﾝ","kana_city":"ｶｼﾏｸﾞﾝﾅｶﾉﾄﾏﾁ","kana_address":"ｸﾉｷﾞ","pref":"石川県","city":"鹿島郡中能登町","address":"久乃木"},
{"zip_code":"9291716","kana_pref":"ｲｼｶﾜｹﾝ","kana_city":"ｶｼﾏｸﾞﾝﾅｶﾉﾄﾏﾁ","kana_address":"ｸﾛｼﾞ","pref":"石川県","city":"鹿島郡中能登町","address":"黒氏"},
{"zip_code":"9291636","kana_pref":"ｲｼｶﾜｹﾝ","kana_city":"ｶｼﾏｸﾞﾝﾅｶﾉﾄﾏﾁ","kana_address":"ｺｶﾞﾈﾓﾘ","pref":"石川県","city":"鹿島郡中能登町","address":"小金森"},
{"zip_code":"9291632","kana_pref":"ｲｼｶﾜｹﾝ","kana_city":"ｶｼﾏｸﾞﾝﾅｶﾉﾄﾏﾁ","kana_address":"ｺﾀﾞﾅｶ","pref":"石川県","city":"鹿島郡中能登町","address":"小田中"},
{"zip_code":"9291726","kana_pref":"ｲｼｶﾜｹﾝ","kana_city":"ｶｼﾏｸﾞﾝﾅｶﾉﾄﾏﾁ","kana_address":"ｻｲｽｺ","pref":"石川県","city":"鹿島郡中能登町","address":"最勝講"},
{"zip_code":"9291605","kana_pref":"ｲｼｶﾜｹﾝ","kana_city":"ｶｼﾏｸﾞﾝﾅｶﾉﾄﾏﾁ","kana_address":"ｼﾓｳｼﾛﾔﾏ","pref":"石川県","city":"鹿島郡中能登町","address":"下後山"},
{"zip_code":"9291712","kana_pref":"ｲｼｶﾜｹﾝ","kana_city":"ｶｼﾏｸﾞﾝﾅｶﾉﾄﾏﾁ","kana_address":"ｼﾝｼﾞｮｳ","pref":"石川県","city":"鹿島郡中能登町","address":"新庄"},
{"zip_code":"9291704","kana_pref":"ｲｼｶﾜｹﾝ","kana_city":"ｶｼﾏｸﾞﾝﾅｶﾉﾄﾏﾁ","kana_address":"ｽｴｻﾞｶ","pref":"石川県","city":"鹿島郡中能登町","address":"末坂"},
{"zip_code":"9291812","kana_pref":"ｲｼｶﾜｹﾝ","kana_city":"ｶｼﾏｸﾞﾝﾅｶﾉﾄﾏﾁ","kana_address":"ｾｷﾄﾞｳｻﾝ","pref":"石川県","city":"鹿島郡中能登町","address":"石動山"},
{"zip_code":"9291706","kana_pref":"ｲｼｶﾜｹﾝ","kana_city":"ｶｼﾏｸﾞﾝﾅｶﾉﾄﾏﾁ","kana_address":"ｾﾄ","pref":"石川県","city":"鹿島郡中能登町","address":"瀬戸"},
{"zip_code":"9291815","kana_pref":"ｲｼｶﾜｹﾝ","kana_city":"ｶｼﾏｸﾞﾝﾅｶﾉﾄﾏﾁ","kana_address":"ｾﾘｶﾜ","pref":"石川県","city":"鹿島郡中能登町","address":"芹川"},
{"zip_code":"9291637","kana_pref":"ｲｼｶﾜｹﾝ","kana_city":"ｶｼﾏｸﾞﾝﾅｶﾉﾄﾏﾁ","kana_address":"ｿﾈ","pref":"石川県","city":"鹿島郡中能登町","address":"曽祢"},
{"zip_code":"9291635","kana_pref":"ｲｼｶﾜｹﾝ","kana_city":"ｶｼﾏｸﾞﾝﾅｶﾉﾄﾏﾁ","kana_address":"ﾀｶﾊﾞﾀｹ","pref":"石川県","city":"鹿島郡中能登町","address":"高畠"},
{"zip_code":"9291802","kana_pref":"ｲｼｶﾜｹﾝ","kana_city":"ｶｼﾏｸﾞﾝﾅｶﾉﾄﾏﾁ","kana_address":"ﾀｹﾍﾞ","pref":"石川県","city":"鹿島郡中能登町","address":"武部"},
{"zip_code":"9291805","kana_pref":"ｲｼｶﾜｹﾝ","kana_city":"ｶｼﾏｸﾞﾝﾅｶﾉﾄﾏﾁ","kana_address":"ﾂﾎﾞｶﾜ","pref":"石川県","city":"鹿島郡中能登町","address":"坪川"},
{"zip_code":"9291817","kana_pref":"ｲｼｶﾜｹﾝ","kana_city":"ｶｼﾏｸﾞﾝﾅｶﾉﾄﾏﾁ","kana_address":"ﾄｸｾﾞﾝ","pref":"石川県","city":"鹿島郡中能登町","address":"徳前"},
{"zip_code":"9291603","kana_pref":"ｲｼｶﾜｹﾝ","kana_city":"ｶｼﾏｸﾞﾝﾅｶﾉﾄﾏﾁ","kana_address":"ﾄｸﾏﾙ","pref":"石川県","city":"鹿島郡中能登町","address":"徳丸"},
{"zip_code":"9291803","kana_pref":"ｲｼｶﾜｹﾝ","kana_city":"ｶｼﾏｸﾞﾝﾅｶﾉﾄﾏﾁ","kana_address":"ﾆｼ","pref":"石川県","city":"鹿島郡中能登町","address":"西"},
{"zip_code":"9291601","kana_pref":"ｲｼｶﾜｹﾝ","kana_city":"ｶｼﾏｸﾞﾝﾅｶﾉﾄﾏﾁ","kana_address":"ﾆｼﾊﾞﾊﾞ","pref":"石川県","city":"鹿島郡中能登町","address":"西馬場"},
{"zip_code":"9291811","kana_pref":"ｲｼｶﾜｹﾝ","kana_city":"ｶｼﾏｸﾞﾝﾅｶﾉﾄﾏﾁ","kana_address":"ﾆﾉﾐﾔ","pref":"石川県","city":"鹿島郡中能登町","address":"二宮"},
{"zip_code":"9291818","kana_pref":"ｲｼｶﾜｹﾝ","kana_city":"ｶｼﾏｸﾞﾝﾅｶﾉﾄﾏﾁ","kana_address":"ﾆﾉﾐﾔｱｵﾊﾞﾀﾞｲ","pref":"石川県","city":"鹿島郡中能登町","address":"二宮あおば台"},
{"zip_code":"9291602","kana_pref":"ｲｼｶﾜｹﾝ","kana_city":"ｶｼﾏｸﾞﾝﾅｶﾉﾄﾏﾁ","kana_address":"ﾉﾄﾍﾞｶﾐ","pref":"石川県","city":"鹿島郡中能登町","address":"能登部上"},
{"zip_code":"9291604","kana_pref":"ｲｼｶﾜｹﾝ","kana_city":"ｶｼﾏｸﾞﾝﾅｶﾉﾄﾏﾁ","kana_address":"ﾉﾄﾍﾞｼﾓ","pref":"石川県","city":"鹿島郡中能登町","address":"能登部下"},
{"zip_code":"9291714","kana_pref":"ｲｼｶﾜｹﾝ","kana_city":"ｶｼﾏｸﾞﾝﾅｶﾉﾄﾏﾁ","kana_address":"ﾊｻﾞｶ","pref":"石川県","city":"鹿島郡中能登町","address":"羽坂"},
{"zip_code":"9291705","kana_pref":"ｲｼｶﾜｹﾝ","kana_city":"ｶｼﾏｸﾞﾝﾅｶﾉﾄﾏﾁ","kana_address":"ﾊﾅﾐﾂｷ","pref":"石川県","city":"鹿島郡中能登町","address":"花見月"},
{"zip_code":"9291814","kana_pref":"ｲｼｶﾜｹﾝ","kana_city":"ｶｼﾏｸﾞﾝﾅｶﾉﾄﾏﾁ","kana_address":"ﾊﾗﾔﾏ","pref":"石川県","city":"鹿島郡中能登町","address":"原山"},
{"zip_code":"9291703","kana_pref":"ｲｼｶﾜｹﾝ","kana_city":"ｶｼﾏｸﾞﾝﾅｶﾉﾄﾏﾁ","kana_address":"ﾊﾙｷ","pref":"石川県","city":"鹿島郡中能登町","address":"春木"},
{"zip_code":"9291725","kana_pref":"ｲｼｶﾜｹﾝ","kana_city":"ｶｼﾏｸﾞﾝﾅｶﾉﾄﾏﾁ","kana_address":"ﾋｶﾞｼﾊﾞﾊﾞ","pref":"石川県","city":"鹿島郡中能登町","address":"東馬場"},
{"zip_code":"9291711","kana_pref":"ｲｼｶﾜｹﾝ","kana_city":"ｶｼﾏｸﾞﾝﾅｶﾉﾄﾏﾁ","kana_address":"ﾋｽﾞﾒ","pref":"石川県","city":"鹿島郡中能登町","address":"廿九日"},
{"zip_code":"9291715","kana_pref":"ｲｼｶﾜｹﾝ","kana_city":"ｶｼﾏｸﾞﾝﾅｶﾉﾄﾏﾁ","kana_address":"ﾋﾄﾄ","pref":"石川県","city":"鹿島郡中能登町","address":"一青"},
{"zip_code":"9291634","kana_pref":"ｲｼｶﾜｹﾝ","kana_city":"ｶｼﾏｸﾞﾝﾅｶﾉﾄﾏﾁ","kana_address":"ﾌｸﾀﾞ","pref":"石川県","city":"鹿島郡中能登町","address":"福田"},
{"zip_code":"9291633","kana_pref":"ｲｼｶﾜｹﾝ","kana_city":"ｶｼﾏｸﾞﾝﾅｶﾉﾄﾏﾁ","kana_address":"ﾌｼﾞｲ","pref":"石川県","city":"鹿島郡中能登町","address":"藤井"},
{"zip_code":"9291723","kana_pref":"ｲｼｶﾜｹﾝ","kana_city":"ｶｼﾏｸﾞﾝﾅｶﾉﾄﾏﾁ","kana_address":"ﾐｼﾞﾛ","pref":"石川県","city":"鹿島郡中能登町","address":"水白"},
{"zip_code":"9291717","kana_pref":"ｲｼｶﾜｹﾝ","kana_city":"ｶｼﾏｸﾞﾝﾅｶﾉﾄﾏﾁ","kana_address":"ﾖｼｶﾜ","pref":"石川県","city":"鹿島郡中能登町","address":"良川"}]}