{"zip_code":[
{"zip_code":"9318314","kana_pref":"ﾄﾔﾏｹﾝ","kana_city":"ﾄﾔﾏｼ","kana_address":"ｱﾜｼﾞﾏﾏﾁ","pref":"富山県","city":"富山市","address":"粟島町"},
{"zip_code":"9318321","kana_pref":"ﾄﾔﾏｹﾝ","kana_city":"ﾄﾔﾏｼ","kana_address":"ｲﾇｼﾞﾏ","pref":"富山県","city":"富山市","address":"犬島"},
{"zip_code":"9318328","kana_pref":"ﾄﾔﾏｹﾝ","kana_city":"ﾄﾔﾏｼ","kana_address":"ｲﾇｼﾞﾏｼﾝﾏﾁ","pref":"富山県","city":"富山市","address":"犬島新町"},
{"zip_code":"9318374","kana_pref":"ﾄﾔﾏｹﾝ","kana_city":"ﾄﾔﾏｼ","kana_address":"ｲﾜｾｱｶﾀﾞﾏﾁ","pref":"富山県","city":"富山市","address":"岩瀬赤田町"},
{"zip_code":"9318372","kana_pref":"ﾄﾔﾏｹﾝ","kana_city":"ﾄﾔﾏｼ","kana_address":"ｲﾜｾｱﾏｲｹﾁｮｳ","pref":"富山県","city":"富山市","address":"岩瀬天池町"},
{"zip_code":"9318346","kana_pref":"ﾄﾔﾏｹﾝ","kana_city":"ﾄﾔﾏｼ","kana_address":"ｲﾜｾｱﾗｷﾏﾁ","pref":"富山県","city":"富山市","address":"岩瀬荒木町"},
{"zip_code":"9318376","kana_pref":"ﾄﾔﾏｹﾝ","kana_city":"ﾄﾔﾏｼ","kana_address":"ｲﾜｾｲｹﾀﾞﾏﾁ","pref":"富山県","city":"富山市","address":"岩瀬池田町"},
{"zip_code":"9318365","kana_pref":"ﾄﾔﾏｹﾝ","kana_city":"ﾄﾔﾏｼ","kana_address":"ｲﾜｾｲﾘﾌﾈﾁｮｳ","pref":"富山県","city":"富山市","address":"岩瀬入船町"},
{"zip_code":"9318362","kana_pref":"ﾄﾔﾏｹﾝ","kana_city":"ﾄﾔﾏｼ","kana_address":"ｲﾜｾｳﾒﾓﾄﾁｮｳ","pref":"富山県","city":"富山市","address":"岩瀬梅本町"},
{"zip_code":"9318356","kana_pref":"ﾄﾔﾏｹﾝ","kana_city":"ﾄﾔﾏｼ","kana_address":"ｲﾜｾｵｵﾏﾁ","pref":"富山県","city":"富山市","address":"岩瀬大町"},
{"zip_code":"9318341","kana_pref":"ﾄﾔﾏｹﾝ","kana_city":"ﾄﾔﾏｼ","kana_address":"ｲﾜｾｵｸﾗﾏﾁ","pref":"富山県","city":"富山市","address":"岩瀬御蔵町"},
{"zip_code":"9318352","kana_pref":"ﾄﾔﾏｹﾝ","kana_city":"ﾄﾔﾏｼ","kana_address":"ｲﾜｾｵﾓﾃﾏﾁ","pref":"富山県","city":"富山市","address":"岩瀬表町"},
{"zip_code":"9318354","kana_pref":"ﾄﾔﾏｹﾝ","kana_city":"ﾄﾔﾏｼ","kana_address":"ｲﾜｾｷﾞｵﾝﾏﾁ","pref":"富山県","city":"富山市","address":"岩瀬祇園町"},
{"zip_code":"9318371","kana_pref":"ﾄﾔﾏｹﾝ","kana_city":"ﾄﾔﾏｼ","kana_address":"ｲﾜｾｺｼﾏﾁ","pref":"富山県","city":"富山市","address":"岩瀬古志町"},
{"zip_code":"9318343","kana_pref":"ﾄﾔﾏｹﾝ","kana_city":"ﾄﾔﾏｼ","kana_address":"ｲﾜｾｻｲﾜｲﾁｮｳ","pref":"富山県","city":"富山市","address":"岩瀬幸町"},
{"zip_code":"9318351","kana_pref":"ﾄﾔﾏｹﾝ","kana_city":"ﾄﾔﾏｼ","kana_address":"ｲﾜｾｻｶｲﾏﾁ","pref":"富山県","city":"富山市","address":"岩瀬堺町"},
{"zip_code":"9318344","kana_pref":"ﾄﾔﾏｹﾝ","kana_city":"ﾄﾔﾏｼ","kana_address":"ｲﾜｾｼﾝﾏﾁ","pref":"富山県","city":"富山市","address":"岩瀬新町"},
{"zip_code":"9318342","kana_pref":"ﾄﾔﾏｹﾝ","kana_city":"ﾄﾔﾏｼ","kana_address":"ｲﾜｾｼﾝﾒｲﾁｮｳ","pref":"富山県","city":"富山市","address":"岩瀬神明町"},
{"zip_code":"9318377","kana_pref":"ﾄﾔﾏｹﾝ","kana_city":"ﾄﾔﾏｼ","kana_address":"ｲﾜｾｽﾜﾏﾁ","pref":"富山県","city":"富山市","address":"岩瀬諏訪町"},
{"zip_code":"9318375","kana_pref":"ﾄﾔﾏｹﾝ","kana_city":"ﾄﾔﾏｼ","kana_address":"ｲﾜｾﾀｶﾊﾞﾀｹﾏﾁ","pref":"富山県","city":"富山市","address":"岩瀬高畠町"},
{"zip_code":"9318378","kana_pref":"ﾄﾔﾏｹﾝ","kana_city":"ﾄﾔﾏｼ","kana_address":"ｲﾜｾﾃﾝｼﾞﾝﾏﾁ","pref":"富山県","city":"富山市","address":"岩瀬天神町"},
{"zip_code":"9318347","kana_pref":"ﾄﾔﾏｹﾝ","kana_city":"ﾄﾔﾏｼ","kana_address":"ｲﾜｾﾄﾞﾊﾞﾏﾁ","pref":"富山県","city":"富山市","address":"岩瀬土場町"},
{"zip_code":"9318363","kana_pref":"ﾄﾔﾏｹﾝ","kana_city":"ﾄﾔﾏｼ","kana_address":"ｲﾜｾﾅｶﾁｮｳ","pref":"富山県","city":"富山市","address":"岩瀬仲町"},
{"zip_code":"9318355","kana_pref":"ﾄﾔﾏｹﾝ","kana_city":"ﾄﾔﾏｼ","kana_address":"ｲﾜｾﾆｲｶﾜﾁｮｳ","pref":"富山県","city":"富山市","address":"岩瀬新川町"},
{"zip_code":"9318366","kana_pref":"ﾄﾔﾏｹﾝ","kana_city":"ﾄﾔﾏｼ","kana_address":"ｲﾜｾﾊｷﾞｳﾗﾏﾁ","pref":"富山県","city":"富山市","address":"岩瀬萩浦町"},
{"zip_code":"9318361","kana_pref":"ﾄﾔﾏｹﾝ","kana_city":"ﾄﾔﾏｼ","kana_address":"ｲﾜｾﾊｸｻﾝﾏﾁ","pref":"富山県","city":"富山市","address":"岩瀬白山町"},
{"zip_code":"9318357","kana_pref":"ﾄﾔﾏｹﾝ","kana_city":"ﾄﾔﾏｼ","kana_address":"ｲﾜｾﾌｸﾗｲﾏﾁ","pref":"富山県","city":"富山市","address":"岩瀬福来町"},
{"zip_code":"9318353","kana_pref":"ﾄﾔﾏｹﾝ","kana_city":"ﾄﾔﾏｼ","kana_address":"ｲﾜｾﾌﾞﾝｶﾏﾁ","pref":"富山県","city":"富山市","address":"岩瀬文化町"},
{"zip_code":"9318373","kana_pref":"ﾄﾔﾏｹﾝ","kana_city":"ﾄﾔﾏｼ","kana_address":"ｲﾜｾﾏｴﾀﾞﾏﾁ","pref":"富山県","city":"富山市","address":"岩瀬前田町"},
{"zip_code":"9318367","kana_pref":"ﾄﾔﾏｹﾝ","kana_city":"ﾄﾔﾏｼ","kana_address":"ｲﾜｾﾏﾂﾊﾞﾗﾁｮｳ","pref":"富山県","city":"富山市","address":"岩瀬松原町"},
{"zip_code":"9318364","kana_pref":"ﾄﾔﾏｹﾝ","kana_city":"ﾄﾔﾏｼ","kana_address":"ｲﾜｾﾐﾅﾄﾏﾁ","pref":"富山県","city":"富山市","address":"岩瀬港町"},
{"zip_code":"9318327","kana_pref":"ﾄﾔﾏｹﾝ","kana_city":"ﾄﾔﾏｼ","kana_address":"ｳﾜﾉｼﾝ","pref":"富山県","city":"富山市","address":"上野新"},
{"zip_code":"9318326","kana_pref":"ﾄﾔﾏｹﾝ","kana_city":"ﾄﾔﾏｼ","kana_address":"ｳﾜﾉｼﾝﾏﾁ","pref":"富山県","city":"富山市","address":"上野新町"},
{"zip_code":"9318405","kana_pref":"ﾄﾔﾏｹﾝ","kana_city":"ﾄﾔﾏｼ","kana_address":"ｶｲｶﾞﾝﾄﾞｵﾘ","pref":"富山県","city":"富山市","address":"海岸通"},
{"zip_code":"9318407","kana_pref":"ﾄﾔﾏｹﾝ","kana_city":"ﾄﾔﾏｼ","kana_address":"ｶｲｶﾞﾝﾄﾞｵﾘｼﾝﾏﾁ","pref":"富山県","city":"富山市","address":"海岸通新町"},
{"zip_code":"9318404","kana_pref":"ﾄﾔﾏｹﾝ","kana_city":"ﾄﾔﾏｼ","kana_address":"ｶｺﾏﾁ","pref":"富山県","city":"富山市","address":"加古町"},
{"zip_code":"9318451","kana_pref":"ﾄﾔﾏｹﾝ","kana_city":"ﾄﾔﾏｼ","kana_address":"ｷﾞﾝﾚｲﾁｮｳ","pref":"富山県","city":"富山市","address":"銀嶺町"},
{"zip_code":"9318442","kana_pref":"ﾄﾔﾏｹﾝ","kana_city":"ﾄﾔﾏｼ","kana_address":"ｸｽﾉｷ","pref":"富山県","city":"富山市","address":"楠木"},
{"zip_code":"9318411","kana_pref":"ﾄﾔﾏｹﾝ","kana_city":"ﾄﾔﾏｼ","kana_address":"ｺｳﾗｲ","pref":"富山県","city":"富山市","address":"高来"},
{"zip_code":"9318417","kana_pref":"ﾄﾔﾏｹﾝ","kana_city":"ﾄﾔﾏｼ","kana_address":"ｺｼﾏﾁ","pref":"富山県","city":"富山市","address":"古志町"},
{"zip_code":"9318435","kana_pref":"ﾄﾔﾏｹﾝ","kana_city":"ﾄﾔﾏｼ","kana_address":"ｺﾆｼ","pref":"富山県","city":"富山市","address":"小西"},
{"zip_code":"9318443","kana_pref":"ﾄﾔﾏｹﾝ","kana_city":"ﾄﾔﾏｼ","kana_address":"ｼﾓｲｲﾉ","pref":"富山県","city":"富山市","address":"下飯野"},
{"zip_code":"9318325","kana_pref":"ﾄﾔﾏｹﾝ","kana_city":"ﾄﾔﾏｼ","kana_address":"ｼﾞｮｳｶﾞﾜﾗ","pref":"富山県","city":"富山市","address":"城川原"},
{"zip_code":"9318454","kana_pref":"ﾄﾔﾏｹﾝ","kana_city":"ﾄﾔﾏｼ","kana_address":"ｽﾐﾄﾓﾁｮｳ","pref":"富山県","city":"富山市","address":"住友町"},
{"zip_code":"9318409","kana_pref":"ﾄﾔﾏｹﾝ","kana_city":"ﾄﾔﾏｼ","kana_address":"ｾｲﾌｳﾁｮｳ","pref":"富山県","city":"富山市","address":"清風町"},
{"zip_code":"9318441","kana_pref":"ﾄﾔﾏｹﾝ","kana_city":"ﾄﾔﾏｼ","kana_address":"ﾀｶｼﾏ","pref":"富山県","city":"富山市","address":"高島"},
{"zip_code":"9318315","kana_pref":"ﾄﾔﾏｹﾝ","kana_city":"ﾄﾔﾏｼ","kana_address":"ﾀｶｿﾞﾉﾁｮｳ","pref":"富山県","city":"富山市","address":"高園町"},
{"zip_code":"9318336","kana_pref":"ﾄﾔﾏｹﾝ","kana_city":"ﾄﾔﾏｼ","kana_address":"ﾀｶﾊﾞﾀｹﾏﾁ","pref":"富山県","city":"富山市","address":"高畠町"},
{"zip_code":"9318403","kana_pref":"ﾄﾔﾏｹﾝ","kana_city":"ﾄﾔﾏｼ","kana_address":"ﾀﾊﾞﾀ","pref":"富山県","city":"富山市","address":"田畑"},
{"zip_code":"9318401","kana_pref":"ﾄﾔﾏｹﾝ","kana_city":"ﾄﾔﾏｼ","kana_address":"ﾀﾊﾞﾀｼﾝﾏﾁ","pref":"富山県","city":"富山市","address":"田畑新町"},
{"zip_code":"9318402","kana_pref":"ﾄﾔﾏｹﾝ","kana_city":"ﾄﾔﾏｼ","kana_address":"ﾀﾊﾞﾀﾎｸﾌﾞ","pref":"富山県","city":"富山市","address":"田畑北部"},
{"zip_code":"9318334","kana_pref":"ﾄﾔﾏｹﾝ","kana_city":"ﾄﾔﾏｼ","kana_address":"ﾁﾊﾗｻﾞｷ","pref":"富山県","city":"富山市","address":"千原崎"},
{"zip_code":"9318445","kana_pref":"ﾄﾔﾏｹﾝ","kana_city":"ﾄﾔﾏｼ","kana_address":"ﾄﾞｳｼｮｳ","pref":"富山県","city":"富山市","address":"道正"},
{"zip_code":"9318316","kana_pref":"ﾄﾔﾏｹﾝ","kana_city":"ﾄﾔﾏｼ","kana_address":"ﾄﾖｵｶﾁｮｳ","pref":"富山県","city":"富山市","address":"豊丘町"},
{"zip_code":"9318322","kana_pref":"ﾄﾔﾏｹﾝ","kana_city":"ﾄﾔﾏｼ","kana_address":"ﾄﾖｼﾏﾁｮｳ","pref":"富山県","city":"富山市","address":"豊島町"},
{"zip_code":"9318323","kana_pref":"ﾄﾔﾏｹﾝ","kana_city":"ﾄﾔﾏｼ","kana_address":"ﾄﾖｼﾛｼﾝﾏﾁ","pref":"富山県","city":"富山市","address":"豊城新町"},
{"zip_code":"9318324","kana_pref":"ﾄﾔﾏｹﾝ","kana_city":"ﾄﾔﾏｼ","kana_address":"ﾄﾖｼﾛﾁｮｳ","pref":"富山県","city":"富山市","address":"豊城町"},
{"zip_code":"9318311","kana_pref":"ﾄﾔﾏｹﾝ","kana_city":"ﾄﾔﾏｼ","kana_address":"ﾄﾖﾀ","pref":"富山県","city":"富山市","address":"豊田"},
{"zip_code":"9318312","kana_pref":"ﾄﾔﾏｹﾝ","kana_city":"ﾄﾔﾏｼ","kana_address":"ﾄﾖﾀﾎﾝﾏﾁ","pref":"富山県","city":"富山市","address":"豊田本町"},
{"zip_code":"9318313","kana_pref":"ﾄﾔﾏｹﾝ","kana_city":"ﾄﾔﾏｼ","kana_address":"ﾄﾖﾀﾏﾁ","pref":"富山県","city":"富山市","address":"豊田町"},
{"zip_code":"9318305","kana_pref":"ﾄﾔﾏｹﾝ","kana_city":"ﾄﾔﾏｼ","kana_address":"ﾄﾖﾜｶﾁｮｳ","pref":"富山県","city":"富山市","address":"豊若町"},
{"zip_code":"9318456","kana_pref":"ﾄﾔﾏｹﾝ","kana_city":"ﾄﾔﾏｼ","kana_address":"ﾄﾜﾏﾁ","pref":"富山県","city":"富山市","address":"永久町"},
{"zip_code":"9318453","kana_pref":"ﾄﾔﾏｹﾝ","kana_city":"ﾄﾔﾏｼ","kana_address":"ﾅｶﾀﾞ","pref":"富山県","city":"富山市","address":"中田"},
{"zip_code":"9318408","kana_pref":"ﾄﾔﾏｹﾝ","kana_city":"ﾄﾔﾏｼ","kana_address":"ﾅﾁﾏﾁ","pref":"富山県","city":"富山市","address":"那智町"},
{"zip_code":"9318335","kana_pref":"ﾄﾔﾏｹﾝ","kana_city":"ﾄﾔﾏｼ","kana_address":"ﾆｼﾉﾐﾔﾏﾁ","pref":"富山県","city":"富山市","address":"西宮町"},
{"zip_code":"9318345","kana_pref":"ﾄﾔﾏｹﾝ","kana_city":"ﾄﾔﾏｼ","kana_address":"ﾆｼﾐﾔ","pref":"富山県","city":"富山市","address":"西宮"},
{"zip_code":"9318413","kana_pref":"ﾄﾔﾏｹﾝ","kana_city":"ﾄﾔﾏｼ","kana_address":"ﾉﾀﾞ","pref":"富山県","city":"富山市","address":"野田"},
{"zip_code":"9318422","kana_pref":"ﾄﾔﾏｹﾝ","kana_city":"ﾄﾔﾏｼ","kana_address":"ﾉﾅｶ","pref":"富山県","city":"富山市","address":"野中"},
{"zip_code":"9318428","kana_pref":"ﾄﾔﾏｹﾝ","kana_city":"ﾄﾔﾏｼ","kana_address":"ﾉﾅｶｼﾝ","pref":"富山県","city":"富山市","address":"野中新"},
{"zip_code":"9318333","kana_pref":"ﾄﾔﾏｹﾝ","kana_city":"ﾄﾔﾏｼ","kana_address":"ﾊｽﾏﾁ","pref":"富山県","city":"富山市","address":"蓮町"},
{"zip_code":"9318414","kana_pref":"ﾄﾔﾏｹﾝ","kana_city":"ﾄﾔﾏｼ","kana_address":"ﾊﾏｸﾛｻｷ","pref":"富山県","city":"富山市","address":"浜黒崎"},
{"zip_code":"9318433","kana_pref":"ﾄﾔﾏｹﾝ","kana_city":"ﾄﾔﾏｼ","kana_address":"ﾊﾘﾜﾗｼﾝﾏﾁ","pref":"富山県","city":"富山市","address":"針原新町"},
{"zip_code":"9318432","kana_pref":"ﾄﾔﾏｹﾝ","kana_city":"ﾄﾔﾏｼ","kana_address":"ﾊﾘﾜﾗﾅｶ","pref":"富山県","city":"富山市","address":"針原中"},
{"zip_code":"9318415","kana_pref":"ﾄﾔﾏｹﾝ","kana_city":"ﾄﾔﾏｼ","kana_address":"ﾊﾘﾋ","pref":"富山県","city":"富山市","address":"針日"},
{"zip_code":"9318431","kana_pref":"ﾄﾔﾏｹﾝ","kana_city":"ﾄﾔﾏｼ","kana_address":"ﾊﾘﾜﾗﾅｶﾏﾁ","pref":"富山県","city":"富山市","address":"針原中町"},
{"zip_code":"9318455","kana_pref":"ﾄﾔﾏｹﾝ","kana_city":"ﾄﾔﾏｼ","kana_address":"ﾊﾙﾐﾀﾞｲ","pref":"富山県","city":"富山市","address":"晴海台"},
{"zip_code":"9318358","kana_pref":"ﾄﾔﾏｹﾝ","kana_city":"ﾄﾔﾏｼ","kana_address":"ﾋｶﾞｼｲﾜｾﾏﾁ","pref":"富山県","city":"富山市","address":"東岩瀬町"},
{"zip_code":"9318359","kana_pref":"ﾄﾔﾏｹﾝ","kana_city":"ﾄﾔﾏｼ","kana_address":"ﾋｶﾞｼｲﾜｾﾑﾗ","pref":"富山県","city":"富山市","address":"東岩瀬村"},
{"zip_code":"9318444","kana_pref":"ﾄﾔﾏｹﾝ","kana_city":"ﾄﾔﾏｼ","kana_address":"ﾋｶﾞｼｶﾞｵｶ","pref":"富山県","city":"富山市","address":"東ケ丘"},
{"zip_code":"9318452","kana_pref":"ﾄﾔﾏｹﾝ","kana_city":"ﾄﾔﾏｼ","kana_address":"ﾋｶﾞｼﾄﾔﾏｺﾄﾌﾞｷﾁｮｳ","pref":"富山県","city":"富山市","address":"東富山寿町"},
{"zip_code":"9318416","kana_pref":"ﾄﾔﾏｹﾝ","kana_city":"ﾄﾔﾏｼ","kana_address":"ﾋｶﾀｴ","pref":"富山県","city":"富山市","address":"日方江"},
{"zip_code":"9318421","kana_pref":"ﾄﾔﾏｹﾝ","kana_city":"ﾄﾔﾏｼ","kana_address":"ﾋﾗｴﾉｷ","pref":"富山県","city":"富山市","address":"平榎"},
{"zip_code":"9318423","kana_pref":"ﾄﾔﾏｹﾝ","kana_city":"ﾄﾔﾏｼ","kana_address":"ﾏﾁﾌﾞｸﾛ","pref":"富山県","city":"富山市","address":"町袋"},
{"zip_code":"9318406","kana_pref":"ﾄﾔﾏｹﾝ","kana_city":"ﾄﾔﾏｼ","kana_address":"ﾏﾂｳﾗﾁｮｳ","pref":"富山県","city":"富山市","address":"松浦町"},
{"zip_code":"9318434","kana_pref":"ﾄﾔﾏｹﾝ","kana_city":"ﾄﾔﾏｼ","kana_address":"ﾐｶﾐ","pref":"富山県","city":"富山市","address":"三上"},
{"zip_code":"9318301","kana_pref":"ﾄﾔﾏｹﾝ","kana_city":"ﾄﾔﾏｼ","kana_address":"ﾐｽﾞｵﾁ","pref":"富山県","city":"富山市","address":"水落"},
{"zip_code":"9318427","kana_pref":"ﾄﾔﾏｹﾝ","kana_city":"ﾄﾔﾏｼ","kana_address":"ﾐﾔｼﾞｮｳ","pref":"富山県","city":"富山市","address":"宮条"},
{"zip_code":"9318436","kana_pref":"ﾄﾔﾏｹﾝ","kana_city":"ﾄﾔﾏｼ","kana_address":"ﾐﾔｿﾞﾉﾁｮｳ","pref":"富山県","city":"富山市","address":"宮園町"},
{"zip_code":"9318425","kana_pref":"ﾄﾔﾏｹﾝ","kana_city":"ﾄﾔﾏｼ","kana_address":"ﾐﾔﾅﾘ","pref":"富山県","city":"富山市","address":"宮成"},
{"zip_code":"9318426","kana_pref":"ﾄﾔﾏｹﾝ","kana_city":"ﾄﾔﾏｼ","kana_address":"ﾐﾔﾅﾘﾁｭｳﾌﾞ","pref":"富山県","city":"富山市","address":"宮成中部"},
{"zip_code":"9318437","kana_pref":"ﾄﾔﾏｹﾝ","kana_city":"ﾄﾔﾏｼ","kana_address":"ﾐﾔﾏﾁ","pref":"富山県","city":"富山市","address":"宮町"},
{"zip_code":"9318332","kana_pref":"ﾄﾔﾏｹﾝ","kana_city":"ﾄﾔﾏｼ","kana_address":"ﾓﾘ","pref":"富山県","city":"富山市","address":"森"},
{"zip_code":"9318331","kana_pref":"ﾄﾔﾏｹﾝ","kana_city":"ﾄﾔﾏｼ","kana_address":"ﾓﾘｽﾞﾐﾁｮｳ","pref":"富山県","city":"富山市","address":"森住町"},
{"zip_code":"9318337","kana_pref":"ﾄﾔﾏｹﾝ","kana_city":"ﾄﾔﾏｼ","kana_address":"ﾓﾘﾜｶﾁｮｳ","pref":"富山県","city":"富山市","address":"森若町"},
{"zip_code":"9318412","kana_pref":"ﾄﾔﾏｹﾝ","kana_city":"ﾄﾔﾏｼ","kana_address":"ﾖｺｺﾞｼ","pref":"富山県","city":"富山市","address":"横越"},
{"zip_code":"9318303","kana_pref":"ﾄﾔﾏｹﾝ","kana_city":"ﾄﾔﾏｼ","kana_address":"ﾖﾈﾀﾞ","pref":"富山県","city":"富山市","address":"米田"},
{"zip_code":"9318306","kana_pref":"ﾄﾔﾏｹﾝ","kana_city":"ﾄﾔﾏｼ","kana_address":"ﾖﾈﾀﾞｽｽﾞｶｹﾀﾞｲ","pref":"富山県","city":"富山市","address":"米田すずかけ台"},
{"zip_code":"9318304","kana_pref":"ﾄﾔﾏｹﾝ","kana_city":"ﾄﾔﾏｼ","kana_address":"ﾖﾈﾀﾞﾏﾁ","pref":"富山県","city":"富山市","address":"米田町"},
{"zip_code":"9318302","kana_pref":"ﾄﾔﾏｹﾝ","kana_city":"ﾄﾔﾏｼ","kana_address":"ﾘｮｸﾖｳﾏﾁ","pref":"富山県","city":"富山市","address":"緑陽町"}]}