{"zip_code":[
{"zip_code":"9320314","kana_pref":"ﾄﾔﾏｹﾝ","kana_city":"ﾄﾅﾐｼ","kana_address":"ｼｮｳｶﾞﾜﾏﾁｱｵｼﾏ","pref":"富山県","city":"砺波市","address":"庄川町青島"},
{"zip_code":"9320317","kana_pref":"ﾄﾔﾏｹﾝ","kana_city":"ﾄﾅﾐｼ","kana_address":"ｼｮｳｶﾞﾜﾏﾁｲｶﾀﾞ","pref":"富山県","city":"砺波市","address":"庄川町筏"},
{"zip_code":"9320303","kana_pref":"ﾄﾔﾏｹﾝ","kana_city":"ﾄﾅﾐｼ","kana_address":"ｼｮｳｶﾞﾜﾏﾁｵﾄｼ","pref":"富山県","city":"砺波市","address":"庄川町落シ"},
{"zip_code":"9320303","kana_pref":"ﾄﾔﾏｹﾝ","kana_city":"ﾄﾅﾐｼ","kana_address":"ｼｮｳｶﾞﾜﾏﾁｶｸﾘｮｳ","pref":"富山県","city":"砺波市","address":"庄川町隠尾"},
{"zip_code":"9320305","kana_pref":"ﾄﾔﾏｹﾝ","kana_city":"ﾄﾅﾐｼ","kana_address":"ｼｮｳｶﾞﾜﾏﾁｶﾅﾔ","pref":"富山県","city":"砺波市","address":"庄川町金屋"},
{"zip_code":"9320313","kana_pref":"ﾄﾔﾏｹﾝ","kana_city":"ﾄﾅﾐｼ","kana_address":"ｼｮｳｶﾞﾜﾏﾁｺﾞｶ","pref":"富山県","city":"砺波市","address":"庄川町五ケ"},
{"zip_code":"9320304","kana_pref":"ﾄﾔﾏｹﾝ","kana_city":"ﾄﾅﾐｼ","kana_address":"ｼｮｳｶﾞﾜﾏﾁｺﾏｷ","pref":"富山県","city":"砺波市","address":"庄川町小牧"},
{"zip_code":"9320315","kana_pref":"ﾄﾔﾏｹﾝ","kana_city":"ﾄﾅﾐｼ","kana_address":"ｼｮｳｶﾞﾜﾏﾁｼﾒﾉ","pref":"富山県","city":"砺波市","address":"庄川町示野"},
{"zip_code":"9320302","kana_pref":"ﾄﾔﾏｹﾝ","kana_city":"ﾄﾅﾐｼ","kana_address":"ｼｮｳｶﾞﾜﾏﾁｼｮｳ","pref":"富山県","city":"砺波市","address":"庄川町庄"},
{"zip_code":"9320312","kana_pref":"ﾄﾔﾏｹﾝ","kana_city":"ﾄﾅﾐｼ","kana_address":"ｼｮｳｶﾞﾜﾏﾁﾀｶｷﾞｼﾝ","pref":"富山県","city":"砺波市","address":"庄川町高儀新"},
{"zip_code":"9320316","kana_pref":"ﾄﾔﾏｹﾝ","kana_city":"ﾄﾅﾐｼ","kana_address":"ｼｮｳｶﾞﾜﾏﾁﾃﾝｼｮｳ","pref":"富山県","city":"砺波市","address":"庄川町天正"},
{"zip_code":"9320311","kana_pref":"ﾄﾔﾏｹﾝ","kana_city":"ﾄﾅﾐｼ","kana_address":"ｼｮｳｶﾞﾜﾏﾁﾌﾙｳｴﾉ","pref":"富山県","city":"砺波市","address":"庄川町古上野"},
{"zip_code":"9320304","kana_pref":"ﾄﾔﾏｹﾝ","kana_city":"ﾄﾅﾐｼ","kana_address":"ｼｮｳｶﾞﾜﾏﾁﾏｴﾔﾏ","pref":"富山県","city":"砺波市","address":"庄川町前山"},
{"zip_code":"9320301","kana_pref":"ﾄﾔﾏｹﾝ","kana_city":"ﾄﾅﾐｼ","kana_address":"ｼｮｳｶﾞﾜﾏﾁﾐﾀﾆ","pref":"富山県","city":"砺波市","address":"庄川町三谷"},
{"zip_code":"9320303","kana_pref":"ﾄﾔﾏｹﾝ","kana_city":"ﾄﾅﾐｼ","kana_address":"ｼｮｳｶﾞﾜﾏﾁﾐｮｳｶﾞﾊﾗ","pref":"富山県","city":"砺波市","address":"庄川町名ケ原"},
{"zip_code":"9320303","kana_pref":"ﾄﾔﾏｹﾝ","kana_city":"ﾄﾅﾐｼ","kana_address":"ｼｮｳｶﾞﾜﾏﾁﾕﾀﾞﾆ","pref":"富山県","city":"砺波市","address":"庄川町湯谷"},
{"zip_code":"9320303","kana_pref":"ﾄﾔﾏｹﾝ","kana_city":"ﾄﾅﾐｼ","kana_address":"ｼｮｳｶﾞﾜﾏﾁﾕﾔﾏ","pref":"富山県","city":"砺波市","address":"庄川町湯山"},
{"zip_code":"9320303","kana_pref":"ﾄﾔﾏｹﾝ","kana_city":"ﾄﾅﾐｼ","kana_address":"ｼｮｳｶﾞﾜﾏﾁﾖｺｽﾞﾐ","pref":"富山県","city":"砺波市","address":"庄川町横住"},
{"zip_code":"9320000","kana_pref":"ﾄﾔﾏｹﾝ","kana_city":"ｵﾔﾍﾞｼ","kana_address":"","pref":"富山県","city":"小矢部市","address":""},
{"zip_code":"9320814","kana_pref":"ﾄﾔﾏｹﾝ","kana_city":"ｵﾔﾍﾞｼ","kana_address":"ｱｶｸﾗ","pref":"富山県","city":"小矢部市","address":"赤倉"},
{"zip_code":"9320122","kana_pref":"ﾄﾔﾏｹﾝ","kana_city":"ｵﾔﾍﾞｼ","kana_address":"ｱｻｼﾞ","pref":"富山県","city":"小矢部市","address":"浅地"},
{"zip_code":"9320833","kana_pref":"ﾄﾔﾏｹﾝ","kana_city":"ｵﾔﾍﾞｼ","kana_address":"ｱﾔｺ","pref":"富山県","city":"小矢部市","address":"綾子"},
{"zip_code":"9320071","kana_pref":"ﾄﾔﾏｹﾝ","kana_city":"ｵﾔﾍﾞｼ","kana_address":"ｱﾗﾏ","pref":"富山県","city":"小矢部市","address":"荒間"},
{"zip_code":"9320129","kana_pref":"ﾄﾔﾏｹﾝ","kana_city":"ｵﾔﾍﾞｼ","kana_address":"ｱﾝﾖｳｼﾞ","pref":"富山県","city":"小矢部市","address":"安養寺"},
{"zip_code":"9320852","kana_pref":"ﾄﾔﾏｹﾝ","kana_city":"ｵﾔﾍﾞｼ","kana_address":"ｱﾝﾖｳｼﾞｼﾝ","pref":"富山県","city":"小矢部市","address":"安養寺新"},
{"zip_code":"9320062","kana_pref":"ﾄﾔﾏｹﾝ","kana_city":"ｵﾔﾍﾞｼ","kana_address":"ｱﾝﾗｸｼﾞ","pref":"富山県","city":"小矢部市","address":"安楽寺"},
{"zip_code":"9320037","kana_pref":"ﾄﾔﾏｹﾝ","kana_city":"ｵﾔﾍﾞｼ","kana_address":"ｲｼｵｳﾏﾙ","pref":"富山県","city":"小矢部市","address":"石王丸"},
{"zip_code":"9320835","kana_pref":"ﾄﾔﾏｹﾝ","kana_city":"ｵﾔﾍﾞｼ","kana_address":"ｲｼｻｶ","pref":"富山県","city":"小矢部市","address":"石坂"},
{"zip_code":"9320808","kana_pref":"ﾄﾔﾏｹﾝ","kana_city":"ｵﾔﾍﾞｼ","kana_address":"ｲｼﾅﾀﾞ","pref":"富山県","city":"小矢部市","address":"石名田"},
{"zip_code":"9320052","kana_pref":"ﾄﾔﾏｹﾝ","kana_city":"ｵﾔﾍﾞｼ","kana_address":"ｲｽﾞﾐﾁｮｳ","pref":"富山県","city":"小矢部市","address":"泉町"},
{"zip_code":"9320053","kana_pref":"ﾄﾔﾏｹﾝ","kana_city":"ｵﾔﾍﾞｼ","kana_address":"ｲｽﾙｷﾞﾏﾁ","pref":"富山県","city":"小矢部市","address":"石動町"},
{"zip_code":"9320051","kana_pref":"ﾄﾔﾏｹﾝ","kana_city":"ｵﾔﾍﾞｼ","kana_address":"ｲﾏｲｽﾙｷﾞﾏﾁ","pref":"富山県","city":"小矢部市","address":"今石動町"},
{"zip_code":"9320073","kana_pref":"ﾄﾔﾏｹﾝ","kana_city":"ｵﾔﾍﾞｼ","kana_address":"ｲﾜｵﾀﾞｷ","pref":"富山県","city":"小矢部市","address":"岩尾滝"},
{"zip_code":"9320014","kana_pref":"ﾄﾔﾏｹﾝ","kana_city":"ｵﾔﾍﾞｼ","kana_address":"ｲﾜｻｷ","pref":"富山県","city":"小矢部市","address":"岩崎"},
{"zip_code":"9320113","kana_pref":"ﾄﾔﾏｹﾝ","kana_city":"ｵﾔﾍﾞｼ","kana_address":"ｲﾜﾀｹ","pref":"富山県","city":"小矢部市","address":"岩武"},
{"zip_code":"9320036","kana_pref":"ﾄﾔﾏｹﾝ","kana_city":"ｵﾔﾍﾞｼ","kana_address":"ｳｼﾞｼﾝ","pref":"富山県","city":"小矢部市","address":"宇治新"},
{"zip_code":"9320831","kana_pref":"ﾄﾔﾏｹﾝ","kana_city":"ｵﾔﾍﾞｼ","kana_address":"ｳｼﾛﾀﾞﾆ","pref":"富山県","city":"小矢部市","address":"後谷"},
{"zip_code":"9320853","kana_pref":"ﾄﾔﾏｹﾝ","kana_city":"ｵﾔﾍﾞｼ","kana_address":"ｳｽﾀﾆ","pref":"富山県","city":"小矢部市","address":"臼谷"},
{"zip_code":"9320106","kana_pref":"ﾄﾔﾏｹﾝ","kana_city":"ｵﾔﾍﾞｼ","kana_address":"ｳﾁｵﾝﾄﾞｳ","pref":"富山県","city":"小矢部市","address":"内御堂"},
{"zip_code":"9320863","kana_pref":"ﾄﾔﾏｹﾝ","kana_city":"ｵﾔﾍﾞｼ","kana_address":"ｳﾁﾔﾏ","pref":"富山県","city":"小矢部市","address":"内山"},
{"zip_code":"9320054","kana_pref":"ﾄﾔﾏｹﾝ","kana_city":"ｵﾔﾍﾞｼ","kana_address":"ｳﾜﾉﾎﾝ","pref":"富山県","city":"小矢部市","address":"上野本"},
{"zip_code":"9320031","kana_pref":"ﾄﾔﾏｹﾝ","kana_city":"ｵﾔﾍﾞｼ","kana_address":"ｵｶ","pref":"富山県","city":"小矢部市","address":"岡"},
{"zip_code":"9320817","kana_pref":"ﾄﾔﾏｹﾝ","kana_city":"ｵﾔﾍﾞｼ","kana_address":"ｵｺ","pref":"富山県","city":"小矢部市","address":"小神"},
{"zip_code":"9320056","kana_pref":"ﾄﾔﾏｹﾝ","kana_city":"ｵﾔﾍﾞｼ","kana_address":"ｵﾔﾍﾞ","pref":"富山県","city":"小矢部市","address":"小矢部"},
{"zip_code":"9320058","kana_pref":"ﾄﾔﾏｹﾝ","kana_city":"ｵﾔﾍﾞｼ","kana_address":"ｵﾔﾍﾞﾏﾁ","pref":"富山県","city":"小矢部市","address":"小矢部町"},
{"zip_code":"9320812","kana_pref":"ﾄﾔﾏｹﾝ","kana_city":"ｵﾔﾍﾞｼ","kana_address":"ｶﾅﾔﾎﾝｺﾞｳ","pref":"富山県","city":"小矢部市","address":"金屋本江"},
{"zip_code":"9320125","kana_pref":"ﾄﾔﾏｹﾝ","kana_city":"ｵﾔﾍﾞｼ","kana_address":"ｶﾓｼﾞﾏ","pref":"富山県","city":"小矢部市","address":"鴨島"},
{"zip_code":"9320075","kana_pref":"ﾄﾔﾏｹﾝ","kana_city":"ｵﾔﾍﾞｼ","kana_address":"ｶﾚｲﾀﾞﾆ","pref":"富山県","city":"小矢部市","address":"嘉例谷"},
{"zip_code":"9320855","kana_pref":"ﾄﾔﾏｹﾝ","kana_city":"ｵﾔﾍﾞｼ","kana_address":"ｶﾜﾋﾞﾗｷｼﾝ","pref":"富山県","city":"小矢部市","address":"川開新"},
{"zip_code":"9320046","kana_pref":"ﾄﾔﾏｹﾝ","kana_city":"ｵﾔﾍﾞｼ","kana_address":"ｶﾝﾉﾝﾏﾁ","pref":"富山県","city":"小矢部市","address":"観音町"},
{"zip_code":"9320844","kana_pref":"ﾄﾔﾏｹﾝ","kana_city":"ｵﾔﾍﾞｼ","kana_address":"ｷﾀｲﾁ","pref":"富山県","city":"小矢部市","address":"北一"},
{"zip_code":"9320003","kana_pref":"ﾄﾔﾏｹﾝ","kana_city":"ｵﾔﾍﾞｼ","kana_address":"ｷﾀﾔｼｷ","pref":"富山県","city":"小矢部市","address":"北屋敷"},
{"zip_code":"9320103","kana_pref":"ﾄﾔﾏｹﾝ","kana_city":"ｵﾔﾍﾞｼ","kana_address":"ｷｮｳﾃﾞﾝ","pref":"富山県","city":"小矢部市","address":"経田"},
{"zip_code":"9320112","kana_pref":"ﾄﾔﾏｹﾝ","kana_city":"ｵﾔﾍﾞｼ","kana_address":"ｷﾖｻﾜ","pref":"富山県","city":"小矢部市","address":"清沢"},
{"zip_code":"9320013","kana_pref":"ﾄﾔﾏｹﾝ","kana_city":"ｵﾔﾍﾞｼ","kana_address":"ｷﾖﾊﾗ","pref":"富山県","city":"小矢部市","address":"清原"},
{"zip_code":"9320001","kana_pref":"ﾄﾔﾏｹﾝ","kana_city":"ｵﾔﾍﾞｼ","kana_address":"ｸﾘｽ","pref":"富山県","city":"小矢部市","address":"久利須"},
{"zip_code":"9320127","kana_pref":"ﾄﾔﾏｹﾝ","kana_city":"ｵﾔﾍﾞｼ","kana_address":"ｺｳﾎﾞｳｼﾞ","pref":"富山県","city":"小矢部市","address":"興法寺"},
{"zip_code":"9320801","kana_pref":"ﾄﾔﾏｹﾝ","kana_city":"ｵﾔﾍﾞｼ","kana_address":"ｺﾞｼｬ","pref":"富山県","city":"小矢部市","address":"五社"},
{"zip_code":"9320105","kana_pref":"ﾄﾔﾏｹﾝ","kana_city":"ｵﾔﾍﾞｼ","kana_address":"ｺﾞﾏｼﾞﾏ","pref":"富山県","city":"小矢部市","address":"胡麻島"},
{"zip_code":"9320133","kana_pref":"ﾄﾔﾏｹﾝ","kana_city":"ｵﾔﾍﾞｼ","kana_address":"ｺﾓﾘﾀﾞﾆ","pref":"富山県","city":"小矢部市","address":"小森谷"},
{"zip_code":"9320862","kana_pref":"ﾄﾔﾏｹﾝ","kana_city":"ｵﾔﾍﾞｼ","kana_address":"ｺﾞﾛｳﾏﾙ","pref":"富山県","city":"小矢部市","address":"五郎丸"},
{"zip_code":"9320034","kana_pref":"ﾄﾔﾏｹﾝ","kana_city":"ｵﾔﾍﾞｼ","kana_address":"ｻｶﾏﾀ","pref":"富山県","city":"小矢部市","address":"坂又"},
{"zip_code":"9320022","kana_pref":"ﾄﾔﾏｹﾝ","kana_city":"ｵﾔﾍﾞｼ","kana_address":"ｻｸﾗﾏﾁ","pref":"富山県","city":"小矢部市","address":"桜町"},
{"zip_code":"9320032","kana_pref":"ﾄﾔﾏｹﾝ","kana_city":"ｵﾔﾍﾞｼ","kana_address":"ｼﾞｻｷ","pref":"富山県","city":"小矢部市","address":"地崎"},
{"zip_code":"9320802","kana_pref":"ﾄﾔﾏｹﾝ","kana_city":"ｵﾔﾍﾞｼ","kana_address":"ｼﾁｼｬ","pref":"富山県","city":"小矢部市","address":"七社"},
{"zip_code":"9320137","kana_pref":"ﾄﾔﾏｹﾝ","kana_city":"ｵﾔﾍﾞｼ","kana_address":"ｼﾌﾞｴ","pref":"富山県","city":"小矢部市","address":"渋江"},
{"zip_code":"9320825","kana_pref":"ﾄﾔﾏｹﾝ","kana_city":"ｵﾔﾍﾞｼ","kana_address":"ｼﾏ","pref":"富山県","city":"小矢部市","address":"島"},
{"zip_code":"9320114","kana_pref":"ﾄﾔﾏｹﾝ","kana_city":"ｵﾔﾍﾞｼ","kana_address":"ｼﾐｽﾞ","pref":"富山県","city":"小矢部市","address":"清水"},
{"zip_code":"9320126","kana_pref":"ﾄﾔﾏｹﾝ","kana_city":"ｵﾔﾍﾞｼ","kana_address":"ｼﾓｶﾞﾜｻｷ","pref":"富山県","city":"小矢部市","address":"下川崎"},
{"zip_code":"9320101","kana_pref":"ﾄﾔﾏｹﾝ","kana_city":"ｵﾔﾍﾞｼ","kana_address":"ｼﾓｺﾞｾﾞ","pref":"富山県","city":"小矢部市","address":"下後亟"},
{"zip_code":"9320824","kana_pref":"ﾄﾔﾏｹﾝ","kana_city":"ｵﾔﾍﾞｼ","kana_address":"ｼﾓｼﾞﾏ","pref":"富山県","city":"小矢部市","address":"下島"},
{"zip_code":"9320804","kana_pref":"ﾄﾔﾏｹﾝ","kana_city":"ｵﾔﾍﾞｼ","kana_address":"ｼﾓﾅｶ","pref":"富山県","city":"小矢部市","address":"下中"},
{"zip_code":"9320005","kana_pref":"ﾄﾔﾏｹﾝ","kana_city":"ｵﾔﾍﾞｼ","kana_address":"ｼﾓﾔｼｷ","pref":"富山県","city":"小矢部市","address":"下屋敷"},
{"zip_code":"9320047","kana_pref":"ﾄﾔﾏｹﾝ","kana_city":"ｵﾔﾍﾞｼ","kana_address":"ｼﾛﾔﾏﾏﾁ","pref":"富山県","city":"小矢部市","address":"城山町"},
{"zip_code":"9320044","kana_pref":"ﾄﾔﾏｹﾝ","kana_city":"ｵﾔﾍﾞｼ","kana_address":"ｼﾝﾄﾐﾏﾁ","pref":"富山県","city":"小矢部市","address":"新富町"},
{"zip_code":"9320111","kana_pref":"ﾄﾔﾏｹﾝ","kana_city":"ｵﾔﾍﾞｼ","kana_address":"ｼﾝﾆｼ","pref":"富山県","city":"小矢部市","address":"新西"},
{"zip_code":"9320854","kana_pref":"ﾄﾔﾏｹﾝ","kana_city":"ｵﾔﾍﾞｼ","kana_address":"ｽｴｻﾞﾜｼﾝ","pref":"富山県","city":"小矢部市","address":"末沢新"},
{"zip_code":"9320851","kana_pref":"ﾄﾔﾏｹﾝ","kana_city":"ｵﾔﾍﾞｼ","kana_address":"ｽｴﾄﾓ","pref":"富山県","city":"小矢部市","address":"末友"},
{"zip_code":"9320008","kana_pref":"ﾄﾔﾏｹﾝ","kana_city":"ｵﾔﾍﾞｼ","kana_address":"ｽｶﾞﾊﾗ","pref":"富山県","city":"小矢部市","address":"菅ケ原"},
{"zip_code":"9320132","kana_pref":"ﾄﾔﾏｹﾝ","kana_city":"ｵﾔﾍﾞｼ","kana_address":"ｽﾝﾅｲﾁ","pref":"富山県","city":"小矢部市","address":"杉谷内"},
{"zip_code":"9320033","kana_pref":"ﾄﾔﾏｹﾝ","kana_city":"ｵﾔﾍﾞｼ","kana_address":"ｾﾘｶﾜ","pref":"富山県","city":"小矢部市","address":"芹川"},
{"zip_code":"9320074","kana_pref":"ﾄﾔﾏｹﾝ","kana_city":"ｵﾔﾍﾞｼ","kana_address":"ｾﾝｺﾞｸ","pref":"富山県","city":"小矢部市","address":"千石"},
{"zip_code":"9320123","kana_pref":"ﾄﾔﾏｹﾝ","kana_city":"ｵﾔﾍﾞｼ","kana_address":"ﾀｶｷ","pref":"富山県","city":"小矢部市","address":"高木"},
{"zip_code":"9320815","kana_pref":"ﾄﾔﾏｹﾝ","kana_city":"ｵﾔﾍﾞｼ","kana_address":"ﾀｶｷﾞﾃﾞ","pref":"富山県","city":"小矢部市","address":"高木出"},
{"zip_code":"9320006","kana_pref":"ﾄﾔﾏｹﾝ","kana_city":"ｵﾔﾍﾞｼ","kana_address":"ﾀｶｻｶ","pref":"富山県","city":"小矢部市","address":"高坂"},
{"zip_code":"9320021","kana_pref":"ﾄﾔﾏｹﾝ","kana_city":"ｵﾔﾍﾞｼ","kana_address":"ﾀｶﾞﾜ","pref":"富山県","city":"小矢部市","address":"田川"},
{"zip_code":"9320843","kana_pref":"ﾄﾔﾏｹﾝ","kana_city":"ｵﾔﾍﾞｼ","kana_address":"ﾀﾅﾀﾞ","pref":"富山県","city":"小矢部市","address":"棚田"},
{"zip_code":"9320064","kana_pref":"ﾄﾔﾏｹﾝ","kana_city":"ｵﾔﾍﾞｼ","kana_address":"ﾀﾆﾂﾎﾞﾉ","pref":"富山県","city":"小矢部市","address":"谷坪野"},
{"zip_code":"9320045","kana_pref":"ﾄﾔﾏｹﾝ","kana_city":"ｵﾔﾍﾞｼ","kana_address":"ﾁｭｳｵｳﾏﾁ","pref":"富山県","city":"小矢部市","address":"中央町"},
{"zip_code":"9320842","kana_pref":"ﾄﾔﾏｹﾝ","kana_city":"ｵﾔﾍﾞｼ","kana_address":"ﾁｮｳ","pref":"富山県","city":"小矢部市","address":"長"},
{"zip_code":"9320115","kana_pref":"ﾄﾔﾏｹﾝ","kana_city":"ｵﾔﾍﾞｼ","kana_address":"ﾂｻﾞﾜ","pref":"富山県","city":"小矢部市","address":"津沢"},
{"zip_code":"9320072","kana_pref":"ﾄﾔﾏｹﾝ","kana_city":"ｵﾔﾍﾞｼ","kana_address":"ﾄｳｹﾞ","pref":"富山県","city":"小矢部市","address":"峠"},
{"zip_code":"9320061","kana_pref":"ﾄﾔﾏｹﾝ","kana_city":"ｵﾔﾍﾞｼ","kana_address":"ﾄﾞｳﾂﾎﾞﾉ","pref":"富山県","city":"小矢部市","address":"道坪野"},
{"zip_code":"9320803","kana_pref":"ﾄﾔﾏｹﾝ","kana_city":"ｵﾔﾍﾞｼ","kana_address":"ﾄﾞｳﾐｮｳ","pref":"富山県","city":"小矢部市","address":"道明"},
{"zip_code":"9320841","kana_pref":"ﾄﾔﾏｹﾝ","kana_city":"ｵﾔﾍﾞｼ","kana_address":"ﾄﾞｳﾘﾝｼﾞ","pref":"富山県","city":"小矢部市","address":"道林寺"},
{"zip_code":"9320128","kana_pref":"ﾄﾔﾏｹﾝ","kana_city":"ｵﾔﾍﾞｼ","kana_address":"ﾄﾋｻ","pref":"富山県","city":"小矢部市","address":"戸久"},
{"zip_code":"9320826","kana_pref":"ﾄﾔﾏｹﾝ","kana_city":"ｵﾔﾍﾞｼ","kana_address":"ﾅｽｼﾞﾏ","pref":"富山県","city":"小矢部市","address":"茄子島"},
{"zip_code":"9320131","kana_pref":"ﾄﾔﾏｹﾝ","kana_city":"ｵﾔﾍﾞｼ","kana_address":"ﾅﾊﾞﾀ","pref":"富山県","city":"小矢部市","address":"名畑"},
{"zip_code":"9320104","kana_pref":"ﾄﾔﾏｹﾝ","kana_city":"ｵﾔﾍﾞｼ","kana_address":"ﾆｼｶﾞﾜﾗ","pref":"富山県","city":"小矢部市","address":"西川原"},
{"zip_code":"9320055","kana_pref":"ﾄﾔﾏｹﾝ","kana_city":"ｵﾔﾍﾞｼ","kana_address":"ﾆｼﾁｮｳ","pref":"富山県","city":"小矢部市","address":"西町"},
{"zip_code":"9320805","kana_pref":"ﾄﾔﾏｹﾝ","kana_city":"ｵﾔﾍﾞｼ","kana_address":"ﾆｼﾅｶ","pref":"富山県","city":"小矢部市","address":"西中"},
{"zip_code":"9320035","kana_pref":"ﾄﾔﾏｹﾝ","kana_city":"ｵﾔﾍﾞｼ","kana_address":"ﾆｼﾅｶﾉ","pref":"富山県","city":"小矢部市","address":"西中野"},
{"zip_code":"9320116","kana_pref":"ﾄﾔﾏｹﾝ","kana_city":"ｵﾔﾍﾞｼ","kana_address":"ﾆｼﾉｼﾏ","pref":"富山県","city":"小矢部市","address":"西島"},
{"zip_code":"9320042","kana_pref":"ﾄﾔﾏｹﾝ","kana_city":"ｵﾔﾍﾞｼ","kana_address":"ﾆｼﾌｸﾏﾁ","pref":"富山県","city":"小矢部市","address":"西福町"},
{"zip_code":"9320004","kana_pref":"ﾄﾔﾏｹﾝ","kana_city":"ｵﾔﾍﾞｼ","kana_address":"ﾆﾉﾀｷ","pref":"富山県","city":"小矢部市","address":"二ノ滝"},
{"zip_code":"9320016","kana_pref":"ﾄﾔﾏｹﾝ","kana_city":"ｵﾔﾍﾞｼ","kana_address":"ﾇｶｺﾞｼﾞﾏ","pref":"富山県","city":"小矢部市","address":"糠子島"},
{"zip_code":"9320813","kana_pref":"ﾄﾔﾏｹﾝ","kana_city":"ｵﾔﾍﾞｼ","kana_address":"ﾉﾃﾞﾗ","pref":"富山県","city":"小矢部市","address":"野寺"},
{"zip_code":"9320832","kana_pref":"ﾄﾔﾏｹﾝ","kana_city":"ｵﾔﾍﾞｼ","kana_address":"ﾉﾊﾞﾅ","pref":"富山県","city":"小矢部市","address":"野端"},
{"zip_code":"9320834","kana_pref":"ﾄﾔﾏｹﾝ","kana_city":"ｵﾔﾍﾞｼ","kana_address":"ﾊｽﾇﾏ","pref":"富山県","city":"小矢部市","address":"蓮沼"},
{"zip_code":"9320043","kana_pref":"ﾄﾔﾏｹﾝ","kana_city":"ｵﾔﾍﾞｼ","kana_address":"ﾊﾀｹﾅｶﾏﾁ","pref":"富山県","city":"小矢部市","address":"畠中町"},
{"zip_code":"9320864","kana_pref":"ﾄﾔﾏｹﾝ","kana_city":"ｵﾔﾍﾞｼ","kana_address":"ﾊﾁﾌﾞｾ","pref":"富山県","city":"小矢部市","address":"八伏"},
{"zip_code":"9320861","kana_pref":"ﾄﾔﾏｹﾝ","kana_city":"ｵﾔﾍﾞｼ","kana_address":"ﾊｯｺｳﾃﾞﾝ","pref":"富山県","city":"小矢部市","address":"八講田"},
{"zip_code":"9320836","kana_pref":"ﾄﾔﾏｹﾝ","kana_city":"ｵﾔﾍﾞｼ","kana_address":"ﾊﾆｭｳ","pref":"富山県","city":"小矢部市","address":"埴生"},
{"zip_code":"9320011","kana_pref":"ﾄﾔﾏｹﾝ","kana_city":"ｵﾔﾍﾞｼ","kana_address":"ﾊﾗﾏｷ","pref":"富山県","city":"小矢部市","address":"原牧"},
{"zip_code":"9320041","kana_pref":"ﾄﾔﾏｹﾝ","kana_city":"ｵﾔﾍﾞｼ","kana_address":"ﾋｶﾞｼﾌｸﾏﾁ","pref":"富山県","city":"小矢部市","address":"東福町"},
{"zip_code":"9320134","kana_pref":"ﾄﾔﾏｹﾝ","kana_city":"ｵﾔﾍﾞｼ","kana_address":"ﾋﾗｻﾞｸﾗ","pref":"富山県","city":"小矢部市","address":"平桜"},
{"zip_code":"9320136","kana_pref":"ﾄﾔﾏｹﾝ","kana_city":"ｵﾔﾍﾞｼ","kana_address":"ﾋﾗﾀ","pref":"富山県","city":"小矢部市","address":"平田"},
{"zip_code":"9320823","kana_pref":"ﾄﾔﾏｹﾝ","kana_city":"ｵﾔﾍﾞｼ","kana_address":"ﾌｸｶﾞﾐ","pref":"富山県","city":"小矢部市","address":"福上"},
{"zip_code":"9320816","kana_pref":"ﾄﾔﾏｹﾝ","kana_city":"ｵﾔﾍﾞｼ","kana_address":"ﾌｸﾋｻ","pref":"富山県","city":"小矢部市","address":"福久"},
{"zip_code":"9320135","kana_pref":"ﾄﾔﾏｹﾝ","kana_city":"ｵﾔﾍﾞｼ","kana_address":"ﾌｼﾞﾉﾓﾘ","pref":"富山県","city":"小矢部市","address":"藤森"},
{"zip_code":"9320856","kana_pref":"ﾄﾔﾏｹﾝ","kana_city":"ｵﾔﾍﾞｼ","kana_address":"ﾌﾛﾝﾃｨｱﾊﾟｰｸ","pref":"富山県","city":"小矢部市","address":"フロンティアパーク"},
{"zip_code":"9320018","kana_pref":"ﾄﾔﾏｹﾝ","kana_city":"ｵﾔﾍﾞｼ","kana_address":"ﾍﾞｯｼｮﾀﾞｷ","pref":"富山県","city":"小矢部市","address":"別所滝"},
{"zip_code":"9320027","kana_pref":"ﾄﾔﾏｹﾝ","kana_city":"ｵﾔﾍﾞｼ","kana_address":"ﾎｳﾗｸｼﾞ","pref":"富山県","city":"小矢部市","address":"法楽寺"},
{"zip_code":"9320057","kana_pref":"ﾄﾔﾏｹﾝ","kana_city":"ｵﾔﾍﾞｼ","kana_address":"ﾎﾝﾏﾁ","pref":"富山県","city":"小矢部市","address":"本町"},
{"zip_code":"9320845","kana_pref":"ﾄﾔﾏｹﾝ","kana_city":"ｵﾔﾍﾞｼ","kana_address":"ﾏﾂｵ","pref":"富山県","city":"小矢部市","address":"松尾"},
{"zip_code":"9320846","kana_pref":"ﾄﾔﾏｹﾝ","kana_city":"ｵﾔﾍﾞｼ","kana_address":"ﾏﾂﾅｶﾞ","pref":"富山県","city":"小矢部市","address":"松永"},
{"zip_code":"9320806","kana_pref":"ﾄﾔﾏｹﾝ","kana_city":"ｵﾔﾍﾞｼ","kana_address":"ﾐｽﾞｵﾁ","pref":"富山県","city":"小矢部市","address":"水落"},
{"zip_code":"9320102","kana_pref":"ﾄﾔﾏｹﾝ","kana_city":"ｵﾔﾍﾞｼ","kana_address":"ﾐｽﾞｼﾏ","pref":"富山県","city":"小矢部市","address":"水島"},
{"zip_code":"9320811","kana_pref":"ﾄﾔﾏｹﾝ","kana_city":"ｵﾔﾍﾞｼ","kana_address":"ﾐｽﾞﾏｷ","pref":"富山県","city":"小矢部市","address":"水牧"},
{"zip_code":"9320012","kana_pref":"ﾄﾔﾏｹﾝ","kana_city":"ｵﾔﾍﾞｼ","kana_address":"ﾐﾈ","pref":"富山県","city":"小矢部市","address":"嶺"},
{"zip_code":"9320063","kana_pref":"ﾄﾔﾏｹﾝ","kana_city":"ｵﾔﾍﾞｼ","kana_address":"ﾐﾈﾂﾎﾞﾉ","pref":"富山県","city":"小矢部市","address":"峰坪野"},
{"zip_code":"9320124","kana_pref":"ﾄﾔﾏｹﾝ","kana_city":"ｵﾔﾍﾞｼ","kana_address":"ﾐﾉﾜ","pref":"富山県","city":"小矢部市","address":"蓑輪"},
{"zip_code":"9320026","kana_pref":"ﾄﾔﾏｹﾝ","kana_city":"ｵﾔﾍﾞｼ","kana_address":"ﾐﾔｽ","pref":"富山県","city":"小矢部市","address":"宮須"},
{"zip_code":"9320025","kana_pref":"ﾄﾔﾏｹﾝ","kana_city":"ｵﾔﾍﾞｼ","kana_address":"ﾐﾔﾅｶ","pref":"富山県","city":"小矢部市","address":"宮中"},
{"zip_code":"9320007","kana_pref":"ﾄﾔﾏｹﾝ","kana_city":"ｵﾔﾍﾞｼ","kana_address":"ﾐｮｳｶﾞﾀﾞｷ","pref":"富山県","city":"小矢部市","address":"名ケ滝"},
{"zip_code":"9320838","kana_pref":"ﾄﾔﾏｹﾝ","kana_city":"ｵﾔﾍﾞｼ","kana_address":"ﾒﾙﾍﾝﾗﾝﾄﾞ","pref":"富山県","city":"小矢部市","address":"メルヘンランド"},
{"zip_code":"9320002","kana_pref":"ﾄﾔﾏｹﾝ","kana_city":"ｵﾔﾍﾞｼ","kana_address":"ﾓﾘﾔ","pref":"富山県","city":"小矢部市","address":"森屋"},
{"zip_code":"9320121","kana_pref":"ﾄﾔﾏｹﾝ","kana_city":"ｵﾔﾍﾞｼ","kana_address":"ﾔｽｲﾁｮｳ","pref":"富山県","city":"小矢部市","address":"矢水町"},
{"zip_code":"9320048","kana_pref":"ﾄﾔﾏｹﾝ","kana_city":"ｵﾔﾍﾞｼ","kana_address":"ﾔﾂﾜﾏﾁ","pref":"富山県","city":"小矢部市","address":"八和町"},
{"zip_code":"9320807","kana_pref":"ﾄﾔﾏｹﾝ","kana_city":"ｵﾔﾍﾞｼ","kana_address":"ﾔﾅｷﾞﾊﾗ","pref":"富山県","city":"小矢部市","address":"柳原"},
{"zip_code":"9320015","kana_pref":"ﾄﾔﾏｹﾝ","kana_city":"ｵﾔﾍﾞｼ","kana_address":"ﾔﾅﾐ","pref":"富山県","city":"小矢部市","address":"矢波"},
{"zip_code":"9320024","kana_pref":"ﾄﾔﾏｹﾝ","kana_city":"ｵﾔﾍﾞｼ","kana_address":"ﾔﾅﾐﾏｷ","pref":"富山県","city":"小矢部市","address":"屋波牧"},
{"zip_code":"9320023","kana_pref":"ﾄﾔﾏｹﾝ","kana_city":"ｵﾔﾍﾞｼ","kana_address":"ﾖｺﾀﾞﾆ","pref":"富山県","city":"小矢部市","address":"横谷"},
{"zip_code":"9320837","kana_pref":"ﾄﾔﾏｹﾝ","kana_city":"ｵﾔﾍﾞｼ","kana_address":"ﾖｼﾜﾀﾞｲ","pref":"富山県","city":"小矢部市","address":"吉和台"},
{"zip_code":"9320017","kana_pref":"ﾄﾔﾏｹﾝ","kana_city":"ｵﾔﾍﾞｼ","kana_address":"ﾘｮｳﾜ","pref":"富山県","city":"小矢部市","address":"了輪"},
{"zip_code":"9320065","kana_pref":"ﾄﾔﾏｹﾝ","kana_city":"ｵﾔﾍﾞｼ","kana_address":"ﾛﾝﾃﾞﾝ","pref":"富山県","city":"小矢部市","address":"論田"},
{"zip_code":"9320822","kana_pref":"ﾄﾔﾏｹﾝ","kana_city":"ｵﾔﾍﾞｼ","kana_address":"ﾜｻﾜ","pref":"富山県","city":"小矢部市","address":"和沢"},
{"zip_code":"9320821","kana_pref":"ﾄﾔﾏｹﾝ","kana_city":"ｵﾔﾍﾞｼ","kana_address":"ﾜｼｶﾞｼﾏ","pref":"富山県","city":"小矢部市","address":"鷲島"},
{"zip_code":"9320206","kana_pref":"ﾄﾔﾏｹﾝ","kana_city":"ﾅﾝﾄｼ","kana_address":"ｱｼﾞﾂ","pref":"富山県","city":"南砺市","address":"安室"},
{"zip_code":"9320247","kana_pref":"ﾄﾔﾏｹﾝ","kana_city":"ﾅﾝﾄｼ","kana_address":"ｲｾﾞﾐ","pref":"富山県","city":"南砺市","address":"院瀬見"},
{"zip_code":"9320211","kana_pref":"ﾄﾔﾏｹﾝ","kana_city":"ﾅﾝﾄｼ","kana_address":"ｲﾅﾐ","pref":"富山県","city":"南砺市","address":"井波"},
{"zip_code":"9320213","kana_pref":"ﾄﾔﾏｹﾝ","kana_city":"ﾅﾝﾄｼ","kana_address":"ｲﾅﾐｻｶｴﾏﾁ","pref":"富山県","city":"南砺市","address":"井波栄町"},
{"zip_code":"9320205","kana_pref":"ﾄﾔﾏｹﾝ","kana_city":"ﾅﾝﾄｼ","kana_address":"ｲﾅﾐｼﾞｸﾔ","pref":"富山県","city":"南砺市","address":"井波軸屋"},
{"zip_code":"9320216","kana_pref":"ﾄﾔﾏｹﾝ","kana_city":"ﾅﾝﾄｼ","kana_address":"ｲﾅﾐｽｴﾋﾛﾏﾁ","pref":"富山県","city":"南砺市","address":"井波末広町"},
{"zip_code":"9320228","kana_pref":"ﾄﾔﾏｹﾝ","kana_city":"ﾅﾝﾄｼ","kana_address":"ｲﾅﾐﾋｶﾞｼﾏﾁ","pref":"富山県","city":"南砺市","address":"井波東町"},
{"zip_code":"9320256","kana_pref":"ﾄﾔﾏｹﾝ","kana_city":"ﾅﾝﾄｼ","kana_address":"ｲﾏｻﾞﾄ","pref":"富山県","city":"南砺市","address":"今里"},
{"zip_code":"9320214","kana_pref":"ﾄﾔﾏｹﾝ","kana_city":"ﾅﾝﾄｼ","kana_address":"ｲﾏﾏﾁ","pref":"富山県","city":"南砺市","address":"今町"},
{"zip_code":"9320203","kana_pref":"ﾄﾔﾏｹﾝ","kana_city":"ﾅﾝﾄｼ","kana_address":"ｲﾜﾔ","pref":"富山県","city":"南砺市","address":"岩屋"},
{"zip_code":"9320248","kana_pref":"ﾄﾔﾏｹﾝ","kana_city":"ﾅﾝﾄｼ","kana_address":"ｵｷ","pref":"富山県","city":"南砺市","address":"沖"},
{"zip_code":"9320241","kana_pref":"ﾄﾔﾏｹﾝ","kana_city":"ﾅﾝﾄｼ","kana_address":"ｶﾜﾗｻｷ","pref":"富山県","city":"南砺市","address":"川原崎"},
{"zip_code":"9320221","kana_pref":"ﾄﾔﾏｹﾝ","kana_city":"ﾅﾝﾄｼ","kana_address":"ｷｻﾞｷﾉ","pref":"富山県","city":"南砺市","address":"木崎野"},
{"zip_code":"9320257","kana_pref":"ﾄﾔﾏｹﾝ","kana_city":"ﾅﾝﾄｼ","kana_address":"ｷﾀｲﾁ","pref":"富山県","city":"南砺市","address":"北市"},
{"zip_code":"9320226","kana_pref":"ﾄﾔﾏｹﾝ","kana_city":"ﾅﾝﾄｼ","kana_address":"ｷﾀｶﾞﾜ","pref":"富山県","city":"南砺市","address":"北川"},
{"zip_code":"9320227","kana_pref":"ﾄﾔﾏｹﾝ","kana_city":"ﾅﾝﾄｼ","kana_address":"ｷﾀｼﾝﾏﾁ","pref":"富山県","city":"南砺市","address":"北新町"},
{"zip_code":"9320232","kana_pref":"ﾄﾔﾏｹﾝ","kana_city":"ﾅﾝﾄｼ","kana_address":"ｷｮｳｶﾞﾝﾏﾁ","pref":"富山県","city":"南砺市","address":"京願町"},
{"zip_code":"9320254","kana_pref":"ﾄﾔﾏｹﾝ","kana_city":"ﾅﾝﾄｼ","kana_address":"ｺﾞﾘｮｳ","pref":"富山県","city":"南砺市","address":"五領"},
{"zip_code":"9320255","kana_pref":"ﾄﾔﾏｹﾝ","kana_city":"ﾅﾝﾄｼ","kana_address":"ｺﾞﾘｮｳｼﾞﾏ","pref":"富山県","city":"南砺市","address":"五領島"},
{"zip_code":"9320222","kana_pref":"ﾄﾔﾏｹﾝ","kana_city":"ﾅﾝﾄｼ","kana_address":"ｻｶﾉｼﾀ","pref":"富山県","city":"南砺市","address":"坂ノ下"},
{"zip_code":"9320258","kana_pref":"ﾄﾔﾏｹﾝ","kana_city":"ﾅﾝﾄｼ","kana_address":"ｻﾝｷﾖﾋｶﾞｼ","pref":"富山県","city":"南砺市","address":"三清東"},
{"zip_code":"9320243","kana_pref":"ﾄﾔﾏｹﾝ","kana_city":"ﾅﾝﾄｼ","kana_address":"ｼｶﾝｼﾞ","pref":"富山県","city":"南砺市","address":"志観寺"},
{"zip_code":"9320202","kana_pref":"ﾄﾔﾏｹﾝ","kana_city":"ﾅﾝﾄｼ","kana_address":"ｼﾐｽﾞﾐｮｳ","pref":"富山県","city":"南砺市","address":"清水明"},
{"zip_code":"9320238","kana_pref":"ﾄﾔﾏｹﾝ","kana_city":"ﾅﾝﾄｼ","kana_address":"ｼﾓｱﾗﾏﾁ","pref":"富山県","city":"南砺市","address":"下新町"},
{"zip_code":"9320245","kana_pref":"ﾄﾔﾏｹﾝ","kana_city":"ﾅﾝﾄｼ","kana_address":"ｾｲｹﾞﾝｼﾞ","pref":"富山県","city":"南砺市","address":"清玄寺"},
{"zip_code":"9320207","kana_pref":"ﾄﾔﾏｹﾝ","kana_city":"ﾅﾝﾄｼ","kana_address":"ｾﾝｼｮｳｼﾞ","pref":"富山県","city":"南砺市","address":"専勝寺"},
{"zip_code":"9320252","kana_pref":"ﾄﾔﾏｹﾝ","kana_city":"ﾅﾝﾄｼ","kana_address":"ﾀｶｾ","pref":"富山県","city":"南砺市","address":"高瀬"},
{"zip_code":"9320201","kana_pref":"ﾄﾔﾏｹﾝ","kana_city":"ﾅﾝﾄｼ","kana_address":"ﾀｶﾔ","pref":"富山県","city":"南砺市","address":"高屋"},
{"zip_code":"9320242","kana_pref":"ﾄﾔﾏｹﾝ","kana_city":"ﾅﾝﾄｼ","kana_address":"ﾀﾆ","pref":"富山県","city":"南砺市","address":"谷"},
{"zip_code":"9320218","kana_pref":"ﾄﾔﾏｹﾝ","kana_city":"ﾅﾝﾄｼ","kana_address":"ﾂﾎﾞﾉ","pref":"富山県","city":"南砺市","address":"坪野"},
{"zip_code":"9320253","kana_pref":"ﾄﾔﾏｹﾝ","kana_city":"ﾅﾝﾄｼ","kana_address":"ﾄｲﾀ","pref":"富山県","city":"南砺市","address":"戸板"},
{"zip_code":"9320246","kana_pref":"ﾄﾔﾏｹﾝ","kana_city":"ﾅﾝﾄｼ","kana_address":"ﾄｳｼﾞｮｳｼﾞ","pref":"富山県","city":"南砺市","address":"東城寺"},
{"zip_code":"9320371","kana_pref":"ﾄﾔﾏｹﾝ","kana_city":"ﾅﾝﾄｼ","kana_address":"ﾄｶﾞﾑﾗｵｵﾏｷ","pref":"富山県","city":"南砺市","address":"利賀村大牧"},
{"zip_code":"9320371","kana_pref":"ﾄﾔﾏｹﾝ","kana_city":"ﾅﾝﾄｼ","kana_address":"ﾄｶﾞﾑﾗｷﾀﾊﾗ","pref":"富山県","city":"南砺市","address":"利賀村北原"},
{"zip_code":"9320371","kana_pref":"ﾄﾔﾏｹﾝ","kana_city":"ﾅﾝﾄｼ","kana_address":"ﾄｶﾞﾑﾗｼﾓﾊﾗ","pref":"富山県","city":"南砺市","address":"利賀村下原"},
{"zip_code":"9320371","kana_pref":"ﾄﾔﾏｹﾝ","kana_city":"ﾅﾝﾄｼ","kana_address":"ﾄｶﾞﾑﾗﾄﾁﾊﾗ","pref":"富山県","city":"南砺市","address":"利賀村栃原"},
{"zip_code":"9320371","kana_pref":"ﾄﾔﾏｹﾝ","kana_city":"ﾅﾝﾄｼ","kana_address":"ﾄｶﾞﾑﾗﾅｶﾞｻｷ","pref":"富山県","city":"南砺市","address":"利賀村長崎"},
{"zip_code":"9320206","kana_pref":"ﾄﾔﾏｹﾝ","kana_city":"ﾅﾝﾄｼ","kana_address":"ﾄｷﾞﾔ","pref":"富山県","city":"南砺市","address":"利屋"},
{"zip_code":"9320251","kana_pref":"ﾄﾔﾏｹﾝ","kana_city":"ﾅﾝﾄｼ","kana_address":"ﾉﾉｳﾊﾗ","pref":"富山県","city":"南砺市","address":"野能原"},
{"zip_code":"9320225","kana_pref":"ﾄﾔﾏｹﾝ","kana_city":"ﾅﾝﾄｼ","kana_address":"ﾊﾀｶﾀ","pref":"富山県","city":"南砺市","address":"畑方"},
{"zip_code":"9320204","kana_pref":"ﾄﾔﾏｹﾝ","kana_city":"ﾅﾝﾄｼ","kana_address":"ﾋﾀﾞﾔ","pref":"富山県","city":"南砺市","address":"飛騨屋"},
{"zip_code":"9320224","kana_pref":"ﾄﾔﾏｹﾝ","kana_city":"ﾅﾝﾄｼ","kana_address":"ﾌｼﾞﾊｼ","pref":"富山県","city":"南砺市","address":"藤橋"},
{"zip_code":"9320233","kana_pref":"ﾄﾔﾏｹﾝ","kana_city":"ﾅﾝﾄｼ","kana_address":"ﾎﾘﾐﾁ","pref":"富山県","city":"南砺市","address":"堀道"},
{"zip_code":"9320217","kana_pref":"ﾄﾔﾏｹﾝ","kana_city":"ﾅﾝﾄｼ","kana_address":"ﾎﾝﾏﾁ","pref":"富山県","city":"南砺市","address":"本町"},
{"zip_code":"9320223","kana_pref":"ﾄﾔﾏｹﾝ","kana_city":"ﾅﾝﾄｼ","kana_address":"ﾏﾂｼﾏ","pref":"富山県","city":"南砺市","address":"松島"},
{"zip_code":"9320236","kana_pref":"ﾄﾔﾏｹﾝ","kana_city":"ﾅﾝﾄｼ","kana_address":"ﾐｯｶﾏﾁ","pref":"富山県","city":"南砺市","address":"三日町"},
{"zip_code":"9320235","kana_pref":"ﾄﾔﾏｹﾝ","kana_city":"ﾅﾝﾄｼ","kana_address":"ﾑｲｶﾏﾁ","pref":"富山県","city":"南砺市","address":"六日町"},
{"zip_code":"9320215","kana_pref":"ﾄﾔﾏｹﾝ","kana_city":"ﾅﾝﾄｼ","kana_address":"ﾔﾏｼﾀ","pref":"富山県","city":"南砺市","address":"山下"},
{"zip_code":"9320212","kana_pref":"ﾄﾔﾏｹﾝ","kana_city":"ﾅﾝﾄｼ","kana_address":"ﾔﾏﾋ","pref":"富山県","city":"南砺市","address":"山斐"},
{"zip_code":"9320231","kana_pref":"ﾄﾔﾏｹﾝ","kana_city":"ﾅﾝﾄｼ","kana_address":"ﾔﾏﾐ","pref":"富山県","city":"南砺市","address":"山見"},
{"zip_code":"9320237","kana_pref":"ﾄﾔﾏｹﾝ","kana_city":"ﾅﾝﾄｼ","kana_address":"ﾔﾏﾐﾏﾁﾅﾐ","pref":"富山県","city":"南砺市","address":"山見町並"},
{"zip_code":"9320234","kana_pref":"ﾄﾔﾏｹﾝ","kana_city":"ﾅﾝﾄｼ","kana_address":"ﾖｳｶﾏﾁ","pref":"富山県","city":"南砺市","address":"八日町"},
{"zip_code":"9320244","kana_pref":"ﾄﾔﾏｹﾝ","kana_city":"ﾅﾝﾄｼ","kana_address":"ﾚﾝﾀｲｼﾞ","pref":"富山県","city":"南砺市","address":"連代寺"}]}