{"zip_code":[
{"zip_code":"9330000","kana_pref":"ﾄﾔﾏｹﾝ","kana_city":"ﾀｶｵｶｼ","kana_address":"","pref":"富山県","city":"高岡市","address":""},
{"zip_code":"9330061","kana_pref":"ﾄﾔﾏｹﾝ","kana_city":"ﾀｶｵｶｼ","kana_address":"ｱｵﾊﾞﾁｮｳ","pref":"富山県","city":"高岡市","address":"青葉町"},
{"zip_code":"9330805","kana_pref":"ﾄﾔﾏｹﾝ","kana_city":"ﾀｶｵｶｼ","kana_address":"ｱｶｴﾁｮｳ","pref":"富山県","city":"高岡市","address":"赤江町"},
{"zip_code":"9330806","kana_pref":"ﾄﾔﾏｹﾝ","kana_city":"ﾀｶｵｶｼ","kana_address":"ｱｶｿﾌ","pref":"富山県","city":"高岡市","address":"赤祖父"},
{"zip_code":"9330015","kana_pref":"ﾄﾔﾏｹﾝ","kana_city":"ﾀｶｵｶｼ","kana_address":"ｱｹｿﾞﾉﾏﾁ","pref":"富山県","city":"高岡市","address":"明園町"},
{"zip_code":"9330905","kana_pref":"ﾄﾔﾏｹﾝ","kana_city":"ﾀｶｵｶｼ","kana_address":"ｱｹﾉﾏﾁ","pref":"富山県","city":"高岡市","address":"明野町"},
{"zip_code":"9330072","kana_pref":"ﾄﾔﾏｹﾝ","kana_city":"ﾀｶｵｶｼ","kana_address":"ｱｻﾋｶﾞｵｶ","pref":"富山県","city":"高岡市","address":"旭ケ丘"},
{"zip_code":"9330353","kana_pref":"ﾄﾔﾏｹﾝ","kana_city":"ﾀｶｵｶｼ","kana_address":"ｱｿｳﾔ","pref":"富山県","city":"高岡市","address":"麻生谷"},
{"zip_code":"9330877","kana_pref":"ﾄﾔﾏｹﾝ","kana_city":"ﾀｶｵｶｼ","kana_address":"ｱﾗｶﾜﾁｮｳ","pref":"富山県","city":"高岡市","address":"荒川町"},
{"zip_code":"9330833","kana_pref":"ﾄﾔﾏｹﾝ","kana_city":"ﾀｶｵｶｼ","kana_address":"ｱﾗﾐｻｷ","pref":"富山県","city":"高岡市","address":"荒見崎"},
{"zip_code":"9330319","kana_pref":"ﾄﾔﾏｹﾝ","kana_city":"ﾀｶｵｶｼ","kana_address":"ｱﾗﾔｼｷ","pref":"富山県","city":"高岡市","address":"荒屋敷"},
{"zip_code":"9330911","kana_pref":"ﾄﾔﾏｹﾝ","kana_city":"ﾀｶｵｶｼ","kana_address":"ｱﾜﾗﾏﾁ","pref":"富山県","city":"高岡市","address":"あわら町"},
{"zip_code":"9330306","kana_pref":"ﾄﾔﾏｹﾝ","kana_city":"ﾀｶｵｶｼ","kana_address":"ｲｶﾗﾍﾞ","pref":"富山県","city":"高岡市","address":"五十辺"},
{"zip_code":"9330973","kana_pref":"ﾄﾔﾏｹﾝ","kana_city":"ﾀｶｵｶｼ","kana_address":"ｲｶﾘ","pref":"富山県","city":"高岡市","address":"五十里"},
{"zip_code":"9330972","kana_pref":"ﾄﾔﾏｹﾝ","kana_city":"ﾀｶｵｶｼ","kana_address":"ｲｶﾘﾋｶﾞｼﾏﾁ","pref":"富山県","city":"高岡市","address":"五十里東町"},
{"zip_code":"9330971","kana_pref":"ﾄﾔﾏｹﾝ","kana_city":"ﾀｶｵｶｼ","kana_address":"ｲｶﾘﾆｼﾏﾁ","pref":"富山県","city":"高岡市","address":"五十里西町"},
{"zip_code":"9330807","kana_pref":"ﾄﾔﾏｹﾝ","kana_city":"ﾀｶｵｶｼ","kana_address":"ｲｸﾞﾁﾎﾝｺﾞｳ","pref":"富山県","city":"高岡市","address":"井口本江"},
{"zip_code":"9330318","kana_pref":"ﾄﾔﾏｹﾝ","kana_city":"ﾀｶｵｶｼ","kana_address":"ｲｹﾀﾞ","pref":"富山県","city":"高岡市","address":"池田"},
{"zip_code":"9330011","kana_pref":"ﾄﾔﾏｹﾝ","kana_city":"ﾀｶｵｶｼ","kana_address":"ｲｼｾﾞ","pref":"富山県","city":"高岡市","address":"石瀬"},
{"zip_code":"9330836","kana_pref":"ﾄﾔﾏｹﾝ","kana_city":"ﾀｶｵｶｼ","kana_address":"ｲｼﾂﾞｶ","pref":"富山県","city":"高岡市","address":"石塚"},
{"zip_code":"9330355","kana_pref":"ﾄﾔﾏｹﾝ","kana_city":"ﾀｶｵｶｼ","kana_address":"ｲｼﾂﾞﾂﾐ","pref":"富山県","city":"高岡市","address":"石堤"},
{"zip_code":"9330827","kana_pref":"ﾄﾔﾏｹﾝ","kana_city":"ﾀｶｵｶｼ","kana_address":"ｲｽﾞﾐｶﾞｵｶ","pref":"富山県","city":"高岡市","address":"泉が丘"},
{"zip_code":"9330858","kana_pref":"ﾄﾔﾏｹﾝ","kana_city":"ﾀｶｵｶｼ","kana_address":"ｲｽﾞﾐﾏﾁ","pref":"富山県","city":"高岡市","address":"泉町"},
{"zip_code":"9330855","kana_pref":"ﾄﾔﾏｹﾝ","kana_city":"ﾀｶｵｶｼ","kana_address":"ｲﾁﾊﾞﾄﾞｵﾘ","pref":"富山県","city":"高岡市","address":"市場通り"},
{"zip_code":"9330923","kana_pref":"ﾄﾔﾏｹﾝ","kana_city":"ﾀｶｵｶｼ","kana_address":"ｲﾁﾊﾞﾝﾏﾁ","pref":"富山県","city":"高岡市","address":"一番町"},
{"zip_code":"9330335","kana_pref":"ﾄﾔﾏｹﾝ","kana_city":"ﾀｶｵｶｼ","kana_address":"ｲﾏｲﾁ","pref":"富山県","city":"高岡市","address":"今市"},
{"zip_code":"9330974","kana_pref":"ﾄﾔﾏｹﾝ","kana_city":"ﾀｶｵｶｼ","kana_address":"ｲﾜﾂﾎﾞ","pref":"富山県","city":"高岡市","address":"岩坪"},
{"zip_code":"9330328","kana_pref":"ﾄﾔﾏｹﾝ","kana_city":"ﾀｶｵｶｼ","kana_address":"ｳﾁｼﾞﾏ","pref":"富山県","city":"高岡市","address":"内島"},
{"zip_code":"9330843","kana_pref":"ﾄﾔﾏｹﾝ","kana_city":"ﾀｶｵｶｼ","kana_address":"ｴｲﾗｸﾏﾁ","pref":"富山県","city":"高岡市","address":"永楽町"},
{"zip_code":"9330871","kana_pref":"ﾄﾔﾏｹﾝ","kana_city":"ﾀｶｵｶｼ","kana_address":"ｴｷﾅﾝ","pref":"富山県","city":"高岡市","address":"駅南"},
{"zip_code":"9330062","kana_pref":"ﾄﾔﾏｹﾝ","kana_city":"ﾀｶｵｶｼ","kana_address":"ｴｼﾞﾘ","pref":"富山県","city":"高岡市","address":"江尻"},
{"zip_code":"9330065","kana_pref":"ﾄﾔﾏｹﾝ","kana_city":"ﾀｶｵｶｼ","kana_address":"ｴｼﾞﾘｼﾗﾔﾏﾁｮｳ","pref":"富山県","city":"高岡市","address":"江尻白山町"},
{"zip_code":"9330305","kana_pref":"ﾄﾔﾏｹﾝ","kana_city":"ﾀｶｵｶｼ","kana_address":"ｴﾝﾄﾞｳ","pref":"富山県","city":"高岡市","address":"江道"},
{"zip_code":"9330846","kana_pref":"ﾄﾔﾏｹﾝ","kana_city":"ﾀｶｵｶｼ","kana_address":"ｵｳｷﾞﾏﾁ","pref":"富山県","city":"高岡市","address":"扇町"},
{"zip_code":"9330133","kana_pref":"ﾄﾔﾏｹﾝ","kana_city":"ﾀｶｵｶｼ","kana_address":"ｵｵﾀ","pref":"富山県","city":"高岡市","address":"太田"},
{"zip_code":"9330135","kana_pref":"ﾄﾔﾏｹﾝ","kana_city":"ﾀｶｵｶｼ","kana_address":"ｵｵﾀ","pref":"富山県","city":"高岡市","address":"太田"},
{"zip_code":"9330134","kana_pref":"ﾄﾔﾏｹﾝ","kana_city":"ﾀｶｵｶｼ","kana_address":"ｵｵﾀ","pref":"富山県","city":"高岡市","address":"太田"},
{"zip_code":"9330134","kana_pref":"ﾄﾔﾏｹﾝ","kana_city":"ﾀｶｵｶｼ","kana_address":"ｵｵﾀ","pref":"富山県","city":"高岡市","address":"太田"},
{"zip_code":"9330132","kana_pref":"ﾄﾔﾏｹﾝ","kana_city":"ﾀｶｵｶｼ","kana_address":"ｵｵﾀ","pref":"富山県","city":"高岡市","address":"太田"},
{"zip_code":"9330131","kana_pref":"ﾄﾔﾏｹﾝ","kana_city":"ﾀｶｵｶｼ","kana_address":"ｵｵﾀｲｾﾘｮｳ","pref":"富山県","city":"高岡市","address":"太田伊勢領"},
{"zip_code":"9330137","kana_pref":"ﾄﾔﾏｹﾝ","kana_city":"ﾀｶｵｶｼ","kana_address":"ｵｵﾀﾔﾁ","pref":"富山県","city":"高岡市","address":"太田谷内"},
{"zip_code":"9330138","kana_pref":"ﾄﾔﾏｹﾝ","kana_city":"ﾀｶｵｶｼ","kana_address":"ｵｵﾀﾔﾏｷﾞｼ","pref":"富山県","city":"高岡市","address":"太田山岸"},
{"zip_code":"9330918","kana_pref":"ﾄﾔﾏｹﾝ","kana_city":"ﾀｶｵｶｼ","kana_address":"ｵｵﾂﾎﾞﾏﾁ","pref":"富山県","city":"高岡市","address":"大坪町"},
{"zip_code":"9330039","kana_pref":"ﾄﾔﾏｹﾝ","kana_city":"ﾀｶｵｶｼ","kana_address":"ｵｵﾃﾏﾁ","pref":"富山県","city":"高岡市","address":"大手町"},
{"zip_code":"9330016","kana_pref":"ﾄﾔﾏｹﾝ","kana_city":"ﾀｶｵｶｼ","kana_address":"ｵｵﾉ","pref":"富山県","city":"高岡市","address":"大野"},
{"zip_code":"9330916","kana_pref":"ﾄﾔﾏｹﾝ","kana_city":"ﾀｶｵｶｼ","kana_address":"ｵｵﾏﾁ","pref":"富山県","city":"高岡市","address":"大町"},
{"zip_code":"9330867","kana_pref":"ﾄﾔﾏｹﾝ","kana_city":"ﾀｶｵｶｼ","kana_address":"ｵｶﾞﾔﾁｮｳ","pref":"富山県","city":"高岡市","address":"大鋸屋町"},
{"zip_code":"9330073","kana_pref":"ﾄﾔﾏｹﾝ","kana_city":"ﾀｶｵｶｼ","kana_address":"ｵｷﾞﾉ","pref":"富山県","city":"高岡市","address":"荻布"},
{"zip_code":"9330074","kana_pref":"ﾄﾔﾏｹﾝ","kana_city":"ﾀｶｵｶｼ","kana_address":"ｵｷﾞﾉｼﾝﾏﾁ","pref":"富山県","city":"高岡市","address":"荻布新町"},
{"zip_code":"9330078","kana_pref":"ﾄﾔﾏｹﾝ","kana_city":"ﾀｶｵｶｼ","kana_address":"ｵｷﾞﾉﾖﾂﾊﾞﾏﾁ","pref":"富山県","city":"高岡市","address":"荻布四つ葉町"},
{"zip_code":"9330332","kana_pref":"ﾄﾔﾏｹﾝ","kana_city":"ﾀｶｵｶｼ","kana_address":"ｵﾀﾞｹ","pref":"富山県","city":"高岡市","address":"小竹"},
{"zip_code":"9330029","kana_pref":"ﾄﾔﾏｹﾝ","kana_city":"ﾀｶｵｶｼ","kana_address":"ｵﾀﾔﾏﾁ","pref":"富山県","city":"高岡市","address":"御旅屋町"},
{"zip_code":"9330926","kana_pref":"ﾄﾔﾏｹﾝ","kana_city":"ﾀｶｵｶｼ","kana_address":"ｵﾝﾏﾀﾞｼﾏﾁ","pref":"富山県","city":"高岡市","address":"御馬出町"},
{"zip_code":"9330909","kana_pref":"ﾄﾔﾏｹﾝ","kana_city":"ﾀｶｵｶｼ","kana_address":"ｶｲﾎﾂﾎﾝﾏﾁ","pref":"富山県","city":"高岡市","address":"開発本町"},
{"zip_code":"9330066","kana_pref":"ﾄﾔﾏｹﾝ","kana_city":"ﾀｶｵｶｼ","kana_address":"ｶｽｶﾞｵｶ","pref":"富山県","city":"高岡市","address":"春日丘"},
{"zip_code":"9330027","kana_pref":"ﾄﾔﾏｹﾝ","kana_city":"ﾀｶｵｶｼ","kana_address":"ｶﾀﾊﾗﾅｶｼﾞﾏﾏﾁ","pref":"富山県","city":"高岡市","address":"片原中島町"},
{"zip_code":"9330025","kana_pref":"ﾄﾔﾏｹﾝ","kana_city":"ﾀｶｵｶｼ","kana_address":"ｶﾀﾊﾗﾖｺﾏﾁ","pref":"富山県","city":"高岡市","address":"片原横町"},
{"zip_code":"9330026","kana_pref":"ﾄﾔﾏｹﾝ","kana_city":"ﾀｶｵｶｼ","kana_address":"ｶﾀﾊﾗﾏﾁ","pref":"富山県","city":"高岡市","address":"片原町"},
{"zip_code":"9330945","kana_pref":"ﾄﾔﾏｹﾝ","kana_city":"ﾀｶｵｶｼ","kana_address":"ｶﾅﾔﾎﾝﾏﾁ","pref":"富山県","city":"高岡市","address":"金屋本町"},
{"zip_code":"9330841","kana_pref":"ﾄﾔﾏｹﾝ","kana_city":"ﾀｶｵｶｼ","kana_address":"ｶﾅﾔﾏﾁ","pref":"富山県","city":"高岡市","address":"金屋町"},
{"zip_code":"9330856","kana_pref":"ﾄﾔﾏｹﾝ","kana_city":"ﾀｶｵｶｼ","kana_address":"ｶﾈﾎﾞｳﾏﾁ","pref":"富山県","city":"高岡市","address":"鐘紡町"},
{"zip_code":"9330336","kana_pref":"ﾄﾔﾏｹﾝ","kana_city":"ﾀｶｵｶｼ","kana_address":"ｶﾐｶｲﾎﾂ","pref":"富山県","city":"高岡市","address":"上開発"},
{"zip_code":"9330837","kana_pref":"ﾄﾔﾏｹﾝ","kana_city":"ﾀｶｵｶｼ","kana_address":"ｶﾐｷﾀｼﾞﾏ","pref":"富山県","city":"高岡市","address":"上北島"},
{"zip_code":"9330853","kana_pref":"ﾄﾔﾏｹﾝ","kana_city":"ﾀｶｵｶｼ","kana_address":"ｶﾐｸﾛﾀﾞ","pref":"富山県","city":"高岡市","address":"上黒田"},
{"zip_code":"9330853","kana_pref":"ﾄﾔﾏｹﾝ","kana_city":"ﾀｶｵｶｼ","kana_address":"ｶﾐｸﾛﾀﾞｼﾝ","pref":"富山県","city":"高岡市","address":"上黒田新"},
{"zip_code":"9330851","kana_pref":"ﾄﾔﾏｹﾝ","kana_city":"ﾀｶｵｶｼ","kana_address":"ｶﾐｾﾞｷ","pref":"富山県","city":"高岡市","address":"上関"},
{"zip_code":"9330851","kana_pref":"ﾄﾔﾏｹﾝ","kana_city":"ﾀｶｵｶｼ","kana_address":"ｶﾐｾﾞｷﾏﾁ","pref":"富山県","city":"高岡市","address":"上関町"},
{"zip_code":"9330963","kana_pref":"ﾄﾔﾏｹﾝ","kana_city":"ﾀｶｵｶｼ","kana_address":"ｶﾐﾊｯｶｼﾝ","pref":"富山県","city":"高岡市","address":"上八ケ新"},
{"zip_code":"9330814","kana_pref":"ﾄﾔﾏｹﾝ","kana_city":"ﾀｶｵｶｼ","kana_address":"ｶﾐﾌｽﾏｴ","pref":"富山県","city":"高岡市","address":"上伏間江"},
{"zip_code":"9330948","kana_pref":"ﾄﾔﾏｹﾝ","kana_city":"ﾀｶｵｶｼ","kana_address":"ｶﾐﾖﾂﾔ","pref":"富山県","city":"高岡市","address":"上四屋"},
{"zip_code":"9330341","kana_pref":"ﾄﾔﾏｹﾝ","kana_city":"ﾀｶｵｶｼ","kana_address":"ｶﾐﾜﾀﾘ","pref":"富山県","city":"高岡市","address":"上渡"},
{"zip_code":"9330932","kana_pref":"ﾄﾔﾏｹﾝ","kana_city":"ﾀｶｵｶｼ","kana_address":"ｶﾓｼﾞﾏﾏﾁ","pref":"富山県","city":"高岡市","address":"鴨島町"},
{"zip_code":"9330943","kana_pref":"ﾄﾔﾏｹﾝ","kana_city":"ﾀｶｵｶｼ","kana_address":"ｶﾜﾗﾎﾝﾏﾁ","pref":"富山県","city":"高岡市","address":"川原本町"},
{"zip_code":"9330942","kana_pref":"ﾄﾔﾏｹﾝ","kana_city":"ﾀｶｵｶｼ","kana_address":"ｶﾜﾗﾏﾁ","pref":"富山県","city":"高岡市","address":"川原町"},
{"zip_code":"9330875","kana_pref":"ﾄﾔﾏｹﾝ","kana_city":"ﾀｶｵｶｼ","kana_address":"ｶﾝﾀﾞｼﾝﾏﾁ","pref":"富山県","city":"高岡市","address":"神田新町"},
{"zip_code":"9330876","kana_pref":"ﾄﾔﾏｹﾝ","kana_city":"ﾀｶｵｶｼ","kana_address":"ｶﾝﾇｼﾏﾁ","pref":"富山県","city":"高岡市","address":"神主町"},
{"zip_code":"9330823","kana_pref":"ﾄﾔﾏｹﾝ","kana_city":"ﾀｶｵｶｼ","kana_address":"ｷﾀｸﾗｼﾝ","pref":"富山県","city":"高岡市","address":"北蔵新"},
{"zip_code":"9330838","kana_pref":"ﾄﾔﾏｹﾝ","kana_city":"ﾀｶｵｶｼ","kana_address":"ｷﾀｼﾞﾏ","pref":"富山県","city":"高岡市","address":"北島"},
{"zip_code":"9330052","kana_pref":"ﾄﾔﾏｹﾝ","kana_city":"ﾀｶｵｶｼ","kana_address":"ｷﾀｼﾞｮｳﾂﾞｶ","pref":"富山県","city":"高岡市","address":"北定塚"},
{"zip_code":"9330857","kana_pref":"ﾄﾔﾏｹﾝ","kana_city":"ﾀｶｵｶｼ","kana_address":"ｷﾂﾞ","pref":"富山県","city":"高岡市","address":"木津"},
{"zip_code":"9330929","kana_pref":"ﾄﾔﾏｹﾝ","kana_city":"ﾀｶｵｶｼ","kana_address":"ｷﾌﾈﾏﾁ","pref":"富山県","city":"高岡市","address":"木舟町"},
{"zip_code":"9330908","kana_pref":"ﾄﾔﾏｹﾝ","kana_city":"ﾀｶｵｶｼ","kana_address":"ｷﾏﾁ","pref":"富山県","city":"高岡市","address":"木町"},
{"zip_code":"9330874","kana_pref":"ﾄﾔﾏｹﾝ","kana_city":"ﾀｶｵｶｼ","kana_address":"ｷｮｳﾃﾞﾝ","pref":"富山県","city":"高岡市","address":"京田"},
{"zip_code":"9330917","kana_pref":"ﾄﾔﾏｹﾝ","kana_city":"ﾀｶｵｶｼ","kana_address":"ｷｮｳﾏﾁ","pref":"富山県","city":"高岡市","address":"京町"},
{"zip_code":"9330036","kana_pref":"ﾄﾔﾏｹﾝ","kana_city":"ﾀｶｵｶｼ","kana_address":"ｷﾘﾉｷﾏﾁ","pref":"富山県","city":"高岡市","address":"桐木町"},
{"zip_code":"9330968","kana_pref":"ﾄﾔﾏｹﾝ","kana_city":"ﾀｶｵｶｼ","kana_address":"ｸﾆﾖｼ","pref":"富山県","city":"高岡市","address":"国吉"},
{"zip_code":"9330903","kana_pref":"ﾄﾔﾏｹﾝ","kana_city":"ﾀｶｵｶｼ","kana_address":"ｸﾏﾉﾏﾁ","pref":"富山県","city":"高岡市","address":"熊野町"},
{"zip_code":"9330834","kana_pref":"ﾄﾔﾏｹﾝ","kana_city":"ﾀｶｵｶｼ","kana_address":"ｸﾗﾉﾏﾁ","pref":"富山県","city":"高岡市","address":"蔵野町"},
{"zip_code":"9330854","kana_pref":"ﾄﾔﾏｹﾝ","kana_city":"ﾀｶｵｶｼ","kana_address":"ｸﾛﾀﾞｼﾝﾏﾁ","pref":"富山県","city":"高岡市","address":"黒田新町"},
{"zip_code":"9330921","kana_pref":"ﾄﾔﾏｹﾝ","kana_city":"ﾀｶｵｶｼ","kana_address":"ｹﾞﾝﾍﾟｲﾁｮｳ","pref":"富山県","city":"高岡市","address":"源平町"},
{"zip_code":"9330067","kana_pref":"ﾄﾔﾏｹﾝ","kana_city":"ﾀｶｵｶｼ","kana_address":"ｺｳﾌｸﾏﾁ","pref":"富山県","city":"高岡市","address":"高伏町"},
{"zip_code":"9330018","kana_pref":"ﾄﾔﾏｹﾝ","kana_city":"ﾀｶｵｶｼ","kana_address":"ｺｳﾘｮｳﾏﾁ","pref":"富山県","city":"高岡市","address":"高陵町"},
{"zip_code":"9330044","kana_pref":"ﾄﾔﾏｹﾝ","kana_city":"ﾀｶｵｶｼ","kana_address":"ｺｼﾞｮｳ","pref":"富山県","city":"高岡市","address":"古城"},
{"zip_code":"9330906","kana_pref":"ﾄﾔﾏｹﾝ","kana_city":"ﾀｶｵｶｼ","kana_address":"ｺﾞﾌｸﾏﾁ","pref":"富山県","city":"高岡市","address":"五福町"},
{"zip_code":"9330338","kana_pref":"ﾄﾔﾏｹﾝ","kana_city":"ﾀｶｵｶｼ","kana_address":"ｺﾏｶﾞﾀ","pref":"富山県","city":"高岡市","address":"駒方"},
{"zip_code":"9330914","kana_pref":"ﾄﾔﾏｹﾝ","kana_city":"ﾀｶｵｶｼ","kana_address":"ｺﾝﾏﾀﾞｼﾏﾁ","pref":"富山県","city":"高岡市","address":"小馬出町"},
{"zip_code":"9330137","kana_pref":"ﾄﾔﾏｹﾝ","kana_city":"ﾀｶｵｶｼ","kana_address":"ｻｲﾀﾞ","pref":"富山県","city":"高岡市","address":"西田"},
{"zip_code":"9330008","kana_pref":"ﾄﾔﾏｹﾝ","kana_city":"ﾀｶｵｶｼ","kana_address":"ｻﾞｲﾓｸﾁｮｳ","pref":"富山県","city":"高岡市","address":"材木町"},
{"zip_code":"9330304","kana_pref":"ﾄﾔﾏｹﾝ","kana_city":"ﾀｶｵｶｼ","kana_address":"ｻｶｲ","pref":"富山県","city":"高岡市","address":"境"},
{"zip_code":"9330038","kana_pref":"ﾄﾔﾏｹﾝ","kana_city":"ﾀｶｵｶｼ","kana_address":"ｻｶｼﾀﾏﾁ","pref":"富山県","city":"高岡市","address":"坂下町"},
{"zip_code":"9330961","kana_pref":"ﾄﾔﾏｹﾝ","kana_city":"ﾀｶｵｶｼ","kana_address":"ｻｶﾞﾉ","pref":"富山県","city":"高岡市","address":"佐加野"},
{"zip_code":"9330962","kana_pref":"ﾄﾔﾏｹﾝ","kana_city":"ﾀｶｵｶｼ","kana_address":"ｻｶﾞﾉﾋｶﾞｼ","pref":"富山県","city":"高岡市","address":"佐加野東"},
{"zip_code":"9330344","kana_pref":"ﾄﾔﾏｹﾝ","kana_city":"ﾀｶｵｶｼ","kana_address":"ｻｻｶﾞﾜ","pref":"富山県","city":"高岡市","address":"笹川"},
{"zip_code":"9330307","kana_pref":"ﾄﾔﾏｹﾝ","kana_city":"ﾀｶｵｶｼ","kana_address":"ｻｻﾔﾂｸﾁ","pref":"富山県","city":"高岡市","address":"笹八口"},
{"zip_code":"9330826","kana_pref":"ﾄﾔﾏｹﾝ","kana_city":"ﾀｶｵｶｼ","kana_address":"ｻﾉ","pref":"富山県","city":"高岡市","address":"佐野"},
{"zip_code":"9330825","kana_pref":"ﾄﾔﾏｹﾝ","kana_city":"ﾀｶｵｶｼ","kana_address":"ｻﾉﾐﾄﾞﾘﾁｮｳ","pref":"富山県","city":"高岡市","address":"佐野緑町"},
{"zip_code":"9330334","kana_pref":"ﾄﾔﾏｹﾝ","kana_city":"ﾀｶｵｶｼ","kana_address":"ｻﾝｶﾞ","pref":"富山県","city":"高岡市","address":"三ケ"},
{"zip_code":"9330922","kana_pref":"ﾄﾔﾏｹﾝ","kana_city":"ﾀｶｵｶｼ","kana_address":"ｻﾝﾊﾞﾝﾏﾁ","pref":"富山県","city":"高岡市","address":"三番町"},
{"zip_code":"9330013","kana_pref":"ﾄﾔﾏｹﾝ","kana_city":"ﾀｶｵｶｼ","kana_address":"ｻﾝﾖｼ","pref":"富山県","city":"高岡市","address":"三女子"},
{"zip_code":"9330907","kana_pref":"ﾄﾔﾏｹﾝ","kana_city":"ﾀｶｵｶｼ","kana_address":"ｼﾞｼｷﾏﾁ","pref":"富山県","city":"高岡市","address":"地子木町"},
{"zip_code":"9330952","kana_pref":"ﾄﾔﾏｹﾝ","kana_city":"ﾀｶｵｶｼ","kana_address":"ｼﾀｸﾎﾞ","pref":"富山県","city":"高岡市","address":"下窪"},
{"zip_code":"9330357","kana_pref":"ﾄﾔﾏｹﾝ","kana_city":"ﾀｶｵｶｼ","kana_address":"ｼﾊﾞﾉ","pref":"富山県","city":"高岡市","address":"柴野"},
{"zip_code":"9330327","kana_pref":"ﾄﾔﾏｹﾝ","kana_city":"ﾀｶｵｶｼ","kana_address":"ｼﾊﾞﾉｳﾁｼﾞﾏ","pref":"富山県","city":"高岡市","address":"柴野内島"},
{"zip_code":"9330329","kana_pref":"ﾄﾔﾏｹﾝ","kana_city":"ﾀｶｵｶｼ","kana_address":"ｼﾊﾞﾉｳﾁｼﾞﾏ","pref":"富山県","city":"高岡市","address":"柴野内島"},
{"zip_code":"9330136","kana_pref":"ﾄﾔﾏｹﾝ","kana_city":"ﾀｶｵｶｼ","kana_address":"ｼﾌﾞﾔ","pref":"富山県","city":"高岡市","address":"渋谷"},
{"zip_code":"9330976","kana_pref":"ﾄﾔﾏｹﾝ","kana_city":"ﾀｶｵｶｼ","kana_address":"ｼﾏｻｷ","pref":"富山県","city":"高岡市","address":"島崎"},
{"zip_code":"9330866","kana_pref":"ﾄﾔﾏｹﾝ","kana_city":"ﾀｶｵｶｼ","kana_address":"ｼﾐｽﾞﾏﾁ","pref":"富山県","city":"高岡市","address":"清水町"},
{"zip_code":"9330852","kana_pref":"ﾄﾔﾏｹﾝ","kana_city":"ﾀｶｵｶｼ","kana_address":"ｼﾓｸﾛﾀﾞ","pref":"富山県","city":"高岡市","address":"下黒田"},
{"zip_code":"9330821","kana_pref":"ﾄﾔﾏｹﾝ","kana_city":"ﾀｶｵｶｼ","kana_address":"ｼﾓｼﾞﾏﾏﾁ","pref":"富山県","city":"高岡市","address":"下島町"},
{"zip_code":"9330860","kana_pref":"ﾄﾔﾏｹﾝ","kana_city":"ﾀｶｵｶｼ","kana_address":"ｼﾓｾﾞｷ","pref":"富山県","city":"高岡市","address":"下関"},
{"zip_code":"9330021","kana_pref":"ﾄﾔﾏｹﾝ","kana_city":"ﾀｶｵｶｼ","kana_address":"ｼﾓｾﾞｷﾏﾁ","pref":"富山県","city":"高岡市","address":"下関町"},
{"zip_code":"9330813","kana_pref":"ﾄﾔﾏｹﾝ","kana_city":"ﾀｶｵｶｼ","kana_address":"ｼﾓﾌｽﾏｴ","pref":"富山県","city":"高岡市","address":"下伏間江"},
{"zip_code":"9330822","kana_pref":"ﾄﾔﾏｹﾝ","kana_city":"ﾀｶｵｶｼ","kana_address":"ｼﾞｭｳﾆﾁｮｳｼﾞﾏ","pref":"富山県","city":"高岡市","address":"十二町島"},
{"zip_code":"9330983","kana_pref":"ﾄﾔﾏｹﾝ","kana_city":"ﾀｶｵｶｼ","kana_address":"ｼｭｺﾞﾏﾁ","pref":"富山県","city":"高岡市","address":"守護町"},
{"zip_code":"9330983","kana_pref":"ﾄﾔﾏｹﾝ","kana_city":"ﾀｶｵｶｼ","kana_address":"ｼｭｺﾞﾏﾁｼﾝ","pref":"富山県","city":"高岡市","address":"守護町新"},
{"zip_code":"9330126","kana_pref":"ﾄﾔﾏｹﾝ","kana_city":"ﾀｶｵｶｼ","kana_address":"ｼﾞｮｳｺｳｼﾞ","pref":"富山県","city":"高岡市","address":"城光寺"},
{"zip_code":"9330037","kana_pref":"ﾄﾔﾏｹﾝ","kana_city":"ﾀｶｵｶｼ","kana_address":"ｼﾞｮｳﾂﾞｶ","pref":"富山県","city":"高岡市","address":"定塚"},
{"zip_code":"9330032","kana_pref":"ﾄﾔﾏｹﾝ","kana_city":"ﾀｶｵｶｼ","kana_address":"ｼﾞｮｳﾂﾞｶﾏﾁ","pref":"富山県","city":"高岡市","address":"定塚町"},
{"zip_code":"9330041","kana_pref":"ﾄﾔﾏｹﾝ","kana_city":"ﾀｶｵｶｼ","kana_address":"ｼﾞｮｳﾄｳ","pref":"富山県","city":"高岡市","address":"城東"},
{"zip_code":"9330053","kana_pref":"ﾄﾔﾏｹﾝ","kana_city":"ﾀｶｵｶｼ","kana_address":"ｼﾞｮｳﾎｸﾏﾁ","pref":"富山県","city":"高岡市","address":"城北町"},
{"zip_code":"9330946","kana_pref":"ﾄﾔﾏｹﾝ","kana_city":"ﾀｶｵｶｼ","kana_address":"ｼｮｳﾜﾏﾁ","pref":"富山県","city":"高岡市","address":"昭和町"},
{"zip_code":"9330925","kana_pref":"ﾄﾔﾏｹﾝ","kana_city":"ﾀｶｵｶｼ","kana_address":"ｼﾛｶﾞﾈﾁｮｳ","pref":"富山県","city":"高岡市","address":"白銀町"},
{"zip_code":"9330022","kana_pref":"ﾄﾔﾏｹﾝ","kana_city":"ﾀｶｵｶｼ","kana_address":"ｼﾛｶﾞﾈﾏﾁ","pref":"富山県","city":"高岡市","address":"白金町"},
{"zip_code":"9330316","kana_pref":"ﾄﾔﾏｹﾝ","kana_city":"ﾀｶｵｶｼ","kana_address":"ｼﾝｻｶｴﾏﾁ","pref":"富山県","city":"高岡市","address":"新栄町"},
{"zip_code":"9330904","kana_pref":"ﾄﾔﾏｹﾝ","kana_city":"ﾀｶｵｶｼ","kana_address":"ｼﾝｾｲﾏﾁ","pref":"富山県","city":"高岡市","address":"新成町"},
{"zip_code":"9330862","kana_pref":"ﾄﾔﾏｹﾝ","kana_city":"ﾀｶｵｶｼ","kana_address":"ｼﾝﾃﾗﾏﾁ","pref":"富山県","city":"高岡市","address":"新寺町"},
{"zip_code":"9330075","kana_pref":"ﾄﾔﾏｹﾝ","kana_city":"ﾀｶｵｶｼ","kana_address":"ｼﾝﾉｳﾏﾁ","pref":"富山県","city":"高岡市","address":"新能町"},
{"zip_code":"9330035","kana_pref":"ﾄﾔﾏｹﾝ","kana_city":"ﾀｶｵｶｼ","kana_address":"ｼﾝﾖｺﾏﾁ","pref":"富山県","city":"高岡市","address":"新横町"},
{"zip_code":"9330023","kana_pref":"ﾄﾔﾏｹﾝ","kana_city":"ﾀｶｵｶｼ","kana_address":"ｽｴﾋﾛﾏﾁ","pref":"富山県","city":"高岡市","address":"末広町"},
{"zip_code":"9330978","kana_pref":"ﾄﾔﾏｹﾝ","kana_city":"ﾀｶｵｶｼ","kana_address":"ｽﾞｶﾜ","pref":"富山県","city":"高岡市","address":"頭川"},
{"zip_code":"9330985","kana_pref":"ﾄﾔﾏｹﾝ","kana_city":"ﾀｶｵｶｼ","kana_address":"ｽﾀﾞ","pref":"富山県","city":"高岡市","address":"須田"},
{"zip_code":"9330869","kana_pref":"ﾄﾔﾏｹﾝ","kana_city":"ﾀｶｵｶｼ","kana_address":"ｾｷｵｵﾏﾁ","pref":"富山県","city":"高岡市","address":"関大町"},
{"zip_code":"9330863","kana_pref":"ﾄﾔﾏｹﾝ","kana_city":"ﾀｶｵｶｼ","kana_address":"ｾｷﾎﾝﾏﾁ","pref":"富山県","city":"高岡市","address":"関本町"},
{"zip_code":"9330864","kana_pref":"ﾄﾔﾏｹﾝ","kana_city":"ﾀｶｵｶｼ","kana_address":"ｾｷﾏﾁ","pref":"富山県","city":"高岡市","address":"関町"},
{"zip_code":"9330915","kana_pref":"ﾄﾔﾏｹﾝ","kana_city":"ﾀｶｵｶｼ","kana_address":"ｾﾝｷﾞﾔﾁｮｳ","pref":"富山県","city":"高岡市","address":"千木屋町"},
{"zip_code":"9330847","kana_pref":"ﾄﾔﾏｹﾝ","kana_city":"ﾀｶｵｶｼ","kana_address":"ｾﾝｺﾞｸﾏﾁ","pref":"富山県","city":"高岡市","address":"千石町"},
{"zip_code":"9330868","kana_pref":"ﾄﾔﾏｹﾝ","kana_city":"ﾀｶｵｶｼ","kana_address":"ﾀﾞｲｸﾅｶﾏﾁ","pref":"富山県","city":"高岡市","address":"大工中町"},
{"zip_code":"9330311","kana_pref":"ﾄﾔﾏｹﾝ","kana_city":"ﾀｶｵｶｼ","kana_address":"ﾀﾞｲｹﾞﾝｼﾞ","pref":"富山県","city":"高岡市","address":"大源寺"},
{"zip_code":"9330312","kana_pref":"ﾄﾔﾏｹﾝ","kana_city":"ﾀｶｵｶｼ","kana_address":"ﾀﾞｲｹﾞﾝｼﾞ","pref":"富山県","city":"高岡市","address":"大源寺"},
{"zip_code":"9330028","kana_pref":"ﾄﾔﾏｹﾝ","kana_city":"ﾀｶｵｶｼ","kana_address":"ﾀﾞｲﾌｸｲﾝ","pref":"富山県","city":"高岡市","address":"大福院"},
{"zip_code":"9330034","kana_pref":"ﾄﾔﾏｹﾝ","kana_city":"ﾀｶｵｶｼ","kana_address":"ﾀﾞｲﾌﾞﾂﾏﾁ","pref":"富山県","city":"高岡市","address":"大仏町"},
{"zip_code":"9330808","kana_pref":"ﾄﾔﾏｹﾝ","kana_city":"ﾀｶｵｶｼ","kana_address":"ﾀｶｿﾞﾉﾏﾁ","pref":"富山県","city":"高岡市","address":"高園町"},
{"zip_code":"9330965","kana_pref":"ﾄﾔﾏｹﾝ","kana_city":"ﾀｶｵｶｼ","kana_address":"ﾀｶﾂｼﾞ","pref":"富山県","city":"高岡市","address":"高辻"},
{"zip_code":"9330124","kana_pref":"ﾄﾔﾏｹﾝ","kana_city":"ﾀｶｵｶｼ","kana_address":"ﾀｶﾐﾁｮｳ","pref":"富山県","city":"高岡市","address":"高美町"},
{"zip_code":"9330343","kana_pref":"ﾄﾔﾏｹﾝ","kana_city":"ﾀｶｵｶｼ","kana_address":"ﾀｶﾗｷﾞﾁｮｳ","pref":"富山県","city":"高岡市","address":"宝来町"},
{"zip_code":"9330064","kana_pref":"ﾄﾔﾏｹﾝ","kana_city":"ﾀｶｵｶｼ","kana_address":"ﾀｶﾗﾏﾁ","pref":"富山県","city":"高岡市","address":"宝町"},
{"zip_code":"9330325","kana_pref":"ﾄﾔﾏｹﾝ","kana_city":"ﾀｶｵｶｼ","kana_address":"ﾀﾃﾉ","pref":"富山県","city":"高岡市","address":"立野"},
{"zip_code":"9330324","kana_pref":"ﾄﾔﾏｹﾝ","kana_city":"ﾀｶｵｶｼ","kana_address":"ﾀﾃﾉ","pref":"富山県","city":"高岡市","address":"立野"},
{"zip_code":"9330326","kana_pref":"ﾄﾔﾏｹﾝ","kana_city":"ﾀｶｵｶｼ","kana_address":"ﾀﾃﾉﾐﾄﾞﾘﾁｮｳ","pref":"富山県","city":"高岡市","address":"立野美鳥町"},
{"zip_code":"9330967","kana_pref":"ﾄﾔﾏｹﾝ","kana_city":"ﾀｶｵｶｼ","kana_address":"ﾀﾗｲﾉ","pref":"富山県","city":"高岡市","address":"手洗野"},
{"zip_code":"9330337","kana_pref":"ﾄﾔﾏｹﾝ","kana_city":"ﾀｶｵｶｼ","kana_address":"ﾁﾄﾞﾘｶﾞｵｶﾏﾁ","pref":"富山県","city":"高岡市","address":"千鳥丘町"},
{"zip_code":"9330030","kana_pref":"ﾄﾔﾏｹﾝ","kana_city":"ﾀｶｵｶｼ","kana_address":"ﾁｭｳｵｳﾏﾁ","pref":"富山県","city":"高岡市","address":"中央町"},
{"zip_code":"9330951","kana_pref":"ﾄﾔﾏｹﾝ","kana_city":"ﾀｶｵｶｼ","kana_address":"ﾁｮｳｹｲｼﾞ","pref":"富山県","city":"高岡市","address":"長慶寺"},
{"zip_code":"9330966","kana_pref":"ﾄﾔﾏｹﾝ","kana_city":"ﾀｶｵｶｼ","kana_address":"ﾂｷﾉﾔ","pref":"富山県","city":"高岡市","address":"月野谷"},
{"zip_code":"9330835","kana_pref":"ﾄﾔﾏｹﾝ","kana_city":"ﾀｶｵｶｼ","kana_address":"ﾂｼﾞ","pref":"富山県","city":"高岡市","address":"辻"},
{"zip_code":"9330007","kana_pref":"ﾄﾔﾏｹﾝ","kana_city":"ﾀｶｵｶｼ","kana_address":"ﾂﾉ","pref":"富山県","city":"高岡市","address":"角"},
{"zip_code":"9330006","kana_pref":"ﾄﾔﾏｹﾝ","kana_city":"ﾀｶｵｶｼ","kana_address":"ﾂﾉﾐｼﾏ","pref":"富山県","city":"高岡市","address":"角三島"},
{"zip_code":"9330063","kana_pref":"ﾄﾔﾏｹﾝ","kana_city":"ﾀｶｵｶｼ","kana_address":"ﾂﾙﾖｾﾏﾁ","pref":"富山県","city":"高岡市","address":"鶴寄町"},
{"zip_code":"9330803","kana_pref":"ﾄﾔﾏｹﾝ","kana_city":"ﾀｶｵｶｼ","kana_address":"ﾃﾞｷﾃﾞﾝ","pref":"富山県","city":"高岡市","address":"出来田"},
{"zip_code":"9330809","kana_pref":"ﾄﾔﾏｹﾝ","kana_city":"ﾀｶｵｶｼ","kana_address":"ﾃﾞｷﾃﾞﾝｼﾝﾏﾁ","pref":"富山県","city":"高岡市","address":"出来田新町"},
{"zip_code":"9330861","kana_pref":"ﾄﾔﾏｹﾝ","kana_city":"ﾀｶｵｶｼ","kana_address":"ﾃﾗﾏﾁ","pref":"富山県","city":"高岡市","address":"寺町"},
{"zip_code":"9330352","kana_pref":"ﾄﾔﾏｹﾝ","kana_city":"ﾀｶｵｶｼ","kana_address":"ﾄｳｶｲﾁ","pref":"富山県","city":"高岡市","address":"十日市"},
{"zip_code":"9330964","kana_pref":"ﾄﾔﾏｹﾝ","kana_city":"ﾀｶｵｶｼ","kana_address":"ﾄｳﾉｼﾏ","pref":"富山県","city":"高岡市","address":"答野島"},
{"zip_code":"9330975","kana_pref":"ﾄﾔﾏｹﾝ","kana_city":"ﾀｶｵｶｼ","kana_address":"ﾄｳﾉﾃﾞ","pref":"富山県","city":"高岡市","address":"答野出"},
{"zip_code":"9330937","kana_pref":"ﾄﾔﾏｹﾝ","kana_city":"ﾀｶｵｶｼ","kana_address":"ﾄｵﾘﾏﾁ","pref":"富山県","city":"高岡市","address":"通町"},
{"zip_code":"9330927","kana_pref":"ﾄﾔﾏｹﾝ","kana_city":"ﾀｶｵｶｼ","kana_address":"ﾄｷﾞﾔﾏﾁ","pref":"富山県","city":"高岡市","address":"利屋町"},
{"zip_code":"9330001","kana_pref":"ﾄﾔﾏｹﾝ","kana_city":"ﾀｶｵｶｼ","kana_address":"ﾄﾐｵｶﾏﾁ","pref":"富山県","city":"高岡市","address":"富岡町"},
{"zip_code":"9330804","kana_pref":"ﾄﾔﾏｹﾝ","kana_city":"ﾀｶｵｶｼ","kana_address":"ﾄﾝﾔﾏﾁ","pref":"富山県","city":"高岡市","address":"問屋町"},
{"zip_code":"9330941","kana_pref":"ﾄﾔﾏｹﾝ","kana_city":"ﾀｶｵｶｼ","kana_address":"ﾅｲﾒﾝ","pref":"富山県","city":"高岡市","address":"内免"},
{"zip_code":"9330959","kana_pref":"ﾄﾔﾏｹﾝ","kana_city":"ﾀｶｵｶｼ","kana_address":"ﾅｶﾞｴ","pref":"富山県","city":"高岡市","address":"長江"},
{"zip_code":"9330056","kana_pref":"ﾄﾔﾏｹﾝ","kana_city":"ﾀｶｵｶｼ","kana_address":"ﾅｶｶﾞﾜ","pref":"富山県","city":"高岡市","address":"中川"},
{"zip_code":"9330043","kana_pref":"ﾄﾔﾏｹﾝ","kana_city":"ﾀｶｵｶｼ","kana_address":"ﾅｶｶﾞﾜｶﾐﾏﾁ","pref":"富山県","city":"高岡市","address":"中川上町"},
{"zip_code":"9330042","kana_pref":"ﾄﾔﾏｹﾝ","kana_city":"ﾀｶｵｶｼ","kana_address":"ﾅｶｶﾞﾜｻｶｴﾏﾁ","pref":"富山県","city":"高岡市","address":"中川栄町"},
{"zip_code":"9330055","kana_pref":"ﾄﾔﾏｹﾝ","kana_city":"ﾀｶｵｶｼ","kana_address":"ﾅｶｶﾞﾜｿﾉﾏﾁ","pref":"富山県","city":"高岡市","address":"中川園町"},
{"zip_code":"9330046","kana_pref":"ﾄﾔﾏｹﾝ","kana_city":"ﾀｶｵｶｼ","kana_address":"ﾅｶｶﾞﾜﾎﾝﾏﾁ","pref":"富山県","city":"高岡市","address":"中川本町"},
{"zip_code":"9330031","kana_pref":"ﾄﾔﾏｹﾝ","kana_city":"ﾀｶｵｶｼ","kana_address":"ﾅｶｶﾞﾜﾏﾁ","pref":"富山県","city":"高岡市","address":"中川町"},
{"zip_code":"9330944","kana_pref":"ﾄﾔﾏｹﾝ","kana_city":"ﾀｶｵｶｼ","kana_address":"ﾅｶｼﾞﾏﾏﾁ","pref":"富山県","city":"高岡市","address":"中島町"},
{"zip_code":"9330331","kana_pref":"ﾄﾔﾏｹﾝ","kana_city":"ﾀｶｵｶｼ","kana_address":"ﾅｶﾎ","pref":"富山県","city":"高岡市","address":"中保"},
{"zip_code":"9330986","kana_pref":"ﾄﾔﾏｹﾝ","kana_city":"ﾀｶｵｶｼ","kana_address":"ﾆｼｴﾋﾞｻｶ","pref":"富山県","city":"高岡市","address":"西海老坂"},
{"zip_code":"9330315","kana_pref":"ﾄﾔﾏｹﾝ","kana_city":"ﾀｶｵｶｼ","kana_address":"ﾆｼｿﾞﾉﾁｮｳ","pref":"富山県","city":"高岡市","address":"西園町"},
{"zip_code":"9330323","kana_pref":"ﾄﾔﾏｹﾝ","kana_city":"ﾀｶｵｶｼ","kana_address":"ﾆｼﾀｶﾁｮｳ","pref":"富山県","city":"高岡市","address":"西高町"},
{"zip_code":"9330824","kana_pref":"ﾄﾔﾏｹﾝ","kana_city":"ﾀｶｵｶｼ","kana_address":"ﾆｼﾄｳﾍｲｿﾞｳ","pref":"富山県","city":"高岡市","address":"西藤平蔵"},
{"zip_code":"9330815","kana_pref":"ﾄﾔﾏｹﾝ","kana_city":"ﾀｶｵｶｼ","kana_address":"ﾆｼﾋﾛｶﾐ","pref":"富山県","city":"高岡市","address":"西広上"},
{"zip_code":"9330302","kana_pref":"ﾄﾔﾏｹﾝ","kana_city":"ﾀｶｵｶｼ","kana_address":"ﾆｼﾋﾛﾀﾆ","pref":"富山県","city":"高岡市","address":"西広谷"},
{"zip_code":"9330848","kana_pref":"ﾄﾔﾏｹﾝ","kana_city":"ﾀｶｵｶｼ","kana_address":"ﾆｼﾏﾁ","pref":"富山県","city":"高岡市","address":"西町"},
{"zip_code":"9330931","kana_pref":"ﾄﾔﾏｹﾝ","kana_city":"ﾀｶｵｶｼ","kana_address":"ﾆﾊﾞﾝﾏﾁ","pref":"富山県","city":"高岡市","address":"二番町"},
{"zip_code":"9330003","kana_pref":"ﾄﾔﾏｹﾝ","kana_city":"ﾀｶｵｶｼ","kana_address":"ﾉｳﾏﾁ","pref":"富山県","city":"高岡市","address":"能町"},
{"zip_code":"9330077","kana_pref":"ﾄﾔﾏｹﾝ","kana_city":"ﾀｶｵｶｼ","kana_address":"ﾉｳﾏﾁｴｷﾅﾝ","pref":"富山県","city":"高岡市","address":"能町駅南"},
{"zip_code":"9330004","kana_pref":"ﾄﾔﾏｹﾝ","kana_city":"ﾀｶｵｶｼ","kana_address":"ﾉｳﾏﾁﾋｶﾞｼ","pref":"富山県","city":"高岡市","address":"能町東"},
{"zip_code":"9330005","kana_pref":"ﾄﾔﾏｹﾝ","kana_city":"ﾀｶｵｶｼ","kana_address":"ﾉｳﾏﾁﾐﾅﾐ","pref":"富山県","city":"高岡市","address":"能町南"},
{"zip_code":"9330301","kana_pref":"ﾄﾔﾏｹﾝ","kana_city":"ﾀｶｵｶｼ","kana_address":"ﾉﾃﾞﾜﾗ","pref":"富山県","city":"高岡市","address":"勝木原"},
{"zip_code":"9330014","kana_pref":"ﾄﾔﾏｹﾝ","kana_city":"ﾀｶｵｶｼ","kana_address":"ﾉﾑﾗ","pref":"富山県","city":"高岡市","address":"野村"},
{"zip_code":"9330958","kana_pref":"ﾄﾔﾏｹﾝ","kana_city":"ﾀｶｵｶｼ","kana_address":"ﾊｵｶ","pref":"富山県","city":"高岡市","address":"波岡"},
{"zip_code":"9330935","kana_pref":"ﾄﾔﾏｹﾝ","kana_city":"ﾀｶｵｶｼ","kana_address":"ﾊﾞｸﾛｳﾎﾝﾏﾁ","pref":"富山県","city":"高岡市","address":"博労本町"},
{"zip_code":"9330934","kana_pref":"ﾄﾔﾏｹﾝ","kana_city":"ﾀｶｵｶｼ","kana_address":"ﾊﾞｸﾛｳﾏﾁ","pref":"富山県","city":"高岡市","address":"博労町"},
{"zip_code":"9330865","kana_pref":"ﾄﾔﾏｹﾝ","kana_city":"ﾀｶｵｶｼ","kana_address":"ﾊｽﾐﾏﾁ","pref":"富山県","city":"高岡市","address":"蓮美町"},
{"zip_code":"9330936","kana_pref":"ﾄﾔﾏｹﾝ","kana_city":"ﾀｶｵｶｼ","kana_address":"ﾊﾀｺﾞﾏﾁ","pref":"富山県","city":"高岡市","address":"旅篭町"},
{"zip_code":"9330317","kana_pref":"ﾄﾔﾏｹﾝ","kana_city":"ﾀｶｵｶｼ","kana_address":"ﾊﾁｶﾞｼﾏ","pref":"富山県","city":"高岡市","address":"蜂ケ島"},
{"zip_code":"9330982","kana_pref":"ﾄﾔﾏｹﾝ","kana_city":"ﾀｶｵｶｼ","kana_address":"ﾊｯｶ","pref":"富山県","city":"高岡市","address":"八ケ"},
{"zip_code":"9330879","kana_pref":"ﾄﾔﾏｹﾝ","kana_city":"ﾀｶｵｶｼ","kana_address":"ﾊｯﾁｮｳﾐﾁ","pref":"富山県","city":"高岡市","address":"八丁道"},
{"zip_code":"9330844","kana_pref":"ﾄﾔﾏｹﾝ","kana_city":"ﾀｶｵｶｼ","kana_address":"ﾊﾋﾞﾛ","pref":"富山県","city":"高岡市","address":"羽広"},
{"zip_code":"9330957","kana_pref":"ﾄﾔﾏｹﾝ","kana_city":"ﾀｶｵｶｼ","kana_address":"ﾊﾔｶﾜ","pref":"富山県","city":"高岡市","address":"早川"},
{"zip_code":"9330818","kana_pref":"ﾄﾔﾏｹﾝ","kana_city":"ﾀｶｵｶｼ","kana_address":"ﾊﾔｼｼﾝ","pref":"富山県","city":"高岡市","address":"林新"},
{"zip_code":"9330342","kana_pref":"ﾄﾔﾏｹﾝ","kana_city":"ﾀｶｵｶｼ","kana_address":"ﾋｶﾞｼｲｼﾂﾞﾂﾐ","pref":"富山県","city":"高岡市","address":"東石堤"},
{"zip_code":"9330987","kana_pref":"ﾄﾔﾏｹﾝ","kana_city":"ﾀｶｵｶｼ","kana_address":"ﾋｶﾞｼｴﾋﾞｻｶ","pref":"富山県","city":"高岡市","address":"東海老坂"},
{"zip_code":"9330878","kana_pref":"ﾄﾔﾏｹﾝ","kana_city":"ﾀｶｵｶｼ","kana_address":"ﾋｶﾞｼｶﾐｾﾞｷ","pref":"富山県","city":"高岡市","address":"東上関"},
{"zip_code":"9330033","kana_pref":"ﾄﾔﾏｹﾝ","kana_city":"ﾀｶｵｶｼ","kana_address":"ﾋｶﾞｼｼﾓｾﾞｷ","pref":"富山県","city":"高岡市","address":"東下関"},
{"zip_code":"9330817","kana_pref":"ﾄﾔﾏｹﾝ","kana_city":"ﾀｶｵｶｼ","kana_address":"ﾋｶﾞｼﾄｳﾍｲｿﾞｳ","pref":"富山県","city":"高岡市","address":"東藤平蔵"},
{"zip_code":"9330047","kana_pref":"ﾄﾔﾏｹﾝ","kana_city":"ﾀｶｵｶｼ","kana_address":"ﾋｶﾞｼﾅｶｶﾞﾜﾏﾁ","pref":"富山県","city":"高岡市","address":"東中川町"},
{"zip_code":"9330051","kana_pref":"ﾄﾔﾏｹﾝ","kana_city":"ﾀｶｵｶｼ","kana_address":"ﾋｶﾞｼﾉ","pref":"富山県","city":"高岡市","address":"東野"},
{"zip_code":"9330322","kana_pref":"ﾄﾔﾏｹﾝ","kana_city":"ﾀｶｵｶｼ","kana_address":"ﾋﾂﾞﾒ","pref":"富山県","city":"高岡市","address":"樋詰"},
{"zip_code":"9330057","kana_pref":"ﾄﾔﾏｹﾝ","kana_city":"ﾀｶｵｶｼ","kana_address":"ﾋﾛｺｳｼﾞ","pref":"富山県","city":"高岡市","address":"広小路"},
{"zip_code":"9330811","kana_pref":"ﾄﾔﾏｹﾝ","kana_city":"ﾀｶｵｶｼ","kana_address":"ﾌｶｻﾜ","pref":"富山県","city":"高岡市","address":"深沢"},
{"zip_code":"9330314","kana_pref":"ﾄﾔﾏｹﾝ","kana_city":"ﾀｶｵｶｼ","kana_address":"ﾌｸｴｲﾁｮｳ","pref":"富山県","city":"高岡市","address":"福栄町"},
{"zip_code":"9330829","kana_pref":"ﾄﾔﾏｹﾝ","kana_city":"ﾀｶｵｶｼ","kana_address":"ﾌｸﾀ","pref":"富山県","city":"高岡市","address":"福田"},
{"zip_code":"9330313","kana_pref":"ﾄﾔﾏｹﾝ","kana_city":"ﾀｶｵｶｼ","kana_address":"ﾌｸﾀﾛｯｹ","pref":"富山県","city":"高岡市","address":"福田六家"},
{"zip_code":"9330113","kana_pref":"ﾄﾔﾏｹﾝ","kana_city":"ﾀｶｵｶｼ","kana_address":"ﾌｼｷ","pref":"富山県","city":"高岡市","address":"伏木"},
{"zip_code":"9330102","kana_pref":"ﾄﾔﾏｹﾝ","kana_city":"ﾀｶｵｶｼ","kana_address":"ﾌｼｷｲｿﾏﾁ","pref":"富山県","city":"高岡市","address":"伏木磯町"},
{"zip_code":"9330116","kana_pref":"ﾄﾔﾏｹﾝ","kana_city":"ﾀｶｵｶｼ","kana_address":"ﾌｼｷｲﾁﾉﾐﾔ","pref":"富山県","city":"高岡市","address":"伏木一宮"},
{"zip_code":"9330101","kana_pref":"ﾄﾔﾏｹﾝ","kana_city":"ﾀｶｵｶｼ","kana_address":"ﾌｼｷｺｸﾌﾞ","pref":"富山県","city":"高岡市","address":"伏木国分"},
{"zip_code":"9330114","kana_pref":"ﾄﾔﾏｹﾝ","kana_city":"ﾀｶｵｶｼ","kana_address":"ﾌｼｷｺﾌ","pref":"富山県","city":"高岡市","address":"伏木古府"},
{"zip_code":"9330115","kana_pref":"ﾄﾔﾏｹﾝ","kana_city":"ﾀｶｵｶｼ","kana_address":"ﾌｼｷｺﾌﾓﾄﾏﾁ","pref":"富山県","city":"高岡市","address":"伏木古府元町"},
{"zip_code":"9330103","kana_pref":"ﾄﾔﾏｹﾝ","kana_city":"ﾀｶｵｶｼ","kana_address":"ﾌｼｷﾁｭｳｵｳﾏﾁ","pref":"富山県","city":"高岡市","address":"伏木中央町"},
{"zip_code":"9330105","kana_pref":"ﾄﾔﾏｹﾝ","kana_city":"ﾀｶｵｶｼ","kana_address":"ﾌｼｷﾆｼｷﾏﾁ","pref":"富山県","city":"高岡市","address":"伏木錦町"},
{"zip_code":"9330111","kana_pref":"ﾄﾔﾏｹﾝ","kana_city":"ﾀｶｵｶｼ","kana_address":"ﾌｼｷﾋｶﾞｼｲﾁﾉﾐﾔ","pref":"富山県","city":"高岡市","address":"伏木東一宮"},
{"zip_code":"9330112","kana_pref":"ﾄﾔﾏｹﾝ","kana_city":"ﾀｶｵｶｼ","kana_address":"ﾌｼｷﾌﾙｺｸﾌ","pref":"富山県","city":"高岡市","address":"伏木古国府"},
{"zip_code":"9330106","kana_pref":"ﾄﾔﾏｹﾝ","kana_city":"ﾀｶｵｶｼ","kana_address":"ﾌｼｷﾎﾝﾏﾁ","pref":"富山県","city":"高岡市","address":"伏木本町"},
{"zip_code":"9330104","kana_pref":"ﾄﾔﾏｹﾝ","kana_city":"ﾀｶｵｶｼ","kana_address":"ﾌｼｷﾐﾅﾄﾏﾁ","pref":"富山県","city":"高岡市","address":"伏木湊町"},
{"zip_code":"9330123","kana_pref":"ﾄﾔﾏｹﾝ","kana_city":"ﾀｶｵｶｼ","kana_address":"ﾌｼｷﾔﾀ","pref":"富山県","city":"高岡市","address":"伏木矢田"},
{"zip_code":"9330122","kana_pref":"ﾄﾔﾏｹﾝ","kana_city":"ﾀｶｵｶｼ","kana_address":"ﾌｼｷﾔﾀｶﾐﾏﾁ","pref":"富山県","city":"高岡市","address":"伏木矢田上町"},
{"zip_code":"9330121","kana_pref":"ﾄﾔﾏｹﾝ","kana_city":"ﾀｶｵｶｼ","kana_address":"ﾌｼｷﾔﾀｼﾝﾏﾁ","pref":"富山県","city":"高岡市","address":"伏木矢田新町"},
{"zip_code":"9330125","kana_pref":"ﾄﾔﾏｹﾝ","kana_city":"ﾀｶｵｶｼ","kana_address":"ﾌｼｷﾔﾀ","pref":"富山県","city":"高岡市","address":"伏木矢田"},
{"zip_code":"9330981","kana_pref":"ﾄﾔﾏｹﾝ","kana_city":"ﾀｶｵｶｼ","kana_address":"ﾌﾀｶﾞﾐ","pref":"富山県","city":"高岡市","address":"二上"},
{"zip_code":"9330981","kana_pref":"ﾄﾔﾏｹﾝ","kana_city":"ﾀｶｵｶｼ","kana_address":"ﾌﾀｶﾞﾐｼﾝ","pref":"富山県","city":"高岡市","address":"二上新"},
{"zip_code":"9330981","kana_pref":"ﾄﾔﾏｹﾝ","kana_city":"ﾀｶｵｶｼ","kana_address":"ﾌﾀｶﾞﾐﾏﾁ","pref":"富山県","city":"高岡市","address":"二上町"},
{"zip_code":"9330816","kana_pref":"ﾄﾔﾏｹﾝ","kana_city":"ﾀｶｵｶｼ","kana_address":"ﾌﾀﾂﾞｶ","pref":"富山県","city":"高岡市","address":"二塚"},
{"zip_code":"9330054","kana_pref":"ﾄﾔﾏｹﾝ","kana_city":"ﾀｶｵｶｼ","kana_address":"ﾌﾙｼﾞｮｳﾂﾞｶ","pref":"富山県","city":"高岡市","address":"古定塚"},
{"zip_code":"9330938","kana_pref":"ﾄﾔﾏｹﾝ","kana_city":"ﾀｶｵｶｼ","kana_address":"ﾌﾛﾔﾁｮｳ","pref":"富山県","city":"高岡市","address":"風呂屋町"},
{"zip_code":"9330345","kana_pref":"ﾄﾔﾏｹﾝ","kana_city":"ﾀｶｵｶｼ","kana_address":"ﾍｲｾｲﾁｮｳ","pref":"富山県","city":"高岡市","address":"平成町"},
{"zip_code":"9330977","kana_pref":"ﾄﾔﾏｹﾝ","kana_city":"ﾀｶｵｶｼ","kana_address":"ﾎｿｲｹ","pref":"富山県","city":"高岡市","address":"細池"},
{"zip_code":"9330924","kana_pref":"ﾄﾔﾏｹﾝ","kana_city":"ﾀｶｵｶｼ","kana_address":"ﾎﾘｶﾐﾁｮｳ","pref":"富山県","city":"高岡市","address":"堀上町"},
{"zip_code":"9330947","kana_pref":"ﾄﾔﾏｹﾝ","kana_city":"ﾀｶｵｶｼ","kana_address":"ﾎﾝｺﾞｳ","pref":"富山県","city":"高岡市","address":"本郷"},
{"zip_code":"9330333","kana_pref":"ﾄﾔﾏｹﾝ","kana_city":"ﾀｶｵｶｼ","kana_address":"ﾎﾝﾎﾞ","pref":"富山県","city":"高岡市","address":"本保"},
{"zip_code":"9330913","kana_pref":"ﾄﾔﾏｹﾝ","kana_city":"ﾀｶｵｶｼ","kana_address":"ﾎﾝﾏﾁ","pref":"富山県","city":"高岡市","address":"本町"},
{"zip_code":"9330045","kana_pref":"ﾄﾔﾏｹﾝ","kana_city":"ﾀｶｵｶｼ","kana_address":"ﾎﾝﾏﾙﾏﾁ","pref":"富山県","city":"高岡市","address":"本丸町"},
{"zip_code":"9330017","kana_pref":"ﾄﾔﾏｹﾝ","kana_city":"ﾀｶｵｶｼ","kana_address":"ﾏｴﾀﾞﾁｮｳ","pref":"富山県","city":"高岡市","address":"前田町"},
{"zip_code":"9330845","kana_pref":"ﾄﾔﾏｹﾝ","kana_city":"ﾀｶｵｶｼ","kana_address":"ﾏﾂﾊﾞﾗﾁｮｳ","pref":"富山県","city":"高岡市","address":"松原町"},
{"zip_code":"9330912","kana_pref":"ﾄﾔﾏｹﾝ","kana_city":"ﾀｶｵｶｼ","kana_address":"ﾏﾙﾉｳﾁ","pref":"富山県","city":"高岡市","address":"丸の内"},
{"zip_code":"9330955","kana_pref":"ﾄﾔﾏｹﾝ","kana_city":"ﾀｶｵｶｼ","kana_address":"ﾐｽﾞﾎﾏﾁ","pref":"富山県","city":"高岡市","address":"瑞穂町"},
{"zip_code":"9330933","kana_pref":"ﾄﾔﾏｹﾝ","kana_city":"ﾀｶｵｶｼ","kana_address":"ﾐﾅﾐｻｲﾜｲﾏﾁ","pref":"富山県","city":"高岡市","address":"南幸町"},
{"zip_code":"9330873","kana_pref":"ﾄﾔﾏｹﾝ","kana_city":"ﾀｶｵｶｼ","kana_address":"ﾐﾅﾐﾀﾞﾏﾁ","pref":"富山県","city":"高岡市","address":"南田町"},
{"zip_code":"9330012","kana_pref":"ﾄﾔﾏｹﾝ","kana_city":"ﾀｶｵｶｼ","kana_address":"ﾐﾊﾗﾏﾁ","pref":"富山県","city":"高岡市","address":"美原町"},
{"zip_code":"9330956","kana_pref":"ﾄﾔﾏｹﾝ","kana_city":"ﾀｶｵｶｼ","kana_address":"ﾐﾔﾀﾏﾁ","pref":"富山県","city":"高岡市","address":"宮田町"},
{"zip_code":"9330024","kana_pref":"ﾄﾔﾏｹﾝ","kana_city":"ﾀｶｵｶｼ","kana_address":"ﾐﾔﾜｷﾁｮｳ","pref":"富山県","city":"高岡市","address":"宮脇町"},
{"zip_code":"9330954","kana_pref":"ﾄﾔﾏｹﾝ","kana_city":"ﾀｶｵｶｼ","kana_address":"ﾐﾕｷﾏﾁ","pref":"富山県","city":"高岡市","address":"美幸町"},
{"zip_code":"9330354","kana_pref":"ﾄﾔﾏｹﾝ","kana_city":"ﾀｶｵｶｼ","kana_address":"ﾑｲｶｲﾁ","pref":"富山県","city":"高岡市","address":"六日市"},
{"zip_code":"9330901","kana_pref":"ﾄﾔﾏｹﾝ","kana_city":"ﾀｶｵｶｼ","kana_address":"ﾑｶｲﾉﾎﾝﾏﾁ","pref":"富山県","city":"高岡市","address":"向野本町"},
{"zip_code":"9330902","kana_pref":"ﾄﾔﾏｹﾝ","kana_city":"ﾀｶｵｶｼ","kana_address":"ﾑｶｲﾉﾏﾁ","pref":"富山県","city":"高岡市","address":"向野町"},
{"zip_code":"9330812","kana_pref":"ﾄﾔﾏｹﾝ","kana_city":"ﾀｶｵｶｼ","kana_address":"ﾒｲﾜﾏﾁ","pref":"富山県","city":"高岡市","address":"明和町"},
{"zip_code":"9330984","kana_pref":"ﾄﾔﾏｹﾝ","kana_city":"ﾀｶｵｶｼ","kana_address":"ﾓﾘﾔﾏ","pref":"富山県","city":"高岡市","address":"守山"},
{"zip_code":"9330928","kana_pref":"ﾄﾔﾏｹﾝ","kana_city":"ﾀｶｵｶｼ","kana_address":"ﾓﾘﾔﾏﾏﾁ","pref":"富山県","city":"高岡市","address":"守山町"},
{"zip_code":"9330356","kana_pref":"ﾄﾔﾏｹﾝ","kana_city":"ﾀｶｵｶｼ","kana_address":"ﾔﾁ","pref":"富山県","city":"高岡市","address":"谷内"},
{"zip_code":"9330308","kana_pref":"ﾄﾔﾏｹﾝ","kana_city":"ﾀｶｵｶｼ","kana_address":"ﾔﾂｸﾁ","pref":"富山県","city":"高岡市","address":"八口"},
{"zip_code":"9330303","kana_pref":"ﾄﾔﾏｹﾝ","kana_city":"ﾀｶｵｶｼ","kana_address":"ﾔﾏｶﾜ","pref":"富山県","city":"高岡市","address":"山川"},
{"zip_code":"9330953","kana_pref":"ﾄﾔﾏｹﾝ","kana_city":"ﾀｶｵｶｼ","kana_address":"ﾖｺﾀ","pref":"富山県","city":"高岡市","address":"横田"},
{"zip_code":"9330849","kana_pref":"ﾄﾔﾏｹﾝ","kana_city":"ﾀｶｵｶｼ","kana_address":"ﾖｺﾀﾎﾝﾏﾁ","pref":"富山県","city":"高岡市","address":"横田本町"},
{"zip_code":"9330842","kana_pref":"ﾄﾔﾏｹﾝ","kana_city":"ﾀｶｵｶｼ","kana_address":"ﾖｺﾀﾏﾁ","pref":"富山県","city":"高岡市","address":"横田町"},
{"zip_code":"9330872","kana_pref":"ﾄﾔﾏｹﾝ","kana_city":"ﾀｶｵｶｼ","kana_address":"ﾖｼﾉ","pref":"富山県","city":"高岡市","address":"芳野"},
{"zip_code":"9330002","kana_pref":"ﾄﾔﾏｹﾝ","kana_city":"ﾀｶｵｶｼ","kana_address":"ﾖｼﾋｻ","pref":"富山県","city":"高岡市","address":"吉久"},
{"zip_code":"9330351","kana_pref":"ﾄﾔﾏｹﾝ","kana_city":"ﾀｶｵｶｼ","kana_address":"ﾖｯｶｲﾁ","pref":"富山県","city":"高岡市","address":"四日市"},
{"zip_code":"9330949","kana_pref":"ﾄﾔﾏｹﾝ","kana_city":"ﾀｶｵｶｼ","kana_address":"ﾖﾂﾔ","pref":"富山県","city":"高岡市","address":"四屋"},
{"zip_code":"9330076","kana_pref":"ﾄﾔﾏｹﾝ","kana_city":"ﾀｶｵｶｼ","kana_address":"ﾖﾈｼﾞﾏ","pref":"富山県","city":"高岡市","address":"米島"},
{"zip_code":"9330802","kana_pref":"ﾄﾔﾏｹﾝ","kana_city":"ﾀｶｵｶｼ","kana_address":"ﾚﾝｹﾞｼﾞ","pref":"富山県","city":"高岡市","address":"蓮花寺"},
{"zip_code":"9330801","kana_pref":"ﾄﾔﾏｹﾝ","kana_city":"ﾀｶｵｶｼ","kana_address":"ﾚﾝｹﾞｼﾞｼﾝﾏﾁ","pref":"富山県","city":"高岡市","address":"蓮花寺新町"},
{"zip_code":"9330321","kana_pref":"ﾄﾔﾏｹﾝ","kana_city":"ﾀｶｵｶｼ","kana_address":"ﾛｯｹ","pref":"富山県","city":"高岡市","address":"六家"},
{"zip_code":"9330831","kana_pref":"ﾄﾔﾏｹﾝ","kana_city":"ﾀｶｵｶｼ","kana_address":"ﾜｶﾄﾐﾁｮｳ","pref":"富山県","city":"高岡市","address":"若富町"},
{"zip_code":"9330331","kana_pref":"ﾄﾔﾏｹﾝ","kana_city":"ﾀｶｵｶｼ","kana_address":"ﾜｶﾎﾁｮｳ","pref":"富山県","city":"高岡市","address":"若保町"},
{"zip_code":"9330071","kana_pref":"ﾄﾔﾏｹﾝ","kana_city":"ﾀｶｵｶｼ","kana_address":"ﾜｼｷﾀｼﾝ","pref":"富山県","city":"高岡市","address":"鷲北新"},
{"zip_code":"9330832","kana_pref":"ﾄﾔﾏｹﾝ","kana_city":"ﾀｶｵｶｼ","kana_address":"ﾜﾀﾞ","pref":"富山県","city":"高岡市","address":"和田"},
{"zip_code":"9330828","kana_pref":"ﾄﾔﾏｹﾝ","kana_city":"ﾀｶｵｶｼ","kana_address":"ﾜﾀﾞｶﾐﾁｮｳ","pref":"富山県","city":"高岡市","address":"和田上町"},
{"zip_code":"9330839","kana_pref":"ﾄﾔﾏｹﾝ","kana_city":"ﾀｶｵｶｼ","kana_address":"ﾜﾀﾞﾆｼﾁｮｳ","pref":"富山県","city":"高岡市","address":"和田西町"},
{"zip_code":"9330241","kana_pref":"ﾄﾔﾏｹﾝ","kana_city":"ｲﾐｽﾞｼ","kana_address":"ｱｼｱﾗｲｼﾝﾏﾁ","pref":"富山県","city":"射水市","address":"足洗新町"},
{"zip_code":"9330251","kana_pref":"ﾄﾔﾏｹﾝ","kana_city":"ｲﾐｽﾞｼ","kana_address":"ｱﾘｿ","pref":"富山県","city":"射水市","address":"有磯"},
{"zip_code":"9330227","kana_pref":"ﾄﾔﾏｹﾝ","kana_city":"ｲﾐｽﾞｼ","kana_address":"ｲﾐｽﾞﾁｮｳ","pref":"富山県","city":"射水市","address":"射水町"},
{"zip_code":"9330233","kana_pref":"ﾄﾔﾏｹﾝ","kana_city":"ｲﾐｽﾞｼ","kana_address":"ｴﾋﾞｴ","pref":"富山県","city":"射水市","address":"海老江"},
{"zip_code":"9330234","kana_pref":"ﾄﾔﾏｹﾝ","kana_city":"ｲﾐｽﾞｼ","kana_address":"ｴﾋﾞｴｼﾁｹﾝ","pref":"富山県","city":"射水市","address":"海老江七軒"},
{"zip_code":"9330235","kana_pref":"ﾄﾔﾏｹﾝ","kana_city":"ｲﾐｽﾞｼ","kana_address":"ｴﾋﾞｴﾈﾘﾔ","pref":"富山県","city":"射水市","address":"海老江練合"},
{"zip_code":"9330231","kana_pref":"ﾄﾔﾏｹﾝ","kana_city":"ｲﾐｽﾞｼ","kana_address":"ｴﾋﾞｴﾊﾏﾋﾞﾗｷ","pref":"富山県","city":"射水市","address":"海老江浜開"},
{"zip_code":"9330222","kana_pref":"ﾄﾔﾏｹﾝ","kana_city":"ｲﾐｽﾞｼ","kana_address":"ｶｲﾘｭｳﾏﾁ","pref":"富山県","city":"射水市","address":"海竜町"},
{"zip_code":"9330205","kana_pref":"ﾄﾔﾏｹﾝ","kana_city":"ｲﾐｽﾞｼ","kana_address":"ｶﾓｾｲﾌﾞ","pref":"富山県","city":"射水市","address":"加茂西部"},
{"zip_code":"9330204","kana_pref":"ﾄﾔﾏｹﾝ","kana_city":"ｲﾐｽﾞｼ","kana_address":"ｶﾓﾁｭｳﾌﾞ","pref":"富山県","city":"射水市","address":"加茂中部"},
{"zip_code":"9330203","kana_pref":"ﾄﾔﾏｹﾝ","kana_city":"ｲﾐｽﾞｼ","kana_address":"ｶﾓﾄｳﾌﾞ","pref":"富山県","city":"射水市","address":"加茂東部"},
{"zip_code":"9330240","kana_pref":"ﾄﾔﾏｹﾝ","kana_city":"ｲﾐｽﾞｼ","kana_address":"ｶﾓﾒﾀﾞｲ","pref":"富山県","city":"射水市","address":"かもめ台"},
{"zip_code":"9330058","kana_pref":"ﾄﾔﾏｹﾝ","kana_city":"ｲﾐｽﾞｼ","kana_address":"ｶﾜｸﾞﾁﾐﾔﾌﾞｸﾛ","pref":"富山県","city":"射水市","address":"川口宮袋"},
{"zip_code":"9330225","kana_pref":"ﾄﾔﾏｹﾝ","kana_city":"ｲﾐｽﾞｼ","kana_address":"ｸｻｵｶﾁｮｳ","pref":"富山県","city":"射水市","address":"草岡町"},
{"zip_code":"9330206","kana_pref":"ﾄﾔﾏｹﾝ","kana_city":"ｲﾐｽﾞｼ","kana_address":"ｸﾗｶﾞｷｺｽｷﾞ","pref":"富山県","city":"射水市","address":"倉垣小杉"},
{"zip_code":"9330252","kana_pref":"ﾄﾔﾏｹﾝ","kana_city":"ｲﾐｽﾞｼ","kana_address":"ｼﾁﾐ","pref":"富山県","city":"射水市","address":"七美"},
{"zip_code":"9330253","kana_pref":"ﾄﾔﾏｹﾝ","kana_city":"ｲﾐｽﾞｼ","kana_address":"ｼﾁﾐﾅｶﾉ","pref":"富山県","city":"射水市","address":"七美中野"},
{"zip_code":"9330202","kana_pref":"ﾄﾔﾏｹﾝ","kana_city":"ｲﾐｽﾞｼ","kana_address":"ｼﾓﾑﾗｻﾝｶﾞ","pref":"富山県","city":"射水市","address":"下村三箇"},
{"zip_code":"9330207","kana_pref":"ﾄﾔﾏｹﾝ","kana_city":"ｲﾐｽﾞｼ","kana_address":"ｼﾗｲｼ","pref":"富山県","city":"射水市","address":"白石"},
{"zip_code":"9330209","kana_pref":"ﾄﾔﾏｹﾝ","kana_city":"ｲﾐｽﾞｼ","kana_address":"ｽﾘﾃﾞｼﾞ","pref":"富山県","city":"射水市","address":"摺出寺"},
{"zip_code":"9330236","kana_pref":"ﾄﾔﾏｹﾝ","kana_city":"ｲﾐｽﾞｼ","kana_address":"ﾄｳﾒｲｼﾁｹﾝ","pref":"富山県","city":"射水市","address":"東明七軒"},
{"zip_code":"9330238","kana_pref":"ﾄﾔﾏｹﾝ","kana_city":"ｲﾐｽﾞｼ","kana_address":"ﾄｳﾒｲﾅｶﾏﾁ","pref":"富山県","city":"射水市","address":"東明中町"},
{"zip_code":"9330239","kana_pref":"ﾄﾔﾏｹﾝ","kana_city":"ｲﾐｽﾞｼ","kana_address":"ﾄｳﾒｲﾆｼﾏﾁ","pref":"富山県","city":"射水市","address":"東明西町"},
{"zip_code":"9330237","kana_pref":"ﾄﾔﾏｹﾝ","kana_city":"ｲﾐｽﾞｼ","kana_address":"ﾄｳﾒｲﾋｶﾞｼﾏﾁ","pref":"富山県","city":"射水市","address":"東明東町"},
{"zip_code":"9330208","kana_pref":"ﾄﾔﾏｹﾝ","kana_city":"ｲﾐｽﾞｼ","kana_address":"ﾊｯｺｳ","pref":"富山県","city":"射水市","address":"八講"},
{"zip_code":"9330232","kana_pref":"ﾄﾔﾏｹﾝ","kana_city":"ｲﾐｽﾞｼ","kana_address":"ﾊﾏﾋﾞﾗｷｼﾝﾏﾁ","pref":"富山県","city":"射水市","address":"浜開新町"},
{"zip_code":"9330226","kana_pref":"ﾄﾔﾏｹﾝ","kana_city":"ｲﾐｽﾞｼ","kana_address":"ﾎﾘｴｾﾝｺﾞｸ","pref":"富山県","city":"射水市","address":"堀江千石"},
{"zip_code":"9330223","kana_pref":"ﾄﾔﾏｹﾝ","kana_city":"ｲﾐｽﾞｼ","kana_address":"ﾎﾘｵｶ","pref":"富山県","city":"射水市","address":"堀岡"},
{"zip_code":"9330224","kana_pref":"ﾄﾔﾏｹﾝ","kana_city":"ｲﾐｽﾞｼ","kana_address":"ﾎﾘｵｶﾌﾙﾐｮｳｼﾞﾝ","pref":"富山県","city":"射水市","address":"堀岡古明神"},
{"zip_code":"9330228","kana_pref":"ﾄﾔﾏｹﾝ","kana_city":"ｲﾐｽﾞｼ","kana_address":"ﾎﾘｵｶﾐｮｳｼﾞﾝｼﾝ","pref":"富山県","city":"射水市","address":"堀岡明神新"},
{"zip_code":"9330221","kana_pref":"ﾄﾔﾏｹﾝ","kana_city":"ｲﾐｽﾞｼ","kana_address":"ﾎﾘｵｶｼﾝﾐｮｳｼﾞﾝ","pref":"富山県","city":"射水市","address":"堀岡新明神"},
{"zip_code":"9330244","kana_pref":"ﾄﾔﾏｹﾝ","kana_city":"ｲﾐｽﾞｼ","kana_address":"ﾎﾝｺﾞｳ","pref":"富山県","city":"射水市","address":"本江"},
{"zip_code":"9330243","kana_pref":"ﾄﾔﾏｹﾝ","kana_city":"ｲﾐｽﾞｼ","kana_address":"ﾎﾝｺﾞｳ","pref":"富山県","city":"射水市","address":"本江"},
{"zip_code":"9330246","kana_pref":"ﾄﾔﾏｹﾝ","kana_city":"ｲﾐｽﾞｼ","kana_address":"ﾎﾝｺﾞｳ","pref":"富山県","city":"射水市","address":"本江"},
{"zip_code":"9330244","kana_pref":"ﾄﾔﾏｹﾝ","kana_city":"ｲﾐｽﾞｼ","kana_address":"ﾎﾝｺﾞｳｷﾀ","pref":"富山県","city":"射水市","address":"本江北"},
{"zip_code":"9330244","kana_pref":"ﾄﾔﾏｹﾝ","kana_city":"ｲﾐｽﾞｼ","kana_address":"ﾎﾝｺﾞｳｻﾝｶﾞ","pref":"富山県","city":"射水市","address":"本江三箇"},
{"zip_code":"9330245","kana_pref":"ﾄﾔﾏｹﾝ","kana_city":"ｲﾐｽﾞｼ","kana_address":"ﾎﾝｺﾞｳﾄﾅﾐ","pref":"富山県","city":"射水市","address":"本江利波"},
{"zip_code":"9330244","kana_pref":"ﾄﾔﾏｹﾝ","kana_city":"ｲﾐｽﾞｼ","kana_address":"ﾎﾝｺﾞｳﾅｶ","pref":"富山県","city":"射水市","address":"本江中"},
{"zip_code":"9330247","kana_pref":"ﾄﾔﾏｹﾝ","kana_city":"ｲﾐｽﾞｼ","kana_address":"ﾎﾝｺﾞｳﾅｶｼﾝ","pref":"富山県","city":"射水市","address":"本江中新"},
{"zip_code":"9330244","kana_pref":"ﾄﾔﾏｹﾝ","kana_city":"ｲﾐｽﾞｼ","kana_address":"ﾎﾝｺﾞｳﾆｼ","pref":"富山県","city":"射水市","address":"本江西"},
{"zip_code":"9330244","kana_pref":"ﾄﾔﾏｹﾝ","kana_city":"ｲﾐｽﾞｼ","kana_address":"ﾎﾝｺﾞｳﾉﾁｼﾝ","pref":"富山県","city":"射水市","address":"本江後新"},
{"zip_code":"9330248","kana_pref":"ﾄﾔﾏｹﾝ","kana_city":"ｲﾐｽﾞｼ","kana_address":"ﾎﾝｺﾞｳﾊﾘﾔﾏ","pref":"富山県","city":"射水市","address":"本江針山"},
{"zip_code":"9330249","kana_pref":"ﾄﾔﾏｹﾝ","kana_city":"ｲﾐｽﾞｼ","kana_address":"ﾎﾝｺﾞｳﾊﾘﾔﾏｼﾝ","pref":"富山県","city":"射水市","address":"本江針山新"},
{"zip_code":"9330242","kana_pref":"ﾄﾔﾏｹﾝ","kana_city":"ｲﾐｽﾞｼ","kana_address":"ﾎﾝｺﾞｳﾊﾘﾔﾏﾋﾞﾗｷ","pref":"富山県","city":"射水市","address":"本江針山開"},
{"zip_code":"9330244","kana_pref":"ﾄﾔﾏｹﾝ","kana_city":"ｲﾐｽﾞｼ","kana_address":"ﾎﾝｺﾞｳﾋｶﾞｼ","pref":"富山県","city":"射水市","address":"本江東"},
{"zip_code":"9330244","kana_pref":"ﾄﾔﾏｹﾝ","kana_city":"ｲﾐｽﾞｼ","kana_address":"ﾎﾝｺﾞｳﾐﾅﾐ","pref":"富山県","city":"射水市","address":"本江南"},
{"zip_code":"9330201","kana_pref":"ﾄﾔﾏｹﾝ","kana_city":"ｲﾐｽﾞｼ","kana_address":"ﾔﾏﾔ","pref":"富山県","city":"射水市","address":"山屋"}]}