{"zip_code":[
{"zip_code":"9340095","kana_pref":"ﾄﾔﾏｹﾝ","kana_city":"ﾀｶｵｶｼ","kana_address":"ｲｼﾏﾙ","pref":"富山県","city":"高岡市","address":"石丸"},
{"zip_code":"9340096","kana_pref":"ﾄﾔﾏｹﾝ","kana_city":"ﾀｶｵｶｼ","kana_address":"ｶﾅﾔ","pref":"富山県","city":"高岡市","address":"金屋"},
{"zip_code":"9340098","kana_pref":"ﾄﾔﾏｹﾝ","kana_city":"ﾀｶｵｶｼ","kana_address":"ｶﾐﾏｷﾉ","pref":"富山県","city":"高岡市","address":"上牧野"},
{"zip_code":"9340091","kana_pref":"ﾄﾔﾏｹﾝ","kana_city":"ﾀｶｵｶｼ","kana_address":"ｼﾓﾏｷﾉ","pref":"富山県","city":"高岡市","address":"下牧野"},
{"zip_code":"9340092","kana_pref":"ﾄﾔﾏｹﾝ","kana_city":"ﾀｶｵｶｼ","kana_address":"ﾅｶｿﾈ","pref":"富山県","city":"高岡市","address":"中曾根"},
{"zip_code":"9340093","kana_pref":"ﾄﾔﾏｹﾝ","kana_city":"ﾀｶｵｶｼ","kana_address":"ﾋﾒﾉ","pref":"富山県","city":"高岡市","address":"姫野"},
{"zip_code":"9340093","kana_pref":"ﾄﾔﾏｹﾝ","kana_city":"ﾀｶｵｶｼ","kana_address":"ﾎｳｼﾞｮｳﾂﾞ","pref":"富山県","city":"高岡市","address":"放生津"},
{"zip_code":"9340094","kana_pref":"ﾄﾔﾏｹﾝ","kana_city":"ﾀｶｵｶｼ","kana_address":"ﾎﾘｵｶﾏﾀｼﾝ","pref":"富山県","city":"高岡市","address":"堀岡又新"},
{"zip_code":"9340097","kana_pref":"ﾄﾔﾏｹﾝ","kana_city":"ﾀｶｵｶｼ","kana_address":"ﾏｷﾉｶﾅﾔ","pref":"富山県","city":"高岡市","address":"牧野金屋"},
{"zip_code":"9340099","kana_pref":"ﾄﾔﾏｹﾝ","kana_city":"ﾀｶｵｶｼ","kana_address":"ﾜｶﾊﾞﾁｮｳ","pref":"富山県","city":"高岡市","address":"若葉町"},
{"zip_code":"9340046","kana_pref":"ﾄﾔﾏｹﾝ","kana_city":"ｲﾐｽﾞｼ","kana_address":"ｲﾏｲ","pref":"富山県","city":"射水市","address":"今井"},
{"zip_code":"9340045","kana_pref":"ﾄﾔﾏｹﾝ","kana_city":"ｲﾐｽﾞｼ","kana_address":"ｵｷ","pref":"富山県","city":"射水市","address":"沖"},
{"zip_code":"9340055","kana_pref":"ﾄﾔﾏｹﾝ","kana_city":"ｲﾐｽﾞｼ","kana_address":"ｵｷﾂｶﾊﾗ","pref":"富山県","city":"射水市","address":"沖塚原"},
{"zip_code":"9340023","kana_pref":"ﾄﾔﾏｹﾝ","kana_city":"ｲﾐｽﾞｼ","kana_address":"ｶｲｵｳﾏﾁ","pref":"富山県","city":"射水市","address":"海王町"},
{"zip_code":"9340049","kana_pref":"ﾄﾔﾏｹﾝ","kana_city":"ｲﾐｽﾞｼ","kana_address":"ｶｶﾞﾉﾐﾔ","pref":"富山県","city":"射水市","address":"鏡宮"},
{"zip_code":"9340040","kana_pref":"ﾄﾔﾏｹﾝ","kana_city":"ｲﾐｽﾞｼ","kana_address":"ｶｶﾞﾉﾐﾔﾔﾖｲ","pref":"富山県","city":"射水市","address":"鏡宮弥生"},
{"zip_code":"9340054","kana_pref":"ﾄﾔﾏｹﾝ","kana_city":"ｲﾐｽﾞｼ","kana_address":"ｶｸﾞﾗﾏﾁ","pref":"富山県","city":"射水市","address":"神楽町"},
{"zip_code":"9340032","kana_pref":"ﾄﾔﾏｹﾝ","kana_city":"ｲﾐｽﾞｼ","kana_address":"ｶﾀｸﾞﾁ","pref":"富山県","city":"射水市","address":"片口"},
{"zip_code":"9340037","kana_pref":"ﾄﾔﾏｹﾝ","kana_city":"ｲﾐｽﾞｼ","kana_address":"ｶﾀｸﾞﾁｸｸﾞｴ","pref":"富山県","city":"射水市","address":"片口久々江"},
{"zip_code":"9340036","kana_pref":"ﾄﾔﾏｹﾝ","kana_city":"ｲﾐｽﾞｼ","kana_address":"ｶﾀｸﾞﾁﾀｶﾊﾞ","pref":"富山県","city":"射水市","address":"片口高場"},
{"zip_code":"9340058","kana_pref":"ﾄﾔﾏｹﾝ","kana_city":"ｲﾐｽﾞｼ","kana_address":"ｶﾜｸﾞﾁ","pref":"富山県","city":"射水市","address":"川口"},
{"zip_code":"9340039","kana_pref":"ﾄﾔﾏｹﾝ","kana_city":"ｲﾐｽﾞｼ","kana_address":"ｸｸﾞﾐﾅﾄ","pref":"富山県","city":"射水市","address":"久々湊"},
{"zip_code":"9340024","kana_pref":"ﾄﾔﾏｹﾝ","kana_city":"ｲﾐｽﾞｼ","kana_address":"ｺｼﾉｶﾀﾏﾁ","pref":"富山県","city":"射水市","address":"越の潟町"},
{"zip_code":"9340015","kana_pref":"ﾄﾔﾏｹﾝ","kana_city":"ｲﾐｽﾞｼ","kana_address":"ｻｸﾗﾏﾁ","pref":"富山県","city":"射水市","address":"桜町"},
{"zip_code":"9340003","kana_pref":"ﾄﾔﾏｹﾝ","kana_city":"ｲﾐｽﾞｼ","kana_address":"ｼｮｳｶﾞﾜﾎﾝﾏﾁ","pref":"富山県","city":"射水市","address":"庄川本町"},
{"zip_code":"9340001","kana_pref":"ﾄﾔﾏｹﾝ","kana_city":"ｲﾐｽﾞｼ","kana_address":"ｼｮｳｾｲﾏﾁ","pref":"富山県","city":"射水市","address":"庄西町"},
{"zip_code":"9340033","kana_pref":"ﾄﾔﾏｹﾝ","kana_city":"ｲﾐｽﾞｼ","kana_address":"ｼﾝｶﾀﾏﾁ","pref":"富山県","city":"射水市","address":"新片町"},
{"zip_code":"9340035","kana_pref":"ﾄﾔﾏｹﾝ","kana_city":"ｲﾐｽﾞｼ","kana_address":"ｼﾝﾎﾞﾘ","pref":"富山県","city":"射水市","address":"新堀"},
{"zip_code":"9340005","kana_pref":"ﾄﾔﾏｹﾝ","kana_city":"ｲﾐｽﾞｼ","kana_address":"ｾﾞﾝｺｳｼﾞ","pref":"富山県","city":"射水市","address":"善光寺"},
{"zip_code":"9340047","kana_pref":"ﾄﾔﾏｹﾝ","kana_city":"ｲﾐｽﾞｼ","kana_address":"ﾀｶｷ","pref":"富山県","city":"射水市","address":"高木"},
{"zip_code":"9340034","kana_pref":"ﾄﾔﾏｹﾝ","kana_city":"ｲﾐｽﾞｼ","kana_address":"ﾀｶﾊﾞｼﾝﾏﾁ","pref":"富山県","city":"射水市","address":"高場新町"},
{"zip_code":"9340013","kana_pref":"ﾄﾔﾏｹﾝ","kana_city":"ｲﾐｽﾞｼ","kana_address":"ﾀﾃﾏﾁ","pref":"富山県","city":"射水市","address":"立町"},
{"zip_code":"9340012","kana_pref":"ﾄﾔﾏｹﾝ","kana_city":"ｲﾐｽﾞｼ","kana_address":"ﾁｭｳｵｳﾏﾁ","pref":"富山県","city":"射水市","address":"中央町"},
{"zip_code":"9340041","kana_pref":"ﾄﾔﾏｹﾝ","kana_city":"ｲﾐｽﾞｼ","kana_address":"ﾂｸﾘﾐﾁ","pref":"富山県","city":"射水市","address":"作道"},
{"zip_code":"9340042","kana_pref":"ﾄﾔﾏｹﾝ","kana_city":"ｲﾐｽﾞｼ","kana_address":"ﾂｸﾘﾐﾁ","pref":"富山県","city":"射水市","address":"作道"},
{"zip_code":"9340038","kana_pref":"ﾄﾔﾏｹﾝ","kana_city":"ｲﾐｽﾞｼ","kana_address":"ﾂﾊﾞﾀｴ","pref":"富山県","city":"射水市","address":"津幡江"},
{"zip_code":"9340056","kana_pref":"ﾄﾔﾏｹﾝ","kana_city":"ｲﾐｽﾞｼ","kana_address":"ﾃﾗﾂｶﾊﾗ","pref":"富山県","city":"射水市","address":"寺塚原"},
{"zip_code":"9340044","kana_pref":"ﾄﾔﾏｹﾝ","kana_city":"ｲﾐｽﾞｼ","kana_address":"ﾄﾉﾑﾗ","pref":"富山県","city":"射水市","address":"殿村"},
{"zip_code":"9340027","kana_pref":"ﾄﾔﾏｹﾝ","kana_city":"ｲﾐｽﾞｼ","kana_address":"ﾅｶｼﾝﾐﾅﾄ","pref":"富山県","city":"射水市","address":"中新湊"},
{"zip_code":"9340031","kana_pref":"ﾄﾔﾏｹﾝ","kana_city":"ｲﾐｽﾞｼ","kana_address":"ﾅｺﾞﾉｴ","pref":"富山県","city":"射水市","address":"奈呉の江"},
{"zip_code":"9340004","kana_pref":"ﾄﾔﾏｹﾝ","kana_city":"ｲﾐｽﾞｼ","kana_address":"ﾆｼｼﾝﾐﾅﾄ","pref":"富山県","city":"射水市","address":"西新湊"},
{"zip_code":"9340026","kana_pref":"ﾄﾔﾏｹﾝ","kana_city":"ｲﾐｽﾞｼ","kana_address":"ﾆﾉﾏﾙﾏﾁ","pref":"富山県","city":"射水市","address":"二の丸町"},
{"zip_code":"9340048","kana_pref":"ﾄﾔﾏｹﾝ","kana_city":"ｲﾐｽﾞｼ","kana_address":"ﾇﾉﾒ","pref":"富山県","city":"射水市","address":"布目"},
{"zip_code":"9340043","kana_pref":"ﾄﾔﾏｹﾝ","kana_city":"ｲﾐｽﾞｼ","kana_address":"ﾉﾑﾗ","pref":"富山県","city":"射水市","address":"野村"},
{"zip_code":"9340025","kana_pref":"ﾄﾔﾏｹﾝ","kana_city":"ｲﾐｽﾞｼ","kana_address":"ﾊﾁﾏﾝﾏﾁ","pref":"富山県","city":"射水市","address":"八幡町"},
{"zip_code":"9340057","kana_pref":"ﾄﾔﾏｹﾝ","kana_city":"ｲﾐｽﾞｼ","kana_address":"ﾊﾞﾝﾄﾞｳ","pref":"富山県","city":"射水市","address":"坂東"},
{"zip_code":"9340022","kana_pref":"ﾄﾔﾏｹﾝ","kana_city":"ｲﾐｽﾞｼ","kana_address":"ﾎｳｼﾞｮｳﾂﾞﾏﾁ","pref":"富山県","city":"射水市","address":"放生津町"},
{"zip_code":"9340053","kana_pref":"ﾄﾔﾏｹﾝ","kana_city":"ｲﾐｽﾞｼ","kana_address":"ﾎｵﾉｷ","pref":"富山県","city":"射水市","address":"朴木"},
{"zip_code":"9340021","kana_pref":"ﾄﾔﾏｹﾝ","kana_city":"ｲﾐｽﾞｼ","kana_address":"ﾎﾘｵｶｼﾝﾐｮｳｼﾞﾝ","pref":"富山県","city":"射水市","address":"堀岡新明神"},
{"zip_code":"9340011","kana_pref":"ﾄﾔﾏｹﾝ","kana_city":"ｲﾐｽﾞｼ","kana_address":"ﾎﾝﾏﾁ","pref":"富山県","city":"射水市","address":"本町"},
{"zip_code":"9340052","kana_pref":"ﾄﾔﾏｹﾝ","kana_city":"ｲﾐｽﾞｼ","kana_address":"ﾏﾂﾉｷ","pref":"富山県","city":"射水市","address":"松木"},
{"zip_code":"9340016","kana_pref":"ﾄﾔﾏｹﾝ","kana_city":"ｲﾐｽﾞｼ","kana_address":"ﾐｯｶｿﾈ","pref":"富山県","city":"射水市","address":"三日曽根"},
{"zip_code":"9340014","kana_pref":"ﾄﾔﾏｹﾝ","kana_city":"ｲﾐｽﾞｼ","kana_address":"ﾐﾄﾞﾘﾏﾁ","pref":"富山県","city":"射水市","address":"緑町"},
{"zip_code":"9340002","kana_pref":"ﾄﾔﾏｹﾝ","kana_city":"ｲﾐｽﾞｼ","kana_address":"ﾐﾅﾄﾏﾁ","pref":"富山県","city":"射水市","address":"港町"},
{"zip_code":"9340051","kana_pref":"ﾄﾔﾏｹﾝ","kana_city":"ｲﾐｽﾞｼ","kana_address":"ﾐﾔﾌﾞｸﾛ","pref":"富山県","city":"射水市","address":"宮袋"}]}