{"zip_code":[
{"zip_code":"9350000","kana_pref":"ﾄﾔﾏｹﾝ","kana_city":"ﾋﾐｼ","kana_address":"","pref":"富山県","city":"氷見市","address":""},
{"zip_code":"9350002","kana_pref":"ﾄﾔﾏｹﾝ","kana_city":"ﾋﾐｼ","kana_address":"ｱｵ","pref":"富山県","city":"氷見市","address":"阿尾"},
{"zip_code":"9350274","kana_pref":"ﾄﾔﾏｹﾝ","kana_city":"ﾋﾐｼ","kana_address":"ｱｶｹﾞ","pref":"富山県","city":"氷見市","address":"赤毛"},
{"zip_code":"9350023","kana_pref":"ﾄﾔﾏｹﾝ","kana_city":"ﾋﾐｼ","kana_address":"ｱｻﾋｶﾞｵｶ","pref":"富山県","city":"氷見市","address":"朝日丘"},
{"zip_code":"9350022","kana_pref":"ﾄﾔﾏｹﾝ","kana_city":"ﾋﾐｼ","kana_address":"ｱｻﾋﾎﾝﾏﾁ","pref":"富山県","city":"氷見市","address":"朝日本町"},
{"zip_code":"9350343","kana_pref":"ﾄﾔﾏｹﾝ","kana_city":"ﾋﾐｼ","kana_address":"ｱｼﾞｶﾜ","pref":"富山県","city":"氷見市","address":"味川"},
{"zip_code":"9350054","kana_pref":"ﾄﾔﾏｹﾝ","kana_city":"ﾋﾐｼ","kana_address":"ｱﾜﾗ","pref":"富山県","city":"氷見市","address":"粟原"},
{"zip_code":"9350426","kana_pref":"ﾄﾔﾏｹﾝ","kana_city":"ﾋﾐｼ","kana_address":"ｲｶﾀﾞﾆ","pref":"富山県","city":"氷見市","address":"五十谷"},
{"zip_code":"9350112","kana_pref":"ﾄﾔﾏｹﾝ","kana_city":"ﾋﾐｼ","kana_address":"ｲｸﾎﾞ","pref":"富山県","city":"氷見市","address":"飯久保"},
{"zip_code":"9350065","kana_pref":"ﾄﾔﾏｹﾝ","kana_city":"ﾋﾐｼ","kana_address":"ｲｽﾞﾐ","pref":"富山県","city":"氷見市","address":"泉"},
{"zip_code":"9350015","kana_pref":"ﾄﾔﾏｹﾝ","kana_city":"ﾋﾐｼ","kana_address":"ｲｾｵｵﾏﾁ","pref":"富山県","city":"氷見市","address":"伊勢大町"},
{"zip_code":"9350338","kana_pref":"ﾄﾔﾏｹﾝ","kana_city":"ﾋﾐｼ","kana_address":"ｲｿﾍﾞ","pref":"富山県","city":"氷見市","address":"磯辺"},
{"zip_code":"9350278","kana_pref":"ﾄﾔﾏｹﾝ","kana_city":"ﾋﾐｼ","kana_address":"ｲﾁﾉｼﾏ","pref":"富山県","city":"氷見市","address":"一の島"},
{"zip_code":"9350006","kana_pref":"ﾄﾔﾏｹﾝ","kana_city":"ﾋﾐｼ","kana_address":"ｲﾅﾂﾞﾐ","pref":"富山県","city":"氷見市","address":"稲積"},
{"zip_code":"9350272","kana_pref":"ﾄﾔﾏｹﾝ","kana_city":"ﾋﾐｼ","kana_address":"ｲﾜｶﾞｾ","pref":"富山県","city":"氷見市","address":"岩瀬"},
{"zip_code":"9350422","kana_pref":"ﾄﾔﾏｹﾝ","kana_city":"ﾋﾐｼ","kana_address":"ｳﾅﾐ","pref":"富山県","city":"氷見市","address":"宇波"},
{"zip_code":"9350056","kana_pref":"ﾄﾔﾏｹﾝ","kana_city":"ﾋﾐｼ","kana_address":"ｳﾜﾀﾞ","pref":"富山県","city":"氷見市","address":"上田"},
{"zip_code":"9350271","kana_pref":"ﾄﾔﾏｹﾝ","kana_city":"ﾋﾐｼ","kana_address":"ｵｲﾀﾞﾆ","pref":"富山県","city":"氷見市","address":"老谷"},
{"zip_code":"9350103","kana_pref":"ﾄﾔﾏｹﾝ","kana_city":"ﾋﾐｼ","kana_address":"ｵｵｳﾗ","pref":"富山県","city":"氷見市","address":"大浦"},
{"zip_code":"9350101","kana_pref":"ﾄﾔﾏｹﾝ","kana_city":"ﾋﾐｼ","kana_address":"ｵｵｳﾗｼﾝﾏﾁ","pref":"富山県","city":"氷見市","address":"大浦新町"},
{"zip_code":"9350416","kana_pref":"ﾄﾔﾏｹﾝ","kana_city":"ﾋﾐｼ","kana_address":"ｵｵｸﾎﾞ","pref":"富山県","city":"氷見市","address":"大窪"},
{"zip_code":"9350412","kana_pref":"ﾄﾔﾏｹﾝ","kana_city":"ﾋﾐｼ","kana_address":"ｵｵｻﾞｶｲ","pref":"富山県","city":"氷見市","address":"大境"},
{"zip_code":"9350026","kana_pref":"ﾄﾔﾏｹﾝ","kana_city":"ﾋﾐｼ","kana_address":"ｵｵﾉ","pref":"富山県","city":"氷見市","address":"大野"},
{"zip_code":"9350027","kana_pref":"ﾄﾔﾏｹﾝ","kana_city":"ﾋﾐｼ","kana_address":"ｵｵﾉｼﾝ","pref":"富山県","city":"氷見市","address":"大野新"},
{"zip_code":"9350257","kana_pref":"ﾄﾔﾏｹﾝ","kana_city":"ﾋﾐｼ","kana_address":"ｵｸﾎﾞ","pref":"富山県","city":"氷見市","address":"小窪"},
{"zip_code":"9350263","kana_pref":"ﾄﾔﾏｹﾝ","kana_city":"ﾋﾐｼ","kana_address":"ｵｸﾞﾒ","pref":"富山県","city":"氷見市","address":"小久米"},
{"zip_code":"9350337","kana_pref":"ﾄﾔﾏｹﾝ","kana_city":"ﾋﾐｼ","kana_address":"ｵﾀｷ","pref":"富山県","city":"氷見市","address":"小滝"},
{"zip_code":"9350034","kana_pref":"ﾄﾔﾏｹﾝ","kana_city":"ﾋﾐｼ","kana_address":"ｵﾀﾞｹ","pref":"富山県","city":"氷見市","address":"小竹"},
{"zip_code":"9350045","kana_pref":"ﾄﾔﾏｹﾝ","kana_city":"ﾋﾐｼ","kana_address":"ｶｲﾂﾞ","pref":"富山県","city":"氷見市","address":"海津"},
{"zip_code":"9350067","kana_pref":"ﾄﾔﾏｹﾝ","kana_city":"ﾋﾐｼ","kana_address":"ｶｷﾅﾔ","pref":"富山県","city":"氷見市","address":"柿谷"},
{"zip_code":"9350331","kana_pref":"ﾄﾔﾏｹﾝ","kana_city":"ﾋﾐｼ","kana_address":"ｶｸﾏ","pref":"富山県","city":"氷見市","address":"角間"},
{"zip_code":"9350346","kana_pref":"ﾄﾔﾏｹﾝ","kana_city":"ﾋﾐｼ","kana_address":"ｶｹﾌﾀﾞ","pref":"富山県","city":"氷見市","address":"懸札"},
{"zip_code":"9350063","kana_pref":"ﾄﾔﾏｹﾝ","kana_city":"ﾋﾐｼ","kana_address":"ｶﾉｳ","pref":"富山県","city":"氷見市","address":"加納"},
{"zip_code":"9350037","kana_pref":"ﾄﾔﾏｹﾝ","kana_city":"ﾋﾐｼ","kana_address":"ｶﾐｲｽﾞﾐ","pref":"富山県","city":"氷見市","address":"上泉"},
{"zip_code":"9350047","kana_pref":"ﾄﾔﾏｹﾝ","kana_city":"ﾋﾐｼ","kana_address":"ｶﾐｸﾂﾞﾛ","pref":"富山県","city":"氷見市","address":"上久津呂"},
{"zip_code":"9350035","kana_pref":"ﾄﾔﾏｹﾝ","kana_city":"ﾋﾐｼ","kana_address":"ｶﾐﾀｺ","pref":"富山県","city":"氷見市","address":"上田子"},
{"zip_code":"9350344","kana_pref":"ﾄﾔﾏｹﾝ","kana_city":"ﾋﾐｼ","kana_address":"ｶﾐﾖｶﾜ","pref":"富山県","city":"氷見市","address":"上余川"},
{"zip_code":"9350043","kana_pref":"ﾄﾔﾏｹﾝ","kana_city":"ﾋﾐｼ","kana_address":"ｶﾜｻｷ","pref":"富山県","city":"氷見市","address":"川崎"},
{"zip_code":"9350044","kana_pref":"ﾄﾔﾏｹﾝ","kana_city":"ﾋﾐｼ","kana_address":"ｶﾜｼﾘ","pref":"富山県","city":"氷見市","address":"川尻"},
{"zip_code":"9350105","kana_pref":"ﾄﾔﾏｹﾝ","kana_city":"ﾋﾐｼ","kana_address":"ｶﾜﾀ","pref":"富山県","city":"氷見市","address":"蒲田"},
{"zip_code":"9350004","kana_pref":"ﾄﾔﾏｹﾝ","kana_city":"ﾋﾐｼ","kana_address":"ｷﾀｵｵﾏﾁ","pref":"富山県","city":"氷見市","address":"北大町"},
{"zip_code":"9350001","kana_pref":"ﾄﾔﾏｹﾝ","kana_city":"ﾋﾐｼ","kana_address":"ｷﾀﾔｼﾛ","pref":"富山県","city":"氷見市","address":"北八代"},
{"zip_code":"9350268","kana_pref":"ﾄﾔﾏｹﾝ","kana_city":"ﾋﾐｼ","kana_address":"ｸｽﾞﾊﾞ","pref":"富山県","city":"氷見市","address":"葛葉"},
{"zip_code":"9350336","kana_pref":"ﾄﾔﾏｹﾝ","kana_city":"ﾋﾐｼ","kana_address":"ｸﾆﾐ","pref":"富山県","city":"氷見市","address":"国見"},
{"zip_code":"9350024","kana_pref":"ﾄﾔﾏｹﾝ","kana_city":"ﾋﾐｼ","kana_address":"ｸﾎﾞ","pref":"富山県","city":"氷見市","address":"窪"},
{"zip_code":"9350251","kana_pref":"ﾄﾔﾏｹﾝ","kana_city":"ﾋﾐｼ","kana_address":"ｸﾏﾅｼ","pref":"富山県","city":"氷見市","address":"熊無"},
{"zip_code":"9350265","kana_pref":"ﾄﾔﾏｹﾝ","kana_city":"ﾋﾐｼ","kana_address":"ｸﾒ","pref":"富山県","city":"氷見市","address":"久目"},
{"zip_code":"9350025","kana_pref":"ﾄﾔﾏｹﾝ","kana_city":"ﾋﾐｼ","kana_address":"ｸﾗｶﾜ","pref":"富山県","city":"氷見市","address":"鞍川"},
{"zip_code":"9350115","kana_pref":"ﾄﾔﾏｹﾝ","kana_city":"ﾋﾐｼ","kana_address":"ｸﾗﾎﾞﾈ","pref":"富山県","city":"氷見市","address":"鞍骨"},
{"zip_code":"9350335","kana_pref":"ﾄﾔﾏｹﾝ","kana_city":"ﾋﾐｼ","kana_address":"ｸﾙﾐ","pref":"富山県","city":"氷見市","address":"胡桃"},
{"zip_code":"9350273","kana_pref":"ﾄﾔﾏｹﾝ","kana_city":"ﾋﾐｼ","kana_address":"ｸﾜﾉｲﾝ","pref":"富山県","city":"氷見市","address":"桑院"},
{"zip_code":"9350042","kana_pref":"ﾄﾔﾏｹﾝ","kana_city":"ﾋﾐｼ","kana_address":"ｺｳｺｳ","pref":"富山県","city":"氷見市","address":"湖光"},
{"zip_code":"9350106","kana_pref":"ﾄﾔﾏｹﾝ","kana_city":"ﾋﾐｼ","kana_address":"ｺｳｼﾞﾛ","pref":"富山県","city":"氷見市","address":"神代"},
{"zip_code":"9350413","kana_pref":"ﾄﾔﾏｹﾝ","kana_city":"ﾋﾐｼ","kana_address":"ｺｻﾞｶｲ","pref":"富山県","city":"氷見市","address":"小境"},
{"zip_code":"9350424","kana_pref":"ﾄﾔﾏｹﾝ","kana_city":"ﾋﾐｼ","kana_address":"ｺｽｷﾞ","pref":"富山県","city":"氷見市","address":"小杉"},
{"zip_code":"9350021","kana_pref":"ﾄﾔﾏｹﾝ","kana_city":"ﾋﾐｼ","kana_address":"ｻｲﾜｲﾁｮｳ","pref":"富山県","city":"氷見市","address":"幸町"},
{"zip_code":"9350005","kana_pref":"ﾄﾔﾏｹﾝ","kana_city":"ﾋﾐｼ","kana_address":"ｻｶｴﾏﾁ","pref":"富山県","city":"氷見市","address":"栄町"},
{"zip_code":"9350052","kana_pref":"ﾄﾔﾏｹﾝ","kana_city":"ﾋﾐｼ","kana_address":"ｻｶﾂ","pref":"富山県","city":"氷見市","address":"坂津"},
{"zip_code":"9350007","kana_pref":"ﾄﾔﾏｹﾝ","kana_city":"ﾋﾐｼ","kana_address":"ｻｯｻｷ","pref":"富山県","city":"氷見市","address":"指崎"},
{"zip_code":"9350014","kana_pref":"ﾄﾔﾏｹﾝ","kana_city":"ﾋﾐｼ","kana_address":"ｼﾞｿﾞｳﾏﾁ","pref":"富山県","city":"氷見市","address":"地蔵町"},
{"zip_code":"9350066","kana_pref":"ﾄﾔﾏｹﾝ","kana_city":"ﾋﾐｼ","kana_address":"ｼﾁﾌﾞｲﾁ","pref":"富山県","city":"氷見市","address":"七分一"},
{"zip_code":"9350032","kana_pref":"ﾄﾔﾏｹﾝ","kana_city":"ﾋﾐｼ","kana_address":"ｼﾏｵ","pref":"富山県","city":"氷見市","address":"島尾"},
{"zip_code":"9350046","kana_pref":"ﾄﾔﾏｹﾝ","kana_city":"ﾋﾐｼ","kana_address":"ｼﾓｸﾂﾞﾛ","pref":"富山県","city":"氷見市","address":"下久津呂"},
{"zip_code":"9350036","kana_pref":"ﾄﾔﾏｹﾝ","kana_city":"ﾋﾐｼ","kana_address":"ｼﾓﾀｺ","pref":"富山県","city":"氷見市","address":"下田子"},
{"zip_code":"9350051","kana_pref":"ﾄﾔﾏｹﾝ","kana_city":"ﾋﾐｼ","kana_address":"ｼﾞｭｳﾆﾁｮｳ","pref":"富山県","city":"氷見市","address":"十二町"},
{"zip_code":"9350414","kana_pref":"ﾄﾔﾏｹﾝ","kana_city":"ﾋﾐｼ","kana_address":"ｼﾗｶﾞﾜ","pref":"富山県","city":"氷見市","address":"白川"},
{"zip_code":"9350254","kana_pref":"ﾄﾔﾏｹﾝ","kana_city":"ﾋﾐｼ","kana_address":"ｼﾝﾎﾞ","pref":"富山県","city":"氷見市","address":"新保"},
{"zip_code":"9350411","kana_pref":"ﾄﾔﾏｹﾝ","kana_city":"ﾋﾐｼ","kana_address":"ｽｶﾞﾀ","pref":"富山県","city":"氷見市","address":"姿"},
{"zip_code":"9350062","kana_pref":"ﾄﾔﾏｹﾝ","kana_city":"ﾋﾐｼ","kana_address":"ｽﾜﾉ","pref":"富山県","city":"氷見市","address":"諏訪野"},
{"zip_code":"9350113","kana_pref":"ﾄﾔﾏｹﾝ","kana_city":"ﾋﾐｼ","kana_address":"ｿｳﾘｮｳ","pref":"富山県","city":"氷見市","address":"惣領"},
{"zip_code":"9350041","kana_pref":"ﾄﾔﾏｹﾝ","kana_city":"ﾋﾐｼ","kana_address":"ｿﾉ","pref":"富山県","city":"氷見市","address":"園"},
{"zip_code":"9350406","kana_pref":"ﾄﾔﾏｹﾝ","kana_city":"ﾋﾐｼ","kana_address":"ﾀﾞｲﾗ","pref":"富山県","city":"氷見市","address":"平"},
{"zip_code":"9350256","kana_pref":"ﾄﾔﾏｹﾝ","kana_city":"ﾋﾐｼ","kana_address":"ﾀｴ","pref":"富山県","city":"氷見市","address":"田江"},
{"zip_code":"9350277","kana_pref":"ﾄﾔﾏｹﾝ","kana_city":"ﾋﾐｼ","kana_address":"ﾀﾅｶﾞｹ","pref":"富山県","city":"氷見市","address":"棚懸"},
{"zip_code":"9350253","kana_pref":"ﾄﾔﾏｹﾝ","kana_city":"ﾋﾐｼ","kana_address":"ﾀﾆﾔ","pref":"富山県","city":"氷見市","address":"谷屋"},
{"zip_code":"9350011","kana_pref":"ﾄﾔﾏｹﾝ","kana_city":"ﾋﾐｼ","kana_address":"ﾁｭｳｵｳﾏﾁ","pref":"富山県","city":"氷見市","address":"中央町"},
{"zip_code":"9350275","kana_pref":"ﾄﾔﾏｹﾝ","kana_city":"ﾋﾐｼ","kana_address":"ﾂﾁｸﾗ","pref":"富山県","city":"氷見市","address":"土倉"},
{"zip_code":"9350276","kana_pref":"ﾄﾔﾏｹﾝ","kana_city":"ﾋﾐｼ","kana_address":"ﾂﾎﾞｲｹ","pref":"富山県","city":"氷見市","address":"坪池"},
{"zip_code":"9350345","kana_pref":"ﾄﾔﾏｹﾝ","kana_city":"ﾋﾐｼ","kana_address":"ﾃﾗｵ","pref":"富山県","city":"氷見市","address":"寺尾"},
{"zip_code":"9350269","kana_pref":"ﾄﾔﾏｹﾝ","kana_city":"ﾋﾐｼ","kana_address":"ﾄｺﾅﾍﾞ","pref":"富山県","city":"氷見市","address":"床鍋"},
{"zip_code":"9350415","kana_pref":"ﾄﾔﾏｹﾝ","kana_city":"ﾋﾐｼ","kana_address":"ﾄﾂﾐﾔ","pref":"富山県","city":"氷見市","address":"戸津宮"},
{"zip_code":"9350423","kana_pref":"ﾄﾔﾏｹﾝ","kana_city":"ﾋﾐｼ","kana_address":"ﾄﾏﾘ","pref":"富山県","city":"氷見市","address":"泊"},
{"zip_code":"9350064","kana_pref":"ﾄﾔﾏｹﾝ","kana_city":"ﾋﾐｼ","kana_address":"ﾅｶｵ","pref":"富山県","city":"氷見市","address":"中尾"},
{"zip_code":"9350417","kana_pref":"ﾄﾔﾏｹﾝ","kana_city":"ﾋﾐｼ","kana_address":"ﾅｶﾞｻｶ","pref":"富山県","city":"氷見市","address":"長坂"},
{"zip_code":"9350102","kana_pref":"ﾄﾔﾏｹﾝ","kana_city":"ﾋﾐｼ","kana_address":"ﾅｶｼﾞﾏ","pref":"富山県","city":"氷見市","address":"中島"},
{"zip_code":"9350403","kana_pref":"ﾄﾔﾏｹﾝ","kana_city":"ﾋﾐｼ","kana_address":"ﾅｶﾀ","pref":"富山県","city":"氷見市","address":"中田"},
{"zip_code":"9350402","kana_pref":"ﾄﾔﾏｹﾝ","kana_city":"ﾋﾐｼ","kana_address":"ﾅｶﾅﾐ","pref":"富山県","city":"氷見市","address":"中波"},
{"zip_code":"9350252","kana_pref":"ﾄﾔﾏｹﾝ","kana_city":"ﾋﾐｼ","kana_address":"ﾅｶﾑﾗ","pref":"富山県","city":"氷見市","address":"中村"},
{"zip_code":"9350055","kana_pref":"ﾄﾔﾏｹﾝ","kana_city":"ﾋﾐｼ","kana_address":"ﾅｶﾔﾁ","pref":"富山県","city":"氷見市","address":"中谷内"},
{"zip_code":"9350057","kana_pref":"ﾄﾔﾏｹﾝ","kana_city":"ﾋﾐｼ","kana_address":"ﾆｼﾎｵﾉｷ","pref":"富山県","city":"氷見市","address":"西朴木"},
{"zip_code":"9350255","kana_pref":"ﾄﾔﾏｹﾝ","kana_city":"ﾋﾐｼ","kana_address":"ﾊﾔｶｼ","pref":"富山県","city":"氷見市","address":"早借"},
{"zip_code":"9350334","kana_pref":"ﾄﾔﾏｹﾝ","kana_city":"ﾋﾐｼ","kana_address":"ﾊﾘﾉｷ","pref":"富山県","city":"氷見市","address":"針木"},
{"zip_code":"9350264","kana_pref":"ﾄﾔﾏｹﾝ","kana_city":"ﾋﾐｼ","kana_address":"ﾋﾂﾞﾒ","pref":"富山県","city":"氷見市","address":"日詰"},
{"zip_code":"9350341","kana_pref":"ﾄﾔﾏｹﾝ","kana_city":"ﾋﾐｼ","kana_address":"ﾋﾄﾊﾈ","pref":"富山県","city":"氷見市","address":"一刎"},
{"zip_code":"9350262","kana_pref":"ﾄﾔﾏｹﾝ","kana_city":"ﾋﾐｼ","kana_address":"ﾋﾅﾀ","pref":"富山県","city":"氷見市","address":"日名田"},
{"zip_code":"9350012","kana_pref":"ﾄﾔﾏｹﾝ","kana_city":"ﾋﾐｼ","kana_address":"ﾋﾐﾏﾁ","pref":"富山県","city":"氷見市","address":"比美町"},
{"zip_code":"9350404","kana_pref":"ﾄﾔﾏｹﾝ","kana_city":"ﾋﾐｼ","kana_address":"ﾋﾗｻﾜ","pref":"富山県","city":"氷見市","address":"平沢"},
{"zip_code":"9350117","kana_pref":"ﾄﾔﾏｹﾝ","kana_city":"ﾋﾐｼ","kana_address":"ﾌｶﾊﾗ","pref":"富山県","city":"氷見市","address":"深原"},
{"zip_code":"9350111","kana_pref":"ﾄﾔﾏｹﾝ","kana_city":"ﾋﾐｼ","kana_address":"ﾌｾ","pref":"富山県","city":"氷見市","address":"布施"},
{"zip_code":"9350114","kana_pref":"ﾄﾔﾏｹﾝ","kana_city":"ﾋﾐｼ","kana_address":"ﾌﾞｯｼｮｳｼﾞ","pref":"富山県","city":"氷見市","address":"仏生寺"},
{"zip_code":"9350266","kana_pref":"ﾄﾔﾏｹﾝ","kana_city":"ﾋﾐｼ","kana_address":"ﾌﾚｻﾞｶ","pref":"富山県","city":"氷見市","address":"触坂"},
{"zip_code":"9350115","kana_pref":"ﾄﾔﾏｹﾝ","kana_city":"ﾋﾐｼ","kana_address":"ﾎｺﾈ","pref":"富山県","city":"氷見市","address":"鉾根"},
{"zip_code":"9350104","kana_pref":"ﾄﾔﾏｹﾝ","kana_city":"ﾋﾐｼ","kana_address":"ﾎﾘﾀ","pref":"富山県","city":"氷見市","address":"堀田"},
{"zip_code":"9350016","kana_pref":"ﾄﾔﾏｹﾝ","kana_city":"ﾋﾐｼ","kana_address":"ﾎﾝﾏﾁ","pref":"富山県","city":"氷見市","address":"本町"},
{"zip_code":"9350003","kana_pref":"ﾄﾔﾏｹﾝ","kana_city":"ﾋﾐｼ","kana_address":"ﾏｼﾏ","pref":"富山県","city":"氷見市","address":"間島"},
{"zip_code":"9350017","kana_pref":"ﾄﾔﾏｹﾝ","kana_city":"ﾋﾐｼ","kana_address":"ﾏﾙﾉｳﾁ","pref":"富山県","city":"氷見市","address":"丸の内"},
{"zip_code":"9350267","kana_pref":"ﾄﾔﾏｹﾝ","kana_city":"ﾋﾐｼ","kana_address":"ﾐｳﾁ","pref":"富山県","city":"氷見市","address":"見内"},
{"zip_code":"9350261","kana_pref":"ﾄﾔﾏｹﾝ","kana_city":"ﾋﾐｼ","kana_address":"ﾐｵ","pref":"富山県","city":"氷見市","address":"三尾"},
{"zip_code":"9350116","kana_pref":"ﾄﾔﾏｹﾝ","kana_city":"ﾋﾐｼ","kana_address":"ﾐﾀｸﾎﾞ","pref":"富山県","city":"氷見市","address":"三田窪"},
{"zip_code":"9350013","kana_pref":"ﾄﾔﾏｹﾝ","kana_city":"ﾋﾐｼ","kana_address":"ﾐﾅﾐｵｵﾏﾁ","pref":"富山県","city":"氷見市","address":"南大町"},
{"zip_code":"9350033","kana_pref":"ﾄﾔﾏｹﾝ","kana_city":"ﾋﾐｼ","kana_address":"ﾐﾔﾀﾞ","pref":"富山県","city":"氷見市","address":"宮田"},
{"zip_code":"9350053","kana_pref":"ﾄﾔﾏｹﾝ","kana_city":"ﾋﾐｼ","kana_address":"ﾓｵ","pref":"富山県","city":"氷見市","address":"万尾"},
{"zip_code":"9350332","kana_pref":"ﾄﾔﾏｹﾝ","kana_city":"ﾋﾐｼ","kana_address":"ﾓﾘﾃﾞﾗ","pref":"富山県","city":"氷見市","address":"森寺"},
{"zip_code":"9350116","kana_pref":"ﾄﾔﾏｹﾝ","kana_city":"ﾋﾐｼ","kana_address":"ﾔﾀﾍﾞ","pref":"富山県","city":"氷見市","address":"矢田部"},
{"zip_code":"9350031","kana_pref":"ﾄﾔﾏｹﾝ","kana_city":"ﾋﾐｼ","kana_address":"ﾔﾅｲﾀﾞ","pref":"富山県","city":"氷見市","address":"柳田"},
{"zip_code":"9350107","kana_pref":"ﾄﾔﾏｹﾝ","kana_city":"ﾋﾐｼ","kana_address":"ﾔﾉﾎｳ","pref":"富山県","city":"氷見市","address":"矢方"},
{"zip_code":"9350425","kana_pref":"ﾄﾔﾏｹﾝ","kana_city":"ﾋﾐｼ","kana_address":"ﾔﾌﾞﾀ","pref":"富山県","city":"氷見市","address":"薮田"},
{"zip_code":"9350061","kana_pref":"ﾄﾔﾏｹﾝ","kana_city":"ﾋﾐｼ","kana_address":"ﾖｶﾜ","pref":"富山県","city":"氷見市","address":"余川"},
{"zip_code":"9350405","kana_pref":"ﾄﾔﾏｹﾝ","kana_city":"ﾋﾐｼ","kana_address":"ﾖｼｵｶ","pref":"富山県","city":"氷見市","address":"吉岡"},
{"zip_code":"9350342","kana_pref":"ﾄﾔﾏｹﾝ","kana_city":"ﾋﾐｼ","kana_address":"ﾖｼｶﾞｹ","pref":"富山県","city":"氷見市","address":"吉懸"},
{"zip_code":"9350333","kana_pref":"ﾄﾔﾏｹﾝ","kana_city":"ﾋﾐｼ","kana_address":"ﾖｼﾀｷ","pref":"富山県","city":"氷見市","address":"吉滝"},
{"zip_code":"9350258","kana_pref":"ﾄﾔﾏｹﾝ","kana_city":"ﾋﾐｼ","kana_address":"ﾛﾝﾃﾞﾝ","pref":"富山県","city":"氷見市","address":"論田"},
{"zip_code":"9350401","kana_pref":"ﾄﾔﾏｹﾝ","kana_city":"ﾋﾐｼ","kana_address":"ﾜｷ","pref":"富山県","city":"氷見市","address":"脇"},
{"zip_code":"9350421","kana_pref":"ﾄﾔﾏｹﾝ","kana_city":"ﾋﾐｼ","kana_address":"ﾜｷｶﾞﾀ","pref":"富山県","city":"氷見市","address":"脇方"}]}