{"zip_code":[
{"zip_code":"9360000","kana_pref":"ﾄﾔﾏｹﾝ","kana_city":"ﾅﾒﾘｶﾜｼ","kana_address":"","pref":"富山県","city":"滑川市","address":""},
{"zip_code":"9360843","kana_pref":"ﾄﾔﾏｹﾝ","kana_city":"ﾅﾒﾘｶﾜｼ","kana_address":"ｱｶﾊﾏ","pref":"富山県","city":"滑川市","address":"赤浜"},
{"zip_code":"9360842","kana_pref":"ﾄﾔﾏｹﾝ","kana_city":"ﾅﾒﾘｶﾜｼ","kana_address":"ｱｶﾊﾏｻｶｴﾏﾁ","pref":"富山県","city":"滑川市","address":"赤浜栄町"},
{"zip_code":"9360033","kana_pref":"ﾄﾔﾏｹﾝ","kana_city":"ﾅﾒﾘｶﾜｼ","kana_address":"ｱﾂﾞﾏﾁｮｳ","pref":"富山県","city":"滑川市","address":"吾妻町"},
{"zip_code":"9360034","kana_pref":"ﾄﾔﾏｹﾝ","kana_city":"ﾅﾒﾘｶﾜｼ","kana_address":"ｱﾂﾞﾏﾁｮｳ","pref":"富山県","city":"滑川市","address":"吾妻町"},
{"zip_code":"9360006","kana_pref":"ﾄﾔﾏｹﾝ","kana_city":"ﾅﾒﾘｶﾜｼ","kana_address":"ｱﾗﾏﾀ","pref":"富山県","city":"滑川市","address":"荒俣"},
{"zip_code":"9360007","kana_pref":"ﾄﾔﾏｹﾝ","kana_city":"ﾅﾒﾘｶﾜｼ","kana_address":"ｱﾗﾏﾀｼﾝﾏﾁ","pref":"富山県","city":"滑川市","address":"荒俣新町"},
{"zip_code":"9360042","kana_pref":"ﾄﾔﾏｹﾝ","kana_city":"ﾅﾒﾘｶﾜｼ","kana_address":"ｱﾗﾏﾁ","pref":"富山県","city":"滑川市","address":"荒町"},
{"zip_code":"9360855","kana_pref":"ﾄﾔﾏｹﾝ","kana_city":"ﾅﾒﾘｶﾜｼ","kana_address":"ｱﾘｶﾈ","pref":"富山県","city":"滑川市","address":"有金"},
{"zip_code":"9360055","kana_pref":"ﾄﾔﾏｹﾝ","kana_city":"ﾅﾒﾘｶﾜｼ","kana_address":"ｲｽﾞﾐｶﾞｵｶ","pref":"富山県","city":"滑川市","address":"泉ケ丘"},
{"zip_code":"9360877","kana_pref":"ﾄﾔﾏｹﾝ","kana_city":"ﾅﾒﾘｶﾜｼ","kana_address":"ｲﾅｲｽﾞﾐ","pref":"富山県","city":"滑川市","address":"稲泉"},
{"zip_code":"9360876","kana_pref":"ﾄﾔﾏｹﾝ","kana_city":"ﾅﾒﾘｶﾜｼ","kana_address":"ｲﾅｲｽﾞﾐｼﾝ","pref":"富山県","city":"滑川市","address":"稲泉新"},
{"zip_code":"9360031","kana_pref":"ﾄﾔﾏｹﾝ","kana_city":"ﾅﾒﾘｶﾜｼ","kana_address":"ｲﾏﾏﾁ","pref":"富山県","city":"滑川市","address":"今町"},
{"zip_code":"9360077","kana_pref":"ﾄﾔﾏｹﾝ","kana_city":"ﾅﾒﾘｶﾜｼ","kana_address":"ｳｵﾉﾐ","pref":"富山県","city":"滑川市","address":"魚躬"},
{"zip_code":"9360044","kana_pref":"ﾄﾔﾏｹﾝ","kana_city":"ﾅﾒﾘｶﾜｼ","kana_address":"ｳﾏﾏﾁ","pref":"富山県","city":"滑川市","address":"馬町"},
{"zip_code":"9360075","kana_pref":"ﾄﾔﾏｹﾝ","kana_city":"ﾅﾒﾘｶﾜｼ","kana_address":"ｴｼﾞﾘ","pref":"富山県","city":"滑川市","address":"江尻"},
{"zip_code":"9360039","kana_pref":"ﾄﾔﾏｹﾝ","kana_city":"ﾅﾒﾘｶﾜｼ","kana_address":"ｴﾋﾞｽﾏﾁ","pref":"富山県","city":"滑川市","address":"夷子町"},
{"zip_code":"9360808","kana_pref":"ﾄﾔﾏｹﾝ","kana_city":"ﾅﾒﾘｶﾜｼ","kana_address":"ｵｲﾜｹ","pref":"富山県","city":"滑川市","address":"追分"},
{"zip_code":"9360811","kana_pref":"ﾄﾔﾏｹﾝ","kana_city":"ﾅﾒﾘｶﾜｼ","kana_address":"ｵｵｳﾗ","pref":"富山県","city":"滑川市","address":"大浦"},
{"zip_code":"9360874","kana_pref":"ﾄﾔﾏｹﾝ","kana_city":"ﾅﾒﾘｶﾜｼ","kana_address":"ｵｵｴﾉｷ","pref":"富山県","city":"滑川市","address":"大榎"},
{"zip_code":"9360802","kana_pref":"ﾄﾔﾏｹﾝ","kana_city":"ﾅﾒﾘｶﾜｼ","kana_address":"ｵｵｶﾞｹ","pref":"富山県","city":"滑川市","address":"大掛"},
{"zip_code":"9360805","kana_pref":"ﾄﾔﾏｹﾝ","kana_city":"ﾅﾒﾘｶﾜｼ","kana_address":"ｵｵｸﾎﾞ","pref":"富山県","city":"滑川市","address":"大窪"},
{"zip_code":"9360833","kana_pref":"ﾄﾔﾏｹﾝ","kana_city":"ﾅﾒﾘｶﾜｼ","kana_address":"ｵｵｻｷﾉ","pref":"富山県","city":"滑川市","address":"大崎野"},
{"zip_code":"9360801","kana_pref":"ﾄﾔﾏｹﾝ","kana_city":"ﾅﾒﾘｶﾜｼ","kana_address":"ｵｵｼﾞﾏ","pref":"富山県","city":"滑川市","address":"大島"},
{"zip_code":"9360871","kana_pref":"ﾄﾔﾏｹﾝ","kana_city":"ﾅﾒﾘｶﾜｼ","kana_address":"ｵｵｼﾞﾏｼﾝ","pref":"富山県","city":"滑川市","address":"大島新"},
{"zip_code":"9360818","kana_pref":"ﾄﾔﾏｹﾝ","kana_city":"ﾅﾒﾘｶﾜｼ","kana_address":"ｵｵﾊﾞﾔｼ","pref":"富山県","city":"滑川市","address":"大林"},
{"zip_code":"9360047","kana_pref":"ﾄﾔﾏｹﾝ","kana_city":"ﾅﾒﾘｶﾜｼ","kana_address":"ｵｵﾏﾁ","pref":"富山県","city":"滑川市","address":"大町"},
{"zip_code":"9360851","kana_pref":"ﾄﾔﾏｹﾝ","kana_city":"ﾅﾒﾘｶﾜｼ","kana_address":"ｵｷﾀﾞｼﾝ","pref":"富山県","city":"滑川市","address":"沖田新"},
{"zip_code":"9360836","kana_pref":"ﾄﾔﾏｹﾝ","kana_city":"ﾅﾒﾘｶﾜｼ","kana_address":"ｶｲﾖｳｼﾞ","pref":"富山県","city":"滑川市","address":"改養寺"},
{"zip_code":"9360004","kana_pref":"ﾄﾔﾏｹﾝ","kana_city":"ﾅﾒﾘｶﾜｼ","kana_address":"ｶｻｷﾞ","pref":"富山県","city":"滑川市","address":"笠木"},
{"zip_code":"9360068","kana_pref":"ﾄﾔﾏｹﾝ","kana_city":"ﾅﾒﾘｶﾜｼ","kana_address":"ｶｼﾏﾁｮｳ","pref":"富山県","city":"滑川市","address":"加島町"},
{"zip_code":"9360864","kana_pref":"ﾄﾔﾏｹﾝ","kana_city":"ﾅﾒﾘｶﾜｼ","kana_address":"ｶﾅﾔ","pref":"富山県","city":"滑川市","address":"金屋"},
{"zip_code":"9360853","kana_pref":"ﾄﾔﾏｹﾝ","kana_city":"ﾅﾒﾘｶﾜｼ","kana_address":"ｶﾐｳﾒｻﾞﾜ","pref":"富山県","city":"滑川市","address":"上梅沢"},
{"zip_code":"9360811","kana_pref":"ﾄﾔﾏｹﾝ","kana_city":"ﾅﾒﾘｶﾜｼ","kana_address":"ｶﾐｵｵｳﾗ","pref":"富山県","city":"滑川市","address":"上大浦"},
{"zip_code":"9360053","kana_pref":"ﾄﾔﾏｹﾝ","kana_city":"ﾅﾒﾘｶﾜｼ","kana_address":"ｶﾐｺｲｽﾞﾐ","pref":"富山県","city":"滑川市","address":"上小泉"},
{"zip_code":"9360054","kana_pref":"ﾄﾔﾏｹﾝ","kana_city":"ﾅﾒﾘｶﾜｼ","kana_address":"ｶﾐｺｲｽﾞﾐ","pref":"富山県","city":"滑川市","address":"上小泉"},
{"zip_code":"9360852","kana_pref":"ﾄﾔﾏｹﾝ","kana_city":"ﾅﾒﾘｶﾜｼ","kana_address":"ｶﾐｼﾞﾏ","pref":"富山県","city":"滑川市","address":"上島"},
{"zip_code":"9360046","kana_pref":"ﾄﾔﾏｹﾝ","kana_city":"ﾅﾒﾘｶﾜｼ","kana_address":"ｶﾜｳﾗﾁｮｳ","pref":"富山県","city":"滑川市","address":"河浦町"},
{"zip_code":"9360064","kana_pref":"ﾄﾔﾏｹﾝ","kana_city":"ﾅﾒﾘｶﾜｼ","kana_address":"ｶﾜﾊﾞﾀﾏﾁ","pref":"富山県","city":"滑川市","address":"河端町"},
{"zip_code":"9360806","kana_pref":"ﾄﾔﾏｹﾝ","kana_city":"ﾅﾒﾘｶﾜｼ","kana_address":"ｷﾀﾉ","pref":"富山県","city":"滑川市","address":"北野"},
{"zip_code":"9360038","kana_pref":"ﾄﾔﾏｹﾝ","kana_city":"ﾅﾒﾘｶﾜｼ","kana_address":"ｷﾀﾏﾁ","pref":"富山県","city":"滑川市","address":"北町"},
{"zip_code":"9360803","kana_pref":"ﾄﾔﾏｹﾝ","kana_city":"ﾅﾒﾘｶﾜｼ","kana_address":"ｸﾘﾔﾏ","pref":"富山県","city":"滑川市","address":"栗山"},
{"zip_code":"9360026","kana_pref":"ﾄﾔﾏｹﾝ","kana_city":"ﾅﾒﾘｶﾜｼ","kana_address":"ｺｳｴﾝﾄﾞｵﾘ","pref":"富山県","city":"滑川市","address":"公園通り"},
{"zip_code":"9360854","kana_pref":"ﾄﾔﾏｹﾝ","kana_city":"ﾅﾒﾘｶﾜｼ","kana_address":"ｺﾊﾞﾔｼ","pref":"富山県","city":"滑川市","address":"小林"},
{"zip_code":"9360066","kana_pref":"ﾄﾔﾏｹﾝ","kana_city":"ﾅﾒﾘｶﾜｼ","kana_address":"ｺﾓﾊﾗ","pref":"富山県","city":"滑川市","address":"菰原"},
{"zip_code":"9360067","kana_pref":"ﾄﾔﾏｹﾝ","kana_city":"ﾅﾒﾘｶﾜｼ","kana_address":"ｺﾓﾊﾗﾀﾞｲ","pref":"富山県","city":"滑川市","address":"菰原台"},
{"zip_code":"9360822","kana_pref":"ﾄﾔﾏｹﾝ","kana_city":"ﾅﾒﾘｶﾜｼ","kana_address":"ｺﾓﾘ","pref":"富山県","city":"滑川市","address":"小森"},
{"zip_code":"9360073","kana_pref":"ﾄﾔﾏｹﾝ","kana_city":"ﾅﾒﾘｶﾜｼ","kana_address":"ｻｲﾜｲﾁｮｳ","pref":"富山県","city":"滑川市","address":"幸町"},
{"zip_code":"9360059","kana_pref":"ﾄﾔﾏｹﾝ","kana_city":"ﾅﾒﾘｶﾜｼ","kana_address":"ｻﾗｼﾔ","pref":"富山県","city":"滑川市","address":"晒屋"},
{"zip_code":"9360001","kana_pref":"ﾄﾔﾏｹﾝ","kana_city":"ﾅﾒﾘｶﾜｼ","kana_address":"ｻﾝｶﾞ","pref":"富山県","city":"滑川市","address":"三ケ"},
{"zip_code":"9360069","kana_pref":"ﾄﾔﾏｹﾝ","kana_city":"ﾅﾒﾘｶﾜｼ","kana_address":"ｻﾝﾉｳﾏﾁ","pref":"富山県","city":"滑川市","address":"山王町"},
{"zip_code":"9360051","kana_pref":"ﾄﾔﾏｹﾝ","kana_city":"ﾅﾒﾘｶﾜｼ","kana_address":"ｼﾞｹｲﾏﾁ","pref":"富山県","city":"滑川市","address":"寺家町"},
{"zip_code":"9360035","kana_pref":"ﾄﾔﾏｹﾝ","kana_city":"ﾅﾒﾘｶﾜｼ","kana_address":"ｼｹﾝﾁｮｳ","pref":"富山県","city":"滑川市","address":"四間町"},
{"zip_code":"9360045","kana_pref":"ﾄﾔﾏｹﾝ","kana_city":"ﾅﾒﾘｶﾜｼ","kana_address":"ｼﾁｹﾝﾁｮｳ","pref":"富山県","city":"滑川市","address":"七間町"},
{"zip_code":"9360841","kana_pref":"ﾄﾔﾏｹﾝ","kana_city":"ﾅﾒﾘｶﾜｼ","kana_address":"ｼﾊﾞ","pref":"富山県","city":"滑川市","address":"柴"},
{"zip_code":"9360052","kana_pref":"ﾄﾔﾏｹﾝ","kana_city":"ﾅﾒﾘｶﾜｼ","kana_address":"ｼﾐｽﾞﾁｮｳ","pref":"富山県","city":"滑川市","address":"清水町"},
{"zip_code":"9360857","kana_pref":"ﾄﾔﾏｹﾝ","kana_city":"ﾅﾒﾘｶﾜｼ","kana_address":"ｼﾓｳﾒｻﾞﾜ","pref":"富山県","city":"滑川市","address":"下梅沢"},
{"zip_code":"9360811","kana_pref":"ﾄﾔﾏｹﾝ","kana_city":"ﾅﾒﾘｶﾜｼ","kana_address":"ｼﾓｵｵｳﾗ","pref":"富山県","city":"滑川市","address":"下大浦"},
{"zip_code":"9360058","kana_pref":"ﾄﾔﾏｹﾝ","kana_city":"ﾅﾒﾘｶﾜｼ","kana_address":"ｼﾓｺｲｽﾞﾐﾏﾁ","pref":"富山県","city":"滑川市","address":"下小泉町"},
{"zip_code":"9360065","kana_pref":"ﾄﾔﾏｹﾝ","kana_city":"ﾅﾒﾘｶﾜｼ","kana_address":"ｼﾓｼﾞﾏ","pref":"富山県","city":"滑川市","address":"下島"},
{"zip_code":"9360817","kana_pref":"ﾄﾔﾏｹﾝ","kana_city":"ﾅﾒﾘｶﾜｼ","kana_address":"ｼﾓﾉ","pref":"富山県","city":"滑川市","address":"下野"},
{"zip_code":"9360848","kana_pref":"ﾄﾔﾏｹﾝ","kana_city":"ﾅﾒﾘｶﾜｼ","kana_address":"ｼﾞｮｳｺｳｼﾞ","pref":"富山県","city":"滑川市","address":"常光寺"},
{"zip_code":"9360060","kana_pref":"ﾄﾔﾏｹﾝ","kana_city":"ﾅﾒﾘｶﾜｼ","kana_address":"ｼﾞﾝｶﾏﾁ","pref":"富山県","city":"滑川市","address":"神家町"},
{"zip_code":"9360074","kana_pref":"ﾄﾔﾏｹﾝ","kana_city":"ﾅﾒﾘｶﾜｼ","kana_address":"ｼﾝﾄﾐﾁｮｳ","pref":"富山県","city":"滑川市","address":"新富町"},
{"zip_code":"9360032","kana_pref":"ﾄﾔﾏｹﾝ","kana_city":"ﾅﾒﾘｶﾜｼ","kana_address":"ｼﾝﾒｲﾁｮｳ","pref":"富山県","city":"滑川市","address":"神明町"},
{"zip_code":"9360804","kana_pref":"ﾄﾔﾏｹﾝ","kana_city":"ﾅﾒﾘｶﾜｼ","kana_address":"ｽｷﾞﾓﾄ","pref":"富山県","city":"滑川市","address":"杉本"},
{"zip_code":"9360063","kana_pref":"ﾄﾔﾏｹﾝ","kana_city":"ﾅﾒﾘｶﾜｼ","kana_address":"ｾﾜﾏﾁ","pref":"富山県","city":"滑川市","address":"瀬羽町"},
{"zip_code":"9360813","kana_pref":"ﾄﾔﾏｹﾝ","kana_city":"ﾅﾒﾘｶﾜｼ","kana_address":"ﾀﾞｲﾆﾁ","pref":"富山県","city":"滑川市","address":"大日"},
{"zip_code":"9360856","kana_pref":"ﾄﾔﾏｹﾝ","kana_city":"ﾅﾒﾘｶﾜｼ","kana_address":"ﾀﾞｲﾓﾝ","pref":"富山県","city":"滑川市","address":"大門"},
{"zip_code":"9360011","kana_pref":"ﾄﾔﾏｹﾝ","kana_city":"ﾅﾒﾘｶﾜｼ","kana_address":"ﾀｶﾂｶ","pref":"富山県","city":"滑川市","address":"高塚"},
{"zip_code":"9360012","kana_pref":"ﾄﾔﾏｹﾝ","kana_city":"ﾅﾒﾘｶﾜｼ","kana_address":"ﾀｶﾂｶｱｹﾎﾞﾉﾁｮｳ","pref":"富山県","city":"滑川市","address":"高塚曙町"},
{"zip_code":"9360015","kana_pref":"ﾄﾔﾏｹﾝ","kana_city":"ﾅﾒﾘｶﾜｼ","kana_address":"ﾀｶﾂｶｺﾄﾌﾞｷﾏﾁ","pref":"富山県","city":"滑川市","address":"高塚寿町"},
{"zip_code":"9360013","kana_pref":"ﾄﾔﾏｹﾝ","kana_city":"ﾅﾒﾘｶﾜｼ","kana_address":"ﾀｶﾂｶｼﾝｼｴｲｼﾞｭｳﾀｸ","pref":"富山県","city":"滑川市","address":"高塚新市営住宅"},
{"zip_code":"9360014","kana_pref":"ﾄﾔﾏｹﾝ","kana_city":"ﾅﾒﾘｶﾜｼ","kana_address":"ﾀｶﾂｶｼﾝﾏﾁ","pref":"富山県","city":"滑川市","address":"高塚新町"},
{"zip_code":"9360078","kana_pref":"ﾄﾔﾏｹﾝ","kana_city":"ﾅﾒﾘｶﾜｼ","kana_address":"ﾀｶﾂｷﾏﾁ","pref":"富山県","city":"滑川市","address":"高月町"},
{"zip_code":"9360076","kana_pref":"ﾄﾔﾏｹﾝ","kana_city":"ﾅﾒﾘｶﾜｼ","kana_address":"ﾀｶﾂｷﾐﾅﾐﾀﾞｲ","pref":"富山県","city":"滑川市","address":"高月南台"},
{"zip_code":"9360849","kana_pref":"ﾄﾔﾏｹﾝ","kana_city":"ﾅﾒﾘｶﾜｼ","kana_address":"ﾀｶﾔﾅｷﾞ","pref":"富山県","city":"滑川市","address":"高柳"},
{"zip_code":"9360024","kana_pref":"ﾄﾔﾏｹﾝ","kana_city":"ﾅﾒﾘｶﾜｼ","kana_address":"ﾀﾂﾉ","pref":"富山県","city":"滑川市","address":"辰野"},
{"zip_code":"9360022","kana_pref":"ﾄﾔﾏｹﾝ","kana_city":"ﾅﾒﾘｶﾜｼ","kana_address":"ﾀﾂﾉｼﾝﾏﾁ","pref":"富山県","city":"滑川市","address":"辰野新町"},
{"zip_code":"9360056","kana_pref":"ﾄﾔﾏｹﾝ","kana_city":"ﾅﾒﾘｶﾜｼ","kana_address":"ﾀﾅｶｼﾝﾏﾁ","pref":"富山県","city":"滑川市","address":"田中新町"},
{"zip_code":"9360057","kana_pref":"ﾄﾔﾏｹﾝ","kana_city":"ﾅﾒﾘｶﾜｼ","kana_address":"ﾀﾅｶﾏﾁ","pref":"富山県","city":"滑川市","address":"田中町"},
{"zip_code":"9360826","kana_pref":"ﾄﾔﾏｹﾝ","kana_city":"ﾅﾒﾘｶﾜｼ","kana_address":"ﾀﾊﾞﾔｼ","pref":"富山県","city":"滑川市","address":"田林"},
{"zip_code":"9360814","kana_pref":"ﾄﾔﾏｹﾝ","kana_city":"ﾅﾒﾘｶﾜｼ","kana_address":"ﾁﾄﾞﾘ","pref":"富山県","city":"滑川市","address":"千鳥"},
{"zip_code":"9360018","kana_pref":"ﾄﾔﾏｹﾝ","kana_city":"ﾅﾒﾘｶﾜｼ","kana_address":"ﾂﾎﾞｶﾜ","pref":"富山県","city":"滑川市","address":"坪川"},
{"zip_code":"9360019","kana_pref":"ﾄﾔﾏｹﾝ","kana_city":"ﾅﾒﾘｶﾜｼ","kana_address":"ﾂﾎﾞｶﾜｼﾝ","pref":"富山県","city":"滑川市","address":"坪川新"},
{"zip_code":"9360844","kana_pref":"ﾄﾔﾏｹﾝ","kana_city":"ﾅﾒﾘｶﾜｼ","kana_address":"ﾃﾗﾏﾁ","pref":"富山県","city":"滑川市","address":"寺町"},
{"zip_code":"9360847","kana_pref":"ﾄﾔﾏｹﾝ","kana_city":"ﾅﾒﾘｶﾜｼ","kana_address":"ﾃﾝﾎﾞｳﾁｮｳ","pref":"富山県","city":"滑川市","address":"天望町"},
{"zip_code":"9360838","kana_pref":"ﾄﾔﾏｹﾝ","kana_city":"ﾅﾒﾘｶﾜｼ","kana_address":"ﾄﾞｳｼﾞ","pref":"富山県","city":"滑川市","address":"道寺"},
{"zip_code":"9360827","kana_pref":"ﾄﾔﾏｹﾝ","kana_city":"ﾅﾒﾘｶﾜｼ","kana_address":"ﾄｳﾌｸｼﾞ","pref":"富山県","city":"滑川市","address":"東福寺"},
{"zip_code":"9360823","kana_pref":"ﾄﾔﾏｹﾝ","kana_city":"ﾅﾒﾘｶﾜｼ","kana_address":"ﾄｳﾌｸｼﾞﾉ","pref":"富山県","city":"滑川市","address":"東福寺野"},
{"zip_code":"9360834","kana_pref":"ﾄﾔﾏｹﾝ","kana_city":"ﾅﾒﾘｶﾜｼ","kana_address":"ﾄｳﾌｸｼﾞﾋﾞﾗｷ","pref":"富山県","city":"滑川市","address":"東福寺開"},
{"zip_code":"9360027","kana_pref":"ﾄﾔﾏｹﾝ","kana_city":"ﾅﾒﾘｶﾜｼ","kana_address":"ﾄｷﾜﾁｮｳ","pref":"富山県","city":"滑川市","address":"常盤町"},
{"zip_code":"9360863","kana_pref":"ﾄﾔﾏｹﾝ","kana_city":"ﾅﾒﾘｶﾜｼ","kana_address":"ﾄﾁﾔﾏ","pref":"富山県","city":"滑川市","address":"栃山"},
{"zip_code":"9360021","kana_pref":"ﾄﾔﾏｹﾝ","kana_city":"ﾅﾒﾘｶﾜｼ","kana_address":"ﾅｶｶﾞﾜﾗ","pref":"富山県","city":"滑川市","address":"中川原"},
{"zip_code":"9360861","kana_pref":"ﾄﾔﾏｹﾝ","kana_city":"ﾅﾒﾘｶﾜｼ","kana_address":"ﾅｶｼﾝ","pref":"富山県","city":"滑川市","address":"中新"},
{"zip_code":"9360875","kana_pref":"ﾄﾔﾏｹﾝ","kana_city":"ﾅﾒﾘｶﾜｼ","kana_address":"ﾅｶﾂｶ","pref":"富山県","city":"滑川市","address":"中塚"},
{"zip_code":"9360816","kana_pref":"ﾄﾔﾏｹﾝ","kana_city":"ﾅﾒﾘｶﾜｼ","kana_address":"ﾅｶﾉ","pref":"富山県","city":"滑川市","address":"中野"},
{"zip_code":"9360882","kana_pref":"ﾄﾔﾏｹﾝ","kana_city":"ﾅﾒﾘｶﾜｼ","kana_address":"ﾅｶﾉｼﾏ","pref":"富山県","city":"滑川市","address":"中野島"},
{"zip_code":"9360036","kana_pref":"ﾄﾔﾏｹﾝ","kana_city":"ﾅﾒﾘｶﾜｼ","kana_address":"ﾅｶﾏﾁ","pref":"富山県","city":"滑川市","address":"中町"},
{"zip_code":"9360002","kana_pref":"ﾄﾔﾏｹﾝ","kana_city":"ﾅﾒﾘｶﾜｼ","kana_address":"ﾅｶﾑﾗ","pref":"富山県","city":"滑川市","address":"中村"},
{"zip_code":"9360865","kana_pref":"ﾄﾔﾏｹﾝ","kana_city":"ﾅﾒﾘｶﾜｼ","kana_address":"ﾅﾅｸﾁ","pref":"富山県","city":"滑川市","address":"七口"},
{"zip_code":"9360831","kana_pref":"ﾄﾔﾏｹﾝ","kana_city":"ﾅﾒﾘｶﾜｼ","kana_address":"ﾉｼﾞﾘ","pref":"富山県","city":"滑川市","address":"野尻"},
{"zip_code":"9360883","kana_pref":"ﾄﾔﾏｹﾝ","kana_city":"ﾅﾒﾘｶﾜｼ","kana_address":"ﾉﾏﾁ","pref":"富山県","city":"滑川市","address":"野町"},
{"zip_code":"9360062","kana_pref":"ﾄﾔﾏｹﾝ","kana_city":"ﾅﾒﾘｶﾜｼ","kana_address":"ﾊｼﾊﾞﾏﾁ","pref":"富山県","city":"滑川市","address":"橋場町"},
{"zip_code":"9360061","kana_pref":"ﾄﾔﾏｹﾝ","kana_city":"ﾅﾒﾘｶﾜｼ","kana_address":"ﾊﾏﾏﾁ","pref":"富山県","city":"滑川市","address":"浜町"},
{"zip_code":"9360005","kana_pref":"ﾄﾔﾏｹﾝ","kana_city":"ﾅﾒﾘｶﾜｼ","kana_address":"ﾊﾏﾖﾂﾔ","pref":"富山県","city":"滑川市","address":"浜四ツ屋"},
{"zip_code":"9360837","kana_pref":"ﾄﾔﾏｹﾝ","kana_city":"ﾅﾒﾘｶﾜｼ","kana_address":"ﾋｶﾞｼｶﾅﾔ","pref":"富山県","city":"滑川市","address":"東金屋"},
{"zip_code":"9360835","kana_pref":"ﾄﾔﾏｹﾝ","kana_city":"ﾅﾒﾘｶﾜｼ","kana_address":"ﾋﾗｷ","pref":"富山県","city":"滑川市","address":"開"},
{"zip_code":"9360043","kana_pref":"ﾄﾔﾏｹﾝ","kana_city":"ﾅﾒﾘｶﾜｼ","kana_address":"ﾌｸﾍﾞﾁｮｳ","pref":"富山県","city":"滑川市","address":"瓢町"},
{"zip_code":"9360881","kana_pref":"ﾄﾔﾏｹﾝ","kana_city":"ﾅﾒﾘｶﾜｼ","kana_address":"ﾌｼﾞｴｲ","pref":"富山県","city":"滑川市","address":"藤栄"},
{"zip_code":"9360872","kana_pref":"ﾄﾔﾏｹﾝ","kana_city":"ﾅﾒﾘｶﾜｼ","kana_address":"ﾌﾀﾂｶ","pref":"富山県","city":"滑川市","address":"二塚"},
{"zip_code":"9360017","kana_pref":"ﾄﾔﾏｹﾝ","kana_city":"ﾅﾒﾘｶﾜｼ","kana_address":"ﾌﾀﾂﾔﾌﾞﾘ","pref":"富山県","city":"滑川市","address":"二ツ破"},
{"zip_code":"9360037","kana_pref":"ﾄﾔﾏｹﾝ","kana_city":"ﾅﾒﾘｶﾜｼ","kana_address":"ﾌﾞﾍﾀﾞﾏﾁ","pref":"富山県","city":"滑川市","address":"武平太町"},
{"zip_code":"9360885","kana_pref":"ﾄﾔﾏｹﾝ","kana_city":"ﾅﾒﾘｶﾜｼ","kana_address":"ﾎｯｹｼﾞ","pref":"富山県","city":"滑川市","address":"法花寺"},
{"zip_code":"9360812","kana_pref":"ﾄﾔﾏｹﾝ","kana_city":"ﾅﾒﾘｶﾜｼ","kana_address":"ﾎﾘｳﾁ","pref":"富山県","city":"滑川市","address":"堀内"},
{"zip_code":"9360846","kana_pref":"ﾄﾔﾏｹﾝ","kana_city":"ﾅﾒﾘｶﾜｼ","kana_address":"ﾎﾘｴ","pref":"富山県","city":"滑川市","address":"堀江"},
{"zip_code":"9360824","kana_pref":"ﾄﾔﾏｹﾝ","kana_city":"ﾅﾒﾘｶﾜｼ","kana_address":"ﾎﾝｺﾞｳ","pref":"富山県","city":"滑川市","address":"本江"},
{"zip_code":"9360016","kana_pref":"ﾄﾔﾏｹﾝ","kana_city":"ﾅﾒﾘｶﾜｼ","kana_address":"ﾏｶﾞﾘﾌﾞﾁ","pref":"富山県","city":"滑川市","address":"曲渕"},
{"zip_code":"9360041","kana_pref":"ﾄﾔﾏｹﾝ","kana_city":"ﾅﾒﾘｶﾜｼ","kana_address":"ﾏﾂﾊﾞﾗﾁｮｳ","pref":"富山県","city":"滑川市","address":"松原町"},
{"zip_code":"9360072","kana_pref":"ﾄﾔﾏｹﾝ","kana_city":"ﾅﾒﾘｶﾜｼ","kana_address":"ﾐﾄﾞﾘﾏﾁ","pref":"富山県","city":"滑川市","address":"緑町"},
{"zip_code":"9360821","kana_pref":"ﾄﾔﾏｹﾝ","kana_city":"ﾅﾒﾘｶﾜｼ","kana_address":"ﾐﾉﾜ","pref":"富山県","city":"滑川市","address":"蓑輪"},
{"zip_code":"9360048","kana_pref":"ﾄﾔﾏｹﾝ","kana_city":"ﾅﾒﾘｶﾜｼ","kana_address":"ﾐﾎﾏﾁ","pref":"富山県","city":"滑川市","address":"三穂町"},
{"zip_code":"9360868","kana_pref":"ﾄﾔﾏｹﾝ","kana_city":"ﾅﾒﾘｶﾜｼ","kana_address":"ﾐﾔﾉｸﾎﾞ","pref":"富山県","city":"滑川市","address":"宮窪"},
{"zip_code":"9360866","kana_pref":"ﾄﾔﾏｹﾝ","kana_city":"ﾅﾒﾘｶﾜｼ","kana_address":"ﾐﾔﾉｸﾎﾞｼﾝ","pref":"富山県","city":"滑川市","address":"宮窪新"},
{"zip_code":"9360867","kana_pref":"ﾄﾔﾏｹﾝ","kana_city":"ﾅﾒﾘｶﾜｼ","kana_address":"ﾐﾔﾉｸﾎﾞﾀﾞｲ","pref":"富山県","city":"滑川市","address":"宮窪台"},
{"zip_code":"9360815","kana_pref":"ﾄﾔﾏｹﾝ","kana_city":"ﾅﾒﾘｶﾜｼ","kana_address":"ﾑﾛﾔﾏ","pref":"富山県","city":"滑川市","address":"室山"},
{"zip_code":"9360845","kana_pref":"ﾄﾔﾏｹﾝ","kana_city":"ﾅﾒﾘｶﾜｼ","kana_address":"ﾓﾘｼﾞﾘｼﾝ","pref":"富山県","city":"滑川市","address":"森尻新"},
{"zip_code":"9360832","kana_pref":"ﾄﾔﾏｹﾝ","kana_city":"ﾅﾒﾘｶﾜｼ","kana_address":"ﾓﾘﾉｼﾝ","pref":"富山県","city":"滑川市","address":"森野新"},
{"zip_code":"9360825","kana_pref":"ﾄﾔﾏｹﾝ","kana_city":"ﾅﾒﾘｶﾜｼ","kana_address":"ﾔｽﾀﾞ","pref":"富山県","city":"滑川市","address":"安田"},
{"zip_code":"9360023","kana_pref":"ﾄﾔﾏｹﾝ","kana_city":"ﾅﾒﾘｶﾜｼ","kana_address":"ﾔﾅｷﾞﾊﾗ","pref":"富山県","city":"滑川市","address":"柳原"},
{"zip_code":"9360025","kana_pref":"ﾄﾔﾏｹﾝ","kana_city":"ﾅﾒﾘｶﾜｼ","kana_address":"ﾔﾅｷﾞﾊﾗｼﾝﾏﾁ","pref":"富山県","city":"滑川市","address":"柳原新町"},
{"zip_code":"9360070","kana_pref":"ﾄﾔﾏｹﾝ","kana_city":"ﾅﾒﾘｶﾜｼ","kana_address":"ﾖｺﾁｮｳ","pref":"富山県","city":"滑川市","address":"横町"},
{"zip_code":"9360873","kana_pref":"ﾄﾔﾏｹﾝ","kana_city":"ﾅﾒﾘｶﾜｼ","kana_address":"ﾖｺﾐﾁ","pref":"富山県","city":"滑川市","address":"横道"},
{"zip_code":"9360003","kana_pref":"ﾄﾔﾏｹﾝ","kana_city":"ﾅﾒﾘｶﾜｼ","kana_address":"ﾖｼｳﾗ","pref":"富山県","city":"滑川市","address":"吉浦"},
{"zip_code":"9360807","kana_pref":"ﾄﾔﾏｹﾝ","kana_city":"ﾅﾒﾘｶﾜｼ","kana_address":"ﾖﾂﾔ","pref":"富山県","city":"滑川市","address":"四ツ屋"},
{"zip_code":"9360862","kana_pref":"ﾄﾔﾏｹﾝ","kana_city":"ﾅﾒﾘｶﾜｼ","kana_address":"ﾖﾂﾔｼﾝ","pref":"富山県","city":"滑川市","address":"四屋新"},
{"zip_code":"9360884","kana_pref":"ﾄﾔﾏｹﾝ","kana_city":"ﾅﾒﾘｶﾜｼ","kana_address":"ﾖﾈｼﾞﾏ","pref":"富山県","city":"滑川市","address":"米島"},
{"zip_code":"9360071","kana_pref":"ﾄﾔﾏｹﾝ","kana_city":"ﾅﾒﾘｶﾜｼ","kana_address":"ﾘｮｳｹﾏﾁ","pref":"富山県","city":"滑川市","address":"領家町"},
{"zip_code":"9360891","kana_pref":"ﾄﾔﾏｹﾝ","kana_city":"ﾅｶﾆｲｶﾜｸﾞﾝｶﾐｲﾁﾏﾁ","kana_address":"ｺﾞﾏﾄﾞｳ","pref":"富山県","city":"中新川郡上市町","address":"護摩堂"}]}