{"zip_code":[
{"zip_code":"9380000","kana_pref":"ﾄﾔﾏｹﾝ","kana_city":"ｸﾛﾍﾞｼ","kana_address":"","pref":"富山県","city":"黒部市","address":""},
{"zip_code":"9380048","kana_pref":"ﾄﾔﾏｹﾝ","kana_city":"ｸﾛﾍﾞｼ","kana_address":"ｱｺﾔﾉ","pref":"富山県","city":"黒部市","address":"阿古屋野"},
{"zip_code":"9380032","kana_pref":"ﾄﾔﾏｹﾝ","kana_city":"ｸﾛﾍﾞｼ","kana_address":"ｱﾏｲｹ","pref":"富山県","city":"黒部市","address":"天池"},
{"zip_code":"9380824","kana_pref":"ﾄﾔﾏｹﾝ","kana_city":"ｸﾛﾍﾞｼ","kana_address":"ｱﾐﾀﾞﾄﾞｳ","pref":"富山県","city":"黒部市","address":"阿弥陀堂"},
{"zip_code":"9380001","kana_pref":"ﾄﾔﾏｹﾝ","kana_city":"ｸﾛﾍﾞｼ","kana_address":"ｱﾗﾏﾀ","pref":"富山県","city":"黒部市","address":"荒俣"},
{"zip_code":"9380044","kana_pref":"ﾄﾔﾏｹﾝ","kana_city":"ｸﾛﾍﾞｼ","kana_address":"ｱﾗﾏﾁ","pref":"富山県","city":"黒部市","address":"荒町"},
{"zip_code":"9380004","kana_pref":"ﾄﾔﾏｹﾝ","kana_city":"ｸﾛﾍﾞｼ","kana_address":"ｲｲｻﾞﾜ","pref":"富山県","city":"黒部市","address":"飯沢"},
{"zip_code":"9380066","kana_pref":"ﾄﾔﾏｹﾝ","kana_city":"ｸﾛﾍﾞｼ","kana_address":"ｲｸｼﾞ","pref":"富山県","city":"黒部市","address":"生地"},
{"zip_code":"9380074","kana_pref":"ﾄﾔﾏｹﾝ","kana_city":"ｸﾛﾍﾞｼ","kana_address":"ｲｸｼﾞ","pref":"富山県","city":"黒部市","address":"生地"},
{"zip_code":"9380083","kana_pref":"ﾄﾔﾏｹﾝ","kana_city":"ｸﾛﾍﾞｼ","kana_address":"ｲｸｼﾞ","pref":"富山県","city":"黒部市","address":"生地"},
{"zip_code":"9380075","kana_pref":"ﾄﾔﾏｹﾝ","kana_city":"ｸﾛﾍﾞｼ","kana_address":"ｲｸｼﾞ","pref":"富山県","city":"黒部市","address":"生地"},
{"zip_code":"9380073","kana_pref":"ﾄﾔﾏｹﾝ","kana_city":"ｸﾛﾍﾞｼ","kana_address":"ｲｸｼﾞ","pref":"富山県","city":"黒部市","address":"生地"},
{"zip_code":"9380065","kana_pref":"ﾄﾔﾏｹﾝ","kana_city":"ｸﾛﾍﾞｼ","kana_address":"ｲｸｼﾞ","pref":"富山県","city":"黒部市","address":"生地"},
{"zip_code":"9380062","kana_pref":"ﾄﾔﾏｹﾝ","kana_city":"ｸﾛﾍﾞｼ","kana_address":"ｲｸｼﾞ","pref":"富山県","city":"黒部市","address":"生地"},
{"zip_code":"9380064","kana_pref":"ﾄﾔﾏｹﾝ","kana_city":"ｸﾛﾍﾞｼ","kana_address":"ｲｸｼﾞ","pref":"富山県","city":"黒部市","address":"生地"},
{"zip_code":"9380076","kana_pref":"ﾄﾔﾏｹﾝ","kana_city":"ｸﾛﾍﾞｼ","kana_address":"ｲｸｼﾞ","pref":"富山県","city":"黒部市","address":"生地"},
{"zip_code":"9380082","kana_pref":"ﾄﾔﾏｹﾝ","kana_city":"ｸﾛﾍﾞｼ","kana_address":"ｲｸｼﾞｱｼｸ","pref":"富山県","city":"黒部市","address":"生地芦区"},
{"zip_code":"9380084","kana_pref":"ﾄﾔﾏｹﾝ","kana_city":"ｸﾛﾍﾞｼ","kana_address":"ｲｸｼﾞｱｼｻﾞｷ","pref":"富山県","city":"黒部市","address":"生地芦崎"},
{"zip_code":"9380081","kana_pref":"ﾄﾔﾏｹﾝ","kana_city":"ｸﾛﾍﾞｼ","kana_address":"ｲｸｼﾞｷｮｳｼﾝ","pref":"富山県","city":"黒部市","address":"生地経新"},
{"zip_code":"9380061","kana_pref":"ﾄﾔﾏｹﾝ","kana_city":"ｸﾛﾍﾞｼ","kana_address":"ｲｸｼﾞｼﾝｸ","pref":"富山県","city":"黒部市","address":"生地神区"},
{"zip_code":"9380072","kana_pref":"ﾄﾔﾏｹﾝ","kana_city":"ｸﾛﾍﾞｼ","kana_address":"ｲｸｼﾞﾅｶｸ","pref":"富山県","city":"黒部市","address":"生地中区"},
{"zip_code":"9380071","kana_pref":"ﾄﾔﾏｹﾝ","kana_city":"ｸﾛﾍﾞｼ","kana_address":"ｲｸｼﾞﾔﾏｼﾝ","pref":"富山県","city":"黒部市","address":"生地山新"},
{"zip_code":"9380085","kana_pref":"ﾄﾔﾏｹﾝ","kana_city":"ｸﾛﾍﾞｼ","kana_address":"ｲｸｼﾞﾖｼﾀﾞ","pref":"富山県","city":"黒部市","address":"生地吉田"},
{"zip_code":"9380086","kana_pref":"ﾄﾔﾏｹﾝ","kana_city":"ｸﾛﾍﾞｼ","kana_address":"ｲｸｼﾞﾖｼﾀﾞｼﾝ","pref":"富山県","city":"黒部市","address":"生地吉田新"},
{"zip_code":"9380063","kana_pref":"ﾄﾔﾏｹﾝ","kana_city":"ｸﾛﾍﾞｼ","kana_address":"ｲｸｼﾞﾖﾂﾔｼﾝ","pref":"富山県","city":"黒部市","address":"生地四ツ屋新"},
{"zip_code":"9380816","kana_pref":"ﾄﾔﾏｹﾝ","kana_city":"ｸﾛﾍﾞｼ","kana_address":"ｲｹｼﾞﾘ","pref":"富山県","city":"黒部市","address":"池尻"},
{"zip_code":"9380059","kana_pref":"ﾄﾔﾏｹﾝ","kana_city":"ｸﾛﾍﾞｼ","kana_address":"ｲｼﾀﾞ","pref":"富山県","city":"黒部市","address":"石田"},
{"zip_code":"9380057","kana_pref":"ﾄﾔﾏｹﾝ","kana_city":"ｸﾛﾍﾞｼ","kana_address":"ｲｼﾀﾞｼﾝ","pref":"富山県","city":"黒部市","address":"石田新"},
{"zip_code":"9380835","kana_pref":"ﾄﾔﾏｹﾝ","kana_city":"ｸﾛﾍﾞｼ","kana_address":"ｲｼﾀﾞﾉ","pref":"富山県","city":"黒部市","address":"石田野"},
{"zip_code":"9380043","kana_pref":"ﾄﾔﾏｹﾝ","kana_city":"ｸﾛﾍﾞｼ","kana_address":"ｲﾇﾔﾏ","pref":"富山県","city":"黒部市","address":"犬山"},
{"zip_code":"9380014","kana_pref":"ﾄﾔﾏｹﾝ","kana_city":"ｸﾛﾍﾞｼ","kana_address":"ｳｴｷ","pref":"富山県","city":"黒部市","address":"植木"},
{"zip_code":"9380811","kana_pref":"ﾄﾔﾏｹﾝ","kana_city":"ｸﾛﾍﾞｼ","kana_address":"ｳﾁｭｳﾀﾞﾆ","pref":"富山県","city":"黒部市","address":"内生谷"},
{"zip_code":"9380282","kana_pref":"ﾄﾔﾏｹﾝ","kana_city":"ｸﾛﾍﾞｼ","kana_address":"ｳﾅﾂﾞｷｵﾝｾﾝ","pref":"富山県","city":"黒部市","address":"宇奈月温泉"},
{"zip_code":"9380177","kana_pref":"ﾄﾔﾏｹﾝ","kana_city":"ｸﾛﾍﾞｼ","kana_address":"ｳﾅﾂﾞｷﾏﾁｱｲﾓﾄｼﾝ","pref":"富山県","city":"黒部市","address":"宇奈月町愛本新"},
{"zip_code":"9380175","kana_pref":"ﾄﾔﾏｹﾝ","kana_city":"ｸﾛﾍﾞｼ","kana_address":"ｳﾅﾂﾞｷﾏﾁｱｲﾓﾄﾊｼﾂﾞﾒﾋｶﾞｼｶﾝﾘﾝﾁﾅｲ","pref":"富山県","city":"黒部市","address":"宇奈月町愛本橋爪東官林地内"},
{"zip_code":"9380171","kana_pref":"ﾄﾔﾏｹﾝ","kana_city":"ｸﾛﾍﾞｼ","kana_address":"ｳﾅﾂﾞｷﾏﾁｱｹﾋﾞ","pref":"富山県","city":"黒部市","address":"宇奈月町明日"},
{"zip_code":"9380281","kana_pref":"ﾄﾔﾏｹﾝ","kana_city":"ｸﾛﾍﾞｼ","kana_address":"ｳﾅﾂﾞｷﾏﾁｳﾁﾔﾏ","pref":"富山県","city":"黒部市","address":"宇奈月町内山"},
{"zip_code":"9380862","kana_pref":"ﾄﾔﾏｹﾝ","kana_city":"ｸﾛﾍﾞｼ","kana_address":"ｳﾅﾂﾞｷﾏﾁｳﾗﾔﾏ","pref":"富山県","city":"黒部市","address":"宇奈月町浦山"},
{"zip_code":"9380274","kana_pref":"ﾄﾔﾏｹﾝ","kana_city":"ｸﾛﾍﾞｼ","kana_address":"ｳﾅﾂﾞｷﾏﾁｵﾄｻﾞﾜ","pref":"富山県","city":"黒部市","address":"宇奈月町音澤"},
{"zip_code":"9380174","kana_pref":"ﾄﾔﾏｹﾝ","kana_city":"ｸﾛﾍﾞｼ","kana_address":"ｳﾅﾂﾞｷﾏﾁｵﾄｻﾞﾜ","pref":"富山県","city":"黒部市","address":"宇奈月町音澤"},
{"zip_code":"9380861","kana_pref":"ﾄﾔﾏｹﾝ","kana_city":"ｸﾛﾍﾞｼ","kana_address":"ｳﾅﾂﾞｷﾏﾁｵﾘﾀﾃ","pref":"富山県","city":"黒部市","address":"宇奈月町下立"},
{"zip_code":"9380863","kana_pref":"ﾄﾔﾏｹﾝ","kana_city":"ｸﾛﾍﾞｼ","kana_address":"ｳﾅﾂﾞｷﾏﾁｸﾏﾉ","pref":"富山県","city":"黒部市","address":"宇奈月町熊野"},
{"zip_code":"9380178","kana_pref":"ﾄﾔﾏｹﾝ","kana_city":"ｸﾛﾍﾞｼ","kana_address":"ｳﾅﾂﾞｷﾏﾁｸﾘﾑｼ","pref":"富山県","city":"黒部市","address":"宇奈月町栗虫"},
{"zip_code":"9380864","kana_pref":"ﾄﾔﾏｹﾝ","kana_city":"ｸﾛﾍﾞｼ","kana_address":"ｳﾅﾂﾞｷﾏﾁﾄﾁﾔ","pref":"富山県","city":"黒部市","address":"宇奈月町栃屋"},
{"zip_code":"9380172","kana_pref":"ﾄﾔﾏｹﾝ","kana_city":"ｸﾛﾍﾞｼ","kana_address":"ｳﾅﾂﾞｷﾏﾁﾄﾞﾔﾏ","pref":"富山県","city":"黒部市","address":"宇奈月町土山"},
{"zip_code":"9380173","kana_pref":"ﾄﾔﾏｹﾝ","kana_city":"ｸﾛﾍﾞｼ","kana_address":"ｳﾅﾂﾞｷﾏﾁﾅｶﾀﾞﾝ","pref":"富山県","city":"黒部市","address":"宇奈月町中谷"},
{"zip_code":"9380176","kana_pref":"ﾄﾔﾏｹﾝ","kana_city":"ｸﾛﾍﾞｼ","kana_address":"ｳﾅﾂﾞｷﾏﾁﾅｶﾉｸﾁ","pref":"富山県","city":"黒部市","address":"宇奈月町中ノ口"},
{"zip_code":"9380179","kana_pref":"ﾄﾔﾏｹﾝ","kana_city":"ｸﾛﾍﾞｼ","kana_address":"ｳﾅﾂﾞｷﾏﾁﾌﾅﾐ","pref":"富山県","city":"黒部市","address":"宇奈月町舟見"},
{"zip_code":"9380006","kana_pref":"ﾄﾔﾏｹﾝ","kana_city":"ｸﾛﾍﾞｼ","kana_address":"ｵｵﾋﾞﾗｷ","pref":"富山県","city":"黒部市","address":"大開"},
{"zip_code":"9380054","kana_pref":"ﾄﾔﾏｹﾝ","kana_city":"ｸﾛﾍﾞｼ","kana_address":"ｵｶ","pref":"富山県","city":"黒部市","address":"岡"},
{"zip_code":"9380801","kana_pref":"ﾄﾔﾏｹﾝ","kana_city":"ｸﾛﾍﾞｼ","kana_address":"ｵｷﾞｭｳ","pref":"富山県","city":"黒部市","address":"荻生"},
{"zip_code":"9380825","kana_pref":"ﾄﾔﾏｹﾝ","kana_city":"ｸﾛﾍﾞｼ","kana_address":"ｵﾔﾏ","pref":"富山県","city":"黒部市","address":"尾山"},
{"zip_code":"9380836","kana_pref":"ﾄﾔﾏｹﾝ","kana_city":"ｸﾛﾍﾞｼ","kana_address":"ｶｶﾞﾐﾉ","pref":"富山県","city":"黒部市","address":"鏡野"},
{"zip_code":"9380812","kana_pref":"ﾄﾔﾏｹﾝ","kana_city":"ｸﾛﾍﾞｼ","kana_address":"ｶｻﾔﾌﾞﾘ","pref":"富山県","city":"黒部市","address":"笠破"},
{"zip_code":"9380022","kana_pref":"ﾄﾔﾏｹﾝ","kana_city":"ｸﾛﾍﾞｼ","kana_address":"ｶﾅﾔ","pref":"富山県","city":"黒部市","address":"金屋"},
{"zip_code":"9380814","kana_pref":"ﾄﾔﾏｹﾝ","kana_city":"ｸﾛﾍﾞｼ","kana_address":"ｶﾚｲｻﾜ","pref":"富山県","city":"黒部市","address":"嘉例沢"},
{"zip_code":"9380036","kana_pref":"ﾄﾔﾏｹﾝ","kana_city":"ｸﾛﾍﾞｼ","kana_address":"ｷﾀｼﾝ","pref":"富山県","city":"黒部市","address":"北新"},
{"zip_code":"9380015","kana_pref":"ﾄﾔﾏｹﾝ","kana_city":"ｸﾛﾍﾞｼ","kana_address":"ｷﾀﾉ","pref":"富山県","city":"黒部市","address":"北野"},
{"zip_code":"9380805","kana_pref":"ﾄﾔﾏｹﾝ","kana_city":"ｸﾛﾍﾞｼ","kana_address":"ｷﾁｼﾞｮｳｼﾞ","pref":"富山県","city":"黒部市","address":"吉城寺"},
{"zip_code":"9380052","kana_pref":"ﾄﾔﾏｹﾝ","kana_city":"ｸﾛﾍﾞｼ","kana_address":"ｷｮｳﾀﾃﾉ","pref":"富山県","city":"黒部市","address":"経立野"},
{"zip_code":"9380013","kana_pref":"ﾄﾔﾏｹﾝ","kana_city":"ｸﾛﾍﾞｼ","kana_address":"ｸﾂｶｹ","pref":"富山県","city":"黒部市","address":"沓掛"},
{"zip_code":"9380047","kana_pref":"ﾄﾔﾏｹﾝ","kana_city":"ｸﾛﾍﾞｼ","kana_address":"ｸﾎﾞﾉ","pref":"富山県","city":"黒部市","address":"窪野"},
{"zip_code":"9380803","kana_pref":"ﾄﾔﾏｹﾝ","kana_city":"ｸﾛﾍﾞｼ","kana_address":"ｸﾘﾃﾞﾗ","pref":"富山県","city":"黒部市","address":"栗寺"},
{"zip_code":"9380283","kana_pref":"ﾄﾔﾏｹﾝ","kana_city":"ｸﾛﾍﾞｼ","kana_address":"ｸﾛﾍﾞｷｮｳｺｸｸﾞﾁ","pref":"富山県","city":"黒部市","address":"黒部峡谷口"},
{"zip_code":"9380011","kana_pref":"ﾄﾔﾏｹﾝ","kana_city":"ｸﾛﾍﾞｼ","kana_address":"ｸﾛﾍﾞｼﾝ","pref":"富山県","city":"黒部市","address":"黒部新"},
{"zip_code":"9380046","kana_pref":"ﾄﾔﾏｹﾝ","kana_city":"ｸﾛﾍﾞｼ","kana_address":"ｺﾝﾀﾆ","pref":"富山県","city":"黒部市","address":"神谷"},
{"zip_code":"9380823","kana_pref":"ﾄﾔﾏｹﾝ","kana_city":"ｸﾛﾍﾞｼ","kana_address":"ｼｬｶﾄﾞｳ","pref":"富山県","city":"黒部市","address":"釈迦堂"},
{"zip_code":"9380058","kana_pref":"ﾄﾔﾏｹﾝ","kana_city":"ｸﾛﾍﾞｼ","kana_address":"ｼｮｳｺｳｼﾞｼﾝ","pref":"富山県","city":"黒部市","address":"正光寺新"},
{"zip_code":"9380038","kana_pref":"ﾄﾔﾏｹﾝ","kana_city":"ｸﾛﾍﾞｼ","kana_address":"ｼﾝﾃﾝ","pref":"富山県","city":"黒部市","address":"新天"},
{"zip_code":"9380037","kana_pref":"ﾄﾔﾏｹﾝ","kana_city":"ｸﾛﾍﾞｼ","kana_address":"ｼﾝﾏｷﾉ","pref":"富山県","city":"黒部市","address":"新牧野"},
{"zip_code":"9380056","kana_pref":"ﾄﾔﾏｹﾝ","kana_city":"ｸﾛﾍﾞｼ","kana_address":"ｼﾝﾏﾁ","pref":"富山県","city":"黒部市","address":"新町"},
{"zip_code":"9380045","kana_pref":"ﾄﾔﾏｹﾝ","kana_city":"ｸﾛﾍﾞｼ","kana_address":"ﾀｲｴｼﾝ","pref":"富山県","city":"黒部市","address":"田家新"},
{"zip_code":"9380837","kana_pref":"ﾄﾔﾏｹﾝ","kana_city":"ｸﾛﾍﾞｼ","kana_address":"ﾀｲｴﾉ","pref":"富山県","city":"黒部市","address":"田家野"},
{"zip_code":"9380026","kana_pref":"ﾄﾔﾏｹﾝ","kana_city":"ｸﾛﾍﾞｼ","kana_address":"ﾀｲｶﾞｸﾞﾁ","pref":"富山県","city":"黒部市","address":"田家角内"},
{"zip_code":"9380024","kana_pref":"ﾄﾔﾏｹﾝ","kana_city":"ｸﾛﾍﾞｼ","kana_address":"ﾀｶﾊｼ","pref":"富山県","city":"黒部市","address":"高橋"},
{"zip_code":"9380051","kana_pref":"ﾄﾔﾏｹﾝ","kana_city":"ｸﾛﾍﾞｼ","kana_address":"ﾀﾃﾉ","pref":"富山県","city":"黒部市","address":"立野"},
{"zip_code":"9380813","kana_pref":"ﾄﾔﾏｹﾝ","kana_city":"ｸﾛﾍﾞｼ","kana_address":"ﾀﾓﾐ","pref":"富山県","city":"黒部市","address":"田籾"},
{"zip_code":"9380012","kana_pref":"ﾄﾔﾏｹﾝ","kana_city":"ｸﾛﾍﾞｼ","kana_address":"ﾃﾞｼﾞﾏ","pref":"富山県","city":"黒部市","address":"出島"},
{"zip_code":"9380042","kana_pref":"ﾄﾔﾏｹﾝ","kana_city":"ｸﾛﾍﾞｼ","kana_address":"ﾃﾝｼﾞﾝｼﾝ","pref":"富山県","city":"黒部市","address":"天神新"},
{"zip_code":"9380039","kana_pref":"ﾄﾔﾏｹﾝ","kana_city":"ｸﾛﾍﾞｼ","kana_address":"ﾄﾞｳﾀﾞ","pref":"富山県","city":"黒部市","address":"堂田"},
{"zip_code":"9380028","kana_pref":"ﾄﾔﾏｹﾝ","kana_city":"ｸﾛﾍﾞｼ","kana_address":"ﾄﾁｻﾞﾜ","pref":"富山県","city":"黒部市","address":"栃沢"},
{"zip_code":"9380027","kana_pref":"ﾄﾔﾏｹﾝ","kana_city":"ｸﾛﾍﾞｼ","kana_address":"ﾅｶｼﾝ","pref":"富山県","city":"黒部市","address":"中新"},
{"zip_code":"9380827","kana_pref":"ﾄﾔﾏｹﾝ","kana_city":"ｸﾛﾍﾞｼ","kana_address":"ﾅｶｼﾞﾝ","pref":"富山県","city":"黒部市","address":"中陣"},
{"zip_code":"9380034","kana_pref":"ﾄﾔﾏｹﾝ","kana_city":"ｸﾛﾍﾞｼ","kana_address":"ﾅｶﾉ","pref":"富山県","city":"黒部市","address":"中野"},
{"zip_code":"9380033","kana_pref":"ﾄﾔﾏｹﾝ","kana_city":"ｸﾛﾍﾞｼ","kana_address":"ﾅｶﾉﾐﾁ","pref":"富山県","city":"黒部市","address":"中野道"},
{"zip_code":"9380834","kana_pref":"ﾄﾔﾏｹﾝ","kana_city":"ｸﾛﾍﾞｼ","kana_address":"ﾅｶﾔﾏ","pref":"富山県","city":"黒部市","address":"中山"},
{"zip_code":"9380055","kana_pref":"ﾄﾔﾏｹﾝ","kana_city":"ｸﾛﾍﾞｼ","kana_address":"ﾊﾏｲｼﾀﾞ","pref":"富山県","city":"黒部市","address":"浜石田"},
{"zip_code":"9380002","kana_pref":"ﾄﾔﾏｹﾝ","kana_city":"ｸﾛﾍﾞｼ","kana_address":"ﾋﾀﾞ","pref":"富山県","city":"黒部市","address":"飛騨"},
{"zip_code":"9380815","kana_pref":"ﾄﾔﾏｹﾝ","kana_city":"ｸﾛﾍﾞｼ","kana_address":"ﾌｸﾋﾗ","pref":"富山県","city":"黒部市","address":"福平"},
{"zip_code":"9380021","kana_pref":"ﾄﾔﾏｹﾝ","kana_city":"ｸﾛﾍﾞｼ","kana_address":"ﾌﾙﾐﾄﾞｳ","pref":"富山県","city":"黒部市","address":"古御堂"},
{"zip_code":"9380822","kana_pref":"ﾄﾔﾏｹﾝ","kana_city":"ｸﾛﾍﾞｼ","kana_address":"ﾍﾞｯｼｮ","pref":"富山県","city":"黒部市","address":"別所"},
{"zip_code":"9380826","kana_pref":"ﾄﾔﾏｹﾝ","kana_city":"ｸﾛﾍﾞｼ","kana_address":"ﾎｵﾉｷﾀﾞﾆ","pref":"富山県","city":"黒部市","address":"朴谷"},
{"zip_code":"9380041","kana_pref":"ﾄﾔﾏｹﾝ","kana_city":"ｸﾛﾍﾞｼ","kana_address":"ﾎﾘｷﾘ","pref":"富山県","city":"黒部市","address":"堀切"},
{"zip_code":"9380025","kana_pref":"ﾄﾔﾏｹﾝ","kana_city":"ｸﾛﾍﾞｼ","kana_address":"ﾎﾘｷﾘｼﾝ","pref":"富山県","city":"黒部市","address":"堀切新"},
{"zip_code":"9380023","kana_pref":"ﾄﾔﾏｹﾝ","kana_city":"ｸﾛﾍﾞｼ","kana_address":"ﾎﾘﾀｶ","pref":"富山県","city":"黒部市","address":"堀高"},
{"zip_code":"9380806","kana_pref":"ﾄﾔﾏｹﾝ","kana_city":"ｸﾛﾍﾞｼ","kana_address":"ﾏｴｻﾞﾜ","pref":"富山県","city":"黒部市","address":"前沢"},
{"zip_code":"9380035","kana_pref":"ﾄﾔﾏｹﾝ","kana_city":"ｸﾛﾍﾞｼ","kana_address":"ﾏｷﾉ","pref":"富山県","city":"黒部市","address":"牧野"},
{"zip_code":"9380832","kana_pref":"ﾄﾔﾏｹﾝ","kana_city":"ｸﾛﾍﾞｼ","kana_address":"ﾏｸﾗﾉ","pref":"富山県","city":"黒部市","address":"枕野"},
{"zip_code":"9380031","kana_pref":"ﾄﾔﾏｹﾝ","kana_city":"ｸﾛﾍﾞｼ","kana_address":"ﾐｯｶｲﾁ","pref":"富山県","city":"黒部市","address":"三日市"},
{"zip_code":"9380831","kana_pref":"ﾄﾔﾏｹﾝ","kana_city":"ｸﾛﾍﾞｼ","kana_address":"ﾐﾔｻﾞﾜ","pref":"富山県","city":"黒部市","address":"宮沢"},
{"zip_code":"9380804","kana_pref":"ﾄﾔﾏｹﾝ","kana_city":"ｸﾛﾍﾞｼ","kana_address":"ﾐﾔﾉ","pref":"富山県","city":"黒部市","address":"宮野"},
{"zip_code":"9380833","kana_pref":"ﾄﾔﾏｹﾝ","kana_city":"ｸﾛﾍﾞｼ","kana_address":"ﾓﾄﾉ","pref":"富山県","city":"黒部市","address":"本野"},
{"zip_code":"9380821","kana_pref":"ﾄﾔﾏｹﾝ","kana_city":"ｸﾛﾍﾞｼ","kana_address":"ﾔﾅｷﾞｻﾜ","pref":"富山県","city":"黒部市","address":"柳沢"},
{"zip_code":"9380049","kana_pref":"ﾄﾔﾏｹﾝ","kana_city":"ｸﾛﾍﾞｼ","kana_address":"ﾔﾏﾀﾞ","pref":"富山県","city":"黒部市","address":"山田"},
{"zip_code":"9380807","kana_pref":"ﾄﾔﾏｹﾝ","kana_city":"ｸﾛﾍﾞｼ","kana_address":"ﾔﾏﾀﾞｼﾝ","pref":"富山県","city":"黒部市","address":"山田新"},
{"zip_code":"9380053","kana_pref":"ﾄﾔﾏｹﾝ","kana_city":"ｸﾛﾍﾞｼ","kana_address":"ﾔﾏﾀﾃﾉ","pref":"富山県","city":"黒部市","address":"山立野"},
{"zip_code":"9380005","kana_pref":"ﾄﾔﾏｹﾝ","kana_city":"ｸﾛﾍﾞｼ","kana_address":"ﾖｼﾀﾞ","pref":"富山県","city":"黒部市","address":"吉田"},
{"zip_code":"9380003","kana_pref":"ﾄﾔﾏｹﾝ","kana_city":"ｸﾛﾍﾞｼ","kana_address":"ﾛｸﾃﾝ","pref":"富山県","city":"黒部市","address":"六天"},
{"zip_code":"9380802","kana_pref":"ﾄﾔﾏｹﾝ","kana_city":"ｸﾛﾍﾞｼ","kana_address":"ﾜｶｸﾞﾘ","pref":"富山県","city":"黒部市","address":"若栗"},
{"zip_code":"9380101","kana_pref":"ﾄﾔﾏｹﾝ","kana_city":"ｼﾓﾆｲｶﾜｸﾞﾝﾆｭｳｾﾞﾝﾏﾁ","kana_address":"ｲﾏｴ","pref":"富山県","city":"下新川郡入善町","address":"今江"},
{"zip_code":"9380105","kana_pref":"ﾄﾔﾏｹﾝ","kana_city":"ｼﾓﾆｲｶﾜｸﾞﾝﾆｭｳｾﾞﾝﾏﾁ","kana_address":"ﾅｶｻﾞﾜ","pref":"富山県","city":"下新川郡入善町","address":"中沢"},
{"zip_code":"9380104","kana_pref":"ﾄﾔﾏｹﾝ","kana_city":"ｼﾓﾆｲｶﾜｸﾞﾝﾆｭｳｾﾞﾝﾏﾁ","kana_address":"ﾆｼﾅｶ","pref":"富山県","city":"下新川郡入善町","address":"西中"},
{"zip_code":"9380106","kana_pref":"ﾄﾔﾏｹﾝ","kana_city":"ｼﾓﾆｲｶﾜｸﾞﾝﾆｭｳｾﾞﾝﾏﾁ","kana_address":"ﾉﾅｶ","pref":"富山県","city":"下新川郡入善町","address":"野中"},
{"zip_code":"9380103","kana_pref":"ﾄﾔﾏｹﾝ","kana_city":"ｼﾓﾆｲｶﾜｸﾞﾝﾆｭｳｾﾞﾝﾏﾁ","kana_address":"ﾌﾅﾐ","pref":"富山県","city":"下新川郡入善町","address":"舟見"},
{"zip_code":"9380102","kana_pref":"ﾄﾔﾏｹﾝ","kana_city":"ｼﾓﾆｲｶﾜｸﾞﾝﾆｭｳｾﾞﾝﾏﾁ","kana_address":"ﾌﾙﾊﾞﾔｼ","pref":"富山県","city":"下新川郡入善町","address":"古林"},
{"zip_code":"9380167","kana_pref":"ﾄﾔﾏｹﾝ","kana_city":"ｼﾓﾆｲｶﾜｸﾞﾝｱｻﾋﾏﾁ","kana_address":"ｻﾝﾉｳ","pref":"富山県","city":"下新川郡朝日町","address":"山王"},
{"zip_code":"9380169","kana_pref":"ﾄﾔﾏｹﾝ","kana_city":"ｼﾓﾆｲｶﾜｸﾞﾝｱｻﾋﾏﾁ","kana_address":"ｼﾓﾉ","pref":"富山県","city":"下新川郡朝日町","address":"下野"},
{"zip_code":"9380164","kana_pref":"ﾄﾔﾏｹﾝ","kana_city":"ｼﾓﾆｲｶﾜｸﾞﾝｱｻﾋﾏﾁ","kana_address":"ﾀﾅﾔﾏ","pref":"富山県","city":"下新川郡朝日町","address":"棚山"},
{"zip_code":"9380161","kana_pref":"ﾄﾔﾏｹﾝ","kana_city":"ｼﾓﾆｲｶﾜｸﾞﾝｱｻﾋﾏﾁ","kana_address":"ﾄﾉﾏﾁ","pref":"富山県","city":"下新川郡朝日町","address":"殿町"},
{"zip_code":"9380168","kana_pref":"ﾄﾔﾏｹﾝ","kana_city":"ｼﾓﾆｲｶﾜｸﾞﾝｱｻﾋﾏﾁ","kana_address":"ﾌｼﾞﾂｶ","pref":"富山県","city":"下新川郡朝日町","address":"藤塚"},
{"zip_code":"9380166","kana_pref":"ﾄﾔﾏｹﾝ","kana_city":"ｼﾓﾆｲｶﾜｸﾞﾝｱｻﾋﾏﾁ","kana_address":"ﾎｿﾉ","pref":"富山県","city":"下新川郡朝日町","address":"細野"},
{"zip_code":"9380162","kana_pref":"ﾄﾔﾏｹﾝ","kana_city":"ｼﾓﾆｲｶﾜｸﾞﾝｱｻﾋﾏﾁ","kana_address":"ﾔﾏｻﾞｷ","pref":"富山県","city":"下新川郡朝日町","address":"山崎"},
{"zip_code":"9380162","kana_pref":"ﾄﾔﾏｹﾝ","kana_city":"ｼﾓﾆｲｶﾜｸﾞﾝｱｻﾋﾏﾁ","kana_address":"ﾔﾏｻﾞｷ","pref":"富山県","city":"下新川郡朝日町","address":"山崎"},
{"zip_code":"9380162","kana_pref":"ﾄﾔﾏｹﾝ","kana_city":"ｼﾓﾆｲｶﾜｸﾞﾝｱｻﾋﾏﾁ","kana_address":"ﾔﾏｻﾞｷ","pref":"富山県","city":"下新川郡朝日町","address":"山崎"},
{"zip_code":"9380162","kana_pref":"ﾄﾔﾏｹﾝ","kana_city":"ｼﾓﾆｲｶﾜｸﾞﾝｱｻﾋﾏﾁ","kana_address":"ﾔﾏｻﾞｷ","pref":"富山県","city":"下新川郡朝日町","address":"山崎"},
{"zip_code":"9380162","kana_pref":"ﾄﾔﾏｹﾝ","kana_city":"ｼﾓﾆｲｶﾜｸﾞﾝｱｻﾋﾏﾁ","kana_address":"ﾔﾏｻﾞｷ","pref":"富山県","city":"下新川郡朝日町","address":"山崎"},
{"zip_code":"9380162","kana_pref":"ﾄﾔﾏｹﾝ","kana_city":"ｼﾓﾆｲｶﾜｸﾞﾝｱｻﾋﾏﾁ","kana_address":"ﾔﾏｻﾞｷ","pref":"富山県","city":"下新川郡朝日町","address":"山崎"},
{"zip_code":"9380162","kana_pref":"ﾄﾔﾏｹﾝ","kana_city":"ｼﾓﾆｲｶﾜｸﾞﾝｱｻﾋﾏﾁ","kana_address":"ﾔﾏｻﾞｷ","pref":"富山県","city":"下新川郡朝日町","address":"山崎"},
{"zip_code":"9380162","kana_pref":"ﾄﾔﾏｹﾝ","kana_city":"ｼﾓﾆｲｶﾜｸﾞﾝｱｻﾋﾏﾁ","kana_address":"ﾔﾏｻﾞｷ","pref":"富山県","city":"下新川郡朝日町","address":"山崎"},
{"zip_code":"9380165","kana_pref":"ﾄﾔﾏｹﾝ","kana_city":"ｼﾓﾆｲｶﾜｸﾞﾝｱｻﾋﾏﾁ","kana_address":"ﾔﾏｻﾞｷｼﾝ","pref":"富山県","city":"下新川郡朝日町","address":"山崎新"},
{"zip_code":"9380163","kana_pref":"ﾄﾔﾏｹﾝ","kana_city":"ｼﾓﾆｲｶﾜｸﾞﾝｱｻﾋﾏﾁ","kana_address":"ﾕﾉｾ","pref":"富山県","city":"下新川郡朝日町","address":"湯ノ瀬"}]}