{"zip_code":[
{"zip_code":"9400000","kana_pref":"ﾆｲｶﾞﾀｹﾝ","kana_city":"ﾅｶﾞｵｶｼ","kana_address":"","pref":"新潟県","city":"長岡市","address":""},
{"zip_code":"9401112","kana_pref":"ﾆｲｶﾞﾀｹﾝ","kana_city":"ﾅｶﾞｵｶｼ","kana_address":"ｱｵｷﾏﾁ","pref":"新潟県","city":"長岡市","address":"青木町"},
{"zip_code":"9401145","kana_pref":"ﾆｲｶﾞﾀｹﾝ","kana_city":"ﾅｶﾞｵｶｼ","kana_address":"ｱｵｼﾏﾏﾁ","pref":"新潟県","city":"長岡市","address":"青島町"},
{"zip_code":"9402145","kana_pref":"ﾆｲｶﾞﾀｹﾝ","kana_city":"ﾅｶﾞｵｶｼ","kana_address":"ｱｵﾊﾞﾀﾞｲ","pref":"新潟県","city":"長岡市","address":"青葉台"},
{"zip_code":"9401149","kana_pref":"ﾆｲｶﾞﾀｹﾝ","kana_city":"ﾅｶﾞｵｶｼ","kana_address":"ｱｵﾔﾏｼﾝﾏﾁ","pref":"新潟県","city":"長岡市","address":"青山新町"},
{"zip_code":"9401148","kana_pref":"ﾆｲｶﾞﾀｹﾝ","kana_city":"ﾅｶﾞｵｶｼ","kana_address":"ｱｵﾔﾏﾏﾁ","pref":"新潟県","city":"長岡市","address":"青山町"},
{"zip_code":"9400147","kana_pref":"ﾆｲｶﾞﾀｹﾝ","kana_city":"ﾅｶﾞｵｶｼ","kana_address":"ｱｶﾀﾆ","pref":"新潟県","city":"長岡市","address":"赤谷"},
{"zip_code":"9400105","kana_pref":"ﾆｲｶﾞﾀｹﾝ","kana_city":"ﾅｶﾞｵｶｼ","kana_address":"ｱｹﾄ","pref":"新潟県","city":"長岡市","address":"明戸"},
{"zip_code":"9400832","kana_pref":"ﾆｲｶﾞﾀｹﾝ","kana_city":"ﾅｶﾞｵｶｼ","kana_address":"ｱｹﾎﾞﾉ","pref":"新潟県","city":"長岡市","address":"曙"},
{"zip_code":"9400063","kana_pref":"ﾆｲｶﾞﾀｹﾝ","kana_city":"ﾅｶﾞｵｶｼ","kana_address":"ｱｻﾋﾏﾁ","pref":"新潟県","city":"長岡市","address":"旭町"},
{"zip_code":"9400224","kana_pref":"ﾆｲｶﾞﾀｹﾝ","kana_city":"ﾅｶﾞｵｶｼ","kana_address":"ｱｽﾞﾏﾁｮｳ","pref":"新潟県","city":"長岡市","address":"東町"},
{"zip_code":"9400806","kana_pref":"ﾆｲｶﾞﾀｹﾝ","kana_city":"ﾅｶﾞｵｶｼ","kana_address":"ｱｿｳﾀﾞﾏﾁ","pref":"新潟県","city":"長岡市","address":"麻生田町"},
{"zip_code":"9400036","kana_pref":"ﾆｲｶﾞﾀｹﾝ","kana_city":"ﾅｶﾞｵｶｼ","kana_address":"ｱﾀｺﾞ","pref":"新潟県","city":"長岡市","address":"愛宕"},
{"zip_code":"9402055","kana_pref":"ﾆｲｶﾞﾀｹﾝ","kana_city":"ﾅｶﾞｵｶｼ","kana_address":"ｱﾏｲｹﾏﾁ","pref":"新潟県","city":"長岡市","address":"雨池町"},
{"zip_code":"9400232","kana_pref":"ﾆｲｶﾞﾀｹﾝ","kana_city":"ﾅｶﾞｵｶｼ","kana_address":"ｱﾏｶﾞｼﾏ","pref":"新潟県","city":"長岡市","address":"天下島"},
{"zip_code":"9400023","kana_pref":"ﾆｲｶﾞﾀｹﾝ","kana_city":"ﾅｶﾞｵｶｼ","kana_address":"ｱﾗﾏﾁ","pref":"新潟県","city":"長岡市","address":"新町"},
{"zip_code":"9400026","kana_pref":"ﾆｲｶﾞﾀｹﾝ","kana_city":"ﾅｶﾞｵｶｼ","kana_address":"ｲｼｳﾁ","pref":"新潟県","city":"長岡市","address":"石内"},
{"zip_code":"9400025","kana_pref":"ﾆｲｶﾞﾀｹﾝ","kana_city":"ﾅｶﾞｵｶｼ","kana_address":"ｲｽﾞﾐ","pref":"新潟県","city":"長岡市","address":"泉"},
{"zip_code":"9402032","kana_pref":"ﾆｲｶﾞﾀｹﾝ","kana_city":"ﾅｶﾞｵｶｼ","kana_address":"ｲｽﾙｷﾞﾏﾁ","pref":"新潟県","city":"長岡市","address":"石動町"},
{"zip_code":"9402117","kana_pref":"ﾆｲｶﾞﾀｹﾝ","kana_city":"ﾅｶﾞｵｶｼ","kana_address":"ｲｽﾙｷﾞﾐﾅﾐﾏﾁ","pref":"新潟県","city":"長岡市","address":"石動南町"},
{"zip_code":"9400242","kana_pref":"ﾆｲｶﾞﾀｹﾝ","kana_city":"ﾅｶﾞｵｶｼ","kana_address":"ｲﾁﾉｶｲ","pref":"新潟県","city":"長岡市","address":"一之貝"},
{"zip_code":"9400872","kana_pref":"ﾆｲｶﾞﾀｹﾝ","kana_city":"ﾅｶﾞｵｶｼ","kana_address":"ｲﾅﾊﾞﾏﾁ","pref":"新潟県","city":"長岡市","address":"稲葉町"},
{"zip_code":"9400877","kana_pref":"ﾆｲｶﾞﾀｹﾝ","kana_city":"ﾅｶﾞｵｶｼ","kana_address":"ｲﾅﾎ","pref":"新潟県","city":"長岡市","address":"稲保"},
{"zip_code":"9401166","kana_pref":"ﾆｲｶﾞﾀｹﾝ","kana_city":"ﾅｶﾞｵｶｼ","kana_address":"ｲﾏｲ","pref":"新潟県","city":"長岡市","address":"今井"},
{"zip_code":"9400143","kana_pref":"ﾆｲｶﾞﾀｹﾝ","kana_city":"ﾅｶﾞｵｶｼ","kana_address":"ｲﾘｼｵｶﾞﾜ","pref":"新潟県","city":"長岡市","address":"入塩川"},
{"zip_code":"9401171","kana_pref":"ﾆｲｶﾞﾀｹﾝ","kana_city":"ﾅｶﾞｵｶｼ","kana_address":"ｲﾜﾉ","pref":"新潟県","city":"長岡市","address":"岩野"},
{"zip_code":"9400074","kana_pref":"ﾆｲｶﾞﾀｹﾝ","kana_city":"ﾅｶﾞｵｶｼ","kana_address":"ｳｴﾀﾞﾏﾁ","pref":"新潟県","city":"長岡市","address":"上田町"},
{"zip_code":"9400237","kana_pref":"ﾆｲｶﾞﾀｹﾝ","kana_city":"ﾅｶﾞｵｶｼ","kana_address":"ｳｴﾉﾊﾗﾏﾁ","pref":"新潟県","city":"長岡市","address":"上の原町"},
{"zip_code":"9400123","kana_pref":"ﾆｲｶﾞﾀｹﾝ","kana_city":"ﾅｶﾞｵｶｼ","kana_address":"ｳﾒﾉﾏﾀ","pref":"新潟県","city":"長岡市","address":"梅野俣"},
{"zip_code":"9400805","kana_pref":"ﾆｲｶﾞﾀｹﾝ","kana_city":"ﾅｶﾞｵｶｼ","kana_address":"ｳﾗｾﾏﾁ","pref":"新潟県","city":"長岡市","address":"浦瀬町"},
{"zip_code":"9402303","kana_pref":"ﾆｲｶﾞﾀｹﾝ","kana_city":"ﾅｶﾞｵｶｼ","kana_address":"ｳﾘｭｳ","pref":"新潟県","city":"長岡市","address":"瓜生"},
{"zip_code":"9402056","kana_pref":"ﾆｲｶﾞﾀｹﾝ","kana_city":"ﾅｶﾞｵｶｼ","kana_address":"ｵｳﾊﾞﾃﾞﾝﾏﾁ","pref":"新潟県","city":"長岡市","address":"王番田町"},
{"zip_code":"9402059","kana_pref":"ﾆｲｶﾞﾀｹﾝ","kana_city":"ﾅｶﾞｵｶｼ","kana_address":"ｵｵｱﾗﾄﾏﾁ","pref":"新潟県","city":"長岡市","address":"大荒戸町"},
{"zip_code":"9400148","kana_pref":"ﾆｲｶﾞﾀｹﾝ","kana_city":"ﾅｶﾞｵｶｼ","kana_address":"ｵｵｶﾜﾄﾞ","pref":"新潟県","city":"長岡市","address":"大川戸"},
{"zip_code":"9401137","kana_pref":"ﾆｲｶﾞﾀｹﾝ","kana_city":"ﾅｶﾞｵｶｼ","kana_address":"ｵｵｶﾞﾜﾗﾏﾁ","pref":"新潟県","city":"長岡市","address":"大川原町"},
{"zip_code":"9402104","kana_pref":"ﾆｲｶﾞﾀｹﾝ","kana_city":"ﾅｶﾞｵｶｼ","kana_address":"ｵｵｼﾞﾏｼﾝﾏﾁ","pref":"新潟県","city":"長岡市","address":"大島新町"},
{"zip_code":"9402112","kana_pref":"ﾆｲｶﾞﾀｹﾝ","kana_city":"ﾅｶﾞｵｶｼ","kana_address":"ｵｵｼﾞﾏﾎﾝﾁｮｳ","pref":"新潟県","city":"長岡市","address":"大島本町"},
{"zip_code":"9402156","kana_pref":"ﾆｲｶﾞﾀｹﾝ","kana_city":"ﾅｶﾞｵｶｼ","kana_address":"ｵｵﾂﾞﾐｵﾘﾜﾀﾘﾏﾁ","pref":"新潟県","city":"長岡市","address":"大積折渡町"},
{"zip_code":"9402155","kana_pref":"ﾆｲｶﾞﾀｹﾝ","kana_city":"ﾅｶﾞｵｶｼ","kana_address":"ｵｵﾂﾞﾐｸﾏｶﾞﾐﾏﾁ","pref":"新潟県","city":"長岡市","address":"大積熊上町"},
{"zip_code":"9402153","kana_pref":"ﾆｲｶﾞﾀｹﾝ","kana_city":"ﾅｶﾞｵｶｼ","kana_address":"ｵｵﾂﾞﾐｾﾝﾎﾞﾝﾏﾁ","pref":"新潟県","city":"長岡市","address":"大積千本町"},
{"zip_code":"9402158","kana_pref":"ﾆｲｶﾞﾀｹﾝ","kana_city":"ﾅｶﾞｵｶｼ","kana_address":"ｵｵﾂﾞﾐｾﾞﾝﾏﾏﾁ","pref":"新潟県","city":"長岡市","address":"大積善間町"},
{"zip_code":"9402152","kana_pref":"ﾆｲｶﾞﾀｹﾝ","kana_city":"ﾅｶﾞｵｶｼ","kana_address":"ｵｵﾂﾞﾐﾀｶﾄﾘﾏﾁ","pref":"新潟県","city":"長岡市","address":"大積高鳥町"},
{"zip_code":"9402154","kana_pref":"ﾆｲｶﾞﾀｹﾝ","kana_city":"ﾅｶﾞｵｶｼ","kana_address":"ｵｵﾂﾞﾐﾀｼﾛﾏﾁ","pref":"新潟県","city":"長岡市","address":"大積田代町"},
{"zip_code":"9402151","kana_pref":"ﾆｲｶﾞﾀｹﾝ","kana_city":"ﾅｶﾞｵｶｼ","kana_address":"ｵｵﾂﾞﾐﾊｲｹﾞﾏﾁ","pref":"新潟県","city":"長岡市","address":"大積灰下町"},
{"zip_code":"9402157","kana_pref":"ﾆｲｶﾞﾀｹﾝ","kana_city":"ﾅｶﾞｵｶｼ","kana_address":"ｵｵﾂﾞﾐﾐｼﾏﾀﾞﾆﾏﾁ","pref":"新潟県","city":"長岡市","address":"大積三島谷町"},
{"zip_code":"9402146","kana_pref":"ﾆｲｶﾞﾀｹﾝ","kana_city":"ﾅｶﾞｵｶｼ","kana_address":"ｵｵﾂﾞﾐﾏﾁ","pref":"新潟県","city":"長岡市","address":"大積町"},
{"zip_code":"9400062","kana_pref":"ﾆｲｶﾞﾀｹﾝ","kana_city":"ﾅｶﾞｵｶｼ","kana_address":"ｵｵﾃﾄﾞｵﾘ","pref":"新潟県","city":"長岡市","address":"大手通"},
{"zip_code":"9402305","kana_pref":"ﾆｲｶﾞﾀｹﾝ","kana_city":"ﾅｶﾞｵｶｼ","kana_address":"ｵｵﾉ","pref":"新潟県","city":"長岡市","address":"大野"},
{"zip_code":"9400844","kana_pref":"ﾆｲｶﾞﾀｹﾝ","kana_city":"ﾅｶﾞｵｶｼ","kana_address":"ｵｵﾏﾁ","pref":"新潟県","city":"長岡市","address":"大町"},
{"zip_code":"9401167","kana_pref":"ﾆｲｶﾞﾀｹﾝ","kana_city":"ﾅｶﾞｵｶｼ","kana_address":"ｵｵﾐﾔﾏﾁ","pref":"新潟県","city":"長岡市","address":"大宮町"},
{"zip_code":"9402113","kana_pref":"ﾆｲｶﾞﾀｹﾝ","kana_city":"ﾅｶﾞｵｶｼ","kana_address":"ｵｵﾔﾏ","pref":"新潟県","city":"長岡市","address":"大山"},
{"zip_code":"9402012","kana_pref":"ﾆｲｶﾞﾀｹﾝ","kana_city":"ﾅｶﾞｵｶｼ","kana_address":"ｵｷﾞﾉ","pref":"新潟県","city":"長岡市","address":"荻野"},
{"zip_code":"9400812","kana_pref":"ﾆｲｶﾞﾀｹﾝ","kana_city":"ﾅｶﾞｵｶｼ","kana_address":"ｵﾄﾖｼﾏﾁ","pref":"新潟県","city":"長岡市","address":"乙吉町"},
{"zip_code":"9400071","kana_pref":"ﾆｲｶﾞﾀｹﾝ","kana_city":"ﾅｶﾞｵｶｼ","kana_address":"ｵﾓﾃﾏﾁ","pref":"新潟県","city":"長岡市","address":"表町"},
{"zip_code":"9402134","kana_pref":"ﾆｲｶﾞﾀｹﾝ","kana_city":"ﾅｶﾞｵｶｼ","kana_address":"ｵﾔｻﾞﾜﾏﾁ","pref":"新潟県","city":"長岡市","address":"親沢町"},
{"zip_code":"9400828","kana_pref":"ﾆｲｶﾞﾀｹﾝ","kana_city":"ﾅｶﾞｵｶｼ","kana_address":"ｵﾔﾏﾁｮｳ","pref":"新潟県","city":"長岡市","address":"御山町"},
{"zip_code":"9400822","kana_pref":"ﾆｲｶﾞﾀｹﾝ","kana_city":"ﾅｶﾞｵｶｼ","kana_address":"ｶｷﾞﾏﾁ","pref":"新潟県","city":"長岡市","address":"柿町"},
{"zip_code":"9400088","kana_pref":"ﾆｲｶﾞﾀｹﾝ","kana_city":"ﾅｶﾞｵｶｼ","kana_address":"ｶｼﾜﾁｮｳ","pref":"新潟県","city":"長岡市","address":"柏町"},
{"zip_code":"9400096","kana_pref":"ﾆｲｶﾞﾀｹﾝ","kana_city":"ﾅｶﾞｵｶｼ","kana_address":"ｶｽｶﾞ","pref":"新潟県","city":"長岡市","address":"春日"},
{"zip_code":"9401143","kana_pref":"ﾆｲｶﾞﾀｹﾝ","kana_city":"ﾅｶﾞｵｶｼ","kana_address":"ｶﾀﾀﾞﾏﾁ","pref":"新潟県","city":"長岡市","address":"片田町"},
{"zip_code":"9400041","kana_pref":"ﾆｲｶﾞﾀｹﾝ","kana_city":"ﾅｶﾞｵｶｼ","kana_address":"ｶﾞｯｺｳﾁｮｳ","pref":"新潟県","city":"長岡市","address":"学校町"},
{"zip_code":"9400803","kana_pref":"ﾆｲｶﾞﾀｹﾝ","kana_city":"ﾅｶﾞｵｶｼ","kana_address":"ｶﾂﾎﾞﾏﾁ","pref":"新潟県","city":"長岡市","address":"加津保町"},
{"zip_code":"9400802","kana_pref":"ﾆｲｶﾞﾀｹﾝ","kana_city":"ﾅｶﾞｵｶｼ","kana_address":"ｶﾂﾗﾏﾁ","pref":"新潟県","city":"長岡市","address":"桂町"},
{"zip_code":"9400135","kana_pref":"ﾆｲｶﾞﾀｹﾝ","kana_city":"ﾅｶﾞｵｶｼ","kana_address":"ｶﾅｻﾞﾜ","pref":"新潟県","city":"長岡市","address":"金沢"},
{"zip_code":"9401153","kana_pref":"ﾆｲｶﾞﾀｹﾝ","kana_city":"ﾅｶﾞｵｶｼ","kana_address":"ｶﾅﾒﾁｮｳ","pref":"新潟県","city":"長岡市","address":"要町"},
{"zip_code":"9400045","kana_pref":"ﾆｲｶﾞﾀｹﾝ","kana_city":"ﾅｶﾞｵｶｼ","kana_address":"ｶﾈﾌｻ","pref":"新潟県","city":"長岡市","address":"金房"},
{"zip_code":"9400221","kana_pref":"ﾆｲｶﾞﾀｹﾝ","kana_city":"ﾅｶﾞｵｶｼ","kana_address":"ｶﾈﾏﾁ","pref":"新潟県","city":"長岡市","address":"金町"},
{"zip_code":"9401172","kana_pref":"ﾆｲｶﾞﾀｹﾝ","kana_city":"ﾅｶﾞｵｶｼ","kana_address":"ｶﾏｶﾞｼﾏ","pref":"新潟県","city":"長岡市","address":"釜ケ島"},
{"zip_code":"9401114","kana_pref":"ﾆｲｶﾞﾀｹﾝ","kana_city":"ﾅｶﾞｵｶｼ","kana_address":"ｶﾏｻﾞﾜﾏﾁ","pref":"新潟県","city":"長岡市","address":"釜沢町"},
{"zip_code":"9402314","kana_pref":"ﾆｲｶﾞﾀｹﾝ","kana_city":"ﾅｶﾞｵｶｼ","kana_address":"ｶﾐｲﾜｲ","pref":"新潟県","city":"長岡市","address":"上岩井"},
{"zip_code":"9400116","kana_pref":"ﾆｲｶﾞﾀｹﾝ","kana_city":"ﾅｶﾞｵｶｼ","kana_address":"ｶﾐｶｼｲﾃﾞ","pref":"新潟県","city":"長岡市","address":"上樫出"},
{"zip_code":"9400128","kana_pref":"ﾆｲｶﾞﾀｹﾝ","kana_city":"ﾅｶﾞｵｶｼ","kana_address":"ｶﾐｼｵ","pref":"新潟県","city":"長岡市","address":"上塩"},
{"zip_code":"9402136","kana_pref":"ﾆｲｶﾞﾀｹﾝ","kana_city":"ﾅｶﾞｵｶｼ","kana_address":"ｶﾐﾄﾐｵｶ","pref":"新潟県","city":"長岡市","address":"上富岡"},
{"zip_code":"9402137","kana_pref":"ﾆｲｶﾞﾀｹﾝ","kana_city":"ﾅｶﾞｵｶｼ","kana_address":"ｶﾐﾄﾐｵｶﾏﾁ","pref":"新潟県","city":"長岡市","address":"上富岡町"},
{"zip_code":"9402033","kana_pref":"ﾆｲｶﾞﾀｹﾝ","kana_city":"ﾅｶﾞｵｶｼ","kana_address":"ｶﾐﾉｿﾞｷﾏﾁ","pref":"新潟県","city":"長岡市","address":"上除町"},
{"zip_code":"9402034","kana_pref":"ﾆｲｶﾞﾀｹﾝ","kana_city":"ﾅｶﾞｵｶｼ","kana_address":"ｶﾐﾉｿﾞｷﾏﾁﾆｼ","pref":"新潟県","city":"長岡市","address":"上除町西"},
{"zip_code":"9402004","kana_pref":"ﾆｲｶﾞﾀｹﾝ","kana_city":"ﾅｶﾞｵｶｼ","kana_address":"ｶﾐﾉﾏﾁ","pref":"新潟県","city":"長岡市","address":"上野町"},
{"zip_code":"9401144","kana_pref":"ﾆｲｶﾞﾀｹﾝ","kana_city":"ﾅｶﾞｵｶｼ","kana_address":"ｶﾐﾏｴｼﾞﾏﾏﾁ","pref":"新潟県","city":"長岡市","address":"上前島町"},
{"zip_code":"9402471","kana_pref":"ﾆｲｶﾞﾀｹﾝ","kana_city":"ﾅｶﾞｵｶｼ","kana_address":"ｶﾐﾔﾅｷﾞﾏﾁ","pref":"新潟県","city":"長岡市","address":"上柳町"},
{"zip_code":"9400884","kana_pref":"ﾆｲｶﾞﾀｹﾝ","kana_city":"ﾅｶﾞｵｶｼ","kana_address":"ｶﾒｶﾞｲﾏﾁ","pref":"新潟県","city":"長岡市","address":"亀貝町"},
{"zip_code":"9400801","kana_pref":"ﾆｲｶﾞﾀｹﾝ","kana_city":"ﾅｶﾞｵｶｼ","kana_address":"ｶﾒｻﾞｷﾏﾁ","pref":"新潟県","city":"長岡市","address":"亀崎町"},
{"zip_code":"9400201","kana_pref":"ﾆｲｶﾞﾀｹﾝ","kana_city":"ﾅｶﾞｵｶｼ","kana_address":"ｶﾗｽｶﾞｼﾏ","pref":"新潟県","city":"長岡市","address":"鴉ケ島"},
{"zip_code":"9400243","kana_pref":"ﾆｲｶﾞﾀｹﾝ","kana_city":"ﾅｶﾞｵｶｼ","kana_address":"ｶﾙｲｻﾞﾜ","pref":"新潟県","city":"長岡市","address":"軽井沢"},
{"zip_code":"9400864","kana_pref":"ﾆｲｶﾞﾀｹﾝ","kana_city":"ﾅｶﾞｵｶｼ","kana_address":"ｶﾜｻｷ","pref":"新潟県","city":"長岡市","address":"川崎"},
{"zip_code":"9400861","kana_pref":"ﾆｲｶﾞﾀｹﾝ","kana_city":"ﾅｶﾞｵｶｼ","kana_address":"ｶﾜｻｷﾏﾁ","pref":"新潟県","city":"長岡市","address":"川崎町"},
{"zip_code":"9402058","kana_pref":"ﾆｲｶﾞﾀｹﾝ","kana_city":"ﾅｶﾞｵｶｼ","kana_address":"ｶﾜﾈｶﾞﾜﾏﾁ","pref":"新潟県","city":"長岡市","address":"河根川町"},
{"zip_code":"9402463","kana_pref":"ﾆｲｶﾞﾀｹﾝ","kana_city":"ﾅｶﾞｵｶｼ","kana_address":"ｶﾜﾌﾞｸﾛﾏﾁ","pref":"新潟県","city":"長岡市","address":"川袋町"},
{"zip_code":"9400001","kana_pref":"ﾆｲｶﾞﾀｹﾝ","kana_city":"ﾅｶﾞｵｶｼ","kana_address":"ｶﾜﾍﾞﾏﾁ","pref":"新潟県","city":"長岡市","address":"川辺町"},
{"zip_code":"9400153","kana_pref":"ﾆｲｶﾞﾀｹﾝ","kana_city":"ﾅｶﾞｵｶｼ","kana_address":"ｶﾝｻﾞﾜ","pref":"新潟県","city":"長岡市","address":"寒沢"},
{"zip_code":"9402474","kana_pref":"ﾆｲｶﾞﾀｹﾝ","kana_city":"ﾅｶﾞｵｶｼ","kana_address":"ｶﾞﾝｼﾞﾏﾏﾁ","pref":"新潟県","city":"長岡市","address":"雁島町"},
{"zip_code":"9400052","kana_pref":"ﾆｲｶﾞﾀｹﾝ","kana_city":"ﾅｶﾞｵｶｼ","kana_address":"ｶﾝﾀﾞﾏﾁ","pref":"新潟県","city":"長岡市","address":"神田町"},
{"zip_code":"9400067","kana_pref":"ﾆｲｶﾞﾀｹﾝ","kana_city":"ﾅｶﾞｵｶｼ","kana_address":"ｶﾝﾄｳﾏﾁ","pref":"新潟県","city":"長岡市","address":"関東町"},
{"zip_code":"9402322","kana_pref":"ﾆｲｶﾞﾀｹﾝ","kana_city":"ﾅｶﾞｵｶｼ","kana_address":"ｷｲﾉﾐﾔ","pref":"新潟県","city":"長岡市","address":"気比宮"},
{"zip_code":"9400014","kana_pref":"ﾆｲｶﾞﾀｹﾝ","kana_city":"ﾅｶﾞｵｶｼ","kana_address":"ｷﾀｿﾞﾉﾏﾁ","pref":"新潟県","city":"長岡市","address":"北園町"},
{"zip_code":"9400241","kana_pref":"ﾆｲｶﾞﾀｹﾝ","kana_city":"ﾅｶﾞｵｶｼ","kana_address":"ｷﾀﾆｺﾞﾛ","pref":"新潟県","city":"長岡市","address":"北荷頃"},
{"zip_code":"9402121","kana_pref":"ﾆｲｶﾞﾀｹﾝ","kana_city":"ﾅｶﾞｵｶｼ","kana_address":"ｷﾀﾏﾁ","pref":"新潟県","city":"長岡市","address":"喜多町"},
{"zip_code":"9402114","kana_pref":"ﾆｲｶﾞﾀｹﾝ","kana_city":"ﾅｶﾞｵｶｼ","kana_address":"ｷﾀﾔﾏ","pref":"新潟県","city":"長岡市","address":"北山"},
{"zip_code":"9402124","kana_pref":"ﾆｲｶﾞﾀｹﾝ","kana_city":"ﾅｶﾞｵｶｼ","kana_address":"ｷﾎﾞｳｶﾞｵｶ","pref":"新潟県","city":"長岡市","address":"希望が丘"},
{"zip_code":"9402125","kana_pref":"ﾆｲｶﾞﾀｹﾝ","kana_city":"ﾅｶﾞｵｶｼ","kana_address":"ｷﾎﾞｳｶﾞｵｶﾐﾅﾐ","pref":"新潟県","city":"長岡市","address":"希望が丘南"},
{"zip_code":"9400254","kana_pref":"ﾆｲｶﾞﾀｹﾝ","kana_city":"ﾅｶﾞｵｶｼ","kana_address":"ｷﾔﾏｻﾞﾜ","pref":"新潟県","city":"長岡市","address":"木山沢"},
{"zip_code":"9400121","kana_pref":"ﾆｲｶﾞﾀｹﾝ","kana_city":"ﾅｶﾞｵｶｼ","kana_address":"ｸｶﾜ","pref":"新潟県","city":"長岡市","address":"九川"},
{"zip_code":"9400085","kana_pref":"ﾆｲｶﾞﾀｹﾝ","kana_city":"ﾅｶﾞｵｶｼ","kana_address":"ｸｿｳﾂﾞ","pref":"新潟県","city":"長岡市","address":"草生津"},
{"zip_code":"9400113","kana_pref":"ﾆｲｶﾞﾀｹﾝ","kana_city":"ﾅｶﾞｵｶｼ","kana_address":"ｸﾏﾉﾌｸﾛ","pref":"新潟県","city":"長岡市","address":"熊袋"},
{"zip_code":"9402046","kana_pref":"ﾆｲｶﾞﾀｹﾝ","kana_city":"ﾅｶﾞｵｶｼ","kana_address":"ｸﾓｲﾃﾞﾏﾁ","pref":"新潟県","city":"長岡市","address":"雲出町"},
{"zip_code":"9400155","kana_pref":"ﾆｲｶﾞﾀｹﾝ","kana_city":"ﾅｶﾞｵｶｼ","kana_address":"ｸﾘﾔﾏｻﾞﾜ","pref":"新潟県","city":"長岡市","address":"栗山沢"},
{"zip_code":"9400007","kana_pref":"ﾆｲｶﾞﾀｹﾝ","kana_city":"ﾅｶﾞｵｶｼ","kana_address":"ｸﾛﾂﾞﾏﾁ","pref":"新潟県","city":"長岡市","address":"黒津町"},
{"zip_code":"9400054","kana_pref":"ﾆｲｶﾞﾀｹﾝ","kana_city":"ﾅｶﾞｵｶｼ","kana_address":"ｹｲｺﾁｮｳ","pref":"新潟県","city":"長岡市","address":"稽古町"},
{"zip_code":"9400033","kana_pref":"ﾆｲｶﾞﾀｹﾝ","kana_city":"ﾅｶﾞｵｶｼ","kana_address":"ｹｻｼﾞﾛ","pref":"新潟県","city":"長岡市","address":"今朝白"},
{"zip_code":"9401146","kana_pref":"ﾆｲｶﾞﾀｹﾝ","kana_city":"ﾅｶﾞｵｶｼ","kana_address":"ｹﾞｼﾞｮｳﾏﾁ","pref":"新潟県","city":"長岡市","address":"下条町"},
{"zip_code":"9402015","kana_pref":"ﾆｲｶﾞﾀｹﾝ","kana_city":"ﾅｶﾞｵｶｼ","kana_address":"ｺｳﾖｳ","pref":"新潟県","city":"長岡市","address":"江陽"},
{"zip_code":"9402102","kana_pref":"ﾆｲｶﾞﾀｹﾝ","kana_city":"ﾅｶﾞｵｶｼ","kana_address":"ｺｻﾞﾜﾏﾁ","pref":"新潟県","city":"長岡市","address":"小沢町"},
{"zip_code":"9402106","kana_pref":"ﾆｲｶﾞﾀｹﾝ","kana_city":"ﾅｶﾞｵｶｼ","kana_address":"ｺｼｮｳｼﾞ","pref":"新潟県","city":"長岡市","address":"古正寺"},
{"zip_code":"9402103","kana_pref":"ﾆｲｶﾞﾀｹﾝ","kana_city":"ﾅｶﾞｵｶｼ","kana_address":"ｺｼｮｳｼﾞﾏﾁ","pref":"新潟県","city":"長岡市","address":"古正寺町"},
{"zip_code":"9400883","kana_pref":"ﾆｲｶﾞﾀｹﾝ","kana_city":"ﾅｶﾞｵｶｼ","kana_address":"ｺｿﾞﾈﾏﾁ","pref":"新潟県","city":"長岡市","address":"小曽根町"},
{"zip_code":"9402036","kana_pref":"ﾆｲｶﾞﾀｹﾝ","kana_city":"ﾅｶﾞｵｶｼ","kana_address":"ｺﾞﾀﾝﾀﾞﾏﾁ","pref":"新潟県","city":"長岡市","address":"五反田町"},
{"zip_code":"9400211","kana_pref":"ﾆｲｶﾞﾀｹﾝ","kana_city":"ﾅｶﾞｵｶｼ","kana_address":"ｺﾂﾅｷﾞ","pref":"新潟県","city":"長岡市","address":"小貫"},
{"zip_code":"9400038","kana_pref":"ﾆｲｶﾞﾀｹﾝ","kana_city":"ﾅｶﾞｵｶｼ","kana_address":"ｺﾄﾋﾗ","pref":"新潟県","city":"長岡市","address":"琴平"},
{"zip_code":"9400015","kana_pref":"ﾆｲｶﾞﾀｹﾝ","kana_city":"ﾅｶﾞｵｶｼ","kana_address":"ｺﾄﾌﾞｷ","pref":"新潟県","city":"長岡市","address":"寿"},
{"zip_code":"9400056","kana_pref":"ﾆｲｶﾞﾀｹﾝ","kana_city":"ﾅｶﾞｵｶｼ","kana_address":"ｺﾞﾌｸﾏﾁ","pref":"新潟県","city":"長岡市","address":"呉服町"},
{"zip_code":"9400146","kana_pref":"ﾆｲｶﾞﾀｹﾝ","kana_city":"ﾅｶﾞｵｶｼ","kana_address":"ｺﾑｶｲ","pref":"新潟県","city":"長岡市","address":"小向"},
{"zip_code":"9402133","kana_pref":"ﾆｲｶﾞﾀｹﾝ","kana_city":"ﾅｶﾞｵｶｼ","kana_address":"ｻｲﾂﾞﾆｼﾏﾁ","pref":"新潟県","city":"長岡市","address":"才津西町"},
{"zip_code":"9402131","kana_pref":"ﾆｲｶﾞﾀｹﾝ","kana_city":"ﾅｶﾞｵｶｼ","kana_address":"ｻｲﾂﾞﾋｶﾞｼﾏﾁ","pref":"新潟県","city":"長岡市","address":"才津東町"},
{"zip_code":"9402132","kana_pref":"ﾆｲｶﾞﾀｹﾝ","kana_city":"ﾅｶﾞｵｶｼ","kana_address":"ｻｲﾂﾞﾐﾅﾐﾏﾁ","pref":"新潟県","city":"長岡市","address":"才津南町"},
{"zip_code":"9400084","kana_pref":"ﾆｲｶﾞﾀｹﾝ","kana_city":"ﾅｶﾞｵｶｼ","kana_address":"ｻｲﾜｲﾁｮｳ","pref":"新潟県","city":"長岡市","address":"幸町"},
{"zip_code":"9400028","kana_pref":"ﾆｲｶﾞﾀｹﾝ","kana_city":"ﾅｶﾞｵｶｼ","kana_address":"ｻﾞｵｳ","pref":"新潟県","city":"長岡市","address":"蔵王"},
{"zip_code":"9402026","kana_pref":"ﾆｲｶﾞﾀｹﾝ","kana_city":"ﾅｶﾞｵｶｼ","kana_address":"ｻｶｲﾋｶﾞｼﾏﾁ","pref":"新潟県","city":"長岡市","address":"堺東町"},
{"zip_code":"9402024","kana_pref":"ﾆｲｶﾞﾀｹﾝ","kana_city":"ﾅｶﾞｵｶｼ","kana_address":"ｻｶｲﾏﾁ","pref":"新潟県","city":"長岡市","address":"堺町"},
{"zip_code":"9400205","kana_pref":"ﾆｲｶﾞﾀｹﾝ","kana_city":"ﾅｶﾞｵｶｼ","kana_address":"ｻｶｴﾁｮｳ","pref":"新潟県","city":"長岡市","address":"栄町"},
{"zip_code":"9402321","kana_pref":"ﾆｲｶﾞﾀｹﾝ","kana_city":"ﾅｶﾞｵｶｼ","kana_address":"ｻｶｼﾀﾞﾆ","pref":"新潟県","city":"長岡市","address":"逆谷"},
{"zip_code":"9400065","kana_pref":"ﾆｲｶﾞﾀｹﾝ","kana_city":"ﾅｶﾞｵｶｼ","kana_address":"ｻｶﾉｳｴﾏﾁ","pref":"新潟県","city":"長岡市","address":"坂之上町"},
{"zip_code":"9401113","kana_pref":"ﾆｲｶﾞﾀｹﾝ","kana_city":"ﾅｶﾞｵｶｼ","kana_address":"ｻｷﾞﾉｽﾏﾁ","pref":"新潟県","city":"長岡市","address":"鷺巣町"},
{"zip_code":"9401161","kana_pref":"ﾆｲｶﾞﾀｹﾝ","kana_city":"ﾅｶﾞｵｶｼ","kana_address":"ｻｺﾝ","pref":"新潟県","city":"長岡市","address":"左近"},
{"zip_code":"9401161","kana_pref":"ﾆｲｶﾞﾀｹﾝ","kana_city":"ﾅｶﾞｵｶｼ","kana_address":"ｻｺﾝﾏﾁ","pref":"新潟県","city":"長岡市","address":"左近町"},
{"zip_code":"9400833","kana_pref":"ﾆｲｶﾞﾀｹﾝ","kana_city":"ﾅｶﾞｵｶｼ","kana_address":"ｻｻｻﾞｷ","pref":"新潟県","city":"長岡市","address":"笹崎"},
{"zip_code":"9401101","kana_pref":"ﾆｲｶﾞﾀｹﾝ","kana_city":"ﾅｶﾞｵｶｼ","kana_address":"ｻﾜﾀﾞ","pref":"新潟県","city":"長岡市","address":"沢田"},
{"zip_code":"9402472","kana_pref":"ﾆｲｶﾞﾀｹﾝ","kana_city":"ﾅｶﾞｵｶｼ","kana_address":"ｻﾝﾉﾐﾔﾏﾁ","pref":"新潟県","city":"長岡市","address":"三之宮町"},
{"zip_code":"9401136","kana_pref":"ﾆｲｶﾞﾀｹﾝ","kana_city":"ﾅｶﾞｵｶｼ","kana_address":"ｻﾝﾋﾞｮｳﾉﾏﾁ","pref":"新潟県","city":"長岡市","address":"三俵野町"},
{"zip_code":"9401151","kana_pref":"ﾆｲｶﾞﾀｹﾝ","kana_city":"ﾅｶﾞｵｶｼ","kana_address":"ｻﾝﾜ","pref":"新潟県","city":"長岡市","address":"三和"},
{"zip_code":"9401152","kana_pref":"ﾆｲｶﾞﾀｹﾝ","kana_city":"ﾅｶﾞｵｶｼ","kana_address":"ｻﾝﾜﾏﾁ","pref":"新潟県","city":"長岡市","address":"三和町"},
{"zip_code":"9400129","kana_pref":"ﾆｲｶﾞﾀｹﾝ","kana_city":"ﾅｶﾞｵｶｼ","kana_address":"ｼｵｱﾗﾏﾁ","pref":"新潟県","city":"長岡市","address":"塩新町"},
{"zip_code":"9400122","kana_pref":"ﾆｲｶﾞﾀｹﾝ","kana_city":"ﾅｶﾞｵｶｼ","kana_address":"ｼｵﾅｶ","pref":"新潟県","city":"長岡市","address":"塩中"},
{"zip_code":"9400031","kana_pref":"ﾆｲｶﾞﾀｹﾝ","kana_city":"ﾅｶﾞｵｶｼ","kana_address":"ｼﾞｿﾞｳ","pref":"新潟県","city":"長岡市","address":"地蔵"},
{"zip_code":"9400894","kana_pref":"ﾆｲｶﾞﾀｹﾝ","kana_city":"ﾅｶﾞｵｶｼ","kana_address":"ｼﾁｹﾝﾏﾁ","pref":"新潟県","city":"長岡市","address":"七軒町"},
{"zip_code":"9400098","kana_pref":"ﾆｲｶﾞﾀｹﾝ","kana_city":"ﾅｶﾞｵｶｼ","kana_address":"ｼﾅﾉ","pref":"新潟県","city":"長岡市","address":"信濃"},
{"zip_code":"9402057","kana_pref":"ﾆｲｶﾞﾀｹﾝ","kana_city":"ﾅｶﾞｵｶｼ","kana_address":"ｼﾞﾎｳﾏﾁ","pref":"新潟県","city":"長岡市","address":"寺宝町"},
{"zip_code":"9400115","kana_pref":"ﾆｲｶﾞﾀｹﾝ","kana_city":"ﾅｶﾞｵｶｼ","kana_address":"ｼﾓｶｼｲﾃﾞ","pref":"新潟県","city":"長岡市","address":"下樫出"},
{"zip_code":"9402304","kana_pref":"ﾆｲｶﾞﾀｹﾝ","kana_city":"ﾅｶﾞｵｶｼ","kana_address":"ｼﾓｶﾜﾈｶﾞﾜ","pref":"新潟県","city":"長岡市","address":"下河根川"},
{"zip_code":"9400012","kana_pref":"ﾆｲｶﾞﾀｹﾝ","kana_city":"ﾅｶﾞｵｶｼ","kana_address":"ｼﾓｹﾞｼﾞｮｳ","pref":"新潟県","city":"長岡市","address":"下々条"},
{"zip_code":"9400011","kana_pref":"ﾆｲｶﾞﾀｹﾝ","kana_city":"ﾅｶﾞｵｶｼ","kana_address":"ｼﾓｹﾞｼﾞｮｳﾏﾁ","pref":"新潟県","city":"長岡市","address":"下々条町"},
{"zip_code":"9400111","kana_pref":"ﾆｲｶﾞﾀｹﾝ","kana_city":"ﾅｶﾞｵｶｼ","kana_address":"ｼﾓｼﾞｵ","pref":"新潟県","city":"長岡市","address":"下塩"},
{"zip_code":"9402013","kana_pref":"ﾆｲｶﾞﾀｹﾝ","kana_city":"ﾅｶﾞｵｶｼ","kana_address":"ｼﾓﾔﾅｷﾞ","pref":"新潟県","city":"長岡市","address":"下柳"},
{"zip_code":"9402115","kana_pref":"ﾆｲｶﾞﾀｹﾝ","kana_city":"ﾅｶﾞｵｶｼ","kana_address":"ｼﾓﾔﾏ","pref":"新潟県","city":"長岡市","address":"下山"},
{"zip_code":"9400002","kana_pref":"ﾆｲｶﾞﾀｹﾝ","kana_city":"ﾅｶﾞｵｶｼ","kana_address":"ｼﾞｭｳﾆｶﾞﾀﾏﾁ","pref":"新潟県","city":"長岡市","address":"十二潟町"},
{"zip_code":"9400021","kana_pref":"ﾆｲｶﾞﾀｹﾝ","kana_city":"ﾅｶﾞｵｶｼ","kana_address":"ｼﾞｮｳｵｶ","pref":"新潟県","city":"長岡市","address":"城岡"},
{"zip_code":"9400814","kana_pref":"ﾆｲｶﾞﾀｹﾝ","kana_city":"ﾅｶﾞｵｶｼ","kana_address":"ｼﾞｮｳｶﾞﾝｼﾞﾏﾁ","pref":"新潟県","city":"長岡市","address":"成願寺町"},
{"zip_code":"9400831","kana_pref":"ﾆｲｶﾞﾀｹﾝ","kana_city":"ﾅｶﾞｵｶｼ","kana_address":"ｼﾞｮｳｼﾞｮｳﾏﾁ","pref":"新潟県","city":"長岡市","address":"上条町"},
{"zip_code":"9400061","kana_pref":"ﾆｲｶﾞﾀｹﾝ","kana_city":"ﾅｶﾞｵｶｼ","kana_address":"ｼﾞｮｳﾅｲﾁｮｳ","pref":"新潟県","city":"長岡市","address":"城内町"},
{"zip_code":"9401141","kana_pref":"ﾆｲｶﾞﾀｹﾝ","kana_city":"ﾅｶﾞｵｶｼ","kana_address":"ｼﾞｮｳﾐｮｳﾏﾁ","pref":"新潟県","city":"長岡市","address":"定明町"},
{"zip_code":"9400092","kana_pref":"ﾆｲｶﾞﾀｹﾝ","kana_city":"ﾅｶﾞｵｶｼ","kana_address":"ｼｮｳﾜ","pref":"新潟県","city":"長岡市","address":"昭和"},
{"zip_code":"9400046","kana_pref":"ﾆｲｶﾞﾀｹﾝ","kana_city":"ﾅｶﾞｵｶｼ","kana_address":"ｼﾛｳﾏﾙ","pref":"新潟県","city":"長岡市","address":"四郎丸"},
{"zip_code":"9400865","kana_pref":"ﾆｲｶﾞﾀｹﾝ","kana_city":"ﾅｶﾞｵｶｼ","kana_address":"ｼﾛｳﾏﾙﾏﾁ","pref":"新潟県","city":"長岡市","address":"四郎丸町"},
{"zip_code":"9402041","kana_pref":"ﾆｲｶﾞﾀｹﾝ","kana_city":"ﾅｶﾞｵｶｼ","kana_address":"ｼﾛﾄﾘﾏﾁ","pref":"新潟県","city":"長岡市","address":"白鳥町"},
{"zip_code":"9402464","kana_pref":"ﾆｲｶﾞﾀｹﾝ","kana_city":"ﾅｶﾞｵｶｼ","kana_address":"ｼﾝｶｲﾏﾁ","pref":"新潟県","city":"長岡市","address":"新開町"},
{"zip_code":"9400897","kana_pref":"ﾆｲｶﾞﾀｹﾝ","kana_city":"ﾅｶﾞｵｶｼ","kana_address":"ｼﾝｸﾞﾐﾏﾁ","pref":"新潟県","city":"長岡市","address":"新組町"},
{"zip_code":"9400204","kana_pref":"ﾆｲｶﾞﾀｹﾝ","kana_city":"ﾅｶﾞｵｶｼ","kana_address":"ｼﾝｻｶｴﾁｮｳ","pref":"新潟県","city":"長岡市","address":"新栄町"},
{"zip_code":"9402127","kana_pref":"ﾆｲｶﾞﾀｹﾝ","kana_city":"ﾅｶﾞｵｶｼ","kana_address":"ｼﾝｻﾝ","pref":"新潟県","city":"長岡市","address":"新産"},
{"zip_code":"9402128","kana_pref":"ﾆｲｶﾞﾀｹﾝ","kana_city":"ﾅｶﾞｵｶｼ","kana_address":"ｼﾝｻﾝﾋｶﾞｼﾏﾁ","pref":"新潟県","city":"長岡市","address":"新産東町"},
{"zip_code":"9402147","kana_pref":"ﾆｲｶﾞﾀｹﾝ","kana_city":"ﾅｶﾞｵｶｼ","kana_address":"ｼﾝﾖｳ","pref":"新潟県","city":"長岡市","address":"新陽"},
{"zip_code":"9400093","kana_pref":"ﾆｲｶﾞﾀｹﾝ","kana_city":"ﾅｶﾞｵｶｼ","kana_address":"ｽｲﾄﾞｳﾁｮｳ","pref":"新潟県","city":"長岡市","address":"水道町"},
{"zip_code":"9400834","kana_pref":"ﾆｲｶﾞﾀｹﾝ","kana_city":"ﾅｶﾞｵｶｼ","kana_address":"ｽｴﾋﾛ","pref":"新潟県","city":"長岡市","address":"末広"},
{"zip_code":"9400144","kana_pref":"ﾆｲｶﾞﾀｹﾝ","kana_city":"ﾅｶﾞｵｶｼ","kana_address":"ｽｶﾞﾊﾞﾀｹ","pref":"新潟県","city":"長岡市","address":"菅畑"},
{"zip_code":"9400044","kana_pref":"ﾆｲｶﾞﾀｹﾝ","kana_city":"ﾅｶﾞｵｶｼ","kana_address":"ｽﾐﾖｼ","pref":"新潟県","city":"長岡市","address":"住吉"},
{"zip_code":"9402462","kana_pref":"ﾆｲｶﾞﾀｹﾝ","kana_city":"ﾅｶﾞｵｶｼ","kana_address":"ｽﾓﾝｻﾞｷﾏﾁ","pref":"新潟県","city":"長岡市","address":"李崎町"},
{"zip_code":"9400821","kana_pref":"ﾆｲｶﾞﾀｹﾝ","kana_city":"ﾅｶﾞｵｶｼ","kana_address":"ｽﾖｼﾏﾁ","pref":"新潟県","city":"長岡市","address":"栖吉町"},
{"zip_code":"9402045","kana_pref":"ﾆｲｶﾞﾀｹﾝ","kana_city":"ﾅｶﾞｵｶｼ","kana_address":"ｾｲﾘｮｳﾏﾁ","pref":"新潟県","city":"長岡市","address":"西陵町"},
{"zip_code":"9402037","kana_pref":"ﾆｲｶﾞﾀｹﾝ","kana_city":"ﾅｶﾞｵｶｼ","kana_address":"ｾｷﾊﾗﾆｼﾏﾁ","pref":"新潟県","city":"長岡市","address":"関原西町"},
{"zip_code":"9402038","kana_pref":"ﾆｲｶﾞﾀｹﾝ","kana_city":"ﾅｶﾞｵｶｼ","kana_address":"ｾｷﾊﾗﾋｶﾞｼﾏﾁ","pref":"新潟県","city":"長岡市","address":"関原東町"},
{"zip_code":"9402035","kana_pref":"ﾆｲｶﾞﾀｹﾝ","kana_city":"ﾅｶﾞｵｶｼ","kana_address":"ｾｷﾊﾗﾏﾁ","pref":"新潟県","city":"長岡市","address":"関原町"},
{"zip_code":"9402039","kana_pref":"ﾆｲｶﾞﾀｹﾝ","kana_city":"ﾅｶﾞｵｶｼ","kana_address":"ｾｷﾊﾗﾐﾅﾐ","pref":"新潟県","city":"長岡市","address":"関原南"},
{"zip_code":"9401105","kana_pref":"ﾆｲｶﾞﾀｹﾝ","kana_city":"ﾅｶﾞｵｶｼ","kana_address":"ｾｯﾀﾔ","pref":"新潟県","city":"長岡市","address":"摂田屋"},
{"zip_code":"9401104","kana_pref":"ﾆｲｶﾞﾀｹﾝ","kana_city":"ﾅｶﾞｵｶｼ","kana_address":"ｾｯﾀﾔﾏﾁ","pref":"新潟県","city":"長岡市","address":"摂田屋町"},
{"zip_code":"9402473","kana_pref":"ﾆｲｶﾞﾀｹﾝ","kana_city":"ﾅｶﾞｵｶｼ","kana_address":"ｾﾘｶﾜﾏﾁ","pref":"新潟県","city":"長岡市","address":"芹川町"},
{"zip_code":"9400082","kana_pref":"ﾆｲｶﾞﾀｹﾝ","kana_city":"ﾅｶﾞｵｶｼ","kana_address":"ｾﾝｻﾞｲ","pref":"新潟県","city":"長岡市","address":"千歳"},
{"zip_code":"9400087","kana_pref":"ﾆｲｶﾞﾀｹﾝ","kana_city":"ﾅｶﾞｵｶｼ","kana_address":"ｾﾝｼﾞｭ","pref":"新潟県","city":"長岡市","address":"千手"},
{"zip_code":"9402108","kana_pref":"ﾆｲｶﾞﾀｹﾝ","kana_city":"ﾅｶﾞｵｶｼ","kana_address":"ｾﾝｼｭｳ","pref":"新潟県","city":"長岡市","address":"千秋"},
{"zip_code":"9400895","kana_pref":"ﾆｲｶﾞﾀｹﾝ","kana_city":"ﾅｶﾞｵｶｼ","kana_address":"ﾀﾞｲｺｸﾏﾁ","pref":"新潟県","city":"長岡市","address":"大黒町"},
{"zip_code":"9400048","kana_pref":"ﾆｲｶﾞﾀｹﾝ","kana_city":"ﾅｶﾞｵｶｼ","kana_address":"ﾀﾞｲﾏﾁ","pref":"新潟県","city":"長岡市","address":"台町"},
{"zip_code":"9400137","kana_pref":"ﾆｲｶﾞﾀｹﾝ","kana_city":"ﾅｶﾞｵｶｼ","kana_address":"ﾀｲﾗ","pref":"新潟県","city":"長岡市","address":"平"},
{"zip_code":"9401139","kana_pref":"ﾆｲｶﾞﾀｹﾝ","kana_city":"ﾅｶﾞｵｶｼ","kana_address":"ﾀｶｼﾏﾏﾁ","pref":"新潟県","city":"長岡市","address":"高島町"},
{"zip_code":"9402025","kana_pref":"ﾆｲｶﾞﾀｹﾝ","kana_city":"ﾅｶﾞｵｶｼ","kana_address":"ﾀｶｾﾏﾁ","pref":"新潟県","city":"長岡市","address":"高瀬町"},
{"zip_code":"9402143","kana_pref":"ﾆｲｶﾞﾀｹﾝ","kana_city":"ﾅｶﾞｵｶｼ","kana_address":"ﾀｶﾃﾗﾏﾁ","pref":"新潟県","city":"長岡市","address":"高寺町"},
{"zip_code":"9402144","kana_pref":"ﾆｲｶﾞﾀｹﾝ","kana_city":"ﾅｶﾞｵｶｼ","kana_address":"ﾀｶﾄｳﾏﾁ","pref":"新潟県","city":"長岡市","address":"高頭町"},
{"zip_code":"9402051","kana_pref":"ﾆｲｶﾞﾀｹﾝ","kana_city":"ﾅｶﾞｵｶｼ","kana_address":"ﾀｶﾉﾏﾁ","pref":"新潟県","city":"長岡市","address":"高野町"},
{"zip_code":"9400825","kana_pref":"ﾆｲｶﾞﾀｹﾝ","kana_city":"ﾅｶﾞｵｶｼ","kana_address":"ﾀｶﾊﾞﾀｹﾏﾁ","pref":"新潟県","city":"長岡市","address":"高畑町"},
{"zip_code":"9400824","kana_pref":"ﾆｲｶﾞﾀｹﾝ","kana_city":"ﾅｶﾞｵｶｼ","kana_address":"ﾀｶﾏﾁ","pref":"新潟県","city":"長岡市","address":"高町"},
{"zip_code":"9400003","kana_pref":"ﾆｲｶﾞﾀｹﾝ","kana_city":"ﾅｶﾞｵｶｼ","kana_address":"ﾀｶﾐ","pref":"新潟県","city":"長岡市","address":"高見"},
{"zip_code":"9400004","kana_pref":"ﾆｲｶﾞﾀｹﾝ","kana_city":"ﾅｶﾞｵｶｼ","kana_address":"ﾀｶﾐﾏﾁ","pref":"新潟県","city":"長岡市","address":"高見町"},
{"zip_code":"9400016","kana_pref":"ﾆｲｶﾞﾀｹﾝ","kana_city":"ﾅｶﾞｵｶｼ","kana_address":"ﾀｶﾗ","pref":"新潟県","city":"長岡市","address":"宝"},
{"zip_code":"9400127","kana_pref":"ﾆｲｶﾞﾀｹﾝ","kana_city":"ﾅｶﾞｵｶｼ","kana_address":"ﾀｷﾉｸﾁ","pref":"新潟県","city":"長岡市","address":"滝之口"},
{"zip_code":"9400226","kana_pref":"ﾆｲｶﾞﾀｹﾝ","kana_city":"ﾅｶﾞｵｶｼ","kana_address":"ﾀｷﾉｼﾀﾏﾁ","pref":"新潟県","city":"長岡市","address":"滝の下町"},
{"zip_code":"9401138","kana_pref":"ﾆｲｶﾞﾀｹﾝ","kana_city":"ﾅｶﾞｵｶｼ","kana_address":"ﾀｷﾔﾏﾁ","pref":"新潟県","city":"長岡市","address":"滝谷町"},
{"zip_code":"9401123","kana_pref":"ﾆｲｶﾞﾀｹﾝ","kana_city":"ﾅｶﾞｵｶｼ","kana_address":"ﾀｹﾉｺｳﾁﾏﾁ","pref":"新潟県","city":"長岡市","address":"竹之高地町"},
{"zip_code":"9401116","kana_pref":"ﾆｲｶﾞﾀｹﾝ","kana_city":"ﾅｶﾞｵｶｼ","kana_address":"ﾀｹﾏﾁ","pref":"新潟県","city":"長岡市","address":"竹町"},
{"zip_code":"9400251","kana_pref":"ﾆｲｶﾞﾀｹﾝ","kana_city":"ﾅｶﾞｵｶｼ","kana_address":"ﾀﾉｸﾁ","pref":"新潟県","city":"長岡市","address":"田之口"},
{"zip_code":"9402324","kana_pref":"ﾆｲｶﾞﾀｹﾝ","kana_city":"ﾅｶﾞｵｶｼ","kana_address":"ﾁｭｳｴｲ","pref":"新潟県","city":"長岡市","address":"中永"},
{"zip_code":"9400222","kana_pref":"ﾆｲｶﾞﾀｹﾝ","kana_city":"ﾅｶﾞｵｶｼ","kana_address":"ﾁｭｳｵｳｺｳｴﾝ","pref":"新潟県","city":"長岡市","address":"中央公園"},
{"zip_code":"9400819","kana_pref":"ﾆｲｶﾞﾀｹﾝ","kana_city":"ﾅｶﾞｵｶｼ","kana_address":"ﾁﾖｴﾏﾁ","pref":"新潟県","city":"長岡市","address":"千代栄町"},
{"zip_code":"9400212","kana_pref":"ﾆｲｶﾞﾀｹﾝ","kana_city":"ﾅｶﾞｵｶｼ","kana_address":"ﾂﾁｶﾞﾔ","pref":"新潟県","city":"長岡市","address":"土ケ谷"},
{"zip_code":"9402014","kana_pref":"ﾆｲｶﾞﾀｹﾝ","kana_city":"ﾅｶﾞｵｶｼ","kana_address":"ﾂﾂﾐﾁｮｳ","pref":"新潟県","city":"長岡市","address":"堤町"},
{"zip_code":"9402022","kana_pref":"ﾆｲｶﾞﾀｹﾝ","kana_city":"ﾅｶﾞｵｶｼ","kana_address":"ﾃｯｺｳﾁｮｳ","pref":"新潟県","city":"長岡市","address":"鉄工町"},
{"zip_code":"9402101","kana_pref":"ﾆｲｶﾞﾀｹﾝ","kana_city":"ﾅｶﾞｵｶｼ","kana_address":"ﾃﾗｼﾞﾏﾏﾁ","pref":"新潟県","city":"長岡市","address":"寺島町"},
{"zip_code":"9402502","kana_pref":"ﾆｲｶﾞﾀｹﾝ","kana_city":"ﾅｶﾞｵｶｼ","kana_address":"ﾃﾗﾄﾞﾏﾘ","pref":"新潟県","city":"長岡市","address":"寺泊"},
{"zip_code":"9402511","kana_pref":"ﾆｲｶﾞﾀｹﾝ","kana_city":"ﾅｶﾞｵｶｼ","kana_address":"ﾃﾗﾄﾞﾏﾘｴﾝｼﾞｮｳｼﾞ","pref":"新潟県","city":"長岡市","address":"寺泊円上寺"},
{"zip_code":"9402503","kana_pref":"ﾆｲｶﾞﾀｹﾝ","kana_city":"ﾅｶﾞｵｶｼ","kana_address":"ﾃﾗﾄﾞﾏﾘｵｵｼﾞ","pref":"新潟県","city":"長岡市","address":"寺泊大地"},
{"zip_code":"9402529","kana_pref":"ﾆｲｶﾞﾀｹﾝ","kana_city":"ﾅｶﾞｵｶｼ","kana_address":"ﾃﾗﾄﾞﾏﾘｵｵﾜﾀﾞ","pref":"新潟県","city":"長岡市","address":"寺泊大和田"},
{"zip_code":"9402517","kana_pref":"ﾆｲｶﾞﾀｹﾝ","kana_city":"ﾅｶﾞｵｶｼ","kana_address":"ﾃﾗﾄﾞﾏﾘｶﾜｻｷ","pref":"新潟県","city":"長岡市","address":"寺泊川崎"},
{"zip_code":"9402512","kana_pref":"ﾆｲｶﾞﾀｹﾝ","kana_city":"ﾅｶﾞｵｶｼ","kana_address":"ﾃﾗﾄﾞﾏﾘｷｮｳｶﾞｲﾘ","pref":"新潟県","city":"長岡市","address":"寺泊京ケ入"},
{"zip_code":"9402528","kana_pref":"ﾆｲｶﾞﾀｹﾝ","kana_city":"ﾅｶﾞｵｶｼ","kana_address":"ﾃﾗﾄﾞﾏﾘｺﾞｳﾓﾄ","pref":"新潟県","city":"長岡市","address":"寺泊郷本"},
{"zip_code":"9402527","kana_pref":"ﾆｲｶﾞﾀｹﾝ","kana_city":"ﾅｶﾞｵｶｼ","kana_address":"ﾃﾗﾄﾞﾏﾘｼﾄﾊﾞｼ","pref":"新潟県","city":"長岡市","address":"寺泊志戸橋"},
{"zip_code":"9402516","kana_pref":"ﾆｲｶﾞﾀｹﾝ","kana_city":"ﾅｶﾞｵｶｼ","kana_address":"ﾃﾗﾄﾞﾏﾘｼﾓｿﾞﾈ","pref":"新潟県","city":"長岡市","address":"寺泊下曽根"},
{"zip_code":"9402523","kana_pref":"ﾆｲｶﾞﾀｹﾝ","kana_city":"ﾅｶﾞｵｶｼ","kana_address":"ﾃﾗﾄﾞﾏﾘﾀｶﾞｼﾗ","pref":"新潟県","city":"長岡市","address":"寺泊田頭"},
{"zip_code":"9402513","kana_pref":"ﾆｲｶﾞﾀｹﾝ","kana_city":"ﾅｶﾞｵｶｼ","kana_address":"ﾃﾗﾄﾞﾏﾘﾄｳｼﾝﾃﾞﾝ","pref":"新潟県","city":"長岡市","address":"寺泊当新田"},
{"zip_code":"9402518","kana_pref":"ﾆｲｶﾞﾀｹﾝ","kana_city":"ﾅｶﾞｵｶｼ","kana_address":"ﾃﾗﾄﾞﾏﾘﾄｻﾞｷ","pref":"新潟県","city":"長岡市","address":"寺泊戸崎"},
{"zip_code":"9402521","kana_pref":"ﾆｲｶﾞﾀｹﾝ","kana_city":"ﾅｶﾞｵｶｼ","kana_address":"ﾃﾗﾄﾞﾏﾘﾄｼﾄﾓ","pref":"新潟県","city":"長岡市","address":"寺泊年友"},
{"zip_code":"9402515","kana_pref":"ﾆｲｶﾞﾀｹﾝ","kana_city":"ﾅｶﾞｵｶｼ","kana_address":"ﾃﾗﾄﾞﾏﾘﾅｶｿﾞﾈ","pref":"新潟県","city":"長岡市","address":"寺泊中曽根"},
{"zip_code":"9402522","kana_pref":"ﾆｲｶﾞﾀｹﾝ","kana_city":"ﾅｶﾞｵｶｼ","kana_address":"ﾃﾗﾄﾞﾏﾘﾅﾂﾄﾞ","pref":"新潟県","city":"長岡市","address":"寺泊夏戸"},
{"zip_code":"9402501","kana_pref":"ﾆｲｶﾞﾀｹﾝ","kana_city":"ﾅｶﾞｵｶｼ","kana_address":"ﾃﾗﾄﾞﾏﾘﾉﾂﾞﾐ","pref":"新潟県","city":"長岡市","address":"寺泊野積"},
{"zip_code":"9402508","kana_pref":"ﾆｲｶﾞﾀｹﾝ","kana_city":"ﾅｶﾞｵｶｼ","kana_address":"ﾃﾗﾄﾞﾏﾘﾋｷｵｶ","pref":"新潟県","city":"長岡市","address":"寺泊引岡"},
{"zip_code":"9402514","kana_pref":"ﾆｲｶﾞﾀｹﾝ","kana_city":"ﾅｶﾞｵｶｼ","kana_address":"ﾃﾗﾄﾞﾏﾘﾍﾋﾞﾂｶ","pref":"新潟県","city":"長岡市","address":"寺泊蛇塚"},
{"zip_code":"9402504","kana_pref":"ﾆｲｶﾞﾀｹﾝ","kana_city":"ﾅｶﾞｵｶｼ","kana_address":"ﾃﾗﾄﾞﾏﾘﾍﾞﾝｻﾞｲﾃﾝ","pref":"新潟県","city":"長岡市","address":"寺泊弁才天"},
{"zip_code":"9402524","kana_pref":"ﾆｲｶﾞﾀｹﾝ","kana_city":"ﾅｶﾞｵｶｼ","kana_address":"ﾃﾗﾄﾞﾏﾘﾏﾂﾀﾞ","pref":"新潟県","city":"長岡市","address":"寺泊松田"},
{"zip_code":"9402525","kana_pref":"ﾆｲｶﾞﾀｹﾝ","kana_city":"ﾅｶﾞｵｶｼ","kana_address":"ﾃﾗﾄﾞﾏﾘﾐｮｳｶﾞﾀﾞﾆ","pref":"新潟県","city":"長岡市","address":"寺泊明ケ谷"},
{"zip_code":"9402505","kana_pref":"ﾆｲｶﾞﾀｹﾝ","kana_city":"ﾅｶﾞｵｶｼ","kana_address":"ﾃﾗﾄﾞﾏﾘﾓﾄﾍﾞﾝ","pref":"新潟県","city":"長岡市","address":"寺泊本弁"},
{"zip_code":"9402506","kana_pref":"ﾆｲｶﾞﾀｹﾝ","kana_city":"ﾅｶﾞｵｶｼ","kana_address":"ﾃﾗﾄﾞﾏﾘﾓﾄﾔﾏ","pref":"新潟県","city":"長岡市","address":"寺泊本山"},
{"zip_code":"9402526","kana_pref":"ﾆｲｶﾞﾀｹﾝ","kana_city":"ﾅｶﾞｵｶｼ","kana_address":"ﾃﾗﾄﾞﾏﾘﾔﾏﾀﾞ","pref":"新潟県","city":"長岡市","address":"寺泊山田"},
{"zip_code":"9402507","kana_pref":"ﾆｲｶﾞﾀｹﾝ","kana_city":"ﾅｶﾞｵｶｼ","kana_address":"ﾃﾗﾄﾞﾏﾘﾖｼ","pref":"新潟県","city":"長岡市","address":"寺泊吉"},
{"zip_code":"9400008","kana_pref":"ﾆｲｶﾞﾀｹﾝ","kana_city":"ﾅｶﾞｵｶｼ","kana_address":"ﾃﾝｼﾞﾝﾏﾁ","pref":"新潟県","city":"長岡市","address":"天神町"},
{"zip_code":"9400043","kana_pref":"ﾆｲｶﾞﾀｹﾝ","kana_city":"ﾅｶﾞｵｶｼ","kana_address":"ﾄﾞｱｲ","pref":"新潟県","city":"長岡市","address":"土合"},
{"zip_code":"9400847","kana_pref":"ﾆｲｶﾞﾀｹﾝ","kana_city":"ﾅｶﾞｵｶｼ","kana_address":"ﾄﾞｱｲﾏﾁ","pref":"新潟県","city":"長岡市","address":"土合町"},
{"zip_code":"9401131","kana_pref":"ﾆｲｶﾞﾀｹﾝ","kana_city":"ﾅｶﾞｵｶｼ","kana_address":"ﾄｵｶﾏﾁ","pref":"新潟県","city":"長岡市","address":"十日町"},
{"zip_code":"9400231","kana_pref":"ﾆｲｶﾞﾀｹﾝ","kana_city":"ﾅｶﾞｵｶｼ","kana_address":"ﾄﾁｵｱｻﾋﾁｮｳ","pref":"新潟県","city":"長岡市","address":"栃尾旭町"},
{"zip_code":"9400216","kana_pref":"ﾆｲｶﾞﾀｹﾝ","kana_city":"ﾅｶﾞｵｶｼ","kana_address":"ﾄﾁｵｱﾗﾏﾁ","pref":"新潟県","city":"長岡市","address":"栃尾新町"},
{"zip_code":"9400234","kana_pref":"ﾆｲｶﾞﾀｹﾝ","kana_city":"ﾅｶﾞｵｶｼ","kana_address":"ﾄﾁｵｲｽﾞﾐ","pref":"新潟県","city":"長岡市","address":"栃尾泉"},
{"zip_code":"9400202","kana_pref":"ﾆｲｶﾞﾀｹﾝ","kana_city":"ﾅｶﾞｵｶｼ","kana_address":"ﾄﾁｵｲﾜﾉｿﾄｼﾝﾃﾞﾝ","pref":"新潟県","city":"長岡市","address":"栃尾岩野外新田"},
{"zip_code":"9400235","kana_pref":"ﾆｲｶﾞﾀｹﾝ","kana_city":"ﾅｶﾞｵｶｼ","kana_address":"ﾄﾁｵｵｵﾉ","pref":"新潟県","city":"長岡市","address":"栃尾大野"},
{"zip_code":"9400236","kana_pref":"ﾆｲｶﾞﾀｹﾝ","kana_city":"ﾅｶﾞｵｶｼ","kana_address":"ﾄﾁｵｵｵﾉﾏﾁ","pref":"新潟県","city":"長岡市","address":"栃尾大野町"},
{"zip_code":"9400217","kana_pref":"ﾆｲｶﾞﾀｹﾝ","kana_city":"ﾅｶﾞｵｶｼ","kana_address":"ﾄﾁｵｵｵﾏﾁ","pref":"新潟県","city":"長岡市","address":"栃尾大町"},
{"zip_code":"9400218","kana_pref":"ﾆｲｶﾞﾀｹﾝ","kana_city":"ﾅｶﾞｵｶｼ","kana_address":"ﾄﾁｵｵﾓﾃﾏﾁ","pref":"新潟県","city":"長岡市","address":"栃尾表町"},
{"zip_code":"9400141","kana_pref":"ﾆｲｶﾞﾀｹﾝ","kana_city":"ﾅｶﾞｵｶｼ","kana_address":"ﾄﾁｵｼﾏﾀﾞ","pref":"新潟県","city":"長岡市","address":"栃尾島田"},
{"zip_code":"9400132","kana_pref":"ﾆｲｶﾞﾀｹﾝ","kana_city":"ﾅｶﾞｵｶｼ","kana_address":"ﾄﾁｵﾊﾗ","pref":"新潟県","city":"長岡市","address":"栃尾原"},
{"zip_code":"9400134","kana_pref":"ﾆｲｶﾞﾀｹﾝ","kana_city":"ﾅｶﾞｵｶｼ","kana_address":"ﾄﾁｵﾊﾗﾏﾁ","pref":"新潟県","city":"長岡市","address":"栃尾原町"},
{"zip_code":"9400223","kana_pref":"ﾆｲｶﾞﾀｹﾝ","kana_city":"ﾅｶﾞｵｶｼ","kana_address":"ﾄﾁｵﾎﾝﾁｮｳ","pref":"新潟県","city":"長岡市","address":"栃尾本町"},
{"zip_code":"9400233","kana_pref":"ﾆｲｶﾞﾀｹﾝ","kana_city":"ﾅｶﾞｵｶｼ","kana_address":"ﾄﾁｵﾐﾔｻﾞﾜ","pref":"新潟県","city":"長岡市","address":"栃尾宮沢"},
{"zip_code":"9400214","kana_pref":"ﾆｲｶﾞﾀｹﾝ","kana_city":"ﾅｶﾞｵｶｼ","kana_address":"ﾄﾁｵﾔﾏﾀﾞ","pref":"新潟県","city":"長岡市","address":"栃尾山田"},
{"zip_code":"9400213","kana_pref":"ﾆｲｶﾞﾀｹﾝ","kana_city":"ﾅｶﾞｵｶｼ","kana_address":"ﾄﾁｵﾔﾏﾀﾞﾁｮｳ","pref":"新潟県","city":"長岡市","address":"栃尾山田町"},
{"zip_code":"9400215","kana_pref":"ﾆｲｶﾞﾀｹﾝ","kana_city":"ﾅｶﾞｵｶｼ","kana_address":"ﾄﾁｵﾏﾁ","pref":"新潟県","city":"長岡市","address":"栃尾町"},
{"zip_code":"9400149","kana_pref":"ﾆｲｶﾞﾀｹﾝ","kana_city":"ﾅｶﾞｵｶｼ","kana_address":"ﾄﾁｸﾗ","pref":"新潟県","city":"長岡市","address":"栃倉"},
{"zip_code":"9400145","kana_pref":"ﾆｲｶﾞﾀｹﾝ","kana_city":"ﾅｶﾞｵｶｼ","kana_address":"ﾄﾁﾎﾞﾘ","pref":"新潟県","city":"長岡市","address":"栃堀"},
{"zip_code":"9400064","kana_pref":"ﾆｲｶﾞﾀｹﾝ","kana_city":"ﾅｶﾞｵｶｼ","kana_address":"ﾄﾉﾏﾁ","pref":"新潟県","city":"長岡市","address":"殿町"},
{"zip_code":"9400881","kana_pref":"ﾆｲｶﾞﾀｹﾝ","kana_city":"ﾅｶﾞｵｶｼ","kana_address":"ﾄﾐｼﾞﾏﾏﾁ","pref":"新潟県","city":"長岡市","address":"富島町"},
{"zip_code":"9400836","kana_pref":"ﾆｲｶﾞﾀｹﾝ","kana_city":"ﾅｶﾞｵｶｼ","kana_address":"ﾄﾖﾀﾞﾏﾁ","pref":"新潟県","city":"長岡市","address":"豊田町"},
{"zip_code":"9401142","kana_pref":"ﾆｲｶﾞﾀｹﾝ","kana_city":"ﾅｶﾞｵｶｼ","kana_address":"ﾄﾖﾂﾞﾒﾏﾁ","pref":"新潟県","city":"長岡市","address":"豊詰町"},
{"zip_code":"9402316","kana_pref":"ﾆｲｶﾞﾀｹﾝ","kana_city":"ﾅｶﾞｵｶｼ","kana_address":"ﾄﾘｺﾞｴ","pref":"新潟県","city":"長岡市","address":"鳥越"},
{"zip_code":"9400253","kana_pref":"ﾆｲｶﾞﾀｹﾝ","kana_city":"ﾅｶﾞｵｶｼ","kana_address":"ﾅｶ","pref":"新潟県","city":"長岡市","address":"中"},
{"zip_code":"9401135","kana_pref":"ﾆｲｶﾞﾀｹﾝ","kana_city":"ﾅｶﾞｵｶｼ","kana_address":"ﾅｶｶﾞﾀﾏﾁ","pref":"新潟県","city":"長岡市","address":"中潟町"},
{"zip_code":"9400829","kana_pref":"ﾆｲｶﾞﾀｹﾝ","kana_city":"ﾅｶﾞｵｶｼ","kana_address":"ﾅｶﾞｸﾗ","pref":"新潟県","city":"長岡市","address":"長倉"},
{"zip_code":"9400849","kana_pref":"ﾆｲｶﾞﾀｹﾝ","kana_city":"ﾅｶﾞｵｶｼ","kana_address":"ﾅｶﾞｸﾗﾆｼﾏﾁ","pref":"新潟県","city":"長岡市","address":"長倉西町"},
{"zip_code":"9400826","kana_pref":"ﾆｲｶﾞﾀｹﾝ","kana_city":"ﾅｶﾞｵｶｼ","kana_address":"ﾅｶﾞｸﾗﾏﾁ","pref":"新潟県","city":"長岡市","address":"長倉町"},
{"zip_code":"9400848","kana_pref":"ﾆｲｶﾞﾀｹﾝ","kana_city":"ﾅｶﾞｵｶｼ","kana_address":"ﾅｶﾞｸﾗﾐﾅﾐﾏﾁ","pref":"新潟県","city":"長岡市","address":"長倉南町"},
{"zip_code":"9400225","kana_pref":"ﾆｲｶﾞﾀｹﾝ","kana_city":"ﾅｶﾞｵｶｼ","kana_address":"ﾅｶｺﾞﾁｮｳ","pref":"新潟県","city":"長岡市","address":"仲子町"},
{"zip_code":"9400853","kana_pref":"ﾆｲｶﾞﾀｹﾝ","kana_city":"ﾅｶﾞｵｶｼ","kana_address":"ﾅｶｻﾞﾜ","pref":"新潟県","city":"長岡市","address":"中沢"},
{"zip_code":"9400854","kana_pref":"ﾆｲｶﾞﾀｹﾝ","kana_city":"ﾅｶﾞｵｶｼ","kana_address":"ﾅｶｻﾞﾜﾏﾁ","pref":"新潟県","city":"長岡市","address":"中沢町"},
{"zip_code":"9400094","kana_pref":"ﾆｲｶﾞﾀｹﾝ","kana_city":"ﾅｶﾞｵｶｼ","kana_address":"ﾅｶｼﾞﾏ","pref":"新潟県","city":"長岡市","address":"中島"},
{"zip_code":"9400017","kana_pref":"ﾆｲｶﾞﾀｹﾝ","kana_city":"ﾅｶﾞｵｶｼ","kana_address":"ﾅｶｾ","pref":"新潟県","city":"長岡市","address":"中瀬"},
{"zip_code":"9400874","kana_pref":"ﾆｲｶﾞﾀｹﾝ","kana_city":"ﾅｶﾞｵｶｼ","kana_address":"ﾅｶﾞﾀ","pref":"新潟県","city":"長岡市","address":"永田"},
{"zip_code":"9400873","kana_pref":"ﾆｲｶﾞﾀｹﾝ","kana_city":"ﾅｶﾞｵｶｼ","kana_address":"ﾅｶﾞﾀﾏﾁ","pref":"新潟県","city":"長岡市","address":"永田町"},
{"zip_code":"9400053","kana_pref":"ﾆｲｶﾞﾀｹﾝ","kana_city":"ﾅｶﾞｵｶｼ","kana_address":"ﾅｶﾞﾁｮｳ","pref":"新潟県","city":"長岡市","address":"長町"},
{"zip_code":"9400852","kana_pref":"ﾆｲｶﾞﾀｹﾝ","kana_city":"ﾅｶﾞｵｶｼ","kana_address":"ﾅｶﾇｷﾏﾁ","pref":"新潟県","city":"長岡市","address":"中貫町"},
{"zip_code":"9402142","kana_pref":"ﾆｲｶﾞﾀｹﾝ","kana_city":"ﾅｶﾞｵｶｼ","kana_address":"ﾅｶﾞﾐﾈﾏﾁ","pref":"新潟県","city":"長岡市","address":"長峰町"},
{"zip_code":"9402315","kana_pref":"ﾆｲｶﾞﾀｹﾝ","kana_city":"ﾅｶﾞｵｶｼ","kana_address":"ﾅﾉｶｲﾁ","pref":"新潟県","city":"長岡市","address":"七日市"},
{"zip_code":"9402123","kana_pref":"ﾆｲｶﾞﾀｹﾝ","kana_city":"ﾅｶﾞｵｶｼ","kana_address":"ﾅﾉｶﾏﾁ","pref":"新潟県","city":"長岡市","address":"七日町"},
{"zip_code":"9402465","kana_pref":"ﾆｲｶﾞﾀｹﾝ","kana_city":"ﾅｶﾞｵｶｼ","kana_address":"ﾅﾘｻﾜﾏﾁ","pref":"新潟県","city":"長岡市","address":"成沢町"},
{"zip_code":"9401164","kana_pref":"ﾆｲｶﾞﾀｹﾝ","kana_city":"ﾅｶﾞｵｶｼ","kana_address":"ﾅﾝﾖｳ","pref":"新潟県","city":"長岡市","address":"南陽"},
{"zip_code":"9400875","kana_pref":"ﾆｲｶﾞﾀｹﾝ","kana_city":"ﾅｶﾞｵｶｼ","kana_address":"ﾆｲﾎﾞ","pref":"新潟県","city":"長岡市","address":"新保"},
{"zip_code":"9400876","kana_pref":"ﾆｲｶﾞﾀｹﾝ","kana_city":"ﾅｶﾞｵｶｼ","kana_address":"ﾆｲﾎﾞﾏﾁ","pref":"新潟県","city":"長岡市","address":"新保町"},
{"zip_code":"9401121","kana_pref":"ﾆｲｶﾞﾀｹﾝ","kana_city":"ﾅｶﾞｵｶｼ","kana_address":"ﾆｺﾞﾘｻﾜﾏﾁ","pref":"新潟県","city":"長岡市","address":"濁沢町"},
{"zip_code":"9400024","kana_pref":"ﾆｲｶﾞﾀｹﾝ","kana_city":"ﾅｶﾞｵｶｼ","kana_address":"ﾆｼｱﾗﾏﾁ","pref":"新潟県","city":"長岡市","address":"西新町"},
{"zip_code":"9400817","kana_pref":"ﾆｲｶﾞﾀｹﾝ","kana_city":"ﾅｶﾞｵｶｼ","kana_address":"ﾆｼｶﾀｶｲﾏﾁ","pref":"新潟県","city":"長岡市","address":"西片貝町"},
{"zip_code":"9400051","kana_pref":"ﾆｲｶﾞﾀｹﾝ","kana_city":"ﾅｶﾞｵｶｼ","kana_address":"ﾆｼｶﾝﾀﾞﾏﾁ","pref":"新潟県","city":"長岡市","address":"西神田町"},
{"zip_code":"9400835","kana_pref":"ﾆｲｶﾞﾀｹﾝ","kana_city":"ﾅｶﾞｵｶｼ","kana_address":"ﾆｼｷ","pref":"新潟県","city":"長岡市","address":"錦"},
{"zip_code":"9400027","kana_pref":"ﾆｲｶﾞﾀｹﾝ","kana_city":"ﾅｶﾞｵｶｼ","kana_address":"ﾆｼｻﾞｵｳ","pref":"新潟県","city":"長岡市","address":"西蔵王"},
{"zip_code":"9400086","kana_pref":"ﾆｲｶﾞﾀｹﾝ","kana_city":"ﾅｶﾞｵｶｼ","kana_address":"ﾆｼｾﾝｼﾞｭ","pref":"新潟県","city":"長岡市","address":"西千手"},
{"zip_code":"9402126","kana_pref":"ﾆｲｶﾞﾀｹﾝ","kana_city":"ﾅｶﾞｵｶｼ","kana_address":"ﾆｼﾂﾞﾏﾁ","pref":"新潟県","city":"長岡市","address":"西津町"},
{"zip_code":"9400256","kana_pref":"ﾆｲｶﾞﾀｹﾝ","kana_city":"ﾅｶﾞｵｶｼ","kana_address":"ﾆｼﾅｶﾉﾏﾀ","pref":"新潟県","city":"長岡市","address":"西中野俣"},
{"zip_code":"9400252","kana_pref":"ﾆｲｶﾞﾀｹﾝ","kana_city":"ﾅｶﾞｵｶｼ","kana_address":"ﾆｼﾉﾏﾀ","pref":"新潟県","city":"長岡市","address":"西野俣"},
{"zip_code":"9401162","kana_pref":"ﾆｲｶﾞﾀｹﾝ","kana_city":"ﾅｶﾞｵｶｼ","kana_address":"ﾆｼﾐﾔｳﾁ","pref":"新潟県","city":"長岡市","address":"西宮内"},
{"zip_code":"9400095","kana_pref":"ﾆｲｶﾞﾀｹﾝ","kana_city":"ﾅｶﾞｵｶｼ","kana_address":"ﾆｯｾｷﾁｮｳ","pref":"新潟県","city":"長岡市","address":"日赤町"},
{"zip_code":"9400203","kana_pref":"ﾆｲｶﾞﾀｹﾝ","kana_city":"ﾅｶﾞｵｶｼ","kana_address":"ﾆﾚﾊﾞﾗ","pref":"新潟県","city":"長岡市","address":"楡原"},
{"zip_code":"9402023","kana_pref":"ﾆｲｶﾞﾀｹﾝ","kana_city":"ﾅｶﾞｵｶｼ","kana_address":"ﾊｽｶﾞﾀ","pref":"新潟県","city":"長岡市","address":"蓮潟"},
{"zip_code":"9400842","kana_pref":"ﾆｲｶﾞﾀｹﾝ","kana_city":"ﾅｶﾞｵｶｼ","kana_address":"ﾊﾁﾌﾞｾﾏﾁ","pref":"新潟県","city":"長岡市","address":"鉢伏町"},
{"zip_code":"9402475","kana_pref":"ﾆｲｶﾞﾀｹﾝ","kana_city":"ﾅｶﾞｵｶｼ","kana_address":"ﾊﾅｲﾏﾁ","pref":"新潟県","city":"長岡市","address":"花井町"},
{"zip_code":"9400845","kana_pref":"ﾆｲｶﾞﾀｹﾝ","kana_city":"ﾅｶﾞｵｶｼ","kana_address":"ﾊﾅｿﾞﾉ","pref":"新潟県","city":"長岡市","address":"花園"},
{"zip_code":"9400846","kana_pref":"ﾆｲｶﾞﾀｹﾝ","kana_city":"ﾅｶﾞｵｶｼ","kana_address":"ﾊﾅｿﾞﾉﾋｶﾞｼ","pref":"新潟県","city":"長岡市","address":"花園東"},
{"zip_code":"9400013","kana_pref":"ﾆｲｶﾞﾀｹﾝ","kana_city":"ﾅｶﾞｵｶｼ","kana_address":"ﾊﾗﾏﾁ","pref":"新潟県","city":"長岡市","address":"原町"},
{"zip_code":"9400258","kana_pref":"ﾆｲｶﾞﾀｹﾝ","kana_city":"ﾅｶﾞｵｶｼ","kana_address":"ﾊﾝｿﾞｳｶﾞﾈ","pref":"新潟県","city":"長岡市","address":"半蔵金"},
{"zip_code":"9400022","kana_pref":"ﾆｲｶﾞﾀｹﾝ","kana_city":"ﾅｶﾞｵｶｼ","kana_address":"ﾋｶﾞｼｱﾗﾏﾁ","pref":"新潟県","city":"長岡市","address":"東新町"},
{"zip_code":"9400136","kana_pref":"ﾆｲｶﾞﾀｹﾝ","kana_city":"ﾅｶﾞｵｶｼ","kana_address":"ﾋｶﾞｼｶﾞｵｶ","pref":"新潟県","city":"長岡市","address":"東が丘"},
{"zip_code":"9400816","kana_pref":"ﾆｲｶﾞﾀｹﾝ","kana_city":"ﾅｶﾞｵｶｼ","kana_address":"ﾋｶﾞｼｶﾀｶｲﾏﾁ","pref":"新潟県","city":"長岡市","address":"東片貝町"},
{"zip_code":"9400035","kana_pref":"ﾆｲｶﾞﾀｹﾝ","kana_city":"ﾅｶﾞｵｶｼ","kana_address":"ﾋｶﾞｼｶﾝﾀﾞ","pref":"新潟県","city":"長岡市","address":"東神田"},
{"zip_code":"9400029","kana_pref":"ﾆｲｶﾞﾀｹﾝ","kana_city":"ﾅｶﾞｵｶｼ","kana_address":"ﾋｶﾞｼｻﾞｵｳ","pref":"新潟県","city":"長岡市","address":"東蔵王"},
{"zip_code":"9400037","kana_pref":"ﾆｲｶﾞﾀｹﾝ","kana_city":"ﾅｶﾞｵｶｼ","kana_address":"ﾋｶﾞｼｻｶｴ","pref":"新潟県","city":"長岡市","address":"東栄"},
{"zip_code":"9400066","kana_pref":"ﾆｲｶﾞﾀｹﾝ","kana_city":"ﾅｶﾞｵｶｼ","kana_address":"ﾋｶﾞｼｻｶﾉｳｴﾏﾁ","pref":"新潟県","city":"長岡市","address":"東坂之上町"},
{"zip_code":"9400006","kana_pref":"ﾆｲｶﾞﾀｹﾝ","kana_city":"ﾅｶﾞｵｶｼ","kana_address":"ﾋｶﾞｼﾀｶﾐ","pref":"新潟県","city":"長岡市","address":"東高見"},
{"zip_code":"9400255","kana_pref":"ﾆｲｶﾞﾀｹﾝ","kana_city":"ﾅｶﾞｵｶｼ","kana_address":"ﾋｶﾞｼﾅｶﾉﾏﾀ","pref":"新潟県","city":"長岡市","address":"東中野俣"},
{"zip_code":"9401102","kana_pref":"ﾆｲｶﾞﾀｹﾝ","kana_city":"ﾅｶﾞｵｶｼ","kana_address":"ﾋｶﾞｼﾐﾔｳﾁﾏﾁ","pref":"新潟県","city":"長岡市","address":"東宮内町"},
{"zip_code":"9402138","kana_pref":"ﾆｲｶﾞﾀｹﾝ","kana_city":"ﾅｶﾞｵｶｼ","kana_address":"ﾋｺﾞｼ","pref":"新潟県","city":"長岡市","address":"日越"},
{"zip_code":"9400102","kana_pref":"ﾆｲｶﾞﾀｹﾝ","kana_city":"ﾅｶﾞｵｶｼ","kana_address":"ﾋﾄﾂﾞﾗ","pref":"新潟県","city":"長岡市","address":"人面"},
{"zip_code":"9400892","kana_pref":"ﾆｲｶﾞﾀｹﾝ","kana_city":"ﾅｶﾞｵｶｼ","kana_address":"ﾋｬｸｿｸﾏﾁ","pref":"新潟県","city":"長岡市","address":"百束町"},
{"zip_code":"9400124","kana_pref":"ﾆｲｶﾞﾀｹﾝ","kana_city":"ﾅｶﾞｵｶｼ","kana_address":"ﾋﾗﾅｶﾉﾏﾀ","pref":"新潟県","city":"長岡市","address":"平中野俣"},
{"zip_code":"9400244","kana_pref":"ﾆｲｶﾞﾀｹﾝ","kana_city":"ﾅｶﾞｵｶｼ","kana_address":"ﾋﾚｲ","pref":"新潟県","city":"長岡市","address":"比礼"},
{"zip_code":"9402135","kana_pref":"ﾆｲｶﾞﾀｹﾝ","kana_city":"ﾅｶﾞｵｶｼ","kana_address":"ﾌｶｻﾜﾏﾁ","pref":"新潟県","city":"長岡市","address":"深沢町"},
{"zip_code":"9400151","kana_pref":"ﾆｲｶﾞﾀｹﾝ","kana_city":"ﾅｶﾞｵｶｼ","kana_address":"ﾌｷﾀﾞﾆ","pref":"新潟県","city":"長岡市","address":"吹谷"},
{"zip_code":"9400893","kana_pref":"ﾆｲｶﾞﾀｹﾝ","kana_city":"ﾅｶﾞｵｶｼ","kana_address":"ﾌｸｲﾏﾁ","pref":"新潟県","city":"長岡市","address":"福井町"},
{"zip_code":"9400896","kana_pref":"ﾆｲｶﾞﾀｹﾝ","kana_city":"ﾅｶﾞｵｶｼ","kana_address":"ﾌｸｼﾏﾏﾁ","pref":"新潟県","city":"長岡市","address":"福島町"},
{"zip_code":"9400034","kana_pref":"ﾆｲｶﾞﾀｹﾝ","kana_city":"ﾅｶﾞｵｶｼ","kana_address":"ﾌｸｽﾞﾐ","pref":"新潟県","city":"長岡市","address":"福住"},
{"zip_code":"9402052","kana_pref":"ﾆｲｶﾞﾀｹﾝ","kana_city":"ﾅｶﾞｵｶｼ","kana_address":"ﾌｸﾄﾏﾁ","pref":"新潟県","city":"長岡市","address":"福戸町"},
{"zip_code":"9402053","kana_pref":"ﾆｲｶﾞﾀｹﾝ","kana_city":"ﾅｶﾞｵｶｼ","kana_address":"ﾌｸﾐﾁﾏﾁ","pref":"新潟県","city":"長岡市","address":"福道町"},
{"zip_code":"9402122","kana_pref":"ﾆｲｶﾞﾀｹﾝ","kana_city":"ﾅｶﾞｵｶｼ","kana_address":"ﾌｸﾔﾏﾏﾁ","pref":"新潟県","city":"長岡市","address":"福山町"},
{"zip_code":"9400055","kana_pref":"ﾆｲｶﾞﾀｹﾝ","kana_city":"ﾅｶﾞｵｶｼ","kana_address":"ﾌｸﾛﾏﾁ","pref":"新潟県","city":"長岡市","address":"袋町"},
{"zip_code":"9402302","kana_pref":"ﾆｲｶﾞﾀｹﾝ","kana_city":"ﾅｶﾞｵｶｼ","kana_address":"ﾌｼﾞｶﾜ","pref":"新潟県","city":"長岡市","address":"藤川"},
{"zip_code":"9402011","kana_pref":"ﾆｲｶﾞﾀｹﾝ","kana_city":"ﾅｶﾞｵｶｼ","kana_address":"ﾌｼﾞｻﾜ","pref":"新潟県","city":"長岡市","address":"藤沢"},
{"zip_code":"9402141","kana_pref":"ﾆｲｶﾞﾀｹﾝ","kana_city":"ﾅｶﾞｵｶｼ","kana_address":"ﾌｼﾞﾊｼ","pref":"新潟県","city":"長岡市","address":"藤橋"},
{"zip_code":"9400103","kana_pref":"ﾆｲｶﾞﾀｹﾝ","kana_city":"ﾅｶﾞｵｶｼ","kana_address":"ﾌﾀﾂｺﾞｳﾔ","pref":"新潟県","city":"長岡市","address":"二ツ郷屋"},
{"zip_code":"9400112","kana_pref":"ﾆｲｶﾞﾀｹﾝ","kana_city":"ﾅｶﾞｵｶｼ","kana_address":"ﾌﾂｶﾏﾁ","pref":"新潟県","city":"長岡市","address":"二日町"},
{"zip_code":"9400073","kana_pref":"ﾆｲｶﾞﾀｹﾝ","kana_city":"ﾅｶﾞｵｶｼ","kana_address":"ﾌﾅｴﾁｮｳ","pref":"新潟県","city":"長岡市","address":"船江町"},
{"zip_code":"9400101","kana_pref":"ﾆｲｶﾞﾀｹﾝ","kana_city":"ﾅｶﾞｵｶｼ","kana_address":"ﾌﾞﾝﾉｳ","pref":"新潟県","city":"長岡市","address":"文納"},
{"zip_code":"9401163","kana_pref":"ﾆｲｶﾞﾀｹﾝ","kana_city":"ﾅｶﾞｵｶｼ","kana_address":"ﾍｲｼﾞﾏ","pref":"新潟県","city":"長岡市","address":"平島"},
{"zip_code":"9401163","kana_pref":"ﾆｲｶﾞﾀｹﾝ","kana_city":"ﾅｶﾞｵｶｼ","kana_address":"ﾍｲｼﾞﾏﾏﾁ","pref":"新潟県","city":"長岡市","address":"平島町"},
{"zip_code":"9402031","kana_pref":"ﾆｲｶﾞﾀｹﾝ","kana_city":"ﾅｶﾞｵｶｼ","kana_address":"ﾎｳｼﾞﾏﾁ","pref":"新潟県","city":"長岡市","address":"宝地町"},
{"zip_code":"9400871","kana_pref":"ﾆｲｶﾞﾀｹﾝ","kana_city":"ﾅｶﾞｵｶｼ","kana_address":"ﾎｸﾖｳ","pref":"新潟県","city":"長岡市","address":"北陽"},
{"zip_code":"9400032","kana_pref":"ﾆｲｶﾞﾀｹﾝ","kana_city":"ﾅｶﾞｵｶｼ","kana_address":"ﾎｼﾊﾞ","pref":"新潟県","city":"長岡市","address":"干場"},
{"zip_code":"9400868","kana_pref":"ﾆｲｶﾞﾀｹﾝ","kana_city":"ﾅｶﾞｵｶｼ","kana_address":"ﾎﾘｶﾞﾈ","pref":"新潟県","city":"長岡市","address":"堀金"},
{"zip_code":"9400142","kana_pref":"ﾆｲｶﾞﾀｹﾝ","kana_city":"ﾅｶﾞｵｶｼ","kana_address":"ﾎﾝｼﾞｮ","pref":"新潟県","city":"長岡市","address":"本所"},
{"zip_code":"9400076","kana_pref":"ﾆｲｶﾞﾀｹﾝ","kana_city":"ﾅｶﾞｵｶｼ","kana_address":"ﾎﾝﾁｮｳ","pref":"新潟県","city":"長岡市","address":"本町"},
{"zip_code":"9400245","kana_pref":"ﾆｲｶﾞﾀｹﾝ","kana_city":"ﾅｶﾞｵｶｼ","kana_address":"ﾎﾝﾂｶﾞﾜ","pref":"新潟県","city":"長岡市","address":"本津川"},
{"zip_code":"9401147","kana_pref":"ﾆｲｶﾞﾀｹﾝ","kana_city":"ﾅｶﾞｵｶｼ","kana_address":"ﾏｴｼﾞﾏﾏﾁ","pref":"新潟県","city":"長岡市","address":"前島町"},
{"zip_code":"9400042","kana_pref":"ﾆｲｶﾞﾀｹﾝ","kana_city":"ﾅｶﾞｵｶｼ","kana_address":"ﾏｴﾀﾞ","pref":"新潟県","city":"長岡市","address":"前田"},
{"zip_code":"9401103","kana_pref":"ﾆｲｶﾞﾀｹﾝ","kana_city":"ﾅｶﾞｵｶｼ","kana_address":"ﾏｶﾞﾘｱﾗﾏﾁ","pref":"新潟県","city":"長岡市","address":"曲新町"},
{"zip_code":"9402001","kana_pref":"ﾆｲｶﾞﾀｹﾝ","kana_city":"ﾅｶﾞｵｶｼ","kana_address":"ﾏｷｼﾀﾏﾁ","pref":"新潟県","city":"長岡市","address":"槇下町"},
{"zip_code":"9402005","kana_pref":"ﾆｲｶﾞﾀｹﾝ","kana_city":"ﾅｶﾞｵｶｼ","kana_address":"ﾏｷｼﾞﾏ","pref":"新潟県","city":"長岡市","address":"巻島"},
{"zip_code":"9400133","kana_pref":"ﾆｲｶﾞﾀｹﾝ","kana_city":"ﾅｶﾞｵｶｼ","kana_address":"ﾏｷﾌﾁ","pref":"新潟県","city":"長岡市","address":"巻渕"},
{"zip_code":"9402002","kana_pref":"ﾆｲｶﾞﾀｹﾝ","kana_city":"ﾅｶﾞｵｶｼ","kana_address":"ﾏｷﾔﾏﾏﾁ","pref":"新潟県","city":"長岡市","address":"槇山町"},
{"zip_code":"9401111","kana_pref":"ﾆｲｶﾞﾀｹﾝ","kana_city":"ﾅｶﾞｵｶｼ","kana_address":"ﾏﾁﾀﾞﾏﾁ","pref":"新潟県","city":"長岡市","address":"町田町"},
{"zip_code":"9400154","kana_pref":"ﾆｲｶﾞﾀｹﾝ","kana_city":"ﾅｶﾞｵｶｼ","kana_address":"ﾏﾂｵ","pref":"新潟県","city":"長岡市","address":"松尾"},
{"zip_code":"9400091","kana_pref":"ﾆｲｶﾞﾀｹﾝ","kana_city":"ﾅｶﾞｵｶｼ","kana_address":"ﾏﾂﾊﾞ","pref":"新潟県","city":"長岡市","address":"松葉"},
{"zip_code":"9400856","kana_pref":"ﾆｲｶﾞﾀｹﾝ","kana_city":"ﾅｶﾞｵｶｼ","kana_address":"ﾐｻﾜ","pref":"新潟県","city":"長岡市","address":"美沢"},
{"zip_code":"9402323","kana_pref":"ﾆｲｶﾞﾀｹﾝ","kana_city":"ﾅｶﾞｵｶｼ","kana_address":"ﾐｼﾏｼﾞｮｳｼﾞｮｳ","pref":"新潟県","city":"長岡市","address":"三島上条"},
{"zip_code":"9402311","kana_pref":"ﾆｲｶﾞﾀｹﾝ","kana_city":"ﾅｶﾞｵｶｼ","kana_address":"ﾐｼﾏｼﾝﾎﾞ","pref":"新潟県","city":"長岡市","address":"三島新保"},
{"zip_code":"9402312","kana_pref":"ﾆｲｶﾞﾀｹﾝ","kana_city":"ﾅｶﾞｵｶｼ","kana_address":"ﾐｼﾏﾅｶｼﾞｮｳ","pref":"新潟県","city":"長岡市","address":"三島中条"},
{"zip_code":"9400804","kana_pref":"ﾆｲｶﾞﾀｹﾝ","kana_city":"ﾅｶﾞｵｶｼ","kana_address":"ﾐｽﾞｱﾅﾏﾁ","pref":"新潟県","city":"長岡市","address":"水穴町"},
{"zip_code":"9400106","kana_pref":"ﾆｲｶﾞﾀｹﾝ","kana_city":"ﾅｶﾞｵｶｼ","kana_address":"ﾐｽﾞｻﾜ","pref":"新潟県","city":"長岡市","address":"水沢"},
{"zip_code":"9401165","kana_pref":"ﾆｲｶﾞﾀｹﾝ","kana_city":"ﾅｶﾞｵｶｼ","kana_address":"ﾐｽﾞﾅｼﾏﾁ","pref":"新潟県","city":"長岡市","address":"水梨町"},
{"zip_code":"9400866","kana_pref":"ﾆｲｶﾞﾀｹﾝ","kana_city":"ﾅｶﾞｵｶｼ","kana_address":"ﾐｿﾉ","pref":"新潟県","city":"長岡市","address":"美園"},
{"zip_code":"9402111","kana_pref":"ﾆｲｶﾞﾀｹﾝ","kana_city":"ﾅｶﾞｵｶｼ","kana_address":"ﾐﾂｺﾞｳﾔ","pref":"新潟県","city":"長岡市","address":"三ツ郷屋"},
{"zip_code":"9402105","kana_pref":"ﾆｲｶﾞﾀｹﾝ","kana_city":"ﾅｶﾞｵｶｼ","kana_address":"ﾐﾄﾞﾘﾁｮｳ","pref":"新潟県","city":"長岡市","address":"緑町"},
{"zip_code":"9402054","kana_pref":"ﾆｲｶﾞﾀｹﾝ","kana_city":"ﾅｶﾞｵｶｼ","kana_address":"ﾐﾅﾐｼﾝﾎﾞﾏﾁ","pref":"新潟県","city":"長岡市","address":"南新保町"},
{"zip_code":"9402116","kana_pref":"ﾆｲｶﾞﾀｹﾝ","kana_city":"ﾅｶﾞｵｶｼ","kana_address":"ﾐﾅﾐﾅﾉｶﾏﾁ","pref":"新潟県","city":"長岡市","address":"南七日町"},
{"zip_code":"9400081","kana_pref":"ﾆｲｶﾞﾀｹﾝ","kana_city":"ﾅｶﾞｵｶｼ","kana_address":"ﾐﾅﾐﾏﾁ","pref":"新潟県","city":"長岡市","address":"南町"},
{"zip_code":"9401106","kana_pref":"ﾆｲｶﾞﾀｹﾝ","kana_city":"ﾅｶﾞｵｶｼ","kana_address":"ﾐﾔｳﾁ","pref":"新潟県","city":"長岡市","address":"宮内"},
{"zip_code":"9401155","kana_pref":"ﾆｲｶﾞﾀｹﾝ","kana_city":"ﾅｶﾞｵｶｼ","kana_address":"ﾐﾔｳﾁﾏﾁ","pref":"新潟県","city":"長岡市","address":"宮内町"},
{"zip_code":"9401154","kana_pref":"ﾆｲｶﾞﾀｹﾝ","kana_city":"ﾅｶﾞｵｶｼ","kana_address":"ﾐﾔｻｶｴ","pref":"新潟県","city":"長岡市","address":"宮栄"},
{"zip_code":"9402301","kana_pref":"ﾆｲｶﾞﾀｹﾝ","kana_city":"ﾅｶﾞｵｶｼ","kana_address":"ﾐﾔｻﾞﾜ","pref":"新潟県","city":"長岡市","address":"宮沢"},
{"zip_code":"9400882","kana_pref":"ﾆｲｶﾞﾀｹﾝ","kana_city":"ﾅｶﾞｵｶｼ","kana_address":"ﾐﾔｼﾀﾏﾁ","pref":"新潟県","city":"長岡市","address":"宮下町"},
{"zip_code":"9400811","kana_pref":"ﾆｲｶﾞﾀｹﾝ","kana_city":"ﾅｶﾞｵｶｼ","kana_address":"ﾐﾔｼﾞﾏﾁ","pref":"新潟県","city":"長岡市","address":"宮路町"},
{"zip_code":"9402021","kana_pref":"ﾆｲｶﾞﾀｹﾝ","kana_city":"ﾅｶﾞｵｶｼ","kana_address":"ﾐﾔｾﾞｷ","pref":"新潟県","city":"長岡市","address":"宮関"},
{"zip_code":"9400083","kana_pref":"ﾆｲｶﾞﾀｹﾝ","kana_city":"ﾅｶﾞｵｶｼ","kana_address":"ﾐﾔﾊﾞﾗ","pref":"新潟県","city":"長岡市","address":"宮原"},
{"zip_code":"9402043","kana_pref":"ﾆｲｶﾞﾀｹﾝ","kana_city":"ﾅｶﾞｵｶｼ","kana_address":"ﾐﾔﾓﾄﾋｶﾞｼｶﾀﾏﾁ","pref":"新潟県","city":"長岡市","address":"宮本東方町"},
{"zip_code":"9402044","kana_pref":"ﾆｲｶﾞﾀｹﾝ","kana_city":"ﾅｶﾞｵｶｼ","kana_address":"ﾐﾔﾓﾄﾎﾘﾉｳﾁﾏﾁ","pref":"新潟県","city":"長岡市","address":"宮本堀之内町"},
{"zip_code":"9402042","kana_pref":"ﾆｲｶﾞﾀｹﾝ","kana_city":"ﾅｶﾞｵｶｼ","kana_address":"ﾐﾔﾓﾄﾏﾁ","pref":"新潟県","city":"長岡市","address":"宮本町"},
{"zip_code":"9401134","kana_pref":"ﾆｲｶﾞﾀｹﾝ","kana_city":"ﾅｶﾞｵｶｼ","kana_address":"ﾐｮｳｹﾝﾏﾁ","pref":"新潟県","city":"長岡市","address":"妙見町"},
{"zip_code":"9401133","kana_pref":"ﾆｲｶﾞﾀｹﾝ","kana_city":"ﾅｶﾞｵｶｼ","kana_address":"ﾑｲｶｲﾁﾏﾁ","pref":"新潟県","city":"長岡市","address":"六日市町"},
{"zip_code":"9400125","kana_pref":"ﾆｲｶﾞﾀｹﾝ","kana_city":"ﾅｶﾞｵｶｼ","kana_address":"ﾑｸﾞﾗﾀﾞﾆ","pref":"新潟県","city":"長岡市","address":"葎谷"},
{"zip_code":"9401115","kana_pref":"ﾆｲｶﾞﾀｹﾝ","kana_city":"ﾅｶﾞｵｶｼ","kana_address":"ﾑﾗﾏﾂﾏﾁ","pref":"新潟県","city":"長岡市","address":"村松町"},
{"zip_code":"9400257","kana_pref":"ﾆｲｶﾞﾀｹﾝ","kana_city":"ﾅｶﾞｵｶｼ","kana_address":"ﾓﾘｱｹﾞ","pref":"新潟県","city":"長岡市","address":"森上"},
{"zip_code":"9400227","kana_pref":"ﾆｲｶﾞﾀｹﾝ","kana_city":"ﾅｶﾞｵｶｼ","kana_address":"ﾔﾁ","pref":"新潟県","city":"長岡市","address":"谷内"},
{"zip_code":"9400072","kana_pref":"ﾆｲｶﾞﾀｹﾝ","kana_city":"ﾅｶﾞｵｶｼ","kana_address":"ﾔﾅｷﾞﾊﾗﾏﾁ","pref":"新潟県","city":"長岡市","address":"柳原町"},
{"zip_code":"9400114","kana_pref":"ﾆｲｶﾞﾀｹﾝ","kana_city":"ﾅｶﾞｵｶｼ","kana_address":"ﾔﾏｸﾞﾁ","pref":"新潟県","city":"長岡市","address":"山口"},
{"zip_code":"9400097","kana_pref":"ﾆｲｶﾞﾀｹﾝ","kana_city":"ﾅｶﾞｵｶｼ","kana_address":"ﾔﾏﾀﾞ","pref":"新潟県","city":"長岡市","address":"山田"},
{"zip_code":"9400104","kana_pref":"ﾆｲｶﾞﾀｹﾝ","kana_city":"ﾅｶﾞｵｶｼ","kana_address":"ﾔﾏﾔ","pref":"新潟県","city":"長岡市","address":"山屋"},
{"zip_code":"9400827","kana_pref":"ﾆｲｶﾞﾀｹﾝ","kana_city":"ﾅｶﾞｵｶｼ","kana_address":"ﾕｳｷｭｳﾁｮｳ","pref":"新潟県","city":"長岡市","address":"悠久町"},
{"zip_code":"9400867","kana_pref":"ﾆｲｶﾞﾀｹﾝ","kana_city":"ﾅｶﾞｵｶｼ","kana_address":"ﾕﾀｶ","pref":"新潟県","city":"長岡市","address":"豊"},
{"zip_code":"9400047","kana_pref":"ﾆｲｶﾞﾀｹﾝ","kana_city":"ﾅｶﾞｵｶｼ","kana_address":"ﾕﾐﾁｮｳ","pref":"新潟県","city":"長岡市","address":"弓町"},
{"zip_code":"9402405","kana_pref":"ﾆｲｶﾞﾀｹﾝ","kana_city":"ﾅｶﾞｵｶｼ","kana_address":"ﾖｲﾀﾏﾁｲﾜｶﾀ","pref":"新潟県","city":"長岡市","address":"与板町岩方"},
{"zip_code":"9402406","kana_pref":"ﾆｲｶﾞﾀｹﾝ","kana_city":"ﾅｶﾞｵｶｼ","kana_address":"ﾖｲﾀﾏﾁｴﾆｼ","pref":"新潟県","city":"長岡市","address":"与板町江西"},
{"zip_code":"9402407","kana_pref":"ﾆｲｶﾞﾀｹﾝ","kana_city":"ﾅｶﾞｵｶｼ","kana_address":"ﾖｲﾀﾏﾁｼﾛﾔﾏ","pref":"新潟県","city":"長岡市","address":"与板町城山"},
{"zip_code":"9402411","kana_pref":"ﾆｲｶﾞﾀｹﾝ","kana_city":"ﾅｶﾞｵｶｼ","kana_address":"ﾖｲﾀﾏﾁﾂﾀｲﾁ","pref":"新潟県","city":"長岡市","address":"与板町蔦都"},
{"zip_code":"9402414","kana_pref":"ﾆｲｶﾞﾀｹﾝ","kana_city":"ﾅｶﾞｵｶｼ","kana_address":"ﾖｲﾀﾏﾁﾅｶﾀﾞ","pref":"新潟県","city":"長岡市","address":"与板町中田"},
{"zip_code":"9402401","kana_pref":"ﾆｲｶﾞﾀｹﾝ","kana_city":"ﾅｶﾞｵｶｼ","kana_address":"ﾖｲﾀﾏﾁﾋｶﾞｼﾖｲﾀ","pref":"新潟県","city":"長岡市","address":"与板町東与板"},
{"zip_code":"9402412","kana_pref":"ﾆｲｶﾞﾀｹﾝ","kana_city":"ﾅｶﾞｵｶｼ","kana_address":"ﾖｲﾀﾏﾁﾋﾛﾉ","pref":"新潟県","city":"長岡市","address":"与板町広野"},
{"zip_code":"9402416","kana_pref":"ﾆｲｶﾞﾀｹﾝ","kana_city":"ﾅｶﾞｵｶｼ","kana_address":"ﾖｲﾀﾏﾁﾏｷﾊﾗ","pref":"新潟県","city":"長岡市","address":"与板町槇原"},
{"zip_code":"9402404","kana_pref":"ﾆｲｶﾞﾀｹﾝ","kana_city":"ﾅｶﾞｵｶｼ","kana_address":"ﾖｲﾀﾏﾁﾏｺﾞｼ","pref":"新潟県","city":"長岡市","address":"与板町馬越"},
{"zip_code":"9402415","kana_pref":"ﾆｲｶﾞﾀｹﾝ","kana_city":"ﾅｶﾞｵｶｼ","kana_address":"ﾖｲﾀﾏﾁﾐﾅﾐﾅｶ","pref":"新潟県","city":"長岡市","address":"与板町南中"},
{"zip_code":"9402403","kana_pref":"ﾆｲｶﾞﾀｹﾝ","kana_city":"ﾅｶﾞｵｶｼ","kana_address":"ﾖｲﾀﾏﾁﾓﾄﾖｲﾀ","pref":"新潟県","city":"長岡市","address":"与板町本与板"},
{"zip_code":"9402417","kana_pref":"ﾆｲｶﾞﾀｹﾝ","kana_city":"ﾅｶﾞｵｶｼ","kana_address":"ﾖｲﾀﾏﾁﾔﾏｻﾞﾜ","pref":"新潟県","city":"長岡市","address":"与板町山沢"},
{"zip_code":"9402402","kana_pref":"ﾆｲｶﾞﾀｹﾝ","kana_city":"ﾅｶﾞｵｶｼ","kana_address":"ﾖｲﾀﾏﾁﾖｲﾀ","pref":"新潟県","city":"長岡市","address":"与板町与板"},
{"zip_code":"9402413","kana_pref":"ﾆｲｶﾞﾀｹﾝ","kana_city":"ﾅｶﾞｵｶｼ","kana_address":"ﾖｲﾀﾏﾁﾖｼﾂﾞ","pref":"新潟県","city":"長岡市","address":"与板町吉津"},
{"zip_code":"9402148","kana_pref":"ﾆｲｶﾞﾀｹﾝ","kana_city":"ﾅｶﾞｵｶｼ","kana_address":"ﾖｳｺｳﾀﾞｲ","pref":"新潟県","city":"長岡市","address":"陽光台"},
{"zip_code":"9401117","kana_pref":"ﾆｲｶﾞﾀｹﾝ","kana_city":"ﾅｶﾞｵｶｼ","kana_address":"ﾖｺﾏｸﾗﾏﾁ","pref":"新潟県","city":"長岡市","address":"横枕町"},
{"zip_code":"9402313","kana_pref":"ﾆｲｶﾞﾀｹﾝ","kana_city":"ﾅｶﾞｵｶｼ","kana_address":"ﾖｼｻﾞｷ","pref":"新潟県","city":"長岡市","address":"吉崎"},
{"zip_code":"9400131","kana_pref":"ﾆｲｶﾞﾀｹﾝ","kana_city":"ﾅｶﾞｵｶｼ","kana_address":"ﾖｼﾐｽﾞ","pref":"新潟県","city":"長岡市","address":"吉水"},
{"zip_code":"9400891","kana_pref":"ﾆｲｶﾞﾀｹﾝ","kana_city":"ﾅｶﾞｵｶｼ","kana_address":"ﾖﾂﾔﾏﾁ","pref":"新潟県","city":"長岡市","address":"四ツ屋町"},
{"zip_code":"9401122","kana_pref":"ﾆｲｶﾞﾀｹﾝ","kana_city":"ﾅｶﾞｵｶｼ","kana_address":"ﾖﾓｷﾞﾋﾗﾏﾁ","pref":"新潟県","city":"長岡市","address":"蓬平町"},
{"zip_code":"9400152","kana_pref":"ﾆｲｶﾞﾀｹﾝ","kana_city":"ﾅｶﾞｵｶｼ","kana_address":"ﾗｲﾃﾞﾝ","pref":"新潟県","city":"長岡市","address":"来伝"},
{"zip_code":"9402325","kana_pref":"ﾆｲｶﾞﾀｹﾝ","kana_city":"ﾅｶﾞｵｶｼ","kana_address":"ﾚﾝｹﾞｼﾞ","pref":"新潟県","city":"長岡市","address":"蓮花寺"},
{"zip_code":"9400851","kana_pref":"ﾆｲｶﾞﾀｹﾝ","kana_city":"ﾅｶﾞｵｶｼ","kana_address":"ﾜｶｸｻﾏﾁ","pref":"新潟県","city":"長岡市","address":"若草町"},
{"zip_code":"9402461","kana_pref":"ﾆｲｶﾞﾀｹﾝ","kana_city":"ﾅｶﾞｵｶｼ","kana_address":"ﾜｷｶﾞﾜｼﾝﾃﾞﾝﾏﾁ","pref":"新潟県","city":"長岡市","address":"脇川新田町"},
{"zip_code":"9402306","kana_pref":"ﾆｲｶﾞﾀｹﾝ","kana_city":"ﾅｶﾞｵｶｼ","kana_address":"ﾜｷﾉﾏﾁ","pref":"新潟県","city":"長岡市","address":"脇野町"},
{"zip_code":"9400126","kana_pref":"ﾆｲｶﾞﾀｹﾝ","kana_city":"ﾅｶﾞｵｶｼ","kana_address":"ﾜｻﾋﾞﾀﾞﾆ","pref":"新潟県","city":"長岡市","address":"山葵谷"},
{"zip_code":"9401132","kana_pref":"ﾆｲｶﾞﾀｹﾝ","kana_city":"ﾅｶﾞｵｶｼ","kana_address":"ﾜﾀｻﾞﾜﾏﾁ","pref":"新潟県","city":"長岡市","address":"渡沢町"},
{"zip_code":"9402003","kana_pref":"ﾆｲｶﾞﾀｹﾝ","kana_city":"ﾅｶﾞｵｶｼ","kana_address":"ﾜﾀﾘﾊﾞﾏﾁ","pref":"新潟県","city":"長岡市","address":"渡場町"},
{"zip_code":"9400075","kana_pref":"ﾆｲｶﾞﾀｹﾝ","kana_city":"ﾅｶﾞｵｶｼ","kana_address":"ﾜﾀﾘﾏﾁ","pref":"新潟県","city":"長岡市","address":"渡里町"}]}