{"zip_code":[
{"zip_code":"9410000","kana_pref":"ﾆｲｶﾞﾀｹﾝ","kana_city":"ｲﾄｲｶﾞﾜｼ","kana_address":"","pref":"新潟県","city":"糸魚川市","address":""},
{"zip_code":"9410005","kana_pref":"ﾆｲｶﾞﾀｹﾝ","kana_city":"ｲﾄｲｶﾞﾜｼ","kana_address":"ｱﾂﾀﾞ","pref":"新潟県","city":"糸魚川市","address":"厚田"},
{"zip_code":"9410022","kana_pref":"ﾆｲｶﾞﾀｹﾝ","kana_city":"ｲﾄｲｶﾞﾜｼ","kana_address":"ｱﾗﾏﾁ","pref":"新潟県","city":"糸魚川市","address":"新町"},
{"zip_code":"9410031","kana_pref":"ﾆｲｶﾞﾀｹﾝ","kana_city":"ｲﾄｲｶﾞﾜｼ","kana_address":"ｱﾜｸﾗ","pref":"新潟県","city":"糸魚川市","address":"粟倉"},
{"zip_code":"9410034","kana_pref":"ﾆｲｶﾞﾀｹﾝ","kana_city":"ｲﾄｲｶﾞﾜｼ","kana_address":"ｲﾁﾉﾉ","pref":"新潟県","city":"糸魚川市","address":"市野々"},
{"zip_code":"9410056","kana_pref":"ﾆｲｶﾞﾀｹﾝ","kana_city":"ｲﾄｲｶﾞﾜｼ","kana_address":"ｲﾁﾉﾐﾔ","pref":"新潟県","city":"糸魚川市","address":"一の宮"},
{"zip_code":"9410078","kana_pref":"ﾆｲｶﾞﾀｹﾝ","kana_city":"ｲﾄｲｶﾞﾜｼ","kana_address":"ｲﾜｷ","pref":"新潟県","city":"糸魚川市","address":"岩木"},
{"zip_code":"9410064","kana_pref":"ﾆｲｶﾞﾀｹﾝ","kana_city":"ｲﾄｲｶﾞﾜｼ","kana_address":"ｳｴｶﾘ","pref":"新潟県","city":"糸魚川市","address":"上刈"},
{"zip_code":"9410071","kana_pref":"ﾆｲｶﾞﾀｹﾝ","kana_city":"ｲﾄｲｶﾞﾜｼ","kana_address":"ｵｵﾉ","pref":"新潟県","city":"糸魚川市","address":"大野"},
{"zip_code":"9410061","kana_pref":"ﾆｲｶﾞﾀｹﾝ","kana_city":"ｲﾄｲｶﾞﾜｼ","kana_address":"ｵｵﾏﾁ","pref":"新潟県","city":"糸魚川市","address":"大町"},
{"zip_code":"9410074","kana_pref":"ﾆｲｶﾞﾀｹﾝ","kana_city":"ｲﾄｲｶﾞﾜｼ","kana_address":"ｵｵﾔﾁ","pref":"新潟県","city":"糸魚川市","address":"大谷内"},
{"zip_code":"9410051","kana_pref":"ﾆｲｶﾞﾀｹﾝ","kana_city":"ｲﾄｲｶﾞﾜｼ","kana_address":"ｵｼｱｹﾞ","pref":"新潟県","city":"糸魚川市","address":"押上"},
{"zip_code":"9410004","kana_pref":"ﾆｲｶﾞﾀｹﾝ","kana_city":"ｲﾄｲｶﾞﾜｼ","kana_address":"ｶｼﾞﾔｼｷ","pref":"新潟県","city":"糸魚川市","address":"梶屋敷"},
{"zip_code":"9410036","kana_pref":"ﾆｲｶﾞﾀｹﾝ","kana_city":"ｲﾄｲｶﾞﾜｼ","kana_address":"ｶﾏｻﾞﾜ","pref":"新潟県","city":"糸魚川市","address":"釜沢"},
{"zip_code":"9410012","kana_pref":"ﾆｲｶﾞﾀｹﾝ","kana_city":"ｲﾄｲｶﾞﾜｼ","kana_address":"ｶﾐｲﾃﾞ","pref":"新潟県","city":"糸魚川市","address":"上出"},
{"zip_code":"9410042","kana_pref":"ﾆｲｶﾞﾀｹﾝ","kana_city":"ｲﾄｲｶﾞﾜｼ","kana_address":"ｶﾜｼﾏ","pref":"新潟県","city":"糸魚川市","address":"川島"},
{"zip_code":"9410054","kana_pref":"ﾆｲｶﾞﾀｹﾝ","kana_city":"ｲﾄｲｶﾞﾜｼ","kana_address":"ｷｮｳｶﾞﾐﾈ","pref":"新潟県","city":"糸魚川市","address":"京ケ峰"},
{"zip_code":"9410063","kana_pref":"ﾆｲｶﾞﾀｹﾝ","kana_city":"ｲﾄｲｶﾞﾜｼ","kana_address":"ｷﾖｻｷ","pref":"新潟県","city":"糸魚川市","address":"清崎"},
{"zip_code":"9410032","kana_pref":"ﾆｲｶﾞﾀｹﾝ","kana_city":"ｲﾄｲｶﾞﾜｼ","kana_address":"ｸﾙﾐｻﾞﾜ","pref":"新潟県","city":"糸魚川市","address":"来海沢"},
{"zip_code":"9410033","kana_pref":"ﾆｲｶﾞﾀｹﾝ","kana_city":"ｲﾄｲｶﾞﾜｼ","kana_address":"ｺﾞｾﾞﾝﾔﾏ","pref":"新潟県","city":"糸魚川市","address":"御前山"},
{"zip_code":"9410015","kana_pref":"ﾆｲｶﾞﾀｹﾝ","kana_city":"ｲﾄｲｶﾞﾜｼ","kana_address":"ｼﾐｽﾞﾔﾏ","pref":"新潟県","city":"糸魚川市","address":"清水山"},
{"zip_code":"9410013","kana_pref":"ﾆｲｶﾞﾀｹﾝ","kana_city":"ｲﾄｲｶﾞﾜｼ","kana_address":"ｼﾓｲﾃﾞ","pref":"新潟県","city":"糸魚川市","address":"下出"},
{"zip_code":"9410023","kana_pref":"ﾆｲｶﾞﾀｹﾝ","kana_city":"ｲﾄｲｶﾞﾜｼ","kana_address":"ｼﾞｮｳｶｸ","pref":"新潟県","city":"糸魚川市","address":"上覚"},
{"zip_code":"9410041","kana_pref":"ﾆｲｶﾞﾀｹﾝ","kana_city":"ｲﾄｲｶﾞﾜｼ","kana_address":"ｼﾝｺｳｼﾞ","pref":"新潟県","city":"糸魚川市","address":"真光寺"},
{"zip_code":"9410065","kana_pref":"ﾆｲｶﾞﾀｹﾝ","kana_city":"ｲﾄｲｶﾞﾜｼ","kana_address":"ｼﾝﾃﾂ","pref":"新潟県","city":"糸魚川市","address":"新鉄"},
{"zip_code":"9410011","kana_pref":"ﾆｲｶﾞﾀｹﾝ","kana_city":"ｲﾄｲｶﾞﾜｼ","kana_address":"ﾀｷｶﾜﾗ","pref":"新潟県","city":"糸魚川市","address":"滝川原"},
{"zip_code":"9410006","kana_pref":"ﾆｲｶﾞﾀｹﾝ","kana_city":"ｲﾄｲｶﾞﾜｼ","kana_address":"ﾀｹｶﾞﾊﾅ","pref":"新潟県","city":"糸魚川市","address":"竹ケ花"},
{"zip_code":"9410043","kana_pref":"ﾆｲｶﾞﾀｹﾝ","kana_city":"ｲﾄｲｶﾞﾜｼ","kana_address":"ﾀﾅｶ","pref":"新潟県","city":"糸魚川市","address":"田中"},
{"zip_code":"9410008","kana_pref":"ﾆｲｶﾞﾀｹﾝ","kana_city":"ｲﾄｲｶﾞﾜｼ","kana_address":"ﾀﾌﾞｾ","pref":"新潟県","city":"糸魚川市","address":"田伏"},
{"zip_code":"9410026","kana_pref":"ﾆｲｶﾞﾀｹﾝ","kana_city":"ｲﾄｲｶﾞﾜｼ","kana_address":"ﾀﾔ","pref":"新潟県","city":"糸魚川市","address":"田屋"},
{"zip_code":"9410062","kana_pref":"ﾆｲｶﾞﾀｹﾝ","kana_city":"ｲﾄｲｶﾞﾜｼ","kana_address":"ﾁｭｳｵｳ","pref":"新潟県","city":"糸魚川市","address":"中央"},
{"zip_code":"9410077","kana_pref":"ﾆｲｶﾞﾀｹﾝ","kana_city":"ｲﾄｲｶﾞﾜｼ","kana_address":"ﾂﾑﾘﾔﾏ","pref":"新潟県","city":"糸魚川市","address":"頭山"},
{"zip_code":"9410066","kana_pref":"ﾆｲｶﾞﾀｹﾝ","kana_city":"ｲﾄｲｶﾞﾜｼ","kana_address":"ﾃﾗｼﾞﾏ","pref":"新潟県","city":"糸魚川市","address":"寺島"},
{"zip_code":"9410058","kana_pref":"ﾆｲｶﾞﾀｹﾝ","kana_city":"ｲﾄｲｶﾞﾜｼ","kana_address":"ﾃﾗﾏﾁ","pref":"新潟県","city":"糸魚川市","address":"寺町"},
{"zip_code":"9410037","kana_pref":"ﾆｲｶﾞﾀｹﾝ","kana_city":"ｲﾄｲｶﾞﾜｼ","kana_address":"ﾄﾞｳﾀｲﾗ","pref":"新潟県","city":"糸魚川市","address":"道平"},
{"zip_code":"9410019","kana_pref":"ﾆｲｶﾞﾀｹﾝ","kana_city":"ｲﾄｲｶﾞﾜｼ","kana_address":"ﾄﾞｳﾐｮｳ","pref":"新潟県","city":"糸魚川市","address":"道明"},
{"zip_code":"9410003","kana_pref":"ﾆｲｶﾞﾀｹﾝ","kana_city":"ｲﾄｲｶﾞﾜｼ","kana_address":"ﾅｶｼｭｸ","pref":"新潟県","city":"糸魚川市","address":"中宿"},
{"zip_code":"9410002","kana_pref":"ﾆｲｶﾞﾀｹﾝ","kana_city":"ｲﾄｲｶﾞﾜｼ","kana_address":"ﾅｶﾊﾏ","pref":"新潟県","city":"糸魚川市","address":"中浜"},
{"zip_code":"9410075","kana_pref":"ﾆｲｶﾞﾀｹﾝ","kana_city":"ｲﾄｲｶﾞﾜｼ","kana_address":"ﾅｶﾔﾁ","pref":"新潟県","city":"糸魚川市","address":"中谷内"},
{"zip_code":"9410045","kana_pref":"ﾆｲｶﾞﾀｹﾝ","kana_city":"ｲﾄｲｶﾞﾜｼ","kana_address":"ﾅﾘｻﾜ","pref":"新潟県","city":"糸魚川市","address":"成沢"},
{"zip_code":"9410073","kana_pref":"ﾆｲｶﾞﾀｹﾝ","kana_city":"ｲﾄｲｶﾞﾜｼ","kana_address":"ﾆｼｶﾞﾜﾗ","pref":"新潟県","city":"糸魚川市","address":"西川原"},
{"zip_code":"9410076","kana_pref":"ﾆｲｶﾞﾀｹﾝ","kana_city":"ｲﾄｲｶﾞﾜｼ","kana_address":"ﾆｼﾅｶ","pref":"新潟県","city":"糸魚川市","address":"西中"},
{"zip_code":"9410024","kana_pref":"ﾆｲｶﾞﾀｹﾝ","kana_city":"ｲﾄｲｶﾞﾜｼ","kana_address":"ﾆｼﾔﾁ","pref":"新潟県","city":"糸魚川市","address":"西谷内"},
{"zip_code":"9410014","kana_pref":"ﾆｲｶﾞﾀｹﾝ","kana_city":"ｲﾄｲｶﾞﾜｼ","kana_address":"ﾆｯｺｳｼﾞ","pref":"新潟県","city":"糸魚川市","address":"日光寺"},
{"zip_code":"9410046","kana_pref":"ﾆｲｶﾞﾀｹﾝ","kana_city":"ｲﾄｲｶﾞﾜｼ","kana_address":"ﾊﾆｭｳ","pref":"新潟県","city":"糸魚川市","address":"羽生"},
{"zip_code":"9410021","kana_pref":"ﾆｲｶﾞﾀｹﾝ","kana_city":"ｲﾄｲｶﾞﾜｼ","kana_address":"ﾋｶﾞｼｳﾐ","pref":"新潟県","city":"糸魚川市","address":"東海"},
{"zip_code":"9410027","kana_pref":"ﾆｲｶﾞﾀｹﾝ","kana_city":"ｲﾄｲｶﾞﾜｼ","kana_address":"ﾋｶﾞｼｶﾜﾗ","pref":"新潟県","city":"糸魚川市","address":"東川原"},
{"zip_code":"9410053","kana_pref":"ﾆｲｶﾞﾀｹﾝ","kana_city":"ｲﾄｲｶﾞﾜｼ","kana_address":"ﾋｶﾞｼﾃﾗﾏﾁ","pref":"新潟県","city":"糸魚川市","address":"東寺町"},
{"zip_code":"9410047","kana_pref":"ﾆｲｶﾞﾀｹﾝ","kana_city":"ｲﾄｲｶﾞﾜｼ","kana_address":"ﾋﾗｳｼ","pref":"新潟県","city":"糸魚川市","address":"平牛"},
{"zip_code":"9410025","kana_pref":"ﾆｲｶﾞﾀｹﾝ","kana_city":"ｲﾄｲｶﾞﾜｼ","kana_address":"ﾎﾘｷﾘ","pref":"新潟県","city":"糸魚川市","address":"堀切"},
{"zip_code":"9410068","kana_pref":"ﾆｲｶﾞﾀｹﾝ","kana_city":"ｲﾄｲｶﾞﾜｼ","kana_address":"ﾎﾝﾁｮｳ","pref":"新潟県","city":"糸魚川市","address":"本町"},
{"zip_code":"9410035","kana_pref":"ﾆｲｶﾞﾀｹﾝ","kana_city":"ｲﾄｲｶﾞﾜｼ","kana_address":"ﾏｷ","pref":"新潟県","city":"糸魚川市","address":"真木"},
{"zip_code":"9410001","kana_pref":"ﾆｲｶﾞﾀｹﾝ","kana_city":"ｲﾄｲｶﾞﾜｼ","kana_address":"ﾏﾜｷ","pref":"新潟県","city":"糸魚川市","address":"間脇"},
{"zip_code":"9410044","kana_pref":"ﾆｲｶﾞﾀｹﾝ","kana_city":"ｲﾄｲｶﾞﾜｼ","kana_address":"ﾐｽﾞﾎ","pref":"新潟県","city":"糸魚川市","address":"水保"},
{"zip_code":"9410052","kana_pref":"ﾆｲｶﾞﾀｹﾝ","kana_city":"ｲﾄｲｶﾞﾜｼ","kana_address":"ﾐﾅﾐｵｼｱｹﾞ","pref":"新潟県","city":"糸魚川市","address":"南押上"},
{"zip_code":"9410069","kana_pref":"ﾆｲｶﾞﾀｹﾝ","kana_city":"ｲﾄｲｶﾞﾜｼ","kana_address":"ﾐﾅﾐﾃﾗｼﾞﾏ","pref":"新潟県","city":"糸魚川市","address":"南寺島"},
{"zip_code":"9410057","kana_pref":"ﾆｲｶﾞﾀｹﾝ","kana_city":"ｲﾄｲｶﾞﾜｼ","kana_address":"ﾐﾅﾐﾃﾗﾏﾁ","pref":"新潟県","city":"糸魚川市","address":"南寺町"},
{"zip_code":"9410007","kana_pref":"ﾆｲｶﾞﾀｹﾝ","kana_city":"ｲﾄｲｶﾞﾜｼ","kana_address":"ﾔﾏﾄｶﾞﾜ","pref":"新潟県","city":"糸魚川市","address":"大和川"},
{"zip_code":"9410072","kana_pref":"ﾆｲｶﾞﾀｹﾝ","kana_city":"ｲﾄｲｶﾞﾜｼ","kana_address":"ﾔﾏﾓﾄ","pref":"新潟県","city":"糸魚川市","address":"山本"},
{"zip_code":"9410067","kana_pref":"ﾆｲｶﾞﾀｹﾝ","kana_city":"ｲﾄｲｶﾞﾜｼ","kana_address":"ﾖｺﾏﾁ","pref":"新潟県","city":"糸魚川市","address":"横町"},
{"zip_code":"9410016","kana_pref":"ﾆｲｶﾞﾀｹﾝ","kana_city":"ｲﾄｲｶﾞﾜｼ","kana_address":"ﾖﾂﾔ","pref":"新潟県","city":"糸魚川市","address":"四ツ屋"},
{"zip_code":"9410055","kana_pref":"ﾆｲｶﾞﾀｹﾝ","kana_city":"ｲﾄｲｶﾞﾜｼ","kana_address":"ﾚﾝﾀﾞｲｼﾞ","pref":"新潟県","city":"糸魚川市","address":"蓮台寺"}]}