{"zip_code":[
{"zip_code":"9421543","kana_pref":"ﾆｲｶﾞﾀｹﾝ","kana_city":"ﾄｵｶﾏﾁｼ","kana_address":"ｱｲｻﾜ","pref":"新潟県","city":"十日町市","address":"会沢"},
{"zip_code":"9421531","kana_pref":"ﾆｲｶﾞﾀｹﾝ","kana_city":"ﾄｵｶﾏﾁｼ","kana_address":"ｱｻﾞﾐﾋﾗ","pref":"新潟県","city":"十日町市","address":"莇平"},
{"zip_code":"9421525","kana_pref":"ﾆｲｶﾞﾀｹﾝ","kana_city":"ﾄｵｶﾏﾁｼ","kana_address":"ｲｹｼﾞﾘ","pref":"新潟県","city":"十日町市","address":"池尻"},
{"zip_code":"9421515","kana_pref":"ﾆｲｶﾞﾀｹﾝ","kana_city":"ﾄｵｶﾏﾁｼ","kana_address":"ｲｹﾉﾊﾀ","pref":"新潟県","city":"十日町市","address":"池之畑"},
{"zip_code":"9421504","kana_pref":"ﾆｲｶﾞﾀｹﾝ","kana_city":"ﾄｵｶﾏﾁｼ","kana_address":"ｲﾇﾌﾞｼ","pref":"新潟県","city":"十日町市","address":"犬伏"},
{"zip_code":"9421342","kana_pref":"ﾆｲｶﾞﾀｹﾝ","kana_city":"ﾄｵｶﾏﾁｼ","kana_address":"ｳﾗﾀﾞ","pref":"新潟県","city":"十日町市","address":"浦田"},
{"zip_code":"9421505","kana_pref":"ﾆｲｶﾞﾀｹﾝ","kana_city":"ﾄｵｶﾏﾁｼ","kana_address":"ｵﾉｼﾏ","pref":"新潟県","city":"十日町市","address":"苧島"},
{"zip_code":"9421511","kana_pref":"ﾆｲｶﾞﾀｹﾝ","kana_city":"ﾄｵｶﾏﾁｼ","kana_address":"ｶｲﾛｳ","pref":"新潟県","city":"十日町市","address":"海老"},
{"zip_code":"9421502","kana_pref":"ﾆｲｶﾞﾀｹﾝ","kana_city":"ﾄｵｶﾏﾁｼ","kana_address":"ｶﾀｷﾞﾘﾔﾏ","pref":"新潟県","city":"十日町市","address":"片桐山"},
{"zip_code":"9421534","kana_pref":"ﾆｲｶﾞﾀｹﾝ","kana_city":"ﾄｵｶﾏﾁｼ","kana_address":"ｶﾓｳ","pref":"新潟県","city":"十日町市","address":"蒲生"},
{"zip_code":"9421536","kana_pref":"ﾆｲｶﾞﾀｹﾝ","kana_city":"ﾄｵｶﾏﾁｼ","kana_address":"ｷﾞﾐﾖｳ","pref":"新潟県","city":"十日町市","address":"儀明"},
{"zip_code":"9421541","kana_pref":"ﾆｲｶﾞﾀｹﾝ","kana_city":"ﾄｵｶﾏﾁｼ","kana_address":"ｷﾘﾔﾏ","pref":"新潟県","city":"十日町市","address":"桐山"},
{"zip_code":"9421352","kana_pref":"ﾆｲｶﾞﾀｹﾝ","kana_city":"ﾄｵｶﾏﾁｼ","kana_address":"ｷﾜﾀﾞﾊﾗ","pref":"新潟県","city":"十日町市","address":"木和田原"},
{"zip_code":"9421523","kana_pref":"ﾆｲｶﾞﾀｹﾝ","kana_city":"ﾄｵｶﾏﾁｼ","kana_address":"ｺｱﾗﾄ","pref":"新潟県","city":"十日町市","address":"小荒戸"},
{"zip_code":"9421538","kana_pref":"ﾆｲｶﾞﾀｹﾝ","kana_city":"ﾄｵｶﾏﾁｼ","kana_address":"ｺｲｹ","pref":"新潟県","city":"十日町市","address":"小池"},
{"zip_code":"9421514","kana_pref":"ﾆｲｶﾞﾀｹﾝ","kana_city":"ﾄｵｶﾏﾁｼ","kana_address":"ｺﾔﾏﾙ","pref":"新潟県","city":"十日町市","address":"小屋丸"},
{"zip_code":"9421542","kana_pref":"ﾆｲｶﾞﾀｹﾝ","kana_city":"ﾄｵｶﾏﾁｼ","kana_address":"ｼﾐｽﾞ","pref":"新潟県","city":"十日町市","address":"清水"},
{"zip_code":"9421521","kana_pref":"ﾆｲｶﾞﾀｹﾝ","kana_city":"ﾄｵｶﾏﾁｼ","kana_address":"ｽｶﾞｶﾘ","pref":"新潟県","city":"十日町市","address":"菅刈"},
{"zip_code":"9421532","kana_pref":"ﾆｲｶﾞﾀｹﾝ","kana_city":"ﾄｵｶﾏﾁｼ","kana_address":"ｾﾝﾉｳ","pref":"新潟県","city":"十日町市","address":"仙納"},
{"zip_code":"9421527","kana_pref":"ﾆｲｶﾞﾀｹﾝ","kana_city":"ﾄｵｶﾏﾁｼ","kana_address":"ﾀｲﾍｲ","pref":"新潟県","city":"十日町市","address":"太平"},
{"zip_code":"9421501","kana_pref":"ﾆｲｶﾞﾀｹﾝ","kana_city":"ﾄｵｶﾏﾁｼ","kana_address":"ﾀｷｻﾞﾜ","pref":"新潟県","city":"十日町市","address":"滝沢"},
{"zip_code":"9421356","kana_pref":"ﾆｲｶﾞﾀｹﾝ","kana_city":"ﾄｵｶﾏﾁｼ","kana_address":"ﾀｹﾄｺﾛ","pref":"新潟県","city":"十日町市","address":"竹所"},
{"zip_code":"9421533","kana_pref":"ﾆｲｶﾞﾀｹﾝ","kana_city":"ﾄｵｶﾏﾁｼ","kana_address":"ﾀﾉｸﾗ","pref":"新潟県","city":"十日町市","address":"田野倉"},
{"zip_code":"9421524","kana_pref":"ﾆｲｶﾞﾀｹﾝ","kana_city":"ﾄｵｶﾏﾁｼ","kana_address":"ﾁﾄｾ","pref":"新潟県","city":"十日町市","address":"千年"},
{"zip_code":"9421537","kana_pref":"ﾆｲｶﾞﾀｹﾝ","kana_city":"ﾄｵｶﾏﾁｼ","kana_address":"ﾃﾗﾀﾞ","pref":"新潟県","city":"十日町市","address":"寺田"},
{"zip_code":"9421351","kana_pref":"ﾆｲｶﾞﾀｹﾝ","kana_city":"ﾄｵｶﾏﾁｼ","kana_address":"ﾄｳｹﾞ","pref":"新潟県","city":"十日町市","address":"峠"},
{"zip_code":"9421506","kana_pref":"ﾆｲｶﾞﾀｹﾝ","kana_city":"ﾄｵｶﾏﾁｼ","kana_address":"ﾅｶｺﾞ","pref":"新潟県","city":"十日町市","address":"中子"},
{"zip_code":"9421535","kana_pref":"ﾆｲｶﾞﾀｹﾝ","kana_city":"ﾄｵｶﾏﾁｼ","kana_address":"ﾅﾋﾞﾛｳ","pref":"新潟県","city":"十日町市","address":"名平"},
{"zip_code":"9421355","kana_pref":"ﾆｲｶﾞﾀｹﾝ","kana_city":"ﾄｵｶﾏﾁｼ","kana_address":"ﾅﾗﾀﾞﾃ","pref":"新潟県","city":"十日町市","address":"奈良立"},
{"zip_code":"9421354","kana_pref":"ﾆｲｶﾞﾀｹﾝ","kana_city":"ﾄｵｶﾏﾁｼ","kana_address":"ﾌｸｼﾞﾏ","pref":"新潟県","city":"十日町市","address":"福島"},
{"zip_code":"9421526","kana_pref":"ﾆｲｶﾞﾀｹﾝ","kana_city":"ﾄｵｶﾏﾁｼ","kana_address":"ﾏﾂﾀﾞｲ","pref":"新潟県","city":"十日町市","address":"松代"},
{"zip_code":"9421513","kana_pref":"ﾆｲｶﾞﾀｹﾝ","kana_city":"ﾄｵｶﾏﾁｼ","kana_address":"ﾏﾂﾀﾞｲｼﾓﾔﾏ","pref":"新潟県","city":"十日町市","address":"松代下山"},
{"zip_code":"9421522","kana_pref":"ﾆｲｶﾞﾀｹﾝ","kana_city":"ﾄｵｶﾏﾁｼ","kana_address":"ﾏﾂﾀﾞｲﾀｻﾞﾜ","pref":"新潟県","city":"十日町市","address":"松代田沢"},
{"zip_code":"9421512","kana_pref":"ﾆｲｶﾞﾀｹﾝ","kana_city":"ﾄｵｶﾏﾁｼ","kana_address":"ﾏﾂﾀﾞｲﾋｶﾞｼﾔﾏ","pref":"新潟県","city":"十日町市","address":"松代東山"},
{"zip_code":"9421406","kana_pref":"ﾆｲｶﾞﾀｹﾝ","kana_city":"ﾄｵｶﾏﾁｼ","kana_address":"ﾏﾂﾉﾔﾏ","pref":"新潟県","city":"十日町市","address":"松之山"},
{"zip_code":"9421423","kana_pref":"ﾆｲｶﾞﾀｹﾝ","kana_city":"ﾄｵｶﾏﾁｼ","kana_address":"ﾏﾂﾉﾔﾏｱｶｸﾗ","pref":"新潟県","city":"十日町市","address":"松之山赤倉"},
{"zip_code":"9421435","kana_pref":"ﾆｲｶﾞﾀｹﾝ","kana_city":"ﾄｵｶﾏﾁｼ","kana_address":"ﾏﾂﾉﾔﾏｱﾏﾐｽﾞｺｼ","pref":"新潟県","city":"十日町市","address":"松之山天水越"},
{"zip_code":"9421434","kana_pref":"ﾆｲｶﾞﾀｹﾝ","kana_city":"ﾄｵｶﾏﾁｼ","kana_address":"ﾏﾂﾉﾔﾏｱﾏﾐｽﾞｼﾏ","pref":"新潟県","city":"十日町市","address":"松之山天水島"},
{"zip_code":"9421404","kana_pref":"ﾆｲｶﾞﾀｹﾝ","kana_city":"ﾄｵｶﾏﾁｼ","kana_address":"ﾏﾂﾉﾔﾏｱﾗﾔﾏ","pref":"新潟県","city":"十日町市","address":"松之山新山"},
{"zip_code":"9421421","kana_pref":"ﾆｲｶﾞﾀｹﾝ","kana_city":"ﾄｵｶﾏﾁｼ","kana_address":"ﾏﾂﾉﾔﾏｲｶﾞｺﾞﾀﾞｲﾗ","pref":"新潟県","city":"十日町市","address":"松之山五十子平"},
{"zip_code":"9421417","kana_pref":"ﾆｲｶﾞﾀｹﾝ","kana_city":"ﾄｵｶﾏﾁｼ","kana_address":"ﾏﾂﾉﾔﾏｲﾉﾐｮｳ","pref":"新潟県","city":"十日町市","address":"松之山猪之名"},
{"zip_code":"9421403","kana_pref":"ﾆｲｶﾞﾀｹﾝ","kana_city":"ﾄｵｶﾏﾁｼ","kana_address":"ﾏﾂﾉﾔﾏｵｵｱﾗﾄ","pref":"新潟県","city":"十日町市","address":"松之山大荒戸"},
{"zip_code":"9421426","kana_pref":"ﾆｲｶﾞﾀｹﾝ","kana_city":"ﾄｵｶﾏﾁｼ","kana_address":"ﾏﾂﾉﾔﾏｶﾐｴﾋﾞｲｹ","pref":"新潟県","city":"十日町市","address":"松之山上鰕池"},
{"zip_code":"9421415","kana_pref":"ﾆｲｶﾞﾀｹﾝ","kana_city":"ﾄｵｶﾏﾁｼ","kana_address":"ﾏﾂﾉﾔﾏｶﾝﾉﾝｼﾞ","pref":"新潟県","city":"十日町市","address":"松之山観音寺"},
{"zip_code":"9421341","kana_pref":"ﾆｲｶﾞﾀｹﾝ","kana_city":"ﾄｵｶﾏﾁｼ","kana_address":"ﾏﾂﾉﾔﾏｸﾛｸﾗ","pref":"新潟県","city":"十日町市","address":"松之山黒倉"},
{"zip_code":"9421402","kana_pref":"ﾆｲｶﾞﾀｹﾝ","kana_city":"ﾄｵｶﾏﾁｼ","kana_address":"ﾏﾂﾉﾔﾏｺﾀﾆ","pref":"新潟県","city":"十日町市","address":"松之山小谷"},
{"zip_code":"9421416","kana_pref":"ﾆｲｶﾞﾀｹﾝ","kana_city":"ﾄｵｶﾏﾁｼ","kana_address":"ﾏﾂﾉﾔﾏｻｶﾉｼﾀ","pref":"新潟県","city":"十日町市","address":"松之山坂下"},
{"zip_code":"9421413","kana_pref":"ﾆｲｶﾞﾀｹﾝ","kana_city":"ﾄｵｶﾏﾁｼ","kana_address":"ﾏﾂﾉﾔﾏｻﾜｸﾞﾁ","pref":"新潟県","city":"十日町市","address":"松之山沢口"},
{"zip_code":"9421425","kana_pref":"ﾆｲｶﾞﾀｹﾝ","kana_city":"ﾄｵｶﾏﾁｼ","kana_address":"ﾏﾂﾉﾔﾏｼﾓｴﾋﾞｲｹ","pref":"新潟県","city":"十日町市","address":"松之山下鰕池"},
{"zip_code":"9421422","kana_pref":"ﾆｲｶﾞﾀｹﾝ","kana_city":"ﾄｵｶﾏﾁｼ","kana_address":"ﾏﾂﾉﾔﾏﾂﾎﾞﾉ","pref":"新潟県","city":"十日町市","address":"松之山坪野"},
{"zip_code":"9421418","kana_pref":"ﾆｲｶﾞﾀｹﾝ","kana_city":"ﾄｵｶﾏﾁｼ","kana_address":"ﾏﾂﾉﾔﾏﾄﾅｲﾐｮｳ","pref":"新潟県","city":"十日町市","address":"松之山藤内名"},
{"zip_code":"9421428","kana_pref":"ﾆｲｶﾞﾀｹﾝ","kana_city":"ﾄｵｶﾏﾁｼ","kana_address":"ﾏﾂﾉﾔﾏﾅｶｵ","pref":"新潟県","city":"十日町市","address":"松之山中尾"},
{"zip_code":"9421419","kana_pref":"ﾆｲｶﾞﾀｹﾝ","kana_city":"ﾄｵｶﾏﾁｼ","kana_address":"ﾏﾂﾉﾔﾏﾊｼﾂﾞﾒ","pref":"新潟県","city":"十日町市","address":"松之山橋詰"},
{"zip_code":"9421427","kana_pref":"ﾆｲｶﾞﾀｹﾝ","kana_city":"ﾄｵｶﾏﾁｼ","kana_address":"ﾏﾂﾉﾔﾏﾋｶﾞｼｶﾜ","pref":"新潟県","city":"十日町市","address":"松之山東川"},
{"zip_code":"9421424","kana_pref":"ﾆｲｶﾞﾀｹﾝ","kana_city":"ﾄｵｶﾏﾁｼ","kana_address":"ﾏﾂﾉﾔﾏﾋｶﾞｼﾔﾏ","pref":"新潟県","city":"十日町市","address":"松之山東山"},
{"zip_code":"9421405","kana_pref":"ﾆｲｶﾞﾀｹﾝ","kana_city":"ﾄｵｶﾏﾁｼ","kana_address":"ﾏﾂﾉﾔﾏﾋｶﾙﾏ","pref":"新潟県","city":"十日町市","address":"松之山光間"},
{"zip_code":"9421429","kana_pref":"ﾆｲｶﾞﾀｹﾝ","kana_city":"ﾄｵｶﾏﾁｼ","kana_address":"ﾏﾂﾉﾔﾏﾌｼﾞｸﾗ","pref":"新潟県","city":"十日町市","address":"松之山藤倉"},
{"zip_code":"9421414","kana_pref":"ﾆｲｶﾞﾀｹﾝ","kana_city":"ﾄｵｶﾏﾁｼ","kana_address":"ﾏﾂﾉﾔﾏﾌﾙﾄ","pref":"新潟県","city":"十日町市","address":"松之山古戸"},
{"zip_code":"9421411","kana_pref":"ﾆｲｶﾞﾀｹﾝ","kana_city":"ﾄｵｶﾏﾁｼ","kana_address":"ﾏﾂﾉﾔﾏﾏﾂｸﾞﾁ","pref":"新潟県","city":"十日町市","address":"松之山松口"},
{"zip_code":"9421412","kana_pref":"ﾆｲｶﾞﾀｹﾝ","kana_city":"ﾄｵｶﾏﾁｼ","kana_address":"ﾏﾂﾉﾔﾏﾐｵｹ","pref":"新潟県","city":"十日町市","address":"松之山三桶"},
{"zip_code":"9421401","kana_pref":"ﾆｲｶﾞﾀｹﾝ","kana_city":"ﾄｵｶﾏﾁｼ","kana_address":"ﾏﾂﾉﾔﾏﾐｽﾞﾅｼ","pref":"新潟県","city":"十日町市","address":"松之山水梨"},
{"zip_code":"9421432","kana_pref":"ﾆｲｶﾞﾀｹﾝ","kana_city":"ﾄｵｶﾏﾁｼ","kana_address":"ﾏﾂﾉﾔﾏﾕﾓﾄ","pref":"新潟県","city":"十日町市","address":"松之山湯本"},
{"zip_code":"9421431","kana_pref":"ﾆｲｶﾞﾀｹﾝ","kana_city":"ﾄｵｶﾏﾁｼ","kana_address":"ﾏﾂﾉﾔﾏﾕﾔﾏ","pref":"新潟県","city":"十日町市","address":"松之山湯山"},
{"zip_code":"9421353","kana_pref":"ﾆｲｶﾞﾀｹﾝ","kana_city":"ﾄｵｶﾏﾁｼ","kana_address":"ﾑﾛﾉ","pref":"新潟県","city":"十日町市","address":"室野"},
{"zip_code":"9421503","kana_pref":"ﾆｲｶﾞﾀｹﾝ","kana_city":"ﾄｵｶﾏﾁｼ","kana_address":"ﾓｳﾁ","pref":"新潟県","city":"十日町市","address":"孟地"},
{"zip_code":"9421544","kana_pref":"ﾆｲｶﾞﾀｹﾝ","kana_city":"ﾄｵｶﾏﾁｼ","kana_address":"ﾖﾓｷﾞﾋﾗ","pref":"新潟県","city":"十日町市","address":"蓬平"},
{"zip_code":"9420238","kana_pref":"ﾆｲｶﾞﾀｹﾝ","kana_city":"ｼﾞｮｳｴﾂｼ","kana_address":"ｱｵﾉ","pref":"新潟県","city":"上越市","address":"青野"},
{"zip_code":"9420003","kana_pref":"ﾆｲｶﾞﾀｹﾝ","kana_city":"ｼﾞｮｳｴﾂｼ","kana_address":"ｱｽﾞﾏﾁｮｳ","pref":"新潟県","city":"上越市","address":"東町"},
{"zip_code":"9420039","kana_pref":"ﾆｲｶﾞﾀｹﾝ","kana_city":"ｼﾞｮｳｴﾂｼ","kana_address":"ｲｲﾂﾞｶ","pref":"新潟県","city":"上越市","address":"飯塚"},
{"zip_code":"9420242","kana_pref":"ﾆｲｶﾞﾀｹﾝ","kana_city":"ｼﾞｮｳｴﾂｼ","kana_address":"ｲｼｶﾜ","pref":"新潟県","city":"上越市","address":"石川"},
{"zip_code":"9420074","kana_pref":"ﾆｲｶﾞﾀｹﾝ","kana_city":"ｼﾞｮｳｴﾂｼ","kana_address":"ｲｼﾊﾞｼ","pref":"新潟県","city":"上越市","address":"石橋"},
{"zip_code":"9420023","kana_pref":"ﾆｲｶﾞﾀｹﾝ","kana_city":"ｼﾞｮｳｴﾂｼ","kana_address":"ｲｼﾊﾞｼｼﾝﾃﾞﾝ","pref":"新潟県","city":"上越市","address":"石橋新田"},
{"zip_code":"9420306","kana_pref":"ﾆｲｶﾞﾀｹﾝ","kana_city":"ｼﾞｮｳｴﾂｼ","kana_address":"ｳﾗｶﾞﾜﾗｸｱﾘｼﾏ","pref":"新潟県","city":"上越市","address":"浦川原区有島"},
{"zip_code":"9420336","kana_pref":"ﾆｲｶﾞﾀｹﾝ","kana_city":"ｼﾞｮｳｴﾂｼ","kana_address":"ｳﾗｶﾞﾜﾗｸｲｲﾑﾛ","pref":"新潟県","city":"上越市","address":"浦川原区飯室"},
{"zip_code":"9420335","kana_pref":"ﾆｲｶﾞﾀｹﾝ","kana_city":"ｼﾞｮｳｴﾂｼ","kana_address":"ｳﾗｶﾞﾜﾗｸｲﾏｸﾞﾏ","pref":"新潟県","city":"上越市","address":"浦川原区今熊"},
{"zip_code":"9420332","kana_pref":"ﾆｲｶﾞﾀｹﾝ","kana_city":"ｼﾞｮｳｴﾂｼ","kana_address":"ｳﾗｶﾞﾜﾗｸｲﾜﾑﾛ","pref":"新潟県","city":"上越市","address":"浦川原区岩室"},
{"zip_code":"9420338","kana_pref":"ﾆｲｶﾞﾀｹﾝ","kana_city":"ｼﾞｮｳｴﾂｼ","kana_address":"ｳﾗｶﾞﾜﾗｸｲﾝﾅｲ","pref":"新潟県","city":"上越市","address":"浦川原区印内"},
{"zip_code":"9420312","kana_pref":"ﾆｲｶﾞﾀｹﾝ","kana_city":"ｼﾞｮｳｴﾂｼ","kana_address":"ｳﾗｶﾞﾜﾗｸｵｵﾄﾁﾔﾏ","pref":"新潟県","city":"上越市","address":"浦川原区大栃山"},
{"zip_code":"9420307","kana_pref":"ﾆｲｶﾞﾀｹﾝ","kana_city":"ｼﾞｮｳｴﾂｼ","kana_address":"ｳﾗｶﾞﾜﾗｸｶﾏﾌﾞﾁ","pref":"新潟県","city":"上越市","address":"浦川原区釜淵"},
{"zip_code":"9420301","kana_pref":"ﾆｲｶﾞﾀｹﾝ","kana_city":"ｼﾞｮｳｴﾂｼ","kana_address":"ｳﾗｶﾞﾜﾗｸｶﾐｲﾉｺﾀﾞ","pref":"新潟県","city":"上越市","address":"浦川原区上猪子田"},
{"zip_code":"9420318","kana_pref":"ﾆｲｶﾞﾀｹﾝ","kana_city":"ｼﾞｮｳｴﾂｼ","kana_address":"ｳﾗｶﾞﾜﾗｸｶﾐｵｶ","pref":"新潟県","city":"上越市","address":"浦川原区上岡"},
{"zip_code":"9420311","kana_pref":"ﾆｲｶﾞﾀｹﾝ","kana_city":"ｼﾞｮｳｴﾂｼ","kana_address":"ｳﾗｶﾞﾜﾗｸｶﾐｶﾞｷﾉ","pref":"新潟県","city":"上越市","address":"浦川原区上柿野"},
{"zip_code":"9420321","kana_pref":"ﾆｲｶﾞﾀｹﾝ","kana_city":"ｼﾞｮｳｴﾂｼ","kana_address":"ｳﾗｶﾞﾜﾗｸｸﾏｻﾞﾜ","pref":"新潟県","city":"上越市","address":"浦川原区熊沢"},
{"zip_code":"9420314","kana_pref":"ﾆｲｶﾞﾀｹﾝ","kana_city":"ｼﾞｮｳｴﾂｼ","kana_address":"ｳﾗｶﾞﾜﾗｸｹﾝｼｮｳｼﾞ","pref":"新潟県","city":"上越市","address":"浦川原区顕聖寺"},
{"zip_code":"9420308","kana_pref":"ﾆｲｶﾞﾀｹﾝ","kana_city":"ｼﾞｮｳｴﾂｼ","kana_address":"ｳﾗｶﾞﾜﾗｸｺｶﾞﾓﾀﾞ","pref":"新潟県","city":"上越市","address":"浦川原区小蒲生田"},
{"zip_code":"9420302","kana_pref":"ﾆｲｶﾞﾀｹﾝ","kana_city":"ｼﾞｮｳｴﾂｼ","kana_address":"ｳﾗｶﾞﾜﾗｸｺﾔｼﾞﾏ","pref":"新潟県","city":"上越市","address":"浦川原区小谷島"},
{"zip_code":"9420333","kana_pref":"ﾆｲｶﾞﾀｹﾝ","kana_city":"ｼﾞｮｳｴﾂｼ","kana_address":"ｳﾗｶﾞﾜﾗｸｻｸﾗｼﾏ","pref":"新潟県","city":"上越市","address":"浦川原区桜島"},
{"zip_code":"9420303","kana_pref":"ﾆｲｶﾞﾀｹﾝ","kana_city":"ｼﾞｮｳｴﾂｼ","kana_address":"ｳﾗｶﾞﾜﾗｸｼﾓｲﾉｺﾀﾞ","pref":"新潟県","city":"上越市","address":"浦川原区下猪子田"},
{"zip_code":"9420313","kana_pref":"ﾆｲｶﾞﾀｹﾝ","kana_city":"ｼﾞｮｳｴﾂｼ","kana_address":"ｳﾗｶﾞﾜﾗｸｼﾓｶﾞｷﾉ","pref":"新潟県","city":"上越市","address":"浦川原区下柿野"},
{"zip_code":"9420323","kana_pref":"ﾆｲｶﾞﾀｹﾝ","kana_city":"ｼﾞｮｳｴﾂｼ","kana_address":"ｳﾗｶﾞﾜﾗｸｼﾝｺｳｼﾞ","pref":"新潟県","city":"上越市","address":"浦川原区真光寺"},
{"zip_code":"9420317","kana_pref":"ﾆｲｶﾞﾀｹﾝ","kana_city":"ｼﾞｮｳｴﾂｼ","kana_address":"ｳﾗｶﾞﾜﾗｸｽｷﾞﾂﾎﾞ","pref":"新潟県","city":"上越市","address":"浦川原区杉坪"},
{"zip_code":"9420324","kana_pref":"ﾆｲｶﾞﾀｹﾝ","kana_city":"ｼﾞｮｳｴﾂｼ","kana_address":"ｳﾗｶﾞﾜﾗｸﾀﾆ","pref":"新潟県","city":"上越市","address":"浦川原区谷"},
{"zip_code":"9420325","kana_pref":"ﾆｲｶﾞﾀｹﾝ","kana_city":"ｼﾞｮｳｴﾂｼ","kana_address":"ｳﾗｶﾞﾜﾗｸﾂﾎﾞﾉ","pref":"新潟県","city":"上越市","address":"浦川原区坪野"},
{"zip_code":"9420304","kana_pref":"ﾆｲｶﾞﾀｹﾝ","kana_city":"ｼﾞｮｳｴﾂｼ","kana_address":"ｳﾗｶﾞﾜﾗｸﾅｶｲﾉｺﾀﾞ","pref":"新潟県","city":"上越市","address":"浦川原区中猪子田"},
{"zip_code":"9420331","kana_pref":"ﾆｲｶﾞﾀｹﾝ","kana_city":"ｼﾞｮｳｴﾂｼ","kana_address":"ｳﾗｶﾞﾜﾗｸﾅｶﾞﾊｼﾘ","pref":"新潟県","city":"上越市","address":"浦川原区長走"},
{"zip_code":"9420319","kana_pref":"ﾆｲｶﾞﾀｹﾝ","kana_city":"ｼﾞｮｳｴﾂｼ","kana_address":"ｳﾗｶﾞﾜﾗｸﾋｶﾞｼﾏﾀ","pref":"新潟県","city":"上越市","address":"浦川原区東俣"},
{"zip_code":"9420327","kana_pref":"ﾆｲｶﾞﾀｹﾝ","kana_city":"ｼﾞｮｳｴﾂｼ","kana_address":"ｳﾗｶﾞﾜﾗｸﾋｼﾀﾞ","pref":"新潟県","city":"上越市","address":"浦川原区菱田"},
{"zip_code":"9420339","kana_pref":"ﾆｲｶﾞﾀｹﾝ","kana_city":"ｼﾞｮｳｴﾂｼ","kana_address":"ｳﾗｶﾞﾜﾗｸﾋﾅﾀ","pref":"新潟県","city":"上越市","address":"浦川原区日向"},
{"zip_code":"9420326","kana_pref":"ﾆｲｶﾞﾀｹﾝ","kana_city":"ｼﾞｮｳｴﾂｼ","kana_address":"ｳﾗｶﾞﾜﾗｸﾎｳｼﾞｮｳｼﾞ","pref":"新潟県","city":"上越市","address":"浦川原区法定寺"},
{"zip_code":"9420316","kana_pref":"ﾆｲｶﾞﾀｹﾝ","kana_city":"ｼﾞｮｳｴﾂｼ","kana_address":"ｳﾗｶﾞﾜﾗｸﾑｲｶﾏﾁ","pref":"新潟県","city":"上越市","address":"浦川原区六日町"},
{"zip_code":"9420305","kana_pref":"ﾆｲｶﾞﾀｹﾝ","kana_city":"ｼﾞｮｳｴﾂｼ","kana_address":"ｳﾗｶﾞﾜﾗｸﾑｼｶﾞﾜ","pref":"新潟県","city":"上越市","address":"浦川原区虫川"},
{"zip_code":"9420337","kana_pref":"ﾆｲｶﾞﾀｹﾝ","kana_city":"ｼﾞｮｳｴﾂｼ","kana_address":"ｳﾗｶﾞﾜﾗｸﾔﾏｲﾝﾅｲ","pref":"新潟県","city":"上越市","address":"浦川原区山印内"},
{"zip_code":"9420334","kana_pref":"ﾆｲｶﾞﾀｹﾝ","kana_city":"ｼﾞｮｳｴﾂｼ","kana_address":"ｳﾗｶﾞﾜﾗｸﾔﾏﾓﾄ","pref":"新潟県","city":"上越市","address":"浦川原区山本"},
{"zip_code":"9420315","kana_pref":"ﾆｲｶﾞﾀｹﾝ","kana_city":"ｼﾞｮｳｴﾂｼ","kana_address":"ｳﾗｶﾞﾜﾗｸﾖｺｶﾜ","pref":"新潟県","city":"上越市","address":"浦川原区横川"},
{"zip_code":"9420322","kana_pref":"ﾆｲｶﾞﾀｹﾝ","kana_city":"ｼﾞｮｳｴﾂｼ","kana_address":"ｳﾗｶﾞﾜﾗｸﾖｺｽﾞﾐ","pref":"新潟県","city":"上越市","address":"浦川原区横住"},
{"zip_code":"9420025","kana_pref":"ﾆｲｶﾞﾀｹﾝ","kana_city":"ｼﾞｮｳｴﾂｼ","kana_address":"ｴﾋﾞｽﾊﾏ","pref":"新潟県","city":"上越市","address":"夷浜"},
{"zip_code":"9420181","kana_pref":"ﾆｲｶﾞﾀｹﾝ","kana_city":"ｼﾞｮｳｴﾂｼ","kana_address":"ｵｵｶﾞﾀｸｶﾀﾓﾘｼﾝﾃﾞﾝ","pref":"新潟県","city":"上越市","address":"大潟区潟守新田"},
{"zip_code":"9421107","kana_pref":"ﾆｲｶﾞﾀｹﾝ","kana_city":"ｼﾞｮｳｴﾂｼ","kana_address":"ｵｵｼﾏｸｲﾀﾔﾏ","pref":"新潟県","city":"上越市","address":"大島区板山"},
{"zip_code":"9421215","kana_pref":"ﾆｲｶﾞﾀｹﾝ","kana_city":"ｼﾞｮｳｴﾂｼ","kana_address":"ｵｵｼﾏｸｳｼｶﾞﾊﾅ","pref":"新潟県","city":"上越市","address":"大島区牛ケ鼻"},
{"zip_code":"9421211","kana_pref":"ﾆｲｶﾞﾀｹﾝ","kana_city":"ｼﾞｮｳｴﾂｼ","kana_address":"ｵｵｼﾏｸｵｵｼﾏ","pref":"新潟県","city":"上越市","address":"大島区大島"},
{"zip_code":"9421103","kana_pref":"ﾆｲｶﾞﾀｹﾝ","kana_city":"ｼﾞｮｳｴﾂｼ","kana_address":"ｵｵｼﾏｸｵｵﾀﾞｲﾗ","pref":"新潟県","city":"上越市","address":"大島区大平"},
{"zip_code":"9421106","kana_pref":"ﾆｲｶﾞﾀｹﾝ","kana_city":"ｼﾞｮｳｴﾂｼ","kana_address":"ｵｵｼﾏｸｵｶ","pref":"新潟県","city":"上越市","address":"大島区岡"},
{"zip_code":"9421105","kana_pref":"ﾆｲｶﾞﾀｹﾝ","kana_city":"ｼﾞｮｳｴﾂｼ","kana_address":"ｵｵｼﾏｸｶﾐﾀﾃ","pref":"新潟県","city":"上越市","address":"大島区上達"},
{"zip_code":"9421104","kana_pref":"ﾆｲｶﾞﾀｹﾝ","kana_city":"ｼﾞｮｳｴﾂｼ","kana_address":"ｵｵｼﾏｸｼﾓﾀﾃ","pref":"新潟県","city":"上越市","address":"大島区下達"},
{"zip_code":"9421216","kana_pref":"ﾆｲｶﾞﾀｹﾝ","kana_city":"ｼﾞｮｳｴﾂｼ","kana_address":"ｵｵｼﾏｸｼｮｳﾌﾞ","pref":"新潟県","city":"上越市","address":"大島区菖蒲"},
{"zip_code":"9421213","kana_pref":"ﾆｲｶﾞﾀｹﾝ","kana_city":"ｼﾞｮｳｴﾂｼ","kana_address":"ｵｵｼﾏｸﾀﾅｵｶ","pref":"新潟県","city":"上越市","address":"大島区棚岡"},
{"zip_code":"9421102","kana_pref":"ﾆｲｶﾞﾀｹﾝ","kana_city":"ｼﾞｮｳｴﾂｼ","kana_address":"ｵｵｼﾏｸﾀﾑｷﾞ","pref":"新潟県","city":"上越市","address":"大島区田麦"},
{"zip_code":"9421212","kana_pref":"ﾆｲｶﾞﾀｹﾝ","kana_city":"ｼﾞｮｳｴﾂｼ","kana_address":"ｵｵｼﾏｸﾅｶﾉ","pref":"新潟県","city":"上越市","address":"大島区中野"},
{"zip_code":"9421214","kana_pref":"ﾆｲｶﾞﾀｹﾝ","kana_city":"ｼﾞｮｳｴﾂｼ","kana_address":"ｵｵｼﾏｸﾆｶﾞﾐ","pref":"新潟県","city":"上越市","address":"大島区仁上"},
{"zip_code":"9421101","kana_pref":"ﾆｲｶﾞﾀｹﾝ","kana_city":"ｼﾞｮｳｴﾂｼ","kana_address":"ｵｵｼﾏｸﾐﾈ","pref":"新潟県","city":"上越市","address":"大島区嶺"},
{"zip_code":"9420089","kana_pref":"ﾆｲｶﾞﾀｹﾝ","kana_city":"ｼﾞｮｳｴﾂｼ","kana_address":"ｵｵﾊﾞ","pref":"新潟県","city":"上越市","address":"大場"},
{"zip_code":"9420233","kana_pref":"ﾆｲｶﾞﾀｹﾝ","kana_city":"ｼﾞｮｳｴﾂｼ","kana_address":"ｵｶｻﾞｷｼﾝﾃﾞﾝ","pref":"新潟県","city":"上越市","address":"岡崎新田"},
{"zip_code":"9420086","kana_pref":"ﾆｲｶﾞﾀｹﾝ","kana_city":"ｼﾞｮｳｴﾂｼ","kana_address":"ｶｶﾞﾁｮｳ","pref":"新潟県","city":"上越市","address":"加賀町"},
{"zip_code":"9420061","kana_pref":"ﾆｲｶﾞﾀｹﾝ","kana_city":"ｼﾞｮｳｴﾂｼ","kana_address":"ｶｽｶﾞｼﾝﾃﾞﾝ","pref":"新潟県","city":"上越市","address":"春日新田"},
{"zip_code":"9420021","kana_pref":"ﾆｲｶﾞﾀｹﾝ","kana_city":"ｼﾞｮｳｴﾂｼ","kana_address":"ｶﾐｱﾗﾊﾏ","pref":"新潟県","city":"上越市","address":"上荒浜"},
{"zip_code":"9420052","kana_pref":"ﾆｲｶﾞﾀｹﾝ","kana_city":"ｼﾞｮｳｴﾂｼ","kana_address":"ｶﾐｹﾞﾝﾆｭｳ","pref":"新潟県","city":"上越市","address":"上源入"},
{"zip_code":"9420254","kana_pref":"ﾆｲｶﾞﾀｹﾝ","kana_city":"ｼﾞｮｳｴﾂｼ","kana_address":"ｶﾐｺﾞｶﾝﾉ","pref":"新潟県","city":"上越市","address":"上五貫野"},
{"zip_code":"9420035","kana_pref":"ﾆｲｶﾞﾀｹﾝ","kana_city":"ｼﾞｮｳｴﾂｼ","kana_address":"ｶﾐﾁﾊﾗ","pref":"新潟県","city":"上越市","address":"上千原"},
{"zip_code":"9420252","kana_pref":"ﾆｲｶﾞﾀｹﾝ","kana_city":"ｼﾞｮｳｴﾂｼ","kana_address":"ｶﾐﾅｶﾞﾗ","pref":"新潟県","city":"上越市","address":"上名柄"},
{"zip_code":"9420241","kana_pref":"ﾆｲｶﾞﾀｹﾝ","kana_city":"ｼﾞｮｳｴﾂｼ","kana_address":"ｶﾐﾖｼﾉ","pref":"新潟県","city":"上越市","address":"上吉野"},
{"zip_code":"9420038","kana_pref":"ﾆｲｶﾞﾀｹﾝ","kana_city":"ｼﾞｮｳｴﾂｼ","kana_address":"ｶﾜﾊﾞﾀ","pref":"新潟県","city":"上越市","address":"川端"},
{"zip_code":"9420065","kana_pref":"ﾆｲｶﾞﾀｹﾝ","kana_city":"ｼﾞｮｳｴﾂｼ","kana_address":"ｶﾜﾗﾏﾁ","pref":"新潟県","city":"上越市","address":"川原町"},
{"zip_code":"9420165","kana_pref":"ﾆｲｶﾞﾀｹﾝ","kana_city":"ｼﾞｮｳｴﾂｼ","kana_address":"ｸﾋﾞｷｸｱｵﾉ","pref":"新潟県","city":"上越市","address":"頸城区青野"},
{"zip_code":"9420225","kana_pref":"ﾆｲｶﾞﾀｹﾝ","kana_city":"ｼﾞｮｳｴﾂｼ","kana_address":"ｸﾋﾞｷｸｱﾏｶﾞｻｷ","pref":"新潟県","city":"上越市","address":"頸城区天ケ崎"},
{"zip_code":"9420125","kana_pref":"ﾆｲｶﾞﾀｹﾝ","kana_city":"ｼﾞｮｳｴﾂｼ","kana_address":"ｸﾋﾞｷｸｲｲﾀﾞ","pref":"新潟県","city":"上越市","address":"頸城区飯田"},
{"zip_code":"9420135","kana_pref":"ﾆｲｶﾞﾀｹﾝ","kana_city":"ｼﾞｮｳｴﾂｼ","kana_address":"ｸﾋﾞｷｸｲｶﾞﾗｼ","pref":"新潟県","city":"上越市","address":"頸城区五十嵐"},
{"zip_code":"9420221","kana_pref":"ﾆｲｶﾞﾀｹﾝ","kana_city":"ｼﾞｮｳｴﾂｼ","kana_address":"ｸﾋﾞｷｸｲｼｶﾞﾐ","pref":"新潟県","city":"上越市","address":"頸城区石神"},
{"zip_code":"9420141","kana_pref":"ﾆｲｶﾞﾀｹﾝ","kana_city":"ｼﾞｮｳｴﾂｼ","kana_address":"ｸﾋﾞｷｸｲﾁﾑﾗ","pref":"新潟県","city":"上越市","address":"頸城区市村"},
{"zip_code":"9420152","kana_pref":"ﾆｲｶﾞﾀｹﾝ","kana_city":"ｼﾞｮｳｴﾂｼ","kana_address":"ｸﾋﾞｷｸｳｷｼﾏ","pref":"新潟県","city":"上越市","address":"頸城区浮島"},
{"zip_code":"9420139","kana_pref":"ﾆｲｶﾞﾀｹﾝ","kana_city":"ｼﾞｮｳｴﾂｼ","kana_address":"ｸﾋﾞｷｸｳﾂｸｼｶﾞｵｶ","pref":"新潟県","city":"上越市","address":"頸城区美しが丘"},
{"zip_code":"9420121","kana_pref":"ﾆｲｶﾞﾀｹﾝ","kana_city":"ｼﾞｮｳｴﾂｼ","kana_address":"ｸﾋﾞｷｸｳﾉｷ","pref":"新潟県","city":"上越市","address":"頸城区鵜ノ木"},
{"zip_code":"9420154","kana_pref":"ﾆｲｶﾞﾀｹﾝ","kana_city":"ｼﾞｮｳｴﾂｼ","kana_address":"ｸﾋﾞｷｸｴﾉｲ","pref":"新潟県","city":"上越市","address":"頸城区榎井"},
{"zip_code":"9420201","kana_pref":"ﾆｲｶﾞﾀｹﾝ","kana_city":"ｼﾞｮｳｴﾂｼ","kana_address":"ｸﾋﾞｷｸｵｵｶﾞﾀ","pref":"新潟県","city":"上越市","address":"頸城区大潟"},
{"zip_code":"9420214","kana_pref":"ﾆｲｶﾞﾀｹﾝ","kana_city":"ｼﾞｮｳｴﾂｼ","kana_address":"ｸﾋﾞｷｸｵｵｶﾓﾀﾞ","pref":"新潟県","city":"上越市","address":"頸城区大蒲生田"},
{"zip_code":"9420116","kana_pref":"ﾆｲｶﾞﾀｹﾝ","kana_city":"ｼﾞｮｳｴﾂｼ","kana_address":"ｸﾋﾞｷｸｵｵｻｶｲ","pref":"新潟県","city":"上越市","address":"頸城区大坂井"},
{"zip_code":"9420163","kana_pref":"ﾆｲｶﾞﾀｹﾝ","kana_city":"ｼﾞｮｳｴﾂｼ","kana_address":"ｸﾋﾞｷｸｵｵﾔﾁ","pref":"新潟県","city":"上越市","address":"頸城区大谷内"},
{"zip_code":"9420102","kana_pref":"ﾆｲｶﾞﾀｹﾝ","kana_city":"ｼﾞｮｳｴﾂｼ","kana_address":"ｸﾋﾞｷｸｵｶﾀﾞ","pref":"新潟県","city":"上越市","address":"頸城区岡田"},
{"zip_code":"9420114","kana_pref":"ﾆｲｶﾞﾀｹﾝ","kana_city":"ｼﾞｮｳｴﾂｼ","kana_address":"ｸﾋﾞｷｸｶｷﾉ","pref":"新潟県","city":"上越市","address":"頸城区柿野"},
{"zip_code":"9420164","kana_pref":"ﾆｲｶﾞﾀｹﾝ","kana_city":"ｼﾞｮｳｴﾂｼ","kana_address":"ｸﾋﾞｷｸｶﾀｸﾞﾁ","pref":"新潟県","city":"上越市","address":"頸城区潟口"},
{"zip_code":"9420111","kana_pref":"ﾆｲｶﾞﾀｹﾝ","kana_city":"ｼﾞｮｳｴﾂｼ","kana_address":"ｸﾋﾞｷｸｶﾀﾂﾞ","pref":"新潟県","city":"上越市","address":"頸城区片津"},
{"zip_code":"9420202","kana_pref":"ﾆｲｶﾞﾀｹﾝ","kana_city":"ｼﾞｮｳｴﾂｼ","kana_address":"ｸﾋﾞｷｸｶﾐｲｹﾀﾞ","pref":"新潟県","city":"上越市","address":"頸城区上池田"},
{"zip_code":"9420133","kana_pref":"ﾆｲｶﾞﾀｹﾝ","kana_city":"ｼﾞｮｳｴﾂｼ","kana_address":"ｸﾋﾞｷｸｶﾐｶﾅﾊﾗ","pref":"新潟県","city":"上越市","address":"頸城区上神原"},
{"zip_code":"9420142","kana_pref":"ﾆｲｶﾞﾀｹﾝ","kana_city":"ｼﾞｮｳｴﾂｼ","kana_address":"ｸﾋﾞｷｸｶﾐｻﾝﾌﾞｲﾁ","pref":"新潟県","city":"上越市","address":"頸城区上三分一"},
{"zip_code":"9420203","kana_pref":"ﾆｲｶﾞﾀｹﾝ","kana_city":"ｼﾞｮｳｴﾂｼ","kana_address":"ｸﾋﾞｷｸｶﾐﾏｽﾀﾞ","pref":"新潟県","city":"上越市","address":"頸城区上増田"},
{"zip_code":"9420106","kana_pref":"ﾆｲｶﾞﾀｹﾝ","kana_city":"ｼﾞｮｳｴﾂｼ","kana_address":"ｸﾋﾞｷｸｶﾐﾔﾅｷﾞﾏﾁ","pref":"新潟県","city":"上越市","address":"頸城区上柳町"},
{"zip_code":"9420145","kana_pref":"ﾆｲｶﾞﾀｹﾝ","kana_city":"ｼﾞｮｳｴﾂｼ","kana_address":"ｸﾋﾞｷｸｶﾐﾖｼ","pref":"新潟県","city":"上越市","address":"頸城区上吉"},
{"zip_code":"9420122","kana_pref":"ﾆｲｶﾞﾀｹﾝ","kana_city":"ｼﾞｮｳｴﾂｼ","kana_address":"ｸﾋﾞｷｸｶﾜﾌﾞｸﾛ","pref":"新潟県","city":"上越市","address":"頸城区川袋"},
{"zip_code":"9420171","kana_pref":"ﾆｲｶﾞﾀｹﾝ","kana_city":"ｼﾞｮｳｴﾂｼ","kana_address":"ｸﾋﾞｷｸｷﾀｶﾀ","pref":"新潟県","city":"上越市","address":"頸城区北方"},
{"zip_code":"9420132","kana_pref":"ﾆｲｶﾞﾀｹﾝ","kana_city":"ｼﾞｮｳｴﾂｼ","kana_address":"ｸﾋﾞｷｸｷﾀﾌｸｻﾞｷ","pref":"新潟県","city":"上越市","address":"頸城区北福崎"},
{"zip_code":"9420151","kana_pref":"ﾆｲｶﾞﾀｹﾝ","kana_city":"ｼﾞｮｳｴﾂｼ","kana_address":"ｸﾋﾞｷｸｷﾀﾖﾂﾔ","pref":"新潟県","city":"上越市","address":"頸城区北四ツ屋"},
{"zip_code":"9420215","kana_pref":"ﾆｲｶﾞﾀｹﾝ","kana_city":"ｼﾞｮｳｴﾂｼ","kana_address":"ｸﾋﾞｷｸｹﾞﾝｿﾞｳ","pref":"新潟県","city":"上越市","address":"頸城区玄僧"},
{"zip_code":"9420136","kana_pref":"ﾆｲｶﾞﾀｹﾝ","kana_city":"ｼﾞｮｳｴﾂｼ","kana_address":"ｸﾋﾞｷｸｼﾏﾀﾞ","pref":"新潟県","city":"上越市","address":"頸城区島田"},
{"zip_code":"9420104","kana_pref":"ﾆｲｶﾞﾀｹﾝ","kana_city":"ｼﾞｮｳｴﾂｼ","kana_address":"ｸﾋﾞｷｸｼﾓｲｹﾀﾞ","pref":"新潟県","city":"上越市","address":"頸城区下池田"},
{"zip_code":"9420134","kana_pref":"ﾆｲｶﾞﾀｹﾝ","kana_city":"ｼﾞｮｳｴﾂｼ","kana_address":"ｸﾋﾞｷｸｼﾓｶﾅﾊﾗ","pref":"新潟県","city":"上越市","address":"頸城区下神原"},
{"zip_code":"9420143","kana_pref":"ﾆｲｶﾞﾀｹﾝ","kana_city":"ｼﾞｮｳｴﾂｼ","kana_address":"ｸﾋﾞｷｸｼﾓｻﾝﾌﾞｲﾁ","pref":"新潟県","city":"上越市","address":"頸城区下三分一"},
{"zip_code":"9420137","kana_pref":"ﾆｲｶﾞﾀｹﾝ","kana_city":"ｼﾞｮｳｴﾂｼ","kana_address":"ｸﾋﾞｷｸｼﾓﾁﾊﾗ","pref":"新潟県","city":"上越市","address":"頸城区下千原"},
{"zip_code":"9420155","kana_pref":"ﾆｲｶﾞﾀｹﾝ","kana_city":"ｼﾞｮｳｴﾂｼ","kana_address":"ｸﾋﾞｷｸｼﾓﾅｶｼﾞﾏ","pref":"新潟県","city":"上越市","address":"頸城区下中島"},
{"zip_code":"9420123","kana_pref":"ﾆｲｶﾞﾀｹﾝ","kana_city":"ｼﾞｮｳｴﾂｼ","kana_address":"ｸﾋﾞｷｸｼﾓﾅｶﾑﾗ","pref":"新潟県","city":"上越市","address":"頸城区下中村"},
{"zip_code":"9420206","kana_pref":"ﾆｲｶﾞﾀｹﾝ","kana_city":"ｼﾞｮｳｴﾂｼ","kana_address":"ｸﾋﾞｷｸｼﾓﾏｽﾀﾞ","pref":"新潟県","city":"上越市","address":"頸城区下増田"},
{"zip_code":"9420108","kana_pref":"ﾆｲｶﾞﾀｹﾝ","kana_city":"ｼﾞｮｳｴﾂｼ","kana_address":"ｸﾋﾞｷｸｼﾓﾔﾅｷﾞﾏﾁ","pref":"新潟県","city":"上越市","address":"頸城区下柳町"},
{"zip_code":"9420146","kana_pref":"ﾆｲｶﾞﾀｹﾝ","kana_city":"ｼﾞｮｳｴﾂｼ","kana_address":"ｸﾋﾞｷｸｼﾓﾖｼ","pref":"新潟県","city":"上越市","address":"頸城区下吉"},
{"zip_code":"9420153","kana_pref":"ﾆｲｶﾞﾀｹﾝ","kana_city":"ｼﾞｮｳｴﾂｼ","kana_address":"ｸﾋﾞｷｸｼﾓﾖﾈｵｶ","pref":"新潟県","city":"上越市","address":"頸城区下米岡"},
{"zip_code":"9420157","kana_pref":"ﾆｲｶﾞﾀｹﾝ","kana_city":"ｼﾞｮｳｴﾂｼ","kana_address":"ｸﾋﾞｷｸｼﾞｮｳﾉｺｼ","pref":"新潟県","city":"上越市","address":"頸城区城野腰"},
{"zip_code":"9420128","kana_pref":"ﾆｲｶﾞﾀｹﾝ","kana_city":"ｼﾞｮｳｴﾂｼ","kana_address":"ｸﾋﾞｷｸｽﾜ","pref":"新潟県","city":"上越市","address":"頸城区諏訪"},
{"zip_code":"9420129","kana_pref":"ﾆｲｶﾞﾀｹﾝ","kana_city":"ｼﾞｮｳｴﾂｼ","kana_address":"ｸﾋﾞｷｸﾀﾃｻｷ","pref":"新潟県","city":"上越市","address":"頸城区立崎"},
{"zip_code":"9420115","kana_pref":"ﾆｲｶﾞﾀｹﾝ","kana_city":"ｼﾞｮｳｴﾂｼ","kana_address":"ｸﾋﾞｷｸﾀﾅｶ","pref":"新潟県","city":"上越市","address":"頸城区田中"},
{"zip_code":"9420131","kana_pref":"ﾆｲｶﾞﾀｹﾝ","kana_city":"ｼﾞｮｳｴﾂｼ","kana_address":"ｸﾋﾞｷｸﾁﾊﾗ","pref":"新潟県","city":"上越市","address":"頸城区千原"},
{"zip_code":"9420207","kana_pref":"ﾆｲｶﾞﾀｹﾝ","kana_city":"ｼﾞｮｳｴﾂｼ","kana_address":"ｸﾋﾞｷｸﾃｼﾏ","pref":"新潟県","city":"上越市","address":"頸城区手島"},
{"zip_code":"9420161","kana_pref":"ﾆｲｶﾞﾀｹﾝ","kana_city":"ｼﾞｮｳｴﾂｼ","kana_address":"ｸﾋﾞｷｸﾃﾐﾔ","pref":"新潟県","city":"上越市","address":"頸城区手宮"},
{"zip_code":"9420109","kana_pref":"ﾆｲｶﾞﾀｹﾝ","kana_city":"ｼﾞｮｳｴﾂｼ","kana_address":"ｸﾋﾞｷｸﾃﾗﾀﾞ","pref":"新潟県","city":"上越市","address":"頸城区寺田"},
{"zip_code":"9420105","kana_pref":"ﾆｲｶﾞﾀｹﾝ","kana_city":"ｼﾞｮｳｴﾂｼ","kana_address":"ｸﾋﾞｷｸﾄｸﾞﾁﾉ","pref":"新潟県","city":"上越市","address":"頸城区戸口野"},
{"zip_code":"9420103","kana_pref":"ﾆｲｶﾞﾀｹﾝ","kana_city":"ｼﾞｮｳｴﾂｼ","kana_address":"ｸﾋﾞｷｸﾄﾐﾀ","pref":"新潟県","city":"上越市","address":"頸城区富田"},
{"zip_code":"9420213","kana_pref":"ﾆｲｶﾞﾀｹﾝ","kana_city":"ｼﾞｮｳｴﾂｼ","kana_address":"ｸﾋﾞｷｸﾅｶｼﾞﾏ","pref":"新潟県","city":"上越市","address":"頸城区中島"},
{"zip_code":"9420113","kana_pref":"ﾆｲｶﾞﾀｹﾝ","kana_city":"ｼﾞｮｳｴﾂｼ","kana_address":"ｸﾋﾞｷｸﾅｶｼﾞｮｳ","pref":"新潟県","city":"上越市","address":"頸城区中城"},
{"zip_code":"9420205","kana_pref":"ﾆｲｶﾞﾀｹﾝ","kana_city":"ｼﾞｮｳｴﾂｼ","kana_address":"ｸﾋﾞｷｸﾅｶﾏｽﾀﾞ","pref":"新潟県","city":"上越市","address":"頸城区中増田"},
{"zip_code":"9420107","kana_pref":"ﾆｲｶﾞﾀｹﾝ","kana_city":"ｼﾞｮｳｴﾂｼ","kana_address":"ｸﾋﾞｷｸﾅｶﾔﾅｷﾞﾏﾁ","pref":"新潟県","city":"上越市","address":"頸城区中柳町"},
{"zip_code":"9420091","kana_pref":"ﾆｲｶﾞﾀｹﾝ","kana_city":"ｼﾞｮｳｴﾂｼ","kana_address":"ｸﾋﾞｷｸﾆｼﾌｸｼﾞﾏ","pref":"新潟県","city":"上越市","address":"頸城区西福島"},
{"zip_code":"9420147","kana_pref":"ﾆｲｶﾞﾀｹﾝ","kana_city":"ｼﾞｮｳｴﾂｼ","kana_address":"ｸﾋﾞｷｸﾆｼﾌｸｼﾞﾏ","pref":"新潟県","city":"上越市","address":"頸城区西福島"},
{"zip_code":"9420117","kana_pref":"ﾆｲｶﾞﾀｹﾝ","kana_city":"ｼﾞｮｳｴﾂｼ","kana_address":"ｸﾋﾞｷｸﾆｼﾐﾅﾄ","pref":"新潟県","city":"上越市","address":"頸城区西湊"},
{"zip_code":"9420224","kana_pref":"ﾆｲｶﾞﾀｹﾝ","kana_city":"ｼﾞｮｳｴﾂｼ","kana_address":"ｸﾋﾞｷｸﾆﾉﾌﾞ","pref":"新潟県","city":"上越市","address":"頸城区仁野分"},
{"zip_code":"9420138","kana_pref":"ﾆｲｶﾞﾀｹﾝ","kana_city":"ｼﾞｮｳｴﾂｼ","kana_address":"ｸﾋﾞｷｸﾉｿﾞﾐｶﾞｵｶ","pref":"新潟県","city":"上越市","address":"頸城区望ケ丘"},
{"zip_code":"9420211","kana_pref":"ﾆｲｶﾞﾀｹﾝ","kana_city":"ｼﾞｮｳｴﾂｼ","kana_address":"ｸﾋﾞｷｸﾊﾀｹｻｷ","pref":"新潟県","city":"上越市","address":"頸城区畑ケ崎"},
{"zip_code":"9420222","kana_pref":"ﾆｲｶﾞﾀｹﾝ","kana_city":"ｼﾞｮｳｴﾂｼ","kana_address":"ｸﾋﾞｷｸﾊﾅｶﾞｻｷ","pref":"新潟県","city":"上越市","address":"頸城区花ケ崎"},
{"zip_code":"9420112","kana_pref":"ﾆｲｶﾞﾀｹﾝ","kana_city":"ｼﾞｮｳｴﾂｼ","kana_address":"ｸﾋﾞｷｸﾊﾞﾔﾁ","pref":"新潟県","city":"上越市","address":"頸城区姥谷内"},
{"zip_code":"9420124","kana_pref":"ﾆｲｶﾞﾀｹﾝ","kana_city":"ｼﾞｮｳｴﾂｼ","kana_address":"ｸﾋﾞｷｸﾋｶﾞｼﾏﾀ","pref":"新潟県","city":"上越市","address":"頸城区東俣"},
{"zip_code":"9420216","kana_pref":"ﾆｲｶﾞﾀｹﾝ","kana_city":"ｼﾞｮｳｴﾂｼ","kana_address":"ｸﾋﾞｷｸﾋﾈﾂﾞ","pref":"新潟県","city":"上越市","address":"頸城区日根津"},
{"zip_code":"9420127","kana_pref":"ﾆｲｶﾞﾀｹﾝ","kana_city":"ｼﾞｮｳｴﾂｼ","kana_address":"ｸﾋﾞｷｸﾋｬｸｹﾝﾏﾁ","pref":"新潟県","city":"上越市","address":"頸城区百間町"},
{"zip_code":"9420173","kana_pref":"ﾆｲｶﾞﾀｹﾝ","kana_city":"ｼﾞｮｳｴﾂｼ","kana_address":"ｸﾋﾞｷｸﾌﾅﾂ","pref":"新潟県","city":"上越市","address":"頸城区舟津"},
{"zip_code":"9420156","kana_pref":"ﾆｲｶﾞﾀｹﾝ","kana_city":"ｼﾞｮｳｴﾂｼ","kana_address":"ｸﾋﾞｷｸﾏﾂﾊｼ","pref":"新潟県","city":"上越市","address":"頸城区松橋"},
{"zip_code":"9420158","kana_pref":"ﾆｲｶﾞﾀｹﾝ","kana_city":"ｼﾞｮｳｴﾂｼ","kana_address":"ｸﾋﾞｷｸﾏﾂﾊｼｼﾝﾃﾞﾝ","pref":"新潟県","city":"上越市","address":"頸城区松橋新田"},
{"zip_code":"9420144","kana_pref":"ﾆｲｶﾞﾀｹﾝ","kana_city":"ｼﾞｮｳｴﾂｼ","kana_address":"ｸﾋﾞｷｸﾏﾂﾓﾄ","pref":"新潟県","city":"上越市","address":"頸城区松本"},
{"zip_code":"9420126","kana_pref":"ﾆｲｶﾞﾀｹﾝ","kana_city":"ｼﾞｮｳｴﾂｼ","kana_address":"ｸﾋﾞｷｸﾐﾔﾊﾗ","pref":"新潟県","city":"上越市","address":"頸城区宮原"},
{"zip_code":"9420172","kana_pref":"ﾆｲｶﾞﾀｹﾝ","kana_city":"ｼﾞｮｳｴﾂｼ","kana_address":"ｸﾋﾞｷｸﾐﾔﾓﾄ","pref":"新潟県","city":"上越市","address":"頸城区宮本"},
{"zip_code":"9420162","kana_pref":"ﾆｲｶﾞﾀｹﾝ","kana_city":"ｼﾞｮｳｴﾂｼ","kana_address":"ｸﾋﾞｷｸﾓﾘｼﾀ","pref":"新潟県","city":"上越市","address":"頸城区森下"},
{"zip_code":"9420223","kana_pref":"ﾆｲｶﾞﾀｹﾝ","kana_city":"ｼﾞｮｳｴﾂｼ","kana_address":"ｸﾋﾞｷｸﾓﾘﾓﾄ","pref":"新潟県","city":"上越市","address":"頸城区森本"},
{"zip_code":"9420212","kana_pref":"ﾆｲｶﾞﾀｹﾝ","kana_city":"ｼﾞｮｳｴﾂｼ","kana_address":"ｸﾋﾞｷｸﾔｽﾞﾐ","pref":"新潟県","city":"上越市","address":"頸城区矢住"},
{"zip_code":"9420101","kana_pref":"ﾆｲｶﾞﾀｹﾝ","kana_city":"ｼﾞｮｳｴﾂｼ","kana_address":"ｸﾋﾞｷｸﾔﾅｷﾞﾏﾁｼﾝﾃﾞﾝ","pref":"新潟県","city":"上越市","address":"頸城区柳町新田"},
{"zip_code":"9420204","kana_pref":"ﾆｲｶﾞﾀｹﾝ","kana_city":"ｼﾞｮｳｴﾂｼ","kana_address":"ｸﾋﾞｷｸﾘｮｳｹ","pref":"新潟県","city":"上越市","address":"頸城区両毛"},
{"zip_code":"9420013","kana_pref":"ﾆｲｶﾞﾀｹﾝ","kana_city":"ｼﾞｮｳｴﾂｼ","kana_address":"ｸﾛｲ","pref":"新潟県","city":"上越市","address":"黒井"},
{"zip_code":"9420251","kana_pref":"ﾆｲｶﾞﾀｹﾝ","kana_city":"ｼﾞｮｳｴﾂｼ","kana_address":"ｺｲｽﾞﾐ","pref":"新潟県","city":"上越市","address":"小泉"},
{"zip_code":"9420082","kana_pref":"ﾆｲｶﾞﾀｹﾝ","kana_city":"ｼﾞｮｳｴﾂｼ","kana_address":"ｺｸﾌ","pref":"新潟県","city":"上越市","address":"国府"},
{"zip_code":"9420055","kana_pref":"ﾆｲｶﾞﾀｹﾝ","kana_city":"ｼﾞｮｳｴﾂｼ","kana_address":"ｺｻﾞﾙﾔ","pref":"新潟県","city":"上越市","address":"小猿屋"},
{"zip_code":"9420056","kana_pref":"ﾆｲｶﾞﾀｹﾝ","kana_city":"ｼﾞｮｳｴﾂｼ","kana_address":"ｺｻﾞﾙﾔｼﾝﾃﾞﾝ","pref":"新潟県","city":"上越市","address":"小猿屋新田"},
{"zip_code":"9420081","kana_pref":"ﾆｲｶﾞﾀｹﾝ","kana_city":"ｼﾞｮｳｴﾂｼ","kana_address":"ｺﾞﾁ","pref":"新潟県","city":"上越市","address":"五智"},
{"zip_code":"9420085","kana_pref":"ﾆｲｶﾞﾀｹﾝ","kana_city":"ｼﾞｮｳｴﾂｼ","kana_address":"ｺﾞﾁｺｸﾌﾞ","pref":"新潟県","city":"上越市","address":"五智国分"},
{"zip_code":"9420084","kana_pref":"ﾆｲｶﾞﾀｹﾝ","kana_city":"ｼﾞｮｳｴﾂｼ","kana_address":"ｺﾞﾁｼﾝﾏﾁ","pref":"新潟県","city":"上越市","address":"五智新町"},
{"zip_code":"9420243","kana_pref":"ﾆｲｶﾞﾀｹﾝ","kana_city":"ｼﾞｮｳｴﾂｼ","kana_address":"ｺﾞﾉｲ","pref":"新潟県","city":"上越市","address":"五野井"},
{"zip_code":"9420246","kana_pref":"ﾆｲｶﾞﾀｹﾝ","kana_city":"ｼﾞｮｳｴﾂｼ","kana_address":"ｺﾏﾊﾞﾔｼ","pref":"新潟県","city":"上越市","address":"駒林"},
{"zip_code":"9420072","kana_pref":"ﾆｲｶﾞﾀｹﾝ","kana_city":"ｼﾞｮｳｴﾂｼ","kana_address":"ｻｶｴﾁｮｳ","pref":"新潟県","city":"上越市","address":"栄町"},
{"zip_code":"9420031","kana_pref":"ﾆｲｶﾞﾀｹﾝ","kana_city":"ｼﾞｮｳｴﾂｼ","kana_address":"ｻﾅｲ","pref":"新潟県","city":"上越市","address":"佐内"},
{"zip_code":"9420031","kana_pref":"ﾆｲｶﾞﾀｹﾝ","kana_city":"ｼﾞｮｳｴﾂｼ","kana_address":"ｻﾅｲﾁｮｳ","pref":"新潟県","city":"上越市","address":"佐内町"},
{"zip_code":"9420054","kana_pref":"ﾆｲｶﾞﾀｹﾝ","kana_city":"ｼﾞｮｳｴﾂｼ","kana_address":"ｻﾝﾀﾞ","pref":"新潟県","city":"上越市","address":"三田"},
{"zip_code":"9420053","kana_pref":"ﾆｲｶﾞﾀｹﾝ","kana_city":"ｼﾞｮｳｴﾂｼ","kana_address":"ｻﾝﾀﾞｼﾝﾃﾞﾝ","pref":"新潟県","city":"上越市","address":"三田新田"},
{"zip_code":"9420275","kana_pref":"ﾆｲｶﾞﾀｹﾝ","kana_city":"ｼﾞｮｳｴﾂｼ","kana_address":"ｻﾝﾜｸｵｶｷﾞ","pref":"新潟県","city":"上越市","address":"三和区岡木"},
{"zip_code":"9420267","kana_pref":"ﾆｲｶﾞﾀｹﾝ","kana_city":"ｼﾞｮｳｴﾂｼ","kana_address":"ｻﾝﾜｸｵｷﾔﾅｷﾞ","pref":"新潟県","city":"上越市","address":"三和区沖柳"},
{"zip_code":"9420273","kana_pref":"ﾆｲｶﾞﾀｹﾝ","kana_city":"ｼﾞｮｳｴﾂｼ","kana_address":"ｻﾝﾜｸｶﾐﾋﾛﾀ","pref":"新潟県","city":"上越市","address":"三和区上広田"},
{"zip_code":"9420265","kana_pref":"ﾆｲｶﾞﾀｹﾝ","kana_city":"ｼﾞｮｳｴﾂｼ","kana_address":"ｻﾝﾜｸｶﾝﾀﾞ","pref":"新潟県","city":"上越市","address":"三和区神田"},
{"zip_code":"9420266","kana_pref":"ﾆｲｶﾞﾀｹﾝ","kana_city":"ｼﾞｮｳｴﾂｼ","kana_address":"ｻﾝﾜｸｺｼﾔﾅｷﾞ","pref":"新潟県","city":"上越市","address":"三和区越柳"},
{"zip_code":"9420276","kana_pref":"ﾆｲｶﾞﾀｹﾝ","kana_city":"ｼﾞｮｳｴﾂｼ","kana_address":"ｻﾝﾜｸｺﾒｺ","pref":"新潟県","city":"上越市","address":"三和区米子"},
{"zip_code":"9420274","kana_pref":"ﾆｲｶﾞﾀｹﾝ","kana_city":"ｼﾞｮｳｴﾂｼ","kana_address":"ｻﾝﾜｸｼﾓﾋﾛﾀ","pref":"新潟県","city":"上越市","address":"三和区下広田"},
{"zip_code":"9420262","kana_pref":"ﾆｲｶﾞﾀｹﾝ","kana_city":"ｼﾞｮｳｴﾂｼ","kana_address":"ｻﾝﾜｸｽｴﾉ","pref":"新潟県","city":"上越市","address":"三和区末野"},
{"zip_code":"9420261","kana_pref":"ﾆｲｶﾞﾀｹﾝ","kana_city":"ｼﾞｮｳｴﾂｼ","kana_address":"ｻﾝﾜｸｽｴﾉｼﾝﾃﾞﾝ","pref":"新潟県","city":"上越市","address":"三和区末野新田"},
{"zip_code":"9420264","kana_pref":"ﾆｲｶﾞﾀｹﾝ","kana_city":"ｼﾞｮｳｴﾂｼ","kana_address":"ｻﾝﾜｸﾄｳﾉﾜ","pref":"新潟県","city":"上越市","address":"三和区塔ノ輪"},
{"zip_code":"9420271","kana_pref":"ﾆｲｶﾞﾀｹﾝ","kana_city":"ｼﾞｮｳｴﾂｼ","kana_address":"ｻﾝﾜｸﾆｼｷ","pref":"新潟県","city":"上越市","address":"三和区錦"},
{"zip_code":"9420277","kana_pref":"ﾆｲｶﾞﾀｹﾝ","kana_city":"ｼﾞｮｳｴﾂｼ","kana_address":"ｻﾝﾜｸﾋﾛｲ","pref":"新潟県","city":"上越市","address":"三和区広井"},
{"zip_code":"9420268","kana_pref":"ﾆｲｶﾞﾀｹﾝ","kana_city":"ｼﾞｮｳｴﾂｼ","kana_address":"ｻﾝﾜｸﾎﾝｺﾞｳ","pref":"新潟県","city":"上越市","address":"三和区本郷"},
{"zip_code":"9420272","kana_pref":"ﾆｲｶﾞﾀｹﾝ","kana_city":"ｼﾞｮｳｴﾂｼ","kana_address":"ｻﾝﾜｸﾔﾅｷﾞﾊﾞﾔｼ","pref":"新潟県","city":"上越市","address":"三和区柳林"},
{"zip_code":"9420263","kana_pref":"ﾆｲｶﾞﾀｹﾝ","kana_city":"ｼﾞｮｳｴﾂｼ","kana_address":"ｻﾝﾜｸﾔﾏﾉｺｼｼﾝﾃﾞﾝ","pref":"新潟県","city":"上越市","address":"三和区山腰新田"},
{"zip_code":"9420064","kana_pref":"ﾆｲｶﾞﾀｹﾝ","kana_city":"ｼﾞｮｳｴﾂｼ","kana_address":"ｼｵﾔｼﾝﾃﾞﾝ","pref":"新潟県","city":"上越市","address":"塩屋新田"},
{"zip_code":"9420022","kana_pref":"ﾆｲｶﾞﾀｹﾝ","kana_city":"ｼﾞｮｳｴﾂｼ","kana_address":"ｼﾓｱﾗﾊﾏ","pref":"新潟県","city":"上越市","address":"下荒浜"},
{"zip_code":"9420051","kana_pref":"ﾆｲｶﾞﾀｹﾝ","kana_city":"ｼﾞｮｳｴﾂｼ","kana_address":"ｼﾓｹﾞﾝﾆｭｳ","pref":"新潟県","city":"上越市","address":"下源入"},
{"zip_code":"9420255","kana_pref":"ﾆｲｶﾞﾀｹﾝ","kana_city":"ｼﾞｮｳｴﾂｼ","kana_address":"ｼﾓｺﾞｶﾝﾉ","pref":"新潟県","city":"上越市","address":"下五貫野"},
{"zip_code":"9420247","kana_pref":"ﾆｲｶﾞﾀｹﾝ","kana_city":"ｼﾞｮｳｴﾂｼ","kana_address":"ｼﾓﾄﾞｳﾄﾞｳ","pref":"新潟県","city":"上越市","address":"下百々"},
{"zip_code":"9420253","kana_pref":"ﾆｲｶﾞﾀｹﾝ","kana_city":"ｼﾞｮｳｴﾂｼ","kana_address":"ｼﾓﾅｶﾞﾗ","pref":"新潟県","city":"上越市","address":"下名柄"},
{"zip_code":"9420034","kana_pref":"ﾆｲｶﾞﾀｹﾝ","kana_city":"ｼﾞｮｳｴﾂｼ","kana_address":"ｼﾓﾏﾅｺﾞ","pref":"新潟県","city":"上越市","address":"下真砂"},
{"zip_code":"9420063","kana_pref":"ﾆｲｶﾞﾀｹﾝ","kana_city":"ｼﾞｮｳｴﾂｼ","kana_address":"ｼﾓﾓﾝｾﾞﾝ","pref":"新潟県","city":"上越市","address":"下門前"},
{"zip_code":"9420231","kana_pref":"ﾆｲｶﾞﾀｹﾝ","kana_city":"ｼﾞｮｳｴﾂｼ","kana_address":"ｼﾓﾖｼﾉ","pref":"新潟県","city":"上越市","address":"下吉野"},
{"zip_code":"9420002","kana_pref":"ﾆｲｶﾞﾀｹﾝ","kana_city":"ｼﾞｮｳｴﾂｼ","kana_address":"ｽﾐﾖｼﾁｮｳ","pref":"新潟県","city":"上越市","address":"住吉町"},
{"zip_code":"9420083","kana_pref":"ﾆｲｶﾞﾀｹﾝ","kana_city":"ｼﾞｮｳｴﾂｼ","kana_address":"ﾀﾞｲｽﾞ","pref":"新潟県","city":"上越市","address":"大豆"},
{"zip_code":"9420012","kana_pref":"ﾆｲｶﾞﾀｹﾝ","kana_city":"ｼﾞｮｳｴﾂｼ","kana_address":"ﾀｶｻｷｼﾝﾃﾞﾝ","pref":"新潟県","city":"上越市","address":"高崎新田"},
{"zip_code":"9420234","kana_pref":"ﾆｲｶﾞﾀｹﾝ","kana_city":"ｼﾞｮｳｴﾂｼ","kana_address":"ﾀｻﾞﾜｼﾝﾃﾞﾝ","pref":"新潟県","city":"上越市","address":"田沢新田"},
{"zip_code":"9420001","kana_pref":"ﾆｲｶﾞﾀｹﾝ","kana_city":"ｼﾞｮｳｴﾂｼ","kana_address":"ﾁｭｳｵｳ","pref":"新潟県","city":"上越市","address":"中央"},
{"zip_code":"9420046","kana_pref":"ﾆｲｶﾞﾀｹﾝ","kana_city":"ｼﾞｮｳｴﾂｼ","kana_address":"ﾃﾞﾝｴﾝ","pref":"新潟県","city":"上越市","address":"田園"},
{"zip_code":"9420071","kana_pref":"ﾆｲｶﾞﾀｹﾝ","kana_city":"ｼﾞｮｳｴﾂｼ","kana_address":"ﾄｳｳﾝﾁｮｳ","pref":"新潟県","city":"上越市","address":"東雲町"},
{"zip_code":"9420245","kana_pref":"ﾆｲｶﾞﾀｹﾝ","kana_city":"ｼﾞｮｳｴﾂｼ","kana_address":"ﾅｵｶ","pref":"新潟県","city":"上越市","address":"長岡"},
{"zip_code":"9420244","kana_pref":"ﾆｲｶﾞﾀｹﾝ","kana_city":"ｼﾞｮｳｴﾂｼ","kana_address":"ﾅｵｶｼﾝﾃﾞﾝ","pref":"新潟県","city":"上越市","address":"長岡新田"},
{"zip_code":"9420037","kana_pref":"ﾆｲｶﾞﾀｹﾝ","kana_city":"ｼﾞｮｳｴﾂｼ","kana_address":"ﾅｶﾏﾅｺﾞ","pref":"新潟県","city":"上越市","address":"中真砂"},
{"zip_code":"9420026","kana_pref":"ﾆｲｶﾞﾀｹﾝ","kana_city":"ｼﾞｮｳｴﾂｼ","kana_address":"ﾆｼｶﾞｸﾎﾞﾊﾏ","pref":"新潟県","city":"上越市","address":"西ケ窪浜"},
{"zip_code":"9420004","kana_pref":"ﾆｲｶﾞﾀｹﾝ","kana_city":"ｼﾞｮｳｴﾂｼ","kana_address":"ﾆｼﾎﾝﾁｮｳ","pref":"新潟県","city":"上越市","address":"西本町"},
{"zip_code":"9420036","kana_pref":"ﾆｲｶﾞﾀｹﾝ","kana_city":"ｼﾞｮｳｴﾂｼ","kana_address":"ﾋｶﾞｼﾅｶｼﾞﾏ","pref":"新潟県","city":"上越市","address":"東中島"},
{"zip_code":"9420088","kana_pref":"ﾆｲｶﾞﾀｹﾝ","kana_city":"ｼﾞｮｳｴﾂｼ","kana_address":"ﾋﾞｼｬﾓﾝｺｸﾌﾞﾝｼﾞ","pref":"新潟県","city":"上越市","address":"毘沙門国分寺"},
{"zip_code":"9420014","kana_pref":"ﾆｲｶﾞﾀｹﾝ","kana_city":"ｼﾞｮｳｴﾂｼ","kana_address":"ﾋﾉﾃﾞﾁｮｳ","pref":"新潟県","city":"上越市","address":"日之出町"},
{"zip_code":"9420232","kana_pref":"ﾆｲｶﾞﾀｹﾝ","kana_city":"ｼﾞｮｳｴﾂｼ","kana_address":"ﾌｸｵｶｼﾝﾃﾞﾝ","pref":"新潟県","city":"上越市","address":"福岡新田"},
{"zip_code":"9420032","kana_pref":"ﾆｲｶﾞﾀｹﾝ","kana_city":"ｼﾞｮｳｴﾂｼ","kana_address":"ﾌｸﾀﾞ","pref":"新潟県","city":"上越市","address":"福田"},
{"zip_code":"9420033","kana_pref":"ﾆｲｶﾞﾀｹﾝ","kana_city":"ｼﾞｮｳｴﾂｼ","kana_address":"ﾌｸﾊｼ","pref":"新潟県","city":"上越市","address":"福橋"},
{"zip_code":"9420062","kana_pref":"ﾆｲｶﾞﾀｹﾝ","kana_city":"ｼﾞｮｳｴﾂｼ","kana_address":"ﾏﾂﾑﾗｼﾝﾃﾞﾝ","pref":"新潟県","city":"上越市","address":"松村新田"},
{"zip_code":"9420043","kana_pref":"ﾆｲｶﾞﾀｹﾝ","kana_city":"ｼﾞｮｳｴﾂｼ","kana_address":"ﾐﾂﾊｼ","pref":"新潟県","city":"上越市","address":"三ツ橋"},
{"zip_code":"9420044","kana_pref":"ﾆｲｶﾞﾀｹﾝ","kana_city":"ｼﾞｮｳｴﾂｼ","kana_address":"ﾐﾂﾊｼｼﾝﾃﾞﾝ","pref":"新潟県","city":"上越市","address":"三ツ橋新田"},
{"zip_code":"9420042","kana_pref":"ﾆｲｶﾞﾀｹﾝ","kana_city":"ｼﾞｮｳｴﾂｼ","kana_address":"ﾐﾂﾔﾁｮｳ","pref":"新潟県","city":"上越市","address":"三ツ屋町"},
{"zip_code":"9420011","kana_pref":"ﾆｲｶﾞﾀｹﾝ","kana_city":"ｼﾞｮｳｴﾂｼ","kana_address":"ﾐﾅﾄﾁｮｳ","pref":"新潟県","city":"上越市","address":"港町"},
{"zip_code":"9420087","kana_pref":"ﾆｲｶﾞﾀｹﾝ","kana_city":"ｼﾞｮｳｴﾂｼ","kana_address":"ﾑｼｭｳｲﾜﾄ","pref":"新潟県","city":"上越市","address":"虫生岩戸"},
{"zip_code":"9420041","kana_pref":"ﾆｲｶﾞﾀｹﾝ","kana_city":"ｼﾞｮｳｴﾂｼ","kana_address":"ﾔｽｴ","pref":"新潟県","city":"上越市","address":"安江"},
{"zip_code":"9420404","kana_pref":"ﾆｲｶﾞﾀｹﾝ","kana_city":"ｼﾞｮｳｴﾂｼ","kana_address":"ﾔｽﾂﾞｶｸｲｼﾊﾞｼ","pref":"新潟県","city":"上越市","address":"安塚区石橋"},
{"zip_code":"9420413","kana_pref":"ﾆｲｶﾞﾀｹﾝ","kana_city":"ｼﾞｮｳｴﾂｼ","kana_address":"ﾔｽﾂﾞｶｸｲﾀｵ","pref":"新潟県","city":"上越市","address":"安塚区板尾"},
{"zip_code":"9420539","kana_pref":"ﾆｲｶﾞﾀｹﾝ","kana_city":"ｼﾞｮｳｴﾂｼ","kana_address":"ﾔｽﾂﾞｶｸｴﾝﾀｲﾗﾎﾞｳ","pref":"新潟県","city":"上越市","address":"安塚区円平坊"},
{"zip_code":"9420522","kana_pref":"ﾆｲｶﾞﾀｹﾝ","kana_city":"ｼﾞｮｳｴﾂｼ","kana_address":"ﾔｽﾂﾞｶｸｵｵﾊﾗ","pref":"新潟県","city":"上越市","address":"安塚区大原"},
{"zip_code":"9420405","kana_pref":"ﾆｲｶﾞﾀｹﾝ","kana_city":"ｼﾞｮｳｴﾂｼ","kana_address":"ﾔｽﾂﾞｶｸｶﾐｶﾞﾀ","pref":"新潟県","city":"上越市","address":"安塚区上方"},
{"zip_code":"9420533","kana_pref":"ﾆｲｶﾞﾀｹﾝ","kana_city":"ｼﾞｮｳｴﾂｼ","kana_address":"ﾔｽﾂﾞｶｸｶﾐﾌﾅｸﾗ","pref":"新潟県","city":"上越市","address":"安塚区上船倉"},
{"zip_code":"9420542","kana_pref":"ﾆｲｶﾞﾀｹﾝ","kana_city":"ｼﾞｮｳｴﾂｼ","kana_address":"ﾔｽﾂﾞｶｸｷﾘｺｼ","pref":"新潟県","city":"上越市","address":"安塚区切越"},
{"zip_code":"9420541","kana_pref":"ﾆｲｶﾞﾀｹﾝ","kana_city":"ｼﾞｮｳｴﾂｼ","kana_address":"ﾔｽﾂﾞｶｸｺｸﾞﾛ","pref":"新潟県","city":"上越市","address":"安塚区小黒"},
{"zip_code":"9420536","kana_pref":"ﾆｲｶﾞﾀｹﾝ","kana_city":"ｼﾞｮｳｴﾂｼ","kana_address":"ﾔｽﾂﾞｶｸｼﾅﾉｻﾞｶ","pref":"新潟県","city":"上越市","address":"安塚区信濃坂"},
{"zip_code":"9420532","kana_pref":"ﾆｲｶﾞﾀｹﾝ","kana_city":"ｼﾞｮｳｴﾂｼ","kana_address":"ﾔｽﾂﾞｶｸｼﾓﾌﾅｸﾗ","pref":"新潟県","city":"上越市","address":"安塚区下船倉"},
{"zip_code":"9420543","kana_pref":"ﾆｲｶﾞﾀｹﾝ","kana_city":"ｼﾞｮｳｴﾂｼ","kana_address":"ﾔｽﾂﾞｶｸｽｶﾞﾇﾏ","pref":"新潟県","city":"上越市","address":"安塚区菅沼"},
{"zip_code":"9420534","kana_pref":"ﾆｲｶﾞﾀｹﾝ","kana_city":"ｼﾞｮｳｴﾂｼ","kana_address":"ﾔｽﾂﾞｶｸｽｶﾞﾜ","pref":"新潟県","city":"上越市","address":"安塚区須川"},
{"zip_code":"9420524","kana_pref":"ﾆｲｶﾞﾀｹﾝ","kana_city":"ｼﾞｮｳｴﾂｼ","kana_address":"ﾔｽﾂﾞｶｸｾﾘﾀﾞ","pref":"新潟県","city":"上越市","address":"安塚区芹田"},
{"zip_code":"9420414","kana_pref":"ﾆｲｶﾞﾀｹﾝ","kana_city":"ｼﾞｮｳｴﾂｼ","kana_address":"ﾔｽﾂﾞｶｸｿﾃﾞﾔﾏ","pref":"新潟県","city":"上越市","address":"安塚区袖山"},
{"zip_code":"9420538","kana_pref":"ﾆｲｶﾞﾀｹﾝ","kana_city":"ｼﾞｮｳｴﾂｼ","kana_address":"ﾔｽﾂﾞｶｸﾀｶｻﾜ","pref":"新潟県","city":"上越市","address":"安塚区高沢"},
{"zip_code":"9420531","kana_pref":"ﾆｲｶﾞﾀｹﾝ","kana_city":"ｼﾞｮｳｴﾂｼ","kana_address":"ﾔｽﾂﾞｶｸﾀﾙﾀﾞ","pref":"新潟県","city":"上越市","address":"安塚区樽田"},
{"zip_code":"9420523","kana_pref":"ﾆｲｶﾞﾀｹﾝ","kana_city":"ｼﾞｮｳｴﾂｼ","kana_address":"ﾔｽﾂﾞｶｸﾄｻﾞﾜ","pref":"新潟県","city":"上越市","address":"安塚区戸沢"},
{"zip_code":"9420537","kana_pref":"ﾆｲｶﾞﾀｹﾝ","kana_city":"ｼﾞｮｳｴﾂｼ","kana_address":"ﾔｽﾂﾞｶｸﾆﾎﾝｷﾞ","pref":"新潟県","city":"上越市","address":"安塚区二本木"},
{"zip_code":"9420402","kana_pref":"ﾆｲｶﾞﾀｹﾝ","kana_city":"ｼﾞｮｳｴﾂｼ","kana_address":"ﾔｽﾂﾞｶｸﾎﾞｳｶﾞﾈ","pref":"新潟県","city":"上越市","address":"安塚区坊金"},
{"zip_code":"9420544","kana_pref":"ﾆｲｶﾞﾀｹﾝ","kana_city":"ｼﾞｮｳｴﾂｼ","kana_address":"ﾔｽﾂﾞｶｸﾎｵﾉｷ","pref":"新潟県","city":"上越市","address":"安塚区朴ノ木"},
{"zip_code":"9420401","kana_pref":"ﾆｲｶﾞﾀｹﾝ","kana_city":"ｼﾞｮｳｴﾂｼ","kana_address":"ﾔｽﾂﾞｶｸﾎｿﾉ","pref":"新潟県","city":"上越市","address":"安塚区細野"},
{"zip_code":"9420403","kana_pref":"ﾆｲｶﾞﾀｹﾝ","kana_city":"ｼﾞｮｳｴﾂｼ","kana_address":"ﾔｽﾂﾞｶｸﾎﾝｺﾞｳ","pref":"新潟県","city":"上越市","address":"安塚区本郷"},
{"zip_code":"9420412","kana_pref":"ﾆｲｶﾞﾀｹﾝ","kana_city":"ｼﾞｮｳｴﾂｼ","kana_address":"ﾔｽﾂﾞｶｸﾏｷﾉ","pref":"新潟県","city":"上越市","address":"安塚区牧野"},
{"zip_code":"9420415","kana_pref":"ﾆｲｶﾞﾀｹﾝ","kana_city":"ｼﾞｮｳｴﾂｼ","kana_address":"ﾔｽﾂﾞｶｸﾏﾂｻﾞｷ","pref":"新潟県","city":"上越市","address":"安塚区松崎"},
{"zip_code":"9420535","kana_pref":"ﾆｲｶﾞﾀｹﾝ","kana_city":"ｼﾞｮｳｴﾂｼ","kana_address":"ﾔｽﾂﾞｶｸﾓｵｷﾞﾀｲﾗ","pref":"新潟県","city":"上越市","address":"安塚区真荻平"},
{"zip_code":"9420411","kana_pref":"ﾆｲｶﾞﾀｹﾝ","kana_city":"ｼﾞｮｳｴﾂｼ","kana_address":"ﾔｽﾂﾞｶｸﾔｽﾂﾞｶ","pref":"新潟県","city":"上越市","address":"安塚区安塚"},
{"zip_code":"9420521","kana_pref":"ﾆｲｶﾞﾀｹﾝ","kana_city":"ｼﾞｮｳｴﾂｼ","kana_address":"ﾔｽﾂﾞｶｸﾕｸﾉ","pref":"新潟県","city":"上越市","address":"安塚区行野"},
{"zip_code":"9420525","kana_pref":"ﾆｲｶﾞﾀｹﾝ","kana_city":"ｼﾞｮｳｴﾂｼ","kana_address":"ﾔｽﾂﾞｶｸﾜﾀﾞ","pref":"新潟県","city":"上越市","address":"安塚区和田"},
{"zip_code":"9420027","kana_pref":"ﾆｲｶﾞﾀｹﾝ","kana_city":"ｼﾞｮｳｴﾂｼ","kana_address":"ﾔﾁﾎ","pref":"新潟県","city":"上越市","address":"八千浦"},
{"zip_code":"9420024","kana_pref":"ﾆｲｶﾞﾀｹﾝ","kana_city":"ｼﾞｮｳｴﾂｼ","kana_address":"ﾕｳｺｳｼﾞﾊﾏ","pref":"新潟県","city":"上越市","address":"遊光寺浜"},
{"zip_code":"9420045","kana_pref":"ﾆｲｶﾞﾀｹﾝ","kana_city":"ｼﾞｮｳｴﾂｼ","kana_address":"ﾖｺｿﾞﾈ","pref":"新潟県","city":"上越市","address":"横曾根"}]}