{"zip_code":[
{"zip_code":"9430000","kana_pref":"ﾆｲｶﾞﾀｹﾝ","kana_city":"ｼﾞｮｳｴﾂｼ","kana_address":"","pref":"新潟県","city":"上越市","address":""},
{"zip_code":"9430871","kana_pref":"ﾆｲｶﾞﾀｹﾝ","kana_city":"ｼﾞｮｳｴﾂｼ","kana_address":"ｱｵｷ","pref":"新潟県","city":"上越市","address":"青木"},
{"zip_code":"9430886","kana_pref":"ﾆｲｶﾞﾀｹﾝ","kana_city":"ｼﾞｮｳｴﾂｼ","kana_address":"ｱｻﾋ","pref":"新潟県","city":"上越市","address":"朝日"},
{"zip_code":"9430139","kana_pref":"ﾆｲｶﾞﾀｹﾝ","kana_city":"ｼﾞｮｳｴﾂｼ","kana_address":"ｱﾏﾉﾊﾗｼﾝﾃﾞﾝ","pref":"新潟県","city":"上越市","address":"天野原新田"},
{"zip_code":"9430862","kana_pref":"ﾆｲｶﾞﾀｹﾝ","kana_city":"ｼﾞｮｳｴﾂｼ","kana_address":"ｱﾗﾏﾁ","pref":"新潟県","city":"上越市","address":"荒町"},
{"zip_code":"9430187","kana_pref":"ﾆｲｶﾞﾀｹﾝ","kana_city":"ｼﾞｮｳｴﾂｼ","kana_address":"ｱﾗﾔ","pref":"新潟県","city":"上越市","address":"荒屋"},
{"zip_code":"9430896","kana_pref":"ﾆｲｶﾞﾀｹﾝ","kana_city":"ｼﾞｮｳｴﾂｼ","kana_address":"ｲｲ","pref":"新潟県","city":"上越市","address":"飯"},
{"zip_code":"9430422","kana_pref":"ﾆｲｶﾞﾀｹﾝ","kana_city":"ｼﾞｮｳｴﾂｼ","kana_address":"ｲｲﾀﾞ","pref":"新潟県","city":"上越市","address":"飯田"},
{"zip_code":"9430128","kana_pref":"ﾆｲｶﾞﾀｹﾝ","kana_city":"ｼﾞｮｳｴﾂｼ","kana_address":"ｲｹ","pref":"新潟県","city":"上越市","address":"池"},
{"zip_code":"9430872","kana_pref":"ﾆｲｶﾞﾀｹﾝ","kana_city":"ｼﾞｮｳｴﾂｼ","kana_address":"ｲｼｻﾞﾜ","pref":"新潟県","city":"上越市","address":"石沢"},
{"zip_code":"9430186","kana_pref":"ﾆｲｶﾞﾀｹﾝ","kana_city":"ｼﾞｮｳｴﾂｼ","kana_address":"ｲﾁﾉｴ","pref":"新潟県","city":"上越市","address":"市野江"},
{"zip_code":"9430117","kana_pref":"ﾆｲｶﾞﾀｹﾝ","kana_city":"ｼﾞｮｳｴﾂｼ","kana_address":"ｲﾅ","pref":"新潟県","city":"上越市","address":"稲"},
{"zip_code":"9430154","kana_pref":"ﾆｲｶﾞﾀｹﾝ","kana_city":"ｼﾞｮｳｴﾂｼ","kana_address":"ｲﾅﾀﾞ","pref":"新潟県","city":"上越市","address":"稲田"},
{"zip_code":"9430425","kana_pref":"ﾆｲｶﾞﾀｹﾝ","kana_city":"ｼﾞｮｳｴﾂｼ","kana_address":"ｲﾅﾀﾞﾆ","pref":"新潟県","city":"上越市","address":"稲谷"},
{"zip_code":"9430874","kana_pref":"ﾆｲｶﾞﾀｹﾝ","kana_city":"ｼﾞｮｳｴﾂｼ","kana_address":"ｲﾅﾘ","pref":"新潟県","city":"上越市","address":"稲荷"},
{"zip_code":"9430129","kana_pref":"ﾆｲｶﾞﾀｹﾝ","kana_city":"ｼﾞｮｳｴﾂｼ","kana_address":"ｲﾊﾞﾗｻﾜ","pref":"新潟県","city":"上越市","address":"茨沢"},
{"zip_code":"9430145","kana_pref":"ﾆｲｶﾞﾀｹﾝ","kana_city":"ｼﾞｮｳｴﾂｼ","kana_address":"ｲﾏｲｹ","pref":"新潟県","city":"上越市","address":"今池"},
{"zip_code":"9430864","kana_pref":"ﾆｲｶﾞﾀｹﾝ","kana_city":"ｼﾞｮｳｴﾂｼ","kana_address":"ｲﾏｲｽﾞﾐ","pref":"新潟県","city":"上越市","address":"今泉"},
{"zip_code":"9430814","kana_pref":"ﾆｲｶﾞﾀｹﾝ","kana_city":"ｼﾞｮｳｴﾂｼ","kana_address":"ｲﾜｷ","pref":"新潟県","city":"上越市","address":"岩木"},
{"zip_code":"9430889","kana_pref":"ﾆｲｶﾞﾀｹﾝ","kana_city":"ｼﾞｮｳｴﾂｼ","kana_address":"ｳｼﾛﾀﾞﾆ","pref":"新潟県","city":"上越市","address":"後谷"},
{"zip_code":"9430818","kana_pref":"ﾆｲｶﾞﾀｹﾝ","kana_city":"ｼﾞｮｳｴﾂｼ","kana_address":"ｳﾂｵ","pref":"新潟県","city":"上越市","address":"宇津尾"},
{"zip_code":"9430414","kana_pref":"ﾆｲｶﾞﾀｹﾝ","kana_city":"ｼﾞｮｳｴﾂｼ","kana_address":"ｵｵｸﾁ","pref":"新潟県","city":"上越市","address":"大口"},
{"zip_code":"9430838","kana_pref":"ﾆｲｶﾞﾀｹﾝ","kana_city":"ｼﾞｮｳｴﾂｼ","kana_address":"ｵｵﾃﾏﾁ","pref":"新潟県","city":"上越市","address":"大手町"},
{"zip_code":"9430893","kana_pref":"ﾆｲｶﾞﾀｹﾝ","kana_city":"ｼﾞｮｳｴﾂｼ","kana_address":"ｵｵﾇｷ","pref":"新潟県","city":"上越市","address":"大貫"},
{"zip_code":"9430833","kana_pref":"ﾆｲｶﾞﾀｹﾝ","kana_city":"ｼﾞｮｳｴﾂｼ","kana_address":"ｵｵﾏﾁ","pref":"新潟県","city":"上越市","address":"大町"},
{"zip_code":"9430858","kana_pref":"ﾆｲｶﾞﾀｹﾝ","kana_city":"ｼﾞｮｳｴﾂｼ","kana_address":"ｵｶﾊﾞﾗ","pref":"新潟県","city":"上越市","address":"岡原"},
{"zip_code":"9430809","kana_pref":"ﾆｲｶﾞﾀｹﾝ","kana_city":"ｼﾞｮｳｴﾂｼ","kana_address":"ｶｽｶﾞ","pref":"新潟県","city":"上越市","address":"春日"},
{"zip_code":"9430803","kana_pref":"ﾆｲｶﾞﾀｹﾝ","kana_city":"ｼﾞｮｳｴﾂｼ","kana_address":"ｶｽｶﾞﾉ","pref":"新潟県","city":"上越市","address":"春日野"},
{"zip_code":"9430807","kana_pref":"ﾆｲｶﾞﾀｹﾝ","kana_city":"ｼﾞｮｳｴﾂｼ","kana_address":"ｶｽｶﾞﾔﾏﾏﾁ","pref":"新潟県","city":"上越市","address":"春日山町"},
{"zip_code":"9430113","kana_pref":"ﾆｲｶﾞﾀｹﾝ","kana_city":"ｼﾞｮｳｴﾂｼ","kana_address":"ｶﾐｲｹﾍﾞ","pref":"新潟県","city":"上越市","address":"上池部"},
{"zip_code":"9430168","kana_pref":"ﾆｲｶﾞﾀｹﾝ","kana_city":"ｼﾞｮｳｴﾂｼ","kana_address":"ｶﾐｲﾅﾀﾞ","pref":"新潟県","city":"上越市","address":"上稲田"},
{"zip_code":"9430165","kana_pref":"ﾆｲｶﾞﾀｹﾝ","kana_city":"ｼﾞｮｳｴﾂｼ","kana_address":"ｶﾐｼﾞﾏ","pref":"新潟県","city":"上越市","address":"上島"},
{"zip_code":"9430811","kana_pref":"ﾆｲｶﾞﾀｹﾝ","kana_city":"ｼﾞｮｳｴﾂｼ","kana_address":"ｶﾐｼｮｳｾﾞﾝｼﾞ","pref":"新潟県","city":"上越市","address":"上正善寺"},
{"zip_code":"9430894","kana_pref":"ﾆｲｶﾞﾀｹﾝ","kana_city":"ｼﾞｮｳｴﾂｼ","kana_address":"ｶﾐｼｮｳﾜﾏﾁ","pref":"新潟県","city":"上越市","address":"上昭和町"},
{"zip_code":"9430143","kana_pref":"ﾆｲｶﾞﾀｹﾝ","kana_city":"ｼﾞｮｳｴﾂｼ","kana_address":"ｶﾐｼﾝﾏﾁ","pref":"新潟県","city":"上越市","address":"上新町"},
{"zip_code":"9430424","kana_pref":"ﾆｲｶﾞﾀｹﾝ","kana_city":"ｼﾞｮｳｴﾂｼ","kana_address":"ｶﾐｿﾞﾈ","pref":"新潟県","city":"上越市","address":"上曾根"},
{"zip_code":"9430126","kana_pref":"ﾆｲｶﾞﾀｹﾝ","kana_city":"ｼﾞｮｳｴﾂｼ","kana_address":"ｶﾐﾄﾐｶﾞﾜ","pref":"新潟県","city":"上越市","address":"上富川"},
{"zip_code":"9430884","kana_pref":"ﾆｲｶﾞﾀｹﾝ","kana_city":"ｼﾞｮｳｴﾂｼ","kana_address":"ｶﾐﾅｶﾀﾞ","pref":"新潟県","city":"上越市","address":"上中田"},
{"zip_code":"9430112","kana_pref":"ﾆｲｶﾞﾀｹﾝ","kana_city":"ｼﾞｮｳｴﾂｼ","kana_address":"ｶﾐﾉﾀ","pref":"新潟県","city":"上越市","address":"上野田"},
{"zip_code":"9430856","kana_pref":"ﾆｲｶﾞﾀｹﾝ","kana_city":"ｼﾞｮｳｴﾂｼ","kana_address":"ｶﾐﾊｺｲ","pref":"新潟県","city":"上越市","address":"上箱井"},
{"zip_code":"9430101","kana_pref":"ﾆｲｶﾞﾀｹﾝ","kana_city":"ｼﾞｮｳｴﾂｼ","kana_address":"ｶﾐﾏﾅｺﾞ","pref":"新潟県","city":"上越市","address":"上真砂"},
{"zip_code":"9430876","kana_pref":"ﾆｲｶﾞﾀｹﾝ","kana_city":"ｼﾞｮｳｴﾂｼ","kana_address":"ｶﾐﾓﾝｾﾞﾝ","pref":"新潟県","city":"上越市","address":"上門前"},
{"zip_code":"9430839","kana_pref":"ﾆｲｶﾞﾀｹﾝ","kana_city":"ｼﾞｮｳｴﾂｼ","kana_address":"ｶﾐﾕﾀﾞﾆ","pref":"新潟県","city":"上越市","address":"上湯谷"},
{"zip_code":"9430153","kana_pref":"ﾆｲｶﾞﾀｹﾝ","kana_city":"ｼﾞｮｳｴﾂｼ","kana_address":"ｶﾓｼﾞﾏ","pref":"新潟県","city":"上越市","address":"鴨島"},
{"zip_code":"9430855","kana_pref":"ﾆｲｶﾞﾀｹﾝ","kana_city":"ｼﾞｮｳｴﾂｼ","kana_address":"ｷｼﾞﾏ","pref":"新潟県","city":"上越市","address":"木島"},
{"zip_code":"9430805","kana_pref":"ﾆｲｶﾞﾀｹﾝ","kana_city":"ｼﾞｮｳｴﾂｼ","kana_address":"ｷﾀﾞ","pref":"新潟県","city":"上越市","address":"木田"},
{"zip_code":"9430412","kana_pref":"ﾆｲｶﾞﾀｹﾝ","kana_city":"ｼﾞｮｳｴﾂｼ","kana_address":"ｷﾀｶﾞﾀ","pref":"新潟県","city":"上越市","address":"北方"},
{"zip_code":"9430824","kana_pref":"ﾆｲｶﾞﾀｹﾝ","kana_city":"ｼﾞｮｳｴﾂｼ","kana_address":"ｷﾀｼﾛﾁｮｳ","pref":"新潟県","city":"上越市","address":"北城町"},
{"zip_code":"9430806","kana_pref":"ﾆｲｶﾞﾀｹﾝ","kana_city":"ｼﾞｮｳｴﾂｼ","kana_address":"ｷﾀﾞｼﾝﾃﾞﾝ","pref":"新潟県","city":"上越市","address":"木田新田"},
{"zip_code":"9430109","kana_pref":"ﾆｲｶﾞﾀｹﾝ","kana_city":"ｼﾞｮｳｴﾂｼ","kana_address":"ｷﾀｼﾝﾎﾞ","pref":"新潟県","city":"上越市","address":"北新保"},
{"zip_code":"9430106","kana_pref":"ﾆｲｶﾞﾀｹﾝ","kana_city":"ｼﾞｮｳｴﾂｼ","kana_address":"ｷﾀﾀﾅｶ","pref":"新潟県","city":"上越市","address":"北田中"},
{"zip_code":"9430161","kana_pref":"ﾆｲｶﾞﾀｹﾝ","kana_city":"ｼﾞｮｳｴﾂｼ","kana_address":"ｷﾀﾀﾔｼﾝﾃﾞﾝ","pref":"新潟県","city":"上越市","address":"北田屋新田"},
{"zip_code":"9430828","kana_pref":"ﾆｲｶﾞﾀｹﾝ","kana_city":"ｼﾞｮｳｴﾂｼ","kana_address":"ｷﾀﾎﾝﾁｮｳ","pref":"新潟県","city":"上越市","address":"北本町"},
{"zip_code":"9430848","kana_pref":"ﾆｲｶﾞﾀｹﾝ","kana_city":"ｼﾞｮｳｴﾂｼ","kana_address":"ｷﾞﾐｮｳ","pref":"新潟県","city":"上越市","address":"儀明"},
{"zip_code":"9430881","kana_pref":"ﾆｲｶﾞﾀｹﾝ","kana_city":"ｼﾞｮｳｴﾂｼ","kana_address":"ｷｮｳﾃﾞﾝ","pref":"新潟県","city":"上越市","address":"京田"},
{"zip_code":"9430531","kana_pref":"ﾆｲｶﾞﾀｹﾝ","kana_city":"ｼﾞｮｳｴﾂｼ","kana_address":"ｷﾖｻﾄｸｱｵﾔﾅｷﾞ","pref":"新潟県","city":"上越市","address":"清里区青柳"},
{"zip_code":"9430527","kana_pref":"ﾆｲｶﾞﾀｹﾝ","kana_city":"ｼﾞｮｳｴﾂｼ","kana_address":"ｷﾖｻﾄｸｱｶｲｹ","pref":"新潟県","city":"上越市","address":"清里区赤池"},
{"zip_code":"9430502","kana_pref":"ﾆｲｶﾞﾀｹﾝ","kana_city":"ｼﾞｮｳｴﾂｼ","kana_address":"ｷﾖｻﾄｸｱﾗﾏｷ","pref":"新潟県","city":"上越市","address":"清里区荒牧"},
{"zip_code":"9430513","kana_pref":"ﾆｲｶﾞﾀｹﾝ","kana_city":"ｼﾞｮｳｴﾂｼ","kana_address":"ｷﾖｻﾄｸｲﾏｿﾞﾈ","pref":"新潟県","city":"上越市","address":"清里区今曽根"},
{"zip_code":"9430533","kana_pref":"ﾆｲｶﾞﾀｹﾝ","kana_city":"ｼﾞｮｳｴﾂｼ","kana_address":"ｷﾖｻﾄｸｳｸﾞｲｽｻﾜ","pref":"新潟県","city":"上越市","address":"清里区鶯沢"},
{"zip_code":"9430501","kana_pref":"ﾆｲｶﾞﾀｹﾝ","kana_city":"ｼﾞｮｳｴﾂｼ","kana_address":"ｷﾖｻﾄｸｵｶﾉﾏﾁ","pref":"新潟県","city":"上越市","address":"清里区岡野町"},
{"zip_code":"9430507","kana_pref":"ﾆｲｶﾞﾀｹﾝ","kana_city":"ｼﾞｮｳｴﾂｼ","kana_address":"ｷﾖｻﾄｸｵｶﾐﾈｼﾝﾃﾞﾝ","pref":"新潟県","city":"上越市","address":"清里区岡嶺新田"},
{"zip_code":"9430516","kana_pref":"ﾆｲｶﾞﾀｹﾝ","kana_city":"ｼﾞｮｳｴﾂｼ","kana_address":"ｷﾖｻﾄｸｶﾐｲﾅﾂﾞｶ","pref":"新潟県","city":"上越市","address":"清里区上稲塚"},
{"zip_code":"9430504","kana_pref":"ﾆｲｶﾞﾀｹﾝ","kana_city":"ｼﾞｮｳｴﾂｼ","kana_address":"ｷﾖｻﾄｸｶﾐﾀｼﾞﾏ","pref":"新潟県","city":"上越市","address":"清里区上田島"},
{"zip_code":"9430534","kana_pref":"ﾆｲｶﾞﾀｹﾝ","kana_city":"ｼﾞｮｳｴﾂｼ","kana_address":"ｷﾖｻﾄｸｶﾐﾅｶｼﾞｮｳ","pref":"新潟県","city":"上越市","address":"清里区上中条"},
{"zip_code":"9430503","kana_pref":"ﾆｲｶﾞﾀｹﾝ","kana_city":"ｼﾞｮｳｴﾂｼ","kana_address":"ｷﾖｻﾄｸｶﾐﾌｶｻﾜ","pref":"新潟県","city":"上越市","address":"清里区上深沢"},
{"zip_code":"9430525","kana_pref":"ﾆｲｶﾞﾀｹﾝ","kana_city":"ｼﾞｮｳｴﾂｼ","kana_address":"ｷﾖｻﾄｸｷﾀﾉ","pref":"新潟県","city":"上越市","address":"清里区北野"},
{"zip_code":"9430511","kana_pref":"ﾆｲｶﾞﾀｹﾝ","kana_city":"ｼﾞｮｳｴﾂｼ","kana_address":"ｷﾖｻﾄｸｼｵｿﾞﾈ","pref":"新潟県","city":"上越市","address":"清里区塩曽根"},
{"zip_code":"9430506","kana_pref":"ﾆｲｶﾞﾀｹﾝ","kana_city":"ｼﾞｮｳｴﾂｼ","kana_address":"ｷﾖｻﾄｸｽｶﾞﾊﾗ","pref":"新潟県","city":"上越市","address":"清里区菅原"},
{"zip_code":"9430535","kana_pref":"ﾆｲｶﾞﾀｹﾝ","kana_city":"ｼﾞｮｳｴﾂｼ","kana_address":"ｷﾖｻﾄｸｽｽﾞｸﾗ","pref":"新潟県","city":"上越市","address":"清里区鈴倉"},
{"zip_code":"9430523","kana_pref":"ﾆｲｶﾞﾀｹﾝ","kana_city":"ｼﾞｮｳｴﾂｼ","kana_address":"ｷﾖｻﾄｸﾀﾅﾀﾞ","pref":"新潟県","city":"上越市","address":"清里区棚田"},
{"zip_code":"9430521","kana_pref":"ﾆｲｶﾞﾀｹﾝ","kana_city":"ｼﾞｮｳｴﾂｼ","kana_address":"ｷﾖｻﾄｸﾃﾗﾜｷ","pref":"新潟県","city":"上越市","address":"清里区寺脇"},
{"zip_code":"9430532","kana_pref":"ﾆｲｶﾞﾀｹﾝ","kana_city":"ｼﾞｮｳｴﾂｼ","kana_address":"ｷﾖｻﾄｸﾅｼｸﾎﾞ","pref":"新潟県","city":"上越市","address":"清里区梨窪"},
{"zip_code":"9430526","kana_pref":"ﾆｲｶﾞﾀｹﾝ","kana_city":"ｼﾞｮｳｴﾂｼ","kana_address":"ｷﾖｻﾄｸﾅｼﾀﾞｲﾗ","pref":"新潟県","city":"上越市","address":"清里区梨平"},
{"zip_code":"9430522","kana_pref":"ﾆｲｶﾞﾀｹﾝ","kana_city":"ｼﾞｮｳｴﾂｼ","kana_address":"ｷﾖｻﾄｸﾋｶﾞｼﾄﾉ","pref":"新潟県","city":"上越市","address":"清里区東戸野"},
{"zip_code":"9430505","kana_pref":"ﾆｲｶﾞﾀｹﾝ","kana_city":"ｼﾞｮｳｴﾂｼ","kana_address":"ｷﾖｻﾄｸﾋｶﾞｼﾌｸｼﾏ","pref":"新潟県","city":"上越市","address":"清里区東福島"},
{"zip_code":"9430508","kana_pref":"ﾆｲｶﾞﾀｹﾝ","kana_city":"ｼﾞｮｳｴﾂｼ","kana_address":"ｷﾖｻﾄｸﾍｲｾｲ","pref":"新潟県","city":"上越市","address":"清里区平成"},
{"zip_code":"9430512","kana_pref":"ﾆｲｶﾞﾀｹﾝ","kana_city":"ｼﾞｮｳｴﾂｼ","kana_address":"ｷﾖｻﾄｸﾏﾔ","pref":"新潟県","city":"上越市","address":"清里区馬屋"},
{"zip_code":"9430524","kana_pref":"ﾆｲｶﾞﾀｹﾝ","kana_city":"ｼﾞｮｳｴﾂｼ","kana_address":"ｷﾖｻﾄｸﾐｽﾞｸｻ","pref":"新潟県","city":"上越市","address":"清里区水草"},
{"zip_code":"9430514","kana_pref":"ﾆｲｶﾞﾀｹﾝ","kana_city":"ｼﾞｮｳｴﾂｼ","kana_address":"ｷﾖｻﾄｸﾐﾅﾐﾀﾅｶ","pref":"新潟県","city":"上越市","address":"清里区南田中"},
{"zip_code":"9430510","kana_pref":"ﾆｲｶﾞﾀｹﾝ","kana_city":"ｼﾞｮｳｴﾂｼ","kana_address":"ｷﾖｻﾄｸﾐﾗｲ","pref":"新潟県","city":"上越市","address":"清里区みらい"},
{"zip_code":"9430515","kana_pref":"ﾆｲｶﾞﾀｹﾝ","kana_city":"ｼﾞｮｳｴﾂｼ","kana_address":"ｷﾖｻﾄｸﾓﾉﾉﾌ","pref":"新潟県","city":"上越市","address":"清里区武士"},
{"zip_code":"9430509","kana_pref":"ﾆｲｶﾞﾀｹﾝ","kana_city":"ｼﾞｮｳｴﾂｼ","kana_address":"ｷﾖｻﾄｸﾔﾖｲ","pref":"新潟県","city":"上越市","address":"清里区弥生"},
{"zip_code":"9430183","kana_pref":"ﾆｲｶﾞﾀｹﾝ","kana_city":"ｼﾞｮｳｴﾂｼ","kana_address":"ｷﾘﾊﾗ","pref":"新潟県","city":"上越市","address":"桐原"},
{"zip_code":"9430127","kana_pref":"ﾆｲｶﾞﾀｹﾝ","kana_city":"ｼﾞｮｳｴﾂｼ","kana_address":"ｸﾏﾂﾞｶ","pref":"新潟県","city":"上越市","address":"熊塚"},
{"zip_code":"9430885","kana_pref":"ﾆｲｶﾞﾀｹﾝ","kana_city":"ｼﾞｮｳｴﾂｼ","kana_address":"ｸﾛﾀﾞ","pref":"新潟県","city":"上越市","address":"黒田"},
{"zip_code":"9430823","kana_pref":"ﾆｲｶﾞﾀｹﾝ","kana_city":"ｼﾞｮｳｴﾂｼ","kana_address":"ｺｳﾄﾞﾁｮｳ","pref":"新潟県","city":"上越市","address":"高土町"},
{"zip_code":"9430421","kana_pref":"ﾆｲｶﾞﾀｹﾝ","kana_city":"ｼﾞｮｳｴﾂｼ","kana_address":"ｺｳﾜﾏﾁ","pref":"新潟県","city":"上越市","address":"高和町"},
{"zip_code":"9430842","kana_pref":"ﾆｲｶﾞﾀｹﾝ","kana_city":"ｼﾞｮｳｴﾂｼ","kana_address":"ｺﾞｶｼｮｼﾝﾃﾞﾝ","pref":"新潟県","city":"上越市","address":"五ケ所新田"},
{"zip_code":"9430877","kana_pref":"ﾆｲｶﾞﾀｹﾝ","kana_city":"ｼﾞｮｳｴﾂｼ","kana_address":"ｺﾀｷ","pref":"新潟県","city":"上越市","address":"小滝"},
{"zip_code":"9430895","kana_pref":"ﾆｲｶﾞﾀｹﾝ","kana_city":"ｼﾞｮｳｴﾂｼ","kana_address":"ｺﾞﾃﾝﾔﾏﾁｮｳ","pref":"新潟県","city":"上越市","address":"御殿山町"},
{"zip_code":"9430141","kana_pref":"ﾆｲｶﾞﾀｹﾝ","kana_city":"ｼﾞｮｳｴﾂｼ","kana_address":"ｺﾔｽ","pref":"新潟県","city":"上越市","address":"子安"},
{"zip_code":"9430148","kana_pref":"ﾆｲｶﾞﾀｹﾝ","kana_city":"ｼﾞｮｳｴﾂｼ","kana_address":"ｺﾔｽｼﾝﾃﾞﾝ","pref":"新潟県","city":"上越市","address":"子安新田"},
{"zip_code":"9430826","kana_pref":"ﾆｲｶﾞﾀｹﾝ","kana_city":"ｼﾞｮｳｴﾂｼ","kana_address":"ｻｲﾜｲﾁｮｳ","pref":"新潟県","city":"上越市","address":"幸町"},
{"zip_code":"9430827","kana_pref":"ﾆｲｶﾞﾀｹﾝ","kana_city":"ｼﾞｮｳｴﾂｼ","kana_address":"ｻｶｴﾏﾁ","pref":"新潟県","city":"上越市","address":"栄町"},
{"zip_code":"9430144","kana_pref":"ﾆｲｶﾞﾀｹﾝ","kana_city":"ｼﾞｮｳｴﾂｼ","kana_address":"ｻｸﾗﾁｮｳ","pref":"新潟県","city":"上越市","address":"桜町"},
{"zip_code":"9430221","kana_pref":"ﾆｲｶﾞﾀｹﾝ","kana_city":"ｼﾞｮｳｴﾂｼ","kana_address":"ｻﾝﾜｸｲﾅﾊﾗ","pref":"新潟県","city":"上越市","address":"三和区稲原"},
{"zip_code":"9430316","kana_pref":"ﾆｲｶﾞﾀｹﾝ","kana_city":"ｼﾞｮｳｴﾂｼ","kana_address":"ｻﾝﾜｸｲﾉｸﾁ","pref":"新潟県","city":"上越市","address":"三和区井ノ口"},
{"zip_code":"9430313","kana_pref":"ﾆｲｶﾞﾀｹﾝ","kana_city":"ｼﾞｮｳｴﾂｼ","kana_address":"ｻﾝﾜｸｲﾏﾎﾟ","pref":"新潟県","city":"上越市","address":"三和区今保"},
{"zip_code":"9430317","kana_pref":"ﾆｲｶﾞﾀｹﾝ","kana_city":"ｼﾞｮｳｴﾂｼ","kana_address":"ｻﾝﾜｸｳｷｼﾏ","pref":"新潟県","city":"上越市","address":"三和区浮島"},
{"zip_code":"9430314","kana_pref":"ﾆｲｶﾞﾀｹﾝ","kana_city":"ｼﾞｮｳｴﾂｼ","kana_address":"ｻﾝﾜｸｵｵ","pref":"新潟県","city":"上越市","address":"三和区大"},
{"zip_code":"9430305","kana_pref":"ﾆｲｶﾞﾀｹﾝ","kana_city":"ｼﾞｮｳｴﾂｼ","kana_address":"ｻﾝﾜｸｵｶﾀﾞ","pref":"新潟県","city":"上越市","address":"三和区岡田"},
{"zip_code":"9430231","kana_pref":"ﾆｲｶﾞﾀｹﾝ","kana_city":"ｼﾞｮｳｴﾂｼ","kana_address":"ｻﾝﾜｸｶﾓｲ","pref":"新潟県","city":"上越市","address":"三和区鴨井"},
{"zip_code":"9430224","kana_pref":"ﾆｲｶﾞﾀｹﾝ","kana_city":"ｼﾞｮｳｴﾂｼ","kana_address":"ｻﾝﾜｸｶﾜｳﾗ","pref":"新潟県","city":"上越市","address":"三和区川浦"},
{"zip_code":"9430301","kana_pref":"ﾆｲｶﾞﾀｹﾝ","kana_city":"ｼﾞｮｳｴﾂｼ","kana_address":"ｻﾝﾜｸｷﾀﾀﾞｲ","pref":"新潟県","city":"上越市","address":"三和区北代"},
{"zip_code":"9430235","kana_pref":"ﾆｲｶﾞﾀｹﾝ","kana_city":"ｼﾞｮｳｴﾂｼ","kana_address":"ｻﾝﾜｸｸﾎﾞ","pref":"新潟県","city":"上越市","address":"三和区窪"},
{"zip_code":"9430304","kana_pref":"ﾆｲｶﾞﾀｹﾝ","kana_city":"ｼﾞｮｳｴﾂｼ","kana_address":"ｻﾝﾜｸｸﾜｿﾞﾈ","pref":"新潟県","city":"上越市","address":"三和区桑曽根"},
{"zip_code":"9430311","kana_pref":"ﾆｲｶﾞﾀｹﾝ","kana_city":"ｼﾞｮｳｴﾂｼ","kana_address":"ｻﾝﾜｸｼﾏｸﾗ","pref":"新潟県","city":"上越市","address":"三和区島倉"},
{"zip_code":"9430307","kana_pref":"ﾆｲｶﾞﾀｹﾝ","kana_city":"ｼﾞｮｳｴﾂｼ","kana_address":"ｻﾝﾜｸｼﾓｼﾝﾎﾞ","pref":"新潟県","city":"上越市","address":"三和区下新保"},
{"zip_code":"9430312","kana_pref":"ﾆｲｶﾞﾀｹﾝ","kana_city":"ｼﾞｮｳｴﾂｼ","kana_address":"ｻﾝﾜｸｼﾓﾀｼﾞﾏ","pref":"新潟県","city":"上越市","address":"三和区下田島"},
{"zip_code":"9430222","kana_pref":"ﾆｲｶﾞﾀｹﾝ","kana_city":"ｼﾞｮｳｴﾂｼ","kana_address":"ｻﾝﾜｸｼﾓﾅｶ","pref":"新潟県","city":"上越市","address":"三和区下中"},
{"zip_code":"9430306","kana_pref":"ﾆｲｶﾞﾀｹﾝ","kana_city":"ｼﾞｮｳｴﾂｼ","kana_address":"ｻﾝﾜｸｼｮﾔﾏﾀﾞ","pref":"新潟県","city":"上越市","address":"三和区所山田"},
{"zip_code":"9430228","kana_pref":"ﾆｲｶﾞﾀｹﾝ","kana_city":"ｼﾞｮｳｴﾂｼ","kana_address":"ｻﾝﾜｸｼﾝﾒｲﾁｮｳ","pref":"新潟県","city":"上越市","address":"三和区神明町"},
{"zip_code":"9430223","kana_pref":"ﾆｲｶﾞﾀｹﾝ","kana_city":"ｼﾞｮｳｴﾂｼ","kana_address":"ｻﾝﾜｸﾀ","pref":"新潟県","city":"上越市","address":"三和区田"},
{"zip_code":"9430236","kana_pref":"ﾆｲｶﾞﾀｹﾝ","kana_city":"ｼﾞｮｳｴﾂｼ","kana_address":"ｻﾝﾜｸﾅｶﾉ","pref":"新潟県","city":"上越市","address":"三和区中野"},
{"zip_code":"9430225","kana_pref":"ﾆｲｶﾞﾀｹﾝ","kana_city":"ｼﾞｮｳｴﾂｼ","kana_address":"ｻﾝﾜｸﾉ","pref":"新潟県","city":"上越市","address":"三和区野"},
{"zip_code":"9430302","kana_pref":"ﾆｲｶﾞﾀｹﾝ","kana_city":"ｼﾞｮｳｴﾂｼ","kana_address":"ｻﾝﾜｸﾊﾗｲｻﾞﾜ","pref":"新潟県","city":"上越市","address":"三和区払沢"},
{"zip_code":"9430227","kana_pref":"ﾆｲｶﾞﾀｹﾝ","kana_city":"ｼﾞｮｳｴﾂｼ","kana_address":"ｻﾝﾜｸﾊﾞﾝﾏﾁ","pref":"新潟県","city":"上越市","address":"三和区番町"},
{"zip_code":"9430226","kana_pref":"ﾆｲｶﾞﾀｹﾝ","kana_city":"ｼﾞｮｳｴﾂｼ","kana_address":"ｻﾝﾜｸﾋﾖﾘﾁｮｳ","pref":"新潟県","city":"上越市","address":"三和区日和町"},
{"zip_code":"9430234","kana_pref":"ﾆｲｶﾞﾀｹﾝ","kana_city":"ｼﾞｮｳｴﾂｼ","kana_address":"ｻﾝﾜｸﾎｯｹｲｼﾞ","pref":"新潟県","city":"上越市","address":"三和区法花寺"},
{"zip_code":"9430233","kana_pref":"ﾆｲｶﾞﾀｹﾝ","kana_city":"ｼﾞｮｳｴﾂｼ","kana_address":"ｻﾝﾜｸﾐｽﾞｼﾅ","pref":"新潟県","city":"上越市","address":"三和区水科"},
{"zip_code":"9430232","kana_pref":"ﾆｲｶﾞﾀｹﾝ","kana_city":"ｼﾞｮｳｴﾂｼ","kana_address":"ｻﾝﾜｸﾐｽﾞﾖｼ","pref":"新潟県","city":"上越市","address":"三和区水吉"},
{"zip_code":"9430315","kana_pref":"ﾆｲｶﾞﾀｹﾝ","kana_city":"ｼﾞｮｳｴﾂｼ","kana_address":"ｻﾝﾜｸﾐﾑﾗｼﾝﾃﾞﾝ","pref":"新潟県","city":"上越市","address":"三和区三村新田"},
{"zip_code":"9430318","kana_pref":"ﾆｲｶﾞﾀｹﾝ","kana_city":"ｼﾞｮｳｴﾂｼ","kana_address":"ｻﾝﾜｸﾐﾔｻﾞｷｼﾝﾃﾞﾝ","pref":"新潟県","city":"上越市","address":"三和区宮崎新田"},
{"zip_code":"9430303","kana_pref":"ﾆｲｶﾞﾀｹﾝ","kana_city":"ｼﾞｮｳｴﾂｼ","kana_address":"ｻﾝﾜｸﾔﾏﾀｶﾂ","pref":"新潟県","city":"上越市","address":"三和区山高津"},
{"zip_code":"9430849","kana_pref":"ﾆｲｶﾞﾀｹﾝ","kana_city":"ｼﾞｮｳｴﾂｼ","kana_address":"ｼｵﾆﾀﾞﾆ","pref":"新潟県","city":"上越市","address":"塩荷谷"},
{"zip_code":"9430155","kana_pref":"ﾆｲｶﾞﾀｹﾝ","kana_city":"ｼﾞｮｳｴﾂｼ","kana_address":"ｼｶｼｮ","pref":"新潟県","city":"上越市","address":"四ケ所"},
{"zip_code":"9430865","kana_pref":"ﾆｲｶﾞﾀｹﾝ","kana_city":"ｼﾞｮｳｴﾂｼ","kana_address":"ｼﾁｶｼｮｼﾝﾃﾞﾝ","pref":"新潟県","city":"上越市","address":"七ケ所新田"},
{"zip_code":"9430875","kana_pref":"ﾆｲｶﾞﾀｹﾝ","kana_city":"ｼﾞｮｳｴﾂｼ","kana_address":"ｼﾞﾄｳｶﾞﾀ","pref":"新潟県","city":"上越市","address":"地頭方"},
{"zip_code":"9430853","kana_pref":"ﾆｲｶﾞﾀｹﾝ","kana_city":"ｼﾞｮｳｴﾂｼ","kana_address":"ｼﾏﾀﾞ","pref":"新潟県","city":"上越市","address":"島田"},
{"zip_code":"9430854","kana_pref":"ﾆｲｶﾞﾀｹﾝ","kana_city":"ｼﾞｮｳｴﾂｼ","kana_address":"ｼﾏﾀﾞｶﾐｼﾝﾃﾞﾝ","pref":"新潟県","city":"上越市","address":"島田上新田"},
{"zip_code":"9430852","kana_pref":"ﾆｲｶﾞﾀｹﾝ","kana_city":"ｼﾞｮｳｴﾂｼ","kana_address":"ｼﾏﾀﾞｼﾓｼﾝﾃﾞﾝ","pref":"新潟県","city":"上越市","address":"島田下新田"},
{"zip_code":"9430119","kana_pref":"ﾆｲｶﾞﾀｹﾝ","kana_city":"ｼﾞｮｳｴﾂｼ","kana_address":"ｼﾓｲｹﾍﾞ","pref":"新潟県","city":"上越市","address":"下池部"},
{"zip_code":"9430167","kana_pref":"ﾆｲｶﾞﾀｹﾝ","kana_city":"ｼﾞｮｳｴﾂｼ","kana_address":"ｼﾓｲﾅﾀﾞ","pref":"新潟県","city":"上越市","address":"下稲田"},
{"zip_code":"9430134","kana_pref":"ﾆｲｶﾞﾀｹﾝ","kana_city":"ｼﾞｮｳｴﾂｼ","kana_address":"ｼﾓｲﾅﾂﾞｶ","pref":"新潟県","city":"上越市","address":"下稲塚"},
{"zip_code":"9430813","kana_pref":"ﾆｲｶﾞﾀｹﾝ","kana_city":"ｼﾞｮｳｴﾂｼ","kana_address":"ｼﾓｼｮｳｾﾞﾝｼﾞ","pref":"新潟県","city":"上越市","address":"下正善寺"},
{"zip_code":"9430843","kana_pref":"ﾆｲｶﾞﾀｹﾝ","kana_city":"ｼﾞｮｳｴﾂｼ","kana_address":"ｼﾓｼﾝﾃﾞﾝ","pref":"新潟県","city":"上越市","address":"下新田"},
{"zip_code":"9430142","kana_pref":"ﾆｲｶﾞﾀｹﾝ","kana_city":"ｼﾞｮｳｴﾂｼ","kana_address":"ｼﾓｼﾝﾏﾁ","pref":"新潟県","city":"上越市","address":"下新町"},
{"zip_code":"9430426","kana_pref":"ﾆｲｶﾞﾀｹﾝ","kana_city":"ｼﾞｮｳｴﾂｼ","kana_address":"ｼﾓｿﾞﾈ","pref":"新潟県","city":"上越市","address":"下曾根"},
{"zip_code":"9430125","kana_pref":"ﾆｲｶﾞﾀｹﾝ","kana_city":"ｼﾞｮｳｴﾂｼ","kana_address":"ｼﾓﾄﾐｶﾞﾜ","pref":"新潟県","city":"上越市","address":"下富川"},
{"zip_code":"9430899","kana_pref":"ﾆｲｶﾞﾀｹﾝ","kana_city":"ｼﾞｮｳｴﾂｼ","kana_address":"ｼﾓﾅｶﾀﾞ","pref":"新潟県","city":"上越市","address":"下中田"},
{"zip_code":"9430111","kana_pref":"ﾆｲｶﾞﾀｹﾝ","kana_city":"ｼﾞｮｳｴﾂｼ","kana_address":"ｼﾓﾉﾀﾞ","pref":"新潟県","city":"上越市","address":"下野田"},
{"zip_code":"9430851","kana_pref":"ﾆｲｶﾞﾀｹﾝ","kana_city":"ｼﾞｮｳｴﾂｼ","kana_address":"ｼﾓﾊｺｲ","pref":"新潟県","city":"上越市","address":"下箱井"},
{"zip_code":"9430878","kana_pref":"ﾆｲｶﾞﾀｹﾝ","kana_city":"ｼﾞｮｳｴﾂｼ","kana_address":"ｼﾓﾊﾞﾊﾞ","pref":"新潟県","city":"上越市","address":"下馬場"},
{"zip_code":"9430135","kana_pref":"ﾆｲｶﾞﾀｹﾝ","kana_city":"ｼﾞｮｳｴﾂｼ","kana_address":"ｼﾓﾖﾂﾔ","pref":"新潟県","city":"上越市","address":"下四ツ屋"},
{"zip_code":"9430416","kana_pref":"ﾆｲｶﾞﾀｹﾝ","kana_city":"ｼﾞｮｳｴﾂｼ","kana_address":"ｼﾞｭｳﾆﾉｷ","pref":"新潟県","city":"上越市","address":"十二ノ木"},
{"zip_code":"9430124","kana_pref":"ﾆｲｶﾞﾀｹﾝ","kana_city":"ｼﾞｮｳｴﾂｼ","kana_address":"ｼﾞｮｳｳﾝｼﾞ","pref":"新潟県","city":"上越市","address":"上雲寺"},
{"zip_code":"9430891","kana_pref":"ﾆｲｶﾞﾀｹﾝ","kana_city":"ｼﾞｮｳｴﾂｼ","kana_address":"ｼｮｳﾜﾏﾁ","pref":"新潟県","city":"上越市","address":"昭和町"},
{"zip_code":"9430804","kana_pref":"ﾆｲｶﾞﾀｹﾝ","kana_city":"ｼﾞｮｳｴﾂｼ","kana_address":"ｼﾝｺｳﾁｮｳ","pref":"新潟県","city":"上越市","address":"新光町"},
{"zip_code":"9430147","kana_pref":"ﾆｲｶﾞﾀｹﾝ","kana_city":"ｼﾞｮｳｴﾂｼ","kana_address":"ｼﾝﾅﾝﾁｮｳ","pref":"新潟県","city":"上越市","address":"新南町"},
{"zip_code":"9430122","kana_pref":"ﾆｲｶﾞﾀｹﾝ","kana_city":"ｼﾞｮｳｴﾂｼ","kana_address":"ｼﾝﾎﾞｺｼﾝﾃﾞﾝ","pref":"新潟県","city":"上越市","address":"新保古新田"},
{"zip_code":"9430822","kana_pref":"ﾆｲｶﾞﾀｹﾝ","kana_city":"ｼﾞｮｳｴﾂｼ","kana_address":"ｼﾝﾏﾁ","pref":"新潟県","city":"上越市","address":"新町"},
{"zip_code":"9430102","kana_pref":"ﾆｲｶﾞﾀｹﾝ","kana_city":"ｼﾞｮｳｴﾂｼ","kana_address":"ｽｷﾞﾉﾌｸﾛ","pref":"新潟県","city":"上越市","address":"杉野袋"},
{"zip_code":"9430829","kana_pref":"ﾆｲｶﾞﾀｹﾝ","kana_city":"ｼﾞｮｳｴﾂｼ","kana_address":"ｽｽｷﾌﾞｸﾛ","pref":"新潟県","city":"上越市","address":"薄袋"},
{"zip_code":"9430107","kana_pref":"ﾆｲｶﾞﾀｹﾝ","kana_city":"ｼﾞｮｳｴﾂｼ","kana_address":"ｽﾜ","pref":"新潟県","city":"上越市","address":"諏訪"},
{"zip_code":"9430810","kana_pref":"ﾆｲｶﾞﾀｹﾝ","kana_city":"ｼﾞｮｳｴﾂｼ","kana_address":"ﾀﾞｲｶﾞｸﾏｴ","pref":"新潟県","city":"上越市","address":"大学前"},
{"zip_code":"9430802","kana_pref":"ﾆｲｶﾞﾀｹﾝ","kana_city":"ｼﾞｮｳｴﾂｼ","kana_address":"ﾀﾞｲｽﾞ","pref":"新潟県","city":"上越市","address":"大豆"},
{"zip_code":"9430172","kana_pref":"ﾆｲｶﾞﾀｹﾝ","kana_city":"ｼﾞｮｳｴﾂｼ","kana_address":"ﾀﾞｲﾄﾞｳﾌｸﾀﾞ","pref":"新潟県","city":"上越市","address":"大道福田"},
{"zip_code":"9430175","kana_pref":"ﾆｲｶﾞﾀｹﾝ","kana_city":"ｼﾞｮｳｴﾂｼ","kana_address":"ﾀﾞｲﾆﾁ","pref":"新潟県","city":"上越市","address":"大日"},
{"zip_code":"9430845","kana_pref":"ﾆｲｶﾞﾀｹﾝ","kana_city":"ｼﾞｮｳｴﾂｼ","kana_address":"ﾀｶﾀﾞｼﾝﾃﾞﾝ","pref":"新潟県","city":"上越市","address":"高田新田"},
{"zip_code":"9430423","kana_pref":"ﾆｲｶﾞﾀｹﾝ","kana_city":"ｼﾞｮｳｴﾂｼ","kana_address":"ﾀｶﾂ","pref":"新潟県","city":"上越市","address":"高津"},
{"zip_code":"9430182","kana_pref":"ﾆｲｶﾞﾀｹﾝ","kana_city":"ｼﾞｮｳｴﾂｼ","kana_address":"ﾀｶﾓﾘ","pref":"新潟県","city":"上越市","address":"高森"},
{"zip_code":"9430897","kana_pref":"ﾆｲｶﾞﾀｹﾝ","kana_city":"ｼﾞｮｳｴﾂｼ","kana_address":"ﾀｷﾃﾞﾗ","pref":"新潟県","city":"上越市","address":"滝寺"},
{"zip_code":"9430132","kana_pref":"ﾆｲｶﾞﾀｹﾝ","kana_city":"ｼﾞｮｳｴﾂｼ","kana_address":"ﾀﾂｵｼﾝﾃﾞﾝ","pref":"新潟県","city":"上越市","address":"辰尾新田"},
{"zip_code":"9430137","kana_pref":"ﾆｲｶﾞﾀｹﾝ","kana_city":"ｼﾞｮｳｴﾂｼ","kana_address":"ﾁｮｳｼﾞｬﾏﾁ","pref":"新潟県","city":"上越市","address":"長者町"},
{"zip_code":"9430898","kana_pref":"ﾆｲｶﾞﾀｹﾝ","kana_city":"ｼﾞｮｳｴﾂｼ","kana_address":"ﾂｶﾀﾞｼﾝﾃﾞﾝ","pref":"新潟県","city":"上越市","address":"塚田新田"},
{"zip_code":"9430821","kana_pref":"ﾆｲｶﾞﾀｹﾝ","kana_city":"ｼﾞｮｳｴﾂｼ","kana_address":"ﾂﾁﾊｼ","pref":"新潟県","city":"上越市","address":"土橋"},
{"zip_code":"9430115","kana_pref":"ﾆｲｶﾞﾀｹﾝ","kana_city":"ｼﾞｮｳｴﾂｼ","kana_address":"ﾂﾙｷﾞ","pref":"新潟県","city":"上越市","address":"劔"},
{"zip_code":"9430104","kana_pref":"ﾆｲｶﾞﾀｹﾝ","kana_city":"ｼﾞｮｳｴﾂｼ","kana_address":"ﾂﾙﾏﾁ","pref":"新潟県","city":"上越市","address":"鶴町"},
{"zip_code":"9430166","kana_pref":"ﾆｲｶﾞﾀｹﾝ","kana_city":"ｼﾞｮｳｴﾂｼ","kana_address":"ﾃﾗ","pref":"新潟県","city":"上越市","address":"寺"},
{"zip_code":"9430892","kana_pref":"ﾆｲｶﾞﾀｹﾝ","kana_city":"ｼﾞｮｳｴﾂｼ","kana_address":"ﾃﾗﾏﾁ","pref":"新潟県","city":"上越市","address":"寺町"},
{"zip_code":"9430859","kana_pref":"ﾆｲｶﾞﾀｹﾝ","kana_city":"ｼﾞｮｳｴﾂｼ","kana_address":"ﾃﾗﾏﾁ","pref":"新潟県","city":"上越市","address":"寺町"},
{"zip_code":"9430866","kana_pref":"ﾆｲｶﾞﾀｹﾝ","kana_city":"ｼﾞｮｳｴﾂｼ","kana_address":"ﾄﾞｱｲ","pref":"新潟県","city":"上越市","address":"土合"},
{"zip_code":"9430178","kana_pref":"ﾆｲｶﾞﾀｹﾝ","kana_city":"ｼﾞｮｳｴﾂｼ","kana_address":"ﾄﾉﾒ","pref":"新潟県","city":"上越市","address":"戸野目"},
{"zip_code":"9430176","kana_pref":"ﾆｲｶﾞﾀｹﾝ","kana_city":"ｼﾞｮｳｴﾂｼ","kana_address":"ﾄﾉﾒｺｼﾝﾃﾞﾝ","pref":"新潟県","city":"上越市","address":"戸野目古新田"},
{"zip_code":"9430173","kana_pref":"ﾆｲｶﾞﾀｹﾝ","kana_city":"ｼﾞｮｳｴﾂｼ","kana_address":"ﾄﾐｵｶ","pref":"新潟県","city":"上越市","address":"富岡"},
{"zip_code":"9430146","kana_pref":"ﾆｲｶﾞﾀｹﾝ","kana_city":"ｼﾞｮｳｴﾂｼ","kana_address":"ﾄﾖﾊﾞ","pref":"新潟県","city":"上越市","address":"樋場"},
{"zip_code":"9430185","kana_pref":"ﾆｲｶﾞﾀｹﾝ","kana_city":"ｼﾞｮｳｴﾂｼ","kana_address":"ﾅｶﾞｵﾓﾃ","pref":"新潟県","city":"上越市","address":"長面"},
{"zip_code":"9430812","kana_pref":"ﾆｲｶﾞﾀｹﾝ","kana_city":"ｼﾞｮｳｴﾂｼ","kana_address":"ﾅｶｼｮｳｾﾞﾝｼﾞ","pref":"新潟県","city":"上越市","address":"中正善寺"},
{"zip_code":"9430174","kana_pref":"ﾆｲｶﾞﾀｹﾝ","kana_city":"ｼﾞｮｳｴﾂｼ","kana_address":"ﾅｶﾀﾞｼﾝﾃﾞﾝ","pref":"新潟県","city":"上越市","address":"中田新田"},
{"zip_code":"9430882","kana_pref":"ﾆｲｶﾞﾀｹﾝ","kana_city":"ｼﾞｮｳｴﾂｼ","kana_address":"ﾅｶﾀﾞﾊﾗ","pref":"新潟県","city":"上越市","address":"中田原"},
{"zip_code":"9430883","kana_pref":"ﾆｲｶﾞﾀｹﾝ","kana_city":"ｼﾞｮｳｴﾂｼ","kana_address":"ﾅｶﾄﾞｵﾘﾏﾁ","pref":"新潟県","city":"上越市","address":"中通町"},
{"zip_code":"9430164","kana_pref":"ﾆｲｶﾞﾀｹﾝ","kana_city":"ｼﾞｮｳｴﾂｼ","kana_address":"ﾅｶﾅｶﾑﾗｼﾝﾃﾞﾝ","pref":"新潟県","city":"上越市","address":"中々村新田"},
{"zip_code":"9430857","kana_pref":"ﾆｲｶﾞﾀｹﾝ","kana_city":"ｼﾞｮｳｴﾂｼ","kana_address":"ﾅｶﾊｺｲ","pref":"新潟県","city":"上越市","address":"中箱井"},
{"zip_code":"9430831","kana_pref":"ﾆｲｶﾞﾀｹﾝ","kana_city":"ｼﾞｮｳｴﾂｼ","kana_address":"ﾅｶﾏﾁ","pref":"新潟県","city":"上越市","address":"仲町"},
{"zip_code":"9430801","kana_pref":"ﾆｲｶﾞﾀｹﾝ","kana_city":"ｼﾞｮｳｴﾂｼ","kana_address":"ﾅｶﾓﾝｾﾞﾝ","pref":"新潟県","city":"上越市","address":"中門前"},
{"zip_code":"9430819","kana_pref":"ﾆｲｶﾞﾀｹﾝ","kana_city":"ｼﾞｮｳｴﾂｼ","kana_address":"ﾅｶﾔｼｷ","pref":"新潟県","city":"上越市","address":"中屋敷"},
{"zip_code":"9430152","kana_pref":"ﾆｲｶﾞﾀｹﾝ","kana_city":"ｼﾞｮｳｴﾂｼ","kana_address":"ﾆｼｲﾁﾉｸﾁ","pref":"新潟県","city":"上越市","address":"西市野口"},
{"zip_code":"9430834","kana_pref":"ﾆｲｶﾞﾀｹﾝ","kana_city":"ｼﾞｮｳｴﾂｼ","kana_address":"ﾆｼｼﾛﾁｮｳ","pref":"新潟県","city":"上越市","address":"西城町"},
{"zip_code":"9430873","kana_pref":"ﾆｲｶﾞﾀｹﾝ","kana_city":"ｼﾞｮｳｴﾂｼ","kana_address":"ﾆｼﾀﾅｶ","pref":"新潟県","city":"上越市","address":"西田中"},
{"zip_code":"9430136","kana_pref":"ﾆｲｶﾞﾀｹﾝ","kana_city":"ｼﾞｮｳｴﾂｼ","kana_address":"ﾆｼﾏﾂﾉｷ","pref":"新潟県","city":"上越市","address":"西松野木"},
{"zip_code":"9430116","kana_pref":"ﾆｲｶﾞﾀｹﾝ","kana_city":"ｼﾞｮｳｴﾂｼ","kana_address":"ﾉｼﾞﾘ","pref":"新潟県","city":"上越市","address":"野尻"},
{"zip_code":"9430887","kana_pref":"ﾆｲｶﾞﾀｹﾝ","kana_city":"ｼﾞｮｳｴﾂｼ","kana_address":"ﾊｲﾂﾞｶ","pref":"新潟県","city":"上越市","address":"灰塚"},
{"zip_code":"9430118","kana_pref":"ﾆｲｶﾞﾀｹﾝ","kana_city":"ｼﾞｮｳｴﾂｼ","kana_address":"ﾋｶﾞｼｲﾁﾉｸﾁ","pref":"新潟県","city":"上越市","address":"東市野口"},
{"zip_code":"9430133","kana_pref":"ﾆｲｶﾞﾀｹﾝ","kana_city":"ｼﾞｮｳｴﾂｼ","kana_address":"ﾋｶﾞｼｲﾅﾂﾞｶｼﾝﾃﾞﾝ","pref":"新潟県","city":"上越市","address":"東稲塚新田"},
{"zip_code":"9430415","kana_pref":"ﾆｲｶﾞﾀｹﾝ","kana_city":"ｼﾞｮｳｴﾂｼ","kana_address":"ﾋｶﾞｼｷｮｳﾃﾞﾝ","pref":"新潟県","city":"上越市","address":"東京田"},
{"zip_code":"9430836","kana_pref":"ﾆｲｶﾞﾀｹﾝ","kana_city":"ｼﾞｮｳｴﾂｼ","kana_address":"ﾋｶﾞｼｼﾛﾁｮｳ","pref":"新潟県","city":"上越市","address":"東城町"},
{"zip_code":"9430105","kana_pref":"ﾆｲｶﾞﾀｹﾝ","kana_city":"ｼﾞｮｳｴﾂｼ","kana_address":"ﾋｶﾞｼﾊﾗ","pref":"新潟県","city":"上越市","address":"東原"},
{"zip_code":"9430825","kana_pref":"ﾆｲｶﾞﾀｹﾝ","kana_city":"ｼﾞｮｳｴﾂｼ","kana_address":"ﾋｶﾞｼﾎﾝﾁｮｳ","pref":"新潟県","city":"上越市","address":"東本町"},
{"zip_code":"9430163","kana_pref":"ﾆｲｶﾞﾀｹﾝ","kana_city":"ｼﾞｮｳｴﾂｼ","kana_address":"ﾋﾗｵｶ","pref":"新潟県","city":"上越市","address":"平岡"},
{"zip_code":"9430816","kana_pref":"ﾆｲｶﾞﾀｹﾝ","kana_city":"ｼﾞｮｳｴﾂｼ","kana_address":"ﾌｼﾞｼﾝﾃﾞﾝ","pref":"新潟県","city":"上越市","address":"藤新田"},
{"zip_code":"9430121","kana_pref":"ﾆｲｶﾞﾀｹﾝ","kana_city":"ｼﾞｮｳｴﾂｼ","kana_address":"ﾌｼﾞﾂﾞｶ","pref":"新潟県","city":"上越市","address":"藤塚"},
{"zip_code":"9430171","kana_pref":"ﾆｲｶﾞﾀｹﾝ","kana_city":"ｼﾞｮｳｴﾂｼ","kana_address":"ﾌｼﾞﾉｼﾝﾃﾞﾝ","pref":"新潟県","city":"上越市","address":"藤野新田"},
{"zip_code":"9430817","kana_pref":"ﾆｲｶﾞﾀｹﾝ","kana_city":"ｼﾞｮｳｴﾂｼ","kana_address":"ﾌｼﾞﾏｷ","pref":"新潟県","city":"上越市","address":"藤巻"},
{"zip_code":"9430151","kana_pref":"ﾆｲｶﾞﾀｹﾝ","kana_city":"ｼﾞｮｳｴﾂｼ","kana_address":"ﾍｲｾｲﾁｮｳ","pref":"新潟県","city":"上越市","address":"平成町"},
{"zip_code":"9430123","kana_pref":"ﾆｲｶﾞﾀｹﾝ","kana_city":"ｼﾞｮｳｴﾂｼ","kana_address":"ﾎﾝｼﾝﾎﾞ","pref":"新潟県","city":"上越市","address":"本新保"},
{"zip_code":"9430832","kana_pref":"ﾆｲｶﾞﾀｹﾝ","kana_city":"ｼﾞｮｳｴﾂｼ","kana_address":"ﾎﾝﾁｮｳ","pref":"新潟県","city":"上越市","address":"本町"},
{"zip_code":"9430184","kana_pref":"ﾆｲｶﾞﾀｹﾝ","kana_city":"ｼﾞｮｳｴﾂｼ","kana_address":"ﾎﾝﾄﾞｳ","pref":"新潟県","city":"上越市","address":"本道"},
{"zip_code":"9430642","kana_pref":"ﾆｲｶﾞﾀｹﾝ","kana_city":"ｼﾞｮｳｴﾂｼ","kana_address":"ﾏｷｸｱﾗｲ","pref":"新潟県","city":"上越市","address":"牧区荒井"},
{"zip_code":"9430645","kana_pref":"ﾆｲｶﾞﾀｹﾝ","kana_city":"ｼﾞｮｳｴﾂｼ","kana_address":"ﾏｷｸｲｹﾌﾈ","pref":"新潟県","city":"上越市","address":"牧区池舟"},
{"zip_code":"9430617","kana_pref":"ﾆｲｶﾞﾀｹﾝ","kana_city":"ｼﾞｮｳｴﾂｼ","kana_address":"ﾏｷｸｲｽﾞﾐ","pref":"新潟県","city":"上越市","address":"牧区泉"},
{"zip_code":"9430615","kana_pref":"ﾆｲｶﾞﾀｹﾝ","kana_city":"ｼﾞｮｳｴﾂｼ","kana_address":"ﾏｷｸｲﾏｼﾐｽﾞ","pref":"新潟県","city":"上越市","address":"牧区今清水"},
{"zip_code":"9430635","kana_pref":"ﾆｲｶﾞﾀｹﾝ","kana_city":"ｼﾞｮｳｴﾂｼ","kana_address":"ﾏｷｸｲﾜｶﾞﾐ","pref":"新潟県","city":"上越市","address":"牧区岩神"},
{"zip_code":"9430623","kana_pref":"ﾆｲｶﾞﾀｹﾝ","kana_city":"ｼﾞｮｳｴﾂｼ","kana_address":"ﾏｷｸｳﾂﾉﾏﾀ","pref":"新潟県","city":"上越市","address":"牧区宇津俣"},
{"zip_code":"9430606","kana_pref":"ﾆｲｶﾞﾀｹﾝ","kana_city":"ｼﾞｮｳｴﾂｼ","kana_address":"ﾏｷｸｵｵﾂｷ","pref":"新潟県","city":"上越市","address":"牧区大月"},
{"zip_code":"9430648","kana_pref":"ﾆｲｶﾞﾀｹﾝ","kana_city":"ｼﾞｮｳｴﾂｼ","kana_address":"ﾏｷｸｵｶﾞﾜ","pref":"新潟県","city":"上越市","address":"牧区小川"},
{"zip_code":"9430646","kana_pref":"ﾆｲｶﾞﾀｹﾝ","kana_city":"ｼﾞｮｳｴﾂｼ","kana_address":"ﾏｷｸｵﾁﾀﾞ","pref":"新潟県","city":"上越市","address":"牧区落田"},
{"zip_code":"9430616","kana_pref":"ﾆｲｶﾞﾀｹﾝ","kana_city":"ｼﾞｮｳｴﾂｼ","kana_address":"ﾏｷｸｶｼﾀﾞﾆ","pref":"新潟県","city":"上越市","address":"牧区樫谷"},
{"zip_code":"9430611","kana_pref":"ﾆｲｶﾞﾀｹﾝ","kana_city":"ｼﾞｮｳｴﾂｼ","kana_address":"ﾏｷｸｶﾀﾏﾁ","pref":"新潟県","city":"上越市","address":"牧区片町"},
{"zip_code":"9430632","kana_pref":"ﾆｲｶﾞﾀｹﾝ","kana_city":"ｼﾞｮｳｴﾂｼ","kana_address":"ﾏｷｸｶﾐﾋﾞﾘｺﾞ","pref":"新潟県","city":"上越市","address":"牧区上昆子"},
{"zip_code":"9430625","kana_pref":"ﾆｲｶﾞﾀｹﾝ","kana_city":"ｼﾞｮｳｴﾂｼ","kana_address":"ﾏｷｸｶﾐﾏｷ","pref":"新潟県","city":"上越市","address":"牧区上牧"},
{"zip_code":"9430605","kana_pref":"ﾆｲｶﾞﾀｹﾝ","kana_city":"ｼﾞｮｳｴﾂｼ","kana_address":"ﾏｷｸｶﾐﾔ","pref":"新潟県","city":"上越市","address":"牧区神谷"},
{"zip_code":"9430607","kana_pref":"ﾆｲｶﾞﾀｹﾝ","kana_city":"ｼﾞｮｳｴﾂｼ","kana_address":"ﾏｷｸｶﾜｲｻﾞﾜ","pref":"新潟県","city":"上越市","address":"牧区川井沢"},
{"zip_code":"9430626","kana_pref":"ﾆｲｶﾞﾀｹﾝ","kana_city":"ｼﾞｮｳｴﾂｼ","kana_address":"ﾏｷｸｸﾗｼﾀ","pref":"新潟県","city":"上越市","address":"牧区倉下"},
{"zip_code":"9430636","kana_pref":"ﾆｲｶﾞﾀｹﾝ","kana_city":"ｼﾞｮｳｴﾂｼ","kana_address":"ﾏｷｸｺｸｶﾞﾜ","pref":"新潟県","city":"上越市","address":"牧区国川"},
{"zip_code":"9430637","kana_pref":"ﾆｲｶﾞﾀｹﾝ","kana_city":"ｼﾞｮｳｴﾂｼ","kana_address":"ﾏｷｸｻｸﾗﾀｷ","pref":"新潟県","city":"上越市","address":"牧区桜滝"},
{"zip_code":"9430633","kana_pref":"ﾆｲｶﾞﾀｹﾝ","kana_city":"ｼﾞｮｳｴﾂｼ","kana_address":"ﾏｷｸｼﾓﾋﾞﾘｺﾞ","pref":"新潟県","city":"上越市","address":"牧区下昆子"},
{"zip_code":"9430631","kana_pref":"ﾆｲｶﾞﾀｹﾝ","kana_city":"ｼﾞｮｳｴﾂｼ","kana_address":"ﾏｷｸｼﾓﾕｳﾔ","pref":"新潟県","city":"上越市","address":"牧区下湯谷"},
{"zip_code":"9430614","kana_pref":"ﾆｲｶﾞﾀｹﾝ","kana_city":"ｼﾞｮｳｴﾂｼ","kana_address":"ﾏｷｸｾｯｺｳ","pref":"新潟県","city":"上越市","address":"牧区切光"},
{"zip_code":"9430603","kana_pref":"ﾆｲｶﾞﾀｹﾝ","kana_city":"ｼﾞｮｳｴﾂｼ","kana_address":"ﾏｷｸﾀｲﾗﾔﾏ","pref":"新潟県","city":"上越市","address":"牧区平山"},
{"zip_code":"9430621","kana_pref":"ﾆｲｶﾞﾀｹﾝ","kana_city":"ｼﾞｮｳｴﾂｼ","kana_address":"ﾏｷｸﾀｶｵ","pref":"新潟県","city":"上越市","address":"牧区高尾"},
{"zip_code":"9430613","kana_pref":"ﾆｲｶﾞﾀｹﾝ","kana_city":"ｼﾞｮｳｴﾂｼ","kana_address":"ﾏｷｸﾀｶﾀﾆ","pref":"新潟県","city":"上越市","address":"牧区高谷"},
{"zip_code":"9430634","kana_pref":"ﾆｲｶﾞﾀｹﾝ","kana_city":"ｼﾞｮｳｴﾂｼ","kana_address":"ﾏｷｸﾀｼﾞﾏ","pref":"新潟県","city":"上越市","address":"牧区田島"},
{"zip_code":"9430628","kana_pref":"ﾆｲｶﾞﾀｹﾝ","kana_city":"ｼﾞｮｳｴﾂｼ","kana_address":"ﾏｷｸﾀﾅﾋﾛ","pref":"新潟県","city":"上越市","address":"牧区棚広"},
{"zip_code":"9430622","kana_pref":"ﾆｲｶﾞﾀｹﾝ","kana_city":"ｼﾞｮｳｴﾂｼ","kana_address":"ﾏｷｸﾀﾅﾋﾛｼﾝﾃﾞﾝ","pref":"新潟県","city":"上越市","address":"牧区棚広新田"},
{"zip_code":"9430601","kana_pref":"ﾆｲｶﾞﾀｹﾝ","kana_city":"ｼﾞｮｳｴﾂｼ","kana_address":"ﾏｷｸﾂﾎﾞﾔﾏ","pref":"新潟県","city":"上越市","address":"牧区坪山"},
{"zip_code":"9430604","kana_pref":"ﾆｲｶﾞﾀｹﾝ","kana_city":"ｼﾞｮｳｴﾂｼ","kana_address":"ﾏｷｸﾅﾅﾓﾘ","pref":"新潟県","city":"上越市","address":"牧区七森"},
{"zip_code":"9430627","kana_pref":"ﾆｲｶﾞﾀｹﾝ","kana_city":"ｼﾞｮｳｴﾂｼ","kana_address":"ﾏｷｸﾊﾗ","pref":"新潟県","city":"上越市","address":"牧区原"},
{"zip_code":"9430641","kana_pref":"ﾆｲｶﾞﾀｹﾝ","kana_city":"ｼﾞｮｳｴﾂｼ","kana_address":"ﾏｷｸﾋｶﾞｼﾏﾂﾉｷ","pref":"新潟県","city":"上越市","address":"牧区東松ノ木"},
{"zip_code":"9430602","kana_pref":"ﾆｲｶﾞﾀｹﾝ","kana_city":"ｼﾞｮｳｴﾂｼ","kana_address":"ﾏｷｸﾋﾗｶﾀ","pref":"新潟県","city":"上越市","address":"牧区平方"},
{"zip_code":"9430624","kana_pref":"ﾆｲｶﾞﾀｹﾝ","kana_city":"ｼﾞｮｳｴﾂｼ","kana_address":"ﾏｷｸﾌﾄﾞﾉ","pref":"新潟県","city":"上越市","address":"牧区府殿"},
{"zip_code":"9430644","kana_pref":"ﾆｲｶﾞﾀｹﾝ","kana_city":"ｼﾞｮｳｴﾂｼ","kana_address":"ﾏｷｸﾐﾔｸﾞﾁ","pref":"新潟県","city":"上越市","address":"牧区宮口"},
{"zip_code":"9430647","kana_pref":"ﾆｲｶﾞﾀｹﾝ","kana_city":"ｼﾞｮｳｴﾂｼ","kana_address":"ﾏｷｸﾔﾅｷﾞｼﾏ","pref":"新潟県","city":"上越市","address":"牧区柳島"},
{"zip_code":"9430643","kana_pref":"ﾆｲｶﾞﾀｹﾝ","kana_city":"ｼﾞｮｳｴﾂｼ","kana_address":"ﾏｷｸﾔﾏｸﾞﾁ","pref":"新潟県","city":"上越市","address":"牧区山口"},
{"zip_code":"9430612","kana_pref":"ﾆｲｶﾞﾀｹﾝ","kana_city":"ｼﾞｮｳｴﾂｼ","kana_address":"ﾏｷｸﾖｼﾂﾎﾞ","pref":"新潟県","city":"上越市","address":"牧区吉坪"},
{"zip_code":"9430844","kana_pref":"ﾆｲｶﾞﾀｹﾝ","kana_city":"ｼﾞｮｳｴﾂｼ","kana_address":"ﾏﾙﾔﾏｼﾝﾃﾞﾝ","pref":"新潟県","city":"上越市","address":"丸山新田"},
{"zip_code":"9430413","kana_pref":"ﾆｲｶﾞﾀｹﾝ","kana_city":"ｼﾞｮｳｴﾂｼ","kana_address":"ﾐﾅﾐｶﾞﾀ","pref":"新潟県","city":"上越市","address":"南方"},
{"zip_code":"9430837","kana_pref":"ﾆｲｶﾞﾀｹﾝ","kana_city":"ｼﾞｮｳｴﾂｼ","kana_address":"ﾐﾅﾐｼﾛﾁｮｳ","pref":"新潟県","city":"上越市","address":"南城町"},
{"zip_code":"9430108","kana_pref":"ﾆｲｶﾞﾀｹﾝ","kana_city":"ｼﾞｮｳｴﾂｼ","kana_address":"ﾐﾅﾐｼﾝﾎﾞ","pref":"新潟県","city":"上越市","address":"南新保"},
{"zip_code":"9430847","kana_pref":"ﾆｲｶﾞﾀｹﾝ","kana_city":"ｼﾞｮｳｴﾂｼ","kana_address":"ﾐﾅﾐｼﾝﾏﾁ","pref":"新潟県","city":"上越市","address":"南新町"},
{"zip_code":"9430846","kana_pref":"ﾆｲｶﾞﾀｹﾝ","kana_city":"ｼﾞｮｳｴﾂｼ","kana_address":"ﾐﾅﾐﾀｶﾀﾞﾏﾁ","pref":"新潟県","city":"上越市","address":"南高田町"},
{"zip_code":"9430162","kana_pref":"ﾆｲｶﾞﾀｹﾝ","kana_city":"ｼﾞｮｳｴﾂｼ","kana_address":"ﾐﾅﾐﾀﾔｼﾝﾃﾞﾝ","pref":"新潟県","city":"上越市","address":"南田屋新田"},
{"zip_code":"9430841","kana_pref":"ﾆｲｶﾞﾀｹﾝ","kana_city":"ｼﾞｮｳｴﾂｼ","kana_address":"ﾐﾅﾐﾎﾝﾁｮｳ","pref":"新潟県","city":"上越市","address":"南本町"},
{"zip_code":"9430808","kana_pref":"ﾆｲｶﾞﾀｹﾝ","kana_city":"ｼﾞｮｳｴﾂｼ","kana_address":"ﾐﾔﾉｵ","pref":"新潟県","city":"上越市","address":"宮野尾"},
{"zip_code":"9430411","kana_pref":"ﾆｲｶﾞﾀｹﾝ","kana_city":"ｼﾞｮｳｴﾂｼ","kana_address":"ﾐｮｳﾕ","pref":"新潟県","city":"上越市","address":"妙油"},
{"zip_code":"9430888","kana_pref":"ﾆｲｶﾞﾀｹﾝ","kana_city":"ｼﾞｮｳｴﾂｼ","kana_address":"ﾑｶﾊﾞｼ","pref":"新潟県","city":"上越市","address":"向橋"},
{"zip_code":"9430181","kana_pref":"ﾆｲｶﾞﾀｹﾝ","kana_city":"ｼﾞｮｳｴﾂｼ","kana_address":"ﾑｼｶﾜ","pref":"新潟県","city":"上越市","address":"虫川"},
{"zip_code":"9430835","kana_pref":"ﾆｲｶﾞﾀｹﾝ","kana_city":"ｼﾞｮｳｴﾂｼ","kana_address":"ﾓﾄｼﾛﾁｮｳ","pref":"新潟県","city":"上越市","address":"本城町"},
{"zip_code":"9430138","kana_pref":"ﾆｲｶﾞﾀｹﾝ","kana_city":"ｼﾞｮｳｴﾂｼ","kana_address":"ﾓﾄﾁｮｳｼﾞｬﾊﾗ","pref":"新潟県","city":"上越市","address":"本長者原"},
{"zip_code":"9430427","kana_pref":"ﾆｲｶﾞﾀｹﾝ","kana_city":"ｼﾞｮｳｴﾂｼ","kana_address":"ﾓﾄﾔｼｷ","pref":"新潟県","city":"上越市","address":"元屋敷"},
{"zip_code":"9430417","kana_pref":"ﾆｲｶﾞﾀｹﾝ","kana_city":"ｼﾞｮｳｴﾂｼ","kana_address":"ﾓﾘﾀ","pref":"新潟県","city":"上越市","address":"森田"},
{"zip_code":"9430177","kana_pref":"ﾆｲｶﾞﾀｹﾝ","kana_city":"ｼﾞｮｳｴﾂｼ","kana_address":"ﾓﾝﾃﾞﾝｼﾝﾃﾞﾝ","pref":"新潟県","city":"上越市","address":"門田新田"},
{"zip_code":"9430131","kana_pref":"ﾆｲｶﾞﾀｹﾝ","kana_city":"ｼﾞｮｳｴﾂｼ","kana_address":"ﾔﾌﾞﾉ","pref":"新潟県","city":"上越市","address":"薮野"},
{"zip_code":"9430861","kana_pref":"ﾆｲｶﾞﾀｹﾝ","kana_city":"ｼﾞｮｳｴﾂｼ","kana_address":"ﾔﾏﾄ","pref":"新潟県","city":"上越市","address":"大和"},
{"zip_code":"9430815","kana_pref":"ﾆｲｶﾞﾀｹﾝ","kana_city":"ｼﾞｮｳｴﾂｼ","kana_address":"ﾔﾏﾔｼｷﾏﾁ","pref":"新潟県","city":"上越市","address":"山屋敷町"},
{"zip_code":"9430114","kana_pref":"ﾆｲｶﾞﾀｹﾝ","kana_city":"ｼﾞｮｳｴﾂｼ","kana_address":"ﾖｼｵｶ","pref":"新潟県","city":"上越市","address":"吉岡"},
{"zip_code":"9430201","kana_pref":"ﾆｲｶﾞﾀｹﾝ","kana_city":"ｼﾞｮｳｴﾂｼ","kana_address":"ﾖﾂｼﾞﾏﾁ","pref":"新潟県","city":"上越市","address":"四辻町"},
{"zip_code":"9430103","kana_pref":"ﾆｲｶﾞﾀｹﾝ","kana_city":"ｼﾞｮｳｴﾂｼ","kana_address":"ﾖﾈｵｶ","pref":"新潟県","city":"上越市","address":"米岡"},
{"zip_code":"9430863","kana_pref":"ﾆｲｶﾞﾀｹﾝ","kana_city":"ｼﾞｮｳｴﾂｼ","kana_address":"ﾜｷﾉﾀﾞ","pref":"新潟県","city":"上越市","address":"脇野田"}]}