{"zip_code":[
{"zip_code":"9440000","kana_pref":"ﾆｲｶﾞﾀｹﾝ","kana_city":"ﾐｮｳｺｳｼ","kana_address":"","pref":"新潟県","city":"妙高市","address":""},
{"zip_code":"9440091","kana_pref":"ﾆｲｶﾞﾀｹﾝ","kana_city":"ﾐｮｳｺｳｼ","kana_address":"ｱｵﾀ","pref":"新潟県","city":"妙高市","address":"青田"},
{"zip_code":"9440043","kana_pref":"ﾆｲｶﾞﾀｹﾝ","kana_city":"ﾐｮｳｺｳｼ","kana_address":"ｱｻﾋﾁｮｳ","pref":"新潟県","city":"妙高市","address":"朝日町"},
{"zip_code":"9440041","kana_pref":"ﾆｲｶﾞﾀｹﾝ","kana_city":"ﾐｮｳｺｳｼ","kana_address":"ｱﾗｲ","pref":"新潟県","city":"妙高市","address":"新井"},
{"zip_code":"9440054","kana_pref":"ﾆｲｶﾞﾀｹﾝ","kana_city":"ﾐｮｳｺｳｼ","kana_address":"ｱﾗｲｼﾝﾃﾞﾝ","pref":"新潟県","city":"妙高市","address":"新井新田"},
{"zip_code":"9440011","kana_pref":"ﾆｲｶﾞﾀｹﾝ","kana_city":"ﾐｮｳｺｳｼ","kana_address":"ｲｼﾂﾞｶﾁｮｳ","pref":"新潟県","city":"妙高市","address":"石塚町"},
{"zip_code":"9440084","kana_pref":"ﾆｲｶﾞﾀｹﾝ","kana_city":"ﾐｮｳｺｳｼ","kana_address":"ｲﾂｶｲﾁ","pref":"新潟県","city":"妙高市","address":"五日市"},
{"zip_code":"9440006","kana_pref":"ﾆｲｶﾞﾀｹﾝ","kana_city":"ﾐｮｳｺｳｼ","kana_address":"ｲﾅﾂﾞｶ","pref":"新潟県","city":"妙高市","address":"稲塚"},
{"zip_code":"9440075","kana_pref":"ﾆｲｶﾞﾀｹﾝ","kana_city":"ﾐｮｳｺｳｼ","kana_address":"ｲﾉﾔﾏ","pref":"新潟県","city":"妙高市","address":"猪野山"},
{"zip_code":"9440032","kana_pref":"ﾆｲｶﾞﾀｹﾝ","kana_city":"ﾐｮｳｺｳｼ","kana_address":"ｵｲｽﾞﾓ","pref":"新潟県","city":"妙高市","address":"小出雲"},
{"zip_code":"9440215","kana_pref":"ﾆｲｶﾞﾀｹﾝ","kana_city":"ﾐｮｳｺｳｼ","kana_address":"ｵｵｶﾞｲ","pref":"新潟県","city":"妙高市","address":"大貝"},
{"zip_code":"9440006","kana_pref":"ﾆｲｶﾞﾀｹﾝ","kana_city":"ﾐｮｳｺｳｼ","kana_address":"ｵｵｻｷﾁｮｳ","pref":"新潟県","city":"妙高市","address":"大崎町"},
{"zip_code":"9440333","kana_pref":"ﾆｲｶﾞﾀｹﾝ","kana_city":"ﾐｮｳｺｳｼ","kana_address":"ｵｵｻﾜｼﾝﾃﾞﾝ","pref":"新潟県","city":"妙高市","address":"大沢新田"},
{"zip_code":"9440216","kana_pref":"ﾆｲｶﾞﾀｹﾝ","kana_city":"ﾐｮｳｺｳｼ","kana_address":"ｵｵｼﾓ","pref":"新潟県","city":"妙高市","address":"大下"},
{"zip_code":"9440224","kana_pref":"ﾆｲｶﾞﾀｹﾝ","kana_city":"ﾐｮｳｺｳｼ","kana_address":"ｵｵﾆｺﾞﾘ","pref":"新潟県","city":"妙高市","address":"大濁"},
{"zip_code":"9440332","kana_pref":"ﾆｲｶﾞﾀｹﾝ","kana_city":"ﾐｮｳｺｳｼ","kana_address":"ｵｵﾊﾗｼﾝﾃﾞﾝ","pref":"新潟県","city":"妙高市","address":"大原新田"},
{"zip_code":"9440094","kana_pref":"ﾆｲｶﾞﾀｹﾝ","kana_city":"ﾐｮｳｺｳｼ","kana_address":"ｵｶｻﾞｷｼﾝﾃﾞﾝ","pref":"新潟県","city":"妙高市","address":"岡崎新田"},
{"zip_code":"9440082","kana_pref":"ﾆｲｶﾞﾀｹﾝ","kana_city":"ﾐｮｳｺｳｼ","kana_address":"ｵﾄﾖｼ","pref":"新潟県","city":"妙高市","address":"乙吉"},
{"zip_code":"9440081","kana_pref":"ﾆｲｶﾞﾀｹﾝ","kana_city":"ﾐｮｳｺｳｼ","kana_address":"ｶｺﾞﾏﾁ","pref":"新潟県","city":"妙高市","address":"籠町"},
{"zip_code":"9440037","kana_pref":"ﾆｲｶﾞﾀｹﾝ","kana_city":"ﾐｮｳｺｳｼ","kana_address":"ｶﾞｯｺｳﾁｮｳ","pref":"新潟県","city":"妙高市","address":"学校町"},
{"zip_code":"9440223","kana_pref":"ﾆｲｶﾞﾀｹﾝ","kana_city":"ﾐｮｳｺｳｼ","kana_address":"ｶﾐｺｻﾞﾜ","pref":"新潟県","city":"妙高市","address":"上小沢"},
{"zip_code":"9440025","kana_pref":"ﾆｲｶﾞﾀｹﾝ","kana_city":"ﾐｮｳｺｳｼ","kana_address":"ｶﾐｼﾝﾎﾞ","pref":"新潟県","city":"妙高市","address":"上新保"},
{"zip_code":"9440001","kana_pref":"ﾆｲｶﾞﾀｹﾝ","kana_city":"ﾐｮｳｺｳｼ","kana_address":"ｶﾐﾄﾞｳﾄﾞｳ","pref":"新潟県","city":"妙高市","address":"上百々"},
{"zip_code":"9440052","kana_pref":"ﾆｲｶﾞﾀｹﾝ","kana_city":"ﾐｮｳｺｳｼ","kana_address":"ｶﾐﾅｶ","pref":"新潟県","city":"妙高市","address":"上中"},
{"zip_code":"9440212","kana_pref":"ﾆｲｶﾞﾀｹﾝ","kana_city":"ﾐｮｳｺｳｼ","kana_address":"ｶﾐﾆｺﾞﾘｶﾜ","pref":"新潟県","city":"妙高市","address":"上濁川"},
{"zip_code":"9440088","kana_pref":"ﾆｲｶﾞﾀｹﾝ","kana_city":"ﾐｮｳｺｳｼ","kana_address":"ｶﾐﾊﾁﾏﾝｼﾝﾃﾞﾝ","pref":"新潟県","city":"妙高市","address":"上八幡新田"},
{"zip_code":"9440225","kana_pref":"ﾆｲｶﾞﾀｹﾝ","kana_city":"ﾐｮｳｺｳｼ","kana_address":"ｶﾐﾊﾞﾊﾞ","pref":"新潟県","city":"妙高市","address":"上馬場"},
{"zip_code":"9440344","kana_pref":"ﾆｲｶﾞﾀｹﾝ","kana_city":"ﾐｮｳｺｳｼ","kana_address":"ｶﾐﾋﾗﾏﾙ","pref":"新潟県","city":"妙高市","address":"上平丸"},
{"zip_code":"9440205","kana_pref":"ﾆｲｶﾞﾀｹﾝ","kana_city":"ﾐｮｳｺｳｼ","kana_address":"ｶﾐﾎﾘﾉｳﾁ","pref":"新潟県","city":"妙高市","address":"上堀之内"},
{"zip_code":"9440046","kana_pref":"ﾆｲｶﾞﾀｹﾝ","kana_city":"ﾐｮｳｺｳｼ","kana_address":"ｶﾐﾏﾁ","pref":"新潟県","city":"妙高市","address":"上町"},
{"zip_code":"9440083","kana_pref":"ﾆｲｶﾞﾀｹﾝ","kana_city":"ﾐｮｳｺｳｼ","kana_address":"ｶﾐﾖﾂﾔ","pref":"新潟県","city":"妙高市","address":"上四ツ屋"},
{"zip_code":"9440026","kana_pref":"ﾆｲｶﾞﾀｹﾝ","kana_city":"ﾐｮｳｺｳｼ","kana_address":"ｶﾜｶﾐ","pref":"新潟県","city":"妙高市","address":"川上"},
{"zip_code":"9440021","kana_pref":"ﾆｲｶﾞﾀｹﾝ","kana_city":"ﾐｮｳｺｳｼ","kana_address":"ｷﾀｼﾞｮｳ","pref":"新潟県","city":"妙高市","address":"北条"},
{"zip_code":"9440034","kana_pref":"ﾆｲｶﾞﾀｹﾝ","kana_city":"ﾐｮｳｺｳｼ","kana_address":"ｷｮｳﾂﾞｶﾁｮｳ","pref":"新潟県","city":"妙高市","address":"経塚町"},
{"zip_code":"9440061","kana_pref":"ﾆｲｶﾞﾀｹﾝ","kana_city":"ﾐｮｳｺｳｼ","kana_address":"ｸﾎﾞﾏﾂﾊﾞﾗ","pref":"新潟県","city":"妙高市","address":"窪松原"},
{"zip_code":"9440007","kana_pref":"ﾆｲｶﾞﾀｹﾝ","kana_city":"ﾐｮｳｺｳｼ","kana_address":"ｸﾘﾊﾗ","pref":"新潟県","city":"妙高市","address":"栗原"},
{"zip_code":"9440020","kana_pref":"ﾆｲｶﾞﾀｹﾝ","kana_city":"ﾐｮｳｺｳｼ","kana_address":"ｺｳﾀﾞﾝﾁｮｳ","pref":"新潟県","city":"妙高市","address":"工団町"},
{"zip_code":"9440004","kana_pref":"ﾆｲｶﾞﾀｹﾝ","kana_city":"ﾐｮｳｺｳｼ","kana_address":"ｺｸｶ","pref":"新潟県","city":"妙高市","address":"国賀"},
{"zip_code":"9440213","kana_pref":"ﾆｲｶﾞﾀｹﾝ","kana_city":"ﾐｮｳｺｳｼ","kana_address":"ｺﾂﾎﾞﾈ","pref":"新潟県","city":"妙高市","address":"小局"},
{"zip_code":"9440226","kana_pref":"ﾆｲｶﾞﾀｹﾝ","kana_city":"ﾐｮｳｺｳｼ","kana_address":"ｺﾅﾘ","pref":"新潟県","city":"妙高市","address":"木成"},
{"zip_code":"9440221","kana_pref":"ﾆｲｶﾞﾀｹﾝ","kana_city":"ﾐｮｳｺｳｼ","kana_address":"ｺﾆｺﾞﾘ","pref":"新潟県","city":"妙高市","address":"小濁"},
{"zip_code":"9440331","kana_pref":"ﾆｲｶﾞﾀｹﾝ","kana_city":"ﾐｮｳｺｳｼ","kana_address":"ｺﾊﾞﾗｼﾝﾃﾞﾝ","pref":"新潟県","city":"妙高市","address":"小原新田"},
{"zip_code":"9440072","kana_pref":"ﾆｲｶﾞﾀｹﾝ","kana_city":"ﾐｮｳｺｳｼ","kana_address":"ｺﾏﾙﾔﾏｼﾝﾃﾞﾝ","pref":"新潟県","city":"妙高市","address":"小丸山新田"},
{"zip_code":"9440086","kana_pref":"ﾆｲｶﾞﾀｹﾝ","kana_city":"ﾐｮｳｺｳｼ","kana_address":"ｻｶｲｼﾝﾃﾞﾝ","pref":"新潟県","city":"妙高市","address":"坂井新田"},
{"zip_code":"9440044","kana_pref":"ﾆｲｶﾞﾀｹﾝ","kana_city":"ﾐｮｳｺｳｼ","kana_address":"ｻｶｴﾁｮｳ","pref":"新潟県","city":"妙高市","address":"栄町"},
{"zip_code":"9440341","kana_pref":"ﾆｲｶﾞﾀｹﾝ","kana_city":"ﾐｮｳｺｳｼ","kana_address":"ｻﾙﾊｼ","pref":"新潟県","city":"妙高市","address":"猿橋"},
{"zip_code":"9440053","kana_pref":"ﾆｲｶﾞﾀｹﾝ","kana_city":"ﾐｮｳｺｳｼ","kana_address":"ｻﾝﾎﾞﾝｷﾞｼﾝﾃﾞﾝ","pref":"新潟県","city":"妙高市","address":"三本木新田"},
{"zip_code":"9440056","kana_pref":"ﾆｲｶﾞﾀｹﾝ","kana_city":"ﾐｮｳｺｳｼ","kana_address":"ｼ","pref":"新潟県","city":"妙高市","address":"志"},
{"zip_code":"9440042","kana_pref":"ﾆｲｶﾞﾀｹﾝ","kana_city":"ﾐｮｳｺｳｼ","kana_address":"ｼﾉﾉﾒﾁｮｳ","pref":"新潟県","city":"妙高市","address":"東雲町"},
{"zip_code":"9440035","kana_pref":"ﾆｲｶﾞﾀｹﾝ","kana_city":"ﾐｮｳｺｳｼ","kana_address":"ｼﾌﾞｴﾁｮｳ","pref":"新潟県","city":"妙高市","address":"渋江町"},
{"zip_code":"9440203","kana_pref":"ﾆｲｶﾞﾀｹﾝ","kana_city":"ﾐｮｳｺｳｼ","kana_address":"ｼﾓﾆｺﾞﾘｶﾜ","pref":"新潟県","city":"妙高市","address":"下濁川"},
{"zip_code":"9440343","kana_pref":"ﾆｲｶﾞﾀｹﾝ","kana_city":"ﾐｮｳｺｳｼ","kana_address":"ｼﾓﾋﾗﾏﾙ","pref":"新潟県","city":"妙高市","address":"下平丸"},
{"zip_code":"9440048","kana_pref":"ﾆｲｶﾞﾀｹﾝ","kana_city":"ﾐｮｳｺｳｼ","kana_address":"ｼﾓﾏﾁ","pref":"新潟県","city":"妙高市","address":"下町"},
{"zip_code":"9440096","kana_pref":"ﾆｲｶﾞﾀｹﾝ","kana_city":"ﾐｮｳｺｳｼ","kana_address":"ｼﾞﾝｸﾞｳｼﾞ","pref":"新潟県","city":"妙高市","address":"神宮寺"},
{"zip_code":"9440005","kana_pref":"ﾆｲｶﾞﾀｹﾝ","kana_city":"ﾐｮｳｺｳｼ","kana_address":"ｼﾝｻｶｴﾁｮｳ","pref":"新潟県","city":"妙高市","address":"新栄町"},
{"zip_code":"9440019","kana_pref":"ﾆｲｶﾞﾀｹﾝ","kana_city":"ﾐｮｳｺｳｼ","kana_address":"ｼﾝｺｳﾁｮｳ","pref":"新潟県","city":"妙高市","address":"新工町"},
{"zip_code":"9440087","kana_pref":"ﾆｲｶﾞﾀｹﾝ","kana_city":"ﾐｮｳｺｳｼ","kana_address":"ｼﾝﾎﾞｼﾝﾃﾞﾝ","pref":"新潟県","city":"妙高市","address":"新保新田"},
{"zip_code":"9440036","kana_pref":"ﾆｲｶﾞﾀｹﾝ","kana_city":"ﾐｮｳｺｳｼ","kana_address":"ｽｴﾋﾛﾁｮｳ","pref":"新潟県","city":"妙高市","address":"末広町"},
{"zip_code":"9440057","kana_pref":"ﾆｲｶﾞﾀｹﾝ","kana_city":"ﾐｮｳｺｳｼ","kana_address":"ｽｶﾞﾇﾏ","pref":"新潟県","city":"妙高市","address":"菅沼"},
{"zip_code":"9440018","kana_pref":"ﾆｲｶﾞﾀｹﾝ","kana_city":"ﾐｮｳｺｳｼ","kana_address":"ｽﾜﾁｮｳ","pref":"新潟県","city":"妙高市","address":"諏訪町"},
{"zip_code":"9440014","kana_pref":"ﾆｲｶﾞﾀｹﾝ","kana_city":"ﾐｮｳｺｳｼ","kana_address":"ｾｷｶﾞﾜﾁｮｳ","pref":"新潟県","city":"妙高市","address":"関川町"},
{"zip_code":"9440013","kana_pref":"ﾆｲｶﾞﾀｹﾝ","kana_city":"ﾐｮｳｺｳｼ","kana_address":"ﾀｶﾔﾅｷﾞ","pref":"新潟県","city":"妙高市","address":"高柳"},
{"zip_code":"9440031","kana_pref":"ﾆｲｶﾞﾀｹﾝ","kana_city":"ﾐｮｳｺｳｼ","kana_address":"ﾀﾏﾁ","pref":"新潟県","city":"妙高市","address":"田町"},
{"zip_code":"9440017","kana_pref":"ﾆｲｶﾞﾀｹﾝ","kana_city":"ﾐｮｳｺｳｼ","kana_address":"ﾁｭｳｵｳﾁｮｳ","pref":"新潟県","city":"妙高市","address":"中央町"},
{"zip_code":"9440003","kana_pref":"ﾆｲｶﾞﾀｹﾝ","kana_city":"ﾐｮｳｺｳｼ","kana_address":"ﾂｷｵｶ","pref":"新潟県","city":"妙高市","address":"月岡"},
{"zip_code":"9440222","kana_pref":"ﾆｲｶﾞﾀｹﾝ","kana_city":"ﾐｮｳｺｳｼ","kana_address":"ﾂﾎﾞﾔﾏ","pref":"新潟県","city":"妙高市","address":"坪山"},
{"zip_code":"9440009","kana_pref":"ﾆｲｶﾞﾀｹﾝ","kana_city":"ﾐｮｳｺｳｼ","kana_address":"ﾄｳﾖｳﾁｮｳ","pref":"新潟県","city":"妙高市","address":"東陽町"},
{"zip_code":"9440095","kana_pref":"ﾆｲｶﾞﾀｹﾝ","kana_city":"ﾐｮｳｺｳｼ","kana_address":"ﾄｵｶｲﾁ","pref":"新潟県","city":"妙高市","address":"十日市"},
{"zip_code":"9440076","kana_pref":"ﾆｲｶﾞﾀｹﾝ","kana_city":"ﾐｮｳｺｳｼ","kana_address":"ﾄﾞﾀﾞ","pref":"新潟県","city":"妙高市","address":"土田"},
{"zip_code":"9440005","kana_pref":"ﾆｲｶﾞﾀｹﾝ","kana_city":"ﾐｮｳｺｳｼ","kana_address":"ﾅｶｶﾞﾜ","pref":"新潟県","city":"妙高市","address":"中川"},
{"zip_code":"9440345","kana_pref":"ﾆｲｶﾞﾀｹﾝ","kana_city":"ﾐｮｳｺｳｼ","kana_address":"ﾅｶﾞｻﾜ","pref":"新潟県","city":"妙高市","address":"長沢"},
{"zip_code":"9440342","kana_pref":"ﾆｲｶﾞﾀｹﾝ","kana_city":"ﾐｮｳｺｳｼ","kana_address":"ﾅｶﾞｻﾜﾗ","pref":"新潟県","city":"妙高市","address":"長沢原"},
{"zip_code":"9440027","kana_pref":"ﾆｲｶﾞﾀｹﾝ","kana_city":"ﾐｮｳｺｳｼ","kana_address":"ﾅｶｼﾞｸ","pref":"新潟県","city":"妙高市","address":"中宿"},
{"zip_code":"9440045","kana_pref":"ﾆｲｶﾞﾀｹﾝ","kana_city":"ﾐｮｳｺｳｼ","kana_address":"ﾅｶﾏﾁ","pref":"新潟県","city":"妙高市","address":"中町"},
{"zip_code":"9440073","kana_pref":"ﾆｲｶﾞﾀｹﾝ","kana_city":"ﾐｮｳｺｳｼ","kana_address":"ﾅｶﾞﾓﾘ","pref":"新潟県","city":"妙高市","address":"長森"},
{"zip_code":"9440217","kana_pref":"ﾆｲｶﾞﾀｹﾝ","kana_city":"ﾐｮｳｺｳｼ","kana_address":"ﾅｶﾖｺﾔﾏ","pref":"新潟県","city":"妙高市","address":"中横山"},
{"zip_code":"9440077","kana_pref":"ﾆｲｶﾞﾀｹﾝ","kana_city":"ﾐｮｳｺｳｼ","kana_address":"ﾅｼﾉｷ","pref":"新潟県","city":"妙高市","address":"梨木"},
{"zip_code":"9440051","kana_pref":"ﾆｲｶﾞﾀｹﾝ","kana_city":"ﾐｮｳｺｳｼ","kana_address":"ﾆｼｷﾁｮｳ","pref":"新潟県","city":"妙高市","address":"錦町"},
{"zip_code":"9440023","kana_pref":"ﾆｲｶﾞﾀｹﾝ","kana_city":"ﾐｮｳｺｳｼ","kana_address":"ﾆｼｼﾞｮｳ","pref":"新潟県","city":"妙高市","address":"西条"},
{"zip_code":"9440058","kana_pref":"ﾆｲｶﾞﾀｹﾝ","kana_city":"ﾐｮｳｺｳｼ","kana_address":"ﾆｼｽｶﾞﾇﾏｼﾝﾃﾞﾝ","pref":"新潟県","city":"妙高市","address":"西菅沼新田"},
{"zip_code":"9440064","kana_pref":"ﾆｲｶﾞﾀｹﾝ","kana_city":"ﾐｮｳｺｳｼ","kana_address":"ﾆｼﾉﾔ","pref":"新潟県","city":"妙高市","address":"西野谷"},
{"zip_code":"9440063","kana_pref":"ﾆｲｶﾞﾀｹﾝ","kana_city":"ﾐｮｳｺｳｼ","kana_address":"ﾆｼﾉﾔｼﾝﾃﾞﾝ","pref":"新潟県","city":"妙高市","address":"西野谷新田"},
{"zip_code":"9440334","kana_pref":"ﾆｲｶﾞﾀｹﾝ","kana_city":"ﾐｮｳｺｳｼ","kana_address":"ﾆﾚｼﾏ","pref":"新潟県","city":"妙高市","address":"楡島"},
{"zip_code":"9440204","kana_pref":"ﾆｲｶﾞﾀｹﾝ","kana_city":"ﾐｮｳｺｳｼ","kana_address":"ﾉｿﾞｷﾄﾞ","pref":"新潟県","city":"妙高市","address":"除戸"},
{"zip_code":"9440047","kana_pref":"ﾆｲｶﾞﾀｹﾝ","kana_city":"ﾐｮｳｺｳｼ","kana_address":"ﾊｸｻﾝﾁｮｳ","pref":"新潟県","city":"妙高市","address":"白山町"},
{"zip_code":"9440055","kana_pref":"ﾆｲｶﾞﾀｹﾝ","kana_city":"ﾐｮｳｺｳｼ","kana_address":"ﾋｶﾞｼｼ","pref":"新潟県","city":"妙高市","address":"東志"},
{"zip_code":"9440214","kana_pref":"ﾆｲｶﾞﾀｹﾝ","kana_city":"ﾐｮｳｺｳｼ","kana_address":"ﾋｶﾞｼｽｶﾞﾇﾏ","pref":"新潟県","city":"妙高市","address":"東菅沼"},
{"zip_code":"9440335","kana_pref":"ﾆｲｶﾞﾀｹﾝ","kana_city":"ﾐｮｳｺｳｼ","kana_address":"ﾋｶﾞｼｾｷ","pref":"新潟県","city":"妙高市","address":"東関"},
{"zip_code":"9440092","kana_pref":"ﾆｲｶﾞﾀｹﾝ","kana_city":"ﾐｮｳｺｳｼ","kana_address":"ﾋﾀﾞ","pref":"新潟県","city":"妙高市","address":"飛田"},
{"zip_code":"9440093","kana_pref":"ﾆｲｶﾞﾀｹﾝ","kana_city":"ﾐｮｳｺｳｼ","kana_address":"ﾋﾀﾞｼﾝﾃﾞﾝ","pref":"新潟県","city":"妙高市","address":"飛田新田"},
{"zip_code":"9440016","kana_pref":"ﾆｲｶﾞﾀｹﾝ","kana_city":"ﾐｮｳｺｳｼ","kana_address":"ﾋﾀﾞﾉﾓﾘ","pref":"新潟県","city":"妙高市","address":"美守"},
{"zip_code":"9440201","kana_pref":"ﾆｲｶﾞﾀｹﾝ","kana_city":"ﾐｮｳｺｳｼ","kana_address":"ﾋﾒｶﾜﾗ","pref":"新潟県","city":"妙高市","address":"姫川原"},
{"zip_code":"9440028","kana_pref":"ﾆｲｶﾞﾀｹﾝ","kana_city":"ﾐｮｳｺｳｼ","kana_address":"ﾋﾒｶﾜﾗ","pref":"新潟県","city":"妙高市","address":"姫川原"},
{"zip_code":"9440002","kana_pref":"ﾆｲｶﾞﾀｹﾝ","kana_city":"ﾐｮｳｺｳｼ","kana_address":"ﾋﾛｼﾏ","pref":"新潟県","city":"妙高市","address":"広島"},
{"zip_code":"9440033","kana_pref":"ﾆｲｶﾞﾀｹﾝ","kana_city":"ﾐｮｳｺｳｼ","kana_address":"ﾋﾛﾀﾁｮｳ","pref":"新潟県","city":"妙高市","address":"広田町"},
{"zip_code":"9440071","kana_pref":"ﾆｲｶﾞﾀｹﾝ","kana_city":"ﾐｮｳｺｳｼ","kana_address":"ﾌｼﾞﾂﾞｶｼﾝﾃﾞﾝ","pref":"新潟県","city":"妙高市","address":"藤塚新田"},
{"zip_code":"9440202","kana_pref":"ﾆｲｶﾞﾀｹﾝ","kana_city":"ﾐｮｳｺｳｼ","kana_address":"ﾏｷﾌﾞﾁ","pref":"新潟県","city":"妙高市","address":"巻淵"},
{"zip_code":"9440074","kana_pref":"ﾆｲｶﾞﾀｹﾝ","kana_city":"ﾐｮｳｺｳｼ","kana_address":"ﾐﾂﾏﾀ","pref":"新潟県","city":"妙高市","address":"三ツ俣"},
{"zip_code":"9440097","kana_pref":"ﾆｲｶﾞﾀｹﾝ","kana_city":"ﾐｮｳｺｳｼ","kana_address":"ﾐﾔｳﾁ","pref":"新潟県","city":"妙高市","address":"宮内"},
{"zip_code":"9440085","kana_pref":"ﾆｲｶﾞﾀｹﾝ","kana_city":"ﾐｮｳｺｳｼ","kana_address":"ﾔﾁﾊﾞﾔｼｼﾝﾃﾞﾝ","pref":"新潟県","city":"妙高市","address":"谷内林新田"},
{"zip_code":"9440008","kana_pref":"ﾆｲｶﾞﾀｹﾝ","kana_city":"ﾐｮｳｺｳｼ","kana_address":"ﾔﾅｲﾀﾞﾁｮｳ","pref":"新潟県","city":"妙高市","address":"柳井田町"},
{"zip_code":"9440098","kana_pref":"ﾆｲｶﾞﾀｹﾝ","kana_city":"ﾐｮｳｺｳｼ","kana_address":"ﾕｷﾓﾘ","pref":"新潟県","city":"妙高市","address":"雪森"},
{"zip_code":"9440022","kana_pref":"ﾆｲｶﾞﾀｹﾝ","kana_city":"ﾐｮｳｺｳｼ","kana_address":"ﾖｼｷ","pref":"新潟県","city":"妙高市","address":"吉木"},
{"zip_code":"9440024","kana_pref":"ﾆｲｶﾞﾀｹﾝ","kana_city":"ﾐｮｳｺｳｼ","kana_address":"ﾖｼｷｼﾝﾃﾞﾝ","pref":"新潟県","city":"妙高市","address":"吉木新田"},
{"zip_code":"9440062","kana_pref":"ﾆｲｶﾞﾀｹﾝ","kana_city":"ﾐｮｳｺｳｼ","kana_address":"ﾘｮｳｾﾞﾝｼﾞ","pref":"新潟県","city":"妙高市","address":"両善寺"},
{"zip_code":"9440211","kana_pref":"ﾆｲｶﾞﾀｹﾝ","kana_city":"ﾐｮｳｺｳｼ","kana_address":"ﾜﾔ","pref":"新潟県","city":"妙高市","address":"和屋"},
{"zip_code":"9440150","kana_pref":"ﾆｲｶﾞﾀｹﾝ","kana_city":"ｼﾞｮｳｴﾂｼ","kana_address":"ｲﾀｸﾗｸｱｵﾊﾞ","pref":"新潟県","city":"上越市","address":"板倉区青葉"},
{"zip_code":"9440101","kana_pref":"ﾆｲｶﾞﾀｹﾝ","kana_city":"ｼﾞｮｳｴﾂｼ","kana_address":"ｲﾀｸﾗｸｲﾅﾏｽ","pref":"新潟県","city":"上越市","address":"板倉区稲増"},
{"zip_code":"9440119","kana_pref":"ﾆｲｶﾞﾀｹﾝ","kana_city":"ｼﾞｮｳｴﾂｼ","kana_address":"ｲﾀｸﾗｸｵｵﾉｼﾝﾃﾞﾝ","pref":"新潟県","city":"上越市","address":"板倉区大野新田"},
{"zip_code":"9440123","kana_pref":"ﾆｲｶﾞﾀｹﾝ","kana_city":"ｼﾞｮｳｴﾂｼ","kana_address":"ｲﾀｸﾗｸｶﾏﾂﾞｶ","pref":"新潟県","city":"上越市","address":"板倉区釜塚"},
{"zip_code":"9440147","kana_pref":"ﾆｲｶﾞﾀｹﾝ","kana_city":"ｼﾞｮｳｴﾂｼ","kana_address":"ｲﾀｸﾗｸｶﾐﾅｶｼﾞﾏｼﾝﾃﾞﾝ","pref":"新潟県","city":"上越市","address":"板倉区上中島新田"},
{"zip_code":"9440102","kana_pref":"ﾆｲｶﾞﾀｹﾝ","kana_city":"ｼﾞｮｳｴﾂｼ","kana_address":"ｲﾀｸﾗｸｶﾐﾌｸﾀﾞｼﾝﾃﾞﾝ","pref":"新潟県","city":"上越市","address":"板倉区上福田新田"},
{"zip_code":"9440124","kana_pref":"ﾆｲｶﾞﾀｹﾝ","kana_city":"ｼﾞｮｳｴﾂｼ","kana_address":"ｲﾀｸﾗｸｸｸﾞﾉ","pref":"新潟県","city":"上越市","address":"板倉区久々野"},
{"zip_code":"9440139","kana_pref":"ﾆｲｶﾞﾀｹﾝ","kana_city":"ｼﾞｮｳｴﾂｼ","kana_address":"ｲﾀｸﾗｸｸﾏｶﾞﾜ","pref":"新潟県","city":"上越市","address":"板倉区熊川"},
{"zip_code":"9440138","kana_pref":"ﾆｲｶﾞﾀｹﾝ","kana_city":"ｼﾞｮｳｴﾂｼ","kana_address":"ｲﾀｸﾗｸｸﾏｶﾞﾜｼﾝﾃﾞﾝ","pref":"新潟県","city":"上越市","address":"板倉区熊川新田"},
{"zip_code":"9440118","kana_pref":"ﾆｲｶﾞﾀｹﾝ","kana_city":"ｼﾞｮｳｴﾂｼ","kana_address":"ｲﾀｸﾗｸｸﾘｻﾞﾜ","pref":"新潟県","city":"上越市","address":"板倉区栗沢"},
{"zip_code":"9440115","kana_pref":"ﾆｲｶﾞﾀｹﾝ","kana_city":"ｼﾞｮｳｴﾂｼ","kana_address":"ｲﾀｸﾗｸｹﾞﾝﾄﾞｳｼﾞｼﾝﾃﾞﾝ","pref":"新潟県","city":"上越市","address":"板倉区玄藤寺新田"},
{"zip_code":"9440146","kana_pref":"ﾆｲｶﾞﾀｹﾝ","kana_city":"ｼﾞｮｳｴﾂｼ","kana_address":"ｲﾀｸﾗｸｺｲｼﾊﾗ","pref":"新潟県","city":"上越市","address":"板倉区小石原"},
{"zip_code":"9440133","kana_pref":"ﾆｲｶﾞﾀｹﾝ","kana_city":"ｼﾞｮｳｴﾂｼ","kana_address":"ｲﾀｸﾗｸｺｸｶﾞﾜ","pref":"新潟県","city":"上越市","address":"板倉区国川"},
{"zip_code":"9440129","kana_pref":"ﾆｲｶﾞﾀｹﾝ","kana_city":"ｼﾞｮｳｴﾂｼ","kana_address":"ｲﾀｸﾗｸｺﾓﾀﾞﾃ","pref":"新潟県","city":"上越市","address":"板倉区菰立"},
{"zip_code":"9440107","kana_pref":"ﾆｲｶﾞﾀｹﾝ","kana_city":"ｼﾞｮｳｴﾂｼ","kana_address":"ｲﾀｸﾗｸｻｶｲ","pref":"新潟県","city":"上越市","address":"板倉区坂井"},
{"zip_code":"9440125","kana_pref":"ﾆｲｶﾞﾀｹﾝ","kana_city":"ｼﾞｮｳｴﾂｼ","kana_address":"ｲﾀｸﾗｸｻﾙｸﾖｳｼﾞ","pref":"新潟県","city":"上越市","address":"板倉区猿供養寺"},
{"zip_code":"9440106","kana_pref":"ﾆｲｶﾞﾀｹﾝ","kana_city":"ｼﾞｮｳｴﾂｼ","kana_address":"ｲﾀｸﾗｸｻﾜﾀﾞ","pref":"新潟県","city":"上越市","address":"板倉区沢田"},
{"zip_code":"9440149","kana_pref":"ﾆｲｶﾞﾀｹﾝ","kana_city":"ｼﾞｮｳｴﾂｼ","kana_address":"ｲﾀｸﾗｸｼﾓﾀﾔ","pref":"新潟県","city":"上越市","address":"板倉区下田屋"},
{"zip_code":"9440144","kana_pref":"ﾆｲｶﾞﾀｹﾝ","kana_city":"ｼﾞｮｳｴﾂｼ","kana_address":"ｲﾀｸﾗｸｼﾓﾖﾈｻﾞﾜ","pref":"新潟県","city":"上越市","address":"板倉区下米沢"},
{"zip_code":"9440116","kana_pref":"ﾆｲｶﾞﾀｹﾝ","kana_city":"ｼﾞｮｳｴﾂｼ","kana_address":"ｲﾀｸﾗｸｾｷﾀﾞ","pref":"新潟県","city":"上越市","address":"板倉区関田"},
{"zip_code":"9440143","kana_pref":"ﾆｲｶﾞﾀｹﾝ","kana_city":"ｼﾞｮｳｴﾂｼ","kana_address":"ｲﾀｸﾗｸｾｷﾈ","pref":"新潟県","city":"上越市","address":"板倉区関根"},
{"zip_code":"9440132","kana_pref":"ﾆｲｶﾞﾀｹﾝ","kana_city":"ｼﾞｮｳｴﾂｼ","kana_address":"ｲﾀｸﾗｸｿﾈﾀﾞ","pref":"新潟県","city":"上越市","address":"板倉区曽根田"},
{"zip_code":"9440141","kana_pref":"ﾆｲｶﾞﾀｹﾝ","kana_city":"ｼﾞｮｳｴﾂｼ","kana_address":"ｲﾀｸﾗｸﾀｲ","pref":"新潟県","city":"上越市","address":"板倉区田井"},
{"zip_code":"9440142","kana_pref":"ﾆｲｶﾞﾀｹﾝ","kana_city":"ｼﾞｮｳｴﾂｼ","kana_address":"ｲﾀｸﾗｸﾀｶﾉ","pref":"新潟県","city":"上越市","address":"板倉区高野"},
{"zip_code":"9440114","kana_pref":"ﾆｲｶﾞﾀｹﾝ","kana_city":"ｼﾞｮｳｴﾂｼ","kana_address":"ｲﾀｸﾗｸﾀﾃﾉ","pref":"新潟県","city":"上越市","address":"板倉区達野"},
{"zip_code":"9440105","kana_pref":"ﾆｲｶﾞﾀｹﾝ","kana_city":"ｼﾞｮｳｴﾂｼ","kana_address":"ｲﾀｸﾗｸﾀﾔ","pref":"新潟県","city":"上越市","address":"板倉区田屋"},
{"zip_code":"9440117","kana_pref":"ﾆｲｶﾞﾀｹﾝ","kana_city":"ｼﾞｮｳｴﾂｼ","kana_address":"ｲﾀｸﾗｸﾄﾞｳｶﾞﾀ","pref":"新潟県","city":"上越市","address":"板倉区筒方"},
{"zip_code":"9440109","kana_pref":"ﾆｲｶﾞﾀｹﾝ","kana_city":"ｼﾞｮｳｴﾂｼ","kana_address":"ｲﾀｸﾗｸﾄｶﾞﾘ","pref":"新潟県","city":"上越市","address":"板倉区戸狩"},
{"zip_code":"9440104","kana_pref":"ﾆｲｶﾞﾀｹﾝ","kana_city":"ｼﾞｮｳｴﾂｼ","kana_address":"ｲﾀｸﾗｸﾅｶﾞﾂｶ","pref":"新潟県","city":"上越市","address":"板倉区長塚"},
{"zip_code":"9440122","kana_pref":"ﾆｲｶﾞﾀｹﾝ","kana_city":"ｼﾞｮｳｴﾂｼ","kana_address":"ｲﾀｸﾗｸﾅｶﾉﾐﾔ","pref":"新潟県","city":"上越市","address":"板倉区中之宮"},
{"zip_code":"9440108","kana_pref":"ﾆｲｶﾞﾀｹﾝ","kana_city":"ｼﾞｮｳｴﾂｼ","kana_address":"ｲﾀｸﾗｸﾅｶﾞﾐﾈ","pref":"新潟県","city":"上越市","address":"板倉区長嶺"},
{"zip_code":"9440112","kana_pref":"ﾆｲｶﾞﾀｹﾝ","kana_city":"ｼﾞｮｳｴﾂｼ","kana_address":"ｲﾀｸﾗｸﾅｶﾖﾂﾔ","pref":"新潟県","city":"上越市","address":"板倉区中四ツ屋"},
{"zip_code":"9440128","kana_pref":"ﾆｲｶﾞﾀｹﾝ","kana_city":"ｼﾞｮｳｴﾂｼ","kana_address":"ｲﾀｸﾗｸﾊﾀｵﾘ","pref":"新潟県","city":"上越市","address":"板倉区機織"},
{"zip_code":"9440131","kana_pref":"ﾆｲｶﾞﾀｹﾝ","kana_city":"ｼﾞｮｳｴﾂｼ","kana_address":"ｲﾀｸﾗｸﾊﾘ","pref":"新潟県","city":"上越市","address":"板倉区針"},
{"zip_code":"9440126","kana_pref":"ﾆｲｶﾞﾀｹﾝ","kana_city":"ｼﾞｮｳｴﾂｼ","kana_address":"ｲﾀｸﾗｸﾋｶﾞｼﾔﾏﾃﾞﾗ","pref":"新潟県","city":"上越市","address":"板倉区東山寺"},
{"zip_code":"9440134","kana_pref":"ﾆｲｶﾞﾀｹﾝ","kana_city":"ｼﾞｮｳｴﾂｼ","kana_address":"ｲﾀｸﾗｸﾌｸｵｳｼﾞ","pref":"新潟県","city":"上越市","address":"板倉区福王寺"},
{"zip_code":"9440127","kana_pref":"ﾆｲｶﾞﾀｹﾝ","kana_city":"ｼﾞｮｳｴﾂｼ","kana_address":"ｲﾀｸﾗｸﾌﾄﾞｳｼﾝﾃﾞﾝ","pref":"新潟県","city":"上越市","address":"板倉区不動新田"},
{"zip_code":"9440113","kana_pref":"ﾆｲｶﾞﾀｹﾝ","kana_city":"ｼﾞｮｳｴﾂｼ","kana_address":"ｲﾀｸﾗｸﾍﾞｯｼｮ","pref":"新潟県","city":"上越市","address":"板倉区別所"},
{"zip_code":"9440151","kana_pref":"ﾆｲｶﾞﾀｹﾝ","kana_city":"ｼﾞｮｳｴﾂｼ","kana_address":"ｲﾀｸﾗｸﾐﾄﾞﾘｶﾞｵｶ","pref":"新潟県","city":"上越市","address":"板倉区緑ケ丘"},
{"zip_code":"9440145","kana_pref":"ﾆｲｶﾞﾀｹﾝ","kana_city":"ｼﾞｮｳｴﾂｼ","kana_address":"ｲﾀｸﾗｸﾐﾅﾐﾅｶｼﾞﾏ","pref":"新潟県","city":"上越市","address":"板倉区南中島"},
{"zip_code":"9440103","kana_pref":"ﾆｲｶﾞﾀｹﾝ","kana_city":"ｼﾞｮｳｴﾂｼ","kana_address":"ｲﾀｸﾗｸﾐﾅﾐﾖﾂﾔｼﾝﾃﾞﾝ","pref":"新潟県","city":"上越市","address":"板倉区南四ツ屋新田"},
{"zip_code":"9440111","kana_pref":"ﾆｲｶﾞﾀｹﾝ","kana_city":"ｼﾞｮｳｴﾂｼ","kana_address":"ｲﾀｸﾗｸﾐﾔｼﾞﾏ","pref":"新潟県","city":"上越市","address":"板倉区宮島"},
{"zip_code":"9440136","kana_pref":"ﾆｲｶﾞﾀｹﾝ","kana_city":"ｼﾞｮｳｴﾂｼ","kana_address":"ｲﾀｸﾗｸﾔﾏｺﾞｼ","pref":"新潟県","city":"上越市","address":"板倉区山越"},
{"zip_code":"9440121","kana_pref":"ﾆｲｶﾞﾀｹﾝ","kana_city":"ｼﾞｮｳｴﾂｼ","kana_address":"ｲﾀｸﾗｸﾔﾏﾍﾞ","pref":"新潟県","city":"上越市","address":"板倉区山部"},
{"zip_code":"9440148","kana_pref":"ﾆｲｶﾞﾀｹﾝ","kana_city":"ｼﾞｮｳｴﾂｼ","kana_address":"ｲﾀｸﾗｸﾖｺﾁｮｳ","pref":"新潟県","city":"上越市","address":"板倉区横町"},
{"zip_code":"9440137","kana_pref":"ﾆｲｶﾞﾀｹﾝ","kana_city":"ｼﾞｮｳｴﾂｼ","kana_address":"ｲﾀｸﾗｸﾖｼﾏｽ","pref":"新潟県","city":"上越市","address":"板倉区吉増"},
{"zip_code":"9440135","kana_pref":"ﾆｲｶﾞﾀｹﾝ","kana_city":"ｼﾞｮｳｴﾂｼ","kana_address":"ｲﾀｸﾗｸﾖﾈﾏｽ","pref":"新潟県","city":"上越市","address":"板倉区米増"}]}