{"zip_code":[
{"zip_code":"9450000","kana_pref":"ﾆｲｶﾞﾀｹﾝ","kana_city":"ｶｼﾜｻﾞｷｼ","kana_address":"","pref":"新潟県","city":"柏崎市","address":""},
{"zip_code":"9450016","kana_pref":"ﾆｲｶﾞﾀｹﾝ","kana_city":"ｶｼﾜｻﾞｷｼ","kana_address":"ｱｵﾔﾏﾁｮｳ","pref":"新潟県","city":"柏崎市","address":"青山町"},
{"zip_code":"9450847","kana_pref":"ﾆｲｶﾞﾀｹﾝ","kana_city":"ｶｼﾜｻﾞｷｼ","kana_address":"ｱｶｻｶﾁｮｳ","pref":"新潟県","city":"柏崎市","address":"赤坂町"},
{"zip_code":"9450814","kana_pref":"ﾆｲｶﾞﾀｹﾝ","kana_city":"ｶｼﾜｻﾞｷｼ","kana_address":"ｱｻﾋｶﾞｵｶ","pref":"新潟県","city":"柏崎市","address":"朝日が丘"},
{"zip_code":"9450112","kana_pref":"ﾆｲｶﾞﾀｹﾝ","kana_city":"ｶｼﾜｻﾞｷｼ","kana_address":"ｱｾﾞﾔ","pref":"新潟県","city":"柏崎市","address":"畔屋"},
{"zip_code":"9450017","kana_pref":"ﾆｲｶﾞﾀｹﾝ","kana_city":"ｶｼﾜｻﾞｷｼ","kana_address":"ｱﾗﾊﾏ","pref":"新潟県","city":"柏崎市","address":"荒浜"},
{"zip_code":"9450071","kana_pref":"ﾆｲｶﾞﾀｹﾝ","kana_city":"ｶｼﾜｻﾞｷｼ","kana_address":"ｱﾝｾｲﾁｮｳ","pref":"新潟県","city":"柏崎市","address":"安政町"},
{"zip_code":"9450219","kana_pref":"ﾆｲｶﾞﾀｹﾝ","kana_city":"ｶｼﾜｻﾞｷｼ","kana_address":"ｲｲﾂﾞｶ","pref":"新潟県","city":"柏崎市","address":"飯塚"},
{"zip_code":"9450212","kana_pref":"ﾆｲｶﾞﾀｹﾝ","kana_city":"ｶｼﾜｻﾞｷｼ","kana_address":"ｲｶﾂﾞﾁ","pref":"新潟県","city":"柏崎市","address":"五十土"},
{"zip_code":"9451436","kana_pref":"ﾆｲｶﾞﾀｹﾝ","kana_city":"ｶｼﾜｻﾞｷｼ","kana_address":"ｲｼｿﾞﾈ","pref":"新潟県","city":"柏崎市","address":"石曽根"},
{"zip_code":"9451251","kana_pref":"ﾆｲｶﾞﾀｹﾝ","kana_city":"ｶｼﾜｻﾞｷｼ","kana_address":"ｲﾁﾉｼﾝﾃﾞﾝ","pref":"新潟県","city":"柏崎市","address":"市野新田"},
{"zip_code":"9451341","kana_pref":"ﾆｲｶﾞﾀｹﾝ","kana_city":"ｶｼﾜｻﾞｷｼ","kana_address":"ｲﾊﾞﾗﾒ","pref":"新潟県","city":"柏崎市","address":"茨目"},
{"zip_code":"9451114","kana_pref":"ﾆｲｶﾞﾀｹﾝ","kana_city":"ｶｼﾜｻﾞｷｼ","kana_address":"ｲﾓｶﾞﾜ","pref":"新潟県","city":"柏崎市","address":"芋川"},
{"zip_code":"9450811","kana_pref":"ﾆｲｶﾞﾀｹﾝ","kana_city":"ｶｼﾜｻﾞｷｼ","kana_address":"ｲﾜｶﾐ","pref":"新潟県","city":"柏崎市","address":"岩上"},
{"zip_code":"9450055","kana_pref":"ﾆｲｶﾞﾀｹﾝ","kana_city":"ｶｼﾜｻﾞｷｼ","kana_address":"ｴｷﾏｴ","pref":"新潟県","city":"柏崎市","address":"駅前"},
{"zip_code":"9450044","kana_pref":"ﾆｲｶﾞﾀｹﾝ","kana_city":"ｶｼﾜｻﾞｷｼ","kana_address":"ｵｳｷﾞﾏﾁ","pref":"新潟県","city":"柏崎市","address":"扇町"},
{"zip_code":"9450851","kana_pref":"ﾆｲｶﾞﾀｹﾝ","kana_city":"ｶｼﾜｻﾞｷｼ","kana_address":"ｵｵｸﾎﾞ","pref":"新潟県","city":"柏崎市","address":"大久保"},
{"zip_code":"9451126","kana_pref":"ﾆｲｶﾞﾀｹﾝ","kana_city":"ｶｼﾜｻﾞｷｼ","kana_address":"ｵｵｺｳﾁｼﾝﾃﾞﾝ","pref":"新潟県","city":"柏崎市","address":"大河内新田"},
{"zip_code":"9451438","kana_pref":"ﾆｲｶﾞﾀｹﾝ","kana_city":"ｶｼﾜｻﾞｷｼ","kana_address":"ｵｵｻﾜ","pref":"新潟県","city":"柏崎市","address":"大沢"},
{"zip_code":"9450403","kana_pref":"ﾆｲｶﾞﾀｹﾝ","kana_city":"ｶｼﾜｻﾞｷｼ","kana_address":"ｵｵﾐﾅﾄ","pref":"新潟県","city":"柏崎市","address":"大湊"},
{"zip_code":"9450076","kana_pref":"ﾆｲｶﾞﾀｹﾝ","kana_city":"ｶｼﾜｻﾞｷｼ","kana_address":"ｵｸﾗﾁｮｳ","pref":"新潟県","city":"柏崎市","address":"小倉町"},
{"zip_code":"9451252","kana_pref":"ﾆｲｶﾞﾀｹﾝ","kana_city":"ｶｼﾜｻﾞｷｼ","kana_address":"ｵﾅﾀﾞﾆ","pref":"新潟県","city":"柏崎市","address":"女谷"},
{"zip_code":"9451253","kana_pref":"ﾆｲｶﾞﾀｹﾝ","kana_city":"ｶｼﾜｻﾞｷｼ","kana_address":"ｵﾘｲ","pref":"新潟県","city":"柏崎市","address":"折居"},
{"zip_code":"9451123","kana_pref":"ﾆｲｶﾞﾀｹﾝ","kana_city":"ｶｼﾜｻﾞｷｼ","kana_address":"ｶｲﾌﾞﾁ","pref":"新潟県","city":"柏崎市","address":"貝渕"},
{"zip_code":"9450053","kana_pref":"ﾆｲｶﾞﾀｹﾝ","kana_city":"ｶｼﾜｻﾞｷｼ","kana_address":"ｶｶﾞﾐﾁｮｳ","pref":"新潟県","city":"柏崎市","address":"鏡町"},
{"zip_code":"9450074","kana_pref":"ﾆｲｶﾞﾀｹﾝ","kana_city":"ｶｼﾜｻﾞｷｼ","kana_address":"ｶｽｶﾞ","pref":"新潟県","city":"柏崎市","address":"春日"},
{"zip_code":"9450065","kana_pref":"ﾆｲｶﾞﾀｹﾝ","kana_city":"ｶｼﾜｻﾞｷｼ","kana_address":"ｶﾞｯｺｳﾁｮｳ","pref":"新潟県","city":"柏崎市","address":"学校町"},
{"zip_code":"9451431","kana_pref":"ﾆｲｶﾞﾀｹﾝ","kana_city":"ｶｼﾜｻﾞｷｼ","kana_address":"ｶﾉｳ","pref":"新潟県","city":"柏崎市","address":"加納"},
{"zip_code":"9451121","kana_pref":"ﾆｲｶﾞﾀｹﾝ","kana_city":"ｶｼﾜｻﾞｷｼ","kana_address":"ｶﾐｶﾞﾀ","pref":"新潟県","city":"柏崎市","address":"上方"},
{"zip_code":"9451351","kana_pref":"ﾆｲｶﾞﾀｹﾝ","kana_city":"ｶｼﾜｻﾞｷｼ","kana_address":"ｶﾐﾀｼﾞﾘ","pref":"新潟県","city":"柏崎市","address":"上田尻"},
{"zip_code":"9450021","kana_pref":"ﾆｲｶﾞﾀｹﾝ","kana_city":"ｶｼﾜｻﾞｷｼ","kana_address":"ｶﾐﾊﾗ","pref":"新潟県","city":"柏崎市","address":"上原"},
{"zip_code":"9451355","kana_pref":"ﾆｲｶﾞﾀｹﾝ","kana_city":"ｶｼﾜｻﾞｷｼ","kana_address":"ｶﾙｲｶﾞﾜ","pref":"新潟県","city":"柏崎市","address":"軽井川"},
{"zip_code":"9451247","kana_pref":"ﾆｲｶﾞﾀｹﾝ","kana_city":"ｶｼﾜｻﾞｷｼ","kana_address":"ｷｻﾞﾜ","pref":"新潟県","city":"柏崎市","address":"木沢"},
{"zip_code":"9450072","kana_pref":"ﾆｲｶﾞﾀｹﾝ","kana_city":"ｶｼﾜｻﾞｷｼ","kana_address":"ｷﾀｿﾞﾉﾁｮｳ","pref":"新潟県","city":"柏崎市","address":"北園町"},
{"zip_code":"9450035","kana_pref":"ﾆｲｶﾞﾀｹﾝ","kana_city":"ｶｼﾜｻﾞｷｼ","kana_address":"ｷﾀﾊﾝﾀﾞ","pref":"新潟県","city":"柏崎市","address":"北半田"},
{"zip_code":"9450815","kana_pref":"ﾆｲｶﾞﾀｹﾝ","kana_city":"ｶｼﾜｻﾞｷｼ","kana_address":"ｷﾎﾞｳｶﾞｵｶ","pref":"新潟県","city":"柏崎市","address":"希望が丘"},
{"zip_code":"9450855","kana_pref":"ﾆｲｶﾞﾀｹﾝ","kana_city":"ｶｼﾜｻﾞｷｼ","kana_address":"ｸｼﾞﾗﾅﾐ","pref":"新潟県","city":"柏崎市","address":"鯨波"},
{"zip_code":"9451124","kana_pref":"ﾆｲｶﾞﾀｹﾝ","kana_city":"ｶｼﾜｻﾞｷｼ","kana_address":"ｸﾛﾀｷ","pref":"新潟県","city":"柏崎市","address":"黒滝"},
{"zip_code":"9451243","kana_pref":"ﾆｲｶﾞﾀｹﾝ","kana_city":"ｶｼﾜｻﾞｷｼ","kana_address":"ｸﾝﾒ","pref":"新潟県","city":"柏崎市","address":"久米"},
{"zip_code":"9450836","kana_pref":"ﾆｲｶﾞﾀｹﾝ","kana_city":"ｶｼﾜｻﾞｷｼ","kana_address":"ｹﾝﾉ","pref":"新潟県","city":"柏崎市","address":"剣野"},
{"zip_code":"9450835","kana_pref":"ﾆｲｶﾞﾀｹﾝ","kana_city":"ｶｼﾜｻﾞｷｼ","kana_address":"ｹﾝﾉﾁｮｳ","pref":"新潟県","city":"柏崎市","address":"剣野町"},
{"zip_code":"9451102","kana_pref":"ﾆｲｶﾞﾀｹﾝ","kana_city":"ｶｼﾜｻﾞｷｼ","kana_address":"ｺｳﾖｳﾁｮｳ","pref":"新潟県","city":"柏崎市","address":"向陽町"},
{"zip_code":"9450024","kana_pref":"ﾆｲｶﾞﾀｹﾝ","kana_city":"ｶｼﾜｻﾞｷｼ","kana_address":"ｺｶﾞﾈﾁｮｳ","pref":"新潟県","city":"柏崎市","address":"小金町"},
{"zip_code":"9450211","kana_pref":"ﾆｲｶﾞﾀｹﾝ","kana_city":"ｶｼﾜｻﾞｷｼ","kana_address":"ｺｸﾞﾛｽ","pref":"新潟県","city":"柏崎市","address":"小黒須"},
{"zip_code":"9450858","kana_pref":"ﾆｲｶﾞﾀｹﾝ","kana_city":"ｶｼﾜｻﾞｷｼ","kana_address":"ｺｽｷﾞ","pref":"新潟県","city":"柏崎市","address":"小杉"},
{"zip_code":"9451125","kana_pref":"ﾆｲｶﾞﾀｹﾝ","kana_city":"ｶｼﾜｻﾞｷｼ","kana_address":"ｺﾀﾞﾔﾏｼﾝﾃﾞﾝ","pref":"新潟県","city":"柏崎市","address":"小田山新田"},
{"zip_code":"9450846","kana_pref":"ﾆｲｶﾞﾀｹﾝ","kana_city":"ｶｼﾜｻﾞｷｼ","kana_address":"ｺﾄﾌﾞｷﾁｮｳ","pref":"新潟県","city":"柏崎市","address":"寿町"},
{"zip_code":"9450821","kana_pref":"ﾆｲｶﾞﾀｹﾝ","kana_city":"ｶｼﾜｻﾞｷｼ","kana_address":"ｻｲﾜｲﾁｮｳ","pref":"新潟県","city":"柏崎市","address":"幸町"},
{"zip_code":"9450061","kana_pref":"ﾆｲｶﾞﾀｹﾝ","kana_city":"ｶｼﾜｻﾞｷｼ","kana_address":"ｻｶｴﾁｮｳ","pref":"新潟県","city":"柏崎市","address":"栄町"},
{"zip_code":"9450073","kana_pref":"ﾆｲｶﾞﾀｹﾝ","kana_city":"ｶｼﾜｻﾞｷｼ","kana_address":"ｻｸﾗｷﾞﾁｮｳ","pref":"新潟県","city":"柏崎市","address":"桜木町"},
{"zip_code":"9451354","kana_pref":"ﾆｲｶﾞﾀｹﾝ","kana_city":"ｶｼﾜｻﾞｷｼ","kana_address":"ｻﾄｳｶﾞｲｹｼﾝﾃﾞﾝ","pref":"新潟県","city":"柏崎市","address":"佐藤池新田"},
{"zip_code":"9451115","kana_pref":"ﾆｲｶﾞﾀｹﾝ","kana_city":"ｶｼﾜｻﾞｷｼ","kana_address":"ｻﾐｽﾞ","pref":"新潟県","city":"柏崎市","address":"佐水"},
{"zip_code":"9451342","kana_pref":"ﾆｲｶﾞﾀｹﾝ","kana_city":"ｶｼﾜｻﾞｷｼ","kana_address":"ｻﾝﾜﾁｮｳ","pref":"新潟県","city":"柏崎市","address":"三和町"},
{"zip_code":"9450034","kana_pref":"ﾆｲｶﾞﾀｹﾝ","kana_city":"ｶｼﾜｻﾞｷｼ","kana_address":"ｻﾝﾜﾁｮｳ","pref":"新潟県","city":"柏崎市","address":"三和町"},
{"zip_code":"9450401","kana_pref":"ﾆｲｶﾞﾀｹﾝ","kana_city":"ｶｼﾜｻﾞｷｼ","kana_address":"ｼｲﾔ","pref":"新潟県","city":"柏崎市","address":"椎谷"},
{"zip_code":"9451246","kana_pref":"ﾆｲｶﾞﾀｹﾝ","kana_city":"ｶｼﾜｻﾞｷｼ","kana_address":"ｼﾐｽﾞﾀﾆ","pref":"新潟県","city":"柏崎市","address":"清水谷"},
{"zip_code":"9450103","kana_pref":"ﾆｲｶﾞﾀｹﾝ","kana_city":"ｶｼﾜｻﾞｷｼ","kana_address":"ｼﾓｵｵｼﾝﾃﾞﾝ","pref":"新潟県","city":"柏崎市","address":"下大新田"},
{"zip_code":"9451104","kana_pref":"ﾆｲｶﾞﾀｹﾝ","kana_city":"ｶｼﾜｻﾞｷｼ","kana_address":"ｼﾓｶﾞﾀ","pref":"新潟県","city":"柏崎市","address":"下方"},
{"zip_code":"9451345","kana_pref":"ﾆｲｶﾞﾀｹﾝ","kana_city":"ｶｼﾜｻﾞｷｼ","kana_address":"ｼﾓﾀｼﾞﾘ","pref":"新潟県","city":"柏崎市","address":"下田尻"},
{"zip_code":"9451118","kana_pref":"ﾆｲｶﾞﾀｹﾝ","kana_city":"ｶｼﾜｻﾞｷｼ","kana_address":"ｼﾞｮｳｼﾞｮｳ","pref":"新潟県","city":"柏崎市","address":"上条"},
{"zip_code":"9451343","kana_pref":"ﾆｲｶﾞﾀｹﾝ","kana_city":"ｶｼﾜｻﾞｷｼ","kana_address":"ｼﾞｮｳﾂﾞｶ","pref":"新潟県","city":"柏崎市","address":"城塚"},
{"zip_code":"9450825","kana_pref":"ﾆｲｶﾞﾀｹﾝ","kana_city":"ｶｼﾜｻﾞｷｼ","kana_address":"ｼﾞｮｳﾄｳ","pref":"新潟県","city":"柏崎市","address":"城東"},
{"zip_code":"9450845","kana_pref":"ﾆｲｶﾞﾀｹﾝ","kana_city":"ｶｼﾜｻﾞｷｼ","kana_address":"ｼﾝｱｶｻｶ","pref":"新潟県","city":"柏崎市","address":"新赤坂"},
{"zip_code":"9450031","kana_pref":"ﾆｲｶﾞﾀｹﾝ","kana_city":"ｶｼﾜｻﾞｷｼ","kana_address":"ｼﾝﾃﾞﾝﾊﾀ","pref":"新潟県","city":"柏崎市","address":"新田畑"},
{"zip_code":"9451122","kana_pref":"ﾆｲｶﾞﾀｹﾝ","kana_city":"ｶｼﾜｻﾞｷｼ","kana_address":"ｼﾝﾄﾞｳ","pref":"新潟県","city":"柏崎市","address":"新道"},
{"zip_code":"9450056","kana_pref":"ﾆｲｶﾞﾀｹﾝ","kana_city":"ｶｼﾜｻﾞｷｼ","kana_address":"ｼﾝﾊﾞｼ","pref":"新潟県","city":"柏崎市","address":"新橋"},
{"zip_code":"9450062","kana_pref":"ﾆｲｶﾞﾀｹﾝ","kana_city":"ｶｼﾜｻﾞｷｼ","kana_address":"ｼﾝﾊﾅﾁｮｳ","pref":"新潟県","city":"柏崎市","address":"新花町"},
{"zip_code":"9450063","kana_pref":"ﾆｲｶﾞﾀｹﾝ","kana_city":"ｶｼﾜｻﾞｷｼ","kana_address":"ｽﾜﾁｮｳ","pref":"新潟県","city":"柏崎市","address":"諏訪町"},
{"zip_code":"9450832","kana_pref":"ﾆｲｶﾞﾀｹﾝ","kana_city":"ｶｼﾜｻﾞｷｼ","kana_address":"ｾｷﾏﾁ","pref":"新潟県","city":"柏崎市","address":"関町"},
{"zip_code":"9451432","kana_pref":"ﾆｲｶﾞﾀｹﾝ","kana_city":"ｶｼﾜｻﾞｷｼ","kana_address":"ｾﾞｺﾞﾝ","pref":"新潟県","city":"柏崎市","address":"善根"},
{"zip_code":"9450214","kana_pref":"ﾆｲｶﾞﾀｹﾝ","kana_city":"ｶｼﾜｻﾞｷｼ","kana_address":"ｿﾁ","pref":"新潟県","city":"柏崎市","address":"曽地"},
{"zip_code":"9450217","kana_pref":"ﾆｲｶﾞﾀｹﾝ","kana_city":"ｶｼﾜｻﾞｷｼ","kana_address":"ｿﾁｼﾝﾃﾞﾝ","pref":"新潟県","city":"柏崎市","address":"曽地新田"},
{"zip_code":"9451515","kana_pref":"ﾆｲｶﾞﾀｹﾝ","kana_city":"ｶｼﾜｻﾞｷｼ","kana_address":"ﾀｶﾔﾅｷﾞﾁｮｳｲｼｸﾞﾛ","pref":"新潟県","city":"柏崎市","address":"高柳町石黒"},
{"zip_code":"9451511","kana_pref":"ﾆｲｶﾞﾀｹﾝ","kana_city":"ｶｼﾜｻﾞｷｼ","kana_address":"ﾀｶﾔﾅｷﾞﾁｮｳｳﾙｼｼﾞﾏ","pref":"新潟県","city":"柏崎市","address":"高柳町漆島"},
{"zip_code":"9451501","kana_pref":"ﾆｲｶﾞﾀｹﾝ","kana_city":"ｶｼﾜｻﾞｷｼ","kana_address":"ﾀｶﾔﾅｷﾞﾁｮｳｵｶﾀﾞ","pref":"新潟県","city":"柏崎市","address":"高柳町岡田"},
{"zip_code":"9451502","kana_pref":"ﾆｲｶﾞﾀｹﾝ","kana_city":"ｶｼﾜｻﾞｷｼ","kana_address":"ﾀｶﾔﾅｷﾞﾁｮｳｵｶﾉﾏﾁ","pref":"新潟県","city":"柏崎市","address":"高柳町岡野町"},
{"zip_code":"9451512","kana_pref":"ﾆｲｶﾞﾀｹﾝ","kana_city":"ｶｼﾜｻﾞｷｼ","kana_address":"ﾀｶﾔﾅｷﾞﾁｮｳｵｷﾞﾉｼﾏ","pref":"新潟県","city":"柏崎市","address":"高柳町荻ノ島"},
{"zip_code":"9451513","kana_pref":"ﾆｲｶﾞﾀｹﾝ","kana_city":"ｶｼﾜｻﾞｷｼ","kana_address":"ﾀｶﾔﾅｷﾞﾁｮｳｶﾄﾞｲﾃﾞ","pref":"新潟県","city":"柏崎市","address":"高柳町門出"},
{"zip_code":"9451505","kana_pref":"ﾆｲｶﾞﾀｹﾝ","kana_city":"ｶｼﾜｻﾞｷｼ","kana_address":"ﾀｶﾔﾅｷﾞﾁｮｳﾀｶｵ","pref":"新潟県","city":"柏崎市","address":"高柳町高尾"},
{"zip_code":"9451514","kana_pref":"ﾆｲｶﾞﾀｹﾝ","kana_city":"ｶｼﾜｻﾞｷｼ","kana_address":"ﾀｶﾔﾅｷﾞﾁｮｳﾀｼﾛ","pref":"新潟県","city":"柏崎市","address":"高柳町田代"},
{"zip_code":"9451504","kana_pref":"ﾆｲｶﾞﾀｹﾝ","kana_city":"ｶｼﾜｻﾞｷｼ","kana_address":"ﾀｶﾔﾅｷﾞﾁｮｳﾄﾁｶﾞﾊﾗ","pref":"新潟県","city":"柏崎市","address":"高柳町栃ケ原"},
{"zip_code":"9451503","kana_pref":"ﾆｲｶﾞﾀｹﾝ","kana_city":"ｶｼﾜｻﾞｷｼ","kana_address":"ﾀｶﾔﾅｷﾞﾁｮｳﾔﾏﾅｶ","pref":"新潟県","city":"柏崎市","address":"高柳町山中"},
{"zip_code":"9450817","kana_pref":"ﾆｲｶﾞﾀｹﾝ","kana_city":"ｶｼﾜｻﾞｷｼ","kana_address":"ﾀｶﾗﾏﾁ","pref":"新潟県","city":"柏崎市","address":"宝町"},
{"zip_code":"9450032","kana_pref":"ﾆｲｶﾞﾀｹﾝ","kana_city":"ｶｼﾜｻﾞｷｼ","kana_address":"ﾀﾂｶ","pref":"新潟県","city":"柏崎市","address":"田塚"},
{"zip_code":"9450816","kana_pref":"ﾆｲｶﾞﾀｹﾝ","kana_city":"ｶｼﾜｻﾞｷｼ","kana_address":"ﾀﾅｶ","pref":"新潟県","city":"柏崎市","address":"田中"},
{"zip_code":"9451248","kana_pref":"ﾆｲｶﾞﾀｹﾝ","kana_city":"ｶｼﾜｻﾞｷｼ","kana_address":"ﾀﾔ","pref":"新潟県","city":"柏崎市","address":"田屋"},
{"zip_code":"9450857","kana_pref":"ﾆｲｶﾞﾀｹﾝ","kana_city":"ｶｼﾜｻﾞｷｼ","kana_address":"ﾀﾝﾈ","pref":"新潟県","city":"柏崎市","address":"谷根"},
{"zip_code":"9450064","kana_pref":"ﾆｲｶﾞﾀｹﾝ","kana_city":"ｶｼﾜｻﾞｷｼ","kana_address":"ﾁｭｳｵｳﾁｮｳ","pref":"新潟県","city":"柏崎市","address":"中央町"},
{"zip_code":"9450105","kana_pref":"ﾆｲｶﾞﾀｹﾝ","kana_city":"ｶｼﾜｻﾞｷｼ","kana_address":"ﾂﾙｷﾞ","pref":"新潟県","city":"柏崎市","address":"剣"},
{"zip_code":"9450106","kana_pref":"ﾆｲｶﾞﾀｹﾝ","kana_city":"ｶｼﾜｻﾞｷｼ","kana_address":"ﾄﾞｱｲ","pref":"新潟県","city":"柏崎市","address":"土合"},
{"zip_code":"9450104","kana_pref":"ﾆｲｶﾞﾀｹﾝ","kana_city":"ｶｼﾜｻﾞｷｼ","kana_address":"ﾄﾞｱｲｼﾝﾃﾞﾝ","pref":"新潟県","city":"柏崎市","address":"土合新田"},
{"zip_code":"9450854","kana_pref":"ﾆｲｶﾞﾀｹﾝ","kana_city":"ｶｼﾜｻﾞｷｼ","kana_address":"ﾄｳﾉﾜﾁｮｳ","pref":"新潟県","city":"柏崎市","address":"東の輪町"},
{"zip_code":"9450834","kana_pref":"ﾆｲｶﾞﾀｹﾝ","kana_city":"ｶｼﾜｻﾞｷｼ","kana_address":"ﾄｷﾜﾀﾞｲ","pref":"新潟県","city":"柏崎市","address":"常盤台"},
{"zip_code":"9450101","kana_pref":"ﾆｲｶﾞﾀｹﾝ","kana_city":"ｶｼﾜｻﾞｷｼ","kana_address":"ﾅｶﾞｻｷ","pref":"新潟県","city":"柏崎市","address":"長崎"},
{"zip_code":"9450102","kana_pref":"ﾆｲｶﾞﾀｹﾝ","kana_city":"ｶｼﾜｻﾞｷｼ","kana_address":"ﾅｶﾞｻｷｼﾝﾃﾞﾝ","pref":"新潟県","city":"柏崎市","address":"長崎新田"},
{"zip_code":"9450113","kana_pref":"ﾆｲｶﾞﾀｹﾝ","kana_city":"ｶｼﾜｻﾞｷｼ","kana_address":"ﾅｶﾀﾞ","pref":"新潟県","city":"柏崎市","address":"中田"},
{"zip_code":"9450852","kana_pref":"ﾆｲｶﾞﾀｹﾝ","kana_city":"ｶｼﾜｻﾞｷｼ","kana_address":"ﾅｶﾊﾏ","pref":"新潟県","city":"柏崎市","address":"中浜"},
{"zip_code":"9450042","kana_pref":"ﾆｲｶﾞﾀｹﾝ","kana_city":"ｶｼﾜｻﾞｷｼ","kana_address":"ﾅｶﾞﾊﾏﾁｮｳ","pref":"新潟県","city":"柏崎市","address":"長浜町"},
{"zip_code":"9451105","kana_pref":"ﾆｲｶﾞﾀｹﾝ","kana_city":"ｶｼﾜｻﾞｷｼ","kana_address":"ﾅｶﾞﾐﾈﾁｮｳ","pref":"新潟県","city":"柏崎市","address":"長峰町"},
{"zip_code":"9450213","kana_pref":"ﾆｲｶﾞﾀｹﾝ","kana_city":"ｶｼﾜｻﾞｷｼ","kana_address":"ﾅﾘｻﾜ","pref":"新潟県","city":"柏崎市","address":"成沢"},
{"zip_code":"9450823","kana_pref":"ﾆｲｶﾞﾀｹﾝ","kana_city":"ｶｼﾜｻﾞｷｼ","kana_address":"ﾅﾝｺｳﾁｮｳ","pref":"新潟県","city":"柏崎市","address":"南光町"},
{"zip_code":"9450052","kana_pref":"ﾆｲｶﾞﾀｹﾝ","kana_city":"ｶｼﾜｻﾞｷｼ","kana_address":"ﾆｼｷﾁｮｳ","pref":"新潟県","city":"柏崎市","address":"錦町"},
{"zip_code":"9450066","kana_pref":"ﾆｲｶﾞﾀｹﾝ","kana_city":"ｶｼﾜｻﾞｷｼ","kana_address":"ﾆｼﾎﾝﾁｮｳ","pref":"新潟県","city":"柏崎市","address":"西本町"},
{"zip_code":"9450067","kana_pref":"ﾆｲｶﾞﾀｹﾝ","kana_city":"ｶｼﾜｻﾞｷｼ","kana_address":"ﾆｼﾐﾅﾄﾁｮｳ","pref":"新潟県","city":"柏崎市","address":"西港町"},
{"zip_code":"9450054","kana_pref":"ﾆｲｶﾞﾀｹﾝ","kana_city":"ｶｼﾜｻﾞｷｼ","kana_address":"ﾆﾂｾｷﾁｮｳ","pref":"新潟県","city":"柏崎市","address":"日石町"},
{"zip_code":"9451112","kana_pref":"ﾆｲｶﾞﾀｹﾝ","kana_city":"ｶｼﾜｻﾞｷｼ","kana_address":"ﾉｳｹﾞ","pref":"新潟県","city":"柏崎市","address":"南下"},
{"zip_code":"9451241","kana_pref":"ﾆｲｶﾞﾀｹﾝ","kana_city":"ｶｼﾜｻﾞｷｼ","kana_address":"ﾉﾀ","pref":"新潟県","city":"柏崎市","address":"野田"},
{"zip_code":"9450012","kana_pref":"ﾆｲｶﾞﾀｹﾝ","kana_city":"ｶｼﾜｻﾞｷｼ","kana_address":"ﾊｼﾊﾞ","pref":"新潟県","city":"柏崎市","address":"橋場"},
{"zip_code":"9450014","kana_pref":"ﾆｲｶﾞﾀｹﾝ","kana_city":"ｶｼﾜｻﾞｷｼ","kana_address":"ﾊｼﾊﾞﾁｮｳ","pref":"新潟県","city":"柏崎市","address":"橋場町"},
{"zip_code":"9450218","kana_pref":"ﾆｲｶﾞﾀｹﾝ","kana_city":"ｶｼﾜｻﾞｷｼ","kana_address":"ﾊﾅﾀﾞ","pref":"新潟県","city":"柏崎市","address":"花田"},
{"zip_code":"9450023","kana_pref":"ﾆｲｶﾞﾀｹﾝ","kana_city":"ｶｼﾜｻﾞｷｼ","kana_address":"ﾊﾗﾏﾁ","pref":"新潟県","city":"柏崎市","address":"原町"},
{"zip_code":"9450853","kana_pref":"ﾆｲｶﾞﾀｹﾝ","kana_city":"ｶｼﾜｻﾞｷｼ","kana_address":"ﾊﾞﾝｼﾞﾝ","pref":"新潟県","city":"柏崎市","address":"番神"},
{"zip_code":"9450812","kana_pref":"ﾆｲｶﾞﾀｹﾝ","kana_city":"ｶｼﾜｻﾞｷｼ","kana_address":"ﾊﾝﾀﾞ","pref":"新潟県","city":"柏崎市","address":"半田"},
{"zip_code":"9450033","kana_pref":"ﾆｲｶﾞﾀｹﾝ","kana_city":"ｶｼﾜｻﾞｷｼ","kana_address":"ﾋｶﾞｼﾅｶﾞﾊﾏﾁｮｳ","pref":"新潟県","city":"柏崎市","address":"東長浜町"},
{"zip_code":"9450022","kana_pref":"ﾆｲｶﾞﾀｹﾝ","kana_city":"ｶｼﾜｻﾞｷｼ","kana_address":"ﾋｶﾞｼﾊﾗﾏﾁ","pref":"新潟県","city":"柏崎市","address":"東原町"},
{"zip_code":"9450051","kana_pref":"ﾆｲｶﾞﾀｹﾝ","kana_city":"ｶｼﾜｻﾞｷｼ","kana_address":"ﾋｶﾞｼﾎﾝﾁｮｳ","pref":"新潟県","city":"柏崎市","address":"東本町"},
{"zip_code":"9450068","kana_pref":"ﾆｲｶﾞﾀｹﾝ","kana_city":"ｶｼﾜｻﾞｷｼ","kana_address":"ﾋｶﾞｼﾐﾅﾄﾁｮｳ","pref":"新潟県","city":"柏崎市","address":"東港町"},
{"zip_code":"9450036","kana_pref":"ﾆｲｶﾞﾀｹﾝ","kana_city":"ｶｼﾜｻﾞｷｼ","kana_address":"ﾋｶﾞｼﾔﾅｷﾞﾀﾞ","pref":"新潟県","city":"柏崎市","address":"東柳田"},
{"zip_code":"9450047","kana_pref":"ﾆｲｶﾞﾀｹﾝ","kana_city":"ｶｼﾜｻﾞｷｼ","kana_address":"ﾋｽﾐ","pref":"新潟県","city":"柏崎市","address":"比角"},
{"zip_code":"9450043","kana_pref":"ﾆｲｶﾞﾀｹﾝ","kana_city":"ｶｼﾜｻﾞｷｼ","kana_address":"ﾋﾖｼﾁｮｳ","pref":"新潟県","city":"柏崎市","address":"日吉町"},
{"zip_code":"9451353","kana_pref":"ﾆｲｶﾞﾀｹﾝ","kana_city":"ｶｼﾜｻﾞｷｼ","kana_address":"ﾋﾗｲ","pref":"新潟県","city":"柏崎市","address":"平井"},
{"zip_code":"9450824","kana_pref":"ﾆｲｶﾞﾀｹﾝ","kana_city":"ｶｼﾜｻﾞｷｼ","kana_address":"ﾋﾞﾜｼﾞﾏ","pref":"新潟県","city":"柏崎市","address":"枇杷島"},
{"zip_code":"9450114","kana_pref":"ﾆｲｶﾞﾀｹﾝ","kana_city":"ｶｼﾜｻﾞｷｼ","kana_address":"ﾌｼﾞｲ","pref":"新潟県","city":"柏崎市","address":"藤井"},
{"zip_code":"9451103","kana_pref":"ﾆｲｶﾞﾀｹﾝ","kana_city":"ｶｼﾜｻﾞｷｼ","kana_address":"ﾌｼﾞﾊｼ","pref":"新潟県","city":"柏崎市","address":"藤橋"},
{"zip_code":"9450026","kana_pref":"ﾆｲｶﾞﾀｹﾝ","kana_city":"ｶｼﾜｻﾞｷｼ","kana_address":"ﾌｼﾞﾓﾄﾁｮｳ","pref":"新潟県","city":"柏崎市","address":"藤元町"},
{"zip_code":"9451113","kana_pref":"ﾆｲｶﾞﾀｹﾝ","kana_city":"ｶｼﾜｻﾞｷｼ","kana_address":"ﾌﾙﾏﾁ","pref":"新潟県","city":"柏崎市","address":"古町"},
{"zip_code":"9450027","kana_pref":"ﾆｲｶﾞﾀｹﾝ","kana_city":"ｶｼﾜｻﾞｷｼ","kana_address":"ﾎｸﾄﾁｮｳ","pref":"新潟県","city":"柏崎市","address":"北斗町"},
{"zip_code":"9451242","kana_pref":"ﾆｲｶﾞﾀｹﾝ","kana_city":"ｶｼﾜｻﾞｷｼ","kana_address":"ﾎｿｺﾞｴ","pref":"新潟県","city":"柏崎市","address":"細越"},
{"zip_code":"9450822","kana_pref":"ﾆｲｶﾞﾀｹﾝ","kana_city":"ｶｼﾜｻﾞｷｼ","kana_address":"ﾎﾅﾐﾁｮｳ","pref":"新潟県","city":"柏崎市","address":"穂波町"},
{"zip_code":"9451111","kana_pref":"ﾆｲｶﾞﾀｹﾝ","kana_city":"ｶｼﾜｻﾞｷｼ","kana_address":"ﾎﾘ","pref":"新潟県","city":"柏崎市","address":"堀"},
{"zip_code":"9450015","kana_pref":"ﾆｲｶﾞﾀｹﾝ","kana_city":"ｶｼﾜｻﾞｷｼ","kana_address":"ﾏｷﾊﾗﾁｮｳ","pref":"新潟県","city":"柏崎市","address":"槇原町"},
{"zip_code":"9450011","kana_pref":"ﾆｲｶﾞﾀｹﾝ","kana_city":"ｶｼﾜｻﾞｷｼ","kana_address":"ﾏﾂﾅﾐ","pref":"新潟県","city":"柏崎市","address":"松波"},
{"zip_code":"9450041","kana_pref":"ﾆｲｶﾞﾀｹﾝ","kana_city":"ｶｼﾜｻﾞｷｼ","kana_address":"ﾏﾂﾐ","pref":"新潟県","city":"柏崎市","address":"松美"},
{"zip_code":"9450837","kana_pref":"ﾆｲｶﾞﾀｹﾝ","kana_city":"ｶｼﾜｻﾞｷｼ","kana_address":"ﾐｼﾏﾁｮｳ","pref":"新潟県","city":"柏崎市","address":"三島町"},
{"zip_code":"9450838","kana_pref":"ﾆｲｶﾞﾀｹﾝ","kana_city":"ｶｼﾜｻﾞｷｼ","kana_address":"ﾐｼﾏﾆｼ","pref":"新潟県","city":"柏崎市","address":"三島西"},
{"zip_code":"9451244","kana_pref":"ﾆｲｶﾞﾀｹﾝ","kana_city":"ｶｼﾜｻﾞｷｼ","kana_address":"ﾐｽﾞｶﾐ","pref":"新潟県","city":"柏崎市","address":"水上"},
{"zip_code":"9450841","kana_pref":"ﾆｲｶﾞﾀｹﾝ","kana_city":"ｶｼﾜｻﾞｷｼ","kana_address":"ﾐﾄﾞﾘﾁｮｳ","pref":"新潟県","city":"柏崎市","address":"緑町"},
{"zip_code":"9450813","kana_pref":"ﾆｲｶﾞﾀｹﾝ","kana_city":"ｶｼﾜｻﾞｷｼ","kana_address":"ﾐﾅﾐﾊﾝﾀﾞ","pref":"新潟県","city":"柏崎市","address":"南半田"},
{"zip_code":"9450402","kana_pref":"ﾆｲｶﾞﾀｹﾝ","kana_city":"ｶｼﾜｻﾞｷｼ","kana_address":"ﾐﾔｶﾞﾜ","pref":"新潟県","city":"柏崎市","address":"宮川"},
{"zip_code":"9451245","kana_pref":"ﾆｲｶﾞﾀｹﾝ","kana_city":"ｶｼﾜｻﾞｷｼ","kana_address":"ﾐﾔｶﾞﾜｼﾝﾃﾞﾝ","pref":"新潟県","city":"柏崎市","address":"宮川新田"},
{"zip_code":"9451434","kana_pref":"ﾆｲｶﾞﾀｹﾝ","kana_city":"ｶｼﾜｻﾞｷｼ","kana_address":"ﾐﾔﾀﾞｲﾗ","pref":"新潟県","city":"柏崎市","address":"宮平"},
{"zip_code":"9451117","kana_pref":"ﾆｲｶﾞﾀｹﾝ","kana_city":"ｶｼﾜｻﾞｷｼ","kana_address":"ﾐﾔﾉｸﾎﾞ","pref":"新潟県","city":"柏崎市","address":"宮之窪"},
{"zip_code":"9450827","kana_pref":"ﾆｲｶﾞﾀｹﾝ","kana_city":"ｶｼﾜｻﾞｷｼ","kana_address":"ﾐﾔﾊﾞﾁｮｳ","pref":"新潟県","city":"柏崎市","address":"宮場町"},
{"zip_code":"9450826","kana_pref":"ﾆｲｶﾞﾀｹﾝ","kana_city":"ｶｼﾜｻﾞｷｼ","kana_address":"ﾓﾄｼﾛﾁｮｳ","pref":"新潟県","city":"柏崎市","address":"元城町"},
{"zip_code":"9451435","kana_pref":"ﾆｲｶﾞﾀｹﾝ","kana_city":"ｶｼﾜｻﾞｷｼ","kana_address":"ﾓﾘﾁｶ","pref":"新潟県","city":"柏崎市","address":"森近"},
{"zip_code":"9451352","kana_pref":"ﾆｲｶﾞﾀｹﾝ","kana_city":"ｶｼﾜｻﾞｷｼ","kana_address":"ﾔｽﾀﾞ","pref":"新潟県","city":"柏崎市","address":"安田"},
{"zip_code":"9450215","kana_pref":"ﾆｲｶﾞﾀｹﾝ","kana_city":"ｶｼﾜｻﾞｷｼ","kana_address":"ﾔﾀ","pref":"新潟県","city":"柏崎市","address":"矢田"},
{"zip_code":"9450025","kana_pref":"ﾆｲｶﾞﾀｹﾝ","kana_city":"ｶｼﾜｻﾞｷｼ","kana_address":"ﾔﾅｷﾞﾀﾞﾁｮｳ","pref":"新潟県","city":"柏崎市","address":"柳田町"},
{"zip_code":"9450831","kana_pref":"ﾆｲｶﾞﾀｹﾝ","kana_city":"ｶｼﾜｻﾞｷｼ","kana_address":"ﾔﾅｷﾞﾊﾞｼﾁｮｳ","pref":"新潟県","city":"柏崎市","address":"柳橋町"},
{"zip_code":"9451116","kana_pref":"ﾆｲｶﾞﾀｹﾝ","kana_city":"ｶｼﾜｻﾞｷｼ","kana_address":"ﾔﾏｸﾞﾁ","pref":"新潟県","city":"柏崎市","address":"山口"},
{"zip_code":"9450075","kana_pref":"ﾆｲｶﾞﾀｹﾝ","kana_city":"ｶｼﾜｻﾞｷｼ","kana_address":"ﾔﾏﾄﾁｮｳ","pref":"新潟県","city":"柏崎市","address":"大和町"},
{"zip_code":"9451437","kana_pref":"ﾆｲｶﾞﾀｹﾝ","kana_city":"ｶｼﾜｻﾞｷｼ","kana_address":"ﾔﾏﾑﾛ","pref":"新潟県","city":"柏崎市","address":"山室"},
{"zip_code":"9450013","kana_pref":"ﾆｲｶﾞﾀｹﾝ","kana_city":"ｶｼﾜｻﾞｷｼ","kana_address":"ﾔﾏﾓﾄ","pref":"新潟県","city":"柏崎市","address":"山本"},
{"zip_code":"9450045","kana_pref":"ﾆｲｶﾞﾀｹﾝ","kana_city":"ｶｼﾜｻﾞｷｼ","kana_address":"ﾕﾀｶﾁｮｳ","pref":"新潟県","city":"柏崎市","address":"豊町"},
{"zip_code":"9451106","kana_pref":"ﾆｲｶﾞﾀｹﾝ","kana_city":"ｶｼﾜｻﾞｷｼ","kana_address":"ﾕﾘｶﾞｵｶ","pref":"新潟県","city":"柏崎市","address":"ゆりが丘"},
{"zip_code":"9451433","kana_pref":"ﾆｲｶﾞﾀｹﾝ","kana_city":"ｶｼﾜｻﾞｷｼ","kana_address":"ﾖｲﾀ","pref":"新潟県","city":"柏崎市","address":"与板"},
{"zip_code":"9451101","kana_pref":"ﾆｲｶﾞﾀｹﾝ","kana_city":"ｶｼﾜｻﾞｷｼ","kana_address":"ﾖｺﾔﾏ","pref":"新潟県","city":"柏崎市","address":"横山"},
{"zip_code":"9450216","kana_pref":"ﾆｲｶﾞﾀｹﾝ","kana_city":"ｶｼﾜｻﾞｷｼ","kana_address":"ﾖｼｲ","pref":"新潟県","city":"柏崎市","address":"吉井"},
{"zip_code":"9450111","kana_pref":"ﾆｲｶﾞﾀｹﾝ","kana_city":"ｶｼﾜｻﾞｷｼ","kana_address":"ﾖｿｳ","pref":"新潟県","city":"柏崎市","address":"与三"},
{"zip_code":"9450046","kana_pref":"ﾆｲｶﾞﾀｹﾝ","kana_city":"ｶｼﾜｻﾞｷｼ","kana_address":"ﾖﾂﾔ","pref":"新潟県","city":"柏崎市","address":"四谷"},
{"zip_code":"9450842","kana_pref":"ﾆｲｶﾞﾀｹﾝ","kana_city":"ｶｼﾜｻﾞｷｼ","kana_address":"ﾖﾈﾔﾏﾀﾞｲ","pref":"新潟県","city":"柏崎市","address":"米山台"},
{"zip_code":"9450843","kana_pref":"ﾆｲｶﾞﾀｹﾝ","kana_city":"ｶｼﾜｻﾞｷｼ","kana_address":"ﾖﾈﾔﾏﾀﾞｲﾋｶﾞｼ","pref":"新潟県","city":"柏崎市","address":"米山台東"},
{"zip_code":"9450844","kana_pref":"ﾆｲｶﾞﾀｹﾝ","kana_city":"ｶｼﾜｻﾞｷｼ","kana_address":"ﾖﾈﾔﾏﾀﾞｲﾆｼ","pref":"新潟県","city":"柏崎市","address":"米山台西"},
{"zip_code":"9451344","kana_pref":"ﾆｲｶﾞﾀｹﾝ","kana_city":"ｶｼﾜｻﾞｷｼ","kana_address":"ﾘｮｳﾀｼﾞﾘ","pref":"新潟県","city":"柏崎市","address":"両田尻"},
{"zip_code":"9450833","kana_pref":"ﾆｲｶﾞﾀｹﾝ","kana_city":"ｶｼﾜｻﾞｷｼ","kana_address":"ﾜｶﾊﾞﾁｮｳ","pref":"新潟県","city":"柏崎市","address":"若葉町"},
{"zip_code":"9450300","kana_pref":"ﾆｲｶﾞﾀｹﾝ","kana_city":"ｶﾘﾜｸﾞﾝｶﾘﾜﾑﾗ","kana_address":"","pref":"新潟県","city":"刈羽郡刈羽村","address":""},
{"zip_code":"9450325","kana_pref":"ﾆｲｶﾞﾀｹﾝ","kana_city":"ｶﾘﾜｸﾞﾝｶﾘﾜﾑﾗ","kana_address":"ｱｶﾀﾞｷﾀｶﾞﾀ","pref":"新潟県","city":"刈羽郡刈羽村","address":"赤田北方"},
{"zip_code":"9450323","kana_pref":"ﾆｲｶﾞﾀｹﾝ","kana_city":"ｶﾘﾜｸﾞﾝｶﾘﾜﾑﾗ","kana_address":"ｱｶﾀﾞﾏﾁｶﾞﾀ","pref":"新潟県","city":"刈羽郡刈羽村","address":"赤田町方"},
{"zip_code":"9450321","kana_pref":"ﾆｲｶﾞﾀｹﾝ","kana_city":"ｶﾘﾜｸﾞﾝｶﾘﾜﾑﾗ","kana_address":"ｱﾌﾞﾗﾃﾞﾝ","pref":"新潟県","city":"刈羽郡刈羽村","address":"油田"},
{"zip_code":"9450314","kana_pref":"ﾆｲｶﾞﾀｹﾝ","kana_city":"ｶﾘﾜｸﾞﾝｶﾘﾜﾑﾗ","kana_address":"ｱﾗﾔｼｷ","pref":"新潟県","city":"刈羽郡刈羽村","address":"新屋敷"},
{"zip_code":"9450311","kana_pref":"ﾆｲｶﾞﾀｹﾝ","kana_city":"ｶﾘﾜｸﾞﾝｶﾘﾜﾑﾗ","kana_address":"ｲﾉｵｶ","pref":"新潟県","city":"刈羽郡刈羽村","address":"井岡"},
{"zip_code":"9450301","kana_pref":"ﾆｲｶﾞﾀｹﾝ","kana_city":"ｶﾘﾜｸﾞﾝｶﾘﾜﾑﾗ","kana_address":"ｲﾘﾜﾀﾞ","pref":"新潟県","city":"刈羽郡刈羽村","address":"入和田"},
{"zip_code":"9450313","kana_pref":"ﾆｲｶﾞﾀｹﾝ","kana_city":"ｶﾘﾜｸﾞﾝｶﾘﾜﾑﾗ","kana_address":"ｵｵﾂｶ","pref":"新潟県","city":"刈羽郡刈羽村","address":"大塚"},
{"zip_code":"9450315","kana_pref":"ﾆｲｶﾞﾀｹﾝ","kana_city":"ｶﾘﾜｸﾞﾝｶﾘﾜﾑﾗ","kana_address":"ｶﾐﾀｶﾏﾁ","pref":"新潟県","city":"刈羽郡刈羽村","address":"上高町"},
{"zip_code":"9450307","kana_pref":"ﾆｲｶﾞﾀｹﾝ","kana_city":"ｶﾘﾜｸﾞﾝｶﾘﾜﾑﾗ","kana_address":"ｶﾘﾜ","pref":"新潟県","city":"刈羽郡刈羽村","address":"刈羽"},
{"zip_code":"9450324","kana_pref":"ﾆｲｶﾞﾀｹﾝ","kana_city":"ｶﾘﾜｸﾞﾝｶﾘﾜﾑﾗ","kana_address":"ｶﾚｷ","pref":"新潟県","city":"刈羽郡刈羽村","address":"枯木"},
{"zip_code":"9450322","kana_pref":"ﾆｲｶﾞﾀｹﾝ","kana_city":"ｶﾘﾜｸﾞﾝｶﾘﾜﾑﾗ","kana_address":"ｸﾛｶﾜ","pref":"新潟県","city":"刈羽郡刈羽村","address":"黒川"},
{"zip_code":"9450305","kana_pref":"ﾆｲｶﾞﾀｹﾝ","kana_city":"ｶﾘﾜｸﾞﾝｶﾘﾜﾑﾗ","kana_address":"ｻｲｹﾞﾝｼﾞ","pref":"新潟県","city":"刈羽郡刈羽村","address":"西元寺"},
{"zip_code":"9450316","kana_pref":"ﾆｲｶﾞﾀｹﾝ","kana_city":"ｶﾘﾜｸﾞﾝｶﾘﾜﾑﾗ","kana_address":"ｼﾓﾀｶﾏﾁ","pref":"新潟県","city":"刈羽郡刈羽村","address":"下高町"},
{"zip_code":"9450317","kana_pref":"ﾆｲｶﾞﾀｹﾝ","kana_city":"ｶﾘﾜｸﾞﾝｶﾘﾜﾑﾗ","kana_address":"ｼｮｳﾐｮｳｼﾞ","pref":"新潟県","city":"刈羽郡刈羽村","address":"正明寺"},
{"zip_code":"9450303","kana_pref":"ﾆｲｶﾞﾀｹﾝ","kana_city":"ｶﾘﾜｸﾞﾝｶﾘﾜﾑﾗ","kana_address":"ﾀｷﾔ","pref":"新潟県","city":"刈羽郡刈羽村","address":"滝谷"},
{"zip_code":"9450302","kana_pref":"ﾆｲｶﾞﾀｹﾝ","kana_city":"ｶﾘﾜｸﾞﾝｶﾘﾜﾑﾗ","kana_address":"ﾀｷﾔｼﾝﾃﾞﾝ","pref":"新潟県","city":"刈羽郡刈羽村","address":"滝谷新田"},
{"zip_code":"9450304","kana_pref":"ﾆｲｶﾞﾀｹﾝ","kana_city":"ｶﾘﾜｸﾞﾝｶﾘﾜﾑﾗ","kana_address":"ﾃﾗｵ","pref":"新潟県","city":"刈羽郡刈羽村","address":"寺尾"},
{"zip_code":"9450306","kana_pref":"ﾆｲｶﾞﾀｹﾝ","kana_city":"ｶﾘﾜｸﾞﾝｶﾘﾜﾑﾗ","kana_address":"ﾄｵｶｲﾁ","pref":"新潟県","city":"刈羽郡刈羽村","address":"十日市"},
{"zip_code":"9450312","kana_pref":"ﾆｲｶﾞﾀｹﾝ","kana_city":"ｶﾘﾜｸﾞﾝｶﾘﾜﾑﾗ","kana_address":"ﾆｼﾀﾞﾆ","pref":"新潟県","city":"刈羽郡刈羽村","address":"西谷"},
{"zip_code":"9450308","kana_pref":"ﾆｲｶﾞﾀｹﾝ","kana_city":"ｶﾘﾜｸﾞﾝｶﾘﾜﾑﾗ","kana_address":"ﾜﾘﾏﾁｼﾝﾃﾞﾝ","pref":"新潟県","city":"刈羽郡刈羽村","address":"割町新田"}]}