{"zip_code":[
{"zip_code":"9460000","kana_pref":"ﾆｲｶﾞﾀｹﾝ","kana_city":"ｳｵﾇﾏｼ","kana_address":"","pref":"新潟県","city":"魚沼市","address":""},
{"zip_code":"9460043","kana_pref":"ﾆｲｶﾞﾀｹﾝ","kana_city":"ｳｵﾇﾏｼ","kana_address":"ｱｵｼﾏ","pref":"新潟県","city":"魚沼市","address":"青島"},
{"zip_code":"9460224","kana_pref":"ﾆｲｶﾞﾀｹﾝ","kana_city":"ｳｵﾇﾏｼ","kana_address":"ｱｶﾂﾁ","pref":"新潟県","city":"魚沼市","address":"赤土"},
{"zip_code":"9460304","kana_pref":"ﾆｲｶﾞﾀｹﾝ","kana_city":"ｳｵﾇﾏｼ","kana_address":"ｱﾅｻﾞﾜ","pref":"新潟県","city":"魚沼市","address":"穴沢"},
{"zip_code":"9460064","kana_pref":"ﾆｲｶﾞﾀｹﾝ","kana_city":"ｳｵﾇﾏｼ","kana_address":"ｲｹﾀﾞｲﾗ","pref":"新潟県","city":"魚沼市","address":"池平"},
{"zip_code":"9460064","kana_pref":"ﾆｲｶﾞﾀｹﾝ","kana_city":"ｳｵﾇﾏｼ","kana_address":"ｲｹﾀﾞｲﾗｼﾝﾃﾞﾝ","pref":"新潟県","city":"魚沼市","address":"池平新田"},
{"zip_code":"9460114","kana_pref":"ﾆｲｶﾞﾀｹﾝ","kana_city":"ｳｵﾇﾏｼ","kana_address":"ｲｽﾞﾐｻﾜ","pref":"新潟県","city":"魚沼市","address":"泉沢"},
{"zip_code":"9460038","kana_pref":"ﾆｲｶﾞﾀｹﾝ","kana_city":"ｳｵﾇﾏｼ","kana_address":"ｲｾｼﾞﾏ","pref":"新潟県","city":"魚沼市","address":"伊勢島"},
{"zip_code":"9460032","kana_pref":"ﾆｲｶﾞﾀｹﾝ","kana_city":"ｳｵﾇﾏｼ","kana_address":"ｲﾀｷﾞ","pref":"新潟県","city":"魚沼市","address":"板木"},
{"zip_code":"9460002","kana_pref":"ﾆｲｶﾞﾀｹﾝ","kana_city":"ｳｵﾇﾏｼ","kana_address":"ｲﾅﾘﾁｮｳ","pref":"新潟県","city":"魚沼市","address":"稲荷町"},
{"zip_code":"9460076","kana_pref":"ﾆｲｶﾞﾀｹﾝ","kana_city":"ｳｵﾇﾏｼ","kana_address":"ｲﾉｸﾁｼﾝﾃﾞﾝ","pref":"新潟県","city":"魚沼市","address":"井口新田"},
{"zip_code":"9460051","kana_pref":"ﾆｲｶﾞﾀｹﾝ","kana_city":"ｳｵﾇﾏｼ","kana_address":"ｲﾏｲｽﾞﾐ","pref":"新潟県","city":"魚沼市","address":"今泉"},
{"zip_code":"9460302","kana_pref":"ﾆｲｶﾞﾀｹﾝ","kana_city":"ｳｵﾇﾏｼ","kana_address":"ｲﾓｻﾞﾔ","pref":"新潟県","city":"魚沼市","address":"芋鞘"},
{"zip_code":"9460084","kana_pref":"ﾆｲｶﾞﾀｹﾝ","kana_city":"ｳｵﾇﾏｼ","kana_address":"ｳﾂﾉ","pref":"新潟県","city":"魚沼市","address":"宇津野"},
{"zip_code":"9460012","kana_pref":"ﾆｲｶﾞﾀｹﾝ","kana_city":"ｳｵﾇﾏｼ","kana_address":"ｳﾗﾏﾁ","pref":"新潟県","city":"魚沼市","address":"浦町"},
{"zip_code":"9460052","kana_pref":"ﾆｲｶﾞﾀｹﾝ","kana_city":"ｳｵﾇﾏｼ","kana_address":"ｴｸﾞﾁ","pref":"新潟県","city":"魚沼市","address":"江口"},
{"zip_code":"9460052","kana_pref":"ﾆｲｶﾞﾀｹﾝ","kana_city":"ｳｵﾇﾏｼ","kana_address":"ｴｸﾞﾁｼﾝﾃﾞﾝ","pref":"新潟県","city":"魚沼市","address":"江口新田"},
{"zip_code":"9460124","kana_pref":"ﾆｲｶﾞﾀｹﾝ","kana_city":"ｳｵﾇﾏｼ","kana_address":"ｵｵｲﾓｶﾞﾜ","pref":"新潟県","city":"魚沼市","address":"大芋川"},
{"zip_code":"9460033","kana_pref":"ﾆｲｶﾞﾀｹﾝ","kana_city":"ｳｵﾇﾏｼ","kana_address":"ｵｵｳﾗ","pref":"新潟県","city":"魚沼市","address":"大浦"},
{"zip_code":"9460034","kana_pref":"ﾆｲｶﾞﾀｹﾝ","kana_city":"ｳｵﾇﾏｼ","kana_address":"ｵｵｳﾗｼﾝﾃﾞﾝ","pref":"新潟県","city":"魚沼市","address":"大浦新田"},
{"zip_code":"9460226","kana_pref":"ﾆｲｶﾞﾀｹﾝ","kana_city":"ｳｵﾇﾏｼ","kana_address":"ｵｵｸﾗ","pref":"新潟県","city":"魚沼市","address":"大倉"},
{"zip_code":"9460223","kana_pref":"ﾆｲｶﾞﾀｹﾝ","kana_city":"ｳｵﾇﾏｼ","kana_address":"ｵｵｸﾗｻﾜ","pref":"新潟県","city":"魚沼市","address":"大倉沢"},
{"zip_code":"9460073","kana_pref":"ﾆｲｶﾞﾀｹﾝ","kana_city":"ｳｵﾇﾏｼ","kana_address":"ｵｵｻﾜ","pref":"新潟県","city":"魚沼市","address":"大沢"},
{"zip_code":"9460303","kana_pref":"ﾆｲｶﾞﾀｹﾝ","kana_city":"ｳｵﾇﾏｼ","kana_address":"ｵｵｼﾗｶﾜ","pref":"新潟県","city":"魚沼市","address":"大白川"},
{"zip_code":"9460004","kana_pref":"ﾆｲｶﾞﾀｹﾝ","kana_city":"ｳｵﾇﾏｼ","kana_address":"ｵｵﾂﾞｶｼﾝﾃﾞﾝ","pref":"新潟県","city":"魚沼市","address":"大塚新田"},
{"zip_code":"9460305","kana_pref":"ﾆｲｶﾞﾀｹﾝ","kana_city":"ｳｵﾇﾏｼ","kana_address":"ｵｵﾄﾁﾔﾏ","pref":"新潟県","city":"魚沼市","address":"大栃山"},
{"zip_code":"9460215","kana_pref":"ﾆｲｶﾞﾀｹﾝ","kana_city":"ｳｵﾇﾏｼ","kana_address":"ｵｵﾊﾗｼﾝﾃﾞﾝ","pref":"新潟県","city":"魚沼市","address":"大原新田"},
{"zip_code":"9460088","kana_pref":"ﾆｲｶﾞﾀｹﾝ","kana_city":"ｳｵﾇﾏｼ","kana_address":"ｵｵﾕｵﾝｾﾝ","pref":"新潟県","city":"魚沼市","address":"大湯温泉"},
{"zip_code":"9460036","kana_pref":"ﾆｲｶﾞﾀｹﾝ","kana_city":"ｳｵﾇﾏｼ","kana_address":"ｵｶｼﾝﾃﾞﾝ","pref":"新潟県","city":"魚沼市","address":"岡新田"},
{"zip_code":"9460101","kana_pref":"ﾆｲｶﾞﾀｹﾝ","kana_city":"ｳｵﾇﾏｼ","kana_address":"ｵﾋﾞﾛｵ","pref":"新潟県","city":"魚沼市","address":"小平尾"},
{"zip_code":"9460108","kana_pref":"ﾆｲｶﾞﾀｹﾝ","kana_city":"ｳｵﾇﾏｼ","kana_address":"ｵﾔｶﾞﾗ","pref":"新潟県","city":"魚沼市","address":"親柄"},
{"zip_code":"9460086","kana_pref":"ﾆｲｶﾞﾀｹﾝ","kana_city":"ｳｵﾇﾏｼ","kana_address":"ｵﾘﾀﾃﾏﾀｼﾝﾃﾞﾝ","pref":"新潟県","city":"魚沼市","address":"折立又新田"},
{"zip_code":"9460105","kana_pref":"ﾆｲｶﾞﾀｹﾝ","kana_city":"ｳｵﾇﾏｼ","kana_address":"ｶﾈｶﾞｻﾜ","pref":"新潟県","city":"魚沼市","address":"金ケ沢"},
{"zip_code":"9460087","kana_pref":"ﾆｲｶﾞﾀｹﾝ","kana_city":"ｳｵﾇﾏｼ","kana_address":"ｶﾐｵﾘﾀﾃ","pref":"新潟県","city":"魚沼市","address":"上折立"},
{"zip_code":"9460211","kana_pref":"ﾆｲｶﾞﾀｹﾝ","kana_city":"ｳｵﾇﾏｼ","kana_address":"ｶﾐﾅｶﾞﾄﾘｼﾝﾃﾞﾝ","pref":"新潟県","city":"魚沼市","address":"上長鳥新田"},
{"zip_code":"9460022","kana_pref":"ﾆｲｶﾞﾀｹﾝ","kana_city":"ｳｵﾇﾏｼ","kana_address":"ｶﾐﾊﾗ","pref":"新潟県","city":"魚沼市","address":"上原"},
{"zip_code":"9460107","kana_pref":"ﾆｲｶﾞﾀｹﾝ","kana_city":"ｳｵﾇﾏｼ","kana_address":"ｶﾞﾝｻﾞｶｼﾀ","pref":"新潟県","city":"魚沼市","address":"雁坂下"},
{"zip_code":"9460107","kana_pref":"ﾆｲｶﾞﾀｹﾝ","kana_city":"ｳｵﾇﾏｼ","kana_address":"ｷﾖﾓﾄ","pref":"新潟県","city":"魚沼市","address":"清本"},
{"zip_code":"9460104","kana_pref":"ﾆｲｶﾞﾀｹﾝ","kana_city":"ｳｵﾇﾏｼ","kana_address":"ｸﾘﾔﾏ","pref":"新潟県","city":"魚沼市","address":"栗山"},
{"zip_code":"9460011","kana_pref":"ﾆｲｶﾞﾀｹﾝ","kana_city":"ｳｵﾇﾏｼ","kana_address":"ｺｲﾃﾞｼﾞﾏ","pref":"新潟県","city":"魚沼市","address":"小出島"},
{"zip_code":"9460125","kana_pref":"ﾆｲｶﾞﾀｹﾝ","kana_city":"ｳｵﾇﾏｼ","kana_address":"ｺｼﾏﾀ","pref":"新潟県","city":"魚沼市","address":"越又"},
{"zip_code":"9460025","kana_pref":"ﾆｲｶﾞﾀｹﾝ","kana_city":"ｳｵﾇﾏｼ","kana_address":"ｺｼﾝﾃﾞﾝ","pref":"新潟県","city":"魚沼市","address":"古新田"},
{"zip_code":"9460121","kana_pref":"ﾆｲｶﾞﾀｹﾝ","kana_city":"ｳｵﾇﾏｼ","kana_address":"ｺﾃﾝﾐｮｳ","pref":"新潟県","city":"魚沼市","address":"小庭名"},
{"zip_code":"9460121","kana_pref":"ﾆｲｶﾞﾀｹﾝ","kana_city":"ｳｵﾇﾏｼ","kana_address":"ｺﾃﾝﾐｮｳｼﾝﾃﾞﾝ","pref":"新潟県","city":"魚沼市","address":"小庭名新田"},
{"zip_code":"9460021","kana_pref":"ﾆｲｶﾞﾀｹﾝ","kana_city":"ｳｵﾇﾏｼ","kana_address":"ｻﾅｼ","pref":"新潟県","city":"魚沼市","address":"佐梨"},
{"zip_code":"9460203","kana_pref":"ﾆｲｶﾞﾀｹﾝ","kana_city":"ｳｵﾇﾏｼ","kana_address":"ｼﾌﾞｶﾜ","pref":"新潟県","city":"魚沼市","address":"渋川"},
{"zip_code":"9460085","kana_pref":"ﾆｲｶﾞﾀｹﾝ","kana_city":"ｳｵﾇﾏｼ","kana_address":"ｼﾓｵﾘﾀﾃ","pref":"新潟県","city":"魚沼市","address":"下折立"},
{"zip_code":"9460107","kana_pref":"ﾆｲｶﾞﾀｹﾝ","kana_city":"ｳｵﾇﾏｼ","kana_address":"ｼﾓﾀﾞ","pref":"新潟県","city":"魚沼市","address":"下田"},
{"zip_code":"9460061","kana_pref":"ﾆｲｶﾞﾀｹﾝ","kana_city":"ｳｵﾇﾏｼ","kana_address":"ｼﾝﾎﾞ","pref":"新潟県","city":"魚沼市","address":"新保"},
{"zip_code":"9460061","kana_pref":"ﾆｲｶﾞﾀｹﾝ","kana_city":"ｳｵﾇﾏｼ","kana_address":"ｼﾝﾎﾞｼﾝﾃﾞﾝ","pref":"新潟県","city":"魚沼市","address":"新保新田"},
{"zip_code":"9460221","kana_pref":"ﾆｲｶﾞﾀｹﾝ","kana_city":"ｳｵﾇﾏｼ","kana_address":"ｽｶﾞﾜ","pref":"新潟県","city":"魚沼市","address":"須川"},
{"zip_code":"9460216","kana_pref":"ﾆｲｶﾞﾀｹﾝ","kana_city":"ｳｵﾇﾏｼ","kana_address":"ｽﾊﾗ","pref":"新潟県","city":"魚沼市","address":"須原"},
{"zip_code":"9460003","kana_pref":"ﾆｲｶﾞﾀｹﾝ","kana_city":"ｳｵﾇﾏｼ","kana_address":"ｽﾜﾁｮｳ","pref":"新潟県","city":"魚沼市","address":"諏訪町"},
{"zip_code":"9460102","kana_pref":"ﾆｲｶﾞﾀｹﾝ","kana_city":"ｳｵﾇﾏｼ","kana_address":"ｿﾃﾞﾔﾏ","pref":"新潟県","city":"魚沼市","address":"外山"},
{"zip_code":"9460201","kana_pref":"ﾆｲｶﾞﾀｹﾝ","kana_city":"ｳｵﾇﾏｼ","kana_address":"ﾀｶｸﾗ","pref":"新潟県","city":"魚沼市","address":"高倉"},
{"zip_code":"9460103","kana_pref":"ﾆｲｶﾞﾀｹﾝ","kana_city":"ｳｵﾇﾏｼ","kana_address":"ﾀｷﾉﾏﾀ","pref":"新潟県","city":"魚沼市","address":"滝之又"},
{"zip_code":"9460301","kana_pref":"ﾆｲｶﾞﾀｹﾝ","kana_city":"ｳｵﾇﾏｼ","kana_address":"ﾀｺﾞﾔ","pref":"新潟県","city":"魚沼市","address":"田小屋"},
{"zip_code":"9460112","kana_pref":"ﾆｲｶﾞﾀｹﾝ","kana_city":"ｳｵﾇﾏｼ","kana_address":"ﾀｼﾞﾘ","pref":"新潟県","city":"魚沼市","address":"田尻"},
{"zip_code":"9460106","kana_pref":"ﾆｲｶﾞﾀｹﾝ","kana_city":"ｳｵﾇﾏｼ","kana_address":"ﾀﾅｶ","pref":"新潟県","city":"魚沼市","address":"田中"},
{"zip_code":"9460063","kana_pref":"ﾆｲｶﾞﾀｹﾝ","kana_city":"ｳｵﾇﾏｼ","kana_address":"ﾁｭｳｶ","pref":"新潟県","city":"魚沼市","address":"中家"},
{"zip_code":"9460063","kana_pref":"ﾆｲｶﾞﾀｹﾝ","kana_city":"ｳｵﾇﾏｼ","kana_address":"ﾁｭｳｶｼﾝﾃﾞﾝ","pref":"新潟県","city":"魚沼市","address":"中家新田"},
{"zip_code":"9460065","kana_pref":"ﾆｲｶﾞﾀｹﾝ","kana_city":"ｳｵﾇﾏｼ","kana_address":"ﾁｭｳｼｻﾞﾜ","pref":"新潟県","city":"魚沼市","address":"中子沢"},
{"zip_code":"9460035","kana_pref":"ﾆｲｶﾞﾀｹﾝ","kana_city":"ｳｵﾇﾏｼ","kana_address":"ﾄｵｶﾏﾁ","pref":"新潟県","city":"魚沼市","address":"十日町"},
{"zip_code":"9460057","kana_pref":"ﾆｲｶﾞﾀｹﾝ","kana_city":"ｳｵﾇﾏｼ","kana_address":"ﾅｶｼﾞﾏ","pref":"新潟県","city":"魚沼市","address":"中島"},
{"zip_code":"9460058","kana_pref":"ﾆｲｶﾞﾀｹﾝ","kana_city":"ｳｵﾇﾏｼ","kana_address":"ﾅｶｼﾞﾏｼﾝﾃﾞﾝ","pref":"新潟県","city":"魚沼市","address":"中島新田"},
{"zip_code":"9460212","kana_pref":"ﾆｲｶﾞﾀｹﾝ","kana_city":"ｳｵﾇﾏｼ","kana_address":"ﾅｶﾞﾄﾘ","pref":"新潟県","city":"魚沼市","address":"長鳥"},
{"zip_code":"9460006","kana_pref":"ﾆｲｶﾞﾀｹﾝ","kana_city":"ｳｵﾇﾏｼ","kana_address":"ﾅｶﾉｼﾏ","pref":"新潟県","city":"魚沼市","address":"中之島"},
{"zip_code":"9460024","kana_pref":"ﾆｲｶﾞﾀｹﾝ","kana_city":"ｳｵﾇﾏｼ","kana_address":"ﾅｶﾊﾗ","pref":"新潟県","city":"魚沼市","address":"中原"},
{"zip_code":"9460107","kana_pref":"ﾆｲｶﾞﾀｹﾝ","kana_city":"ｳｵﾇﾏｼ","kana_address":"ﾅｶﾞﾎﾘｼﾝﾃﾞﾝ","pref":"新潟県","city":"魚沼市","address":"長堀新田"},
{"zip_code":"9460053","kana_pref":"ﾆｲｶﾞﾀｹﾝ","kana_city":"ｳｵﾇﾏｼ","kana_address":"ﾅｶﾞﾏﾂ","pref":"新潟県","city":"魚沼市","address":"長松"},
{"zip_code":"9460071","kana_pref":"ﾆｲｶﾞﾀｹﾝ","kana_city":"ｳｵﾇﾏｼ","kana_address":"ﾅﾉｶｲﾁ","pref":"新潟県","city":"魚沼市","address":"七日市"},
{"zip_code":"9460072","kana_pref":"ﾆｲｶﾞﾀｹﾝ","kana_city":"ｳｵﾇﾏｼ","kana_address":"ﾅﾉｶｲﾁｼﾝﾃﾞﾝ","pref":"新潟県","city":"魚沼市","address":"七日市新田"},
{"zip_code":"9460111","kana_pref":"ﾆｲｶﾞﾀｹﾝ","kana_city":"ｳｵﾇﾏｼ","kana_address":"ﾅﾐﾔﾅｷﾞ","pref":"新潟県","city":"魚沼市","address":"並柳"},
{"zip_code":"9460204","kana_pref":"ﾆｲｶﾞﾀｹﾝ","kana_city":"ｳｵﾇﾏｼ","kana_address":"ﾆｼﾐｮｳ","pref":"新潟県","city":"魚沼市","address":"西名"},
{"zip_code":"9460206","kana_pref":"ﾆｲｶﾞﾀｹﾝ","kana_city":"ｳｵﾇﾏｼ","kana_address":"ﾆｼﾐｮｳｼﾝﾃﾞﾝ","pref":"新潟県","city":"魚沼市","address":"西名新田"},
{"zip_code":"9460031","kana_pref":"ﾆｲｶﾞﾀｹﾝ","kana_city":"ｳｵﾇﾏｼ","kana_address":"ﾊﾗﾑｼﾉ","pref":"新潟県","city":"魚沼市","address":"原虫野"},
{"zip_code":"9460113","kana_pref":"ﾆｲｶﾞﾀｹﾝ","kana_city":"ｳｵﾇﾏｼ","kana_address":"ﾋｶﾞｼﾅｶ","pref":"新潟県","city":"魚沼市","address":"東中"},
{"zip_code":"9460202","kana_pref":"ﾆｲｶﾞﾀｹﾝ","kana_city":"ｳｵﾇﾏｼ","kana_address":"ﾋｶﾞｼﾉﾐｮｳ","pref":"新潟県","city":"魚沼市","address":"東野名"},
{"zip_code":"9460062","kana_pref":"ﾆｲｶﾞﾀｹﾝ","kana_city":"ｳｵﾇﾏｼ","kana_address":"ﾋﾄｲﾁ","pref":"新潟県","city":"魚沼市","address":"一日市"},
{"zip_code":"9460023","kana_pref":"ﾆｲｶﾞﾀｹﾝ","kana_city":"ｳｵﾇﾏｼ","kana_address":"ﾋﾐｿﾞ","pref":"新潟県","city":"魚沼市","address":"干溝"},
{"zip_code":"9460306","kana_pref":"ﾆｲｶﾞﾀｹﾝ","kana_city":"ｳｵﾇﾏｼ","kana_address":"ﾋﾗﾉﾏﾀ","pref":"新潟県","city":"魚沼市","address":"平野又"},
{"zip_code":"9460001","kana_pref":"ﾆｲｶﾞﾀｹﾝ","kana_city":"ｳｵﾇﾏｼ","kana_address":"ﾋﾜﾀｼｼﾝﾃﾞﾝ","pref":"新潟県","city":"魚沼市","address":"日渡新田"},
{"zip_code":"9460222","kana_pref":"ﾆｲｶﾞﾀｹﾝ","kana_city":"ｳｵﾇﾏｼ","kana_address":"ﾌｸﾀﾞｼﾝﾃﾞﾝ","pref":"新潟県","city":"魚沼市","address":"福田新田"},
{"zip_code":"9460207","kana_pref":"ﾆｲｶﾞﾀｹﾝ","kana_city":"ｳｵﾇﾏｼ","kana_address":"ﾌｸﾔﾏｼﾝﾃﾞﾝ","pref":"新潟県","city":"魚沼市","address":"福山新田"},
{"zip_code":"9460213","kana_pref":"ﾆｲｶﾞﾀｹﾝ","kana_city":"ｳｵﾇﾏｼ","kana_address":"ﾎｿﾉ","pref":"新潟県","city":"魚沼市","address":"細野"},
{"zip_code":"9460041","kana_pref":"ﾆｲｶﾞﾀｹﾝ","kana_city":"ｳｵﾇﾏｼ","kana_address":"ﾎﾝﾁｮｳ","pref":"新潟県","city":"魚沼市","address":"本町"},
{"zip_code":"9460214","kana_pref":"ﾆｲｶﾞﾀｹﾝ","kana_city":"ｳｵﾇﾏｼ","kana_address":"ﾏﾂｶﾜ","pref":"新潟県","city":"魚沼市","address":"松川"},
{"zip_code":"9460123","kana_pref":"ﾆｲｶﾞﾀｹﾝ","kana_city":"ｳｵﾇﾏｼ","kana_address":"ﾐｽﾞｻﾜ","pref":"新潟県","city":"魚沼市","address":"水沢"},
{"zip_code":"9460066","kana_pref":"ﾆｲｶﾞﾀｹﾝ","kana_city":"ｳｵﾇﾏｼ","kana_address":"ﾐﾂﾏﾀ","pref":"新潟県","city":"魚沼市","address":"三ツ又"},
{"zip_code":"9460083","kana_pref":"ﾆｲｶﾞﾀｹﾝ","kana_city":"ｳｵﾇﾏｼ","kana_address":"ﾐﾉﾜﾀﾞ","pref":"新潟県","city":"魚沼市","address":"蓑和田"},
{"zip_code":"9460225","kana_pref":"ﾆｲｶﾞﾀｹﾝ","kana_city":"ｳｵﾇﾏｼ","kana_address":"ﾐﾌﾁｻﾜ","pref":"新潟県","city":"魚沼市","address":"三渕沢"},
{"zip_code":"9460105","kana_pref":"ﾆｲｶﾞﾀｹﾝ","kana_city":"ｳｵﾇﾏｼ","kana_address":"ﾐﾔｻﾞﾜｼﾝﾃﾞﾝ","pref":"新潟県","city":"魚沼市","address":"宮沢新田"},
{"zip_code":"9460205","kana_pref":"ﾆｲｶﾞﾀｹﾝ","kana_city":"ｳｵﾇﾏｼ","kana_address":"ﾐﾔﾂﾊﾞｷｼﾝﾃﾞﾝ","pref":"新潟県","city":"魚沼市","address":"宮椿新田"},
{"zip_code":"9460081","kana_pref":"ﾆｲｶﾞﾀｹﾝ","kana_city":"ｳｵﾇﾏｼ","kana_address":"ﾑｸﾞﾗｻﾞﾜ","pref":"新潟県","city":"魚沼市","address":"葎沢"},
{"zip_code":"9460037","kana_pref":"ﾆｲｶﾞﾀｹﾝ","kana_city":"ｳｵﾇﾏｼ","kana_address":"ﾑｼﾉ","pref":"新潟県","city":"魚沼市","address":"虫野"},
{"zip_code":"9460123","kana_pref":"ﾆｲｶﾞﾀｹﾝ","kana_city":"ｳｵﾇﾏｼ","kana_address":"ﾓｻﾜ","pref":"新潟県","city":"魚沼市","address":"茂沢"},
{"zip_code":"9460042","kana_pref":"ﾆｲｶﾞﾀｹﾝ","kana_city":"ｳｵﾇﾏｼ","kana_address":"ﾔﾅｷﾞﾊﾗ","pref":"新潟県","city":"魚沼市","address":"柳原"},
{"zip_code":"9460115","kana_pref":"ﾆｲｶﾞﾀｹﾝ","kana_city":"ｳｵﾇﾏｼ","kana_address":"ﾔﾏｸﾞﾁ","pref":"新潟県","city":"魚沼市","address":"山口"},
{"zip_code":"9460055","kana_pref":"ﾆｲｶﾞﾀｹﾝ","kana_city":"ｳｵﾇﾏｼ","kana_address":"ﾔﾏﾀﾞ","pref":"新潟県","city":"魚沼市","address":"山田"},
{"zip_code":"9460056","kana_pref":"ﾆｲｶﾞﾀｹﾝ","kana_city":"ｳｵﾇﾏｼ","kana_address":"ﾔﾏﾀﾞｼﾀ","pref":"新潟県","city":"魚沼市","address":"山田下"},
{"zip_code":"9460082","kana_pref":"ﾆｲｶﾞﾀｹﾝ","kana_city":"ｳｵﾇﾏｼ","kana_address":"ﾕﾉﾀﾆｲﾓｶﾞﾜ","pref":"新潟県","city":"魚沼市","address":"湯之谷芋川"},
{"zip_code":"9460107","kana_pref":"ﾆｲｶﾞﾀｹﾝ","kana_city":"ｳｵﾇﾏｼ","kana_address":"ﾖｺｾﾞ","pref":"新潟県","city":"魚沼市","address":"横瀬"},
{"zip_code":"9460005","kana_pref":"ﾆｲｶﾞﾀｹﾝ","kana_city":"ｳｵﾇﾏｼ","kana_address":"ﾖｺﾁｮｳ","pref":"新潟県","city":"魚沼市","address":"横町"},
{"zip_code":"9460307","kana_pref":"ﾆｲｶﾞﾀｹﾝ","kana_city":"ｳｵﾇﾏｼ","kana_address":"ﾖｺﾈ","pref":"新潟県","city":"魚沼市","address":"横根"},
{"zip_code":"9460075","kana_pref":"ﾆｲｶﾞﾀｹﾝ","kana_city":"ｳｵﾇﾏｼ","kana_address":"ﾖｼﾀﾞ","pref":"新潟県","city":"魚沼市","address":"吉田"},
{"zip_code":"9460121","kana_pref":"ﾆｲｶﾞﾀｹﾝ","kana_city":"ｳｵﾇﾏｼ","kana_address":"ﾖｼﾀﾞｲﾗ","pref":"新潟県","city":"魚沼市","address":"吉平"},
{"zip_code":"9460122","kana_pref":"ﾆｲｶﾞﾀｹﾝ","kana_city":"ｳｵﾇﾏｼ","kana_address":"ﾖｼﾜﾗ","pref":"新潟県","city":"魚沼市","address":"吉原"},
{"zip_code":"9460007","kana_pref":"ﾆｲｶﾞﾀｹﾝ","kana_city":"ｳｵﾇﾏｼ","kana_address":"ﾖｯｶﾏﾁ","pref":"新潟県","city":"魚沼市","address":"四日町"},
{"zip_code":"9460054","kana_pref":"ﾆｲｶﾞﾀｹﾝ","kana_city":"ｳｵﾇﾏｼ","kana_address":"ﾖﾈｻﾞﾜ","pref":"新潟県","city":"魚沼市","address":"米沢"},
{"zip_code":"9460121","kana_pref":"ﾆｲｶﾞﾀｹﾝ","kana_city":"ｳｵﾇﾏｼ","kana_address":"ﾚﾝﾆﾁ","pref":"新潟県","city":"魚沼市","address":"連日"},
{"zip_code":"9460109","kana_pref":"ﾆｲｶﾞﾀｹﾝ","kana_city":"ｳｵﾇﾏｼ","kana_address":"ﾜﾀﾞ","pref":"新潟県","city":"魚沼市","address":"和田"}]}