{"zip_code":[
{"zip_code":"9470204","kana_pref":"ﾆｲｶﾞﾀｹﾝ","kana_city":"ﾅｶﾞｵｶｼ","kana_address":"ﾔﾏｺｼﾀｹｻﾞﾜ","pref":"新潟県","city":"長岡市","address":"山古志竹沢"},
{"zip_code":"9470201","kana_pref":"ﾆｲｶﾞﾀｹﾝ","kana_city":"ﾅｶﾞｵｶｼ","kana_address":"ﾔﾏｺｼﾀﾈｽﾊﾗ","pref":"新潟県","city":"長岡市","address":"山古志種苧原"},
{"zip_code":"9470202","kana_pref":"ﾆｲｶﾞﾀｹﾝ","kana_city":"ﾅｶﾞｵｶｼ","kana_address":"ﾔﾏｺｼﾅﾝﾍﾟｲ","pref":"新潟県","city":"長岡市","address":"山古志南平"},
{"zip_code":"9470203","kana_pref":"ﾆｲｶﾞﾀｹﾝ","kana_city":"ﾅｶﾞｵｶｼ","kana_address":"ﾔﾏｺｼﾋｶﾞｼﾀｹｻﾞﾜ","pref":"新潟県","city":"長岡市","address":"山古志東竹沢"},
{"zip_code":"9470205","kana_pref":"ﾆｲｶﾞﾀｹﾝ","kana_city":"ﾅｶﾞｵｶｼ","kana_address":"ﾔﾏｺｼﾑｼｶﾞﾒ","pref":"新潟県","city":"長岡市","address":"山古志虫亀"},
{"zip_code":"9470000","kana_pref":"ﾆｲｶﾞﾀｹﾝ","kana_city":"ｵﾁﾞﾔｼ","kana_address":"","pref":"新潟県","city":"小千谷市","address":""},
{"zip_code":"9470005","kana_pref":"ﾆｲｶﾞﾀｹﾝ","kana_city":"ｵﾁﾞﾔｼ","kana_address":"ｱｻﾋﾁｮｳ","pref":"新潟県","city":"小千谷市","address":"旭町"},
{"zip_code":"9470025","kana_pref":"ﾆｲｶﾞﾀｹﾝ","kana_city":"ｵﾁﾞﾔｼ","kana_address":"ｲﾅﾘﾏﾁ","pref":"新潟県","city":"小千谷市","address":"稲荷町"},
{"zip_code":"9470026","kana_pref":"ﾆｲｶﾞﾀｹﾝ","kana_city":"ｵﾁﾞﾔｼ","kana_address":"ｳｴﾉﾔﾏ","pref":"新潟県","city":"小千谷市","address":"上ノ山"},
{"zip_code":"9470001","kana_pref":"ﾆｲｶﾞﾀｹﾝ","kana_city":"ｵﾁﾞﾔｼ","kana_address":"ｳﾗｶﾞﾗ","pref":"新潟県","city":"小千谷市","address":"浦柄"},
{"zip_code":"9470101","kana_pref":"ﾆｲｶﾞﾀｹﾝ","kana_city":"ｵﾁﾞﾔｼ","kana_address":"ｶﾀｶｲﾏﾁ","pref":"新潟県","city":"小千谷市","address":"片貝町"},
{"zip_code":"9470103","kana_pref":"ﾆｲｶﾞﾀｹﾝ","kana_city":"ｵﾁﾞﾔｼ","kana_address":"ｶﾀｶｲﾔﾏﾔﾁｮｳ","pref":"新潟県","city":"小千谷市","address":"片貝山屋町"},
{"zip_code":"9470013","kana_pref":"ﾆｲｶﾞﾀｹﾝ","kana_city":"ｵﾁﾞﾔｼ","kana_address":"ｶﾐｶﾞﾀｶｲ","pref":"新潟県","city":"小千谷市","address":"上片貝"},
{"zip_code":"9470045","kana_pref":"ﾆｲｶﾞﾀｹﾝ","kana_city":"ｵﾁﾞﾔｼ","kana_address":"ｺｳﾉｽﾁｮｳ","pref":"新潟県","city":"小千谷市","address":"鴻巣町"},
{"zip_code":"9470211","kana_pref":"ﾆｲｶﾞﾀｹﾝ","kana_city":"ｵﾁﾞﾔｼ","kana_address":"ｺｸﾞﾘﾔﾏ","pref":"新潟県","city":"小千谷市","address":"小栗山"},
{"zip_code":"9470041","kana_pref":"ﾆｲｶﾞﾀｹﾝ","kana_city":"ｵﾁﾞﾔｼ","kana_address":"ｺﾜﾀﾞ","pref":"新潟県","city":"小千谷市","address":"小粟田"},
{"zip_code":"9470011","kana_pref":"ﾆｲｶﾞﾀｹﾝ","kana_city":"ｵﾁﾞﾔｼ","kana_address":"ｻｶｴﾁｮｳ","pref":"新潟県","city":"小千谷市","address":"栄町"},
{"zip_code":"9470035","kana_pref":"ﾆｲｶﾞﾀｹﾝ","kana_city":"ｵﾁﾞﾔｼ","kana_address":"ｻｸﾗﾏﾁ","pref":"新潟県","city":"小千谷市","address":"桜町"},
{"zip_code":"9470051","kana_pref":"ﾆｲｶﾞﾀｹﾝ","kana_city":"ｵﾁﾞﾔｼ","kana_address":"ｻﾝﾌﾞｼｮｳ","pref":"新潟県","city":"小千谷市","address":"三仏生"},
{"zip_code":"9470213","kana_pref":"ﾆｲｶﾞﾀｹﾝ","kana_city":"ｵﾁﾞﾔｼ","kana_address":"ｼｵﾀﾞﾆ","pref":"新潟県","city":"小千谷市","address":"塩谷"},
{"zip_code":"9470028","kana_pref":"ﾆｲｶﾞﾀｹﾝ","kana_city":"ｵﾁﾞﾔｼ","kana_address":"ｼﾞｮｳﾅｲ","pref":"新潟県","city":"小千谷市","address":"城内"},
{"zip_code":"9470102","kana_pref":"ﾆｲｶﾞﾀｹﾝ","kana_city":"ｵﾁﾞﾔｼ","kana_address":"ﾀｶﾅｼﾁｮｳ","pref":"新潟県","city":"小千谷市","address":"高梨町"},
{"zip_code":"9470052","kana_pref":"ﾆｲｶﾞﾀｹﾝ","kana_city":"ｵﾁﾞﾔｼ","kana_address":"ﾁﾔ","pref":"新潟県","city":"小千谷市","address":"千谷"},
{"zip_code":"9470053","kana_pref":"ﾆｲｶﾞﾀｹﾝ","kana_city":"ｵﾁﾞﾔｼ","kana_address":"ﾁﾔｶﾞﾜ","pref":"新潟県","city":"小千谷市","address":"千谷川"},
{"zip_code":"9470031","kana_pref":"ﾆｲｶﾞﾀｹﾝ","kana_city":"ｵﾁﾞﾔｼ","kana_address":"ﾂﾁｶﾜ","pref":"新潟県","city":"小千谷市","address":"土川"},
{"zip_code":"9470044","kana_pref":"ﾆｲｶﾞﾀｹﾝ","kana_city":"ｵﾁﾞﾔｼ","kana_address":"ﾂﾎﾞﾉ","pref":"新潟県","city":"小千谷市","address":"坪野"},
{"zip_code":"9470004","kana_pref":"ﾆｲｶﾞﾀｹﾝ","kana_city":"ｵﾁﾞﾔｼ","kana_address":"ﾄｳｴｲ","pref":"新潟県","city":"小千谷市","address":"東栄"},
{"zip_code":"9470033","kana_pref":"ﾆｲｶﾞﾀｹﾝ","kana_city":"ｵﾁﾞﾔｼ","kana_address":"ﾄｷﾐｽﾞ","pref":"新潟県","city":"小千谷市","address":"時水"},
{"zip_code":"9470014","kana_pref":"ﾆｲｶﾞﾀｹﾝ","kana_city":"ｵﾁﾞﾔｼ","kana_address":"ﾆｼﾅｶ","pref":"新潟県","city":"小千谷市","address":"西中"},
{"zip_code":"9470018","kana_pref":"ﾆｲｶﾞﾀｹﾝ","kana_city":"ｵﾁﾞﾔｼ","kana_address":"ﾆｼﾖｼﾀﾞﾆ","pref":"新潟県","city":"小千谷市","address":"西吉谷"},
{"zip_code":"9470003","kana_pref":"ﾆｲｶﾞﾀｹﾝ","kana_city":"ｵﾁﾞﾔｼ","kana_address":"ﾋｳ","pref":"新潟県","city":"小千谷市","address":"ひ生"},
{"zip_code":"9470017","kana_pref":"ﾆｲｶﾞﾀｹﾝ","kana_city":"ｵﾁﾞﾔｼ","kana_address":"ﾋｶﾞｼﾖｼﾀﾞﾆ","pref":"新潟県","city":"小千谷市","address":"東吉谷"},
{"zip_code":"9470023","kana_pref":"ﾆｲｶﾞﾀｹﾝ","kana_city":"ｵﾁﾞﾔｼ","kana_address":"ﾋﾖｼ","pref":"新潟県","city":"小千谷市","address":"日吉"},
{"zip_code":"9470042","kana_pref":"ﾆｲｶﾞﾀｹﾝ","kana_city":"ｵﾁﾞﾔｼ","kana_address":"ﾋﾗｻﾜ","pref":"新潟県","city":"小千谷市","address":"平沢"},
{"zip_code":"9470042","kana_pref":"ﾆｲｶﾞﾀｹﾝ","kana_city":"ｵﾁﾞﾔｼ","kana_address":"ﾋﾗｻﾜｼﾝﾃﾞﾝ","pref":"新潟県","city":"小千谷市","address":"平沢新田"},
{"zip_code":"9470024","kana_pref":"ﾆｲｶﾞﾀｹﾝ","kana_city":"ｵﾁﾞﾔｼ","kana_address":"ﾌﾅｵｶ","pref":"新潟県","city":"小千谷市","address":"船岡"},
{"zip_code":"9470027","kana_pref":"ﾆｲｶﾞﾀｹﾝ","kana_city":"ｵﾁﾞﾔｼ","kana_address":"ﾍｲｾｲ","pref":"新潟県","city":"小千谷市","address":"平成"},
{"zip_code":"9470021","kana_pref":"ﾆｲｶﾞﾀｹﾝ","kana_city":"ｵﾁﾞﾔｼ","kana_address":"ﾎﾝﾁｮｳ","pref":"新潟県","city":"小千谷市","address":"本町"},
{"zip_code":"9470212","kana_pref":"ﾆｲｶﾞﾀｹﾝ","kana_city":"ｵﾁﾞﾔｼ","kana_address":"ﾐﾅﾐﾆｺﾞﾛ","pref":"新潟県","city":"小千谷市","address":"南荷頃"},
{"zip_code":"9470022","kana_pref":"ﾆｲｶﾞﾀｹﾝ","kana_city":"ｵﾁﾞﾔｼ","kana_address":"ﾓﾄﾏﾁ","pref":"新潟県","city":"小千谷市","address":"元町"},
{"zip_code":"9470015","kana_pref":"ﾆｲｶﾞﾀｹﾝ","kana_city":"ｵﾁﾞﾔｼ","kana_address":"ﾔﾁ","pref":"新潟県","city":"小千谷市","address":"谷内"},
{"zip_code":"9470032","kana_pref":"ﾆｲｶﾞﾀｹﾝ","kana_city":"ｵﾁﾞﾔｼ","kana_address":"ﾔﾌﾞｶﾜ","pref":"新潟県","city":"小千谷市","address":"薮川"},
{"zip_code":"9470012","kana_pref":"ﾆｲｶﾞﾀｹﾝ","kana_city":"ｵﾁﾞﾔｼ","kana_address":"ﾔﾏﾓﾄ","pref":"新潟県","city":"小千谷市","address":"山本"},
{"zip_code":"9470043","kana_pref":"ﾆｲｶﾞﾀｹﾝ","kana_city":"ｵﾁﾞﾔｼ","kana_address":"ﾔﾏﾔ","pref":"新潟県","city":"小千谷市","address":"山谷"},
{"zip_code":"9470002","kana_pref":"ﾆｲｶﾞﾀｹﾝ","kana_city":"ｵﾁﾞﾔｼ","kana_address":"ﾖｺﾜﾀｼ","pref":"新潟県","city":"小千谷市","address":"横渡"},
{"zip_code":"9470016","kana_pref":"ﾆｲｶﾞﾀｹﾝ","kana_city":"ｵﾁﾞﾔｼ","kana_address":"ﾖﾂｺ","pref":"新潟県","city":"小千谷市","address":"四ツ子"},
{"zip_code":"9470034","kana_pref":"ﾆｲｶﾞﾀｹﾝ","kana_city":"ｵﾁﾞﾔｼ","kana_address":"ﾘｮｳｼﾝﾃﾞﾝ","pref":"新潟県","city":"小千谷市","address":"両新田"},
{"zip_code":"9470054","kana_pref":"ﾆｲｶﾞﾀｹﾝ","kana_city":"ｵﾁﾞﾔｼ","kana_address":"ﾜｶﾊﾞ","pref":"新潟県","city":"小千谷市","address":"若葉"}]}