{"zip_code":[
{"zip_code":"9480000","kana_pref":"ﾆｲｶﾞﾀｹﾝ","kana_city":"ﾄｵｶﾏﾁｼ","kana_address":"","pref":"新潟県","city":"十日町市","address":""},
{"zip_code":"9480046","kana_pref":"ﾆｲｶﾞﾀｹﾝ","kana_city":"ﾄｵｶﾏﾁｼ","kana_address":"ｱｶｼﾁｮｳ","pref":"新潟県","city":"十日町市","address":"明石町"},
{"zip_code":"9480213","kana_pref":"ﾆｲｶﾞﾀｹﾝ","kana_city":"ﾄｵｶﾏﾁｼ","kana_address":"ｱｶﾀﾆ","pref":"新潟県","city":"十日町市","address":"赤谷"},
{"zip_code":"9480045","kana_pref":"ﾆｲｶﾞﾀｹﾝ","kana_city":"ﾄｵｶﾏﾁｼ","kana_address":"ｱｻﾊﾞﾀｹ","pref":"新潟県","city":"十日町市","address":"麻畑"},
{"zip_code":"9480121","kana_pref":"ﾆｲｶﾞﾀｹﾝ","kana_city":"ﾄｵｶﾏﾁｼ","kana_address":"ｱﾗﾏﾁｼﾝﾃﾞﾝ","pref":"新潟県","city":"十日町市","address":"新町新田"},
{"zip_code":"9480062","kana_pref":"ﾆｲｶﾞﾀｹﾝ","kana_city":"ﾄｵｶﾏﾁｼ","kana_address":"ｲｽﾞﾐﾁｮｳ","pref":"新潟県","city":"十日町市","address":"泉町"},
{"zip_code":"9480131","kana_pref":"ﾆｲｶﾞﾀｹﾝ","kana_city":"ﾄｵｶﾏﾁｼ","kana_address":"ｲｾﾍｲｼﾞ","pref":"新潟県","city":"十日町市","address":"伊勢平治"},
{"zip_code":"9480101","kana_pref":"ﾆｲｶﾞﾀｹﾝ","kana_city":"ﾄｵｶﾏﾁｼ","kana_address":"ｲﾅﾊﾞ","pref":"新潟県","city":"十日町市","address":"稲葉"},
{"zip_code":"9480073","kana_pref":"ﾆｲｶﾞﾀｹﾝ","kana_city":"ﾄｵｶﾏﾁｼ","kana_address":"ｲﾅﾘﾁｮｳ","pref":"新潟県","city":"十日町市","address":"稲荷町"},
{"zip_code":"9480212","kana_pref":"ﾆｲｶﾞﾀｹﾝ","kana_city":"ﾄｵｶﾏﾁｼ","kana_address":"ｲﾜｾ","pref":"新潟県","city":"十日町市","address":"岩瀬"},
{"zip_code":"9480122","kana_pref":"ﾆｲｶﾞﾀｹﾝ","kana_city":"ﾄｵｶﾏﾁｼ","kana_address":"ｳｴﾉ","pref":"新潟県","city":"十日町市","address":"上野"},
{"zip_code":"9480088","kana_pref":"ﾆｲｶﾞﾀｹﾝ","kana_city":"ﾄｵｶﾏﾁｼ","kana_address":"ｴｷﾄﾞｵﾘ","pref":"新潟県","city":"十日町市","address":"駅通り"},
{"zip_code":"9480014","kana_pref":"ﾆｲｶﾞﾀｹﾝ","kana_city":"ﾄｵｶﾏﾁｼ","kana_address":"ｴﾄﾞｳ","pref":"新潟県","city":"十日町市","address":"江道"},
{"zip_code":"9480018","kana_pref":"ﾆｲｶﾞﾀｹﾝ","kana_city":"ﾄｵｶﾏﾁｼ","kana_address":"ｵｵｲｹ","pref":"新潟県","city":"十日町市","address":"大池"},
{"zip_code":"9480211","kana_pref":"ﾆｲｶﾞﾀｹﾝ","kana_city":"ﾄｵｶﾏﾁｼ","kana_address":"ｵｵｸﾗ","pref":"新潟県","city":"十日町市","address":"大倉"},
{"zip_code":"9480305","kana_pref":"ﾆｲｶﾞﾀｹﾝ","kana_city":"ﾄｵｶﾏﾁｼ","kana_address":"ｵｵｼﾞﾗｸﾗ","pref":"新潟県","city":"十日町市","address":"大白倉"},
{"zip_code":"9480133","kana_pref":"ﾆｲｶﾞﾀｹﾝ","kana_city":"ﾄｵｶﾏﾁｼ","kana_address":"ｵｷﾀﾞﾃ","pref":"新潟県","city":"十日町市","address":"沖立"},
{"zip_code":"9480008","kana_pref":"ﾆｲｶﾞﾀｹﾝ","kana_city":"ﾄｵｶﾏﾁｼ","kana_address":"ｵｻｷ","pref":"新潟県","city":"十日町市","address":"尾崎"},
{"zip_code":"9480086","kana_pref":"ﾆｲｶﾞﾀｹﾝ","kana_city":"ﾄｵｶﾏﾁｼ","kana_address":"ｶｶﾞｲﾄﾔﾁｮｳ","pref":"新潟県","city":"十日町市","address":"加賀糸屋町"},
{"zip_code":"9480057","kana_pref":"ﾆｲｶﾞﾀｹﾝ","kana_city":"ﾄｵｶﾏﾁｼ","kana_address":"ｶｽｶﾞﾁｮｳ","pref":"新潟県","city":"十日町市","address":"春日町"},
{"zip_code":"9480022","kana_pref":"ﾆｲｶﾞﾀｹﾝ","kana_city":"ﾄｵｶﾏﾁｼ","kana_address":"ｶﾞｯｺｳﾁｮｳ","pref":"新潟県","city":"十日町市","address":"学校町"},
{"zip_code":"9480134","kana_pref":"ﾆｲｶﾞﾀｹﾝ","kana_city":"ﾄｵｶﾏﾁｼ","kana_address":"ｶﾐｱﾗｲ","pref":"新潟県","city":"十日町市","address":"上新井"},
{"zip_code":"9480029","kana_pref":"ﾆｲｶﾞﾀｹﾝ","kana_city":"ﾄｵｶﾏﾁｼ","kana_address":"ｶﾐｶﾜﾁｮｳ","pref":"新潟県","city":"十日町市","address":"上川町"},
{"zip_code":"9480038","kana_pref":"ﾆｲｶﾞﾀｹﾝ","kana_city":"ﾄｵｶﾏﾁｼ","kana_address":"ｶﾜｳﾁﾁｮｳ","pref":"新潟県","city":"十日町市","address":"河内町"},
{"zip_code":"9480036","kana_pref":"ﾆｲｶﾞﾀｹﾝ","kana_city":"ﾄｵｶﾏﾁｼ","kana_address":"ｶﾜｼﾞ","pref":"新潟県","city":"十日町市","address":"川治"},
{"zip_code":"9480035","kana_pref":"ﾆｲｶﾞﾀｹﾝ","kana_city":"ﾄｵｶﾏﾁｼ","kana_address":"ｶﾜｼﾞｼﾓﾁｮｳ","pref":"新潟県","city":"十日町市","address":"川治下町"},
{"zip_code":"9480013","kana_pref":"ﾆｲｶﾞﾀｹﾝ","kana_city":"ﾄｵｶﾏﾁｼ","kana_address":"ｶﾜﾊﾗﾁｮｳ","pref":"新潟県","city":"十日町市","address":"川原町"},
{"zip_code":"9480304","kana_pref":"ﾆｲｶﾞﾀｹﾝ","kana_city":"ﾄｵｶﾏﾁｼ","kana_address":"ｷｵﾄｼ","pref":"新潟県","city":"十日町市","address":"木落"},
{"zip_code":"9480105","kana_pref":"ﾆｲｶﾞﾀｹﾝ","kana_city":"ﾄｵｶﾏﾁｼ","kana_address":"ｷﾀｱﾌﾞｻﾞｶ","pref":"新潟県","city":"十日町市","address":"北鐙坂"},
{"zip_code":"9480041","kana_pref":"ﾆｲｶﾞﾀｹﾝ","kana_city":"ﾄｵｶﾏﾁｼ","kana_address":"ｷﾀｼﾝﾃﾞﾝ","pref":"新潟県","city":"十日町市","address":"北新田"},
{"zip_code":"9480103","kana_pref":"ﾆｲｶﾞﾀｹﾝ","kana_city":"ﾄｵｶﾏﾁｼ","kana_address":"ｺｲｽﾞﾐ","pref":"新潟県","city":"十日町市","address":"小泉"},
{"zip_code":"9480001","kana_pref":"ﾆｲｶﾞﾀｹﾝ","kana_city":"ﾄｵｶﾏﾁｼ","kana_address":"ｺﾞｹﾝｼﾝﾃﾞﾝ","pref":"新潟県","city":"十日町市","address":"五軒新田"},
{"zip_code":"9480219","kana_pref":"ﾆｲｶﾞﾀｹﾝ","kana_city":"ﾄｵｶﾏﾁｼ","kana_address":"ｺｼｶﾞｻﾜ","pref":"新潟県","city":"十日町市","address":"越ケ沢"},
{"zip_code":"9480306","kana_pref":"ﾆｲｶﾞﾀｹﾝ","kana_city":"ﾄｵｶﾏﾁｼ","kana_address":"ｺｼﾞﾗｸﾗ","pref":"新潟県","city":"十日町市","address":"小白倉"},
{"zip_code":"9480051","kana_pref":"ﾆｲｶﾞﾀｹﾝ","kana_city":"ﾄｵｶﾏﾁｼ","kana_address":"ｺﾄﾌﾞｷﾁｮｳ","pref":"新潟県","city":"十日町市","address":"寿町"},
{"zip_code":"9480125","kana_pref":"ﾆｲｶﾞﾀｹﾝ","kana_city":"ﾄｵｶﾏﾁｼ","kana_address":"ｺﾈｷﾞｼ","pref":"新潟県","city":"十日町市","address":"小根岸"},
{"zip_code":"9480218","kana_pref":"ﾆｲｶﾞﾀｹﾝ","kana_city":"ﾄｵｶﾏﾁｼ","kana_address":"ｺﾜｷ","pref":"新潟県","city":"十日町市","address":"小脇"},
{"zip_code":"9480058","kana_pref":"ﾆｲｶﾞﾀｹﾝ","kana_city":"ﾄｵｶﾏﾁｼ","kana_address":"ｻｸﾗｷﾞﾁｮｳ","pref":"新潟県","city":"十日町市","address":"桜木町"},
{"zip_code":"9480111","kana_pref":"ﾆｲｶﾞﾀｹﾝ","kana_city":"ﾄｵｶﾏﾁｼ","kana_address":"ｻﾅﾀﾞｺｳ","pref":"新潟県","city":"十日町市","address":"真田甲"},
{"zip_code":"9480112","kana_pref":"ﾆｲｶﾞﾀｹﾝ","kana_city":"ﾄｵｶﾏﾁｼ","kana_address":"ｻﾅﾀﾞｵﾂ","pref":"新潟県","city":"十日町市","address":"真田乙"},
{"zip_code":"9480114","kana_pref":"ﾆｲｶﾞﾀｹﾝ","kana_city":"ﾄｵｶﾏﾁｼ","kana_address":"ｻﾅﾀﾞﾍｲ","pref":"新潟県","city":"十日町市","address":"真田丙"},
{"zip_code":"9480113","kana_pref":"ﾆｲｶﾞﾀｹﾝ","kana_city":"ﾄｵｶﾏﾁｼ","kana_address":"ｻﾅﾀﾞﾃｲ","pref":"新潟県","city":"十日町市","address":"真田丁"},
{"zip_code":"9480015","kana_pref":"ﾆｲｶﾞﾀｹﾝ","kana_city":"ﾄｵｶﾏﾁｼ","kana_address":"ｻﾙｸﾗ","pref":"新潟県","city":"十日町市","address":"猿倉"},
{"zip_code":"9480124","kana_pref":"ﾆｲｶﾞﾀｹﾝ","kana_city":"ﾄｵｶﾏﾁｼ","kana_address":"ｻﾝﾘｮｳ","pref":"新潟県","city":"十日町市","address":"三領"},
{"zip_code":"9480002","kana_pref":"ﾆｲｶﾞﾀｹﾝ","kana_city":"ﾄｵｶﾏﾁｼ","kana_address":"ｻﾝﾜﾁｮｳ","pref":"新潟県","city":"十日町市","address":"三和町"},
{"zip_code":"9480039","kana_pref":"ﾆｲｶﾞﾀｹﾝ","kana_city":"ﾄｵｶﾏﾁｼ","kana_address":"ｼｵﾉﾏﾀ","pref":"新潟県","city":"十日町市","address":"塩ノ又"},
{"zip_code":"9480123","kana_pref":"ﾆｲｶﾞﾀｹﾝ","kana_city":"ﾄｵｶﾏﾁｼ","kana_address":"ｼﾀﾀﾞｲﾗｼﾝﾃﾞﾝ","pref":"新潟県","city":"十日町市","address":"下平新田"},
{"zip_code":"9480084","kana_pref":"ﾆｲｶﾞﾀｹﾝ","kana_city":"ﾄｵｶﾏﾁｼ","kana_address":"ｼﾁｹﾝﾁｮｳ","pref":"新潟県","city":"十日町市","address":"七軒町"},
{"zip_code":"9480077","kana_pref":"ﾆｲｶﾞﾀｹﾝ","kana_city":"ﾄｵｶﾏﾁｼ","kana_address":"ｼﾏ","pref":"新潟県","city":"十日町市","address":"島"},
{"zip_code":"9480004","kana_pref":"ﾆｲｶﾞﾀｹﾝ","kana_city":"ﾄｵｶﾏﾁｼ","kana_address":"ｼﾓｶﾞﾜﾗﾁｮｳ","pref":"新潟県","city":"十日町市","address":"下川原町"},
{"zip_code":"9480141","kana_pref":"ﾆｲｶﾞﾀｹﾝ","kana_city":"ﾄｵｶﾏﾁｼ","kana_address":"ｼﾓｼﾞｮｳ","pref":"新潟県","city":"十日町市","address":"霜条"},
{"zip_code":"9480061","kana_pref":"ﾆｲｶﾞﾀｹﾝ","kana_city":"ﾄｵｶﾏﾁｼ","kana_address":"ｼｮｳﾜﾁｮｳ","pref":"新潟県","city":"十日町市","address":"昭和町"},
{"zip_code":"9480012","kana_pref":"ﾆｲｶﾞﾀｹﾝ","kana_city":"ﾄｵｶﾏﾁｼ","kana_address":"ｼﾝｻﾞ","pref":"新潟県","city":"十日町市","address":"新座"},
{"zip_code":"9480011","kana_pref":"ﾆｲｶﾞﾀｹﾝ","kana_city":"ﾄｵｶﾏﾁｼ","kana_address":"ｼﾝｻﾞ","pref":"新潟県","city":"十日町市","address":"新座"},
{"zip_code":"9480025","kana_pref":"ﾆｲｶﾞﾀｹﾝ","kana_city":"ﾄｵｶﾏﾁｼ","kana_address":"ｼﾝﾒｲﾁｮｳ","pref":"新潟県","city":"十日町市","address":"神明町"},
{"zip_code":"9480017","kana_pref":"ﾆｲｶﾞﾀｹﾝ","kana_city":"ﾄｵｶﾏﾁｼ","kana_address":"ｽｶﾞﾇﾏ","pref":"新潟県","city":"十日町市","address":"菅沼"},
{"zip_code":"9480076","kana_pref":"ﾆｲｶﾞﾀｹﾝ","kana_city":"ﾄｵｶﾏﾁｼ","kana_address":"ｽﾐﾖｼﾁｮｳ","pref":"新潟県","city":"十日町市","address":"住吉町"},
{"zip_code":"9480024","kana_pref":"ﾆｲｶﾞﾀｹﾝ","kana_city":"ﾄｵｶﾏﾁｼ","kana_address":"ｽﾜﾁｮｳ","pref":"新潟県","city":"十日町市","address":"諏訪町"},
{"zip_code":"9480087","kana_pref":"ﾆｲｶﾞﾀｹﾝ","kana_city":"ﾄｵｶﾏﾁｼ","kana_address":"ｾｷｸﾞﾁﾋｸﾞﾁﾁｮｳ","pref":"新潟県","city":"十日町市","address":"関口樋口町"},
{"zip_code":"9480032","kana_pref":"ﾆｲｶﾞﾀｹﾝ","kana_city":"ﾄｵｶﾏﾁｼ","kana_address":"ｾｷﾈ","pref":"新潟県","city":"十日町市","address":"関根"},
{"zip_code":"9480217","kana_pref":"ﾆｲｶﾞﾀｹﾝ","kana_city":"ﾄｵｶﾏﾁｼ","kana_address":"ﾀｶｸﾗ","pref":"新潟県","city":"十日町市","address":"高倉"},
{"zip_code":"9480107","kana_pref":"ﾆｲｶﾞﾀｹﾝ","kana_city":"ﾄｵｶﾏﾁｼ","kana_address":"ﾀｶｼﾏ","pref":"新潟県","city":"十日町市","address":"高島"},
{"zip_code":"9480063","kana_pref":"ﾆｲｶﾞﾀｹﾝ","kana_city":"ﾄｵｶﾏﾁｼ","kana_address":"ﾀｶﾀﾞﾁｮｳ","pref":"新潟県","city":"十日町市","address":"高田町"},
{"zip_code":"9480064","kana_pref":"ﾆｲｶﾞﾀｹﾝ","kana_city":"ﾄｵｶﾏﾁｼ","kana_address":"ﾀｶﾀﾞﾁｮｳ","pref":"新潟県","city":"十日町市","address":"高田町"},
{"zip_code":"9480065","kana_pref":"ﾆｲｶﾞﾀｹﾝ","kana_city":"ﾄｵｶﾏﾁｼ","kana_address":"ﾀｶﾀﾞﾁｮｳ","pref":"新潟県","city":"十日町市","address":"高田町"},
{"zip_code":"9480056","kana_pref":"ﾆｲｶﾞﾀｹﾝ","kana_city":"ﾄｵｶﾏﾁｼ","kana_address":"ﾀｶﾀﾞﾁｮｳ","pref":"新潟県","city":"十日町市","address":"高田町"},
{"zip_code":"9480136","kana_pref":"ﾆｲｶﾞﾀｹﾝ","kana_city":"ﾄｵｶﾏﾁｼ","kana_address":"ﾀｶﾊﾗﾀﾞ","pref":"新潟県","city":"十日町市","address":"高原田"},
{"zip_code":"9480055","kana_pref":"ﾆｲｶﾞﾀｹﾝ","kana_city":"ﾄｵｶﾏﾁｼ","kana_address":"ﾀｶﾔﾏ","pref":"新潟県","city":"十日町市","address":"高山"},
{"zip_code":"9480021","kana_pref":"ﾆｲｶﾞﾀｹﾝ","kana_city":"ﾄｵｶﾏﾁｼ","kana_address":"ﾀｶﾞﾜﾁｮｳ","pref":"新潟県","city":"十日町市","address":"田川町"},
{"zip_code":"9480047","kana_pref":"ﾆｲｶﾞﾀｹﾝ","kana_city":"ﾄｵｶﾏﾁｼ","kana_address":"ﾀﾃﾉｺｼ","pref":"新潟県","city":"十日町市","address":"城之古"},
{"zip_code":"9480215","kana_pref":"ﾆｲｶﾞﾀｹﾝ","kana_city":"ﾄｵｶﾏﾁｼ","kana_address":"ﾀﾄﾞ","pref":"新潟県","city":"十日町市","address":"田戸"},
{"zip_code":"9480028","kana_pref":"ﾆｲｶﾞﾀｹﾝ","kana_city":"ﾄｵｶﾏﾁｼ","kana_address":"ﾀﾅｶﾁｮｳ","pref":"新潟県","city":"十日町市","address":"田中町"},
{"zip_code":"9480044","kana_pref":"ﾆｲｶﾞﾀｹﾝ","kana_city":"ﾄｵｶﾏﾁｼ","kana_address":"ﾀﾑｷﾞ","pref":"新潟県","city":"十日町市","address":"田麦"},
{"zip_code":"9480104","kana_pref":"ﾆｲｶﾞﾀｹﾝ","kana_city":"ﾄｵｶﾏﾁｼ","kana_address":"ﾀﾙｻﾜ","pref":"新潟県","city":"十日町市","address":"樽沢"},
{"zip_code":"9480067","kana_pref":"ﾆｲｶﾞﾀｹﾝ","kana_city":"ﾄｵｶﾏﾁｼ","kana_address":"ﾁﾄｾﾁｮｳ","pref":"新潟県","city":"十日町市","address":"千歳町"},
{"zip_code":"9480078","kana_pref":"ﾆｲｶﾞﾀｹﾝ","kana_city":"ﾄｵｶﾏﾁｼ","kana_address":"ﾁﾖﾀﾞﾁｮｳ","pref":"新潟県","city":"十日町市","address":"千代田町"},
{"zip_code":"9480016","kana_pref":"ﾆｲｶﾞﾀｹﾝ","kana_city":"ﾄｵｶﾏﾁｼ","kana_address":"ﾂｲｹ","pref":"新潟県","city":"十日町市","address":"津池"},
{"zip_code":"9480054","kana_pref":"ﾆｲｶﾞﾀｹﾝ","kana_city":"ﾄｵｶﾏﾁｼ","kana_address":"ﾂｶﾊﾗﾁｮｳ","pref":"新潟県","city":"十日町市","address":"塚原町"},
{"zip_code":"9480145","kana_pref":"ﾆｲｶﾞﾀｹﾝ","kana_city":"ﾄｵｶﾏﾁｼ","kana_address":"ﾂﾎﾞﾔﾏ","pref":"新潟県","city":"十日町市","address":"坪山"},
{"zip_code":"9480037","kana_pref":"ﾆｲｶﾞﾀｹﾝ","kana_city":"ﾄｵｶﾏﾁｼ","kana_address":"ﾂﾏｱﾘﾁｮｳ","pref":"新潟県","city":"十日町市","address":"妻有町"},
{"zip_code":"9480146","kana_pref":"ﾆｲｶﾞﾀｹﾝ","kana_city":"ﾄｵｶﾏﾁｼ","kana_address":"ﾂﾙﾖｼ","pref":"新潟県","city":"十日町市","address":"鶴吉"},
{"zip_code":"9480303","kana_pref":"ﾆｲｶﾞﾀｹﾝ","kana_city":"ﾄｵｶﾏﾁｼ","kana_address":"ﾃﾗｶﾞｻｷ","pref":"新潟県","city":"十日町市","address":"寺ケ崎"},
{"zip_code":"9480142","kana_pref":"ﾆｲｶﾞﾀｹﾝ","kana_city":"ﾄｵｶﾏﾁｼ","kana_address":"ﾄｳｾﾞﾝｼﾞ","pref":"新潟県","city":"十日町市","address":"東善寺"},
{"zip_code":"9480019","kana_pref":"ﾆｲｶﾞﾀｹﾝ","kana_city":"ﾄｵｶﾏﾁｼ","kana_address":"ﾄｵｶﾏﾁｱｶｸﾗ","pref":"新潟県","city":"十日町市","address":"十日町赤倉"},
{"zip_code":"9480068","kana_pref":"ﾆｲｶﾞﾀｹﾝ","kana_city":"ﾄｵｶﾏﾁｼ","kana_address":"ﾄｵｶﾏﾁｻｶｴﾁｮｳ","pref":"新潟県","city":"十日町市","address":"十日町栄町"},
{"zip_code":"9480132","kana_pref":"ﾆｲｶﾞﾀｹﾝ","kana_city":"ﾄｵｶﾏﾁｼ","kana_address":"ﾄﾓｼｹﾞ","pref":"新潟県","city":"十日町市","address":"友重"},
{"zip_code":"9480214","kana_pref":"ﾆｲｶﾞﾀｹﾝ","kana_city":"ﾄｵｶﾏﾁｼ","kana_address":"ﾅｶｾﾝﾀﾞ","pref":"新潟県","city":"十日町市","address":"中仙田"},
{"zip_code":"9480042","kana_pref":"ﾆｲｶﾞﾀｹﾝ","kana_city":"ﾄｵｶﾏﾁｼ","kana_address":"ﾅｶﾑﾗ","pref":"新潟県","city":"十日町市","address":"中村"},
{"zip_code":"9480135","kana_pref":"ﾆｲｶﾞﾀｹﾝ","kana_city":"ﾄｵｶﾏﾁｼ","kana_address":"ﾅｶﾔｼｷ","pref":"新潟県","city":"十日町市","address":"中屋敷"},
{"zip_code":"9480074","kana_pref":"ﾆｲｶﾞﾀｹﾝ","kana_city":"ﾄｵｶﾏﾁｼ","kana_address":"ﾆｼｳﾗﾁｮｳ","pref":"新潟県","city":"十日町市","address":"西浦町"},
{"zip_code":"9480053","kana_pref":"ﾆｲｶﾞﾀｹﾝ","kana_city":"ﾄｵｶﾏﾁｼ","kana_address":"ﾆｼｷﾁｮｳ","pref":"新潟県","city":"十日町市","address":"錦町"},
{"zip_code":"9480085","kana_pref":"ﾆｲｶﾞﾀｹﾝ","kana_city":"ﾄｵｶﾏﾁｼ","kana_address":"ﾆｼﾃﾞﾗﾁｮｳ","pref":"新潟県","city":"十日町市","address":"西寺町"},
{"zip_code":"9480072","kana_pref":"ﾆｲｶﾞﾀｹﾝ","kana_city":"ﾄｵｶﾏﾁｼ","kana_address":"ﾆｼﾎﾝﾁｮｳ","pref":"新潟県","city":"十日町市","address":"西本町"},
{"zip_code":"9480302","kana_pref":"ﾆｲｶﾞﾀｹﾝ","kana_city":"ﾄｵｶﾏﾁｼ","kana_address":"ﾆﾀ","pref":"新潟県","city":"十日町市","address":"仁田"},
{"zip_code":"9480301","kana_pref":"ﾆｲｶﾞﾀｹﾝ","kana_city":"ﾄｵｶﾏﾁｼ","kana_address":"ﾉｸﾞﾁ","pref":"新潟県","city":"十日町市","address":"野口"},
{"zip_code":"9480071","kana_pref":"ﾆｲｶﾞﾀｹﾝ","kana_city":"ﾄｵｶﾏﾁｼ","kana_address":"ﾊﾁﾏﾝﾀﾞﾁｮｳ","pref":"新潟県","city":"十日町市","address":"八幡田町"},
{"zip_code":"9480033","kana_pref":"ﾆｲｶﾞﾀｹﾝ","kana_city":"ﾄｵｶﾏﾁｼ","kana_address":"ﾊｯｶ","pref":"新潟県","city":"十日町市","address":"八箇"},
{"zip_code":"9480066","kana_pref":"ﾆｲｶﾞﾀｹﾝ","kana_city":"ﾄｵｶﾏﾁｼ","kana_address":"ﾌｸﾛﾁｮｳ","pref":"新潟県","city":"十日町市","address":"袋町"},
{"zip_code":"9480034","kana_pref":"ﾆｲｶﾞﾀｹﾝ","kana_city":"ﾄｵｶﾏﾁｼ","kana_address":"ﾌﾀﾂﾔ","pref":"新潟県","city":"十日町市","address":"二ツ屋"},
{"zip_code":"9480049","kana_pref":"ﾆｲｶﾞﾀｹﾝ","kana_city":"ﾄｵｶﾏﾁｼ","kana_address":"ﾌﾅｻﾞｶ","pref":"新潟県","city":"十日町市","address":"船坂"},
{"zip_code":"9480083","kana_pref":"ﾆｲｶﾞﾀｹﾝ","kana_city":"ﾄｵｶﾏﾁｼ","kana_address":"ﾎﾝﾁｮｳ","pref":"新潟県","city":"十日町市","address":"本町"},
{"zip_code":"9480082","kana_pref":"ﾆｲｶﾞﾀｹﾝ","kana_city":"ﾄｵｶﾏﾁｼ","kana_address":"ﾎﾝﾁｮｳ","pref":"新潟県","city":"十日町市","address":"本町"},
{"zip_code":"9480081","kana_pref":"ﾆｲｶﾞﾀｹﾝ","kana_city":"ﾄｵｶﾏﾁｼ","kana_address":"ﾎﾝﾁｮｳ","pref":"新潟県","city":"十日町市","address":"本町"},
{"zip_code":"9480003","kana_pref":"ﾆｲｶﾞﾀｹﾝ","kana_city":"ﾄｵｶﾏﾁｼ","kana_address":"ﾎﾝﾁｮｳ","pref":"新潟県","city":"十日町市","address":"本町"},
{"zip_code":"9480083","kana_pref":"ﾆｲｶﾞﾀｹﾝ","kana_city":"ﾄｵｶﾏﾁｼ","kana_address":"ﾎﾝﾁｮｳﾆｼ","pref":"新潟県","city":"十日町市","address":"本町西"},
{"zip_code":"9480083","kana_pref":"ﾆｲｶﾞﾀｹﾝ","kana_city":"ﾄｵｶﾏﾁｼ","kana_address":"ﾎﾝﾁｮｳﾋｶﾞｼ","pref":"新潟県","city":"十日町市","address":"本町東"},
{"zip_code":"9480075","kana_pref":"ﾆｲｶﾞﾀｹﾝ","kana_city":"ﾄｵｶﾏﾁｼ","kana_address":"ﾏﾙﾔﾏﾁｮｳ","pref":"新潟県","city":"十日町市","address":"丸山町"},
{"zip_code":"9480026","kana_pref":"ﾆｲｶﾞﾀｹﾝ","kana_city":"ﾄｵｶﾏﾁｼ","kana_address":"ﾐｽﾞﾉﾁｮｳ","pref":"新潟県","city":"十日町市","address":"水野町"},
{"zip_code":"9480144","kana_pref":"ﾆｲｶﾞﾀｹﾝ","kana_city":"ﾄｵｶﾏﾁｼ","kana_address":"ﾐﾅｸﾁｻﾞﾜ","pref":"新潟県","city":"十日町市","address":"水口沢"},
{"zip_code":"9480106","kana_pref":"ﾆｲｶﾞﾀｹﾝ","kana_city":"ﾄｵｶﾏﾁｼ","kana_address":"ﾐﾅﾐｱﾌﾞｻﾞｶ","pref":"新潟県","city":"十日町市","address":"南鐙坂"},
{"zip_code":"9480005","kana_pref":"ﾆｲｶﾞﾀｹﾝ","kana_city":"ﾄｵｶﾏﾁｼ","kana_address":"ﾐﾅﾐｼﾝﾃﾞﾝﾁｮｳ","pref":"新潟県","city":"十日町市","address":"南新田町"},
{"zip_code":"9480023","kana_pref":"ﾆｲｶﾞﾀｹﾝ","kana_city":"ﾄｵｶﾏﾁｼ","kana_address":"ﾐﾔｼﾀﾁｮｳ","pref":"新潟県","city":"十日町市","address":"宮下町"},
{"zip_code":"9480052","kana_pref":"ﾆｲｶﾞﾀｹﾝ","kana_city":"ﾄｵｶﾏﾁｼ","kana_address":"ﾐﾕｷﾁｮｳ","pref":"新潟県","city":"十日町市","address":"美雪町"},
{"zip_code":"9480216","kana_pref":"ﾆｲｶﾞﾀｹﾝ","kana_city":"ﾄｵｶﾏﾁｼ","kana_address":"ﾑﾛｼﾞﾏ","pref":"新潟県","city":"十日町市","address":"室島"},
{"zip_code":"9480048","kana_pref":"ﾆｲｶﾞﾀｹﾝ","kana_city":"ﾄｵｶﾏﾁｼ","kana_address":"ﾔﾁｳｼ","pref":"新潟県","city":"十日町市","address":"谷内丑"},
{"zip_code":"9480143","kana_pref":"ﾆｲｶﾞﾀｹﾝ","kana_city":"ﾄｵｶﾏﾁｼ","kana_address":"ﾔﾏﾉﾀ","pref":"新潟県","city":"十日町市","address":"山野田"},
{"zip_code":"9480031","kana_pref":"ﾆｲｶﾞﾀｹﾝ","kana_city":"ﾄｵｶﾏﾁｼ","kana_address":"ﾔﾏﾓﾄﾁｮｳ","pref":"新潟県","city":"十日町市","address":"山本町"},
{"zip_code":"9480102","kana_pref":"ﾆｲｶﾞﾀｹﾝ","kana_city":"ﾄｵｶﾏﾁｼ","kana_address":"ﾔﾏﾔ","pref":"新潟県","city":"十日町市","address":"山谷"},
{"zip_code":"9480006","kana_pref":"ﾆｲｶﾞﾀｹﾝ","kana_city":"ﾄｵｶﾏﾁｼ","kana_address":"ﾖｯｶﾏﾁ","pref":"新潟県","city":"十日町市","address":"四日町"},
{"zip_code":"9480007","kana_pref":"ﾆｲｶﾞﾀｹﾝ","kana_city":"ﾄｵｶﾏﾁｼ","kana_address":"ﾖｯｶﾏﾁｼﾝﾃﾞﾝ","pref":"新潟県","city":"十日町市","address":"四日町新田"},
{"zip_code":"9480043","kana_pref":"ﾆｲｶﾞﾀｹﾝ","kana_city":"ﾄｵｶﾏﾁｼ","kana_address":"ﾛｯｶﾔﾏﾔ","pref":"新潟県","city":"十日町市","address":"六箇山谷"},
{"zip_code":"9480027","kana_pref":"ﾆｲｶﾞﾀｹﾝ","kana_city":"ﾄｵｶﾏﾁｼ","kana_address":"ﾜｶﾐﾔﾁｮｳ","pref":"新潟県","city":"十日町市","address":"若宮町"}]}