{"zip_code":[
{"zip_code":"9518037","kana_pref":"ﾆｲｶﾞﾀｹﾝ","kana_city":"ﾆｲｶﾞﾀｼﾁｭｳｵｳｸ","kana_address":"ｱｲｵｲﾁｮｳ","pref":"新潟県","city":"新潟市中央区","address":"相生町"},
{"zip_code":"9518025","kana_pref":"ﾆｲｶﾞﾀｹﾝ","kana_city":"ﾆｲｶﾞﾀｼﾁｭｳｵｳｸ","kana_address":"ｱｶｻｶﾁｮｳ","pref":"新潟県","city":"新潟市中央区","address":"赤坂町"},
{"zip_code":"9518021","kana_pref":"ﾆｲｶﾞﾀｹﾝ","kana_city":"ﾆｲｶﾞﾀｼﾁｭｳｵｳｸ","kana_address":"ｱｹﾎﾞﾉﾁｮｳ","pref":"新潟県","city":"新潟市中央区","address":"曙町"},
{"zip_code":"9518122","kana_pref":"ﾆｲｶﾞﾀｹﾝ","kana_city":"ﾆｲｶﾞﾀｼﾁｭｳｵｳｸ","kana_address":"ｱｻﾋﾏﾁﾄﾞｵﾘ","pref":"新潟県","city":"新潟市中央区","address":"旭町通"},
{"zip_code":"9518146","kana_pref":"ﾆｲｶﾞﾀｹﾝ","kana_city":"ﾆｲｶﾞﾀｼﾁｭｳｵｳｸ","kana_address":"ｱﾘｱｹｵｵﾊｼﾁｮｳ","pref":"新潟県","city":"新潟市中央区","address":"有明大橋町"},
{"zip_code":"9518145","kana_pref":"ﾆｲｶﾞﾀｹﾝ","kana_city":"ﾆｲｶﾞﾀｼﾁｭｳｵｳｸ","kana_address":"ｱﾘｱｹﾀﾞｲ","pref":"新潟県","city":"新潟市中央区","address":"有明台"},
{"zip_code":"9518124","kana_pref":"ﾆｲｶﾞﾀｹﾝ","kana_city":"ﾆｲｶﾞﾀｼﾁｭｳｵｳｸ","kana_address":"ｲｶﾞｸﾁｮｳﾄﾞｵﾘ","pref":"新潟県","city":"新潟市中央区","address":"医学町通"},
{"zip_code":"9518055","kana_pref":"ﾆｲｶﾞﾀｹﾝ","kana_city":"ﾆｲｶﾞﾀｼﾁｭｳｵｳｸ","kana_address":"ｲｼｽﾞｴﾁｮｳﾄﾞｵﾘ","pref":"新潟県","city":"新潟市中央区","address":"礎町通"},
{"zip_code":"9518054","kana_pref":"ﾆｲｶﾞﾀｹﾝ","kana_city":"ﾆｲｶﾞﾀｼﾁｭｳｵｳｸ","kana_address":"ｲｼｽﾞｴﾁｮｳﾄﾞｵﾘｶﾐｲﾁﾉﾁｮｳ","pref":"新潟県","city":"新潟市中央区","address":"礎町通上一ノ町"},
{"zip_code":"9518132","kana_pref":"ﾆｲｶﾞﾀｹﾝ","kana_city":"ﾆｲｶﾞﾀｼﾁｭｳｵｳｸ","kana_address":"ｲﾁﾊﾞﾝﾎﾞﾘﾄﾞｵﾘﾁｮｳ","pref":"新潟県","city":"新潟市中央区","address":"一番堀通町"},
{"zip_code":"9518018","kana_pref":"ﾆｲｶﾞﾀｹﾝ","kana_city":"ﾆｲｶﾞﾀｼﾁｭｳｵｳｸ","kana_address":"ｲﾅﾘﾏﾁ","pref":"新潟県","city":"新潟市中央区","address":"稲荷町"},
{"zip_code":"9518011","kana_pref":"ﾆｲｶﾞﾀｹﾝ","kana_city":"ﾆｲｶﾞﾀｼﾁｭｳｵｳｸ","kana_address":"ｲﾘﾌﾈﾁｮｳ","pref":"新潟県","city":"新潟市中央区","address":"入船町"},
{"zip_code":"9518074","kana_pref":"ﾆｲｶﾞﾀｹﾝ","kana_city":"ﾆｲｶﾞﾀｼﾁｭｳｵｳｸ","kana_address":"ｲﾜｲﾏﾁ","pref":"新潟県","city":"新潟市中央区","address":"祝町"},
{"zip_code":"9518072","kana_pref":"ﾆｲｶﾞﾀｹﾝ","kana_city":"ﾆｲｶﾞﾀｼﾁｭｳｵｳｸ","kana_address":"ｳｷｽﾁｮｳ","pref":"新潟県","city":"新潟市中央区","address":"浮洲町"},
{"zip_code":"9518001","kana_pref":"ﾆｲｶﾞﾀｹﾝ","kana_city":"ﾆｲｶﾞﾀｼﾁｭｳｵｳｸ","kana_address":"ｳﾐﾍﾞﾁｮｳ","pref":"新潟県","city":"新潟市中央区","address":"海辺町"},
{"zip_code":"9518114","kana_pref":"ﾆｲｶﾞﾀｹﾝ","kana_city":"ﾆｲｶﾞﾀｼﾁｭｳｵｳｸ","kana_address":"ｴｲｼｮﾄﾞｵﾘ","pref":"新潟県","city":"新潟市中央区","address":"営所通"},
{"zip_code":"9518077","kana_pref":"ﾆｲｶﾞﾀｹﾝ","kana_city":"ﾆｲｶﾞﾀｼﾁｭｳｵｳｸ","kana_address":"ｴﾎﾞｼﾁｮｳ","pref":"新潟県","city":"新潟市中央区","address":"烏帽子町"},
{"zip_code":"9518076","kana_pref":"ﾆｲｶﾞﾀｹﾝ","kana_city":"ﾆｲｶﾞﾀｼﾁｭｳｵｳｸ","kana_address":"ｵｷﾅﾏﾁ","pref":"新潟県","city":"新潟市中央区","address":"翁町"},
{"zip_code":"9518125","kana_pref":"ﾆｲｶﾞﾀｹﾝ","kana_city":"ﾆｲｶﾞﾀｼﾁｭｳｵｳｸ","kana_address":"ｶﾞｯｺｳｳﾗﾏﾁ","pref":"新潟県","city":"新潟市中央区","address":"学校裏町"},
{"zip_code":"9518126","kana_pref":"ﾆｲｶﾞﾀｹﾝ","kana_city":"ﾆｲｶﾞﾀｼﾁｭｳｵｳｸ","kana_address":"ｶﾞｯｺｳﾁｮｳﾄﾞｵﾘ","pref":"新潟県","city":"新潟市中央区","address":"学校町通"},
{"zip_code":"9518068","kana_pref":"ﾆｲｶﾞﾀｹﾝ","kana_city":"ﾆｲｶﾞﾀｼﾁｭｳｵｳｸ","kana_address":"ｶﾐｵｵｶﾜﾏｴﾄﾞｵﾘ","pref":"新潟県","city":"新潟市中央区","address":"上大川前通"},
{"zip_code":"9518133","kana_pref":"ﾆｲｶﾞﾀｹﾝ","kana_city":"ﾆｲｶﾞﾀｼﾁｭｳｵｳｸ","kana_address":"ｶﾜｷﾞｼﾁｮｳ","pref":"新潟県","city":"新潟市中央区","address":"川岸町"},
{"zip_code":"9518053","kana_pref":"ﾆｲｶﾞﾀｹﾝ","kana_city":"ﾆｲｶﾞﾀｼﾁｭｳｵｳｸ","kana_address":"ｶﾜﾊﾞﾀﾁｮｳ","pref":"新潟県","city":"新潟市中央区","address":"川端町"},
{"zip_code":"9518105","kana_pref":"ﾆｲｶﾞﾀｹﾝ","kana_city":"ﾆｲｶﾞﾀｼﾁｭｳｵｳｸ","kana_address":"ｷﾀｵｵﾊﾀﾁｮｳ","pref":"新潟県","city":"新潟市中央区","address":"北大畑町"},
{"zip_code":"9518048","kana_pref":"ﾆｲｶﾞﾀｹﾝ","kana_city":"ﾆｲｶﾞﾀｼﾁｭｳｵｳｸ","kana_address":"ｷﾀﾀﾓﾝﾁｮｳ","pref":"新潟県","city":"新潟市中央区","address":"北多門町"},
{"zip_code":"9518111","kana_pref":"ﾆｲｶﾞﾀｹﾝ","kana_city":"ﾆｲｶﾞﾀｼﾁｭｳｵｳｸ","kana_address":"ｷﾀﾊﾏﾄﾞｵﾘ","pref":"新潟県","city":"新潟市中央区","address":"北浜通"},
{"zip_code":"9518031","kana_pref":"ﾆｲｶﾞﾀｹﾝ","kana_city":"ﾆｲｶﾞﾀｼﾁｭｳｵｳｸ","kana_address":"ｷﾀﾋﾞｼｬﾓﾝﾁｮｳ","pref":"新潟県","city":"新潟市中央区","address":"北毘沙門町"},
{"zip_code":"9518081","kana_pref":"ﾆｲｶﾞﾀｹﾝ","kana_city":"ﾆｲｶﾞﾀｼﾁｭｳｵｳｸ","kana_address":"ｷﾌﾁｮｳ","pref":"新潟県","city":"新潟市中央区","address":"寄附町"},
{"zip_code":"9518008","kana_pref":"ﾆｲｶﾞﾀｹﾝ","kana_city":"ﾆｲｶﾞﾀｼﾁｭｳｵｳｸ","kana_address":"ｸﾎﾞﾀﾏﾁ","pref":"新潟県","city":"新潟市中央区","address":"窪田町"},
{"zip_code":"9518073","kana_pref":"ﾆｲｶﾞﾀｹﾝ","kana_city":"ﾆｲｶﾞﾀｼﾁｭｳｵｳｸ","kana_address":"ｺﾄﾌﾞｷﾁｮｳ","pref":"新潟県","city":"新潟市中央区","address":"寿町"},
{"zip_code":"9518071","kana_pref":"ﾆｲｶﾞﾀｹﾝ","kana_city":"ﾆｲｶﾞﾀｼﾁｭｳｵｳｸ","kana_address":"ｻｶｴﾏﾁ","pref":"新潟県","city":"新潟市中央区","address":"栄町"},
{"zip_code":"9518034","kana_pref":"ﾆｲｶﾞﾀｹﾝ","kana_city":"ﾆｲｶﾞﾀｼﾁｭｳｵｳｸ","kana_address":"ｻｷｶﾞｹﾁｮｳ","pref":"新潟県","city":"新潟市中央区","address":"魁町"},
{"zip_code":"9518156","kana_pref":"ﾆｲｶﾞﾀｹﾝ","kana_city":"ﾆｲｶﾞﾀｼﾁｭｳｵｳｸ","kana_address":"ｼｵﾐﾀﾞｲ","pref":"新潟県","city":"新潟市中央区","address":"汐見台"},
{"zip_code":"9518152","kana_pref":"ﾆｲｶﾞﾀｹﾝ","kana_city":"ﾆｲｶﾞﾀｼﾁｭｳｵｳｸ","kana_address":"ｼﾅﾉﾏﾁ","pref":"新潟県","city":"新潟市中央区","address":"信濃町"},
{"zip_code":"9518123","kana_pref":"ﾆｲｶﾞﾀｹﾝ","kana_city":"ﾆｲｶﾞﾀｼﾁｭｳｵｳｸ","kana_address":"ｼﾓｱｻﾋﾏﾁ","pref":"新潟県","city":"新潟市中央区","address":"下旭町"},
{"zip_code":"9518052","kana_pref":"ﾆｲｶﾞﾀｹﾝ","kana_city":"ﾆｲｶﾞﾀｼﾁｭｳｵｳｸ","kana_address":"ｼﾓｵｵｶﾜﾏｴﾄﾞｵﾘ","pref":"新潟県","city":"新潟市中央区","address":"下大川前通"},
{"zip_code":"9518051","kana_pref":"ﾆｲｶﾞﾀｹﾝ","kana_city":"ﾆｲｶﾞﾀｼﾁｭｳｵｳｸ","kana_address":"ｼﾝｼﾏﾁｮｳﾄﾞｵﾘ","pref":"新潟県","city":"新潟市中央区","address":"新島町通"},
{"zip_code":"9518121","kana_pref":"ﾆｲｶﾞﾀｹﾝ","kana_city":"ﾆｲｶﾞﾀｼﾁｭｳｵｳｸ","kana_address":"ｽｲﾄﾞｳﾁｮｳ","pref":"新潟県","city":"新潟市中央区","address":"水道町"},
{"zip_code":"9518088","kana_pref":"ﾆｲｶﾞﾀｹﾝ","kana_city":"ﾆｲｶﾞﾀｼﾁｭｳｵｳｸ","kana_address":"ｽｶﾞﾈﾁｮｳ","pref":"新潟県","city":"新潟市中央区","address":"菅根町"},
{"zip_code":"9518042","kana_pref":"ﾆｲｶﾞﾀｹﾝ","kana_city":"ﾆｲｶﾞﾀｼﾁｭｳｵｳｸ","kana_address":"ｽﾐﾖｼﾁｮｳ","pref":"新潟県","city":"新潟市中央区","address":"住吉町"},
{"zip_code":"9518141","kana_pref":"ﾆｲｶﾞﾀｹﾝ","kana_city":"ﾆｲｶﾞﾀｼﾁｭｳｵｳｸ","kana_address":"ｾｷｼﾝ","pref":"新潟県","city":"新潟市中央区","address":"関新"},
{"zip_code":"9518144","kana_pref":"ﾆｲｶﾞﾀｹﾝ","kana_city":"ﾆｲｶﾞﾀｼﾁｭｳｵｳｸ","kana_address":"ｾｷﾅﾐﾁｮｳ","pref":"新潟県","city":"新潟市中央区","address":"関南町"},
{"zip_code":"9518134","kana_pref":"ﾆｲｶﾞﾀｹﾝ","kana_city":"ﾆｲｶﾞﾀｼﾁｭｳｵｳｸ","kana_address":"ｾｷﾔ","pref":"新潟県","city":"新潟市中央区","address":"関屋"},
{"zip_code":"9518142","kana_pref":"ﾆｲｶﾞﾀｹﾝ","kana_city":"ﾆｲｶﾞﾀｼﾁｭｳｵｳｸ","kana_address":"ｾｷﾔｵｵｶﾜﾏｴ","pref":"新潟県","city":"新潟市中央区","address":"関屋大川前"},
{"zip_code":"9518163","kana_pref":"ﾆｲｶﾞﾀｹﾝ","kana_city":"ﾆｲｶﾞﾀｼﾁｭｳｵｳｸ","kana_address":"ｾｷﾔｵﾌﾅｸﾞﾗﾁｮｳ","pref":"新潟県","city":"新潟市中央区","address":"関屋御船蔵町"},
{"zip_code":"9518165","kana_pref":"ﾆｲｶﾞﾀｹﾝ","kana_city":"ﾆｲｶﾞﾀｼﾁｭｳｵｳｸ","kana_address":"ｾｷﾔｶﾅﾊﾞﾁﾔﾏﾁｮｳ","pref":"新潟県","city":"新潟市中央区","address":"関屋金鉢山町"},
{"zip_code":"9518167","kana_pref":"ﾆｲｶﾞﾀｹﾝ","kana_city":"ﾆｲｶﾞﾀｼﾁｭｳｵｳｸ","kana_address":"ｾｷﾔｷﾝｴｲﾁｮｳ","pref":"新潟県","city":"新潟市中央区","address":"関屋金衛町"},
{"zip_code":"9518127","kana_pref":"ﾆｲｶﾞﾀｹﾝ","kana_city":"ﾆｲｶﾞﾀｼﾁｭｳｵｳｸ","kana_address":"ｾｷﾔｼﾓｶﾜﾗﾁｮｳ","pref":"新潟県","city":"新潟市中央区","address":"関屋下川原町"},
{"zip_code":"9518164","kana_pref":"ﾆｲｶﾞﾀｹﾝ","kana_city":"ﾆｲｶﾞﾀｼﾁｭｳｵｳｸ","kana_address":"ｾｷﾔｼｮｳﾜﾁｮｳ","pref":"新潟県","city":"新潟市中央区","address":"関屋昭和町"},
{"zip_code":"9518135","kana_pref":"ﾆｲｶﾞﾀｹﾝ","kana_city":"ﾆｲｶﾞﾀｼﾁｭｳｵｳｸ","kana_address":"ｾｷﾔｼﾝﾏﾁﾄﾞｵﾘ","pref":"新潟県","city":"新潟市中央区","address":"関屋新町通"},
{"zip_code":"9518136","kana_pref":"ﾆｲｶﾞﾀｹﾝ","kana_city":"ﾆｲｶﾞﾀｼﾁｭｳｵｳｸ","kana_address":"ｾｷﾔﾀﾏﾁ","pref":"新潟県","city":"新潟市中央区","address":"関屋田町"},
{"zip_code":"9518166","kana_pref":"ﾆｲｶﾞﾀｹﾝ","kana_city":"ﾆｲｶﾞﾀｼﾁｭｳｵｳｸ","kana_address":"ｾｷﾔﾊﾏﾏﾂﾁｮｳ","pref":"新潟県","city":"新潟市中央区","address":"関屋浜松町"},
{"zip_code":"9518162","kana_pref":"ﾆｲｶﾞﾀｹﾝ","kana_city":"ﾆｲｶﾞﾀｼﾁｭｳｵｳｸ","kana_address":"ｾｷﾔﾎﾝｿﾝﾁｮｳ","pref":"新潟県","city":"新潟市中央区","address":"関屋本村町"},
{"zip_code":"9518161","kana_pref":"ﾆｲｶﾞﾀｹﾝ","kana_city":"ﾆｲｶﾞﾀｼﾁｭｳｵｳｸ","kana_address":"ｾｷﾔﾏﾂﾅﾐﾁｮｳ","pref":"新潟県","city":"新潟市中央区","address":"関屋松波町"},
{"zip_code":"9518143","kana_pref":"ﾆｲｶﾞﾀｹﾝ","kana_city":"ﾆｲｶﾞﾀｼﾁｭｳｵｳｸ","kana_address":"ｾｷﾔﾒｸﾞﾐﾁｮｳ","pref":"新潟県","city":"新潟市中央区","address":"関屋恵町"},
{"zip_code":"9518103","kana_pref":"ﾆｲｶﾞﾀｹﾝ","kana_city":"ﾆｲｶﾞﾀｼﾁｭｳｵｳｸ","kana_address":"ﾀﾅｶﾏﾁ","pref":"新潟県","city":"新潟市中央区","address":"田中町"},
{"zip_code":"9518016","kana_pref":"ﾆｲｶﾞﾀｹﾝ","kana_city":"ﾆｲｶﾞﾀｼﾁｭｳｵｳｸ","kana_address":"ﾀﾏﾁ","pref":"新潟県","city":"新潟市中央区","address":"田町"},
{"zip_code":"9518007","kana_pref":"ﾆｲｶﾞﾀｹﾝ","kana_city":"ﾆｲｶﾞﾀｼﾁｭｳｵｳｸ","kana_address":"ﾁｭｳｿﾞｳﾏﾁ","pref":"新潟県","city":"新潟市中央区","address":"忠蔵町"},
{"zip_code":"9518057","kana_pref":"ﾆｲｶﾞﾀｹﾝ","kana_city":"ﾆｲｶﾞﾀｼﾁｭｳｵｳｸ","kana_address":"ﾂｷﾁｮｳ","pref":"新潟県","city":"新潟市中央区","address":"月町"},
{"zip_code":"9518006","kana_pref":"ﾆｲｶﾞﾀｹﾝ","kana_city":"ﾆｲｶﾞﾀｼﾁｭｳｵｳｸ","kana_address":"ﾂｹﾌﾈﾁｮｳ","pref":"新潟県","city":"新潟市中央区","address":"附船町"},
{"zip_code":"9518115","kana_pref":"ﾆｲｶﾞﾀｹﾝ","kana_city":"ﾆｲｶﾞﾀｼﾁｭｳｵｳｸ","kana_address":"ﾃﾗｳﾗﾄﾞｵﾘ","pref":"新潟県","city":"新潟市中央区","address":"寺裏通"},
{"zip_code":"9518085","kana_pref":"ﾆｲｶﾞﾀｹﾝ","kana_city":"ﾆｲｶﾞﾀｼﾁｭｳｵｳｸ","kana_address":"ﾃﾗﾔﾏﾁｮｳ","pref":"新潟県","city":"新潟市中央区","address":"寺山町"},
{"zip_code":"9518033","kana_pref":"ﾆｲｶﾞﾀｹﾝ","kana_city":"ﾆｲｶﾞﾀｼﾁｭｳｵｳｸ","kana_address":"ﾄﾖﾃﾙﾁｮｳ","pref":"新潟県","city":"新潟市中央区","address":"豊照町"},
{"zip_code":"9518108","kana_pref":"ﾆｲｶﾞﾀｹﾝ","kana_city":"ﾆｲｶﾞﾀｼﾁｭｳｵｳｸ","kana_address":"ﾅｶｵｵﾊﾀﾁｮｳ","pref":"新潟県","city":"新潟市中央区","address":"中大畑町"},
{"zip_code":"9518045","kana_pref":"ﾆｲｶﾞﾀｹﾝ","kana_city":"ﾆｲｶﾞﾀｼﾁｭｳｵｳｸ","kana_address":"ﾅﾐｷﾁｮｳ","pref":"新潟県","city":"新潟市中央区","address":"並木町"},
{"zip_code":"9518082","kana_pref":"ﾆｲｶﾞﾀｹﾝ","kana_city":"ﾆｲｶﾞﾀｼﾁｭｳｵｳｸ","kana_address":"ﾆｼｳｹﾁﾏﾁ","pref":"新潟県","city":"新潟市中央区","address":"西受地町"},
{"zip_code":"9518043","kana_pref":"ﾆｲｶﾞﾀｹﾝ","kana_city":"ﾆｲｶﾞﾀｼﾁｭｳｵｳｸ","kana_address":"ﾆｼｳﾏﾔｼﾞﾏﾁｮｳ","pref":"新潟県","city":"新潟市中央区","address":"西厩島町"},
{"zip_code":"9518104","kana_pref":"ﾆｲｶﾞﾀｹﾝ","kana_city":"ﾆｲｶﾞﾀｼﾁｭｳｵｳｸ","kana_address":"ﾆｼｵｵﾊﾀﾁｮｳ","pref":"新潟県","city":"新潟市中央区","address":"西大畑町"},
{"zip_code":"9518118","kana_pref":"ﾆｲｶﾞﾀｹﾝ","kana_city":"ﾆｲｶﾞﾀｼﾁｭｳｵｳｸ","kana_address":"ﾆｼﾅｶﾏﾁ","pref":"新潟県","city":"新潟市中央区","address":"西中町"},
{"zip_code":"9518101","kana_pref":"ﾆｲｶﾞﾀｹﾝ","kana_city":"ﾆｲｶﾞﾀｼﾁｭｳｵｳｸ","kana_address":"ﾆｼﾌﾅﾐﾁｮｳ","pref":"新潟県","city":"新潟市中央区","address":"西船見町"},
{"zip_code":"9518061","kana_pref":"ﾆｲｶﾞﾀｹﾝ","kana_city":"ﾆｲｶﾞﾀｼﾁｭｳｵｳｸ","kana_address":"ﾆｼﾎﾞﾘﾄﾞｵﾘ","pref":"新潟県","city":"新潟市中央区","address":"西堀通"},
{"zip_code":"9518062","kana_pref":"ﾆｲｶﾞﾀｹﾝ","kana_city":"ﾆｲｶﾞﾀｼﾁｭｳｵｳｸ","kana_address":"ﾆｼﾎﾞﾘﾏｴﾄﾞｵﾘ","pref":"新潟県","city":"新潟市中央区","address":"西堀前通"},
{"zip_code":"9518026","kana_pref":"ﾆｲｶﾞﾀｹﾝ","kana_city":"ﾆｲｶﾞﾀｼﾁｭｳｵｳｸ","kana_address":"ﾆｼﾐﾅﾄﾏﾁﾄﾞｵﾘ","pref":"新潟県","city":"新潟市中央区","address":"西湊町通"},
{"zip_code":"9518131","kana_pref":"ﾆｲｶﾞﾀｹﾝ","kana_city":"ﾆｲｶﾞﾀｼﾁｭｳｵｳｸ","kana_address":"ﾊｸｻﾝｳﾗ","pref":"新潟県","city":"新潟市中央区","address":"白山浦"},
{"zip_code":"9518137","kana_pref":"ﾆｲｶﾞﾀｹﾝ","kana_city":"ﾆｲｶﾞﾀｼﾁｭｳｵｳｸ","kana_address":"ﾊｸｻﾝｳﾗｼﾝﾏﾁﾄﾞｵﾘ","pref":"新潟県","city":"新潟市中央区","address":"白山浦新町通"},
{"zip_code":"9518017","kana_pref":"ﾆｲｶﾞﾀｹﾝ","kana_city":"ﾆｲｶﾞﾀｼﾁｭｳｵｳｸ","kana_address":"ﾊｼｹｶﾜｷﾞｼﾁｮｳ","pref":"新潟県","city":"新潟市中央区","address":"艀川岸町"},
{"zip_code":"9518056","kana_pref":"ﾆｲｶﾞﾀｹﾝ","kana_city":"ﾆｲｶﾞﾀｼﾁｭｳｵｳｸ","kana_address":"ﾊﾅﾁｮｳ","pref":"新潟県","city":"新潟市中央区","address":"花町"},
{"zip_code":"9518151","kana_pref":"ﾆｲｶﾞﾀｹﾝ","kana_city":"ﾆｲｶﾞﾀｼﾁｭｳｵｳｸ","kana_address":"ﾊﾏｳﾗﾁｮｳ","pref":"新潟県","city":"新潟市中央区","address":"浜浦町"},
{"zip_code":"9518024","kana_pref":"ﾆｲｶﾞﾀｹﾝ","kana_city":"ﾆｲｶﾞﾀｼﾁｭｳｵｳｸ","kana_address":"ﾊﾔｶﾜﾁｮｳ","pref":"新潟県","city":"新潟市中央区","address":"早川町"},
{"zip_code":"9518012","kana_pref":"ﾆｲｶﾞﾀｹﾝ","kana_city":"ﾆｲｶﾞﾀｼﾁｭｳｵｳｸ","kana_address":"ﾋｶﾞｼｲﾘﾌﾈﾁｮｳ","pref":"新潟県","city":"新潟市中央区","address":"東入船町"},
{"zip_code":"9518087","kana_pref":"ﾆｲｶﾞﾀｹﾝ","kana_city":"ﾆｲｶﾞﾀｼﾁｭｳｵｳｸ","kana_address":"ﾋｶﾞｼｳｹﾁﾏﾁ","pref":"新潟県","city":"新潟市中央区","address":"東受地町"},
{"zip_code":"9518044","kana_pref":"ﾆｲｶﾞﾀｹﾝ","kana_city":"ﾆｲｶﾞﾀｼﾁｭｳｵｳｸ","kana_address":"ﾋｶﾞｼｳﾏﾔｼﾞﾏﾁｮｳ","pref":"新潟県","city":"新潟市中央区","address":"東厩島町"},
{"zip_code":"9518106","kana_pref":"ﾆｲｶﾞﾀｹﾝ","kana_city":"ﾆｲｶﾞﾀｼﾁｭｳｵｳｸ","kana_address":"ﾋｶﾞｼｵｵﾊﾀﾄﾞｵﾘ","pref":"新潟県","city":"新潟市中央区","address":"東大畑通"},
{"zip_code":"9518116","kana_pref":"ﾆｲｶﾞﾀｹﾝ","kana_city":"ﾆｲｶﾞﾀｼﾁｭｳｵｳｸ","kana_address":"ﾋｶﾞｼﾅｶﾄﾞｵﾘ","pref":"新潟県","city":"新潟市中央区","address":"東中通"},
{"zip_code":"9518065","kana_pref":"ﾆｲｶﾞﾀｹﾝ","kana_city":"ﾆｲｶﾞﾀｼﾁｭｳｵｳｸ","kana_address":"ﾋｶﾞｼﾎﾞﾘﾄﾞｵﾘ","pref":"新潟県","city":"新潟市中央区","address":"東堀通"},
{"zip_code":"9518066","kana_pref":"ﾆｲｶﾞﾀｹﾝ","kana_city":"ﾆｲｶﾞﾀｼﾁｭｳｵｳｸ","kana_address":"ﾋｶﾞｼﾎﾞﾘﾏｴﾄﾞｵﾘ","pref":"新潟県","city":"新潟市中央区","address":"東堀前通"},
{"zip_code":"9518028","kana_pref":"ﾆｲｶﾞﾀｹﾝ","kana_city":"ﾆｲｶﾞﾀｼﾁｭｳｵｳｸ","kana_address":"ﾋｶﾞｼﾐﾅﾄﾏﾁﾄﾞｵﾘ","pref":"新潟県","city":"新潟市中央区","address":"東湊町通"},
{"zip_code":"9518003","kana_pref":"ﾆｲｶﾞﾀｹﾝ","kana_city":"ﾆｲｶﾞﾀｼﾁｭｳｵｳｸ","kana_address":"ﾋﾊﾞﾘﾁｮｳ","pref":"新潟県","city":"新潟市中央区","address":"雲雀町"},
{"zip_code":"9518102","kana_pref":"ﾆｲｶﾞﾀｹﾝ","kana_city":"ﾆｲｶﾞﾀｼﾁｭｳｵｳｸ","kana_address":"ﾌﾀﾊﾞﾁｮｳ","pref":"新潟県","city":"新潟市中央区","address":"二葉町"},
{"zip_code":"9518035","kana_pref":"ﾆｲｶﾞﾀｹﾝ","kana_city":"ﾆｲｶﾞﾀｼﾁｭｳｵｳｸ","kana_address":"ﾌﾅﾊﾞﾁｮｳ","pref":"新潟県","city":"新潟市中央区","address":"船場町"},
{"zip_code":"9518002","kana_pref":"ﾆｲｶﾞﾀｹﾝ","kana_city":"ﾆｲｶﾞﾀｼﾁｭｳｵｳｸ","kana_address":"ﾌﾅﾐﾁｮｳ","pref":"新潟県","city":"新潟市中央区","address":"船見町"},
{"zip_code":"9518063","kana_pref":"ﾆｲｶﾞﾀｹﾝ","kana_city":"ﾆｲｶﾞﾀｼﾁｭｳｵｳｸ","kana_address":"ﾌﾙﾏﾁﾄﾞｵﾘ","pref":"新潟県","city":"新潟市中央区","address":"古町通"},
{"zip_code":"9518153","kana_pref":"ﾆｲｶﾞﾀｹﾝ","kana_city":"ﾆｲｶﾞﾀｼﾁｭｳｵｳｸ","kana_address":"ﾌﾞﾝｷｮｳﾁｮｳ","pref":"新潟県","city":"新潟市中央区","address":"文京町"},
{"zip_code":"9518154","kana_pref":"ﾆｲｶﾞﾀｹﾝ","kana_city":"ﾆｲｶﾞﾀｼﾁｭｳｵｳｸ","kana_address":"ﾎﾘﾜﾘﾁｮｳ","pref":"新潟県","city":"新潟市中央区","address":"堀割町"},
{"zip_code":"9518067","kana_pref":"ﾆｲｶﾞﾀｹﾝ","kana_city":"ﾆｲｶﾞﾀｼﾁｭｳｵｳｸ","kana_address":"ﾎﾝﾁｮｳﾄﾞｵﾘ","pref":"新潟県","city":"新潟市中央区","address":"本町通"},
{"zip_code":"9518041","kana_pref":"ﾆｲｶﾞﾀｹﾝ","kana_city":"ﾆｲｶﾞﾀｼﾁｭｳｵｳｸ","kana_address":"ﾎﾝﾏﾁｮｳ","pref":"新潟県","city":"新潟市中央区","address":"本間町"},
{"zip_code":"9518046","kana_pref":"ﾆｲｶﾞﾀｹﾝ","kana_city":"ﾆｲｶﾞﾀｼﾁｭｳｵｳｸ","kana_address":"ﾏｸﾞｻｶﾜｷﾞｼﾄﾞｵﾘ","pref":"新潟県","city":"新潟市中央区","address":"秣川岸通"},
{"zip_code":"9518015","kana_pref":"ﾆｲｶﾞﾀｹﾝ","kana_city":"ﾆｲｶﾞﾀｼﾁｭｳｵｳｸ","kana_address":"ﾏﾂｵｶﾁｮｳ","pref":"新潟県","city":"新潟市中央区","address":"松岡町"},
{"zip_code":"9518032","kana_pref":"ﾆｲｶﾞﾀｹﾝ","kana_city":"ﾆｲｶﾞﾀｼﾁｭｳｵｳｸ","kana_address":"ﾐｶﾀﾁｮｳ","pref":"新潟県","city":"新潟市中央区","address":"見方町"},
{"zip_code":"9518014","kana_pref":"ﾆｲｶﾞﾀｹﾝ","kana_city":"ﾆｲｶﾞﾀｼﾁｭｳｵｳｸ","kana_address":"ﾐﾄﾞﾘﾏﾁ","pref":"新潟県","city":"新潟市中央区","address":"緑町"},
{"zip_code":"9518027","kana_pref":"ﾆｲｶﾞﾀｹﾝ","kana_city":"ﾆｲｶﾞﾀｼﾁｭｳｵｳｸ","kana_address":"ﾐﾅﾄﾏﾁﾄﾞｵﾘ","pref":"新潟県","city":"新潟市中央区","address":"湊町通"},
{"zip_code":"9518107","kana_pref":"ﾆｲｶﾞﾀｹﾝ","kana_city":"ﾆｲｶﾞﾀｼﾁｭｳｵｳｸ","kana_address":"ﾐﾅﾐｵｵﾊﾀﾁｮｳ","pref":"新潟県","city":"新潟市中央区","address":"南大畑町"},
{"zip_code":"9518047","kana_pref":"ﾆｲｶﾞﾀｹﾝ","kana_city":"ﾆｲｶﾞﾀｼﾁｭｳｵｳｸ","kana_address":"ﾐﾅﾐﾀﾓﾝﾁｮｳ","pref":"新潟県","city":"新潟市中央区","address":"南多門町"},
{"zip_code":"9518112","kana_pref":"ﾆｲｶﾞﾀｹﾝ","kana_city":"ﾆｲｶﾞﾀｼﾁｭｳｵｳｸ","kana_address":"ﾐﾅﾐﾊﾏﾄﾞｵﾘ","pref":"新潟県","city":"新潟市中央区","address":"南浜通"},
{"zip_code":"9518038","kana_pref":"ﾆｲｶﾞﾀｹﾝ","kana_city":"ﾆｲｶﾞﾀｼﾁｭｳｵｳｸ","kana_address":"ﾐﾅﾐﾋﾞｼｬﾓﾝﾁｮｳ","pref":"新潟県","city":"新潟市中央区","address":"南毘沙門町"},
{"zip_code":"9518117","kana_pref":"ﾆｲｶﾞﾀｹﾝ","kana_city":"ﾆｲｶﾞﾀｼﾁｭｳｵｳｸ","kana_address":"ﾐﾅﾐﾖｺﾎﾞﾘﾁｮｳ","pref":"新潟県","city":"新潟市中央区","address":"南横堀町"},
{"zip_code":"9518005","kana_pref":"ﾆｲｶﾞﾀｹﾝ","kana_city":"ﾆｲｶﾞﾀｼﾁｭｳｵｳｸ","kana_address":"ﾑﾛﾏﾁ","pref":"新潟県","city":"新潟市中央区","address":"室町"},
{"zip_code":"9518075","kana_pref":"ﾆｲｶﾞﾀｹﾝ","kana_city":"ﾆｲｶﾞﾀｼﾁｭｳｵｳｸ","kana_address":"ﾓﾄｲﾜｲﾏﾁ","pref":"新潟県","city":"新潟市中央区","address":"元祝町"},
{"zip_code":"9518084","kana_pref":"ﾆｲｶﾞﾀｹﾝ","kana_city":"ﾆｲｶﾞﾀｼﾁｭｳｵｳｸ","kana_address":"ﾓﾄｼﾓｼﾏﾁｮｳ","pref":"新潟県","city":"新潟市中央区","address":"元下島町"},
{"zip_code":"9518013","kana_pref":"ﾆｲｶﾞﾀｹﾝ","kana_city":"ﾆｲｶﾞﾀｼﾁｭｳｵｳｸ","kana_address":"ﾔﾅｷﾞｼﾏﾁｮｳ","pref":"新潟県","city":"新潟市中央区","address":"柳島町"},
{"zip_code":"9518004","kana_pref":"ﾆｲｶﾞﾀｹﾝ","kana_city":"ﾆｲｶﾞﾀｼﾁｭｳｵｳｸ","kana_address":"ﾔﾏﾀﾞﾏﾁ","pref":"新潟県","city":"新潟市中央区","address":"山田町"},
{"zip_code":"9518147","kana_pref":"ﾆｲｶﾞﾀｹﾝ","kana_city":"ﾆｲｶﾞﾀｼﾁｭｳｵｳｸ","kana_address":"ﾔﾖｲﾁｮｳ","pref":"新潟県","city":"新潟市中央区","address":"弥生町"},
{"zip_code":"9518023","kana_pref":"ﾆｲｶﾞﾀｹﾝ","kana_city":"ﾆｲｶﾞﾀｼﾁｭｳｵｳｸ","kana_address":"ﾕｳｴｲﾁｮｳ","pref":"新潟県","city":"新潟市中央区","address":"夕栄町"},
{"zip_code":"9518058","kana_pref":"ﾆｲｶﾞﾀｹﾝ","kana_city":"ﾆｲｶﾞﾀｼﾁｭｳｵｳｸ","kana_address":"ﾕｷﾁｮｳ","pref":"新潟県","city":"新潟市中央区","address":"雪町"},
{"zip_code":"9518064","kana_pref":"ﾆｲｶﾞﾀｹﾝ","kana_city":"ﾆｲｶﾞﾀｼﾁｭｳｵｳｸ","kana_address":"ﾖｺｲﾁﾊﾞﾝﾁｮｳ","pref":"新潟県","city":"新潟市中央区","address":"横一番町"},
{"zip_code":"9518083","kana_pref":"ﾆｲｶﾞﾀｹﾝ","kana_city":"ﾆｲｶﾞﾀｼﾁｭｳｵｳｸ","kana_address":"ﾖｺｼﾁﾊﾞﾝﾁｮｳﾄﾞｵﾘ","pref":"新潟県","city":"新潟市中央区","address":"横七番町通"},
{"zip_code":"9518022","kana_pref":"ﾆｲｶﾞﾀｹﾝ","kana_city":"ﾆｲｶﾞﾀｼﾁｭｳｵｳｸ","kana_address":"ﾖｺﾛｸﾊﾞﾝﾁｮｳ","pref":"新潟県","city":"新潟市中央区","address":"横六番町"},
{"zip_code":"9518036","kana_pref":"ﾆｲｶﾞﾀｹﾝ","kana_city":"ﾆｲｶﾞﾀｼﾁｭｳｵｳｸ","kana_address":"ﾖｼﾁｮｳ","pref":"新潟県","city":"新潟市中央区","address":"芳町"},
{"zip_code":"9518078","kana_pref":"ﾆｲｶﾞﾀｹﾝ","kana_city":"ﾆｲｶﾞﾀｼﾁｭｳｵｳｸ","kana_address":"ﾖﾂﾔﾁｮｳ","pref":"新潟県","city":"新潟市中央区","address":"四ツ屋町"},
{"zip_code":"9518086","kana_pref":"ﾆｲｶﾞﾀｹﾝ","kana_city":"ﾆｲｶﾞﾀｼﾁｭｳｵｳｸ","kana_address":"ﾖﾘｱｲﾁｮｳ","pref":"新潟県","city":"新潟市中央区","address":"寄合町"},
{"zip_code":"9518113","kana_pref":"ﾆｲｶﾞﾀｹﾝ","kana_city":"ﾆｲｶﾞﾀｼﾁｭｳｵｳｸ","kana_address":"ﾖﾘｲﾁｮｳ","pref":"新潟県","city":"新潟市中央区","address":"寄居町"},
{"zip_code":"9518134","kana_pref":"ﾆｲｶﾞﾀｹﾝ","kana_city":"ﾆｲｶﾞﾀｼﾆｼｸ","kana_address":"ｾｷﾔ","pref":"新潟県","city":"新潟市西区","address":"関屋"},
{"zip_code":"9518155","kana_pref":"ﾆｲｶﾞﾀｹﾝ","kana_city":"ﾆｲｶﾞﾀｼﾆｼｸ","kana_address":"ｾｷﾔﾎﾘﾜﾘﾁｮｳ","pref":"新潟県","city":"新潟市西区","address":"関屋堀割町"}]}