{"zip_code":[
{"zip_code":"9520000","kana_pref":"ﾆｲｶﾞﾀｹﾝ","kana_city":"ｻﾄﾞｼ","kana_address":"","pref":"新潟県","city":"佐渡市","address":""},
{"zip_code":"9521537","kana_pref":"ﾆｲｶﾞﾀｹﾝ","kana_city":"ｻﾄﾞｼ","kana_address":"ｱｲｶﾜｱｲﾂﾞﾏﾁ","pref":"新潟県","city":"佐渡市","address":"相川会津町"},
{"zip_code":"9521538","kana_pref":"ﾆｲｶﾞﾀｹﾝ","kana_city":"ｻﾄﾞｼ","kana_address":"ｱｲｶﾜｱｲﾓﾉﾏﾁ","pref":"新潟県","city":"佐渡市","address":"相川四十物町"},
{"zip_code":"9521574","kana_pref":"ﾆｲｶﾞﾀｹﾝ","kana_city":"ｻﾄﾞｼ","kana_address":"ｱｲｶﾜｱﾏﾏﾁ","pref":"新潟県","city":"佐渡市","address":"相川海士町"},
{"zip_code":"9521517","kana_pref":"ﾆｲｶﾞﾀｹﾝ","kana_city":"ｻﾄﾞｼ","kana_address":"ｱｲｶﾜｲｼﾊﾀｷﾏﾁ","pref":"新潟県","city":"佐渡市","address":"相川石扣町"},
{"zip_code":"9521512","kana_pref":"ﾆｲｶﾞﾀｹﾝ","kana_city":"ｻﾄﾞｼ","kana_address":"ｱｲｶﾜｲﾀﾏﾁ","pref":"新潟県","city":"佐渡市","address":"相川板町"},
{"zip_code":"9521566","kana_pref":"ﾆｲｶﾞﾀｹﾝ","kana_city":"ｻﾄﾞｼ","kana_address":"ｱｲｶﾜｲﾁﾏﾁ","pref":"新潟県","city":"佐渡市","address":"相川市町"},
{"zip_code":"9521557","kana_pref":"ﾆｲｶﾞﾀｹﾝ","kana_city":"ｻﾄﾞｼ","kana_address":"ｱｲｶﾜｲｯﾁｮｳﾒ","pref":"新潟県","city":"佐渡市","address":"相川一町目"},
{"zip_code":"9521552","kana_pref":"ﾆｲｶﾞﾀｹﾝ","kana_city":"ｻﾄﾞｼ","kana_address":"ｱｲｶﾜｲｯﾁｮｳﾒｳﾗﾏﾁ","pref":"新潟県","city":"佐渡市","address":"相川一町目裏町"},
{"zip_code":"9521556","kana_pref":"ﾆｲｶﾞﾀｹﾝ","kana_city":"ｻﾄﾞｼ","kana_address":"ｱｲｶﾜｲｯﾁｮｳﾒﾊﾏﾏﾁ","pref":"新潟県","city":"佐渡市","address":"相川一町目浜町"},
{"zip_code":"9521565","kana_pref":"ﾆｲｶﾞﾀｹﾝ","kana_city":"ｻﾄﾞｼ","kana_address":"ｱｲｶﾜｳﾏﾏﾁ","pref":"新潟県","city":"佐渡市","address":"相川馬町"},
{"zip_code":"9521547","kana_pref":"ﾆｲｶﾞﾀｹﾝ","kana_city":"ｻﾄﾞｼ","kana_address":"ｱｲｶﾜｴﾄﾞｻﾞﾜﾏﾁ","pref":"新潟県","city":"佐渡市","address":"相川江戸沢町"},
{"zip_code":"9521646","kana_pref":"ﾆｲｶﾞﾀｹﾝ","kana_city":"ｻﾄﾞｼ","kana_address":"ｱｲｶﾜｵｵｳﾗ","pref":"新潟県","city":"佐渡市","address":"相川大浦"},
{"zip_code":"9521534","kana_pref":"ﾆｲｶﾞﾀｹﾝ","kana_city":"ｻﾄﾞｼ","kana_address":"ｱｲｶﾜｵｵﾄｺﾔﾏﾁ","pref":"新潟県","city":"佐渡市","address":"相川大床屋町"},
{"zip_code":"9521508","kana_pref":"ﾆｲｶﾞﾀｹﾝ","kana_city":"ｻﾄﾞｼ","kana_address":"ｱｲｶﾜｵｵﾏﾏﾁ","pref":"新潟県","city":"佐渡市","address":"相川大間町"},
{"zip_code":"9521573","kana_pref":"ﾆｲｶﾞﾀｹﾝ","kana_city":"ｻﾄﾞｼ","kana_address":"ｱｲｶﾜｵﾘﾄｽﾐﾔｳﾗﾏﾁ","pref":"新潟県","city":"佐渡市","address":"相川下戸炭屋裏町"},
{"zip_code":"9521584","kana_pref":"ﾆｲｶﾞﾀｹﾝ","kana_city":"ｻﾄﾞｼ","kana_address":"ｱｲｶﾜｵﾘﾄｽﾐﾔﾊﾏﾏﾁ","pref":"新潟県","city":"佐渡市","address":"相川下戸炭屋浜町"},
{"zip_code":"9521581","kana_pref":"ﾆｲｶﾞﾀｹﾝ","kana_city":"ｻﾄﾞｼ","kana_address":"ｱｲｶﾜｵﾘﾄｽﾐﾔﾏﾁ","pref":"新潟県","city":"佐渡市","address":"相川下戸炭屋町"},
{"zip_code":"9521571","kana_pref":"ﾆｲｶﾞﾀｹﾝ","kana_city":"ｻﾄﾞｼ","kana_address":"ｱｲｶﾜｵﾘﾄﾊﾏﾏﾁ","pref":"新潟県","city":"佐渡市","address":"相川下戸浜町"},
{"zip_code":"9521575","kana_pref":"ﾆｲｶﾞﾀｹﾝ","kana_city":"ｻﾄﾞｼ","kana_address":"ｱｲｶﾜｵﾘﾄﾏﾁ","pref":"新潟県","city":"佐渡市","address":"相川下戸町"},
{"zip_code":"9521582","kana_pref":"ﾆｲｶﾞﾀｹﾝ","kana_city":"ｻﾄﾞｼ","kana_address":"ｱｲｶﾜｵﾘﾄﾑﾗ","pref":"新潟県","city":"佐渡市","address":"相川下戸村"},
{"zip_code":"9521583","kana_pref":"ﾆｲｶﾞﾀｹﾝ","kana_city":"ｻﾄﾞｼ","kana_address":"ｱｲｶﾜｶﾌﾞｾ","pref":"新潟県","city":"佐渡市","address":"相川鹿伏"},
{"zip_code":"9521522","kana_pref":"ﾆｲｶﾞﾀｹﾝ","kana_city":"ｻﾄﾞｼ","kana_address":"ｱｲｶﾜｶﾐｷｮｳﾏﾁ","pref":"新潟県","city":"佐渡市","address":"相川上京町"},
{"zip_code":"9521507","kana_pref":"ﾆｲｶﾞﾀｹﾝ","kana_city":"ｻﾄﾞｼ","kana_address":"ｱｲｶﾜｶﾐﾔﾏﾁ","pref":"新潟県","city":"佐渡市","address":"相川紙屋町"},
{"zip_code":"9521539","kana_pref":"ﾆｲｶﾞﾀｹﾝ","kana_city":"ｻﾄﾞｼ","kana_address":"ｱｲｶﾜｷﾀｻﾞﾜﾏﾁ","pref":"新潟県","city":"佐渡市","address":"相川北沢町"},
{"zip_code":"9521533","kana_pref":"ﾆｲｶﾞﾀｹﾝ","kana_city":"ｻﾄﾞｼ","kana_address":"ｱｲｶﾜｺﾒﾔﾏﾁ","pref":"新潟県","city":"佐渡市","address":"相川米屋町"},
{"zip_code":"9521553","kana_pref":"ﾆｲｶﾞﾀｹﾝ","kana_city":"ｻﾄﾞｼ","kana_address":"ｱｲｶﾜｺﾞﾛｳｻﾞｴﾓﾝﾏﾁ","pref":"新潟県","city":"佐渡市","address":"相川五郎左衛門町"},
{"zip_code":"9521514","kana_pref":"ﾆｲｶﾞﾀｹﾝ","kana_city":"ｻﾄﾞｼ","kana_address":"ｱｲｶﾜｺﾛｸﾏﾁ","pref":"新潟県","city":"佐渡市","address":"相川小六町"},
{"zip_code":"9521518","kana_pref":"ﾆｲｶﾞﾀｹﾝ","kana_city":"ｻﾄﾞｼ","kana_address":"ｱｲｶﾜｻﾞｲﾓｸﾏﾁ","pref":"新潟県","city":"佐渡市","address":"相川材木町"},
{"zip_code":"9521511","kana_pref":"ﾆｲｶﾞﾀｹﾝ","kana_city":"ｻﾄﾞｼ","kana_address":"ｱｲｶﾜｻｶｴﾏﾁ","pref":"新潟県","city":"佐渡市","address":"相川栄町"},
{"zip_code":"9521505","kana_pref":"ﾆｲｶﾞﾀｹﾝ","kana_city":"ｻﾄﾞｼ","kana_address":"ｱｲｶﾜｻｶｼﾀﾏﾁ","pref":"新潟県","city":"佐渡市","address":"相川坂下町"},
{"zip_code":"9521527","kana_pref":"ﾆｲｶﾞﾀｹﾝ","kana_city":"ｻﾄﾞｼ","kana_address":"ｱｲｶﾜｻﾓﾝﾏﾁ","pref":"新潟県","city":"佐渡市","address":"相川左門町"},
{"zip_code":"9521563","kana_pref":"ﾆｲｶﾞﾀｹﾝ","kana_city":"ｻﾄﾞｼ","kana_address":"ｱｲｶﾜｻﾝﾁｮｳﾒ","pref":"新潟県","city":"佐渡市","address":"相川三町目"},
{"zip_code":"9521561","kana_pref":"ﾆｲｶﾞﾀｹﾝ","kana_city":"ｻﾄﾞｼ","kana_address":"ｱｲｶﾜｻﾝﾁｮｳﾒｼﾝﾊﾏﾏﾁ","pref":"新潟県","city":"佐渡市","address":"相川三町目新浜町"},
{"zip_code":"9521562","kana_pref":"ﾆｲｶﾞﾀｹﾝ","kana_city":"ｻﾄﾞｼ","kana_address":"ｱｲｶﾜｻﾝﾁｮｳﾒﾊﾏﾏﾁ","pref":"新潟県","city":"佐渡市","address":"相川三町目浜町"},
{"zip_code":"9521542","kana_pref":"ﾆｲｶﾞﾀｹﾝ","kana_city":"ｻﾄﾞｼ","kana_address":"ｱｲｶﾜｼｵﾔﾏﾁ","pref":"新潟県","city":"佐渡市","address":"相川塩屋町"},
{"zip_code":"9521503","kana_pref":"ﾆｲｶﾞﾀｹﾝ","kana_city":"ｻﾄﾞｼ","kana_address":"ｱｲｶﾜｼﾊﾞﾏﾁ","pref":"新潟県","city":"佐渡市","address":"相川柴町"},
{"zip_code":"9521536","kana_pref":"ﾆｲｶﾞﾀｹﾝ","kana_city":"ｻﾄﾞｼ","kana_address":"ｱｲｶﾜｼﾓｷｮｳﾏﾁ","pref":"新潟県","city":"佐渡市","address":"相川下京町"},
{"zip_code":"9521551","kana_pref":"ﾆｲｶﾞﾀｹﾝ","kana_city":"ｻﾄﾞｼ","kana_address":"ｱｲｶﾜｼﾓﾃﾗﾏﾁ","pref":"新潟県","city":"佐渡市","address":"相川下寺町"},
{"zip_code":"9521504","kana_pref":"ﾆｲｶﾞﾀｹﾝ","kana_city":"ｻﾄﾞｼ","kana_address":"ｱｲｶﾜｼﾓﾔﾏﾉｶﾐﾏﾁ","pref":"新潟県","city":"佐渡市","address":"相川下山之神町"},
{"zip_code":"9521523","kana_pref":"ﾆｲｶﾞﾀｹﾝ","kana_city":"ｻﾄﾞｼ","kana_address":"ｱｲｶﾜｼﾝｺﾞﾛｳﾏﾁ","pref":"新潟県","city":"佐渡市","address":"相川新五郎町"},
{"zip_code":"9521541","kana_pref":"ﾆｲｶﾞﾀｹﾝ","kana_city":"ｻﾄﾞｼ","kana_address":"ｱｲｶﾜｼﾝｻﾞｲﾓｸﾏﾁ","pref":"新潟県","city":"佐渡市","address":"相川新材木町"},
{"zip_code":"9521515","kana_pref":"ﾆｲｶﾞﾀｹﾝ","kana_city":"ｻﾄﾞｼ","kana_address":"ｱｲｶﾜｼﾝﾆｼｻﾞｶﾏﾁ","pref":"新潟県","city":"佐渡市","address":"相川新西坂町"},
{"zip_code":"9521568","kana_pref":"ﾆｲｶﾞﾀｹﾝ","kana_city":"ｻﾄﾞｼ","kana_address":"ｱｲｶﾜｼﾝﾊﾏﾏﾁ","pref":"新潟県","city":"佐渡市","address":"相川新浜町"},
{"zip_code":"9521506","kana_pref":"ﾆｲｶﾞﾀｹﾝ","kana_city":"ｻﾄﾞｼ","kana_address":"ｱｲｶﾜｽﾐﾔﾏﾁ","pref":"新潟県","city":"佐渡市","address":"相川炭屋町"},
{"zip_code":"9521525","kana_pref":"ﾆｲｶﾞﾀｹﾝ","kana_city":"ｻﾄﾞｼ","kana_address":"ｱｲｶﾜｽﾜﾏﾁ","pref":"新潟県","city":"佐渡市","address":"相川諏訪町"},
{"zip_code":"9521524","kana_pref":"ﾆｲｶﾞﾀｹﾝ","kana_city":"ｻﾄﾞｼ","kana_address":"ｱｲｶﾜﾀﾞｲｸﾏﾁ","pref":"新潟県","city":"佐渡市","address":"相川大工町"},
{"zip_code":"9521535","kana_pref":"ﾆｲｶﾞﾀｹﾝ","kana_city":"ｻﾄﾞｼ","kana_address":"ｱｲｶﾜﾅｶｷｮｳﾏﾁ","pref":"新潟県","city":"佐渡市","address":"相川中京町"},
{"zip_code":"9521543","kana_pref":"ﾆｲｶﾞﾀｹﾝ","kana_city":"ｻﾄﾞｼ","kana_address":"ｱｲｶﾜﾅｶﾞｻｶﾏﾁ","pref":"新潟県","city":"佐渡市","address":"相川長坂町"},
{"zip_code":"9521526","kana_pref":"ﾆｲｶﾞﾀｹﾝ","kana_city":"ｻﾄﾞｼ","kana_address":"ｱｲｶﾜﾅｶﾃﾗﾏﾁ","pref":"新潟県","city":"佐渡市","address":"相川中寺町"},
{"zip_code":"9521513","kana_pref":"ﾆｲｶﾞﾀｹﾝ","kana_city":"ｻﾄﾞｼ","kana_address":"ｱｲｶﾜﾆｺﾞﾘｶﾜﾏﾁ","pref":"新潟県","city":"佐渡市","address":"相川濁川町"},
{"zip_code":"9521516","kana_pref":"ﾆｲｶﾞﾀｹﾝ","kana_city":"ｻﾄﾞｼ","kana_address":"ｱｲｶﾜﾆｼｻﾞｶﾏﾁ","pref":"新潟県","city":"佐渡市","address":"相川西坂町"},
{"zip_code":"9521558","kana_pref":"ﾆｲｶﾞﾀｹﾝ","kana_city":"ｻﾄﾞｼ","kana_address":"ｱｲｶﾜﾆﾁｮｳﾒ","pref":"新潟県","city":"佐渡市","address":"相川二町目"},
{"zip_code":"9521554","kana_pref":"ﾆｲｶﾞﾀｹﾝ","kana_city":"ｻﾄﾞｼ","kana_address":"ｱｲｶﾜﾆﾁｮｳﾒｼﾝﾊﾏﾏﾁ","pref":"新潟県","city":"佐渡市","address":"相川二町目新浜町"},
{"zip_code":"9521555","kana_pref":"ﾆｲｶﾞﾀｹﾝ","kana_city":"ｻﾄﾞｼ","kana_address":"ｱｲｶﾜﾆﾁｮｳﾒﾊﾏﾏﾁ","pref":"新潟県","city":"佐渡市","address":"相川二町目浜町"},
{"zip_code":"9521548","kana_pref":"ﾆｲｶﾞﾀｹﾝ","kana_city":"ｻﾄﾞｼ","kana_address":"ｱｲｶﾜﾊﾈﾀﾞﾏﾁ","pref":"新潟県","city":"佐渡市","address":"相川羽田町"},
{"zip_code":"9521572","kana_pref":"ﾆｲｶﾞﾀｹﾝ","kana_city":"ｻﾄﾞｼ","kana_address":"ｱｲｶﾜﾊﾈﾀﾞﾑﾗ","pref":"新潟県","city":"佐渡市","address":"相川羽田村"},
{"zip_code":"9521531","kana_pref":"ﾆｲｶﾞﾀｹﾝ","kana_city":"ｻﾄﾞｼ","kana_address":"ｱｲｶﾜﾋﾛﾏﾏﾁ","pref":"新潟県","city":"佐渡市","address":"相川広間町"},
{"zip_code":"9521502","kana_pref":"ﾆｲｶﾞﾀｹﾝ","kana_city":"ｻﾄﾞｼ","kana_address":"ｱｲｶﾜﾐｽﾞｶﾈﾏﾁ","pref":"新潟県","city":"佐渡市","address":"相川水金町"},
{"zip_code":"9521544","kana_pref":"ﾆｲｶﾞﾀｹﾝ","kana_city":"ｻﾄﾞｼ","kana_address":"ｱｲｶﾜﾐｿﾔﾏﾁ","pref":"新潟県","city":"佐渡市","address":"相川味噌屋町"},
{"zip_code":"9521546","kana_pref":"ﾆｲｶﾞﾀｹﾝ","kana_city":"ｻﾄﾞｼ","kana_address":"ｱｲｶﾜﾐﾅﾐｻﾞﾜﾏﾁ","pref":"新潟県","city":"佐渡市","address":"相川南沢町"},
{"zip_code":"9521545","kana_pref":"ﾆｲｶﾞﾀｹﾝ","kana_city":"ｻﾄﾞｼ","kana_address":"ｱｲｶﾜﾔｵﾔﾏﾁ","pref":"新潟県","city":"佐渡市","address":"相川八百屋町"},
{"zip_code":"9521532","kana_pref":"ﾆｲｶﾞﾀｹﾝ","kana_city":"ｻﾄﾞｼ","kana_address":"ｱｲｶﾜﾔｼﾞｭｳﾛｳﾏﾁ","pref":"新潟県","city":"佐渡市","address":"相川弥十郎町"},
{"zip_code":"9521521","kana_pref":"ﾆｲｶﾞﾀｹﾝ","kana_city":"ｻﾄﾞｼ","kana_address":"ｱｲｶﾜﾕｳﾊｸﾏﾁ","pref":"新潟県","city":"佐渡市","address":"相川夕白町"},
{"zip_code":"9521564","kana_pref":"ﾆｲｶﾞﾀｹﾝ","kana_city":"ｻﾄﾞｼ","kana_address":"ｱｲｶﾜﾖﾝﾁｮｳﾒ","pref":"新潟県","city":"佐渡市","address":"相川四町目"},
{"zip_code":"9521567","kana_pref":"ﾆｲｶﾞﾀｹﾝ","kana_city":"ｻﾄﾞｼ","kana_address":"ｱｲｶﾜﾖﾝﾁｮｳﾒﾊﾏﾏﾁ","pref":"新潟県","city":"佐渡市","address":"相川四町目浜町"},
{"zip_code":"9521528","kana_pref":"ﾆｲｶﾞﾀｹﾝ","kana_city":"ｻﾄﾞｼ","kana_address":"ｱｲｶﾜﾛｸｳｴﾓﾝﾏﾁ","pref":"新潟県","city":"佐渡市","address":"相川六右衛門町"},
{"zip_code":"9521326","kana_pref":"ﾆｲｶﾞﾀｹﾝ","kana_city":"ｻﾄﾞｼ","kana_address":"ｱｵﾉ","pref":"新潟県","city":"佐渡市","address":"青野"},
{"zip_code":"9523421","kana_pref":"ﾆｲｶﾞﾀｹﾝ","kana_city":"ｻﾄﾞｼ","kana_address":"ｱｶﾞﾀ","pref":"新潟県","city":"佐渡市","address":"吾潟"},
{"zip_code":"9520852","kana_pref":"ﾆｲｶﾞﾀｹﾝ","kana_city":"ｻﾄﾞｼ","kana_address":"ｱｶﾀﾞﾏ","pref":"新潟県","city":"佐渡市","address":"赤玉"},
{"zip_code":"9520711","kana_pref":"ﾆｲｶﾞﾀｹﾝ","kana_city":"ｻﾄﾞｼ","kana_address":"ｱｶﾄﾞﾏﾘ","pref":"新潟県","city":"佐渡市","address":"赤泊"},
{"zip_code":"9520021","kana_pref":"ﾆｲｶﾞﾀｹﾝ","kana_city":"ｻﾄﾞｼ","kana_address":"ｱｷﾂ","pref":"新潟県","city":"佐渡市","address":"秋津"},
{"zip_code":"9520022","kana_pref":"ﾆｲｶﾞﾀｹﾝ","kana_city":"ｻﾄﾞｼ","kana_address":"ｱｻﾋ","pref":"新潟県","city":"佐渡市","address":"旭"},
{"zip_code":"9520303","kana_pref":"ﾆｲｶﾞﾀｹﾝ","kana_city":"ｻﾄﾞｼ","kana_address":"ｱﾌﾞﾂﾎﾞｳ","pref":"新潟県","city":"佐渡市","address":"阿仏坊"},
{"zip_code":"9520851","kana_pref":"ﾆｲｶﾞﾀｹﾝ","kana_city":"ｻﾄﾞｼ","kana_address":"ｱﾜﾋﾞ","pref":"新潟県","city":"佐渡市","address":"蚫"},
{"zip_code":"9521201","kana_pref":"ﾆｲｶﾞﾀｹﾝ","kana_city":"ｻﾄﾞｼ","kana_address":"ｱﾝﾖｳｼﾞ","pref":"新潟県","city":"佐渡市","address":"安養寺"},
{"zip_code":"9520213","kana_pref":"ﾆｲｶﾞﾀｹﾝ","kana_city":"ｻﾄﾞｼ","kana_address":"ｲｲﾓﾁ","pref":"新潟県","city":"佐渡市","address":"飯持"},
{"zip_code":"9522202","kana_pref":"ﾆｲｶﾞﾀｹﾝ","kana_city":"ｻﾄﾞｼ","kana_address":"ｲｶｳﾗ","pref":"新潟県","city":"佐渡市","address":"五十浦"},
{"zip_code":"9522224","kana_pref":"ﾆｲｶﾞﾀｹﾝ","kana_city":"ｻﾄﾞｼ","kana_address":"ｲｼｹﾞ","pref":"新潟県","city":"佐渡市","address":"石花"},
{"zip_code":"9521322","kana_pref":"ﾆｲｶﾞﾀｹﾝ","kana_city":"ｻﾄﾞｼ","kana_address":"ｲｼﾀﾞ","pref":"新潟県","city":"佐渡市","address":"石田"},
{"zip_code":"9522211","kana_pref":"ﾆｲｶﾞﾀｹﾝ","kana_city":"ｻﾄﾞｼ","kana_address":"ｲｼﾅ","pref":"新潟県","city":"佐渡市","address":"石名"},
{"zip_code":"9521212","kana_pref":"ﾆｲｶﾞﾀｹﾝ","kana_city":"ｻﾄﾞｼ","kana_address":"ｲｽﾞﾐ","pref":"新潟県","city":"佐渡市","address":"泉"},
{"zip_code":"9521302","kana_pref":"ﾆｲｶﾞﾀｹﾝ","kana_city":"ｻﾄﾞｼ","kana_address":"ｲﾁﾉｻﾜ","pref":"新潟県","city":"佐渡市","address":"市野沢"},
{"zip_code":"9520626","kana_pref":"ﾆｲｶﾞﾀｹﾝ","kana_city":"ｻﾄﾞｼ","kana_address":"ｲﾂﾎﾞ","pref":"新潟県","city":"佐渡市","address":"井坪"},
{"zip_code":"9521643","kana_pref":"ﾆｲｶﾞﾀｹﾝ","kana_city":"ｻﾄﾞｼ","kana_address":"ｲﾅｸｼﾞﾗ","pref":"新潟県","city":"佐渡市","address":"稲鯨"},
{"zip_code":"9520614","kana_pref":"ﾆｲｶﾞﾀｹﾝ","kana_city":"ｻﾄﾞｼ","kana_address":"ｲﾇｶﾐﾀﾞｲﾗ","pref":"新潟県","city":"佐渡市","address":"犬神平"},
{"zip_code":"9520857","kana_pref":"ﾆｲｶﾞﾀｹﾝ","kana_city":"ｻﾄﾞｼ","kana_address":"ｲﾜｸﾋﾞ","pref":"新潟県","city":"佐渡市","address":"岩首"},
{"zip_code":"9522201","kana_pref":"ﾆｲｶﾞﾀｹﾝ","kana_city":"ｻﾄﾞｼ","kana_address":"ｲﾜﾔｸﾞﾁ","pref":"新潟県","city":"佐渡市","address":"岩谷口"},
{"zip_code":"9522223","kana_pref":"ﾆｲｶﾞﾀｹﾝ","kana_city":"ｻﾄﾞｼ","kana_address":"ｳｼﾛｵ","pref":"新潟県","city":"佐渡市","address":"後尾"},
{"zip_code":"9523113","kana_pref":"ﾆｲｶﾞﾀｹﾝ","kana_city":"ｻﾄﾞｼ","kana_address":"ｳﾀﾐ","pref":"新潟県","city":"佐渡市","address":"歌見"},
{"zip_code":"9523117","kana_pref":"ﾆｲｶﾞﾀｹﾝ","kana_city":"ｻﾄﾞｼ","kana_address":"ｳﾏｸﾋﾞ","pref":"新潟県","city":"佐渡市","address":"馬首"},
{"zip_code":"9520005","kana_pref":"ﾆｲｶﾞﾀｹﾝ","kana_city":"ｻﾄﾞｼ","kana_address":"ｳﾒﾂﾞ","pref":"新潟県","city":"佐渡市","address":"梅津"},
{"zip_code":"9523114","kana_pref":"ﾆｲｶﾞﾀｹﾝ","kana_city":"ｻﾄﾞｼ","kana_address":"ｳﾗｶﾞﾜ","pref":"新潟県","city":"佐渡市","address":"浦川"},
{"zip_code":"9520622","kana_pref":"ﾆｲｶﾞﾀｹﾝ","kana_city":"ｻﾄﾞｼ","kana_address":"ｴｯﾂﾐ","pref":"新潟県","city":"佐渡市","address":"江積"},
{"zip_code":"9520214","kana_pref":"ﾆｲｶﾞﾀｹﾝ","kana_city":"ｻﾄﾞｼ","kana_address":"ｵｵｸﾎﾞ","pref":"新潟県","city":"佐渡市","address":"大久保"},
{"zip_code":"9522205","kana_pref":"ﾆｲｶﾞﾀｹﾝ","kana_city":"ｻﾄﾞｼ","kana_address":"ｵｵｸﾗ","pref":"新潟県","city":"佐渡市","address":"大倉"},
{"zip_code":"9520432","kana_pref":"ﾆｲｶﾞﾀｹﾝ","kana_city":"ｻﾄﾞｼ","kana_address":"ｵｵｸﾗﾀﾆ","pref":"新潟県","city":"佐渡市","address":"大倉谷"},
{"zip_code":"9520315","kana_pref":"ﾆｲｶﾞﾀｹﾝ","kana_city":"ｻﾄﾞｼ","kana_address":"ｵｵｽﾞ","pref":"新潟県","city":"佐渡市","address":"大須"},
{"zip_code":"9520716","kana_pref":"ﾆｲｶﾞﾀｹﾝ","kana_city":"ｻﾄﾞｼ","kana_address":"ｵｵｽｷﾞ","pref":"新潟県","city":"佐渡市","address":"大杉"},
{"zip_code":"9520822","kana_pref":"ﾆｲｶﾞﾀｹﾝ","kana_city":"ｻﾄﾞｼ","kana_address":"ｵｵﾀ","pref":"新潟県","city":"佐渡市","address":"多田"},
{"zip_code":"9522136","kana_pref":"ﾆｲｶﾞﾀｹﾝ","kana_city":"ｻﾄﾞｼ","kana_address":"ｵｶﾞﾜ","pref":"新潟県","city":"佐渡市","address":"小川"},
{"zip_code":"9520605","kana_pref":"ﾆｲｶﾞﾀｹﾝ","kana_city":"ｻﾄﾞｼ","kana_address":"ｵｷﾞ","pref":"新潟県","city":"佐渡市","address":"小木"},
{"zip_code":"9520611","kana_pref":"ﾆｲｶﾞﾀｹﾝ","kana_city":"ｻﾄﾞｼ","kana_address":"ｵｷﾞｶﾈﾀｼﾝﾃﾞﾝ","pref":"新潟県","city":"佐渡市","address":"小木金田新田"},
{"zip_code":"9520603","kana_pref":"ﾆｲｶﾞﾀｹﾝ","kana_city":"ｻﾄﾞｼ","kana_address":"ｵｷﾞｷﾉｳﾗ","pref":"新潟県","city":"佐渡市","address":"小木木野浦"},
{"zip_code":"9520613","kana_pref":"ﾆｲｶﾞﾀｹﾝ","kana_city":"ｻﾄﾞｼ","kana_address":"ｵｷﾞｺﾜｼﾐｽﾞ","pref":"新潟県","city":"佐渡市","address":"小木強清水"},
{"zip_code":"9520601","kana_pref":"ﾆｲｶﾞﾀｹﾝ","kana_city":"ｻﾄﾞｼ","kana_address":"ｵｷﾞﾄﾞｳﾉｶﾏ","pref":"新潟県","city":"佐渡市","address":"小木堂釜"},
{"zip_code":"9520625","kana_pref":"ﾆｲｶﾞﾀｹﾝ","kana_city":"ｻﾄﾞｼ","kana_address":"ｵｷﾞｵｵｳﾗ","pref":"新潟県","city":"佐渡市","address":"小木大浦"},
{"zip_code":"9520604","kana_pref":"ﾆｲｶﾞﾀｹﾝ","kana_city":"ｻﾄﾞｼ","kana_address":"ｵｷﾞﾏﾁ","pref":"新潟県","city":"佐渡市","address":"小木町"},
{"zip_code":"9520205","kana_pref":"ﾆｲｶﾞﾀｹﾝ","kana_city":"ｻﾄﾞｼ","kana_address":"ｵｸﾞﾗ","pref":"新潟県","city":"佐渡市","address":"小倉"},
{"zip_code":"9522212","kana_pref":"ﾆｲｶﾞﾀｹﾝ","kana_city":"ｻﾄﾞｼ","kana_address":"ｵﾉﾐ","pref":"新潟県","city":"佐渡市","address":"小野見"},
{"zip_code":"9521207","kana_pref":"ﾆｲｶﾞﾀｹﾝ","kana_city":"ｻﾄﾞｼ","kana_address":"ｶｲﾂﾞｶ","pref":"新潟県","city":"佐渡市","address":"貝塚"},
{"zip_code":"9520855","kana_pref":"ﾆｲｶﾞﾀｹﾝ","kana_city":"ｻﾄﾞｼ","kana_address":"ｶｷﾉｳﾗ","pref":"新潟県","city":"佐渡市","address":"柿野浦"},
{"zip_code":"9521323","kana_pref":"ﾆｲｶﾞﾀｹﾝ","kana_city":"ｻﾄﾞｼ","kana_address":"ｶｼﾞﾏﾁ","pref":"新潟県","city":"佐渡市","address":"鍛冶町"},
{"zip_code":"9520006","kana_pref":"ﾆｲｶﾞﾀｹﾝ","kana_city":"ｻﾄﾞｼ","kana_address":"ｶｽｶﾞ","pref":"新潟県","city":"佐渡市","address":"春日"},
{"zip_code":"9523542","kana_pref":"ﾆｲｶﾞﾀｹﾝ","kana_city":"ｻﾄﾞｼ","kana_address":"ｶﾀﾉｵ","pref":"新潟県","city":"佐渡市","address":"片野尾"},
{"zip_code":"9520023","kana_pref":"ﾆｲｶﾞﾀｹﾝ","kana_city":"ｻﾄﾞｼ","kana_address":"ｶﾀﾊﾞﾀ","pref":"新潟県","city":"佐渡市","address":"潟端"},
{"zip_code":"9521208","kana_pref":"ﾆｲｶﾞﾀｹﾝ","kana_city":"ｻﾄﾞｼ","kana_address":"ｶﾅｲｼﾝﾎﾞ","pref":"新潟県","city":"佐渡市","address":"金井新保"},
{"zip_code":"9520307","kana_pref":"ﾆｲｶﾞﾀｹﾝ","kana_city":"ｻﾄﾞｼ","kana_address":"ｶﾅﾏﾙ","pref":"新潟県","city":"佐渡市","address":"金丸"},
{"zip_code":"9520702","kana_pref":"ﾆｲｶﾞﾀｹﾝ","kana_city":"ｻﾄﾞｼ","kana_address":"ｶﾐｶﾜﾓ","pref":"新潟県","city":"佐渡市","address":"上川茂"},
{"zip_code":"9521305","kana_pref":"ﾆｲｶﾞﾀｹﾝ","kana_city":"ｻﾄﾞｼ","kana_address":"ｶﾐﾅｶﾞｷ","pref":"新潟県","city":"佐渡市","address":"上長木"},
{"zip_code":"9520108","kana_pref":"ﾆｲｶﾞﾀｹﾝ","kana_city":"ｻﾄﾞｼ","kana_address":"ｶﾐﾆｲﾎﾞ","pref":"新潟県","city":"佐渡市","address":"上新穂"},
{"zip_code":"9521303","kana_pref":"ﾆｲｶﾞﾀｹﾝ","kana_city":"ｻﾄﾞｼ","kana_address":"ｶﾐﾔﾊﾞｾ","pref":"新潟県","city":"佐渡市","address":"上矢馳"},
{"zip_code":"9520024","kana_pref":"ﾆｲｶﾞﾀｹﾝ","kana_city":"ｻﾄﾞｼ","kana_address":"ｶﾐﾖｺﾔﾏ","pref":"新潟県","city":"佐渡市","address":"上横山"},
{"zip_code":"9520028","kana_pref":"ﾆｲｶﾞﾀｹﾝ","kana_city":"ｻﾄﾞｼ","kana_address":"ｶﾓｳﾀｼﾛ","pref":"新潟県","city":"佐渡市","address":"加茂歌代"},
{"zip_code":"9523425","kana_pref":"ﾆｲｶﾞﾀｹﾝ","kana_city":"ｻﾄﾞｼ","kana_address":"ｶﾜｻｷ","pref":"新潟県","city":"佐渡市","address":"河崎"},
{"zip_code":"9521315","kana_pref":"ﾆｲｶﾞﾀｹﾝ","kana_city":"ｻﾄﾞｼ","kana_address":"ｶﾜﾊﾗﾀﾞｽﾜﾏﾁ","pref":"新潟県","city":"佐渡市","address":"河原田諏訪町"},
{"zip_code":"9521314","kana_pref":"ﾆｲｶﾞﾀｹﾝ","kana_city":"ｻﾄﾞｼ","kana_address":"ｶﾜﾊﾗﾀﾞﾎﾝﾏﾁ","pref":"新潟県","city":"佐渡市","address":"河原田本町"},
{"zip_code":"9520002","kana_pref":"ﾆｲｶﾞﾀｹﾝ","kana_city":"ｻﾄﾞｼ","kana_address":"ｷﾀｲｶﾘ","pref":"新潟県","city":"佐渡市","address":"北五十里"},
{"zip_code":"9523202","kana_pref":"ﾆｲｶﾞﾀｹﾝ","kana_city":"ｻﾄﾞｼ","kana_address":"ｷﾀｳｼﾏ","pref":"新潟県","city":"佐渡市","address":"北鵜島"},
{"zip_code":"9522133","kana_pref":"ﾆｲｶﾞﾀｹﾝ","kana_city":"ｻﾄﾞｼ","kana_address":"ｷﾀｴﾋﾞｽ","pref":"新潟県","city":"佐渡市","address":"北狄"},
{"zip_code":"9522225","kana_pref":"ﾆｲｶﾞﾀｹﾝ","kana_city":"ｻﾄﾞｼ","kana_address":"ｷﾀｶﾀﾍﾞ","pref":"新潟県","city":"佐渡市","address":"北片辺"},
{"zip_code":"9522222","kana_pref":"ﾆｲｶﾞﾀｹﾝ","kana_city":"ｻﾄﾞｼ","kana_address":"ｷﾀｶﾜﾁ","pref":"新潟県","city":"佐渡市","address":"北川内"},
{"zip_code":"9523207","kana_pref":"ﾆｲｶﾞﾀｹﾝ","kana_city":"ｻﾄﾞｼ","kana_address":"ｷﾀｺｳﾗ","pref":"新潟県","city":"佐渡市","address":"北小浦"},
{"zip_code":"9522221","kana_pref":"ﾆｲｶﾞﾀｹﾝ","kana_city":"ｻﾄﾞｼ","kana_address":"ｷﾀﾀﾂｼﾏ","pref":"新潟県","city":"佐渡市","address":"北立島"},
{"zip_code":"9522213","kana_pref":"ﾆｲｶﾞﾀｹﾝ","kana_city":"ｻﾄﾞｼ","kana_address":"ｷﾀﾀﾉｳﾗ","pref":"新潟県","city":"佐渡市","address":"北田野浦"},
{"zip_code":"9523116","kana_pref":"ﾆｲｶﾞﾀｹﾝ","kana_city":"ｻﾄﾞｼ","kana_address":"ｷﾀﾏﾂｶﾞｻｷ","pref":"新潟県","city":"佐渡市","address":"北松ケ崎"},
{"zip_code":"9523423","kana_pref":"ﾆｲｶﾞﾀｹﾝ","kana_city":"ｻﾄﾞｼ","kana_address":"ｸﾁﾞｶﾜﾁ","pref":"新潟県","city":"佐渡市","address":"久知河内"},
{"zip_code":"9521325","kana_pref":"ﾆｲｶﾞﾀｹﾝ","kana_city":"ｻﾄﾞｼ","kana_address":"ｸﾎﾞﾀ","pref":"新潟県","city":"佐渡市","address":"窪田"},
{"zip_code":"9520202","kana_pref":"ﾆｲｶﾞﾀｹﾝ","kana_city":"ｻﾄﾞｼ","kana_address":"ｸﾘﾉｴ","pref":"新潟県","city":"佐渡市","address":"栗野江"},
{"zip_code":"9523112","kana_pref":"ﾆｲｶﾞﾀｹﾝ","kana_city":"ｻﾄﾞｼ","kana_address":"ｸﾛﾋﾒ","pref":"新潟県","city":"佐渡市","address":"黒姫"},
{"zip_code":"9520304","kana_pref":"ﾆｲｶﾞﾀｹﾝ","kana_city":"ｻﾄﾞｼ","kana_address":"ｺｸﾌﾞﾝｼﾞ","pref":"新潟県","city":"佐渡市","address":"国分寺"},
{"zip_code":"9522206","kana_pref":"ﾆｲｶﾞﾀｹﾝ","kana_city":"ｻﾄﾞｼ","kana_address":"ｺﾀﾞ","pref":"新潟県","city":"佐渡市","address":"小田"},
{"zip_code":"9520606","kana_pref":"ﾆｲｶﾞﾀｹﾝ","kana_city":"ｻﾄﾞｼ","kana_address":"ｺﾄｳﾗ","pref":"新潟県","city":"佐渡市","address":"琴浦"},
{"zip_code":"9520624","kana_pref":"ﾆｲｶﾞﾀｹﾝ","kana_city":"ｻﾄﾞｼ","kana_address":"ｺﾅｶﾞｾ","pref":"新潟県","city":"佐渡市","address":"木流"},
{"zip_code":"9520602","kana_pref":"ﾆｲｶﾞﾀｹﾝ","kana_city":"ｻﾄﾞｼ","kana_address":"ｺﾋﾞｴ","pref":"新潟県","city":"佐渡市","address":"小比叡"},
{"zip_code":"9520215","kana_pref":"ﾆｲｶﾞﾀｹﾝ","kana_city":"ｻﾄﾞｼ","kana_address":"ｻﾙﾊﾁ","pref":"新潟県","city":"佐渡市","address":"猿八"},
{"zip_code":"9520621","kana_pref":"ﾆｲｶﾞﾀｹﾝ","kana_city":"ｻﾄﾞｼ","kana_address":"ｻﾜｻｷ","pref":"新潟県","city":"佐渡市","address":"沢崎"},
{"zip_code":"9521432","kana_pref":"ﾆｲｶﾞﾀｹﾝ","kana_city":"ｻﾄﾞｼ","kana_address":"ｻﾜﾈｲｶﾘ","pref":"新潟県","city":"佐渡市","address":"沢根五十里"},
{"zip_code":"9521433","kana_pref":"ﾆｲｶﾞﾀｹﾝ","kana_city":"ｻﾄﾞｼ","kana_address":"ｻﾜﾈｶｺﾞﾏﾁ","pref":"新潟県","city":"佐渡市","address":"沢根篭町"},
{"zip_code":"9521431","kana_pref":"ﾆｲｶﾞﾀｹﾝ","kana_city":"ｻﾄﾞｼ","kana_address":"ｻﾜﾈｽﾐﾔﾏﾁ","pref":"新潟県","city":"佐渡市","address":"沢根炭屋町"},
{"zip_code":"9521435","kana_pref":"ﾆｲｶﾞﾀｹﾝ","kana_city":"ｻﾄﾞｼ","kana_address":"ｻﾜﾈ","pref":"新潟県","city":"佐渡市","address":"沢根"},
{"zip_code":"9521434","kana_pref":"ﾆｲｶﾞﾀｹﾝ","kana_city":"ｻﾄﾞｼ","kana_address":"ｻﾜﾈﾏﾁ","pref":"新潟県","city":"佐渡市","address":"沢根町"},
{"zip_code":"9520216","kana_pref":"ﾆｲｶﾞﾀｹﾝ","kana_city":"ｻﾄﾞｼ","kana_address":"ｻﾝｸﾞｳ","pref":"新潟県","city":"佐渡市","address":"三宮"},
{"zip_code":"9521204","kana_pref":"ﾆｲｶﾞﾀｹﾝ","kana_city":"ｻﾄﾞｼ","kana_address":"ｻﾝｾｶﾞﾜ","pref":"新潟県","city":"佐渡市","address":"三瀬川"},
{"zip_code":"9523432","kana_pref":"ﾆｲｶﾞﾀｹﾝ","kana_city":"ｻﾄﾞｼ","kana_address":"ｼｲﾄﾞﾏﾘ","pref":"新潟県","city":"佐渡市","address":"椎泊"},
{"zip_code":"9520321","kana_pref":"ﾆｲｶﾞﾀｹﾝ","kana_city":"ｻﾄﾞｼ","kana_address":"ｼｽﾞﾀﾞｲﾗ","pref":"新潟県","city":"佐渡市","address":"静平"},
{"zip_code":"9521501","kana_pref":"ﾆｲｶﾞﾀｹﾝ","kana_city":"ｻﾄﾞｼ","kana_address":"ｼﾓｱｲｶﾜ","pref":"新潟県","city":"佐渡市","address":"下相川"},
{"zip_code":"9520701","kana_pref":"ﾆｲｶﾞﾀｹﾝ","kana_city":"ｻﾄﾞｼ","kana_address":"ｼﾓｶﾜﾓ","pref":"新潟県","city":"佐渡市","address":"下川茂"},
{"zip_code":"9523424","kana_pref":"ﾆｲｶﾞﾀｹﾝ","kana_city":"ｻﾄﾞｼ","kana_address":"ｼﾓｸﾁﾞ","pref":"新潟県","city":"佐渡市","address":"下久知"},
{"zip_code":"9520322","kana_pref":"ﾆｲｶﾞﾀｹﾝ","kana_city":"ｻﾄﾞｼ","kana_address":"ｼﾓｸﾛﾔﾏ","pref":"新潟県","city":"佐渡市","address":"下黒山"},
{"zip_code":"9521304","kana_pref":"ﾆｲｶﾞﾀｹﾝ","kana_city":"ｻﾄﾞｼ","kana_address":"ｼﾓﾅｶﾞｷ","pref":"新潟県","city":"佐渡市","address":"下長木"},
{"zip_code":"9520114","kana_pref":"ﾆｲｶﾞﾀｹﾝ","kana_city":"ｻﾄﾞｼ","kana_address":"ｼﾓﾆｲﾎﾞ","pref":"新潟県","city":"佐渡市","address":"下新穂"},
{"zip_code":"9520025","kana_pref":"ﾆｲｶﾞﾀｹﾝ","kana_city":"ｻﾄﾞｼ","kana_address":"ｼﾓﾖｺﾔﾏ","pref":"新潟県","city":"佐渡市","address":"下横山"},
{"zip_code":"9520612","kana_pref":"ﾆｲｶﾞﾀｹﾝ","kana_city":"ｻﾄﾞｼ","kana_address":"ｼｭｸﾈｷﾞ","pref":"新潟県","city":"佐渡市","address":"宿根木"},
{"zip_code":"9523422","kana_pref":"ﾆｲｶﾞﾀｹﾝ","kana_city":"ｻﾄﾞｼ","kana_address":"ｼﾞｮｳﾉｺｼ","pref":"新潟県","city":"佐渡市","address":"城腰"},
{"zip_code":"9520001","kana_pref":"ﾆｲｶﾞﾀｹﾝ","kana_city":"ｻﾄﾞｼ","kana_address":"ｼﾛｾ","pref":"新潟県","city":"佐渡市","address":"白瀬"},
{"zip_code":"9521301","kana_pref":"ﾆｲｶﾞﾀｹﾝ","kana_city":"ｻﾄﾞｼ","kana_address":"ｼﾝｺｳｼﾞ","pref":"新潟県","city":"佐渡市","address":"真光寺"},
{"zip_code":"9523541","kana_pref":"ﾆｲｶﾞﾀｹﾝ","kana_city":"ｻﾄﾞｼ","kana_address":"ｽｲﾂﾞ","pref":"新潟県","city":"佐渡市","address":"水津"},
{"zip_code":"9520715","kana_pref":"ﾆｲｶﾞﾀｹﾝ","kana_city":"ｻﾄﾞｼ","kana_address":"ｽｷﾞﾉｳﾗ","pref":"新潟県","city":"佐渡市","address":"杉野浦"},
{"zip_code":"9520015","kana_pref":"ﾆｲｶﾞﾀｹﾝ","kana_city":"ｻﾄﾞｼ","kana_address":"ｽﾐﾖｼ","pref":"新潟県","city":"佐渡市","address":"住吉"},
{"zip_code":"9522203","kana_pref":"ﾆｲｶﾞﾀｹﾝ","kana_city":"ｻﾄﾞｼ","kana_address":"ｾｷ","pref":"新潟県","city":"佐渡市","address":"関"},
{"zip_code":"9520316","kana_pref":"ﾆｲｶﾞﾀｹﾝ","kana_city":"ｻﾄﾞｼ","kana_address":"ｾﾅｺﾞｳ","pref":"新潟県","city":"佐渡市","address":"背合"},
{"zip_code":"9520431","kana_pref":"ﾆｲｶﾞﾀｹﾝ","kana_city":"ｻﾄﾞｼ","kana_address":"ﾀﾞｲｼｮｳ","pref":"新潟県","city":"佐渡市","address":"大小"},
{"zip_code":"9522214","kana_pref":"ﾆｲｶﾞﾀｹﾝ","kana_city":"ｻﾄﾞｼ","kana_address":"ﾀｶﾁ","pref":"新潟県","city":"佐渡市","address":"高千"},
{"zip_code":"9520433","kana_pref":"ﾆｲｶﾞﾀｹﾝ","kana_city":"ｻﾄﾞｼ","kana_address":"ﾀｷﾞﾘｽ","pref":"新潟県","city":"佐渡市","address":"田切須"},
{"zip_code":"9520314","kana_pref":"ﾆｲｶﾞﾀｹﾝ","kana_city":"ｻﾄﾞｼ","kana_address":"ﾀｷﾜｷ","pref":"新潟県","city":"佐渡市","address":"滝脇"},
{"zip_code":"9520302","kana_pref":"ﾆｲｶﾞﾀｹﾝ","kana_city":"ｻﾄﾞｼ","kana_address":"ﾀｹﾀﾞ","pref":"新潟県","city":"佐渡市","address":"竹田"},
{"zip_code":"9521645","kana_pref":"ﾆｲｶﾞﾀｹﾝ","kana_city":"ｻﾄﾞｼ","kana_address":"ﾀｺｾ","pref":"新潟県","city":"佐渡市","address":"高瀬"},
{"zip_code":"9521644","kana_pref":"ﾆｲｶﾞﾀｹﾝ","kana_city":"ｻﾄﾞｼ","kana_address":"ﾀﾁﾊﾞﾅ","pref":"新潟県","city":"佐渡市","address":"橘"},
{"zip_code":"9522135","kana_pref":"ﾆｲｶﾞﾀｹﾝ","kana_city":"ｻﾄﾞｼ","kana_address":"ﾀｯｼｬ","pref":"新潟県","city":"佐渡市","address":"達者"},
{"zip_code":"9520853","kana_pref":"ﾆｲｶﾞﾀｹﾝ","kana_city":"ｻﾄﾞｼ","kana_address":"ﾀﾂﾏ","pref":"新潟県","city":"佐渡市","address":"立間"},
{"zip_code":"9520026","kana_pref":"ﾆｲｶﾞﾀｹﾝ","kana_city":"ｻﾄﾞｼ","kana_address":"ﾀﾃﾉ","pref":"新潟県","city":"佐渡市","address":"立野"},
{"zip_code":"9520623","kana_pref":"ﾆｲｶﾞﾀｹﾝ","kana_city":"ｻﾄﾞｼ","kana_address":"ﾀﾉｳﾗ","pref":"新潟県","city":"佐渡市","address":"田野浦"},
{"zip_code":"9523119","kana_pref":"ﾆｲｶﾞﾀｹﾝ","kana_city":"ｻﾄﾞｼ","kana_address":"ﾀﾏｻｷ","pref":"新潟県","city":"佐渡市","address":"玉崎"},
{"zip_code":"9521209","kana_pref":"ﾆｲｶﾞﾀｹﾝ","kana_city":"ｻﾄﾞｼ","kana_address":"ﾁｸﾞｻ","pref":"新潟県","city":"佐渡市","address":"千種"},
{"zip_code":"9523543","kana_pref":"ﾆｲｶﾞﾀｹﾝ","kana_city":"ｻﾄﾞｼ","kana_address":"ﾂｷﾌｾ","pref":"新潟県","city":"佐渡市","address":"月布施"},
{"zip_code":"9520003","kana_pref":"ﾆｲｶﾞﾀｹﾝ","kana_city":"ｻﾄﾞｼ","kana_address":"ﾂﾊﾞｷ","pref":"新潟県","city":"佐渡市","address":"椿"},
{"zip_code":"9520435","kana_pref":"ﾆｲｶﾞﾀｹﾝ","kana_city":"ｻﾄﾞｼ","kana_address":"ﾂﾊﾞｷｵ","pref":"新潟県","city":"佐渡市","address":"椿尾"},
{"zip_code":"9520207","kana_pref":"ﾆｲｶﾞﾀｹﾝ","kana_city":"ｻﾄﾞｼ","kana_address":"ﾃﾗﾀﾞ","pref":"新潟県","city":"佐渡市","address":"寺田"},
{"zip_code":"9520706","kana_pref":"ﾆｲｶﾞﾀｹﾝ","kana_city":"ｻﾄﾞｼ","kana_address":"ﾄｸﾜ","pref":"新潟県","city":"佐渡市","address":"徳和"},
{"zip_code":"9522132","kana_pref":"ﾆｲｶﾞﾀｹﾝ","kana_city":"ｻﾄﾞｼ","kana_address":"ﾄｼﾞ","pref":"新潟県","city":"佐渡市","address":"戸地"},
{"zip_code":"9522131","kana_pref":"ﾆｲｶﾞﾀｹﾝ","kana_city":"ｻﾄﾞｼ","kana_address":"ﾄﾁｭｳ","pref":"新潟県","city":"佐渡市","address":"戸中"},
{"zip_code":"9520703","kana_pref":"ﾆｲｶﾞﾀｹﾝ","kana_city":"ｻﾄﾞｼ","kana_address":"ﾄﾔﾏ","pref":"新潟県","city":"佐渡市","address":"外山"},
{"zip_code":"9520854","kana_pref":"ﾆｲｶﾞﾀｹﾝ","kana_city":"ｻﾄﾞｼ","kana_address":"ﾄﾖｵｶ","pref":"新潟県","city":"佐渡市","address":"豊岡"},
{"zip_code":"9520317","kana_pref":"ﾆｲｶﾞﾀｹﾝ","kana_city":"ｻﾄﾞｼ","kana_address":"ﾄﾖﾀ","pref":"新潟県","city":"佐渡市","address":"豊田"},
{"zip_code":"9520305","kana_pref":"ﾆｲｶﾞﾀｹﾝ","kana_city":"ｻﾄﾞｼ","kana_address":"ﾅｶﾞｲｼ","pref":"新潟県","city":"佐渡市","address":"長石"},
{"zip_code":"9520027","kana_pref":"ﾆｲｶﾞﾀｹﾝ","kana_city":"ｻﾄﾞｼ","kana_address":"ﾅｶﾞｴ","pref":"新潟県","city":"佐渡市","address":"長江"},
{"zip_code":"9521211","kana_pref":"ﾆｲｶﾞﾀｹﾝ","kana_city":"ｻﾄﾞｼ","kana_address":"ﾅｶｵｷ","pref":"新潟県","city":"佐渡市","address":"中興"},
{"zip_code":"9521306","kana_pref":"ﾆｲｶﾞﾀｹﾝ","kana_city":"ｻﾄﾞｼ","kana_address":"ﾅｶﾞｷ","pref":"新潟県","city":"佐渡市","address":"長木"},
{"zip_code":"9521324","kana_pref":"ﾆｲｶﾞﾀｹﾝ","kana_city":"ｻﾄﾞｼ","kana_address":"ﾅｶﾊﾗ","pref":"新潟県","city":"佐渡市","address":"中原"},
{"zip_code":"9520311","kana_pref":"ﾆｲｶﾞﾀｹﾝ","kana_city":"ｻﾄﾞｼ","kana_address":"ﾅｺﾞﾔ","pref":"新潟県","city":"佐渡市","address":"名古屋"},
{"zip_code":"9520116","kana_pref":"ﾆｲｶﾞﾀｹﾝ","kana_city":"ｻﾄﾞｼ","kana_address":"ﾆｲﾎﾞ","pref":"新潟県","city":"佐渡市","address":"新穂"},
{"zip_code":"9520102","kana_pref":"ﾆｲｶﾞﾀｹﾝ","kana_city":"ｻﾄﾞｼ","kana_address":"ﾆｲﾎﾞｱｵｷ","pref":"新潟県","city":"佐渡市","address":"新穂青木"},
{"zip_code":"9520107","kana_pref":"ﾆｲｶﾞﾀｹﾝ","kana_city":"ｻﾄﾞｼ","kana_address":"ﾆｲﾎﾞｲﾅｲ","pref":"新潟県","city":"佐渡市","address":"新穂井内"},
{"zip_code":"9520106","kana_pref":"ﾆｲｶﾞﾀｹﾝ","kana_city":"ｻﾄﾞｼ","kana_address":"ﾆｲﾎﾞｳﾘｭｳﾔ","pref":"新潟県","city":"佐渡市","address":"新穂瓜生屋"},
{"zip_code":"9520109","kana_pref":"ﾆｲｶﾞﾀｹﾝ","kana_city":"ｻﾄﾞｼ","kana_address":"ﾆｲﾎﾞｵｵﾉ","pref":"新潟県","city":"佐渡市","address":"新穂大野"},
{"zip_code":"9520103","kana_pref":"ﾆｲｶﾞﾀｹﾝ","kana_city":"ｻﾄﾞｼ","kana_address":"ﾆｲﾎﾞｶﾀｶﾞﾐ","pref":"新潟県","city":"佐渡市","address":"新穂潟上"},
{"zip_code":"9520115","kana_pref":"ﾆｲｶﾞﾀｹﾝ","kana_city":"ｻﾄﾞｼ","kana_address":"ﾆｲﾎﾞｷﾀｶﾞﾀ","pref":"新潟県","city":"佐渡市","address":"新穂北方"},
{"zip_code":"9520105","kana_pref":"ﾆｲｶﾞﾀｹﾝ","kana_city":"ｻﾄﾞｼ","kana_address":"ﾆｲﾎﾞｼｮｳﾐｮｳｼﾞ","pref":"新潟県","city":"佐渡市","address":"新穂正明寺"},
{"zip_code":"9520111","kana_pref":"ﾆｲｶﾞﾀｹﾝ","kana_city":"ｻﾄﾞｼ","kana_address":"ﾆｲﾎﾞﾀｹｲ","pref":"新潟県","city":"佐渡市","address":"新穂武井"},
{"zip_code":"9520104","kana_pref":"ﾆｲｶﾞﾀｹﾝ","kana_city":"ｻﾄﾞｼ","kana_address":"ﾆｲﾎﾞﾀﾉｻﾜ","pref":"新潟県","city":"佐渡市","address":"新穂田野沢"},
{"zip_code":"9520101","kana_pref":"ﾆｲｶﾞﾀｹﾝ","kana_city":"ｻﾄﾞｼ","kana_address":"ﾆｲﾎﾞﾅｶﾞｳﾈ","pref":"新潟県","city":"佐渡市","address":"新穂長畝"},
{"zip_code":"9520112","kana_pref":"ﾆｲｶﾞﾀｹﾝ","kana_city":"ｻﾄﾞｼ","kana_address":"ﾆｲﾎﾞﾌﾅｼﾓ","pref":"新潟県","city":"佐渡市","address":"新穂舟下"},
{"zip_code":"9520113","kana_pref":"ﾆｲｶﾞﾀｹﾝ","kana_city":"ｻﾄﾞｼ","kana_address":"ﾆｲﾎﾞﾐﾅｶﾞﾜ","pref":"新潟県","city":"佐渡市","address":"新穂皆川"},
{"zip_code":"9521308","kana_pref":"ﾆｲｶﾞﾀｹﾝ","kana_city":"ｻﾄﾞｼ","kana_address":"ﾆｸｳ","pref":"新潟県","city":"佐渡市","address":"二宮"},
{"zip_code":"9520434","kana_pref":"ﾆｲｶﾞﾀｹﾝ","kana_city":"ｻﾄﾞｼ","kana_address":"ﾆｼﾐｶﾜ","pref":"新潟県","city":"佐渡市","address":"西三川"},
{"zip_code":"9522215","kana_pref":"ﾆｲｶﾞﾀｹﾝ","kana_city":"ｻﾄﾞｼ","kana_address":"ﾆｭｳｶﾞﾜ","pref":"新潟県","city":"佐渡市","address":"入川"},
{"zip_code":"9523203","kana_pref":"ﾆｲｶﾞﾀｹﾝ","kana_city":"ｻﾄﾞｼ","kana_address":"ﾈｶﾞｲ","pref":"新潟県","city":"佐渡市","address":"願"},
{"zip_code":"9523544","kana_pref":"ﾆｲｶﾞﾀｹﾝ","kana_city":"ｻﾄﾞｼ","kana_address":"ﾉｳﾗ","pref":"新潟県","city":"佐渡市","address":"野浦"},
{"zip_code":"9520204","kana_pref":"ﾆｲｶﾞﾀｹﾝ","kana_city":"ｻﾄﾞｼ","kana_address":"ﾊｾ","pref":"新潟県","city":"佐渡市","address":"長谷"},
{"zip_code":"9520206","kana_pref":"ﾆｲｶﾞﾀｹﾝ","kana_city":"ｻﾄﾞｼ","kana_address":"ﾊﾀﾉ","pref":"新潟県","city":"佐渡市","address":"畑野"},
{"zip_code":"9523434","kana_pref":"ﾆｲｶﾞﾀｹﾝ","kana_city":"ｻﾄﾞｼ","kana_address":"ﾊﾆｳ","pref":"新潟県","city":"佐渡市","address":"羽二生"},
{"zip_code":"9520823","kana_pref":"ﾆｲｶﾞﾀｹﾝ","kana_city":"ｻﾄﾞｼ","kana_address":"ﾊﾏｶﾜﾁ","pref":"新潟県","city":"佐渡市","address":"浜河内"},
{"zip_code":"9520007","kana_pref":"ﾆｲｶﾞﾀｹﾝ","kana_city":"ｻﾄﾞｼ","kana_address":"ﾊﾏﾀﾞ","pref":"新潟県","city":"佐渡市","address":"浜田"},
{"zip_code":"9520503","kana_pref":"ﾆｲｶﾞﾀｹﾝ","kana_city":"ｻﾄﾞｼ","kana_address":"ﾊﾓﾁｲｲｵｶ","pref":"新潟県","city":"佐渡市","address":"羽茂飯岡"},
{"zip_code":"9520511","kana_pref":"ﾆｲｶﾞﾀｹﾝ","kana_city":"ｻﾄﾞｼ","kana_address":"ﾊﾓﾁｵｵｲｼ","pref":"新潟県","city":"佐渡市","address":"羽茂大石"},
{"zip_code":"9520502","kana_pref":"ﾆｲｶﾞﾀｹﾝ","kana_city":"ｻﾄﾞｼ","kana_address":"ﾊﾓﾁｵｵｻｷ","pref":"新潟県","city":"佐渡市","address":"羽茂大崎"},
{"zip_code":"9520512","kana_pref":"ﾆｲｶﾞﾀｹﾝ","kana_city":"ｻﾄﾞｼ","kana_address":"ﾊﾓﾁｵｵﾊｼ","pref":"新潟県","city":"佐渡市","address":"羽茂大橋"},
{"zip_code":"9520515","kana_pref":"ﾆｲｶﾞﾀｹﾝ","kana_city":"ｻﾄﾞｼ","kana_address":"ﾊﾓﾁｶﾐﾔﾏﾀﾞ","pref":"新潟県","city":"佐渡市","address":"羽茂上山田"},
{"zip_code":"9520422","kana_pref":"ﾆｲｶﾞﾀｹﾝ","kana_city":"ｻﾄﾞｼ","kana_address":"ﾊﾓﾁｶﾒﾜｷ","pref":"新潟県","city":"佐渡市","address":"羽茂亀脇"},
{"zip_code":"9520421","kana_pref":"ﾆｲｶﾞﾀｹﾝ","kana_city":"ｻﾄﾞｼ","kana_address":"ﾊﾓﾁｺﾄﾞﾏﾘ","pref":"新潟県","city":"佐渡市","address":"羽茂小泊"},
{"zip_code":"9520514","kana_pref":"ﾆｲｶﾞﾀｹﾝ","kana_city":"ｻﾄﾞｼ","kana_address":"ﾊﾓﾁｺﾄﾞﾏﾘ","pref":"新潟県","city":"佐渡市","address":"羽茂小泊"},
{"zip_code":"9520505","kana_pref":"ﾆｲｶﾞﾀｹﾝ","kana_city":"ｻﾄﾞｼ","kana_address":"ﾊﾓﾁｻﾝｾ","pref":"新潟県","city":"佐渡市","address":"羽茂三瀬"},
{"zip_code":"9520501","kana_pref":"ﾆｲｶﾞﾀｹﾝ","kana_city":"ｻﾄﾞｼ","kana_address":"ﾊﾓﾁﾀｷﾀﾞｲﾗ","pref":"新潟県","city":"佐渡市","address":"羽茂滝平"},
{"zip_code":"9520504","kana_pref":"ﾆｲｶﾞﾀｹﾝ","kana_city":"ｻﾄﾞｼ","kana_address":"ﾊﾓﾁﾎﾝｺﾞｳ","pref":"新潟県","city":"佐渡市","address":"羽茂本郷"},
{"zip_code":"9520513","kana_pref":"ﾆｲｶﾞﾀｹﾝ","kana_city":"ｻﾄﾞｼ","kana_address":"ﾊﾓﾁﾑﾗﾔﾏ","pref":"新潟県","city":"佐渡市","address":"羽茂村山"},
{"zip_code":"9520004","kana_pref":"ﾆｲｶﾞﾀｹﾝ","kana_city":"ｻﾄﾞｼ","kana_address":"ﾊﾖｼ","pref":"新潟県","city":"佐渡市","address":"羽吉"},
{"zip_code":"9520016","kana_pref":"ﾆｲｶﾞﾀｹﾝ","kana_city":"ｻﾄﾞｼ","kana_address":"ﾊﾗｸﾛ","pref":"新潟県","city":"佐渡市","address":"原黒"},
{"zip_code":"9520856","kana_pref":"ﾆｲｶﾞﾀｹﾝ","kana_city":"ｻﾄﾞｼ","kana_address":"ﾋｶﾞｼｳｼﾏ","pref":"新潟県","city":"佐渡市","address":"東鵜島"},
{"zip_code":"9521307","kana_pref":"ﾆｲｶﾞﾀｹﾝ","kana_city":"ｻﾄﾞｼ","kana_address":"ﾋｶﾞｼｵｵﾄﾞｵﾘ","pref":"新潟県","city":"佐渡市","address":"東大通"},
{"zip_code":"9523545","kana_pref":"ﾆｲｶﾞﾀｹﾝ","kana_city":"ｻﾄﾞｼ","kana_address":"ﾋｶﾞｼｺﾜｼﾐｽﾞ","pref":"新潟県","city":"佐渡市","address":"東強清水"},
{"zip_code":"9523546","kana_pref":"ﾆｲｶﾞﾀｹﾝ","kana_city":"ｻﾄﾞｼ","kana_address":"ﾋｶﾞｼﾀﾂｼﾏ","pref":"新潟県","city":"佐渡市","address":"東立島"},
{"zip_code":"9522134","kana_pref":"ﾆｲｶﾞﾀｹﾝ","kana_city":"ｻﾄﾞｼ","kana_address":"ﾋﾒﾂﾞ","pref":"新潟県","city":"佐渡市","address":"姫津"},
{"zip_code":"9521213","kana_pref":"ﾆｲｶﾞﾀｹﾝ","kana_city":"ｻﾄﾞｼ","kana_address":"ﾋﾗｼﾐｽﾞ","pref":"新潟県","city":"佐渡市","address":"平清水"},
{"zip_code":"9523115","kana_pref":"ﾆｲｶﾞﾀｹﾝ","kana_city":"ｻﾄﾞｼ","kana_address":"ﾋﾗﾏﾂ","pref":"新潟県","city":"佐渡市","address":"平松"},
{"zip_code":"9520615","kana_pref":"ﾆｲｶﾞﾀｹﾝ","kana_city":"ｻﾄﾞｼ","kana_address":"ﾌｶｳﾗ","pref":"新潟県","city":"佐渡市","address":"深浦"},
{"zip_code":"9520211","kana_pref":"ﾆｲｶﾞﾀｹﾝ","kana_city":"ｻﾄﾞｼ","kana_address":"ﾌﾀ","pref":"新潟県","city":"佐渡市","address":"畉田"},
{"zip_code":"9521641","kana_pref":"ﾆｲｶﾞﾀｹﾝ","kana_city":"ｻﾄﾞｼ","kana_address":"ﾌﾀﾐ","pref":"新潟県","city":"佐渡市","address":"二見"},
{"zip_code":"9520203","kana_pref":"ﾆｲｶﾞﾀｹﾝ","kana_city":"ｻﾄﾞｼ","kana_address":"ﾎﾞｳｶﾞｳﾗ","pref":"新潟県","city":"佐渡市","address":"坊ケ浦"},
{"zip_code":"9520712","kana_pref":"ﾆｲｶﾞﾀｹﾝ","kana_city":"ｻﾄﾞｼ","kana_address":"ﾏｳﾗ","pref":"新潟県","city":"佐渡市","address":"真浦"},
{"zip_code":"9523431","kana_pref":"ﾆｲｶﾞﾀｹﾝ","kana_city":"ｻﾄﾞｼ","kana_address":"ﾏｷ","pref":"新潟県","city":"佐渡市","address":"真木"},
{"zip_code":"9523201","kana_pref":"ﾆｲｶﾞﾀｹﾝ","kana_city":"ｻﾄﾞｼ","kana_address":"ﾏｻﾗｶﾞﾜ","pref":"新潟県","city":"佐渡市","address":"真更川"},
{"zip_code":"9520821","kana_pref":"ﾆｲｶﾞﾀｹﾝ","kana_city":"ｻﾄﾞｼ","kana_address":"ﾏﾂｶﾞｻｷ","pref":"新潟県","city":"佐渡市","address":"松ケ崎"},
{"zip_code":"9520313","kana_pref":"ﾆｲｶﾞﾀｹﾝ","kana_city":"ｻﾄﾞｼ","kana_address":"ﾏﾉ","pref":"新潟県","city":"佐渡市","address":"真野"},
{"zip_code":"9520301","kana_pref":"ﾆｲｶﾞﾀｹﾝ","kana_city":"ｻﾄﾞｼ","kana_address":"ﾏﾉｵｵｶﾜ","pref":"新潟県","city":"佐渡市","address":"真野大川"},
{"zip_code":"9520318","kana_pref":"ﾆｲｶﾞﾀｹﾝ","kana_city":"ｻﾄﾞｼ","kana_address":"ﾏﾉｼﾝﾏﾁ","pref":"新潟県","city":"佐渡市","address":"真野新町"},
{"zip_code":"9520824","kana_pref":"ﾆｲｶﾞﾀｹﾝ","kana_city":"ｻﾄﾞｼ","kana_address":"ﾏﾙﾔﾏ","pref":"新潟県","city":"佐渡市","address":"丸山"},
{"zip_code":"9520705","kana_pref":"ﾆｲｶﾞﾀｹﾝ","kana_city":"ｻﾄﾞｼ","kana_address":"ﾐｶﾜ","pref":"新潟県","city":"佐渡市","address":"三川"},
{"zip_code":"9523206","kana_pref":"ﾆｲｶﾞﾀｹﾝ","kana_city":"ｻﾄﾞｼ","kana_address":"ﾐﾀﾃ","pref":"新潟県","city":"佐渡市","address":"見立"},
{"zip_code":"9521205","kana_pref":"ﾆｲｶﾞﾀｹﾝ","kana_city":"ｻﾄﾞｼ","kana_address":"ﾐﾄﾀﾞ","pref":"新潟県","city":"佐渡市","address":"水渡田"},
{"zip_code":"9522226","kana_pref":"ﾆｲｶﾞﾀｹﾝ","kana_city":"ｻﾄﾞｼ","kana_address":"ﾐﾅﾐｶﾀﾍﾞ","pref":"新潟県","city":"佐渡市","address":"南片辺"},
{"zip_code":"9520714","kana_pref":"ﾆｲｶﾞﾀｹﾝ","kana_city":"ｻﾄﾞｼ","kana_address":"ﾐﾅﾐｼﾝﾎﾞ","pref":"新潟県","city":"佐渡市","address":"南新保"},
{"zip_code":"9520212","kana_pref":"ﾆｲｶﾞﾀｹﾝ","kana_city":"ｻﾄﾞｼ","kana_address":"ﾐﾔｶﾜ","pref":"新潟県","city":"佐渡市","address":"宮川"},
{"zip_code":"9523111","kana_pref":"ﾆｲｶﾞﾀｹﾝ","kana_city":"ｻﾄﾞｼ","kana_address":"ﾑｼｻﾞｷ","pref":"新潟県","city":"佐渡市","address":"虫崎"},
{"zip_code":"9520704","kana_pref":"ﾆｲｶﾞﾀｹﾝ","kana_city":"ｻﾄﾞｼ","kana_address":"ﾑｼﾛﾊﾞ","pref":"新潟県","city":"佐渡市","address":"莚場"},
{"zip_code":"9520201","kana_pref":"ﾆｲｶﾞﾀｹﾝ","kana_city":"ｻﾄﾞｼ","kana_address":"ﾒｸﾞﾛﾏﾁ","pref":"新潟県","city":"佐渡市","address":"目黒町"},
{"zip_code":"9523204","kana_pref":"ﾆｲｶﾞﾀｹﾝ","kana_city":"ｻﾄﾞｼ","kana_address":"ﾓｳﾗ","pref":"新潟県","city":"佐渡市","address":"藻浦"},
{"zip_code":"9523433","kana_pref":"ﾆｲｶﾞﾀｹﾝ","kana_city":"ｻﾄﾞｼ","kana_address":"ﾓﾛｵ","pref":"新潟県","city":"佐渡市","address":"両尾"},
{"zip_code":"9522204","kana_pref":"ﾆｲｶﾞﾀｹﾝ","kana_city":"ｻﾄﾞｼ","kana_address":"ﾔｶﾞﾗ","pref":"新潟県","city":"佐渡市","address":"矢柄"},
{"zip_code":"9520713","kana_pref":"ﾆｲｶﾞﾀｹﾝ","kana_city":"ｻﾄﾞｼ","kana_address":"ﾔﾅｷﾞｻﾜ","pref":"新潟県","city":"佐渡市","address":"柳沢"},
{"zip_code":"9521311","kana_pref":"ﾆｲｶﾞﾀｹﾝ","kana_city":"ｻﾄﾞｼ","kana_address":"ﾔﾊﾀ","pref":"新潟県","city":"佐渡市","address":"八幡"},
{"zip_code":"9521312","kana_pref":"ﾆｲｶﾞﾀｹﾝ","kana_city":"ｻﾄﾞｼ","kana_address":"ﾔﾊﾀｼﾝﾏﾁ","pref":"新潟県","city":"佐渡市","address":"八幡新町"},
{"zip_code":"9521313","kana_pref":"ﾆｲｶﾞﾀｹﾝ","kana_city":"ｻﾄﾞｼ","kana_address":"ﾔﾊﾀﾏﾁ","pref":"新潟県","city":"佐渡市","address":"八幡町"},
{"zip_code":"9521321","kana_pref":"ﾆｲｶﾞﾀｹﾝ","kana_city":"ｻﾄﾞｼ","kana_address":"ﾔﾏﾀﾞ","pref":"新潟県","city":"佐渡市","address":"山田"},
{"zip_code":"9521206","kana_pref":"ﾆｲｶﾞﾀｹﾝ","kana_city":"ｻﾄﾞｼ","kana_address":"ﾔﾏﾄ","pref":"新潟県","city":"佐渡市","address":"大和"},
{"zip_code":"9521203","kana_pref":"ﾆｲｶﾞﾀｹﾝ","kana_city":"ｻﾄﾞｼ","kana_address":"ﾖｼｲ","pref":"新潟県","city":"佐渡市","address":"吉井"},
{"zip_code":"9521202","kana_pref":"ﾆｲｶﾞﾀｹﾝ","kana_city":"ｻﾄﾞｼ","kana_address":"ﾖｼｲﾎﾝｺﾞｳ","pref":"新潟県","city":"佐渡市","address":"吉井本郷"},
{"zip_code":"9520312","kana_pref":"ﾆｲｶﾞﾀｹﾝ","kana_city":"ｻﾄﾞｼ","kana_address":"ﾖｼｵｶ","pref":"新潟県","city":"佐渡市","address":"吉岡"},
{"zip_code":"9520306","kana_pref":"ﾆｲｶﾞﾀｹﾝ","kana_city":"ｻﾄﾞｼ","kana_address":"ﾖｯｶﾏﾁ","pref":"新潟県","city":"佐渡市","address":"四日町"},
{"zip_code":"9521642","kana_pref":"ﾆｲｶﾞﾀｹﾝ","kana_city":"ｻﾄﾞｼ","kana_address":"ﾖﾅｺﾞｳ","pref":"新潟県","city":"佐渡市","address":"米郷"},
{"zip_code":"9520011","kana_pref":"ﾆｲｶﾞﾀｹﾝ","kana_city":"ｻﾄﾞｼ","kana_address":"ﾘｮｳﾂｴﾋﾞｽ","pref":"新潟県","city":"佐渡市","address":"両津夷"},
{"zip_code":"9520012","kana_pref":"ﾆｲｶﾞﾀｹﾝ","kana_city":"ｻﾄﾞｼ","kana_address":"ﾘｮｳﾂｴﾋﾞｽｼﾝ","pref":"新潟県","city":"佐渡市","address":"両津夷新"},
{"zip_code":"9520013","kana_pref":"ﾆｲｶﾞﾀｹﾝ","kana_city":"ｻﾄﾞｼ","kana_address":"ﾘｮｳﾂﾌｸｳﾗ","pref":"新潟県","city":"佐渡市","address":"両津福浦"},
{"zip_code":"9520014","kana_pref":"ﾆｲｶﾞﾀｹﾝ","kana_city":"ｻﾄﾞｼ","kana_address":"ﾘｮｳﾂﾐﾅﾄ","pref":"新潟県","city":"佐渡市","address":"両津湊"},
{"zip_code":"9523435","kana_pref":"ﾆｲｶﾞﾀｹﾝ","kana_city":"ｻﾄﾞｼ","kana_address":"ﾘｮｳﾂｵｵｶﾞﾜ","pref":"新潟県","city":"佐渡市","address":"両津大川"},
{"zip_code":"9523118","kana_pref":"ﾆｲｶﾞﾀｹﾝ","kana_city":"ｻﾄﾞｼ","kana_address":"ﾜｷ","pref":"新潟県","city":"佐渡市","address":"和木"},
{"zip_code":"9523205","kana_pref":"ﾆｲｶﾞﾀｹﾝ","kana_city":"ｻﾄﾞｼ","kana_address":"ﾜｼｻﾞｷ","pref":"新潟県","city":"佐渡市","address":"鷲崎"}]}