{"zip_code":[
{"zip_code":"9530042","kana_pref":"ﾆｲｶﾞﾀｹﾝ","kana_city":"ﾆｲｶﾞﾀｼﾆｼｶﾝｸ","kana_address":"ｱｶｻﾋﾞ","pref":"新潟県","city":"新潟市西蒲区","address":"赤鏥"},
{"zip_code":"9530066","kana_pref":"ﾆｲｶﾞﾀｹﾝ","kana_city":"ﾆｲｶﾞﾀｼﾆｼｶﾝｸ","kana_address":"ｱｼﾞﾘ","pref":"新潟県","city":"新潟市西蒲区","address":"安尻"},
{"zip_code":"9530111","kana_pref":"ﾆｲｶﾞﾀｹﾝ","kana_city":"ﾆｲｶﾞﾀｼﾆｼｶﾝｸ","kana_address":"ｱﾌﾞﾗｼﾞﾏ","pref":"新潟県","city":"新潟市西蒲区","address":"油島"},
{"zip_code":"9530116","kana_pref":"ﾆｲｶﾞﾀｹﾝ","kana_city":"ﾆｲｶﾞﾀｼﾆｼｶﾝｸ","kana_address":"ｱﾗﾔ","pref":"新潟県","city":"新潟市西蒲区","address":"新谷"},
{"zip_code":"9530141","kana_pref":"ﾆｲｶﾞﾀｹﾝ","kana_city":"ﾆｲｶﾞﾀｼﾆｼｶﾝｸ","kana_address":"ｲｼｾﾞ","pref":"新潟県","city":"新潟市西蒲区","address":"石瀬"},
{"zip_code":"9530104","kana_pref":"ﾆｲｶﾞﾀｹﾝ","kana_city":"ﾆｲｶﾞﾀｼﾆｼｶﾝｸ","kana_address":"ｲﾜﾑﾛｵﾝｾﾝ","pref":"新潟県","city":"新潟市西蒲区","address":"岩室温泉"},
{"zip_code":"9530117","kana_pref":"ﾆｲｶﾞﾀｹﾝ","kana_city":"ﾆｲｶﾞﾀｼﾆｼｶﾝｸ","kana_address":"ｳｴﾉｼﾝﾃﾞﾝ","pref":"新潟県","city":"新潟市西蒲区","address":"植野新田"},
{"zip_code":"9530054","kana_pref":"ﾆｲｶﾞﾀｹﾝ","kana_city":"ﾆｲｶﾞﾀｼﾆｼｶﾝｸ","kana_address":"ｳﾙｼﾔﾏ","pref":"新潟県","city":"新潟市西蒲区","address":"漆山"},
{"zip_code":"9530012","kana_pref":"ﾆｲｶﾞﾀｹﾝ","kana_city":"ﾆｲｶﾞﾀｼﾆｼｶﾝｸ","kana_address":"ｴﾁｾﾞﾝﾊﾏ","pref":"新潟県","city":"新潟市西蒲区","address":"越前浜"},
{"zip_code":"9530055","kana_pref":"ﾆｲｶﾞﾀｹﾝ","kana_city":"ﾆｲｶﾞﾀｼﾆｼｶﾝｸ","kana_address":"ｶｷｼﾞﾏ","pref":"新潟県","city":"新潟市西蒲区","address":"柿島"},
{"zip_code":"9530011","kana_pref":"ﾆｲｶﾞﾀｹﾝ","kana_city":"ﾆｲｶﾞﾀｼﾆｼｶﾝｸ","kana_address":"ｶｸﾀﾞﾊﾏ","pref":"新潟県","city":"新潟市西蒲区","address":"角田浜"},
{"zip_code":"9530077","kana_pref":"ﾆｲｶﾞﾀｹﾝ","kana_city":"ﾆｲｶﾞﾀｼﾆｼｶﾝｸ","kana_address":"ｶｸﾐﾊﾏ","pref":"新潟県","city":"新潟市西蒲区","address":"角海浜"},
{"zip_code":"9530067","kana_pref":"ﾆｲｶﾞﾀｹﾝ","kana_city":"ﾆｲｶﾞﾀｼﾆｼｶﾝｸ","kana_address":"ｶﾞﾀｶﾞｼﾗ","pref":"新潟県","city":"新潟市西蒲区","address":"潟頭"},
{"zip_code":"9530114","kana_pref":"ﾆｲｶﾞﾀｹﾝ","kana_city":"ﾆｲｶﾞﾀｼﾆｼｶﾝｸ","kana_address":"ｶﾀｶﾞﾐ","pref":"新潟県","city":"新潟市西蒲区","address":"潟上"},
{"zip_code":"9530144","kana_pref":"ﾆｲｶﾞﾀｹﾝ","kana_city":"ﾆｲｶﾞﾀｼﾆｼｶﾝｸ","kana_address":"ｶﾅｲｹ","pref":"新潟県","city":"新潟市西蒲区","address":"金池"},
{"zip_code":"9530073","kana_pref":"ﾆｲｶﾞﾀｹﾝ","kana_city":"ﾆｲｶﾞﾀｼﾆｼｶﾝｸ","kana_address":"ｶﾐｷｼﾞﾏ","pref":"新潟県","city":"新潟市西蒲区","address":"上木島"},
{"zip_code":"9530051","kana_pref":"ﾆｲｶﾞﾀｹﾝ","kana_city":"ﾆｲｶﾞﾀｼﾆｼｶﾝｸ","kana_address":"ｶﾜｲ","pref":"新潟県","city":"新潟市西蒲区","address":"河井"},
{"zip_code":"9530045","kana_pref":"ﾆｲｶﾞﾀｹﾝ","kana_city":"ﾆｲｶﾞﾀｼﾆｼｶﾝｸ","kana_address":"ｷｷｮｳｶﾞｵｶ","pref":"新潟県","city":"新潟市西蒲区","address":"桔梗ケ丘"},
{"zip_code":"9530134","kana_pref":"ﾆｲｶﾞﾀｹﾝ","kana_city":"ﾆｲｶﾞﾀｼﾆｼｶﾝｸ","kana_address":"ｷﾀﾉ","pref":"新潟県","city":"新潟市西蒲区","address":"北野"},
{"zip_code":"9530142","kana_pref":"ﾆｲｶﾞﾀｹﾝ","kana_city":"ﾆｲｶﾞﾀｼﾆｼｶﾝｸ","kana_address":"ｸﾎﾞﾀ","pref":"新潟県","city":"新潟市西蒲区","address":"久保田"},
{"zip_code":"9530078","kana_pref":"ﾆｲｶﾞﾀｹﾝ","kana_city":"ﾆｲｶﾞﾀｼﾆｼｶﾝｸ","kana_address":"ｺﾞｶﾊﾏ","pref":"新潟県","city":"新潟市西蒲区","address":"五ケ浜"},
{"zip_code":"9530102","kana_pref":"ﾆｲｶﾞﾀｹﾝ","kana_city":"ﾆｲｶﾞﾀｼﾆｼｶﾝｸ","kana_address":"ｻｶｴ","pref":"新潟県","city":"新潟市西蒲区","address":"栄"},
{"zip_code":"9530063","kana_pref":"ﾆｲｶﾞﾀｹﾝ","kana_city":"ﾆｲｶﾞﾀｼﾆｼｶﾝｸ","kana_address":"ｻｶｴﾁｮｳ","pref":"新潟県","city":"新潟市西蒲区","address":"栄町"},
{"zip_code":"9530064","kana_pref":"ﾆｲｶﾞﾀｹﾝ","kana_city":"ﾆｲｶﾞﾀｼﾆｼｶﾝｸ","kana_address":"ｻｸﾗﾊﾞﾔｼ","pref":"新潟県","city":"新潟市西蒲区","address":"桜林"},
{"zip_code":"9530143","kana_pref":"ﾆｲｶﾞﾀｹﾝ","kana_city":"ﾆｲｶﾞﾀｼﾆｼｶﾝｸ","kana_address":"ｻﾙｶﾞｾ","pref":"新潟県","city":"新潟市西蒲区","address":"猿ケ瀬"},
{"zip_code":"9530071","kana_pref":"ﾆｲｶﾞﾀｹﾝ","kana_city":"ﾆｲｶﾞﾀｼﾆｼｶﾝｸ","kana_address":"ｼﾓｷｼﾞﾏ","pref":"新潟県","city":"新潟市西蒲区","address":"下木島"},
{"zip_code":"9530065","kana_pref":"ﾆｲｶﾞﾀｹﾝ","kana_city":"ﾆｲｶﾞﾀｼﾆｼｶﾝｸ","kana_address":"ｼﾓﾜﾉｳ","pref":"新潟県","city":"新潟市西蒲区","address":"下和納"},
{"zip_code":"9530136","kana_pref":"ﾆｲｶﾞﾀｹﾝ","kana_city":"ﾆｲｶﾞﾀｼﾆｼｶﾝｸ","kana_address":"ｼﾛﾄﾘ","pref":"新潟県","city":"新潟市西蒲区","address":"白鳥"},
{"zip_code":"9530014","kana_pref":"ﾆｲｶﾞﾀｹﾝ","kana_city":"ﾆｲｶﾞﾀｼﾆｼｶﾝｸ","kana_address":"ｼﾝﾎﾞ","pref":"新潟県","city":"新潟市西蒲区","address":"新保"},
{"zip_code":"9530121","kana_pref":"ﾆｲｶﾞﾀｹﾝ","kana_city":"ﾆｲｶﾞﾀｼﾆｼｶﾝｸ","kana_address":"ﾀｶﾊｼ","pref":"新潟県","city":"新潟市西蒲区","address":"高橋"},
{"zip_code":"9530112","kana_pref":"ﾆｲｶﾞﾀｹﾝ","kana_city":"ﾆｲｶﾞﾀｼﾆｼｶﾝｸ","kana_address":"ﾀｶﾊﾞﾀｹ","pref":"新潟県","city":"新潟市西蒲区","address":"高畑"},
{"zip_code":"9530023","kana_pref":"ﾆｲｶﾞﾀｹﾝ","kana_city":"ﾆｲｶﾞﾀｼﾆｼｶﾝｸ","kana_address":"ﾀｹﾉﾏﾁ","pref":"新潟県","city":"新潟市西蒲区","address":"竹野町"},
{"zip_code":"9530123","kana_pref":"ﾆｲｶﾞﾀｹﾝ","kana_city":"ﾆｲｶﾞﾀｼﾆｼｶﾝｸ","kana_address":"ﾂｸﾓﾀﾞ","pref":"新潟県","city":"新潟市西蒲区","address":"津雲田"},
{"zip_code":"9530027","kana_pref":"ﾆｲｶﾞﾀｹﾝ","kana_city":"ﾆｲｶﾞﾀｼﾆｼｶﾝｸ","kana_address":"ﾄｳｼﾞﾏ","pref":"新潟県","city":"新潟市西蒲区","address":"稲島"},
{"zip_code":"9530122","kana_pref":"ﾆｲｶﾞﾀｹﾝ","kana_city":"ﾆｲｶﾞﾀｼﾆｼｶﾝｸ","kana_address":"ﾄﾐｵｶ","pref":"新潟県","city":"新潟市西蒲区","address":"富岡"},
{"zip_code":"9530033","kana_pref":"ﾆｲｶﾞﾀｹﾝ","kana_city":"ﾆｲｶﾞﾀｼﾆｼｶﾝｸ","kana_address":"ﾅｶｺﾞｳﾔ","pref":"新潟県","city":"新潟市西蒲区","address":"中郷屋"},
{"zip_code":"9530133","kana_pref":"ﾆｲｶﾞﾀｹﾝ","kana_city":"ﾆｲｶﾞﾀｼﾆｼｶﾝｸ","kana_address":"ﾅﾂｲ","pref":"新潟県","city":"新潟市西蒲区","address":"夏井"},
{"zip_code":"9530062","kana_pref":"ﾆｲｶﾞﾀｹﾝ","kana_city":"ﾆｲｶﾞﾀｼﾆｼｶﾝｸ","kana_address":"ﾅﾐｵｶ","pref":"新潟県","city":"新潟市西蒲区","address":"並岡"},
{"zip_code":"9530022","kana_pref":"ﾆｲｶﾞﾀｹﾝ","kana_city":"ﾆｲｶﾞﾀｼﾆｼｶﾝｸ","kana_address":"ﾆｶ","pref":"新潟県","city":"新潟市西蒲区","address":"仁箇"},
{"zip_code":"9530132","kana_pref":"ﾆｲｶﾞﾀｹﾝ","kana_city":"ﾆｲｶﾞﾀｼﾆｼｶﾝｸ","kana_address":"ﾆｼﾅｶ","pref":"新潟県","city":"新潟市西蒲区","address":"西中"},
{"zip_code":"9530131","kana_pref":"ﾆｲｶﾞﾀｹﾝ","kana_city":"ﾆｲｶﾞﾀｼﾆｼｶﾝｸ","kana_address":"ﾆｼﾅｶﾞｼﾏ","pref":"新潟県","city":"新潟市西蒲区","address":"西長島"},
{"zip_code":"9530113","kana_pref":"ﾆｲｶﾞﾀｹﾝ","kana_city":"ﾆｲｶﾞﾀｼﾆｼｶﾝｸ","kana_address":"ﾆｼﾌﾅｺｼ","pref":"新潟県","city":"新潟市西蒲区","address":"西船越"},
{"zip_code":"9530021","kana_pref":"ﾆｲｶﾞﾀｹﾝ","kana_city":"ﾆｲｶﾞﾀｼﾆｼｶﾝｸ","kana_address":"ﾇﾉﾒ","pref":"新潟県","city":"新潟市西蒲区","address":"布目"},
{"zip_code":"9530034","kana_pref":"ﾆｲｶﾞﾀｹﾝ","kana_city":"ﾆｲｶﾞﾀｼﾆｼｶﾝｸ","kana_address":"ﾊｶﾞﾔﾊﾞ","pref":"新潟県","city":"新潟市西蒲区","address":"葉萱場"},
{"zip_code":"9530103","kana_pref":"ﾆｲｶﾞﾀｹﾝ","kana_city":"ﾆｲｶﾞﾀｼﾆｼｶﾝｸ","kana_address":"ﾊｼﾓﾄ","pref":"新潟県","city":"新潟市西蒲区","address":"橋本"},
{"zip_code":"9530031","kana_pref":"ﾆｲｶﾞﾀｹﾝ","kana_city":"ﾆｲｶﾞﾀｼﾆｼｶﾝｸ","kana_address":"ﾊﾈﾀﾞ","pref":"新潟県","city":"新潟市西蒲区","address":"羽田"},
{"zip_code":"9530124","kana_pref":"ﾆｲｶﾞﾀｹﾝ","kana_city":"ﾆｲｶﾞﾀｼﾆｼｶﾝｸ","kana_address":"ﾊﾗ","pref":"新潟県","city":"新潟市西蒲区","address":"原"},
{"zip_code":"9530032","kana_pref":"ﾆｲｶﾞﾀｹﾝ","kana_city":"ﾆｲｶﾞﾀｼﾆｼｶﾝｸ","kana_address":"ﾋｶﾞｼﾖﾘｱｹﾞ","pref":"新潟県","city":"新潟市西蒲区","address":"東汰上"},
{"zip_code":"9530101","kana_pref":"ﾆｲｶﾞﾀｹﾝ","kana_city":"ﾆｲｶﾞﾀｼﾆｼｶﾝｸ","kana_address":"ﾋｿ","pref":"新潟県","city":"新潟市西蒲区","address":"樋曽"},
{"zip_code":"9530024","kana_pref":"ﾆｲｶﾞﾀｹﾝ","kana_city":"ﾆｲｶﾞﾀｼﾆｼｶﾝｸ","kana_address":"ﾋﾗｻﾜ","pref":"新潟県","city":"新潟市西蒲区","address":"平沢"},
{"zip_code":"9530076","kana_pref":"ﾆｲｶﾞﾀｹﾝ","kana_city":"ﾆｲｶﾞﾀｼﾆｼｶﾝｸ","kana_address":"ﾌｸｲ","pref":"新潟県","city":"新潟市西蒲区","address":"福井"},
{"zip_code":"9530026","kana_pref":"ﾆｲｶﾞﾀｹﾝ","kana_city":"ﾆｲｶﾞﾀｼﾆｼｶﾝｸ","kana_address":"ﾌｽﾍﾞ","pref":"新潟県","city":"新潟市西蒲区","address":"伏部"},
{"zip_code":"9530074","kana_pref":"ﾆｲｶﾞﾀｹﾝ","kana_city":"ﾆｲｶﾞﾀｼﾆｼｶﾝｸ","kana_address":"ﾌﾅﾄ","pref":"新潟県","city":"新潟市西蒲区","address":"舟戸"},
{"zip_code":"9530043","kana_pref":"ﾆｲｶﾞﾀｹﾝ","kana_city":"ﾆｲｶﾞﾀｼﾆｼｶﾝｸ","kana_address":"ﾎﾘﾔﾏｼﾝﾃﾞﾝ","pref":"新潟県","city":"新潟市西蒲区","address":"堀山新田"},
{"zip_code":"9530036","kana_pref":"ﾆｲｶﾞﾀｹﾝ","kana_city":"ﾆｲｶﾞﾀｼﾆｼｶﾝｸ","kana_address":"ﾏｴﾀ","pref":"新潟県","city":"新潟市西蒲区","address":"前田"},
{"zip_code":"9530053","kana_pref":"ﾆｲｶﾞﾀｹﾝ","kana_city":"ﾆｲｶﾞﾀｼﾆｼｶﾝｸ","kana_address":"ﾏｷｱｽﾞﾏﾁｮｳ","pref":"新潟県","city":"新潟市西蒲区","address":"巻東町"},
{"zip_code":"9530013","kana_pref":"ﾆｲｶﾞﾀｹﾝ","kana_city":"ﾆｲｶﾞﾀｼﾆｼｶﾝｸ","kana_address":"ﾏｷｵｵﾊﾗ","pref":"新潟県","city":"新潟市西蒲区","address":"巻大原"},
{"zip_code":"9530044","kana_pref":"ﾆｲｶﾞﾀｹﾝ","kana_city":"ﾆｲｶﾞﾀｼﾆｼｶﾝｸ","kana_address":"ﾏｷｵﾂ","pref":"新潟県","city":"新潟市西蒲区","address":"巻乙"},
{"zip_code":"9530041","kana_pref":"ﾆｲｶﾞﾀｹﾝ","kana_city":"ﾆｲｶﾞﾀｼﾆｼｶﾝｸ","kana_address":"ﾏｷｺｳ","pref":"新潟県","city":"新潟市西蒲区","address":"巻甲"},
{"zip_code":"9530105","kana_pref":"ﾆｲｶﾞﾀｹﾝ","kana_city":"ﾆｲｶﾞﾀｼﾆｼｶﾝｸ","kana_address":"ﾏｾﾞ","pref":"新潟県","city":"新潟市西蒲区","address":"間瀬"},
{"zip_code":"9530025","kana_pref":"ﾆｲｶﾞﾀｹﾝ","kana_city":"ﾆｲｶﾞﾀｼﾆｼｶﾝｸ","kana_address":"ﾏﾂｺﾞｳﾔ","pref":"新潟県","city":"新潟市西蒲区","address":"松郷屋"},
{"zip_code":"9530015","kana_pref":"ﾆｲｶﾞﾀｹﾝ","kana_city":"ﾆｲｶﾞﾀｼﾆｼｶﾝｸ","kana_address":"ﾏﾂﾉｵ","pref":"新潟県","city":"新潟市西蒲区","address":"松野尾"},
{"zip_code":"9530016","kana_pref":"ﾆｲｶﾞﾀｹﾝ","kana_city":"ﾆｲｶﾞﾀｼﾆｼｶﾝｸ","kana_address":"ﾏﾂﾔﾏ","pref":"新潟県","city":"新潟市西蒲区","address":"松山"},
{"zip_code":"9530061","kana_pref":"ﾆｲｶﾞﾀｹﾝ","kana_city":"ﾆｲｶﾞﾀｼﾆｼｶﾝｸ","kana_address":"ﾏﾎﾞﾘ","pref":"新潟県","city":"新潟市西蒲区","address":"馬堀"},
{"zip_code":"9530135","kana_pref":"ﾆｲｶﾞﾀｹﾝ","kana_city":"ﾆｲｶﾞﾀｼﾆｼｶﾝｸ","kana_address":"ﾐﾅﾐﾔﾁ","pref":"新潟県","city":"新潟市西蒲区","address":"南谷内"},
{"zip_code":"9530075","kana_pref":"ﾆｲｶﾞﾀｹﾝ","kana_city":"ﾆｲｶﾞﾀｼﾆｼｶﾝｸ","kana_address":"ﾐﾈｵｶ","pref":"新潟県","city":"新潟市西蒲区","address":"峰岡"},
{"zip_code":"9530052","kana_pref":"ﾆｲｶﾞﾀｹﾝ","kana_city":"ﾆｲｶﾞﾀｼﾆｼｶﾝｸ","kana_address":"ﾔﾏｼﾞﾏ","pref":"新潟県","city":"新潟市西蒲区","address":"山島"},
{"zip_code":"9530115","kana_pref":"ﾆｲｶﾞﾀｹﾝ","kana_city":"ﾆｲｶﾞﾀｼﾆｼｶﾝｸ","kana_address":"ﾖｺｿﾞﾈ","pref":"新潟県","city":"新潟市西蒲区","address":"横曽根"},
{"zip_code":"9530072","kana_pref":"ﾆｲｶﾞﾀｹﾝ","kana_city":"ﾆｲｶﾞﾀｼﾆｼｶﾝｸ","kana_address":"ﾜｼﾉｷ","pref":"新潟県","city":"新潟市西蒲区","address":"鷲ノ木"},
{"zip_code":"9530125","kana_pref":"ﾆｲｶﾞﾀｹﾝ","kana_city":"ﾆｲｶﾞﾀｼﾆｼｶﾝｸ","kana_address":"ﾜﾉｳ","pref":"新潟県","city":"新潟市西蒲区","address":"和納"},
{"zip_code":"9530035","kana_pref":"ﾆｲｶﾞﾀｹﾝ","kana_city":"ﾆｲｶﾞﾀｼﾆｼｶﾝｸ","kana_address":"ﾜﾘﾏｴ","pref":"新潟県","city":"新潟市西蒲区","address":"割前"}]}