{"zip_code":[
{"zip_code":"9540202","kana_pref":"ﾆｲｶﾞﾀｹﾝ","kana_city":"ﾅｶﾞｵｶｼ","kana_address":"ｱｶﾇﾏ","pref":"新潟県","city":"長岡市","address":"赤沼"},
{"zip_code":"9540143","kana_pref":"ﾆｲｶﾞﾀｹﾝ","kana_city":"ﾅｶﾞｵｶｼ","kana_address":"ｲｹﾉｼﾏ","pref":"新潟県","city":"長岡市","address":"池之島"},
{"zip_code":"9540171","kana_pref":"ﾆｲｶﾞﾀｹﾝ","kana_city":"ﾅｶﾞｵｶｼ","kana_address":"ｲﾅｼﾞﾏ","pref":"新潟県","city":"長岡市","address":"稲島"},
{"zip_code":"9540207","kana_pref":"ﾆｲｶﾞﾀｹﾝ","kana_city":"ﾅｶﾞｵｶｼ","kana_address":"ｳﾜﾇﾏｼﾝﾃﾞﾝ","pref":"新潟県","city":"長岡市","address":"上沼新田"},
{"zip_code":"9540166","kana_pref":"ﾆｲｶﾞﾀｹﾝ","kana_city":"ﾅｶﾞｵｶｼ","kana_address":"ｴﾋﾞｼﾞﾏﾕｳｼﾞｼﾝﾃﾞﾝ","pref":"新潟県","city":"長岡市","address":"海老島勇次新田"},
{"zip_code":"9540145","kana_pref":"ﾆｲｶﾞﾀｹﾝ","kana_city":"ﾅｶﾞｵｶｼ","kana_address":"ｵｵｸﾁ","pref":"新潟県","city":"長岡市","address":"大口"},
{"zip_code":"9540201","kana_pref":"ﾆｲｶﾞﾀｹﾝ","kana_city":"ﾅｶﾞｵｶｼ","kana_address":"ｵｵﾇﾏｼﾝﾃﾞﾝ","pref":"新潟県","city":"長岡市","address":"大沼新田"},
{"zip_code":"9540134","kana_pref":"ﾆｲｶﾞﾀｹﾝ","kana_city":"ﾅｶﾞｵｶｼ","kana_address":"ｵｵﾏｶﾞﾄ","pref":"新潟県","city":"長岡市","address":"大曲戸"},
{"zip_code":"9540133","kana_pref":"ﾆｲｶﾞﾀｹﾝ","kana_city":"ﾅｶﾞｵｶｼ","kana_address":"ｵｵﾏｶﾞﾄｼﾝﾃﾞﾝ","pref":"新潟県","city":"長岡市","address":"大曲戸新田"},
{"zip_code":"9540138","kana_pref":"ﾆｲｶﾞﾀｹﾝ","kana_city":"ﾅｶﾞｵｶｼ","kana_address":"ｵｼｷﾘｶﾜﾗﾏﾁ","pref":"新潟県","city":"長岡市","address":"押切川原町"},
{"zip_code":"9540137","kana_pref":"ﾆｲｶﾞﾀｹﾝ","kana_city":"ﾅｶﾞｵｶｼ","kana_address":"ｵｼｷﾘｼﾝﾃﾞﾝ","pref":"新潟県","city":"長岡市","address":"押切新田"},
{"zip_code":"9540136","kana_pref":"ﾆｲｶﾞﾀｹﾝ","kana_city":"ﾅｶﾞｵｶｼ","kana_address":"ｵﾓｲｶﾞﾜｼﾝﾃﾞﾝ","pref":"新潟県","city":"長岡市","address":"思川新田"},
{"zip_code":"9540141","kana_pref":"ﾆｲｶﾞﾀｹﾝ","kana_city":"ﾅｶﾞｵｶｼ","kana_address":"ｶｽｼﾞﾏ","pref":"新潟県","city":"長岡市","address":"粕島"},
{"zip_code":"9540177","kana_pref":"ﾆｲｶﾞﾀｹﾝ","kana_city":"ﾅｶﾞｵｶｼ","kana_address":"ｶﾒｶﾞﾔｼﾝﾃﾞﾝ","pref":"新潟県","city":"長岡市","address":"亀ケ谷新田"},
{"zip_code":"9540162","kana_pref":"ﾆｲｶﾞﾀｹﾝ","kana_city":"ﾅｶﾞｵｶｼ","kana_address":"ｷﾂﾈｺﾞｳﾔ","pref":"新潟県","city":"長岡市","address":"狐興野"},
{"zip_code":"9540135","kana_pref":"ﾆｲｶﾞﾀｹﾝ","kana_city":"ﾅｶﾞｵｶｼ","kana_address":"ｺｳﾅﾝ","pref":"新潟県","city":"長岡市","address":"幸南"},
{"zip_code":"9540161","kana_pref":"ﾆｲｶﾞﾀｹﾝ","kana_city":"ﾅｶﾞｵｶｼ","kana_address":"ｺｳﾔ","pref":"新潟県","city":"長岡市","address":"興野"},
{"zip_code":"9540203","kana_pref":"ﾆｲｶﾞﾀｹﾝ","kana_city":"ﾅｶﾞｵｶｼ","kana_address":"ｺﾇﾏｼﾝﾃﾞﾝ","pref":"新潟県","city":"長岡市","address":"小沼新田"},
{"zip_code":"9540126","kana_pref":"ﾆｲｶﾞﾀｹﾝ","kana_city":"ﾅｶﾞｵｶｼ","kana_address":"ｺﾞﾋｬｯｶﾘ","pref":"新潟県","city":"長岡市","address":"五百刈"},
{"zip_code":"9540213","kana_pref":"ﾆｲｶﾞﾀｹﾝ","kana_city":"ﾅｶﾞｵｶｼ","kana_address":"ｼﾀﾇﾏｼﾝﾃﾞﾝ","pref":"新潟県","city":"長岡市","address":"下沼新田"},
{"zip_code":"9540155","kana_pref":"ﾆｲｶﾞﾀｹﾝ","kana_city":"ﾅｶﾞｵｶｼ","kana_address":"ｼﾏﾀﾞ","pref":"新潟県","city":"長岡市","address":"島田"},
{"zip_code":"9540132","kana_pref":"ﾆｲｶﾞﾀｹﾝ","kana_city":"ﾅｶﾞｵｶｼ","kana_address":"ｼﾝｴｲ","pref":"新潟県","city":"長岡市","address":"新栄"},
{"zip_code":"9540218","kana_pref":"ﾆｲｶﾞﾀｹﾝ","kana_city":"ﾅｶﾞｵｶｼ","kana_address":"ｼﾝｼﾞｮｳﾐﾅﾐ","pref":"新潟県","city":"長岡市","address":"信条南"},
{"zip_code":"9540151","kana_pref":"ﾆｲｶﾞﾀｹﾝ","kana_city":"ﾅｶﾞｵｶｼ","kana_address":"ｽｷﾞﾉﾓﾘ","pref":"新潟県","city":"長岡市","address":"杉之森"},
{"zip_code":"9540154","kana_pref":"ﾆｲｶﾞﾀｹﾝ","kana_city":"ﾅｶﾞｵｶｼ","kana_address":"ｾｷﾈ","pref":"新潟県","city":"長岡市","address":"関根"},
{"zip_code":"9540146","kana_pref":"ﾆｲｶﾞﾀｹﾝ","kana_city":"ﾅｶﾞｵｶｼ","kana_address":"ﾀﾞｲﾎﾞ","pref":"新潟県","city":"長岡市","address":"大保"},
{"zip_code":"9540214","kana_pref":"ﾆｲｶﾞﾀｹﾝ","kana_city":"ﾅｶﾞｵｶｼ","kana_address":"ﾁｭｳｼﾞｮｳｼﾝﾃﾞﾝ","pref":"新潟県","city":"長岡市","address":"中条新田"},
{"zip_code":"9540144","kana_pref":"ﾆｲｶﾞﾀｹﾝ","kana_city":"ﾅｶﾞｵｶｼ","kana_address":"ﾂﾎﾞﾈ","pref":"新潟県","city":"長岡市","address":"坪根"},
{"zip_code":"9540172","kana_pref":"ﾆｲｶﾞﾀｹﾝ","kana_city":"ﾅｶﾞｵｶｼ","kana_address":"ﾂﾙｶﾞｿﾈ","pref":"新潟県","city":"長岡市","address":"鶴ケ曽根"},
{"zip_code":"9540131","kana_pref":"ﾆｲｶﾞﾀｹﾝ","kana_city":"ﾅｶﾞｵｶｼ","kana_address":"ﾅｶｺﾞｳﾔ","pref":"新潟県","city":"長岡市","address":"中興野"},
{"zip_code":"9540204","kana_pref":"ﾆｲｶﾞﾀｹﾝ","kana_city":"ﾅｶﾞｵｶｼ","kana_address":"ﾅｶｻｲ","pref":"新潟県","city":"長岡市","address":"中西"},
{"zip_code":"9540124","kana_pref":"ﾆｲｶﾞﾀｹﾝ","kana_city":"ﾅｶﾞｵｶｼ","kana_address":"ﾅｶﾉｼﾏ","pref":"新潟県","city":"長岡市","address":"中之島"},
{"zip_code":"9540152","kana_pref":"ﾆｲｶﾞﾀｹﾝ","kana_city":"ﾅｶﾞｵｶｼ","kana_address":"ﾅｶﾉｼﾏﾀｶﾊﾞﾀｹ","pref":"新潟県","city":"長岡市","address":"中之島高畑"},
{"zip_code":"9540216","kana_pref":"ﾆｲｶﾞﾀｹﾝ","kana_city":"ﾅｶﾞｵｶｼ","kana_address":"ﾅｶﾉｼﾏﾁｭｳｼﾞｮｳ","pref":"新潟県","city":"長岡市","address":"中之島中条"},
{"zip_code":"9540212","kana_pref":"ﾆｲｶﾞﾀｹﾝ","kana_city":"ﾅｶﾞｵｶｼ","kana_address":"ﾅｶﾉｼﾏﾆｼﾉ","pref":"新潟県","city":"長岡市","address":"中之島西野"},
{"zip_code":"9540157","kana_pref":"ﾆｲｶﾞﾀｹﾝ","kana_city":"ﾅｶﾞｵｶｼ","kana_address":"ﾅｶﾉｼﾏﾐﾔｳﾁ","pref":"新潟県","city":"長岡市","address":"中之島宮内"},
{"zip_code":"9540174","kana_pref":"ﾆｲｶﾞﾀｹﾝ","kana_city":"ﾅｶﾞｵｶｼ","kana_address":"ﾅｶﾉﾅｶ","pref":"新潟県","city":"長岡市","address":"中野中"},
{"zip_code":"9540175","kana_pref":"ﾆｲｶﾞﾀｹﾝ","kana_city":"ﾅｶﾞｵｶｼ","kana_address":"ﾅｶﾉﾆｼ","pref":"新潟県","city":"長岡市","address":"中野西"},
{"zip_code":"9540173","kana_pref":"ﾆｲｶﾞﾀｹﾝ","kana_city":"ﾅｶﾞｵｶｼ","kana_address":"ﾅｶﾉﾋｶﾞｼ","pref":"新潟県","city":"長岡市","address":"中野東"},
{"zip_code":"9540156","kana_pref":"ﾆｲｶﾞﾀｹﾝ","kana_city":"ﾅｶﾞｵｶｼ","kana_address":"ﾅｶﾞﾛ","pref":"新潟県","city":"長岡市","address":"長呂"},
{"zip_code":"9540163","kana_pref":"ﾆｲｶﾞﾀｹﾝ","kana_city":"ﾅｶﾞｵｶｼ","kana_address":"ﾅﾐｷｼﾝﾃﾞﾝ","pref":"新潟県","city":"長岡市","address":"並木新田"},
{"zip_code":"9540205","kana_pref":"ﾆｲｶﾞﾀｹﾝ","kana_city":"ﾅｶﾞｵｶｼ","kana_address":"ﾆｼﾀｶﾔﾏｼﾝﾃﾞﾝ","pref":"新潟県","city":"長岡市","address":"西高山新田"},
{"zip_code":"9540211","kana_pref":"ﾆｲｶﾞﾀｹﾝ","kana_city":"ﾅｶﾞｵｶｼ","kana_address":"ﾆｼﾉｼﾝﾃﾞﾝ","pref":"新潟県","city":"長岡市","address":"西野新田"},
{"zip_code":"9540123","kana_pref":"ﾆｲｶﾞﾀｹﾝ","kana_city":"ﾅｶﾞｵｶｼ","kana_address":"ﾈｺｺﾞｳﾔ","pref":"新潟県","city":"長岡市","address":"猫興野"},
{"zip_code":"9540121","kana_pref":"ﾆｲｶﾞﾀｹﾝ","kana_city":"ﾅｶﾞｵｶｼ","kana_address":"ﾉｸﾞﾁ","pref":"新潟県","city":"長岡市","address":"野口"},
{"zip_code":"9540142","kana_pref":"ﾆｲｶﾞﾀｹﾝ","kana_city":"ﾅｶﾞｵｶｼ","kana_address":"ﾊｲｼﾞﾏｼﾝﾃﾞﾝ","pref":"新潟県","city":"長岡市","address":"灰島新田"},
{"zip_code":"9540165","kana_pref":"ﾆｲｶﾞﾀｹﾝ","kana_city":"ﾅｶﾞｵｶｼ","kana_address":"ﾌｸﾊﾗ","pref":"新潟県","city":"長岡市","address":"福原"},
{"zip_code":"9540125","kana_pref":"ﾆｲｶﾞﾀｹﾝ","kana_city":"ﾅｶﾞｵｶｼ","kana_address":"ﾌｼﾞﾔﾏ","pref":"新潟県","city":"長岡市","address":"藤山"},
{"zip_code":"9540147","kana_pref":"ﾆｲｶﾞﾀｹﾝ","kana_city":"ﾅｶﾞｵｶｼ","kana_address":"ﾎﾞﾝﾉｷ","pref":"新潟県","city":"長岡市","address":"品之木"},
{"zip_code":"9540217","kana_pref":"ﾆｲｶﾞﾀｹﾝ","kana_city":"ﾅｶﾞｵｶｼ","kana_address":"ﾏﾂｶﾞｻｷｼﾝﾃﾞﾝ","pref":"新潟県","city":"長岡市","address":"松ケ崎新田"},
{"zip_code":"9540164","kana_pref":"ﾆｲｶﾞﾀｹﾝ","kana_city":"ﾅｶﾞｵｶｼ","kana_address":"ﾏｯﾎﾟｳ","pref":"新潟県","city":"長岡市","address":"末宝"},
{"zip_code":"9540215","kana_pref":"ﾆｲｶﾞﾀｹﾝ","kana_city":"ﾅｶﾞｵｶｼ","kana_address":"ﾏﾉｼﾛｼﾝﾃﾞﾝ","pref":"新潟県","city":"長岡市","address":"真野代新田"},
{"zip_code":"9540122","kana_pref":"ﾆｲｶﾞﾀｹﾝ","kana_city":"ﾅｶﾞｵｶｼ","kana_address":"ﾏﾕﾐ","pref":"新潟県","city":"長岡市","address":"真弓"},
{"zip_code":"9540176","kana_pref":"ﾆｲｶﾞﾀｹﾝ","kana_city":"ﾅｶﾞｵｶｼ","kana_address":"ﾖｺﾉ","pref":"新潟県","city":"長岡市","address":"横野"},
{"zip_code":"9540153","kana_pref":"ﾆｲｶﾞﾀｹﾝ","kana_city":"ﾅｶﾞｵｶｼ","kana_address":"ﾖｺﾔﾏ","pref":"新潟県","city":"長岡市","address":"横山"},
{"zip_code":"9540206","kana_pref":"ﾆｲｶﾞﾀｹﾝ","kana_city":"ﾅｶﾞｵｶｼ","kana_address":"ﾛｸｼｮ","pref":"新潟県","city":"長岡市","address":"六所"},
{"zip_code":"9540181","kana_pref":"ﾆｲｶﾞﾀｹﾝ","kana_city":"ﾅｶﾞｵｶｼ","kana_address":"ﾜｷｶﾞﾜｼﾝﾃﾞﾝﾏﾁ","pref":"新潟県","city":"長岡市","address":"脇川新田町"},
{"zip_code":"9540000","kana_pref":"ﾆｲｶﾞﾀｹﾝ","kana_city":"ﾐﾂｹｼ","kana_address":"","pref":"新潟県","city":"見附市","address":""},
{"zip_code":"9540073","kana_pref":"ﾆｲｶﾞﾀｹﾝ","kana_city":"ﾐﾂｹｼ","kana_address":"ｱｵｷﾏﾁ","pref":"新潟県","city":"見附市","address":"青木町"},
{"zip_code":"9540061","kana_pref":"ﾆｲｶﾞﾀｹﾝ","kana_city":"ﾐﾂｹｼ","kana_address":"ｱﾂﾀﾏﾁ","pref":"新潟県","city":"見附市","address":"熱田町"},
{"zip_code":"9540038","kana_pref":"ﾆｲｶﾞﾀｹﾝ","kana_city":"ﾐﾂｹｼ","kana_address":"ｲｹﾉｳﾁﾏﾁ","pref":"新潟県","city":"見附市","address":"池之内町"},
{"zip_code":"9540021","kana_pref":"ﾆｲｶﾞﾀｹﾝ","kana_city":"ﾐﾂｹｼ","kana_address":"ｲｹﾉｼﾏﾏﾁ","pref":"新潟県","city":"見附市","address":"池之島町"},
{"zip_code":"9540013","kana_pref":"ﾆｲｶﾞﾀｹﾝ","kana_city":"ﾐﾂｹｼ","kana_address":"ｲｼｼﾞﾏﾁ","pref":"新潟県","city":"見附市","address":"石地町"},
{"zip_code":"9540083","kana_pref":"ﾆｲｶﾞﾀｹﾝ","kana_city":"ﾐﾂｹｼ","kana_address":"ｲﾁﾉﾂﾎﾞﾏﾁ","pref":"新潟県","city":"見附市","address":"市野坪町"},
{"zip_code":"9540111","kana_pref":"ﾆｲｶﾞﾀｹﾝ","kana_city":"ﾐﾂｹｼ","kana_address":"ｲﾏﾏﾁ","pref":"新潟県","city":"見附市","address":"今町"},
{"zip_code":"9540025","kana_pref":"ﾆｲｶﾞﾀｹﾝ","kana_city":"ﾐﾂｹｼ","kana_address":"ｳｼｶﾞﾐﾈﾏﾁ","pref":"新潟県","city":"見附市","address":"牛ケ嶺町"},
{"zip_code":"9540008","kana_pref":"ﾆｲｶﾞﾀｹﾝ","kana_city":"ﾐﾂｹｼ","kana_address":"ｳﾁﾏﾁ","pref":"新潟県","city":"見附市","address":"内町"},
{"zip_code":"9540063","kana_pref":"ﾆｲｶﾞﾀｹﾝ","kana_city":"ﾐﾂｹｼ","kana_address":"ｳﾙｼﾔﾏﾏﾁ","pref":"新潟県","city":"見附市","address":"漆山町"},
{"zip_code":"9540031","kana_pref":"ﾆｲｶﾞﾀｹﾝ","kana_city":"ﾐﾂｹｼ","kana_address":"ｵｵﾀﾞﾏﾁ","pref":"新潟県","city":"見附市","address":"太田町"},
{"zip_code":"9540064","kana_pref":"ﾆｲｶﾞﾀｹﾝ","kana_city":"ﾐﾂｹｼ","kana_address":"ｶｸﾏﾏﾁ","pref":"新潟県","city":"見附市","address":"鹿熊町"},
{"zip_code":"9540081","kana_pref":"ﾆｲｶﾞﾀｹﾝ","kana_city":"ﾐﾂｹｼ","kana_address":"ｶﾀｷﾞﾘﾏﾁ","pref":"新潟県","city":"見附市","address":"片桐町"},
{"zip_code":"9540052","kana_pref":"ﾆｲｶﾞﾀｹﾝ","kana_city":"ﾐﾂｹｼ","kana_address":"ｶﾞｯｺｳﾁｮｳ","pref":"新潟県","city":"見附市","address":"学校町"},
{"zip_code":"9540084","kana_pref":"ﾆｲｶﾞﾀｹﾝ","kana_city":"ﾐﾂｹｼ","kana_address":"ｶﾂﾎﾞｶﾞﾜﾏﾁ","pref":"新潟県","city":"見附市","address":"加坪川町"},
{"zip_code":"9540112","kana_pref":"ﾆｲｶﾞﾀｹﾝ","kana_city":"ﾐﾂｹｼ","kana_address":"ｶﾐｼﾝﾃﾞﾝﾏﾁ","pref":"新潟県","city":"見附市","address":"上新田町"},
{"zip_code":"9540024","kana_pref":"ﾆｲｶﾞﾀｹﾝ","kana_city":"ﾐﾂｹｼ","kana_address":"ｶﾞﾜﾉﾏﾁ","pref":"新潟県","city":"見附市","address":"河野町"},
{"zip_code":"9540072","kana_pref":"ﾆｲｶﾞﾀｹﾝ","kana_city":"ﾐﾂｹｼ","kana_address":"ｷﾀﾉﾏﾁ","pref":"新潟県","city":"見附市","address":"北野町"},
{"zip_code":"9540058","kana_pref":"ﾆｲｶﾞﾀｹﾝ","kana_city":"ﾐﾂｹｼ","kana_address":"ｸｽﾞﾏｷ","pref":"新潟県","city":"見附市","address":"葛巻"},
{"zip_code":"9540077","kana_pref":"ﾆｲｶﾞﾀｹﾝ","kana_city":"ﾐﾂｹｼ","kana_address":"ｸｽﾞﾏｷﾆｼﾏﾁ","pref":"新潟県","city":"見附市","address":"葛巻西町"},
{"zip_code":"9540078","kana_pref":"ﾆｲｶﾞﾀｹﾝ","kana_city":"ﾐﾂｹｼ","kana_address":"ｸｽﾞﾏｷﾋｶﾞｼﾏﾁ","pref":"新潟県","city":"見附市","address":"葛巻東町"},
{"zip_code":"9540067","kana_pref":"ﾆｲｶﾞﾀｹﾝ","kana_city":"ﾐﾂｹｼ","kana_address":"ｸｽﾞﾏｷﾏﾁ","pref":"新潟県","city":"見附市","address":"葛巻町"},
{"zip_code":"9540079","kana_pref":"ﾆｲｶﾞﾀｹﾝ","kana_city":"ﾐﾂｹｼ","kana_address":"ｸｽﾞﾏｷﾐﾅﾐﾏﾁ","pref":"新潟県","city":"見附市","address":"葛巻南町"},
{"zip_code":"9540002","kana_pref":"ﾆｲｶﾞﾀｹﾝ","kana_city":"ﾐﾂｹｼ","kana_address":"ｺｸﾞﾘﾔﾏﾏﾁ","pref":"新潟県","city":"見附市","address":"小栗山町"},
{"zip_code":"9540104","kana_pref":"ﾆｲｶﾞﾀｹﾝ","kana_city":"ﾐﾂｹｼ","kana_address":"ｻｶｲﾏﾁ","pref":"新潟県","city":"見附市","address":"坂井町"},
{"zip_code":"9540001","kana_pref":"ﾆｲｶﾞﾀｹﾝ","kana_city":"ﾐﾂｹｼ","kana_address":"ｻｼﾃﾞﾏﾁ","pref":"新潟県","city":"見附市","address":"指出町"},
{"zip_code":"9540101","kana_pref":"ﾆｲｶﾞﾀｹﾝ","kana_city":"ﾐﾂｹｼ","kana_address":"ｻﾝﾊﾞﾔｼﾏﾁ","pref":"新潟県","city":"見附市","address":"三林町"},
{"zip_code":"9540087","kana_pref":"ﾆｲｶﾞﾀｹﾝ","kana_city":"ﾐﾂｹｼ","kana_address":"ｼﾊﾞﾉﾏﾁ","pref":"新潟県","city":"見附市","address":"芝野町"},
{"zip_code":"9540012","kana_pref":"ﾆｲｶﾞﾀｹﾝ","kana_city":"ﾐﾂｹｼ","kana_address":"ｼﾏｷﾘｸﾎﾞﾏﾁ","pref":"新潟県","city":"見附市","address":"島切窪町"},
{"zip_code":"9540062","kana_pref":"ﾆｲｶﾞﾀｹﾝ","kana_city":"ﾐﾂｹｼ","kana_address":"ｼﾓｱﾗﾏﾁ","pref":"新潟県","city":"見附市","address":"下新町"},
{"zip_code":"9540105","kana_pref":"ﾆｲｶﾞﾀｹﾝ","kana_city":"ﾐﾂｹｼ","kana_address":"ｼﾓｾｷﾏﾁ","pref":"新潟県","city":"見附市","address":"下関町"},
{"zip_code":"9540007","kana_pref":"ﾆｲｶﾞﾀｹﾝ","kana_city":"ﾐﾂｹｼ","kana_address":"ｼﾓﾄﾞﾘﾏﾁ","pref":"新潟県","city":"見附市","address":"下鳥町"},
{"zip_code":"9540102","kana_pref":"ﾆｲｶﾞﾀｹﾝ","kana_city":"ﾐﾂｹｼ","kana_address":"ｼｬｶﾂﾞｶﾏﾁ","pref":"新潟県","city":"見附市","address":"釈迦塚町"},
{"zip_code":"9540017","kana_pref":"ﾆｲｶﾞﾀｹﾝ","kana_city":"ﾐﾂｹｼ","kana_address":"ｼｮｳｶﾞﾜﾀﾞｲﾗﾏﾁ","pref":"新潟県","city":"見附市","address":"庄川平町"},
{"zip_code":"9540016","kana_pref":"ﾆｲｶﾞﾀｹﾝ","kana_city":"ﾐﾂｹｼ","kana_address":"ｼｮｳｶﾞﾜﾏﾁ","pref":"新潟県","city":"見附市","address":"庄川町"},
{"zip_code":"9540059","kana_pref":"ﾆｲｶﾞﾀｹﾝ","kana_city":"ﾐﾂｹｼ","kana_address":"ｼｮｳﾜﾏﾁ","pref":"新潟県","city":"見附市","address":"昭和町"},
{"zip_code":"9540076","kana_pref":"ﾆｲｶﾞﾀｹﾝ","kana_city":"ﾐﾂｹｼ","kana_address":"ｼﾝｺｳﾁｮｳ","pref":"新潟県","city":"見附市","address":"新幸町"},
{"zip_code":"9540026","kana_pref":"ﾆｲｶﾞﾀｹﾝ","kana_city":"ﾐﾂｹｼ","kana_address":"ｼﾝﾎﾞﾏﾁ","pref":"新潟県","city":"見附市","address":"神保町"},
{"zip_code":"9540057","kana_pref":"ﾆｲｶﾞﾀｹﾝ","kana_city":"ﾐﾂｹｼ","kana_address":"ｼﾝﾏﾁ","pref":"新潟県","city":"見附市","address":"新町"},
{"zip_code":"9540022","kana_pref":"ﾆｲｶﾞﾀｹﾝ","kana_city":"ﾐﾂｹｼ","kana_address":"ｽｷﾞｻﾜﾏﾁ","pref":"新潟県","city":"見附市","address":"杉澤町"},
{"zip_code":"9540085","kana_pref":"ﾆｲｶﾞﾀｹﾝ","kana_city":"ﾐﾂｹｼ","kana_address":"ｿﾘﾀﾞﾏﾁ","pref":"新潟県","city":"見附市","address":"反田町"},
{"zip_code":"9540036","kana_pref":"ﾆｲｶﾞﾀｹﾝ","kana_city":"ﾐﾂｹｼ","kana_address":"ﾀｲﾏﾁ","pref":"新潟県","city":"見附市","address":"田井町"},
{"zip_code":"9540103","kana_pref":"ﾆｲｶﾞﾀｹﾝ","kana_city":"ﾐﾂｹｼ","kana_address":"ﾀﾉｼﾘﾏﾁ","pref":"新潟県","city":"見附市","address":"田之尻町"},
{"zip_code":"9540034","kana_pref":"ﾆｲｶﾞﾀｹﾝ","kana_city":"ﾐﾂｹｼ","kana_address":"ﾂｷﾐﾀﾞｲ","pref":"新潟県","city":"見附市","address":"月見台"},
{"zip_code":"9540037","kana_pref":"ﾆｲｶﾞﾀｹﾝ","kana_city":"ﾐﾂｹｼ","kana_address":"ﾂﾊﾞｷｻﾞﾜﾏﾁ","pref":"新潟県","city":"見附市","address":"椿澤町"},
{"zip_code":"9540005","kana_pref":"ﾆｲｶﾞﾀｹﾝ","kana_city":"ﾐﾂｹｼ","kana_address":"ﾄﾀﾞｲｼﾝﾃﾞﾝﾏﾁ","pref":"新潟県","city":"見附市","address":"戸代新田町"},
{"zip_code":"9540041","kana_pref":"ﾆｲｶﾞﾀｹﾝ","kana_city":"ﾐﾂｹｼ","kana_address":"ﾄﾁｻｶｴﾏﾁ","pref":"新潟県","city":"見附市","address":"栃栄町"},
{"zip_code":"9540027","kana_pref":"ﾆｲｶﾞﾀｹﾝ","kana_city":"ﾐﾂｹｼ","kana_address":"ﾄﾁｸﾎﾞﾏﾁ","pref":"新潟県","city":"見附市","address":"栃窪町"},
{"zip_code":"9540044","kana_pref":"ﾆｲｶﾞﾀｹﾝ","kana_city":"ﾐﾂｹｼ","kana_address":"ﾄﾔﾜｷﾏﾁ","pref":"新潟県","city":"見附市","address":"鳥屋脇町"},
{"zip_code":"9540035","kana_pref":"ﾆｲｶﾞﾀｹﾝ","kana_city":"ﾐﾂｹｼ","kana_address":"ﾅｷﾞﾉﾏﾁ","pref":"新潟県","city":"見附市","address":"名木野町"},
{"zip_code":"9540089","kana_pref":"ﾆｲｶﾞﾀｹﾝ","kana_city":"ﾐﾂｹｼ","kana_address":"ﾆｲｶﾞﾀﾆｼﾏﾁ","pref":"新潟県","city":"見附市","address":"新潟西町"},
{"zip_code":"9540088","kana_pref":"ﾆｲｶﾞﾀｹﾝ","kana_city":"ﾐﾂｹｼ","kana_address":"ﾆｲｶﾞﾀﾋｶﾞｼﾏﾁ","pref":"新潟県","city":"見附市","address":"新潟東町"},
{"zip_code":"9540006","kana_pref":"ﾆｲｶﾞﾀｹﾝ","kana_city":"ﾐﾂｹｼ","kana_address":"ﾆｲｶﾞﾀﾏﾁ","pref":"新潟県","city":"見附市","address":"新潟町"},
{"zip_code":"9540068","kana_pref":"ﾆｲｶﾞﾀｹﾝ","kana_city":"ﾐﾂｹｼ","kana_address":"ﾆｶﾏﾁ","pref":"新潟県","city":"見附市","address":"仁嘉町"},
{"zip_code":"9540107","kana_pref":"ﾆｲｶﾞﾀｹﾝ","kana_city":"ﾐﾂｹｼ","kana_address":"ﾆｼｲﾏﾏﾁ","pref":"新潟県","city":"見附市","address":"西今町"},
{"zip_code":"9540075","kana_pref":"ﾆｲｶﾞﾀｹﾝ","kana_city":"ﾐﾂｹｼ","kana_address":"ﾊﾔﾐｽﾞﾏﾁ","pref":"新潟県","city":"見附市","address":"速水町"},
{"zip_code":"9540106","kana_pref":"ﾆｲｶﾞﾀｹﾝ","kana_city":"ﾐﾂｹｼ","kana_address":"ﾋｶﾞｼｲﾏﾏﾁ","pref":"新潟県","city":"見附市","address":"東今町"},
{"zip_code":"9540086","kana_pref":"ﾆｲｶﾞﾀｹﾝ","kana_city":"ﾐﾂｹｼ","kana_address":"ﾌｸｼﾞﾏﾏﾁ","pref":"新潟県","city":"見附市","address":"福島町"},
{"zip_code":"9540046","kana_pref":"ﾆｲｶﾞﾀｹﾝ","kana_city":"ﾐﾂｹｼ","kana_address":"ﾌﾀﾊﾞﾁｮｳ","pref":"新潟県","city":"見附市","address":"双葉町"},
{"zip_code":"9540071","kana_pref":"ﾆｲｶﾞﾀｹﾝ","kana_city":"ﾐﾂｹｼ","kana_address":"ﾎｳｼﾞｮﾏﾁ","pref":"新潟県","city":"見附市","address":"傍所町"},
{"zip_code":"9540054","kana_pref":"ﾆｲｶﾞﾀｹﾝ","kana_city":"ﾐﾂｹｼ","kana_address":"ﾎｿｺﾞｴ","pref":"新潟県","city":"見附市","address":"細越"},
{"zip_code":"9540014","kana_pref":"ﾆｲｶﾞﾀｹﾝ","kana_city":"ﾐﾂｹｼ","kana_address":"ﾎﾘﾐｿﾞﾏﾁ","pref":"新潟県","city":"見附市","address":"堀溝町"},
{"zip_code":"9540051","kana_pref":"ﾆｲｶﾞﾀｹﾝ","kana_city":"ﾐﾂｹｼ","kana_address":"ﾎﾝｼﾞｮ","pref":"新潟県","city":"見附市","address":"本所"},
{"zip_code":"9540053","kana_pref":"ﾆｲｶﾞﾀｹﾝ","kana_city":"ﾐﾂｹｼ","kana_address":"ﾎﾝﾏﾁ","pref":"新潟県","city":"見附市","address":"本町"},
{"zip_code":"9540032","kana_pref":"ﾆｲｶﾞﾀｹﾝ","kana_city":"ﾐﾂｹｼ","kana_address":"ﾎﾝﾐｮｳﾏﾁ","pref":"新潟県","city":"見附市","address":"本明町"},
{"zip_code":"9540045","kana_pref":"ﾆｲｶﾞﾀｹﾝ","kana_city":"ﾐﾂｹｼ","kana_address":"ﾐﾄﾞﾘﾁｮｳ","pref":"新潟県","city":"見附市","address":"緑町"},
{"zip_code":"9540056","kana_pref":"ﾆｲｶﾞﾀｹﾝ","kana_city":"ﾐﾂｹｼ","kana_address":"ﾐﾅﾐﾎﾝﾏﾁ","pref":"新潟県","city":"見附市","address":"南本町"},
{"zip_code":"9540055","kana_pref":"ﾆｲｶﾞﾀｹﾝ","kana_city":"ﾐﾂｹｼ","kana_address":"ﾐﾈｻﾞｷ","pref":"新潟県","city":"見附市","address":"嶺崎"},
{"zip_code":"9540043","kana_pref":"ﾆｲｶﾞﾀｹﾝ","kana_city":"ﾐﾂｹｼ","kana_address":"ﾐﾐﾄﾘﾏﾁ","pref":"新潟県","city":"見附市","address":"耳取町"},
{"zip_code":"9540023","kana_pref":"ﾆｲｶﾞﾀｹﾝ","kana_city":"ﾐﾂｹｼ","kana_address":"ﾐﾔﾉﾊﾗﾏﾁ","pref":"新潟県","city":"見附市","address":"宮之原町"},
{"zip_code":"9540033","kana_pref":"ﾆｲｶﾞﾀｹﾝ","kana_city":"ﾐﾂｹｼ","kana_address":"ﾐｮｳｼｮｳﾏﾁ","pref":"新潟県","city":"見附市","address":"明晶町"},
{"zip_code":"9540004","kana_pref":"ﾆｲｶﾞﾀｹﾝ","kana_city":"ﾐﾂｹｼ","kana_address":"ﾓﾄﾏﾁ","pref":"新潟県","city":"見附市","address":"元町"},
{"zip_code":"9540082","kana_pref":"ﾆｲｶﾞﾀｹﾝ","kana_city":"ﾐﾂｹｼ","kana_address":"ﾔﾅｷﾞﾊﾞｼﾏﾁ","pref":"新潟県","city":"見附市","address":"柳橋町"},
{"zip_code":"9540011","kana_pref":"ﾆｲｶﾞﾀｹﾝ","kana_city":"ﾐﾂｹｼ","kana_address":"ﾔﾏｻﾞｷｺﾞｳﾔﾏﾁ","pref":"新潟県","city":"見附市","address":"山崎興野町"},
{"zip_code":"9540042","kana_pref":"ﾆｲｶﾞﾀｹﾝ","kana_city":"ﾐﾂｹｼ","kana_address":"ﾔﾏｻﾞｷﾏﾁ","pref":"新潟県","city":"見附市","address":"山崎町"},
{"zip_code":"9540074","kana_pref":"ﾆｲｶﾞﾀｹﾝ","kana_city":"ﾐﾂｹｼ","kana_address":"ﾔﾏﾖｼﾏﾁ","pref":"新潟県","city":"見附市","address":"山吉町"}]}