{"zip_code":[
{"zip_code":"9550000","kana_pref":"ﾆｲｶﾞﾀｹﾝ","kana_city":"ｻﾝｼﾞｮｳｼ","kana_address":"","pref":"新潟県","city":"三条市","address":""},
{"zip_code":"9550065","kana_pref":"ﾆｲｶﾞﾀｹﾝ","kana_city":"ｻﾝｼﾞｮｳｼ","kana_address":"ｱｻﾋﾁｮｳ","pref":"新潟県","city":"三条市","address":"旭町"},
{"zip_code":"9550034","kana_pref":"ﾆｲｶﾞﾀｹﾝ","kana_city":"ｻﾝｼﾞｮｳｼ","kana_address":"ｱｻﾞﾌﾞ","pref":"新潟県","city":"三条市","address":"麻布"},
{"zip_code":"9550141","kana_pref":"ﾆｲｶﾞﾀｹﾝ","kana_city":"ｻﾝｼﾞｮｳｼ","kana_address":"ｱﾗｻﾜ","pref":"新潟県","city":"三条市","address":"荒沢"},
{"zip_code":"9550083","kana_pref":"ﾆｲｶﾞﾀｹﾝ","kana_city":"ｻﾝｼﾞｮｳｼ","kana_address":"ｱﾗﾏﾁ","pref":"新潟県","city":"三条市","address":"荒町"},
{"zip_code":"9550118","kana_pref":"ﾆｲｶﾞﾀｹﾝ","kana_city":"ｻﾝｼﾞｮｳｼ","kana_address":"ｱﾗﾔ","pref":"新潟県","city":"三条市","address":"新屋"},
{"zip_code":"9550107","kana_pref":"ﾆｲｶﾞﾀｹﾝ","kana_city":"ｻﾝｼﾞｮｳｼ","kana_address":"ｲｲﾀﾞ","pref":"新潟県","city":"三条市","address":"飯田"},
{"zip_code":"9550013","kana_pref":"ﾆｲｶﾞﾀｹﾝ","kana_city":"ｻﾝｼﾞｮｳｼ","kana_address":"ｲｸﾞﾘ","pref":"新潟県","city":"三条市","address":"井栗"},
{"zip_code":"9550084","kana_pref":"ﾆｲｶﾞﾀｹﾝ","kana_city":"ｻﾝｼﾞｮｳｼ","kana_address":"ｲｼｶﾞﾐ","pref":"新潟県","city":"三条市","address":"石上"},
{"zip_code":"9550066","kana_pref":"ﾆｲｶﾞﾀｹﾝ","kana_city":"ｻﾝｼﾞｮｳｼ","kana_address":"ｲｼﾞﾏ","pref":"新潟県","city":"三条市","address":"居島"},
{"zip_code":"9550045","kana_pref":"ﾆｲｶﾞﾀｹﾝ","kana_city":"ｻﾝｼﾞｮｳｼ","kana_address":"ｲﾁﾉﾓﾝ","pref":"新潟県","city":"三条市","address":"一ノ門"},
{"zip_code":"9550096","kana_pref":"ﾆｲｶﾞﾀｹﾝ","kana_city":"ｻﾝｼﾞｮｳｼ","kana_address":"ｲﾄﾞﾊﾞ","pref":"新潟県","city":"三条市","address":"井戸場"},
{"zip_code":"9550115","kana_pref":"ﾆｲｶﾞﾀｹﾝ","kana_city":"ｻﾝｼﾞｮｳｼ","kana_address":"ｲﾝﾅｲ","pref":"新潟県","city":"三条市","address":"院内"},
{"zip_code":"9550025","kana_pref":"ﾆｲｶﾞﾀｹﾝ","kana_city":"ｻﾝｼﾞｮｳｼ","kana_address":"ｳｴﾉﾊﾗ","pref":"新潟県","city":"三条市","address":"上野原"},
{"zip_code":"9550102","kana_pref":"ﾆｲｶﾞﾀｹﾝ","kana_city":"ｻﾝｼﾞｮｳｼ","kana_address":"ｳｼｶﾞｸﾋﾞ","pref":"新潟県","city":"三条市","address":"牛ケ首"},
{"zip_code":"9550016","kana_pref":"ﾆｲｶﾞﾀｹﾝ","kana_city":"ｻﾝｼﾞｮｳｼ","kana_address":"ｳｼｶﾞｼﾏ","pref":"新潟県","city":"三条市","address":"牛ケ島"},
{"zip_code":"9550133","kana_pref":"ﾆｲｶﾞﾀｹﾝ","kana_city":"ｻﾝｼﾞｮｳｼ","kana_address":"ｳｼﾉｵ","pref":"新潟県","city":"三条市","address":"牛野尾"},
{"zip_code":"9550104","kana_pref":"ﾆｲｶﾞﾀｹﾝ","kana_city":"ｻﾝｼﾞｮｳｼ","kana_address":"ｴｸﾞﾁ","pref":"新潟県","city":"三条市","address":"江口"},
{"zip_code":"9550818","kana_pref":"ﾆｲｶﾞﾀｹﾝ","kana_city":"ｻﾝｼﾞｮｳｼ","kana_address":"ｴﾀﾞｺﾞｳ","pref":"新潟県","city":"三条市","address":"枝郷"},
{"zip_code":"9550145","kana_pref":"ﾆｲｶﾞﾀｹﾝ","kana_city":"ｻﾝｼﾞｮｳｼ","kana_address":"ｵｵｻﾜ","pref":"新潟県","city":"三条市","address":"大沢"},
{"zip_code":"9550094","kana_pref":"ﾆｲｶﾞﾀｹﾝ","kana_city":"ｻﾝｼﾞｮｳｼ","kana_address":"ｵｵｼﾞﾏ","pref":"新潟県","city":"三条市","address":"大島"},
{"zip_code":"9550154","kana_pref":"ﾆｲｶﾞﾀｹﾝ","kana_city":"ｻﾝｼﾞｮｳｼ","kana_address":"ｵｵﾀﾞｲﾗ","pref":"新潟県","city":"三条市","address":"大平"},
{"zip_code":"9550124","kana_pref":"ﾆｲｶﾞﾀｹﾝ","kana_city":"ｻﾝｼﾞｮｳｼ","kana_address":"ｵｵﾀﾆ","pref":"新潟県","city":"三条市","address":"大谷"},
{"zip_code":"9550833","kana_pref":"ﾆｲｶﾞﾀｹﾝ","kana_city":"ｻﾝｼﾞｮｳｼ","kana_address":"ｵｵﾉﾊﾀ","pref":"新潟県","city":"三条市","address":"大野畑"},
{"zip_code":"9550054","kana_pref":"ﾆｲｶﾞﾀｹﾝ","kana_city":"ｻﾝｼﾞｮｳｼ","kana_address":"ｵｵﾐﾔｼﾝﾃﾞﾝ","pref":"新潟県","city":"三条市","address":"大宮新田"},
{"zip_code":"9550122","kana_pref":"ﾆｲｶﾞﾀｹﾝ","kana_city":"ｻﾝｼﾞｮｳｼ","kana_address":"ｵｵﾔﾁ","pref":"新潟県","city":"三条市","address":"大谷地"},
{"zip_code":"9550097","kana_pref":"ﾆｲｶﾞﾀｹﾝ","kana_city":"ｻﾝｼﾞｮｳｼ","kana_address":"ｵｷﾞｼﾞﾏ","pref":"新潟県","city":"三条市","address":"荻島"},
{"zip_code":"9550151","kana_pref":"ﾆｲｶﾞﾀｹﾝ","kana_city":"ｻﾝｼﾞｮｳｼ","kana_address":"ｵｷﾞﾎﾞﾘ","pref":"新潟県","city":"三条市","address":"荻堀"},
{"zip_code":"9550137","kana_pref":"ﾆｲｶﾞﾀｹﾝ","kana_city":"ｻﾝｼﾞｮｳｼ","kana_address":"ｵｿﾊﾞ","pref":"新潟県","city":"三条市","address":"遅場"},
{"zip_code":"9550103","kana_pref":"ﾆｲｶﾞﾀｹﾝ","kana_city":"ｻﾝｼﾞｮｳｼ","kana_address":"ｵﾁｱｲ","pref":"新潟県","city":"三条市","address":"落合"},
{"zip_code":"9550114","kana_pref":"ﾆｲｶﾞﾀｹﾝ","kana_city":"ｻﾝｼﾞｮｳｼ","kana_address":"ｶｸﾏ","pref":"新潟県","city":"三条市","address":"鹿熊"},
{"zip_code":"9550036","kana_pref":"ﾆｲｶﾞﾀｹﾝ","kana_city":"ｻﾝｼﾞｮｳｼ","kana_address":"ｶｺﾞﾊﾞ","pref":"新潟県","city":"三条市","address":"篭場"},
{"zip_code":"9550123","kana_pref":"ﾆｲｶﾞﾀｹﾝ","kana_city":"ｻﾝｼﾞｮｳｼ","kana_address":"ｶｻﾎﾞﾘ","pref":"新潟県","city":"三条市","address":"笠堀"},
{"zip_code":"9550807","kana_pref":"ﾆｲｶﾞﾀｹﾝ","kana_city":"ｻﾝｼﾞｮｳｼ","kana_address":"ｶﾀｸﾁ","pref":"新潟県","city":"三条市","address":"片口"},
{"zip_code":"9550056","kana_pref":"ﾆｲｶﾞﾀｹﾝ","kana_city":"ｻﾝｼﾞｮｳｼ","kana_address":"ｶﾂﾎﾞｶﾞﾜ","pref":"新潟県","city":"三条市","address":"嘉坪川"},
{"zip_code":"9550108","kana_pref":"ﾆｲｶﾞﾀｹﾝ","kana_city":"ｻﾝｼﾞｮｳｼ","kana_address":"ｶﾄｳｹﾞ","pref":"新潟県","city":"三条市","address":"鹿峠"},
{"zip_code":"9550814","kana_pref":"ﾆｲｶﾞﾀｹﾝ","kana_city":"ｻﾝｼﾞｮｳｼ","kana_address":"ｶﾈｺｼﾝﾃﾞﾝ","pref":"新潟県","city":"三条市","address":"金子新田"},
{"zip_code":"9550166","kana_pref":"ﾆｲｶﾞﾀｹﾝ","kana_city":"ｻﾝｼﾞｮｳｼ","kana_address":"ｶﾐｵｵｳﾗ","pref":"新潟県","city":"三条市","address":"上大浦"},
{"zip_code":"9550091","kana_pref":"ﾆｲｶﾞﾀｹﾝ","kana_city":"ｻﾝｼﾞｮｳｼ","kana_address":"ｶﾐｽｺﾞﾛ","pref":"新潟県","city":"三条市","address":"上須頃"},
{"zip_code":"9550022","kana_pref":"ﾆｲｶﾞﾀｹﾝ","kana_city":"ｻﾝｼﾞｮｳｼ","kana_address":"ｶﾐﾎﾅｲ","pref":"新潟県","city":"三条市","address":"上保内"},
{"zip_code":"9550111","kana_pref":"ﾆｲｶﾞﾀｹﾝ","kana_city":"ｻﾝｼﾞｮｳｼ","kana_address":"ｶﾐﾔﾁ","pref":"新潟県","city":"三条市","address":"上谷地"},
{"zip_code":"9550121","kana_pref":"ﾆｲｶﾞﾀｹﾝ","kana_city":"ｻﾝｼﾞｮｳｼ","kana_address":"ｷﾀｲﾓｶﾞﾜ","pref":"新潟県","city":"三条市","address":"北五百川"},
{"zip_code":"9550861","kana_pref":"ﾆｲｶﾞﾀｹﾝ","kana_city":"ｻﾝｼﾞｮｳｼ","kana_address":"ｷﾀｼﾝﾎﾞ","pref":"新潟県","city":"三条市","address":"北新保"},
{"zip_code":"9550043","kana_pref":"ﾆｲｶﾞﾀｹﾝ","kana_city":"ｻﾝｼﾞｮｳｼ","kana_address":"ｷﾀﾅｶ","pref":"新潟県","city":"三条市","address":"北中"},
{"zip_code":"9550053","kana_pref":"ﾆｲｶﾞﾀｹﾝ","kana_city":"ｻﾝｼﾞｮｳｼ","kana_address":"ｷﾀﾆｭｳｸﾞﾗ","pref":"新潟県","city":"三条市","address":"北入蔵"},
{"zip_code":"9550012","kana_pref":"ﾆｲｶﾞﾀｹﾝ","kana_city":"ｻﾝｼﾞｮｳｼ","kana_address":"ｷﾀﾉｼﾝﾃﾞﾝ","pref":"新潟県","city":"三条市","address":"北野新田"},
{"zip_code":"9550853","kana_pref":"ﾆｲｶﾞﾀｹﾝ","kana_city":"ｻﾝｼﾞｮｳｼ","kana_address":"ｷﾀﾖｯｶﾏﾁ","pref":"新潟県","city":"三条市","address":"北四日町"},
{"zip_code":"9550085","kana_pref":"ﾆｲｶﾞﾀｹﾝ","kana_city":"ｻﾝｼﾞｮｳｼ","kana_address":"ｸﾘﾊﾞﾔｼ","pref":"新潟県","city":"三条市","address":"栗林"},
{"zip_code":"9550126","kana_pref":"ﾆｲｶﾞﾀｹﾝ","kana_city":"ｻﾝｼﾞｮｳｼ","kana_address":"ｸﾘﾔﾏ","pref":"新潟県","city":"三条市","address":"栗山"},
{"zip_code":"9550153","kana_pref":"ﾆｲｶﾞﾀｹﾝ","kana_city":"ｻﾝｼﾞｮｳｼ","kana_address":"ｸﾜｷﾘ","pref":"新潟県","city":"三条市","address":"桑切"},
{"zip_code":"9550046","kana_pref":"ﾆｲｶﾞﾀｹﾝ","kana_city":"ｻﾝｼﾞｮｳｼ","kana_address":"ｺｳﾔ","pref":"新潟県","city":"三条市","address":"興野"},
{"zip_code":"9550142","kana_pref":"ﾆｲｶﾞﾀｹﾝ","kana_city":"ｻﾝｼﾞｮｳｼ","kana_address":"ｺﾅｶﾞｻﾜ","pref":"新潟県","city":"三条市","address":"小長沢"},
{"zip_code":"9550156","kana_pref":"ﾆｲｶﾞﾀｹﾝ","kana_city":"ｻﾝｼﾞｮｳｼ","kana_address":"ｺﾏｺﾞﾐ","pref":"新潟県","city":"三条市","address":"駒込"},
{"zip_code":"9550821","kana_pref":"ﾆｲｶﾞﾀｹﾝ","kana_city":"ｻﾝｼﾞｮｳｼ","kana_address":"ｺﾞﾐｮｳ","pref":"新潟県","city":"三条市","address":"五明"},
{"zip_code":"9550844","kana_pref":"ﾆｲｶﾞﾀｹﾝ","kana_city":"ｻﾝｼﾞｮｳｼ","kana_address":"ｻｸﾗｷﾞﾁｮｳ","pref":"新潟県","city":"三条市","address":"桜木町"},
{"zip_code":"9550152","kana_pref":"ﾆｲｶﾞﾀｹﾝ","kana_city":"ｻﾝｼﾞｮｳｼ","kana_address":"ｻｻｵｶ","pref":"新潟県","city":"三条市","address":"笹岡"},
{"zip_code":"9550146","kana_pref":"ﾆｲｶﾞﾀｹﾝ","kana_city":"ｻﾝｼﾞｮｳｼ","kana_address":"ｻｻﾏｷ","pref":"新潟県","city":"三条市","address":"笹巻"},
{"zip_code":"9550001","kana_pref":"ﾆｲｶﾞﾀｹﾝ","kana_city":"ｻﾝｼﾞｮｳｼ","kana_address":"ｻﾝｶﾞﾝｼﾞｼﾝﾃﾞﾝ","pref":"新潟県","city":"三条市","address":"三貫地新田"},
{"zip_code":"9550041","kana_pref":"ﾆｲｶﾞﾀｹﾝ","kana_city":"ｻﾝｼﾞｮｳｼ","kana_address":"ｻﾝﾁｸ","pref":"新潟県","city":"三条市","address":"三竹"},
{"zip_code":"9550125","kana_pref":"ﾆｲｶﾞﾀｹﾝ","kana_city":"ｻﾝｼﾞｮｳｼ","kana_address":"ｼｵﾉﾌﾁ","pref":"新潟県","city":"三条市","address":"塩野渕"},
{"zip_code":"9550163","kana_pref":"ﾆｲｶﾞﾀｹﾝ","kana_city":"ｻﾝｼﾞｮｳｼ","kana_address":"ｼﾏｶﾞﾀ","pref":"新潟県","city":"三条市","address":"島潟"},
{"zip_code":"9550105","kana_pref":"ﾆｲｶﾞﾀｹﾝ","kana_city":"ｻﾝｼﾞｮｳｼ","kana_address":"ｼﾏｶﾞﾜﾗ","pref":"新潟県","city":"三条市","address":"島川原"},
{"zip_code":"9550842","kana_pref":"ﾆｲｶﾞﾀｹﾝ","kana_city":"ｻﾝｼﾞｮｳｼ","kana_address":"ｼﾏﾀﾞ","pref":"新潟県","city":"三条市","address":"島田"},
{"zip_code":"9550168","kana_pref":"ﾆｲｶﾞﾀｹﾝ","kana_city":"ｻﾝｼﾞｮｳｼ","kana_address":"ｼﾓｵｵｳﾗ","pref":"新潟県","city":"三条市","address":"下大浦"},
{"zip_code":"9550042","kana_pref":"ﾆｲｶﾞﾀｹﾝ","kana_city":"ｻﾝｼﾞｮｳｼ","kana_address":"ｼﾓｻｶｲ","pref":"新潟県","city":"三条市","address":"下坂井"},
{"zip_code":"9550824","kana_pref":"ﾆｲｶﾞﾀｹﾝ","kana_city":"ｻﾝｼﾞｮｳｼ","kana_address":"ｼﾓｼﾝﾃﾞﾝ","pref":"新潟県","city":"三条市","address":"下新田"},
{"zip_code":"9550093","kana_pref":"ﾆｲｶﾞﾀｹﾝ","kana_city":"ｻﾝｼﾞｮｳｼ","kana_address":"ｼﾓｽｺﾞﾛ","pref":"新潟県","city":"三条市","address":"下須頃"},
{"zip_code":"9550021","kana_pref":"ﾆｲｶﾞﾀｹﾝ","kana_city":"ｻﾝｼﾞｮｳｼ","kana_address":"ｼﾓﾎﾅｲ","pref":"新潟県","city":"三条市","address":"下保内"},
{"zip_code":"9550843","kana_pref":"ﾆｲｶﾞﾀｹﾝ","kana_city":"ｻﾝｼﾞｮｳｼ","kana_address":"ｼﾞｮｳﾅﾝﾏﾁ","pref":"新潟県","city":"三条市","address":"条南町"},
{"zip_code":"9550011","kana_pref":"ﾆｲｶﾞﾀｹﾝ","kana_city":"ｻﾝｼﾞｮｳｼ","kana_address":"ｼﾗﾔﾏｼﾝﾃﾞﾝ","pref":"新潟県","city":"三条市","address":"白山新田"},
{"zip_code":"9550808","kana_pref":"ﾆｲｶﾞﾀｹﾝ","kana_city":"ｻﾝｼﾞｮｳｼ","kana_address":"ｼﾝﾎﾞ","pref":"新潟県","city":"三条市","address":"新保"},
{"zip_code":"9550063","kana_pref":"ﾆｲｶﾞﾀｹﾝ","kana_city":"ｻﾝｼﾞｮｳｼ","kana_address":"ｼﾝﾒｲﾁｮｳ","pref":"新潟県","city":"三条市","address":"神明町"},
{"zip_code":"9550832","kana_pref":"ﾆｲｶﾞﾀｹﾝ","kana_city":"ｻﾝｼﾞｮｳｼ","kana_address":"ｽｸﾞｴﾁｮｳ","pref":"新潟県","city":"三条市","address":"直江町"},
{"zip_code":"9550092","kana_pref":"ﾆｲｶﾞﾀｹﾝ","kana_city":"ｻﾝｼﾞｮｳｼ","kana_address":"ｽｺﾞﾛ","pref":"新潟県","city":"三条市","address":"須頃"},
{"zip_code":"9550004","kana_pref":"ﾆｲｶﾞﾀｹﾝ","kana_city":"ｻﾝｼﾞｮｳｼ","kana_address":"ｽﾄﾞｼﾝﾃﾞﾝ","pref":"新潟県","city":"三条市","address":"須戸新田"},
{"zip_code":"9550801","kana_pref":"ﾆｲｶﾞﾀｹﾝ","kana_city":"ｻﾝｼﾞｮｳｼ","kana_address":"ｽﾜ","pref":"新潟県","city":"三条市","address":"諏訪"},
{"zip_code":"9550095","kana_pref":"ﾆｲｶﾞﾀｹﾝ","kana_city":"ｻﾝｼﾞｮｳｼ","kana_address":"ﾀﾞｲｶﾝｼﾞﾏ","pref":"新潟県","city":"三条市","address":"代官島"},
{"zip_code":"9550161","kana_pref":"ﾆｲｶﾞﾀｹﾝ","kana_city":"ｻﾝｼﾞｮｳｼ","kana_address":"ﾀｶｵｶ","pref":"新潟県","city":"三条市","address":"高岡"},
{"zip_code":"9550165","kana_pref":"ﾆｲｶﾞﾀｹﾝ","kana_city":"ｻﾝｼﾞｮｳｼ","kana_address":"ﾀｶﾔｼｷ","pref":"新潟県","city":"三条市","address":"高屋敷"},
{"zip_code":"9550164","kana_pref":"ﾆｲｶﾞﾀｹﾝ","kana_city":"ｻﾝｼﾞｮｳｼ","kana_address":"ﾀｷﾔ","pref":"新潟県","city":"三条市","address":"滝谷"},
{"zip_code":"9550044","kana_pref":"ﾆｲｶﾞﾀｹﾝ","kana_city":"ｻﾝｼﾞｮｳｼ","kana_address":"ﾀｼﾞﾏ","pref":"新潟県","city":"三条市","address":"田島"},
{"zip_code":"9550143","kana_pref":"ﾆｲｶﾞﾀｹﾝ","kana_city":"ｻﾝｼﾞｮｳｼ","kana_address":"ﾀﾅﾋﾚ","pref":"新潟県","city":"三条市","address":"棚鱗"},
{"zip_code":"9550117","kana_pref":"ﾆｲｶﾞﾀｹﾝ","kana_city":"ｻﾝｼﾞｮｳｼ","kana_address":"ﾀﾔ","pref":"新潟県","city":"三条市","address":"田屋"},
{"zip_code":"9550035","kana_pref":"ﾆｲｶﾞﾀｹﾝ","kana_city":"ｻﾝｼﾞｮｳｼ","kana_address":"ﾁｭｳｼﾝ","pref":"新潟県","city":"三条市","address":"中新"},
{"zip_code":"9550112","kana_pref":"ﾆｲｶﾞﾀｹﾝ","kana_city":"ｻﾝｼﾞｮｳｼ","kana_address":"ﾁｮｳﾅﾊﾞﾔｼ","pref":"新潟県","city":"三条市","address":"蝶名林"},
{"zip_code":"9550055","kana_pref":"ﾆｲｶﾞﾀｹﾝ","kana_city":"ｻﾝｼﾞｮｳｼ","kana_address":"ﾂｶﾉﾒ","pref":"新潟県","city":"三条市","address":"塚野目"},
{"zip_code":"9550803","kana_pref":"ﾆｲｶﾞﾀｹﾝ","kana_city":"ｻﾝｼﾞｮｳｼ","kana_address":"ﾂｷｵｶ","pref":"新潟県","city":"三条市","address":"月岡"},
{"zip_code":"9550051","kana_pref":"ﾆｲｶﾞﾀｹﾝ","kana_city":"ｻﾝｼﾞｮｳｼ","kana_address":"ﾂﾙﾀﾞ","pref":"新潟県","city":"三条市","address":"鶴田"},
{"zip_code":"9550831","kana_pref":"ﾆｲｶﾞﾀｹﾝ","kana_city":"ｻﾝｼﾞｮｳｼ","kana_address":"ﾄﾞﾊﾞ","pref":"新潟県","city":"三条市","address":"土場"},
{"zip_code":"9550113","kana_pref":"ﾆｲｶﾞﾀｹﾝ","kana_city":"ｻﾝｼﾞｮｳｼ","kana_address":"ﾅｶｳﾗ","pref":"新潟県","city":"三条市","address":"中浦"},
{"zip_code":"9550157","kana_pref":"ﾆｲｶﾞﾀｹﾝ","kana_city":"ｻﾝｼﾞｮｳｼ","kana_address":"ﾅｶﾞｻﾜ","pref":"新潟県","city":"三条市","address":"長沢"},
{"zip_code":"9550132","kana_pref":"ﾆｲｶﾞﾀｹﾝ","kana_city":"ｻﾝｼﾞｮｳｼ","kana_address":"ﾅｶﾞﾉ","pref":"新潟県","city":"三条市","address":"長野"},
{"zip_code":"9550062","kana_pref":"ﾆｲｶﾞﾀｹﾝ","kana_city":"ｻﾝｼﾞｮｳｼ","kana_address":"ﾅｶﾉﾁｮｳ","pref":"新潟県","city":"三条市","address":"仲之町"},
{"zip_code":"9550147","kana_pref":"ﾆｲｶﾞﾀｹﾝ","kana_city":"ｻﾝｼﾞｮｳｼ","kana_address":"ﾅｶﾉﾊﾗ","pref":"新潟県","city":"三条市","address":"中野原"},
{"zip_code":"9550806","kana_pref":"ﾆｲｶﾞﾀｹﾝ","kana_city":"ｻﾝｼﾞｮｳｼ","kana_address":"ﾅｶﾞﾐﾈ","pref":"新潟県","city":"三条市","address":"長嶺"},
{"zip_code":"9550144","kana_pref":"ﾆｲｶﾞﾀｹﾝ","kana_city":"ｻﾝｼﾞｮｳｼ","kana_address":"ﾅﾗﾔﾏ","pref":"新潟県","city":"三条市","address":"楢山"},
{"zip_code":"9550134","kana_pref":"ﾆｲｶﾞﾀｹﾝ","kana_city":"ｻﾝｼﾞｮｳｼ","kana_address":"ﾆｺﾞﾘｻﾜ","pref":"新潟県","city":"三条市","address":"濁沢"},
{"zip_code":"9550082","kana_pref":"ﾆｲｶﾞﾀｹﾝ","kana_city":"ｻﾝｼﾞｮｳｼ","kana_address":"ﾆｼｳﾗﾀﾞﾃ","pref":"新潟県","city":"三条市","address":"西裏館"},
{"zip_code":"9550033","kana_pref":"ﾆｲｶﾞﾀｹﾝ","kana_city":"ｻﾝｼﾞｮｳｼ","kana_address":"ﾆｼｵｵｻｷ","pref":"新潟県","city":"三条市","address":"西大崎"},
{"zip_code":"9550014","kana_pref":"ﾆｲｶﾞﾀｹﾝ","kana_city":"ｻﾝｼﾞｮｳｼ","kana_address":"ﾆｼｶﾀ","pref":"新潟県","city":"三条市","address":"西潟"},
{"zip_code":"9550815","kana_pref":"ﾆｲｶﾞﾀｹﾝ","kana_city":"ｻﾝｼﾞｮｳｼ","kana_address":"ﾆｼﾀﾗﾀﾞ","pref":"新潟県","city":"三条市","address":"西鱈田"},
{"zip_code":"9550822","kana_pref":"ﾆｲｶﾞﾀｹﾝ","kana_city":"ｻﾝｼﾞｮｳｼ","kana_address":"ﾆｼﾅｶ","pref":"新潟県","city":"三条市","address":"西中"},
{"zip_code":"9550845","kana_pref":"ﾆｲｶﾞﾀｹﾝ","kana_city":"ｻﾝｼﾞｮｳｼ","kana_address":"ﾆｼﾎﾝｼﾞｮｳｼﾞ","pref":"新潟県","city":"三条市","address":"西本成寺"},
{"zip_code":"9550851","kana_pref":"ﾆｲｶﾞﾀｹﾝ","kana_city":"ｻﾝｼﾞｮｳｼ","kana_address":"ﾆｼﾖｯｶﾏﾁ","pref":"新潟県","city":"三条市","address":"西四日町"},
{"zip_code":"9550057","kana_pref":"ﾆｲｶﾞﾀｹﾝ","kana_city":"ｻﾝｼﾞｮｳｼ","kana_address":"ﾆｯｺｳﾁｮｳ","pref":"新潟県","city":"三条市","address":"新光町"},
{"zip_code":"9550812","kana_pref":"ﾆｲｶﾞﾀｹﾝ","kana_city":"ｻﾝｼﾞｮｳｼ","kana_address":"ﾆｭｳｸﾞﾗｼﾝﾃﾞﾝ","pref":"新潟県","city":"三条市","address":"入蔵新田"},
{"zip_code":"9550804","kana_pref":"ﾆｲｶﾞﾀｹﾝ","kana_city":"ｻﾝｼﾞｮｳｼ","kana_address":"ﾆｮﾎｳｼﾞ","pref":"新潟県","city":"三条市","address":"如法寺"},
{"zip_code":"9550131","kana_pref":"ﾆｲｶﾞﾀｹﾝ","kana_city":"ｻﾝｼﾞｮｳｼ","kana_address":"ﾆﾜﾂﾞｷ","pref":"新潟県","city":"三条市","address":"庭月"},
{"zip_code":"9550073","kana_pref":"ﾆｲｶﾞﾀｹﾝ","kana_city":"ｻﾝｼﾞｮｳｼ","kana_address":"ﾊﾁﾏﾝﾁｮｳ","pref":"新潟県","city":"三条市","address":"八幡町"},
{"zip_code":"9550148","kana_pref":"ﾆｲｶﾞﾀｹﾝ","kana_city":"ｻﾝｼﾞｮｳｼ","kana_address":"ﾊﾅﾌﾞﾁ","pref":"新潟県","city":"三条市","address":"花渕"},
{"zip_code":"9550167","kana_pref":"ﾆｲｶﾞﾀｹﾝ","kana_city":"ｻﾝｼﾞｮｳｼ","kana_address":"ﾊﾞﾊﾞ","pref":"新潟県","city":"三条市","address":"馬場"},
{"zip_code":"9550061","kana_pref":"ﾆｲｶﾞﾀｹﾝ","kana_city":"ｻﾝｼﾞｮｳｼ","kana_address":"ﾊﾔｼﾁｮｳ","pref":"新潟県","city":"三条市","address":"林町"},
{"zip_code":"9550135","kana_pref":"ﾆｲｶﾞﾀｹﾝ","kana_city":"ｻﾝｼﾞｮｳｼ","kana_address":"ﾊﾔﾐｽﾞ","pref":"新潟県","city":"三条市","address":"早水"},
{"zip_code":"9550158","kana_pref":"ﾆｲｶﾞﾀｹﾝ","kana_city":"ｻﾝｼﾞｮｳｼ","kana_address":"ﾊﾗ","pref":"新潟県","city":"三条市","address":"原"},
{"zip_code":"9550081","kana_pref":"ﾆｲｶﾞﾀｹﾝ","kana_city":"ｻﾝｼﾞｮｳｼ","kana_address":"ﾋｶﾞｼｳﾗﾀﾞﾃ","pref":"新潟県","city":"三条市","address":"東裏館"},
{"zip_code":"9550032","kana_pref":"ﾆｲｶﾞﾀｹﾝ","kana_city":"ｻﾝｼﾞｮｳｼ","kana_address":"ﾋｶﾞｼｵｵｻｷ","pref":"新潟県","city":"三条市","address":"東大崎"},
{"zip_code":"9550047","kana_pref":"ﾆｲｶﾞﾀｹﾝ","kana_city":"ｻﾝｼﾞｮｳｼ","kana_address":"ﾋｶﾞｼｻﾝｼﾞｮｳ","pref":"新潟県","city":"三条市","address":"東三条"},
{"zip_code":"9550863","kana_pref":"ﾆｲｶﾞﾀｹﾝ","kana_city":"ｻﾝｼﾞｮｳｼ","kana_address":"ﾋｶﾞｼｼﾝﾎﾞ","pref":"新潟県","city":"三条市","address":"東新保"},
{"zip_code":"9550816","kana_pref":"ﾆｲｶﾞﾀｹﾝ","kana_city":"ｻﾝｼﾞｮｳｼ","kana_address":"ﾋｶﾞｼﾀﾗﾀﾞ","pref":"新潟県","city":"三条市","address":"東鱈田"},
{"zip_code":"9550823","kana_pref":"ﾆｲｶﾞﾀｹﾝ","kana_city":"ｻﾝｼﾞｮｳｼ","kana_address":"ﾋｶﾞｼﾎﾝｼﾞｮｳｼﾞ","pref":"新潟県","city":"三条市","address":"東本成寺"},
{"zip_code":"9550155","kana_pref":"ﾆｲｶﾞﾀｹﾝ","kana_city":"ｻﾝｼﾞｮｳｼ","kana_address":"ﾋﾛﾃ","pref":"新潟県","city":"三条市","address":"広手"},
{"zip_code":"9550162","kana_pref":"ﾆｲｶﾞﾀｹﾝ","kana_city":"ｻﾝｼﾞｮｳｼ","kana_address":"ﾌｸｵｶ","pref":"新潟県","city":"三条市","address":"福岡"},
{"zip_code":"9550813","kana_pref":"ﾆｲｶﾞﾀｹﾝ","kana_city":"ｻﾝｼﾞｮｳｼ","kana_address":"ﾌｸﾛ","pref":"新潟県","city":"三条市","address":"袋"},
{"zip_code":"9550071","kana_pref":"ﾆｲｶﾞﾀｹﾝ","kana_city":"ｻﾝｼﾞｮｳｼ","kana_address":"ﾎﾝﾁｮｳ","pref":"新潟県","city":"三条市","address":"本町"},
{"zip_code":"9550101","kana_pref":"ﾆｲｶﾞﾀｹﾝ","kana_city":"ｻﾝｼﾞｮｳｼ","kana_address":"ﾏｶﾞﾘﾀﾆ","pref":"新潟県","city":"三条市","address":"曲谷"},
{"zip_code":"9550864","kana_pref":"ﾆｲｶﾞﾀｹﾝ","kana_city":"ｻﾝｼﾞｮｳｼ","kana_address":"ﾏｶﾞﾘﾌﾁ","pref":"新潟県","city":"三条市","address":"曲渕"},
{"zip_code":"9550031","kana_pref":"ﾆｲｶﾞﾀｹﾝ","kana_city":"ｻﾝｼﾞｮｳｼ","kana_address":"ﾏﾂﾉｷﾁｮｳ","pref":"新潟県","city":"三条市","address":"松ノ木町"},
{"zip_code":"9550022","kana_pref":"ﾆｲｶﾞﾀｹﾝ","kana_city":"ｻﾝｼﾞｮｳｼ","kana_address":"ﾐｽﾞﾎ","pref":"新潟県","city":"三条市","address":"みずほ"},
{"zip_code":"9550015","kana_pref":"ﾆｲｶﾞﾀｹﾝ","kana_city":"ｻﾝｼﾞｮｳｼ","kana_address":"ﾐﾂﾔﾅｷﾞ","pref":"新潟県","city":"三条市","address":"三柳"},
{"zip_code":"9550845","kana_pref":"ﾆｲｶﾞﾀｹﾝ","kana_city":"ｻﾝｼﾞｮｳｼ","kana_address":"ﾐﾄﾞﾘｶﾞｵｶ","pref":"新潟県","city":"三条市","address":"緑ケ丘"},
{"zip_code":"9550128","kana_pref":"ﾆｲｶﾞﾀｹﾝ","kana_city":"ｻﾝｼﾞｮｳｼ","kana_address":"ﾐﾅﾐｲﾓｶﾞﾜ","pref":"新潟県","city":"三条市","address":"南五百川"},
{"zip_code":"9550862","kana_pref":"ﾆｲｶﾞﾀｹﾝ","kana_city":"ｻﾝｼﾞｮｳｼ","kana_address":"ﾐﾅﾐｼﾝﾎﾞ","pref":"新潟県","city":"三条市","address":"南新保"},
{"zip_code":"9550106","kana_pref":"ﾆｲｶﾞﾀｹﾝ","kana_city":"ｻﾝｼﾞｮｳｼ","kana_address":"ﾐﾅﾐﾅｶ","pref":"新潟県","city":"三条市","address":"南中"},
{"zip_code":"9550811","kana_pref":"ﾆｲｶﾞﾀｹﾝ","kana_city":"ｻﾝｼﾞｮｳｼ","kana_address":"ﾐﾅﾐﾆｭｳｸﾞﾗ","pref":"新潟県","city":"三条市","address":"南入蔵"},
{"zip_code":"9550852","kana_pref":"ﾆｲｶﾞﾀｹﾝ","kana_city":"ｻﾝｼﾞｮｳｼ","kana_address":"ﾐﾅﾐﾖｯｶﾏﾁ","pref":"新潟県","city":"三条市","address":"南四日町"},
{"zip_code":"9550127","kana_pref":"ﾆｲｶﾞﾀｹﾝ","kana_city":"ｻﾝｼﾞｮｳｼ","kana_address":"ﾐｮｳｹﾞ","pref":"新潟県","city":"三条市","address":"名下"},
{"zip_code":"9550136","kana_pref":"ﾆｲｶﾞﾀｹﾝ","kana_city":"ｻﾝｼﾞｮｳｼ","kana_address":"ﾓｸﾞﾗﾀﾞﾆ","pref":"新潟県","city":"三条市","address":"葎谷"},
{"zip_code":"9550072","kana_pref":"ﾆｲｶﾞﾀｹﾝ","kana_city":"ｻﾝｼﾞｮｳｼ","kana_address":"ﾓﾄﾏﾁ","pref":"新潟県","city":"三条市","address":"元町"},
{"zip_code":"9550116","kana_pref":"ﾆｲｶﾞﾀｹﾝ","kana_city":"ｻﾝｼﾞｮｳｼ","kana_address":"ﾓﾘﾏﾁ","pref":"新潟県","city":"三条市","address":"森町"},
{"zip_code":"9550002","kana_pref":"ﾆｲｶﾞﾀｹﾝ","kana_city":"ｻﾝｼﾞｮｳｼ","kana_address":"ﾔﾅｶﾞﾜｼﾝﾃﾞﾝ","pref":"新潟県","city":"三条市","address":"柳川新田"},
{"zip_code":"9550024","kana_pref":"ﾆｲｶﾞﾀｹﾝ","kana_city":"ｻﾝｼﾞｮｳｼ","kana_address":"ﾔﾅｷﾞｻﾜ","pref":"新潟県","city":"三条市","address":"柳沢"},
{"zip_code":"9550003","kana_pref":"ﾆｲｶﾞﾀｹﾝ","kana_city":"ｻﾝｼﾞｮｳｼ","kana_address":"ﾔﾅｷﾞﾊﾞｼﾝﾃﾞﾝ","pref":"新潟県","city":"三条市","address":"柳場新田"},
{"zip_code":"9550841","kana_pref":"ﾆｲｶﾞﾀｹﾝ","kana_city":"ｻﾝｼﾞｮｳｼ","kana_address":"ﾕﾘ","pref":"新潟県","city":"三条市","address":"由利"},
{"zip_code":"9550064","kana_pref":"ﾆｲｶﾞﾀｹﾝ","kana_city":"ｻﾝｼﾞｮｳｼ","kana_address":"ﾖｺﾁｮｳ","pref":"新潟県","city":"三条市","address":"横町"},
{"zip_code":"9550805","kana_pref":"ﾆｲｶﾞﾀｹﾝ","kana_city":"ｻﾝｼﾞｮｳｼ","kana_address":"ﾖｼﾀﾞ","pref":"新潟県","city":"三条市","address":"吉田"},
{"zip_code":"9550854","kana_pref":"ﾆｲｶﾞﾀｹﾝ","kana_city":"ｻﾝｼﾞｮｳｼ","kana_address":"ﾖｯｶﾏﾁ","pref":"新潟県","city":"三条市","address":"四日町"}]}