{"zip_code":[
{"zip_code":"9560000","kana_pref":"ﾆｲｶﾞﾀｹﾝ","kana_city":"ﾆｲｶﾞﾀｼｱｷﾊｸ","kana_address":"","pref":"新潟県","city":"新潟市秋葉区","address":""},
{"zip_code":"9560017","kana_pref":"ﾆｲｶﾞﾀｹﾝ","kana_city":"ﾆｲｶﾞﾀｼｱｷﾊｸ","kana_address":"ｱｵﾊﾞﾄﾞｵﾘ","pref":"新潟県","city":"新潟市秋葉区","address":"あおば通"},
{"zip_code":"9560832","kana_pref":"ﾆｲｶﾞﾀｹﾝ","kana_city":"ﾆｲｶﾞﾀｼｱｷﾊｸ","kana_address":"ｱｷﾊ","pref":"新潟県","city":"新潟市秋葉区","address":"秋葉"},
{"zip_code":"9560835","kana_pref":"ﾆｲｶﾞﾀｹﾝ","kana_city":"ﾆｲｶﾞﾀｼｱｷﾊｸ","kana_address":"ｱｻﾋ","pref":"新潟県","city":"新潟市秋葉区","address":"朝日"},
{"zip_code":"9560114","kana_pref":"ﾆｲｶﾞﾀｹﾝ","kana_city":"ﾆｲｶﾞﾀｼｱｷﾊｸ","kana_address":"ｱﾏｶﾞｻﾜ","pref":"新潟県","city":"新潟市秋葉区","address":"天ヶ沢"},
{"zip_code":"9560824","kana_pref":"ﾆｲｶﾞﾀｹﾝ","kana_city":"ﾆｲｶﾞﾀｼｱｷﾊｸ","kana_address":"ｲﾁｼﾝ","pref":"新潟県","city":"新潟市秋葉区","address":"市新"},
{"zip_code":"9560002","kana_pref":"ﾆｲｶﾞﾀｹﾝ","kana_city":"ﾆｲｶﾞﾀｼｱｷﾊｸ","kana_address":"ｲﾁﾉｾ","pref":"新潟県","city":"新潟市秋葉区","address":"市之瀬"},
{"zip_code":"9560853","kana_pref":"ﾆｲｶﾞﾀｹﾝ","kana_city":"ﾆｲｶﾞﾀｼｱｷﾊｸ","kana_address":"ｲﾔﾅｷﾞ","pref":"新潟県","city":"新潟市秋葉区","address":"飯柳"},
{"zip_code":"9560043","kana_pref":"ﾆｲｶﾞﾀｹﾝ","kana_city":"ﾆｲｶﾞﾀｼｱｷﾊｸ","kana_address":"ｳﾒﾉｷ","pref":"新潟県","city":"新潟市秋葉区","address":"梅ノ木"},
{"zip_code":"9560044","kana_pref":"ﾆｲｶﾞﾀｹﾝ","kana_city":"ﾆｲｶﾞﾀｼｱｷﾊｸ","kana_address":"ｳﾗｺﾞﾔ","pref":"新潟県","city":"新潟市秋葉区","address":"浦興野"},
{"zip_code":"9560054","kana_pref":"ﾆｲｶﾞﾀｹﾝ","kana_city":"ﾆｲｶﾞﾀｼｱｷﾊｸ","kana_address":"ｵｵｱｷ","pref":"新潟県","city":"新潟市秋葉区","address":"大秋"},
{"zip_code":"9560004","kana_pref":"ﾆｲｶﾞﾀｹﾝ","kana_city":"ﾆｲｶﾞﾀｼｱｷﾊｸ","kana_address":"ｵｵｼﾞｶ","pref":"新潟県","city":"新潟市秋葉区","address":"大鹿"},
{"zip_code":"9560827","kana_pref":"ﾆｲｶﾞﾀｹﾝ","kana_city":"ﾆｲｶﾞﾀｼｱｷﾊｸ","kana_address":"ｵｵｾｷ","pref":"新潟県","city":"新潟市秋葉区","address":"大関"},
{"zip_code":"9560826","kana_pref":"ﾆｲｶﾞﾀｹﾝ","kana_city":"ﾆｲｶﾞﾀｼｱｷﾊｸ","kana_address":"ｵｶﾀﾞ","pref":"新潟県","city":"新潟市秋葉区","address":"岡田"},
{"zip_code":"9560804","kana_pref":"ﾆｲｶﾞﾀｹﾝ","kana_city":"ﾆｲｶﾞﾀｼｱｷﾊｸ","kana_address":"ｵｷﾞｼﾞﾏ","pref":"新潟県","city":"新潟市秋葉区","address":"荻島"},
{"zip_code":"9560012","kana_pref":"ﾆｲｶﾞﾀｹﾝ","kana_city":"ﾆｲｶﾞﾀｼｱｷﾊｸ","kana_address":"ｵｷﾞﾉﾁｮｳ","pref":"新潟県","city":"新潟市秋葉区","address":"荻野町"},
{"zip_code":"9560003","kana_pref":"ﾆｲｶﾞﾀｹﾝ","kana_city":"ﾆｲｶﾞﾀｼｱｷﾊｸ","kana_address":"ｵｻﾜﾘ","pref":"新潟県","city":"新潟市秋葉区","address":"長割"},
{"zip_code":"9560001","kana_pref":"ﾆｲｶﾞﾀｹﾝ","kana_city":"ﾆｲｶﾞﾀｼｱｷﾊｸ","kana_address":"ｶｸﾛﾂﾞ","pref":"新潟県","city":"新潟市秋葉区","address":"覚路津"},
{"zip_code":"9560851","kana_pref":"ﾆｲｶﾞﾀｹﾝ","kana_city":"ﾆｲｶﾞﾀｼｱｷﾊｸ","kana_address":"ｶﾅｻﾞﾜﾁｮｳ","pref":"新潟県","city":"新潟市秋葉区","address":"金沢町"},
{"zip_code":"9560845","kana_pref":"ﾆｲｶﾞﾀｹﾝ","kana_city":"ﾆｲｶﾞﾀｼｱｷﾊｸ","kana_address":"ｶﾅﾂﾞ","pref":"新潟県","city":"新潟市秋葉区","address":"金津"},
{"zip_code":"9560823","kana_pref":"ﾆｲｶﾞﾀｹﾝ","kana_city":"ﾆｲｶﾞﾀｼｱｷﾊｸ","kana_address":"ｶﾅﾔ","pref":"新潟県","city":"新潟市秋葉区","address":"金屋"},
{"zip_code":"9560115","kana_pref":"ﾆｲｶﾞﾀｹﾝ","kana_city":"ﾆｲｶﾞﾀｼｱｷﾊｸ","kana_address":"ｶﾏｸﾗ","pref":"新潟県","city":"新潟市秋葉区","address":"鎌倉"},
{"zip_code":"9560852","kana_pref":"ﾆｲｶﾞﾀｹﾝ","kana_city":"ﾆｲｶﾞﾀｼｱｷﾊｸ","kana_address":"ｶﾞﾗﾒｷ","pref":"新潟県","city":"新潟市秋葉区","address":"柄目木"},
{"zip_code":"9560015","kana_pref":"ﾆｲｶﾞﾀｹﾝ","kana_city":"ﾆｲｶﾞﾀｼｱｷﾊｸ","kana_address":"ｶﾜｸﾞﾁ","pref":"新潟県","city":"新潟市秋葉区","address":"川口"},
{"zip_code":"9560846","kana_pref":"ﾆｲｶﾞﾀｹﾝ","kana_city":"ﾆｲｶﾞﾀｼｱｷﾊｸ","kana_address":"ｶﾞﾜｹｻﾜ","pref":"新潟県","city":"新潟市秋葉区","address":"蒲ヶ沢"},
{"zip_code":"9560055","kana_pref":"ﾆｲｶﾞﾀｹﾝ","kana_city":"ﾆｲｶﾞﾀｼｱｷﾊｸ","kana_address":"ｶﾜﾈ","pref":"新潟県","city":"新潟市秋葉区","address":"川根"},
{"zip_code":"9560828","kana_pref":"ﾆｲｶﾞﾀｹﾝ","kana_city":"ﾆｲｶﾞﾀｼｱｷﾊｸ","kana_address":"ｷﾀ","pref":"新潟県","city":"新潟市秋葉区","address":"北"},
{"zip_code":"9560026","kana_pref":"ﾆｲｶﾞﾀｹﾝ","kana_city":"ﾆｲｶﾞﾀｼｱｷﾊｸ","kana_address":"ｷﾀｶﾞﾀ","pref":"新潟県","city":"新潟市秋葉区","address":"北潟"},
{"zip_code":"9560861","kana_pref":"ﾆｲｶﾞﾀｹﾝ","kana_city":"ﾆｲｶﾞﾀｼｱｷﾊｸ","kana_address":"ｷﾀｶﾐ","pref":"新潟県","city":"新潟市秋葉区","address":"北上"},
{"zip_code":"9560021","kana_pref":"ﾆｲｶﾞﾀｹﾝ","kana_city":"ﾆｲｶﾞﾀｼｱｷﾊｸ","kana_address":"ｷﾀｶﾐｼﾝﾃﾞﾝ","pref":"新潟県","city":"新潟市秋葉区","address":"北上新田"},
{"zip_code":"9560833","kana_pref":"ﾆｲｶﾞﾀｹﾝ","kana_city":"ﾆｲｶﾞﾀｼｱｷﾊｸ","kana_address":"ｸｿｳｽﾞﾁｮｳ","pref":"新潟県","city":"新潟市秋葉区","address":"草水町"},
{"zip_code":"9560005","kana_pref":"ﾆｲｶﾞﾀｹﾝ","kana_city":"ﾆｲｶﾞﾀｼｱｷﾊｸ","kana_address":"ｸﾘﾐﾔ","pref":"新潟県","city":"新潟市秋葉区","address":"栗宮"},
{"zip_code":"9560011","kana_pref":"ﾆｲｶﾞﾀｹﾝ","kana_city":"ﾆｲｶﾞﾀｼｱｷﾊｸ","kana_address":"ｸﾙﾏﾊﾞ","pref":"新潟県","city":"新潟市秋葉区","address":"車場"},
{"zip_code":"9560016","kana_pref":"ﾆｲｶﾞﾀｹﾝ","kana_city":"ﾆｲｶﾞﾀｼｱｷﾊｸ","kana_address":"ｺｶﾞﾈﾁｮｳ","pref":"新潟県","city":"新潟市秋葉区","address":"こがね町"},
{"zip_code":"9560834","kana_pref":"ﾆｲｶﾞﾀｹﾝ","kana_city":"ﾆｲｶﾞﾀｼｱｷﾊｸ","kana_address":"ｺｸﾞﾁ","pref":"新潟県","city":"新潟市秋葉区","address":"小口"},
{"zip_code":"9560101","kana_pref":"ﾆｲｶﾞﾀｹﾝ","kana_city":"ﾆｲｶﾞﾀｼｱｷﾊｸ","kana_address":"ｺｽﾄﾞ","pref":"新潟県","city":"新潟市秋葉区","address":"小須戸"},
{"zip_code":"9560025","kana_pref":"ﾆｲｶﾞﾀｹﾝ","kana_city":"ﾆｲｶﾞﾀｼｱｷﾊｸ","kana_address":"ｺﾀﾞ","pref":"新潟県","city":"新潟市秋葉区","address":"古田"},
{"zip_code":"9560817","kana_pref":"ﾆｲｶﾞﾀｹﾝ","kana_city":"ﾆｲｶﾞﾀｼｱｷﾊｸ","kana_address":"ｺﾀﾞﾉｳﾁｵｵﾉﾋﾞﾗｷ","pref":"新潟県","city":"新潟市秋葉区","address":"古田ノ内大野開"},
{"zip_code":"9560006","kana_pref":"ﾆｲｶﾞﾀｹﾝ","kana_city":"ﾆｲｶﾞﾀｼｱｷﾊｸ","kana_address":"ｺﾄﾞｶﾐｸﾞﾐ","pref":"新潟県","city":"新潟市秋葉区","address":"小戸上組"},
{"zip_code":"9560007","kana_pref":"ﾆｲｶﾞﾀｹﾝ","kana_city":"ﾆｲｶﾞﾀｼｱｷﾊｸ","kana_address":"ｺﾄﾞｼﾓｸﾞﾐ","pref":"新潟県","city":"新潟市秋葉区","address":"小戸下組"},
{"zip_code":"9560045","kana_pref":"ﾆｲｶﾞﾀｹﾝ","kana_city":"ﾆｲｶﾞﾀｼｱｷﾊｸ","kana_address":"ｺﾅｼﾊﾞ","pref":"新潟県","city":"新潟市秋葉区","address":"子成場"},
{"zip_code":"9560122","kana_pref":"ﾆｲｶﾞﾀｹﾝ","kana_city":"ﾆｲｶﾞﾀｼｱｷﾊｸ","kana_address":"ｺﾑｶｲ","pref":"新潟県","city":"新潟市秋葉区","address":"小向"},
{"zip_code":"9560041","kana_pref":"ﾆｲｶﾞﾀｹﾝ","kana_city":"ﾆｲｶﾞﾀｼｱｷﾊｸ","kana_address":"ｺﾔﾊﾞ","pref":"新潟県","city":"新潟市秋葉区","address":"小屋場"},
{"zip_code":"9560022","kana_pref":"ﾆｲｶﾞﾀｹﾝ","kana_city":"ﾆｲｶﾞﾀｼｱｷﾊｸ","kana_address":"ｻﾂｷﾉ","pref":"新潟県","city":"新潟市秋葉区","address":"さつき野"},
{"zip_code":"9560051","kana_pref":"ﾆｲｶﾞﾀｹﾝ","kana_city":"ﾆｲｶﾞﾀｼｱｷﾊｸ","kana_address":"ｻﾝﾏｲｶﾞﾀ","pref":"新潟県","city":"新潟市秋葉区","address":"三枚潟"},
{"zip_code":"9560844","kana_pref":"ﾆｲｶﾞﾀｹﾝ","kana_city":"ﾆｲｶﾞﾀｼｱｷﾊｸ","kana_address":"ｼｵﾀﾞﾆ","pref":"新潟県","city":"新潟市秋葉区","address":"塩谷"},
{"zip_code":"9560866","kana_pref":"ﾆｲｶﾞﾀｹﾝ","kana_city":"ﾆｲｶﾞﾀｼｱｷﾊｸ","kana_address":"ｼﾓｺﾞﾔﾁｮｳ","pref":"新潟県","city":"新潟市秋葉区","address":"下興野町"},
{"zip_code":"9560825","kana_pref":"ﾆｲｶﾞﾀｹﾝ","kana_city":"ﾆｲｶﾞﾀｼｱｷﾊｸ","kana_address":"ｼﾓｼﾝ","pref":"新潟県","city":"新潟市秋葉区","address":"下新"},
{"zip_code":"9560033","kana_pref":"ﾆｲｶﾞﾀｹﾝ","kana_city":"ﾆｲｶﾞﾀｼｱｷﾊｸ","kana_address":"ｼﾝｴｲﾁｮｳ","pref":"新潟県","city":"新潟市秋葉区","address":"新栄町"},
{"zip_code":"9560815","kana_pref":"ﾆｲｶﾞﾀｹﾝ","kana_city":"ﾆｲｶﾞﾀｼｱｷﾊｸ","kana_address":"ｼﾝｶﾅｻﾞﾜﾁｮｳ","pref":"新潟県","city":"新潟市秋葉区","address":"新金沢町"},
{"zip_code":"9560822","kana_pref":"ﾆｲｶﾞﾀｹﾝ","kana_city":"ﾆｲｶﾞﾀｼｱｷﾊｸ","kana_address":"ｼﾝｺﾞﾔ","pref":"新潟県","city":"新潟市秋葉区","address":"新郷屋"},
{"zip_code":"9560112","kana_pref":"ﾆｲｶﾞﾀｹﾝ","kana_city":"ﾆｲｶﾞﾀｼｱｷﾊｸ","kana_address":"ｼﾝﾎﾞ","pref":"新潟県","city":"新潟市秋葉区","address":"新保"},
{"zip_code":"9560862","kana_pref":"ﾆｲｶﾞﾀｹﾝ","kana_city":"ﾆｲｶﾞﾀｼｱｷﾊｸ","kana_address":"ｼﾝﾏﾁ","pref":"新潟県","city":"新潟市秋葉区","address":"新町"},
{"zip_code":"9560123","kana_pref":"ﾆｲｶﾞﾀｹﾝ","kana_city":"ﾆｲｶﾞﾀｼｱｷﾊｸ","kana_address":"ｽｲﾀ","pref":"新潟県","city":"新潟市秋葉区","address":"水田"},
{"zip_code":"9560865","kana_pref":"ﾆｲｶﾞﾀｹﾝ","kana_city":"ﾆｲｶﾞﾀｼｱｷﾊｸ","kana_address":"ｾﾞﾝﾄﾞｳﾁｮｳ","pref":"新潟県","city":"新潟市秋葉区","address":"善道町"},
{"zip_code":"9560836","kana_pref":"ﾆｲｶﾞﾀｹﾝ","kana_city":"ﾆｲｶﾞﾀｼｱｷﾊｸ","kana_address":"ﾀｲ","pref":"新潟県","city":"新潟市秋葉区","address":"田家"},
{"zip_code":"9560813","kana_pref":"ﾆｲｶﾞﾀｹﾝ","kana_city":"ﾆｲｶﾞﾀｼｱｷﾊｸ","kana_address":"ﾀﾞｲｱﾝｼﾞ","pref":"新潟県","city":"新潟市秋葉区","address":"大安寺"},
{"zip_code":"9560801","kana_pref":"ﾆｲｶﾞﾀｹﾝ","kana_city":"ﾆｲｶﾞﾀｼｱｷﾊｸ","kana_address":"ﾀﾞｲｿﾞｳ","pref":"新潟県","city":"新潟市秋葉区","address":"大蔵"},
{"zip_code":"9560854","kana_pref":"ﾆｲｶﾞﾀｹﾝ","kana_city":"ﾆｲｶﾞﾀｼｱｷﾊｸ","kana_address":"ﾀｷﾔﾁｮｳ","pref":"新潟県","city":"新潟市秋葉区","address":"滝谷町"},
{"zip_code":"9560855","kana_pref":"ﾆｲｶﾞﾀｹﾝ","kana_city":"ﾆｲｶﾞﾀｼｱｷﾊｸ","kana_address":"ﾀｷﾔﾎﾝﾁｮｳ","pref":"新潟県","city":"新潟市秋葉区","address":"滝谷本町"},
{"zip_code":"9560013","kana_pref":"ﾆｲｶﾞﾀｹﾝ","kana_city":"ﾆｲｶﾞﾀｼｱｷﾊｸ","kana_address":"ﾀｼﾞﾏ","pref":"新潟県","city":"新潟市秋葉区","address":"田島"},
{"zip_code":"9560046","kana_pref":"ﾆｲｶﾞﾀｹﾝ","kana_city":"ﾆｲｶﾞﾀｼｱｷﾊｸ","kana_address":"ﾃﾞﾄ","pref":"新潟県","city":"新潟市秋葉区","address":"出戸"},
{"zip_code":"9560831","kana_pref":"ﾆｲｶﾞﾀｹﾝ","kana_city":"ﾆｲｶﾞﾀｼｱｷﾊｸ","kana_address":"ﾅｶｻﾞﾜﾁｮｳ","pref":"新潟県","city":"新潟市秋葉区","address":"中沢町"},
{"zip_code":"9560812","kana_pref":"ﾆｲｶﾞﾀｹﾝ","kana_city":"ﾆｲｶﾞﾀｼｱｷﾊｸ","kana_address":"ﾅｶｼﾝﾃﾞﾝ","pref":"新潟県","city":"新潟市秋葉区","address":"中新田"},
{"zip_code":"9560805","kana_pref":"ﾆｲｶﾞﾀｹﾝ","kana_city":"ﾆｲｶﾞﾀｼｱｷﾊｸ","kana_address":"ﾅｶﾉ","pref":"新潟県","city":"新潟市秋葉区","address":"中野"},
{"zip_code":"9560036","kana_pref":"ﾆｲｶﾞﾀｹﾝ","kana_city":"ﾆｲｶﾞﾀｼｱｷﾊｸ","kana_address":"ﾅｶﾑﾗ","pref":"新潟県","city":"新潟市秋葉区","address":"中村"},
{"zip_code":"9560802","kana_pref":"ﾆｲｶﾞﾀｹﾝ","kana_city":"ﾆｲｶﾞﾀｼｱｷﾊｸ","kana_address":"ﾅﾉｶﾏﾁ","pref":"新潟県","city":"新潟市秋葉区","address":"七日町"},
{"zip_code":"9560031","kana_pref":"ﾆｲｶﾞﾀｹﾝ","kana_city":"ﾆｲｶﾞﾀｼｱｷﾊｸ","kana_address":"ﾆｲﾂ","pref":"新潟県","city":"新潟市秋葉区","address":"新津"},
{"zip_code":"9560816","kana_pref":"ﾆｲｶﾞﾀｹﾝ","kana_city":"ﾆｲｶﾞﾀｼｱｷﾊｸ","kana_address":"ﾆｲﾂﾋｶﾞｼﾁｮｳ","pref":"新潟県","city":"新潟市秋葉区","address":"新津東町"},
{"zip_code":"9560864","kana_pref":"ﾆｲｶﾞﾀｹﾝ","kana_city":"ﾆｲｶﾞﾀｼｱｷﾊｸ","kana_address":"ﾆｲﾂﾎﾝﾁｮｳ","pref":"新潟県","city":"新潟市秋葉区","address":"新津本町"},
{"zip_code":"9560034","kana_pref":"ﾆｲｶﾞﾀｹﾝ","kana_city":"ﾆｲｶﾞﾀｼｱｷﾊｸ","kana_address":"ﾆｲﾂﾐﾄﾞﾘﾁｮｳ","pref":"新潟県","city":"新潟市秋葉区","address":"新津緑町"},
{"zip_code":"9560057","kana_pref":"ﾆｲｶﾞﾀｹﾝ","kana_city":"ﾆｲｶﾞﾀｼｱｷﾊｸ","kana_address":"ﾆｲﾂﾖﾂｺﾞﾔ","pref":"新潟県","city":"新潟市秋葉区","address":"新津四ツ興野"},
{"zip_code":"9560818","kana_pref":"ﾆｲｶﾞﾀｹﾝ","kana_city":"ﾆｲｶﾞﾀｼｱｷﾊｸ","kana_address":"ﾆｼｶﾅｻﾞﾜ","pref":"新潟県","city":"新潟市秋葉区","address":"西金沢"},
{"zip_code":"9560842","kana_pref":"ﾆｲｶﾞﾀｹﾝ","kana_city":"ﾆｲｶﾞﾀｼｱｷﾊｸ","kana_address":"ﾆｼｼﾞﾏ","pref":"新潟県","city":"新潟市秋葉区","address":"西島"},
{"zip_code":"9560037","kana_pref":"ﾆｲｶﾞﾀｹﾝ","kana_city":"ﾆｲｶﾞﾀｼｱｷﾊｸ","kana_address":"ﾆｼﾌﾙﾂ","pref":"新潟県","city":"新潟市秋葉区","address":"西古津"},
{"zip_code":"9560863","kana_pref":"ﾆｲｶﾞﾀｹﾝ","kana_city":"ﾆｲｶﾞﾀｼｱｷﾊｸ","kana_address":"ﾆｯﾎﾟｳﾁｮｳ","pref":"新潟県","city":"新潟市秋葉区","address":"日宝町"},
{"zip_code":"9560053","kana_pref":"ﾆｲｶﾞﾀｹﾝ","kana_city":"ﾆｲｶﾞﾀｼｱｷﾊｸ","kana_address":"ﾉｶﾞﾀ","pref":"新潟県","city":"新潟市秋葉区","address":"野方"},
{"zip_code":"9560814","kana_pref":"ﾆｲｶﾞﾀｹﾝ","kana_city":"ﾆｲｶﾞﾀｼｱｷﾊｸ","kana_address":"ﾋｶﾞｼｶﾅｻﾞﾜ","pref":"新潟県","city":"新潟市秋葉区","address":"東金沢"},
{"zip_code":"9560841","kana_pref":"ﾆｲｶﾞﾀｹﾝ","kana_city":"ﾆｲｶﾞﾀｼｱｷﾊｸ","kana_address":"ﾋｶﾞｼｼﾞﾏ","pref":"新潟県","city":"新潟市秋葉区","address":"東島"},
{"zip_code":"9560014","kana_pref":"ﾆｲｶﾞﾀｹﾝ","kana_city":"ﾆｲｶﾞﾀｼｱｷﾊｸ","kana_address":"ﾌｸｼﾞﾏ","pref":"新潟県","city":"新潟市秋葉区","address":"福島"},
{"zip_code":"9560116","kana_pref":"ﾆｲｶﾞﾀｹﾝ","kana_city":"ﾆｲｶﾞﾀｼｱｷﾊｸ","kana_address":"ﾌﾅﾄ","pref":"新潟県","city":"新潟市秋葉区","address":"舟戸"},
{"zip_code":"9560847","kana_pref":"ﾆｲｶﾞﾀｹﾝ","kana_city":"ﾆｲｶﾞﾀｼｱｷﾊｸ","kana_address":"ﾌﾙﾂ","pref":"新潟県","city":"新潟市秋葉区","address":"古津"},
{"zip_code":"9560035","kana_pref":"ﾆｲｶﾞﾀｹﾝ","kana_city":"ﾆｲｶﾞﾀｼｱｷﾊｸ","kana_address":"ﾎﾄﾞｼﾞﾏ","pref":"新潟県","city":"新潟市秋葉区","address":"程島"},
{"zip_code":"9560117","kana_pref":"ﾆｲｶﾞﾀｹﾝ","kana_city":"ﾆｲｶﾞﾀｼｱｷﾊｸ","kana_address":"ﾏﾂｶﾞｵｶ","pref":"新潟県","city":"新潟市秋葉区","address":"松ヶ丘"},
{"zip_code":"9560811","kana_pref":"ﾆｲｶﾞﾀｹﾝ","kana_city":"ﾆｲｶﾞﾀｼｱｷﾊｸ","kana_address":"ﾏﾝｶﾞﾝｼﾞ","pref":"新潟県","city":"新潟市秋葉区","address":"満願寺"},
{"zip_code":"9560806","kana_pref":"ﾆｲｶﾞﾀｹﾝ","kana_city":"ﾆｲｶﾞﾀｼｱｷﾊｸ","kana_address":"ﾐｿﾗﾉ","pref":"新潟県","city":"新潟市秋葉区","address":"みそら野"},
{"zip_code":"9560052","kana_pref":"ﾆｲｶﾞﾀｹﾝ","kana_city":"ﾆｲｶﾞﾀｼｱｷﾊｸ","kana_address":"ﾐﾂﾔ","pref":"新潟県","city":"新潟市秋葉区","address":"三津屋"},
{"zip_code":"9560032","kana_pref":"ﾆｲｶﾞﾀｹﾝ","kana_city":"ﾆｲｶﾞﾀｼｱｷﾊｸ","kana_address":"ﾐﾅﾐﾁｮｳ","pref":"新潟県","city":"新潟市秋葉区","address":"南町"},
{"zip_code":"9560023","kana_pref":"ﾆｲｶﾞﾀｹﾝ","kana_city":"ﾆｲｶﾞﾀｼｱｷﾊｸ","kana_address":"ﾐﾕｷﾁｮｳ","pref":"新潟県","city":"新潟市秋葉区","address":"美幸町"},
{"zip_code":"9560027","kana_pref":"ﾆｲｶﾞﾀｹﾝ","kana_city":"ﾆｲｶﾞﾀｼｱｷﾊｸ","kana_address":"ﾐﾖｼ","pref":"新潟県","city":"新潟市秋葉区","address":"美善"},
{"zip_code":"9560803","kana_pref":"ﾆｲｶﾞﾀｹﾝ","kana_city":"ﾆｲｶﾞﾀｼｱｷﾊｸ","kana_address":"ﾑｽﾌﾞ","pref":"新潟県","city":"新潟市秋葉区","address":"結"},
{"zip_code":"9560113","kana_pref":"ﾆｲｶﾞﾀｹﾝ","kana_city":"ﾆｲｶﾞﾀｼｱｷﾊｸ","kana_address":"ﾔｼﾛﾀﾞ","pref":"新潟県","city":"新潟市秋葉区","address":"矢代田"},
{"zip_code":"9560024","kana_pref":"ﾆｲｶﾞﾀｹﾝ","kana_city":"ﾆｲｶﾞﾀｼｱｷﾊｸ","kana_address":"ﾔﾏﾔﾁｮｳ","pref":"新潟県","city":"新潟市秋葉区","address":"山谷町"},
{"zip_code":"9560121","kana_pref":"ﾆｲｶﾞﾀｹﾝ","kana_city":"ﾆｲｶﾞﾀｼｱｷﾊｸ","kana_address":"ﾖｺｶﾞﾜﾊﾏ","pref":"新潟県","city":"新潟市秋葉区","address":"横川浜"},
{"zip_code":"9560837","kana_pref":"ﾆｲｶﾞﾀｹﾝ","kana_city":"ﾆｲｶﾞﾀｼｱｷﾊｸ","kana_address":"ﾖｼｵｶﾁｮｳ","pref":"新潟県","city":"新潟市秋葉区","address":"吉岡町"},
{"zip_code":"9560111","kana_pref":"ﾆｲｶﾞﾀｹﾝ","kana_city":"ﾆｲｶﾞﾀｼｱｷﾊｸ","kana_address":"ﾘｭｳｹﾞﾝ","pref":"新潟県","city":"新潟市秋葉区","address":"竜玄"},
{"zip_code":"9560821","kana_pref":"ﾆｲｶﾞﾀｹﾝ","kana_city":"ﾆｲｶﾞﾀｼｱｷﾊｸ","kana_address":"ﾛｸｺﾞｳ","pref":"新潟県","city":"新潟市秋葉区","address":"六郷"},
{"zip_code":"9560056","kana_pref":"ﾆｲｶﾞﾀｹﾝ","kana_city":"ﾆｲｶﾞﾀｼｱｷﾊｸ","kana_address":"ﾜﾗﾋﾞｿﾈ","pref":"新潟県","city":"新潟市秋葉区","address":"蕨曽根"},
{"zip_code":"9560843","kana_pref":"ﾆｲｶﾞﾀｹﾝ","kana_city":"ﾆｲｶﾞﾀｼｱｷﾊｸ","kana_address":"ﾜﾘﾏﾁ","pref":"新潟県","city":"新潟市秋葉区","address":"割町"}]}