{"zip_code":[
{"zip_code":"9570000","kana_pref":"ﾆｲｶﾞﾀｹﾝ","kana_city":"ｼﾊﾞﾀｼ","kana_address":"","pref":"新潟県","city":"新発田市","address":""},
{"zip_code":"9570045","kana_pref":"ﾆｲｶﾞﾀｹﾝ","kana_city":"ｼﾊﾞﾀｼ","kana_address":"ｱﾗｶﾜ","pref":"新潟県","city":"新発田市","address":"荒川"},
{"zip_code":"9570084","kana_pref":"ﾆｲｶﾞﾀｹﾝ","kana_city":"ｼﾊﾞﾀｼ","kana_address":"ｲｲｼﾞﾏｺｳ","pref":"新潟県","city":"新発田市","address":"飯島甲"},
{"zip_code":"9570085","kana_pref":"ﾆｲｶﾞﾀｹﾝ","kana_city":"ｼﾊﾞﾀｼ","kana_address":"ｲｲｼﾞﾏｵﾂ","pref":"新潟県","city":"新発田市","address":"飯島乙"},
{"zip_code":"9570086","kana_pref":"ﾆｲｶﾞﾀｹﾝ","kana_city":"ｼﾊﾞﾀｼ","kana_address":"ｲｲｼﾞﾏｼﾝﾃﾞﾝ","pref":"新潟県","city":"新発田市","address":"飯島新田"},
{"zip_code":"9570353","kana_pref":"ﾆｲｶﾞﾀｹﾝ","kana_city":"ｼﾊﾞﾀｼ","kana_address":"ｲｼｷ","pref":"新潟県","city":"新発田市","address":"石喜"},
{"zip_code":"9570021","kana_pref":"ﾆｲｶﾞﾀｹﾝ","kana_city":"ｼﾊﾞﾀｼ","kana_address":"ｲｼﾞﾐﾉ","pref":"新潟県","city":"新発田市","address":"五十公野"},
{"zip_code":"9570013","kana_pref":"ﾆｲｶﾞﾀｹﾝ","kana_city":"ｼﾊﾞﾀｼ","kana_address":"ｲﾀｼﾞｷ","pref":"新潟県","city":"新発田市","address":"板敷"},
{"zip_code":"9570344","kana_pref":"ﾆｲｶﾞﾀｹﾝ","kana_city":"ｼﾊﾞﾀｼ","kana_address":"ｲﾀﾔﾏ","pref":"新潟県","city":"新発田市","address":"板山"},
{"zip_code":"9570204","kana_pref":"ﾆｲｶﾞﾀｹﾝ","kana_city":"ｼﾊﾞﾀｼ","kana_address":"ｲﾅﾘｵｶ","pref":"新潟県","city":"新発田市","address":"稲荷岡"},
{"zip_code":"9570035","kana_pref":"ﾆｲｶﾞﾀｹﾝ","kana_city":"ｼﾊﾞﾀｼ","kana_address":"ｳｼｸﾋﾞ","pref":"新潟県","city":"新発田市","address":"丑首"},
{"zip_code":"9570042","kana_pref":"ﾆｲｶﾞﾀｹﾝ","kana_city":"ｼﾊﾞﾀｼ","kana_address":"ｳﾗ","pref":"新潟県","city":"新発田市","address":"浦"},
{"zip_code":"9570041","kana_pref":"ﾆｲｶﾞﾀｹﾝ","kana_city":"ｼﾊﾞﾀｼ","kana_address":"ｳﾗｼﾝﾃﾞﾝ","pref":"新潟県","city":"新発田市","address":"浦新田"},
{"zip_code":"9570037","kana_pref":"ﾆｲｶﾞﾀｹﾝ","kana_city":"ｼﾊﾞﾀｼ","kana_address":"ｴｸﾞﾁ","pref":"新潟県","city":"新発田市","address":"江口"},
{"zip_code":"9570043","kana_pref":"ﾆｲｶﾞﾀｹﾝ","kana_city":"ｼﾊﾞﾀｼ","kana_address":"ｵｵｻｷ","pref":"新潟県","city":"新発田市","address":"大崎"},
{"zip_code":"9570091","kana_pref":"ﾆｲｶﾞﾀｹﾝ","kana_city":"ｼﾊﾞﾀｼ","kana_address":"ｵｵﾀｼﾝﾃﾞﾝ","pref":"新潟県","city":"新発田市","address":"太田新田"},
{"zip_code":"9570465","kana_pref":"ﾆｲｶﾞﾀｹﾝ","kana_city":"ｼﾊﾞﾀｼ","kana_address":"ｵｵﾂｷ","pref":"新潟県","city":"新発田市","address":"大槻"},
{"zip_code":"9570052","kana_pref":"ﾆｲｶﾞﾀｹﾝ","kana_city":"ｼﾊﾞﾀｼ","kana_address":"ｵｵﾃﾏﾁ","pref":"新潟県","city":"新発田市","address":"大手町"},
{"zip_code":"9570347","kana_pref":"ﾆｲｶﾞﾀｹﾝ","kana_city":"ｼﾊﾞﾀｼ","kana_address":"ｵｵﾄﾞﾓ","pref":"新潟県","city":"新発田市","address":"大友"},
{"zip_code":"9570217","kana_pref":"ﾆｲｶﾞﾀｹﾝ","kana_city":"ｼﾊﾞﾀｼ","kana_address":"ｵｵﾅｶｼﾞﾏ","pref":"新潟県","city":"新発田市","address":"大中島"},
{"zip_code":"9570356","kana_pref":"ﾆｲｶﾞﾀｹﾝ","kana_city":"ｼﾊﾞﾀｼ","kana_address":"ｵｶﾀﾞ","pref":"新潟県","city":"新発田市","address":"岡田"},
{"zip_code":"9570224","kana_pref":"ﾆｲｶﾞﾀｹﾝ","kana_city":"ｼﾊﾞﾀｼ","kana_address":"ｵｶﾞﾜ","pref":"新潟県","city":"新発田市","address":"小川"},
{"zip_code":"9570064","kana_pref":"ﾆｲｶﾞﾀｹﾝ","kana_city":"ｼﾊﾞﾀｼ","kana_address":"ｵｸﾔﾏｼﾝﾎﾞ","pref":"新潟県","city":"新発田市","address":"奥山新保"},
{"zip_code":"9570345","kana_pref":"ﾆｲｶﾞﾀｹﾝ","kana_city":"ｼﾊﾞﾀｼ","kana_address":"ｵﾄﾞ","pref":"新潟県","city":"新発田市","address":"小戸"},
{"zip_code":"9570031","kana_pref":"ﾆｲｶﾞﾀｹﾝ","kana_city":"ｼﾊﾞﾀｼ","kana_address":"ｵﾄﾞﾓ","pref":"新潟県","city":"新発田市","address":"小友"},
{"zip_code":"9570034","kana_pref":"ﾆｲｶﾞﾀｹﾝ","kana_city":"ｼﾊﾞﾀｼ","kana_address":"ｵﾐ","pref":"新潟県","city":"新発田市","address":"小見"},
{"zip_code":"9570212","kana_pref":"ﾆｲｶﾞﾀｹﾝ","kana_city":"ｼﾊﾞﾀｼ","kana_address":"ｶﾀｷﾞﾘ","pref":"新潟県","city":"新発田市","address":"片桐"},
{"zip_code":"9570014","kana_pref":"ﾆｲｶﾞﾀｹﾝ","kana_city":"ｼﾊﾞﾀｼ","kana_address":"ｶﾅﾔ","pref":"新潟県","city":"新発田市","address":"金谷"},
{"zip_code":"9570464","kana_pref":"ﾆｲｶﾞﾀｹﾝ","kana_city":"ｼﾊﾞﾀｼ","kana_address":"ｶﾐｱｶﾀﾆ","pref":"新潟県","city":"新発田市","address":"上赤谷"},
{"zip_code":"9570334","kana_pref":"ﾆｲｶﾞﾀｹﾝ","kana_city":"ｼﾊﾞﾀｼ","kana_address":"ｶﾐｸｽｶﾞﾜ","pref":"新潟県","city":"新発田市","address":"上楠川"},
{"zip_code":"9570331","kana_pref":"ﾆｲｶﾞﾀｹﾝ","kana_city":"ｼﾊﾞﾀｼ","kana_address":"ｶﾐｻﾝｺｳ","pref":"新潟県","city":"新発田市","address":"上三光"},
{"zip_code":"9570024","kana_pref":"ﾆｲｶﾞﾀｹﾝ","kana_city":"ｼﾊﾞﾀｼ","kana_address":"ｶﾐｼﾝﾎﾞ","pref":"新潟県","city":"新発田市","address":"上新保"},
{"zip_code":"9570025","kana_pref":"ﾆｲｶﾞﾀｹﾝ","kana_city":"ｼﾊﾞﾀｼ","kana_address":"ｶﾐﾅｲﾀﾞｹ","pref":"新潟県","city":"新発田市","address":"上内竹"},
{"zip_code":"9570081","kana_pref":"ﾆｲｶﾞﾀｹﾝ","kana_city":"ｼﾊﾞﾀｼ","kana_address":"ｶﾐﾅｶｻﾞﾜ","pref":"新潟県","city":"新発田市","address":"上中沢"},
{"zip_code":"9570046","kana_pref":"ﾆｲｶﾞﾀｹﾝ","kana_city":"ｼﾊﾞﾀｼ","kana_address":"ｶﾐﾅｶﾔﾏ","pref":"新潟県","city":"新発田市","address":"上中山"},
{"zip_code":"9570343","kana_pref":"ﾆｲｶﾞﾀｹﾝ","kana_city":"ｼﾊﾞﾀｼ","kana_address":"ｶﾐﾊﾈﾂﾞ","pref":"新潟県","city":"新発田市","address":"上羽津"},
{"zip_code":"9570074","kana_pref":"ﾆｲｶﾞﾀｹﾝ","kana_city":"ｼﾊﾞﾀｼ","kana_address":"ｷﾀﾐﾉｸﾞﾁ","pref":"新潟県","city":"新発田市","address":"北蓑口"},
{"zip_code":"9570003","kana_pref":"ﾆｲｶﾞﾀｹﾝ","kana_city":"ｼﾊﾞﾀｼ","kana_address":"ｸﾜﾉｸﾞﾁ","pref":"新潟県","city":"新発田市","address":"桑ノ口"},
{"zip_code":"9570202","kana_pref":"ﾆｲｶﾞﾀｹﾝ","kana_city":"ｼﾊﾞﾀｼ","kana_address":"ｺﾀﾞ","pref":"新潟県","city":"新発田市","address":"古田"},
{"zip_code":"9570007","kana_pref":"ﾆｲｶﾞﾀｹﾝ","kana_city":"ｼﾊﾞﾀｼ","kana_address":"ｺﾌﾈﾁｮｳ","pref":"新潟県","city":"新発田市","address":"小舟町"},
{"zip_code":"9570082","kana_pref":"ﾆｲｶﾞﾀｹﾝ","kana_city":"ｼﾊﾞﾀｼ","kana_address":"ｻｻｷ","pref":"新潟県","city":"新発田市","address":"佐々木"},
{"zip_code":"9570011","kana_pref":"ﾆｲｶﾞﾀｹﾝ","kana_city":"ｼﾊﾞﾀｼ","kana_address":"ｼﾏｶﾞﾀ","pref":"新潟県","city":"新発田市","address":"島潟"},
{"zip_code":"9570335","kana_pref":"ﾆｲｶﾞﾀｹﾝ","kana_city":"ｼﾊﾞﾀｼ","kana_address":"ｼﾓｸｽｶﾞﾜ","pref":"新潟県","city":"新発田市","address":"下楠川"},
{"zip_code":"9570083","kana_pref":"ﾆｲｶﾞﾀｹﾝ","kana_city":"ｼﾊﾞﾀｼ","kana_address":"ｼﾓｺｳﾔ","pref":"新潟県","city":"新発田市","address":"下興野"},
{"zip_code":"9570336","kana_pref":"ﾆｲｶﾞﾀｹﾝ","kana_city":"ｼﾊﾞﾀｼ","kana_address":"ｼﾓｻﾝｺｳ","pref":"新潟県","city":"新発田市","address":"下三光"},
{"zip_code":"9570023","kana_pref":"ﾆｲｶﾞﾀｹﾝ","kana_city":"ｼﾊﾞﾀｼ","kana_address":"ｼﾓｼﾝﾎﾞ","pref":"新潟県","city":"新発田市","address":"下新保"},
{"zip_code":"9570354","kana_pref":"ﾆｲｶﾞﾀｹﾝ","kana_city":"ｼﾊﾞﾀｼ","kana_address":"ｼﾓﾀｶｾｷ","pref":"新潟県","city":"新発田市","address":"下高関"},
{"zip_code":"9570026","kana_pref":"ﾆｲｶﾞﾀｹﾝ","kana_city":"ｼﾊﾞﾀｼ","kana_address":"ｼﾓﾅｲﾀﾞｹ","pref":"新潟県","city":"新発田市","address":"下内竹"},
{"zip_code":"9570203","kana_pref":"ﾆｲｶﾞﾀｹﾝ","kana_city":"ｼﾊﾞﾀｼ","kana_address":"ｼﾓﾅｶｻﾞﾜ","pref":"新潟県","city":"新発田市","address":"下中沢"},
{"zip_code":"9570341","kana_pref":"ﾆｲｶﾞﾀｹﾝ","kana_city":"ｼﾊﾞﾀｼ","kana_address":"ｼﾓﾊﾈﾂﾞ","pref":"新潟県","city":"新発田市","address":"下羽津"},
{"zip_code":"9570051","kana_pref":"ﾆｲｶﾞﾀｹﾝ","kana_city":"ｼﾊﾞﾀｼ","kana_address":"ｼﾞｮｳﾎｸﾁｮｳ","pref":"新潟県","city":"新発田市","address":"城北町"},
{"zip_code":"9570063","kana_pref":"ﾆｲｶﾞﾀｹﾝ","kana_city":"ｼﾊﾞﾀｼ","kana_address":"ｼﾝｴｲﾁｮｳ","pref":"新潟県","city":"新発田市","address":"新栄町"},
{"zip_code":"9570017","kana_pref":"ﾆｲｶﾞﾀｹﾝ","kana_city":"ｼﾊﾞﾀｼ","kana_address":"ｼﾝﾄﾐﾁｮｳ","pref":"新潟県","city":"新発田市","address":"新富町"},
{"zip_code":"9570087","kana_pref":"ﾆｲｶﾞﾀｹﾝ","kana_city":"ｼﾊﾞﾀｼ","kana_address":"ｽﾅﾔﾏ","pref":"新潟県","city":"新発田市","address":"砂山"},
{"zip_code":"9570215","kana_pref":"ﾆｲｶﾞﾀｹﾝ","kana_city":"ｼﾊﾞﾀｼ","kana_address":"ｽﾐﾖｼ","pref":"新潟県","city":"新発田市","address":"住吉"},
{"zip_code":"9570061","kana_pref":"ﾆｲｶﾞﾀｹﾝ","kana_city":"ｼﾊﾞﾀｼ","kana_address":"ｽﾐﾖｼﾁｮｳ","pref":"新潟県","city":"新発田市","address":"住吉町"},
{"zip_code":"9570055","kana_pref":"ﾆｲｶﾞﾀｹﾝ","kana_city":"ｼﾊﾞﾀｼ","kana_address":"ｽﾜﾁｮｳ","pref":"新潟県","city":"新発田市","address":"諏訪町"},
{"zip_code":"9570205","kana_pref":"ﾆｲｶﾞﾀｹﾝ","kana_city":"ｼﾊﾞﾀｼ","kana_address":"ｾｷｲ","pref":"新潟県","city":"新発田市","address":"関井"},
{"zip_code":"9570071","kana_pref":"ﾆｲｶﾞﾀｹﾝ","kana_city":"ｼﾊﾞﾀｼ","kana_address":"ｿﾈ","pref":"新潟県","city":"新発田市","address":"曽根"},
{"zip_code":"9570056","kana_pref":"ﾆｲｶﾞﾀｹﾝ","kana_city":"ｼﾊﾞﾀｼ","kana_address":"ﾀﾞｲｴｲﾁｮｳ","pref":"新潟県","city":"新発田市","address":"大栄町"},
{"zip_code":"9570333","kana_pref":"ﾆｲｶﾞﾀｹﾝ","kana_city":"ｼﾊﾞﾀｼ","kana_address":"ﾀｶﾞｲ","pref":"新潟県","city":"新発田市","address":"田貝"},
{"zip_code":"9570213","kana_pref":"ﾆｲｶﾞﾀｹﾝ","kana_city":"ｼﾊﾞﾀｼ","kana_address":"ﾀｶｼﾏ","pref":"新潟県","city":"新発田市","address":"高島"},
{"zip_code":"9570462","kana_pref":"ﾆｲｶﾞﾀｹﾝ","kana_city":"ｼﾊﾞﾀｼ","kana_address":"ﾀｷﾀﾞﾆ","pref":"新潟県","city":"新発田市","address":"滝谷"},
{"zip_code":"9570053","kana_pref":"ﾆｲｶﾞﾀｹﾝ","kana_city":"ｼﾊﾞﾀｼ","kana_address":"ﾁｭｳｵｳﾁｮｳ","pref":"新潟県","city":"新発田市","address":"中央町"},
{"zip_code":"9570221","kana_pref":"ﾆｲｶﾞﾀｹﾝ","kana_city":"ｼﾊﾞﾀｼ","kana_address":"ﾁｮｳｼﾞｬﾀﾞﾃ","pref":"新潟県","city":"新発田市","address":"長者舘"},
{"zip_code":"9570355","kana_pref":"ﾆｲｶﾞﾀｹﾝ","kana_city":"ｼﾊﾞﾀｼ","kana_address":"ﾂﾙｶﾞ","pref":"新潟県","city":"新発田市","address":"敦賀"},
{"zip_code":"9570001","kana_pref":"ﾆｲｶﾞﾀｹﾝ","kana_city":"ｼﾊﾞﾀｼ","kana_address":"ﾄﾞｳｶﾞ","pref":"新潟県","city":"新発田市","address":"道賀"},
{"zip_code":"9570015","kana_pref":"ﾆｲｶﾞﾀｹﾝ","kana_city":"ｼﾊﾞﾀｼ","kana_address":"ﾄｳｼﾝﾁｮｳ","pref":"新潟県","city":"新発田市","address":"東新町"},
{"zip_code":"9570207","kana_pref":"ﾆｲｶﾞﾀｹﾝ","kana_city":"ｼﾊﾞﾀｼ","kana_address":"ﾄﾐｼﾞﾏ","pref":"新潟県","city":"新発田市","address":"富島"},
{"zip_code":"9570062","kana_pref":"ﾆｲｶﾞﾀｹﾝ","kana_city":"ｼﾊﾞﾀｼ","kana_address":"ﾄﾐﾂｶﾁｮｳ","pref":"新潟県","city":"新発田市","address":"富塚町"},
{"zip_code":"9570332","kana_pref":"ﾆｲｶﾞﾀｹﾝ","kana_city":"ｼﾊﾞﾀｼ","kana_address":"ﾄﾗﾏﾙ","pref":"新潟県","city":"新発田市","address":"虎丸"},
{"zip_code":"9570092","kana_pref":"ﾆｲｶﾞﾀｹﾝ","kana_city":"ｼﾊﾞﾀｼ","kana_address":"ﾄﾘｱﾅ","pref":"新潟県","city":"新発田市","address":"鳥穴"},
{"zip_code":"9570214","kana_pref":"ﾆｲｶﾞﾀｹﾝ","kana_city":"ｼﾊﾞﾀｼ","kana_address":"ﾅｶｼﾞﾏ","pref":"新潟県","city":"新発田市","address":"中島"},
{"zip_code":"9570223","kana_pref":"ﾆｲｶﾞﾀｹﾝ","kana_city":"ｼﾊﾞﾀｼ","kana_address":"ﾅｶﾞｼﾏ","pref":"新潟県","city":"新発田市","address":"長島"},
{"zip_code":"9570067","kana_pref":"ﾆｲｶﾞﾀｹﾝ","kana_city":"ｼﾊﾞﾀｼ","kana_address":"ﾅｶｿﾈﾁｮｳ","pref":"新潟県","city":"新発田市","address":"中曽根町"},
{"zip_code":"9570006","kana_pref":"ﾆｲｶﾞﾀｹﾝ","kana_city":"ｼﾊﾞﾀｼ","kana_address":"ﾅｶﾀﾁｮｳ","pref":"新潟県","city":"新発田市","address":"中田町"},
{"zip_code":"9570461","kana_pref":"ﾆｲｶﾞﾀｹﾝ","kana_city":"ｼﾊﾞﾀｼ","kana_address":"ﾅｶﾅｶﾔﾏ","pref":"新潟県","city":"新発田市","address":"中々山"},
{"zip_code":"9570222","kana_pref":"ﾆｲｶﾞﾀｹﾝ","kana_city":"ｼﾊﾞﾀｼ","kana_address":"ﾅｶﾉ","pref":"新潟県","city":"新発田市","address":"中野"},
{"zip_code":"9570005","kana_pref":"ﾆｲｶﾞﾀｹﾝ","kana_city":"ｼﾊﾞﾀｼ","kana_address":"ﾅｶﾞﾊﾞﾀｹ","pref":"新潟県","city":"新発田市","address":"長畑"},
{"zip_code":"9570002","kana_pref":"ﾆｲｶﾞﾀｹﾝ","kana_city":"ｼﾊﾞﾀｼ","kana_address":"ﾅｶﾔﾁ","pref":"新潟県","city":"新発田市","address":"中谷内"},
{"zip_code":"9570058","kana_pref":"ﾆｲｶﾞﾀｹﾝ","kana_city":"ｼﾊﾞﾀｼ","kana_address":"ﾆｼｿﾞﾉﾁｮｳ","pref":"新潟県","city":"新発田市","address":"西園町"},
{"zip_code":"9570004","kana_pref":"ﾆｲｶﾞﾀｹﾝ","kana_city":"ｼﾊﾞﾀｼ","kana_address":"ﾆｼﾅｶﾞﾗ","pref":"新潟県","city":"新発田市","address":"西名柄"},
{"zip_code":"9570357","kana_pref":"ﾆｲｶﾞﾀｹﾝ","kana_city":"ｼﾊﾞﾀｼ","kana_address":"ﾆｼﾋﾒﾀﾞ","pref":"新潟県","city":"新発田市","address":"西姫田"},
{"zip_code":"9570075","kana_pref":"ﾆｲｶﾞﾀｹﾝ","kana_city":"ｼﾊﾞﾀｼ","kana_address":"ﾆｼﾐﾉｸﾞﾁ","pref":"新潟県","city":"新発田市","address":"西蓑口"},
{"zip_code":"9570076","kana_pref":"ﾆｲｶﾞﾀｹﾝ","kana_city":"ｼﾊﾞﾀｼ","kana_address":"ﾆｼﾐﾔｳﾁ","pref":"新潟県","city":"新発田市","address":"西宮内"},
{"zip_code":"9570077","kana_pref":"ﾆｲｶﾞﾀｹﾝ","kana_city":"ｼﾊﾞﾀｼ","kana_address":"ﾉﾘｷﾖ","pref":"新潟県","city":"新発田市","address":"則清"},
{"zip_code":"9570078","kana_pref":"ﾆｲｶﾞﾀｹﾝ","kana_city":"ｼﾊﾞﾀｼ","kana_address":"ﾉﾘｷﾖｼﾝﾃﾞﾝ","pref":"新潟県","city":"新発田市","address":"則清新田"},
{"zip_code":"9570463","kana_pref":"ﾆｲｶﾞﾀｹﾝ","kana_city":"ｼﾊﾞﾀｼ","kana_address":"ﾋｶﾞｼｱｶﾀﾆ","pref":"新潟県","city":"新発田市","address":"東赤谷"},
{"zip_code":"9570012","kana_pref":"ﾆｲｶﾞﾀｹﾝ","kana_city":"ｼﾊﾞﾀｼ","kana_address":"ﾋｶﾞｼﾂｶﾉﾒ","pref":"新潟県","city":"新発田市","address":"東塚ノ目"},
{"zip_code":"9570351","kana_pref":"ﾆｲｶﾞﾀｹﾝ","kana_city":"ｼﾊﾞﾀｼ","kana_address":"ﾋｶﾞｼﾋﾒﾀﾞ","pref":"新潟県","city":"新発田市","address":"東姫田"},
{"zip_code":"9570235","kana_pref":"ﾆｲｶﾞﾀｹﾝ","kana_city":"ｼﾊﾞﾀｼ","kana_address":"ﾋﾄﾊﾞｼ","pref":"新潟県","city":"新発田市","address":"人橋"},
{"zip_code":"9570072","kana_pref":"ﾆｲｶﾞﾀｹﾝ","kana_city":"ｼﾊﾞﾀｼ","kana_address":"ﾋﾜﾀｼ","pref":"新潟県","city":"新発田市","address":"日渡"},
{"zip_code":"9570206","kana_pref":"ﾆｲｶﾞﾀｹﾝ","kana_city":"ｼﾊﾞﾀｼ","kana_address":"ﾌｸｵｶ","pref":"新潟県","city":"新発田市","address":"福岡"},
{"zip_code":"9570231","kana_pref":"ﾆｲｶﾞﾀｹﾝ","kana_city":"ｼﾊﾞﾀｼ","kana_address":"ﾌｼﾞﾂｶﾊﾏ","pref":"新潟県","city":"新発田市","address":"藤塚浜"},
{"zip_code":"9570234","kana_pref":"ﾆｲｶﾞﾀｹﾝ","kana_city":"ｼﾊﾞﾀｼ","kana_address":"ﾌﾀﾂﾔﾏ","pref":"新潟県","city":"新発田市","address":"二ツ山"},
{"zip_code":"9570066","kana_pref":"ﾆｲｶﾞﾀｹﾝ","kana_city":"ｼﾊﾞﾀｼ","kana_address":"ﾌﾅｲﾘ","pref":"新潟県","city":"新発田市","address":"舟入"},
{"zip_code":"9570065","kana_pref":"ﾆｲｶﾞﾀｹﾝ","kana_city":"ｼﾊﾞﾀｼ","kana_address":"ﾌﾈｲﾘﾁｮｳ","pref":"新潟県","city":"新発田市","address":"舟入町"},
{"zip_code":"9570022","kana_pref":"ﾆｲｶﾞﾀｹﾝ","kana_city":"ｼﾊﾞﾀｼ","kana_address":"ﾌﾙﾃﾗ","pref":"新潟県","city":"新発田市","address":"古寺"},
{"zip_code":"9570047","kana_pref":"ﾆｲｶﾞﾀｹﾝ","kana_city":"ｼﾊﾞﾀｼ","kana_address":"ﾎｳｼﾞｮｳﾊﾞｼ","pref":"新潟県","city":"新発田市","address":"法正橋"},
{"zip_code":"9570054","kana_pref":"ﾆｲｶﾞﾀｹﾝ","kana_city":"ｼﾊﾞﾀｼ","kana_address":"ﾎﾝﾁｮｳ","pref":"新潟県","city":"新発田市","address":"本町"},
{"zip_code":"9570342","kana_pref":"ﾆｲｶﾞﾀｹﾝ","kana_city":"ｼﾊﾞﾀｼ","kana_address":"ﾎﾝﾏｼﾝﾃﾞﾝ","pref":"新潟県","city":"新発田市","address":"本間新田"},
{"zip_code":"9570044","kana_pref":"ﾆｲｶﾞﾀｹﾝ","kana_city":"ｼﾊﾞﾀｼ","kana_address":"ﾏﾂｵｶ","pref":"新潟県","city":"新発田市","address":"松岡"},
{"zip_code":"9570201","kana_pref":"ﾆｲｶﾞﾀｹﾝ","kana_city":"ｼﾊﾞﾀｼ","kana_address":"ﾏﾅｶ","pref":"新潟県","city":"新発田市","address":"真中"},
{"zip_code":"9570233","kana_pref":"ﾆｲｶﾞﾀｹﾝ","kana_city":"ｼﾊﾞﾀｼ","kana_address":"ﾏﾉﾊﾗ","pref":"新潟県","city":"新発田市","address":"真野原"},
{"zip_code":"9570232","kana_pref":"ﾆｲｶﾞﾀｹﾝ","kana_city":"ｼﾊﾞﾀｼ","kana_address":"ﾏﾉﾊﾗｿﾄ","pref":"新潟県","city":"新発田市","address":"真野原外"},
{"zip_code":"9570073","kana_pref":"ﾆｲｶﾞﾀｹﾝ","kana_city":"ｼﾊﾞﾀｼ","kana_address":"ﾐｺｼ","pref":"新潟県","city":"新発田市","address":"弓越"},
{"zip_code":"9570048","kana_pref":"ﾆｲｶﾞﾀｹﾝ","kana_city":"ｼﾊﾞﾀｼ","kana_address":"ﾐｽﾞﾅﾐ","pref":"新潟県","city":"新発田市","address":"瑞波"},
{"zip_code":"9570018","kana_pref":"ﾆｲｶﾞﾀｹﾝ","kana_city":"ｼﾊﾞﾀｼ","kana_address":"ﾐﾄﾞﾘﾁｮｳ","pref":"新潟県","city":"新発田市","address":"緑町"},
{"zip_code":"9570352","kana_pref":"ﾆｲｶﾞﾀｹﾝ","kana_city":"ｼﾊﾞﾀｼ","kana_address":"ﾐﾅﾐﾀﾃ","pref":"新潟県","city":"新発田市","address":"南楯"},
{"zip_code":"9570216","kana_pref":"ﾆｲｶﾞﾀｹﾝ","kana_city":"ｼﾊﾞﾀｼ","kana_address":"ﾐﾅﾐﾅﾘﾀ","pref":"新潟県","city":"新発田市","address":"南成田"},
{"zip_code":"9570346","kana_pref":"ﾆｲｶﾞﾀｹﾝ","kana_city":"ｼﾊﾞﾀｼ","kana_address":"ﾐﾔｺｷﾞ","pref":"新潟県","city":"新発田市","address":"宮古木"},
{"zip_code":"9570226","kana_pref":"ﾆｲｶﾞﾀｹﾝ","kana_city":"ｼﾊﾞﾀｼ","kana_address":"ﾐﾔﾖｼ","pref":"新潟県","city":"新発田市","address":"宮吉"},
{"zip_code":"9570057","kana_pref":"ﾆｲｶﾞﾀｹﾝ","kana_city":"ｼﾊﾞﾀｼ","kana_address":"ﾐﾕｷﾁｮｳ","pref":"新潟県","city":"新発田市","address":"御幸町"},
{"zip_code":"9570027","kana_pref":"ﾆｲｶﾞﾀｹﾝ","kana_city":"ｼﾊﾞﾀｼ","kana_address":"ﾑｲｶﾏﾁ","pref":"新潟県","city":"新発田市","address":"六日町"},
{"zip_code":"9570236","kana_pref":"ﾆｲｶﾞﾀｹﾝ","kana_city":"ｼﾊﾞﾀｼ","kana_address":"ﾓﾄｺﾞｳ","pref":"新潟県","city":"新発田市","address":"元郷"},
{"zip_code":"9570466","kana_pref":"ﾆｲｶﾞﾀｹﾝ","kana_city":"ｼﾊﾞﾀｼ","kana_address":"ﾔﾏｳﾁ","pref":"新潟県","city":"新発田市","address":"山内"},
{"zip_code":"9570028","kana_pref":"ﾆｲｶﾞﾀｹﾝ","kana_city":"ｼﾊﾞﾀｼ","kana_address":"ﾔﾏｻﾞｷ","pref":"新潟県","city":"新発田市","address":"山崎"},
{"zip_code":"9570033","kana_pref":"ﾆｲｶﾞﾀｹﾝ","kana_city":"ｼﾊﾞﾀｼ","kana_address":"ﾔﾜﾀ","pref":"新潟県","city":"新発田市","address":"八幡"},
{"zip_code":"9570032","kana_pref":"ﾆｲｶﾞﾀｹﾝ","kana_city":"ｼﾊﾞﾀｼ","kana_address":"ﾔﾜﾀｼﾝﾃﾞﾝ","pref":"新潟県","city":"新発田市","address":"八幡新田"},
{"zip_code":"9570016","kana_pref":"ﾆｲｶﾞﾀｹﾝ","kana_city":"ｼﾊﾞﾀｼ","kana_address":"ﾕﾀｶﾁｮｳ","pref":"新潟県","city":"新発田市","address":"豊町"},
{"zip_code":"9570036","kana_pref":"ﾆｲｶﾞﾀｹﾝ","kana_city":"ｼﾊﾞﾀｼ","kana_address":"ﾖﾈｸﾗ","pref":"新潟県","city":"新発田市","address":"米倉"},
{"zip_code":"9570225","kana_pref":"ﾆｲｶﾞﾀｹﾝ","kana_city":"ｼﾊﾞﾀｼ","kana_address":"ﾖﾈｺ","pref":"新潟県","city":"新発田市","address":"米子"},
{"zip_code":"9570100","kana_pref":"ﾆｲｶﾞﾀｹﾝ","kana_city":"ｷﾀｶﾝﾊﾞﾗｸﾞﾝｾｲﾛｳﾏﾁ","kana_address":"","pref":"新潟県","city":"北蒲原郡聖籠町","address":""},
{"zip_code":"9570103","kana_pref":"ﾆｲｶﾞﾀｹﾝ","kana_city":"ｷﾀｶﾝﾊﾞﾗｸﾞﾝｾｲﾛｳﾏﾁ","kana_address":"ｱｼﾞﾛﾊﾏ","pref":"新潟県","city":"北蒲原郡聖籠町","address":"網代浜"},
{"zip_code":"9570102","kana_pref":"ﾆｲｶﾞﾀｹﾝ","kana_city":"ｷﾀｶﾝﾊﾞﾗｸﾞﾝｾｲﾛｳﾏﾁ","kana_address":"ｲﾓﾘﾁｮｳ","pref":"新潟県","city":"北蒲原郡聖籠町","address":"位守町"},
{"zip_code":"9570113","kana_pref":"ﾆｲｶﾞﾀｹﾝ","kana_city":"ｷﾀｶﾝﾊﾞﾗｸﾞﾝｾｲﾛｳﾏﾁ","kana_address":"ｶﾐｵｵﾔﾁ","pref":"新潟県","city":"北蒲原郡聖籠町","address":"上大谷内"},
{"zip_code":"9570104","kana_pref":"ﾆｲｶﾞﾀｹﾝ","kana_city":"ｷﾀｶﾝﾊﾞﾗｸﾞﾝｾｲﾛｳﾏﾁ","kana_address":"ｶﾒﾂﾞｶ","pref":"新潟県","city":"北蒲原郡聖籠町","address":"亀塚"},
{"zip_code":"9570122","kana_pref":"ﾆｲｶﾞﾀｹﾝ","kana_city":"ｷﾀｶﾝﾊﾞﾗｸﾞﾝｾｲﾛｳﾏﾁ","kana_address":"ｻﾝｶﾞ","pref":"新潟県","city":"北蒲原郡聖籠町","address":"三賀"},
{"zip_code":"9570105","kana_pref":"ﾆｲｶﾞﾀｹﾝ","kana_city":"ｷﾀｶﾝﾊﾞﾗｸﾞﾝｾｲﾛｳﾏﾁ","kana_address":"ｼﾀﾞｲﾊﾏ","pref":"新潟県","city":"北蒲原郡聖籠町","address":"次第浜"},
{"zip_code":"9570117","kana_pref":"ﾆｲｶﾞﾀｹﾝ","kana_city":"ｷﾀｶﾝﾊﾞﾗｸﾞﾝｾｲﾛｳﾏﾁ","kana_address":"ｽﾜﾔﾏ","pref":"新潟県","city":"北蒲原郡聖籠町","address":"諏訪山"},
{"zip_code":"9570121","kana_pref":"ﾆｲｶﾞﾀｹﾝ","kana_city":"ｷﾀｶﾝﾊﾞﾗｸﾞﾝｾｲﾛｳﾏﾁ","kana_address":"ﾀﾞｲﾌﾞ","pref":"新潟県","city":"北蒲原郡聖籠町","address":"大夫"},
{"zip_code":"9570126","kana_pref":"ﾆｲｶﾞﾀｹﾝ","kana_city":"ｷﾀｶﾝﾊﾞﾗｸﾞﾝｾｲﾛｳﾏﾁ","kana_address":"ﾀﾞｲﾌﾞｺｳﾔ","pref":"新潟県","city":"北蒲原郡聖籠町","address":"大夫興野"},
{"zip_code":"9570112","kana_pref":"ﾆｲｶﾞﾀｹﾝ","kana_city":"ｷﾀｶﾝﾊﾞﾗｸﾞﾝｾｲﾛｳﾏﾁ","kana_address":"ﾄﾞｳｶﾞｼﾝﾃﾞﾝ","pref":"新潟県","city":"北蒲原郡聖籠町","address":"道賀新田"},
{"zip_code":"9570123","kana_pref":"ﾆｲｶﾞﾀｹﾝ","kana_city":"ｷﾀｶﾝﾊﾞﾗｸﾞﾝｾｲﾛｳﾏﾁ","kana_address":"ﾆﾎﾝﾏﾂ","pref":"新潟県","city":"北蒲原郡聖籠町","address":"二本松"},
{"zip_code":"9570106","kana_pref":"ﾆｲｶﾞﾀｹﾝ","kana_city":"ｷﾀｶﾝﾊﾞﾗｸﾞﾝｾｲﾛｳﾏﾁ","kana_address":"ﾊｽｶﾞﾀ","pref":"新潟県","city":"北蒲原郡聖籠町","address":"蓮潟"},
{"zip_code":"9570124","kana_pref":"ﾆｲｶﾞﾀｹﾝ","kana_city":"ｷﾀｶﾝﾊﾞﾗｸﾞﾝｾｲﾛｳﾏﾁ","kana_address":"ﾊｽﾉ","pref":"新潟県","city":"北蒲原郡聖籠町","address":"蓮野"},
{"zip_code":"9570101","kana_pref":"ﾆｲｶﾞﾀｹﾝ","kana_city":"ｷﾀｶﾝﾊﾞﾗｸﾞﾝｾｲﾛｳﾏﾁ","kana_address":"ﾋｶﾞｼｺｳ","pref":"新潟県","city":"北蒲原郡聖籠町","address":"東港"},
{"zip_code":"9570127","kana_pref":"ﾆｲｶﾞﾀｹﾝ","kana_city":"ｷﾀｶﾝﾊﾞﾗｸﾞﾝｾｲﾛｳﾏﾁ","kana_address":"ﾌｼﾞﾖｾ","pref":"新潟県","city":"北蒲原郡聖籠町","address":"藤寄"},
{"zip_code":"9570125","kana_pref":"ﾆｲｶﾞﾀｹﾝ","kana_city":"ｷﾀｶﾝﾊﾞﾗｸﾞﾝｾｲﾛｳﾏﾁ","kana_address":"ﾍﾞｯｼﾞｮｳ","pref":"新潟県","city":"北蒲原郡聖籠町","address":"別條"},
{"zip_code":"9570111","kana_pref":"ﾆｲｶﾞﾀｹﾝ","kana_city":"ｷﾀｶﾝﾊﾞﾗｸﾞﾝｾｲﾛｳﾏﾁ","kana_address":"ﾏﾉ","pref":"新潟県","city":"北蒲原郡聖籠町","address":"真野"},
{"zip_code":"9570114","kana_pref":"ﾆｲｶﾞﾀｹﾝ","kana_city":"ｷﾀｶﾝﾊﾞﾗｸﾞﾝｾｲﾛｳﾏﾁ","kana_address":"ﾏﾙｶﾞﾀ","pref":"新潟県","city":"北蒲原郡聖籠町","address":"丸潟"},
{"zip_code":"9570115","kana_pref":"ﾆｲｶﾞﾀｹﾝ","kana_city":"ｷﾀｶﾝﾊﾞﾗｸﾞﾝｾｲﾛｳﾏﾁ","kana_address":"ﾓﾓﾔﾏ","pref":"新潟県","city":"北蒲原郡聖籠町","address":"桃山"},
{"zip_code":"9570116","kana_pref":"ﾆｲｶﾞﾀｹﾝ","kana_city":"ｷﾀｶﾝﾊﾞﾗｸﾞﾝｾｲﾛｳﾏﾁ","kana_address":"ﾔﾏｸﾞﾗ","pref":"新潟県","city":"北蒲原郡聖籠町","address":"山倉"}]}