{"zip_code":[
{"zip_code":"9580000","kana_pref":"ﾆｲｶﾞﾀｹﾝ","kana_city":"ﾑﾗｶﾐｼ","kana_address":"","pref":"新潟県","city":"村上市","address":""},
{"zip_code":"9580816","kana_pref":"ﾆｲｶﾞﾀｹﾝ","kana_city":"ﾑﾗｶﾐｼ","kana_address":"ｱｶｻﾜ","pref":"新潟県","city":"村上市","address":"赤沢"},
{"zip_code":"9580270","kana_pref":"ﾆｲｶﾞﾀｹﾝ","kana_city":"ﾑﾗｶﾐｼ","kana_address":"ｱｹﾎﾞﾉ","pref":"新潟県","city":"村上市","address":"あけぼの"},
{"zip_code":"9580226","kana_pref":"ﾆｲｶﾞﾀｹﾝ","kana_city":"ﾑﾗｶﾐｼ","kana_address":"ｱｻﾋﾅｶﾉ","pref":"新潟県","city":"村上市","address":"朝日中野"},
{"zip_code":"9580203","kana_pref":"ﾆｲｶﾞﾀｹﾝ","kana_city":"ﾑﾗｶﾐｼ","kana_address":"ｱﾗｻﾜ","pref":"新潟県","city":"村上市","address":"荒沢"},
{"zip_code":"9580846","kana_pref":"ﾆｲｶﾞﾀｹﾝ","kana_city":"ﾑﾗｶﾐｼ","kana_address":"ｱﾗﾏﾁ","pref":"新潟県","city":"村上市","address":"安良町"},
{"zip_code":"9580232","kana_pref":"ﾆｲｶﾞﾀｹﾝ","kana_city":"ﾑﾗｶﾐｼ","kana_address":"ｱﾗﾔ","pref":"新潟県","city":"村上市","address":"新屋"},
{"zip_code":"9580857","kana_pref":"ﾆｲｶﾞﾀｹﾝ","kana_city":"ﾑﾗｶﾐｼ","kana_address":"ｲｲﾉ","pref":"新潟県","city":"村上市","address":"飯野"},
{"zip_code":"9580856","kana_pref":"ﾆｲｶﾞﾀｹﾝ","kana_city":"ﾑﾗｶﾐｼ","kana_address":"ｲｲﾉｻｸﾗｶﾞｵｶ","pref":"新潟県","city":"村上市","address":"飯野桜ケ丘"},
{"zip_code":"9580855","kana_pref":"ﾆｲｶﾞﾀｹﾝ","kana_city":"ﾑﾗｶﾐｼ","kana_address":"ｲｲﾉﾆｼ","pref":"新潟県","city":"村上市","address":"飯野西"},
{"zip_code":"9580235","kana_pref":"ﾆｲｶﾞﾀｹﾝ","kana_city":"ﾑﾗｶﾐｼ","kana_address":"ｲｼｽﾞﾐ","pref":"新潟県","city":"村上市","address":"石住"},
{"zip_code":"9580832","kana_pref":"ﾆｲｶﾞﾀｹﾝ","kana_city":"ﾑﾗｶﾐｼ","kana_address":"ｲｼﾜﾗ","pref":"新潟県","city":"村上市","address":"石原"},
{"zip_code":"9580877","kana_pref":"ﾆｲｶﾞﾀｹﾝ","kana_city":"ﾑﾗｶﾐｼ","kana_address":"ｲｽﾞﾐﾏﾁ","pref":"新潟県","city":"村上市","address":"泉町"},
{"zip_code":"9580214","kana_pref":"ﾆｲｶﾞﾀｹﾝ","kana_city":"ﾑﾗｶﾐｼ","kana_address":"ｲﾀﾔｺﾞｼ","pref":"新潟県","city":"村上市","address":"板屋越"},
{"zip_code":"9580813","kana_pref":"ﾆｲｶﾞﾀｹﾝ","kana_city":"ﾑﾗｶﾐｼ","kana_address":"ｲﾓｼﾞ","pref":"新潟県","city":"村上市","address":"鋳物師"},
{"zip_code":"9580008","kana_pref":"ﾆｲｶﾞﾀｹﾝ","kana_city":"ﾑﾗｶﾐｼ","kana_address":"ｲﾜｶﾞｻｷ","pref":"新潟県","city":"村上市","address":"岩ケ崎"},
{"zip_code":"9580241","kana_pref":"ﾆｲｶﾞﾀｹﾝ","kana_city":"ﾑﾗｶﾐｼ","kana_address":"ｲﾜｸｽﾞﾚ","pref":"新潟県","city":"村上市","address":"岩崩"},
{"zip_code":"9580251","kana_pref":"ﾆｲｶﾞﾀｹﾝ","kana_city":"ﾑﾗｶﾐｼ","kana_address":"ｲﾜｻﾜ","pref":"新潟県","city":"村上市","address":"岩沢"},
{"zip_code":"9580044","kana_pref":"ﾆｲｶﾞﾀｹﾝ","kana_city":"ﾑﾗｶﾐｼ","kana_address":"ｲﾜﾌﾈｶﾐｵｵﾏﾁ","pref":"新潟県","city":"村上市","address":"岩船上大町"},
{"zip_code":"9580045","kana_pref":"ﾆｲｶﾞﾀｹﾝ","kana_city":"ﾑﾗｶﾐｼ","kana_address":"ｲﾜﾌﾈｶﾐﾊﾏﾏﾁ","pref":"新潟県","city":"村上市","address":"岩船上浜町"},
{"zip_code":"9580047","kana_pref":"ﾆｲｶﾞﾀｹﾝ","kana_city":"ﾑﾗｶﾐｼ","kana_address":"ｲﾜﾌﾈｶﾞﾝｹﾞﾝｼﾞﾏﾁ","pref":"新潟県","city":"村上市","address":"岩船岸見寺町"},
{"zip_code":"9580051","kana_pref":"ﾆｲｶﾞﾀｹﾝ","kana_city":"ﾑﾗｶﾐｼ","kana_address":"ｲﾜﾌﾈｶﾝﾏﾁ","pref":"新潟県","city":"村上市","address":"岩船上町"},
{"zip_code":"9580042","kana_pref":"ﾆｲｶﾞﾀｹﾝ","kana_city":"ﾑﾗｶﾐｼ","kana_address":"ｲﾜﾌﾈｷﾀﾊﾏﾏﾁ","pref":"新潟県","city":"村上市","address":"岩船北浜町"},
{"zip_code":"9580048","kana_pref":"ﾆｲｶﾞﾀｹﾝ","kana_city":"ﾑﾗｶﾐｼ","kana_address":"ｲﾜﾌﾈｼﾞｿﾞｳﾏﾁ","pref":"新潟県","city":"村上市","address":"岩船地蔵町"},
{"zip_code":"9580043","kana_pref":"ﾆｲｶﾞﾀｹﾝ","kana_city":"ﾑﾗｶﾐｼ","kana_address":"ｲﾜﾌﾈｼﾓｵｵﾏﾁ","pref":"新潟県","city":"村上市","address":"岩船下大町"},
{"zip_code":"9580046","kana_pref":"ﾆｲｶﾞﾀｹﾝ","kana_city":"ﾑﾗｶﾐｼ","kana_address":"ｲﾜﾌﾈｼﾓﾊﾏﾏﾁ","pref":"新潟県","city":"村上市","address":"岩船下浜町"},
{"zip_code":"9580054","kana_pref":"ﾆｲｶﾞﾀｹﾝ","kana_city":"ﾑﾗｶﾐｼ","kana_address":"ｲﾜﾌﾈｼﾝﾃﾞﾝﾏﾁ","pref":"新潟県","city":"村上市","address":"岩船新田町"},
{"zip_code":"9580055","kana_pref":"ﾆｲｶﾞﾀｹﾝ","kana_city":"ﾑﾗｶﾐｼ","kana_address":"ｲﾜﾌﾈﾀﾃｼﾝﾏﾁ","pref":"新潟県","city":"村上市","address":"岩船縦新町"},
{"zip_code":"9580056","kana_pref":"ﾆｲｶﾞﾀｹﾝ","kana_city":"ﾑﾗｶﾐｼ","kana_address":"ｲﾜﾌﾈﾅｶｼﾝﾏﾁ","pref":"新潟県","city":"村上市","address":"岩船中新町"},
{"zip_code":"9580041","kana_pref":"ﾆｲｶﾞﾀｹﾝ","kana_city":"ﾑﾗｶﾐｼ","kana_address":"ｲﾜﾌﾈﾐｯｶｲﾁ","pref":"新潟県","city":"村上市","address":"岩船三日市"},
{"zip_code":"9580058","kana_pref":"ﾆｲｶﾞﾀｹﾝ","kana_city":"ﾑﾗｶﾐｼ","kana_address":"ｲﾜﾌﾈﾐﾅﾄﾏﾁ","pref":"新潟県","city":"村上市","address":"岩船港町"},
{"zip_code":"9580057","kana_pref":"ﾆｲｶﾞﾀｹﾝ","kana_city":"ﾑﾗｶﾐｼ","kana_address":"ｲﾜﾌﾈﾖｺｼﾝﾏﾁ","pref":"新潟県","city":"村上市","address":"岩船横新町"},
{"zip_code":"9580262","kana_pref":"ﾆｲｶﾞﾀｹﾝ","kana_city":"ﾑﾗｶﾐｼ","kana_address":"ｳｴﾉ","pref":"新潟県","city":"村上市","address":"上野"},
{"zip_code":"9580264","kana_pref":"ﾆｲｶﾞﾀｹﾝ","kana_city":"ﾑﾗｶﾐｼ","kana_address":"ｳﾉﾄﾛ","pref":"新潟県","city":"村上市","address":"鵜渡路"},
{"zip_code":"9580036","kana_pref":"ﾆｲｶﾞﾀｹﾝ","kana_city":"ﾑﾗｶﾐｼ","kana_address":"ｳﾗﾀ","pref":"新潟県","city":"村上市","address":"浦田"},
{"zip_code":"9580867","kana_pref":"ﾆｲｶﾞﾀｹﾝ","kana_city":"ﾑﾗｶﾐｼ","kana_address":"ｵｵｶﾞｷ","pref":"新潟県","city":"村上市","address":"大欠"},
{"zip_code":"9580815","kana_pref":"ﾆｲｶﾞﾀｹﾝ","kana_city":"ﾑﾗｶﾐｼ","kana_address":"ｵｵｸﾘﾀﾞ","pref":"新潟県","city":"村上市","address":"大栗田"},
{"zip_code":"9580202","kana_pref":"ﾆｲｶﾞﾀｹﾝ","kana_city":"ﾑﾗｶﾐｼ","kana_address":"ｵｵｽﾄﾞ","pref":"新潟県","city":"村上市","address":"大須戸"},
{"zip_code":"9580812","kana_pref":"ﾆｲｶﾞﾀｹﾝ","kana_city":"ﾑﾗｶﾐｼ","kana_address":"ｵｵｾｷ","pref":"新潟県","city":"村上市","address":"大関"},
{"zip_code":"9580012","kana_pref":"ﾆｲｶﾞﾀｹﾝ","kana_city":"ﾑﾗｶﾐｼ","kana_address":"ｵｵﾀﾞｲﾗ","pref":"新潟県","city":"村上市","address":"大平"},
{"zip_code":"9580007","kana_pref":"ﾆｲｶﾞﾀｹﾝ","kana_city":"ﾑﾗｶﾐｼ","kana_address":"ｵｵﾂﾞｷ","pref":"新潟県","city":"村上市","address":"大月"},
{"zip_code":"9580253","kana_pref":"ﾆｲｶﾞﾀｹﾝ","kana_city":"ﾑﾗｶﾐｼ","kana_address":"ｵｵﾊﾞｻﾞﾜ","pref":"新潟県","city":"村上市","address":"大場沢"},
{"zip_code":"9580842","kana_pref":"ﾆｲｶﾞﾀｹﾝ","kana_city":"ﾑﾗｶﾐｼ","kana_address":"ｵｵﾏﾁ","pref":"新潟県","city":"村上市","address":"大町"},
{"zip_code":"9580268","kana_pref":"ﾆｲｶﾞﾀｹﾝ","kana_city":"ﾑﾗｶﾐｼ","kana_address":"ｵｶﾞﾜ","pref":"新潟県","city":"村上市","address":"小川"},
{"zip_code":"9580848","kana_pref":"ﾆｲｶﾞﾀｹﾝ","kana_city":"ﾑﾗｶﾐｼ","kana_address":"ｵｸﾞﾆﾏﾁ","pref":"新潟県","city":"村上市","address":"小国町"},
{"zip_code":"9580806","kana_pref":"ﾆｲｶﾞﾀｹﾝ","kana_city":"ﾑﾗｶﾐｼ","kana_address":"ｵﾀﾞﾆ","pref":"新潟県","city":"村上市","address":"小谷"},
{"zip_code":"9580875","kana_pref":"ﾆｲｶﾞﾀｹﾝ","kana_city":"ﾑﾗｶﾐｼ","kana_address":"ｶｶﾞﾏﾁ","pref":"新潟県","city":"村上市","address":"加賀町"},
{"zip_code":"9580004","kana_pref":"ﾆｲｶﾞﾀｹﾝ","kana_city":"ﾑﾗｶﾐｼ","kana_address":"ｶｼｵ","pref":"新潟県","city":"村上市","address":"柏尾"},
{"zip_code":"9580863","kana_pref":"ﾆｲｶﾞﾀｹﾝ","kana_city":"ﾑﾗｶﾐｼ","kana_address":"ｶｼﾞﾏﾁ","pref":"新潟県","city":"村上市","address":"鍛冶町"},
{"zip_code":"9580872","kana_pref":"ﾆｲｶﾞﾀｹﾝ","kana_city":"ﾑﾗｶﾐｼ","kana_address":"ｶﾀﾏﾁ","pref":"新潟県","city":"村上市","address":"片町"},
{"zip_code":"9580031","kana_pref":"ﾆｲｶﾞﾀｹﾝ","kana_city":"ﾑﾗｶﾐｼ","kana_address":"ｶﾞｯｺｳﾁｮｳ","pref":"新潟県","city":"村上市","address":"学校町"},
{"zip_code":"9580245","kana_pref":"ﾆｲｶﾞﾀｹﾝ","kana_city":"ﾑﾗｶﾐｼ","kana_address":"ｶﾏｸﾞｲ","pref":"新潟県","city":"村上市","address":"釜杭"},
{"zip_code":"9580808","kana_pref":"ﾆｲｶﾞﾀｹﾝ","kana_city":"ﾑﾗｶﾐｼ","kana_address":"ｶﾐｱｲｶﾜ","pref":"新潟県","city":"村上市","address":"上相川"},
{"zip_code":"9580873","kana_pref":"ﾆｲｶﾞﾀｹﾝ","kana_city":"ﾑﾗｶﾐｼ","kana_address":"ｶﾐｶﾀﾏﾁ","pref":"新潟県","city":"村上市","address":"上片町"},
{"zip_code":"9580236","kana_pref":"ﾆｲｶﾞﾀｹﾝ","kana_city":"ﾑﾗｶﾐｼ","kana_address":"ｶﾐﾅｶｼﾞﾏ","pref":"新潟県","city":"村上市","address":"上中島"},
{"zip_code":"9580053","kana_pref":"ﾆｲｶﾞﾀｹﾝ","kana_city":"ﾑﾗｶﾐｼ","kana_address":"ｶﾐﾉﾔﾏ","pref":"新潟県","city":"村上市","address":"上の山"},
{"zip_code":"9580805","kana_pref":"ﾆｲｶﾞﾀｹﾝ","kana_city":"ﾑﾗｶﾐｼ","kana_address":"ｶﾐﾔﾏﾀﾞ","pref":"新潟県","city":"村上市","address":"上山田"},
{"zip_code":"9580263","kana_pref":"ﾆｲｶﾞﾀｹﾝ","kana_city":"ﾑﾗｶﾐｼ","kana_address":"ｶﾜﾊﾞﾀ","pref":"新潟県","city":"村上市","address":"川端"},
{"zip_code":"9580843","kana_pref":"ﾆｲｶﾞﾀｹﾝ","kana_city":"ﾑﾗｶﾐｼ","kana_address":"ｶﾝﾏﾁ","pref":"新潟県","city":"村上市","address":"上町"},
{"zip_code":"9580212","kana_pref":"ﾆｲｶﾞﾀｹﾝ","kana_city":"ﾑﾗｶﾐｼ","kana_address":"ｷﾀｵｵﾀﾞｲﾗ","pref":"新潟県","city":"村上市","address":"北大平"},
{"zip_code":"9580242","kana_pref":"ﾆｲｶﾞﾀｹﾝ","kana_city":"ﾑﾗｶﾐｼ","kana_address":"ｸｷﾀ","pref":"新潟県","city":"村上市","address":"茎太"},
{"zip_code":"9580807","kana_pref":"ﾆｲｶﾞﾀｹﾝ","kana_city":"ﾑﾗｶﾐｼ","kana_address":"ｸｻｶ","pref":"新潟県","city":"村上市","address":"日下"},
{"zip_code":"9580871","kana_pref":"ﾆｲｶﾞﾀｹﾝ","kana_city":"ﾑﾗｶﾐｼ","kana_address":"ｸﾎﾞﾀﾏﾁ","pref":"新潟県","city":"村上市","address":"久保多町"},
{"zip_code":"9580255","kana_pref":"ﾆｲｶﾞﾀｹﾝ","kana_city":"ﾑﾗｶﾐｼ","kana_address":"ｸﾏﾄ","pref":"新潟県","city":"村上市","address":"熊登"},
{"zip_code":"9580224","kana_pref":"ﾆｲｶﾞﾀｹﾝ","kana_city":"ﾑﾗｶﾐｼ","kana_address":"ｸﾛﾀﾞ","pref":"新潟県","city":"村上市","address":"黒田"},
{"zip_code":"9580014","kana_pref":"ﾆｲｶﾞﾀｹﾝ","kana_city":"ﾑﾗｶﾐｼ","kana_address":"ｹﾞﾄﾞ","pref":"新潟県","city":"村上市","address":"下渡"},
{"zip_code":"9580244","kana_pref":"ﾆｲｶﾞﾀｹﾝ","kana_city":"ﾑﾗｶﾐｼ","kana_address":"ｺｱｹﾞ","pref":"新潟県","city":"村上市","address":"小揚"},
{"zip_code":"9580204","kana_pref":"ﾆｲｶﾞﾀｹﾝ","kana_city":"ﾑﾗｶﾐｼ","kana_address":"ｺｽﾄﾞ","pref":"新潟県","city":"村上市","address":"小須戸"},
{"zip_code":"9580841","kana_pref":"ﾆｲｶﾞﾀｹﾝ","kana_city":"ﾑﾗｶﾐｼ","kana_address":"ｺﾏﾁ","pref":"新潟県","city":"村上市","address":"小町"},
{"zip_code":"9580221","kana_pref":"ﾆｲｶﾞﾀｹﾝ","kana_city":"ﾑﾗｶﾐｼ","kana_address":"ｺﾓｶﾞﾜ","pref":"新潟県","city":"村上市","address":"薦川"},
{"zip_code":"9580845","kana_pref":"ﾆｲｶﾞﾀｹﾝ","kana_city":"ﾑﾗｶﾐｼ","kana_address":"ｻｲｸﾏﾁ","pref":"新潟県","city":"村上市","address":"細工町"},
{"zip_code":"9580865","kana_pref":"ﾆｲｶﾞﾀｹﾝ","kana_city":"ﾑﾗｶﾐｼ","kana_address":"ｻｲﾜｲﾁｮｳ","pref":"新潟県","city":"村上市","address":"幸町"},
{"zip_code":"9580864","kana_pref":"ﾆｲｶﾞﾀｹﾝ","kana_city":"ﾑﾗｶﾐｼ","kana_address":"ｻｶﾅﾏﾁ","pref":"新潟県","city":"村上市","address":"肴町"},
{"zip_code":"9580246","kana_pref":"ﾆｲｶﾞﾀｹﾝ","kana_city":"ﾑﾗｶﾐｼ","kana_address":"ｻｻﾀﾞｲﾗ","pref":"新潟県","city":"村上市","address":"笹平"},
{"zip_code":"9580821","kana_pref":"ﾆｲｶﾞﾀｹﾝ","kana_city":"ﾑﾗｶﾐｼ","kana_address":"ｻﾍﾞﾘ","pref":"新潟県","city":"村上市","address":"山辺里"},
{"zip_code":"9580261","kana_pref":"ﾆｲｶﾞﾀｹﾝ","kana_city":"ﾑﾗｶﾐｼ","kana_address":"ｻﾙｻﾜ","pref":"新潟県","city":"村上市","address":"猿沢"},
{"zip_code":"9580222","kana_pref":"ﾆｲｶﾞﾀｹﾝ","kana_city":"ﾑﾗｶﾐｼ","kana_address":"ｻﾙﾀ","pref":"新潟県","city":"村上市","address":"猿田"},
{"zip_code":"9580853","kana_pref":"ﾆｲｶﾞﾀｹﾝ","kana_city":"ﾑﾗｶﾐｼ","kana_address":"ｻﾝｷｮﾏﾁ","pref":"新潟県","city":"村上市","address":"山居町"},
{"zip_code":"9580837","kana_pref":"ﾆｲｶﾞﾀｹﾝ","kana_city":"ﾑﾗｶﾐｼ","kana_address":"ｻﾝﾉﾁｮｳ","pref":"新潟県","city":"村上市","address":"三之町"},
{"zip_code":"9580205","kana_pref":"ﾆｲｶﾞﾀｹﾝ","kana_city":"ﾑﾗｶﾐｼ","kana_address":"ｼｵﾉﾏﾁ","pref":"新潟県","city":"村上市","address":"塩野町"},
{"zip_code":"9580876","kana_pref":"ﾆｲｶﾞﾀｹﾝ","kana_city":"ﾑﾗｶﾐｼ","kana_address":"ｼｵﾏﾁ","pref":"新潟県","city":"村上市","address":"塩町"},
{"zip_code":"9580809","kana_pref":"ﾆｲｶﾞﾀｹﾝ","kana_city":"ﾑﾗｶﾐｼ","kana_address":"ｼﾓｱｲｶﾜ","pref":"新潟県","city":"村上市","address":"下相川"},
{"zip_code":"9580252","kana_pref":"ﾆｲｶﾞﾀｹﾝ","kana_city":"ﾑﾗｶﾐｼ","kana_address":"ｼﾓｼﾝﾎﾞ","pref":"新潟県","city":"村上市","address":"下新保"},
{"zip_code":"9580265","kana_pref":"ﾆｲｶﾞﾀｹﾝ","kana_city":"ﾑﾗｶﾐｼ","kana_address":"ｼﾓﾅｶｼﾞﾏ","pref":"新潟県","city":"村上市","address":"下中島"},
{"zip_code":"9580804","kana_pref":"ﾆｲｶﾞﾀｹﾝ","kana_city":"ﾑﾗｶﾐｼ","kana_address":"ｼﾓﾔﾏﾀﾞ","pref":"新潟県","city":"村上市","address":"下山田"},
{"zip_code":"9580874","kana_pref":"ﾆｲｶﾞﾀｹﾝ","kana_city":"ﾑﾗｶﾐｼ","kana_address":"ｼｮｳﾅｲﾏﾁ","pref":"新潟県","city":"村上市","address":"庄内町"},
{"zip_code":"9580834","kana_pref":"ﾆｲｶﾞﾀｹﾝ","kana_city":"ﾑﾗｶﾐｼ","kana_address":"ｼﾝﾏﾁ","pref":"新潟県","city":"村上市","address":"新町"},
{"zip_code":"9580817","kana_pref":"ﾆｲｶﾞﾀｹﾝ","kana_city":"ﾑﾗｶﾐｼ","kana_address":"ｽｶﾞﾇﾏ","pref":"新潟県","city":"村上市","address":"菅沼"},
{"zip_code":"9580831","kana_pref":"ﾆｲｶﾞﾀｹﾝ","kana_city":"ﾑﾗｶﾐｼ","kana_address":"ｽｷﾞﾜﾗ","pref":"新潟県","city":"村上市","address":"杉原"},
{"zip_code":"9580225","kana_pref":"ﾆｲｶﾞﾀｹﾝ","kana_city":"ﾑﾗｶﾐｼ","kana_address":"ｾｷｸﾞﾁ","pref":"新潟県","city":"村上市","address":"関口"},
{"zip_code":"9580037","kana_pref":"ﾆｲｶﾞﾀｹﾝ","kana_city":"ﾑﾗｶﾐｼ","kana_address":"ｾﾅﾐｵﾝｾﾝ","pref":"新潟県","city":"村上市","address":"瀬波温泉"},
{"zip_code":"9580023","kana_pref":"ﾆｲｶﾞﾀｹﾝ","kana_city":"ﾑﾗｶﾐｼ","kana_address":"ｾﾅﾐｶﾝﾏﾁ","pref":"新潟県","city":"村上市","address":"瀬波上町"},
{"zip_code":"9580021","kana_pref":"ﾆｲｶﾞﾀｹﾝ","kana_city":"ﾑﾗｶﾐｼ","kana_address":"ｾﾅﾐｼﾝﾃﾞﾝﾏﾁ","pref":"新潟県","city":"村上市","address":"瀬波新田町"},
{"zip_code":"9580024","kana_pref":"ﾆｲｶﾞﾀｹﾝ","kana_city":"ﾑﾗｶﾐｼ","kana_address":"ｾﾅﾐﾅｶﾏﾁ","pref":"新潟県","city":"村上市","address":"瀬波中町"},
{"zip_code":"9580026","kana_pref":"ﾆｲｶﾞﾀｹﾝ","kana_city":"ﾑﾗｶﾐｼ","kana_address":"ｾﾅﾐﾊﾏﾏﾁ","pref":"新潟県","city":"村上市","address":"瀬波浜町"},
{"zip_code":"9580022","kana_pref":"ﾆｲｶﾞﾀｹﾝ","kana_city":"ﾑﾗｶﾐｼ","kana_address":"ｾﾅﾐﾖｺﾏﾁ","pref":"新潟県","city":"村上市","address":"瀬波横町"},
{"zip_code":"9580254","kana_pref":"ﾆｲｶﾞﾀｹﾝ","kana_city":"ﾑﾗｶﾐｼ","kana_address":"ｿｶﾞﾜ","pref":"新潟県","city":"村上市","address":"十川"},
{"zip_code":"9580847","kana_pref":"ﾆｲｶﾞﾀｹﾝ","kana_city":"ﾑﾗｶﾐｼ","kana_address":"ﾀﾞｲｸﾏﾁ","pref":"新潟県","city":"村上市","address":"大工町"},
{"zip_code":"9580811","kana_pref":"ﾆｲｶﾞﾀｹﾝ","kana_city":"ﾑﾗｶﾐｼ","kana_address":"ﾀｶﾀﾞｲﾗ","pref":"新潟県","city":"村上市","address":"高平"},
{"zip_code":"9580211","kana_pref":"ﾆｲｶﾞﾀｹﾝ","kana_city":"ﾑﾗｶﾐｼ","kana_address":"ﾀｶﾈ","pref":"新潟県","city":"村上市","address":"高根"},
{"zip_code":"9580011","kana_pref":"ﾆｲｶﾞﾀｹﾝ","kana_city":"ﾑﾗｶﾐｼ","kana_address":"ﾀｷﾉﾏｴ","pref":"新潟県","city":"村上市","address":"滝の前"},
{"zip_code":"9580854","kana_pref":"ﾆｲｶﾞﾀｹﾝ","kana_city":"ﾑﾗｶﾐｼ","kana_address":"ﾀﾊﾞﾀﾏﾁ","pref":"新潟県","city":"村上市","address":"田端町"},
{"zip_code":"9580243","kana_pref":"ﾆｲｶﾞﾀｹﾝ","kana_city":"ﾑﾗｶﾐｼ","kana_address":"ﾁﾅﾜ","pref":"新潟県","city":"村上市","address":"千縄"},
{"zip_code":"9580823","kana_pref":"ﾆｲｶﾞﾀｹﾝ","kana_city":"ﾑﾗｶﾐｼ","kana_address":"ﾁｭｳｹﾞﾝﾏﾁ","pref":"新潟県","city":"村上市","address":"仲間町"},
{"zip_code":"9580822","kana_pref":"ﾆｲｶﾞﾀｹﾝ","kana_city":"ﾑﾗｶﾐｼ","kana_address":"ﾂﾎﾞﾈ","pref":"新潟県","city":"村上市","address":"坪根"},
{"zip_code":"9580267","kana_pref":"ﾆｲｶﾞﾀｹﾝ","kana_city":"ﾑﾗｶﾐｼ","kana_address":"ﾃﾗｵ","pref":"新潟県","city":"村上市","address":"寺尾"},
{"zip_code":"9580849","kana_pref":"ﾆｲｶﾞﾀｹﾝ","kana_city":"ﾑﾗｶﾐｼ","kana_address":"ﾃﾗﾏﾁ","pref":"新潟県","city":"村上市","address":"寺町"},
{"zip_code":"9580803","kana_pref":"ﾆｲｶﾞﾀｹﾝ","kana_city":"ﾑﾗｶﾐｼ","kana_address":"ﾃﾝｼﾞﾝｵｶ","pref":"新潟県","city":"村上市","address":"天神岡"},
{"zip_code":"9580844","kana_pref":"ﾆｲｶﾞﾀｹﾝ","kana_city":"ﾑﾗｶﾐｼ","kana_address":"ﾅｶﾞｲﾏﾁ","pref":"新潟県","city":"村上市","address":"長井町"},
{"zip_code":"9580861","kana_pref":"ﾆｲｶﾞﾀｹﾝ","kana_city":"ﾑﾗｶﾐｼ","kana_address":"ﾅｶｶﾞﾜﾗﾀﾞﾝﾁ","pref":"新潟県","city":"村上市","address":"中川原団地"},
{"zip_code":"9580233","kana_pref":"ﾆｲｶﾞﾀｹﾝ","kana_city":"ﾑﾗｶﾐｼ","kana_address":"ﾅｶｼﾝﾎﾞ","pref":"新潟県","city":"村上市","address":"中新保"},
{"zip_code":"9580223","kana_pref":"ﾆｲｶﾞﾀｹﾝ","kana_city":"ﾑﾗｶﾐｼ","kana_address":"ﾅｶﾊﾗ","pref":"新潟県","city":"村上市","address":"中原"},
{"zip_code":"9580801","kana_pref":"ﾆｲｶﾞﾀｹﾝ","kana_city":"ﾑﾗｶﾐｼ","kana_address":"ﾆｼｺｳﾔ","pref":"新潟県","city":"村上市","address":"西興屋"},
{"zip_code":"9580835","kana_pref":"ﾆｲｶﾞﾀｹﾝ","kana_city":"ﾑﾗｶﾐｼ","kana_address":"ﾆﾉﾁｮｳ","pref":"新潟県","city":"村上市","address":"二之町"},
{"zip_code":"9580231","kana_pref":"ﾆｲｶﾞﾀｹﾝ","kana_city":"ﾑﾗｶﾐｼ","kana_address":"ﾇﾉﾍﾞ","pref":"新潟県","city":"村上市","address":"布部"},
{"zip_code":"9580006","kana_pref":"ﾆｲｶﾞﾀｹﾝ","kana_city":"ﾑﾗｶﾐｼ","kana_address":"ﾉｶﾞﾀ","pref":"新潟県","city":"村上市","address":"野潟"},
{"zip_code":"9580836","kana_pref":"ﾆｲｶﾞﾀｹﾝ","kana_city":"ﾑﾗｶﾐｼ","kana_address":"ﾊｸﾞﾛｸﾞﾁ","pref":"新潟県","city":"村上市","address":"羽黒口"},
{"zip_code":"9580851","kana_pref":"ﾆｲｶﾞﾀｹﾝ","kana_city":"ﾑﾗｶﾐｼ","kana_address":"ﾊｸﾞﾛﾏﾁ","pref":"新潟県","city":"村上市","address":"羽黒町"},
{"zip_code":"9580013","kana_pref":"ﾆｲｶﾞﾀｹﾝ","kana_city":"ﾑﾗｶﾐｼ","kana_address":"ﾊｹﾞｶﾞﾌﾁ","pref":"新潟県","city":"村上市","address":"羽下ケ渕"},
{"zip_code":"9580038","kana_pref":"ﾆｲｶﾞﾀｹﾝ","kana_city":"ﾑﾗｶﾐｼ","kana_address":"ﾊﾏｼﾝﾃﾞﾝ","pref":"新潟県","city":"村上市","address":"浜新田"},
{"zip_code":"9580002","kana_pref":"ﾆｲｶﾞﾀｹﾝ","kana_city":"ﾑﾗｶﾐｼ","kana_address":"ﾊﾔｶﾜ","pref":"新潟県","city":"村上市","address":"早川"},
{"zip_code":"9580215","kana_pref":"ﾆｲｶﾞﾀｹﾝ","kana_city":"ﾑﾗｶﾐｼ","kana_address":"ﾋﾊﾞﾗ","pref":"新潟県","city":"村上市","address":"檜原"},
{"zip_code":"9580818","kana_pref":"ﾆｲｶﾞﾀｹﾝ","kana_city":"ﾑﾗｶﾐｼ","kana_address":"ﾌｸﾛ","pref":"新潟県","city":"村上市","address":"袋"},
{"zip_code":"9580201","kana_pref":"ﾆｲｶﾞﾀｹﾝ","kana_city":"ﾑﾗｶﾐｼ","kana_address":"ﾌﾞﾄﾞｳ","pref":"新潟県","city":"村上市","address":"蒲萄"},
{"zip_code":"9580269","kana_pref":"ﾆｲｶﾞﾀｹﾝ","kana_city":"ﾑﾗｶﾐｼ","kana_address":"ﾌﾙﾄﾛ","pref":"新潟県","city":"村上市","address":"古渡路"},
{"zip_code":"9580833","kana_pref":"ﾆｲｶﾞﾀｹﾝ","kana_city":"ﾑﾗｶﾐｼ","kana_address":"ﾎﾘｶﾀ","pref":"新潟県","city":"村上市","address":"堀片"},
{"zip_code":"9580234","kana_pref":"ﾆｲｶﾞﾀｹﾝ","kana_city":"ﾑﾗｶﾐｼ","kana_address":"ﾎﾘﾉ","pref":"新潟県","city":"村上市","address":"堀野"},
{"zip_code":"9580001","kana_pref":"ﾆｲｶﾞﾀｹﾝ","kana_city":"ﾑﾗｶﾐｼ","kana_address":"ﾏｵﾛｼ","pref":"新潟県","city":"村上市","address":"馬下"},
{"zip_code":"9580005","kana_pref":"ﾆｲｶﾞﾀｹﾝ","kana_city":"ﾑﾗｶﾐｼ","kana_address":"ﾏｼﾞﾏ","pref":"新潟県","city":"村上市","address":"間島"},
{"zip_code":"9580206","kana_pref":"ﾆｲｶﾞﾀｹﾝ","kana_city":"ﾑﾗｶﾐｼ","kana_address":"ﾏﾂｵｶ","pref":"新潟県","city":"村上市","address":"松岡"},
{"zip_code":"9580025","kana_pref":"ﾆｲｶﾞﾀｹﾝ","kana_city":"ﾑﾗｶﾐｼ","kana_address":"ﾏﾂﾅﾐﾁｮｳ","pref":"新潟県","city":"村上市","address":"松波町"},
{"zip_code":"9580032","kana_pref":"ﾆｲｶﾞﾀｹﾝ","kana_city":"ﾑﾗｶﾐｼ","kana_address":"ﾏﾂﾊﾞﾗﾁｮｳ","pref":"新潟県","city":"村上市","address":"松原町"},
{"zip_code":"9580034","kana_pref":"ﾆｲｶﾞﾀｹﾝ","kana_city":"ﾑﾗｶﾐｼ","kana_address":"ﾏﾂﾔﾏ","pref":"新潟県","city":"村上市","address":"松山"},
{"zip_code":"9580035","kana_pref":"ﾆｲｶﾞﾀｹﾝ","kana_city":"ﾑﾗｶﾐｼ","kana_address":"ﾐｵﾓﾃ","pref":"新潟県","city":"村上市","address":"三面"},
{"zip_code":"9580033","kana_pref":"ﾆｲｶﾞﾀｹﾝ","kana_city":"ﾑﾗｶﾐｼ","kana_address":"ﾐﾄﾞﾘﾏﾁ","pref":"新潟県","city":"村上市","address":"緑町"},
{"zip_code":"9580852","kana_pref":"ﾆｲｶﾞﾀｹﾝ","kana_city":"ﾑﾗｶﾐｼ","kana_address":"ﾐﾅﾐﾏﾁ","pref":"新潟県","city":"村上市","address":"南町"},
{"zip_code":"9580266","kana_pref":"ﾆｲｶﾞﾀｹﾝ","kana_city":"ﾑﾗｶﾐｼ","kana_address":"ﾐﾔﾉｼﾀ","pref":"新潟県","city":"村上市","address":"宮ノ下"},
{"zip_code":"9580866","kana_pref":"ﾆｲｶﾞﾀｹﾝ","kana_city":"ﾑﾗｶﾐｼ","kana_address":"ﾑﾗｶﾐ","pref":"新潟県","city":"村上市","address":"村上"},
{"zip_code":"9580824","kana_pref":"ﾆｲｶﾞﾀｹﾝ","kana_city":"ﾑﾗｶﾐｼ","kana_address":"ﾓﾄﾏﾁ","pref":"新潟県","city":"村上市","address":"本町"},
{"zip_code":"9580814","kana_pref":"ﾆｲｶﾞﾀｹﾝ","kana_city":"ﾑﾗｶﾐｼ","kana_address":"ﾓﾝｾﾞﾝ","pref":"新潟県","city":"村上市","address":"門前"},
{"zip_code":"9580052","kana_pref":"ﾆｲｶﾞﾀｹﾝ","kana_city":"ﾑﾗｶﾐｼ","kana_address":"ﾖｳｶｲﾁ","pref":"新潟県","city":"村上市","address":"八日市"},
{"zip_code":"9580003","kana_pref":"ﾆｲｶﾞﾀｹﾝ","kana_city":"ﾑﾗｶﾐｼ","kana_address":"ﾖｼｳﾗ","pref":"新潟県","city":"村上市","address":"吉浦"},
{"zip_code":"9580802","kana_pref":"ﾆｲｶﾞﾀｹﾝ","kana_city":"ﾑﾗｶﾐｼ","kana_address":"ﾖｯｶｲﾁ","pref":"新潟県","city":"村上市","address":"四日市"},
{"zip_code":"9580862","kana_pref":"ﾆｲｶﾞﾀｹﾝ","kana_city":"ﾑﾗｶﾐｼ","kana_address":"ﾜｶﾊﾞﾁｮｳ","pref":"新潟県","city":"村上市","address":"若葉町"},
{"zip_code":"9580213","kana_pref":"ﾆｲｶﾞﾀｹﾝ","kana_city":"ﾑﾗｶﾐｼ","kana_address":"ﾜｾﾀﾞ","pref":"新潟県","city":"村上市","address":"早稲田"},
{"zip_code":"9580061","kana_pref":"ﾆｲｶﾞﾀｹﾝ","kana_city":"ｲﾜﾌﾈｸﾞﾝｱﾜｼﾏｳﾗﾑﾗ","kana_address":"ｱﾜｼﾏｳﾗﾑﾗｲﾁｴﾝ","pref":"新潟県","city":"岩船郡粟島浦村","address":"粟島浦村一円"}]}