{"zip_code":[
{"zip_code":"9600000","kana_pref":"ﾌｸｼﾏｹﾝ","kana_city":"ﾌｸｼﾏｼ","kana_address":"","pref":"福島県","city":"福島市","address":""},
{"zip_code":"9608113","kana_pref":"ﾌｸｼﾏｹﾝ","kana_city":"ﾌｸｼﾏｼ","kana_address":"ｱｻﾋﾁｮｳ","pref":"福島県","city":"福島市","address":"旭町"},
{"zip_code":"9602156","kana_pref":"ﾌｸｼﾏｹﾝ","kana_city":"ﾌｸｼﾏｼ","kana_address":"ｱﾗｲ","pref":"福島県","city":"福島市","address":"荒井"},
{"zip_code":"9602102","kana_pref":"ﾌｸｼﾏｹﾝ","kana_city":"ﾌｸｼﾏｼ","kana_address":"ｱﾗｲｷﾀ","pref":"福島県","city":"福島市","address":"荒井北"},
{"zip_code":"9608042","kana_pref":"ﾌｸｼﾏｹﾝ","kana_city":"ﾌｸｼﾏｼ","kana_address":"ｱﾗﾏﾁ","pref":"福島県","city":"福島市","address":"荒町"},
{"zip_code":"9600201","kana_pref":"ﾌｸｼﾏｹﾝ","kana_city":"ﾌｸｼﾏｼ","kana_address":"ｲｲｻﾞｶﾏﾁ","pref":"福島県","city":"福島市","address":"飯坂町"},
{"zip_code":"9600261","kana_pref":"ﾌｸｼﾏｹﾝ","kana_city":"ﾌｸｼﾏｼ","kana_address":"ｲｲｻﾞｶﾏﾁﾅｶﾉ","pref":"福島県","city":"福島市","address":"飯坂町中野"},
{"zip_code":"9600221","kana_pref":"ﾌｸｼﾏｹﾝ","kana_city":"ﾌｸｼﾏｼ","kana_address":"ｲｲｻﾞｶﾏﾁﾋｶﾞｼﾕﾉ","pref":"福島県","city":"福島市","address":"飯坂町東湯野"},
{"zip_code":"9600231","kana_pref":"ﾌｸｼﾏｹﾝ","kana_city":"ﾌｸｼﾏｼ","kana_address":"ｲｲｻﾞｶﾏﾁﾋﾗﾉ","pref":"福島県","city":"福島市","address":"飯坂町平野"},
{"zip_code":"9600271","kana_pref":"ﾌｸｼﾏｹﾝ","kana_city":"ﾌｸｼﾏｼ","kana_address":"ｲｲｻﾞｶﾏﾁﾓﾆﾜ","pref":"福島県","city":"福島市","address":"飯坂町茂庭"},
{"zip_code":"9600211","kana_pref":"ﾌｸｼﾏｹﾝ","kana_city":"ﾌｸｼﾏｼ","kana_address":"ｲｲｻﾞｶﾏﾁﾕﾉ","pref":"福島県","city":"福島市","address":"飯坂町湯野"},
{"zip_code":"9601301","kana_pref":"ﾌｸｼﾏｹﾝ","kana_city":"ﾌｸｼﾏｼ","kana_address":"ｲｲﾉﾏﾁ","pref":"福島県","city":"福島市","address":"飯野町"},
{"zip_code":"9601303","kana_pref":"ﾌｸｼﾏｹﾝ","kana_city":"ﾌｸｼﾏｼ","kana_address":"ｲｲﾉﾏﾁｱｵｷ","pref":"福島県","city":"福島市","address":"飯野町青木"},
{"zip_code":"9601304","kana_pref":"ﾌｸｼﾏｹﾝ","kana_city":"ﾌｸｼﾏｼ","kana_address":"ｲｲﾉﾏﾁｵｵｸﾎﾞ","pref":"福島県","city":"福島市","address":"飯野町大久保"},
{"zip_code":"9601302","kana_pref":"ﾌｸｼﾏｹﾝ","kana_city":"ﾌｸｼﾏｼ","kana_address":"ｲｲﾉﾏﾁﾒｲｼﾞ","pref":"福島県","city":"福島市","address":"飯野町明治"},
{"zip_code":"9608244","kana_pref":"ﾌｸｼﾏｹﾝ","kana_city":"ﾌｸｼﾏｼ","kana_address":"ｲｼﾀﾞ","pref":"福島県","city":"福島市","address":"石田"},
{"zip_code":"9608253","kana_pref":"ﾌｸｼﾏｹﾝ","kana_city":"ﾌｸｼﾏｼ","kana_address":"ｲｽﾞﾐ","pref":"福島県","city":"福島市","address":"泉"},
{"zip_code":"9608117","kana_pref":"ﾌｸｼﾏｹﾝ","kana_city":"ﾌｸｼﾏｼ","kana_address":"ｲﾘｴﾁｮｳ","pref":"福島県","city":"福島市","address":"入江町"},
{"zip_code":"9608241","kana_pref":"ﾌｸｼﾏｹﾝ","kana_city":"ﾌｸｼﾏｼ","kana_address":"ｲﾜﾉﾏｴ","pref":"福島県","city":"福島市","address":"岩ノ前"},
{"zip_code":"9608243","kana_pref":"ﾌｸｼﾏｹﾝ","kana_city":"ﾌｸｼﾏｼ","kana_address":"ｲﾜﾔ","pref":"福島県","city":"福島市","address":"岩谷"},
{"zip_code":"9608101","kana_pref":"ﾌｸｼﾏｹﾝ","kana_city":"ﾌｸｼﾏｼ","kana_address":"ｳﾜﾏﾁ","pref":"福島県","city":"福島市","address":"上町"},
{"zip_code":"9608222","kana_pref":"ﾌｸｼﾏｹﾝ","kana_city":"ﾌｸｼﾏｼ","kana_address":"ｴｿﾞﾇｷ","pref":"福島県","city":"福島市","address":"蝦貫"},
{"zip_code":"9600251","kana_pref":"ﾌｸｼﾏｹﾝ","kana_city":"ﾌｸｼﾏｼ","kana_address":"ｵｵｻﾞｿｳ","pref":"福島県","city":"福島市","address":"大笹生"},
{"zip_code":"9608068","kana_pref":"ﾌｸｼﾏｹﾝ","kana_city":"ﾌｸｼﾏｼ","kana_address":"ｵｵﾀﾏﾁ","pref":"福島県","city":"福島市","address":"太田町"},
{"zip_code":"9600811","kana_pref":"ﾌｸｼﾏｹﾝ","kana_city":"ﾌｸｼﾏｼ","kana_address":"ｵｵﾅﾐ","pref":"福島県","city":"福島市","address":"大波"},
{"zip_code":"9608014","kana_pref":"ﾌｸｼﾏｹﾝ","kana_city":"ﾌｸｼﾏｼ","kana_address":"ｵｵﾋﾗﾔﾏ","pref":"福島県","city":"福島市","address":"大平山"},
{"zip_code":"9608041","kana_pref":"ﾌｸｼﾏｹﾝ","kana_city":"ﾌｸｼﾏｼ","kana_address":"ｵｵﾏﾁ","pref":"福島県","city":"福島市","address":"大町"},
{"zip_code":"9601101","kana_pref":"ﾌｸｼﾏｹﾝ","kana_city":"ﾌｸｼﾏｼ","kana_address":"ｵｵﾓﾘ","pref":"福島県","city":"福島市","address":"大森"},
{"zip_code":"9608237","kana_pref":"ﾌｸｼﾏｹﾝ","kana_city":"ﾌｸｼﾏｼ","kana_address":"ｵｵﾓﾘ","pref":"福島県","city":"福島市","address":"大森"},
{"zip_code":"9608201","kana_pref":"ﾌｸｼﾏｹﾝ","kana_city":"ﾌｸｼﾏｼ","kana_address":"ｵｶｼﾞﾏ","pref":"福島県","city":"福島市","address":"岡島"},
{"zip_code":"9608204","kana_pref":"ﾌｸｼﾏｹﾝ","kana_city":"ﾌｸｼﾏｼ","kana_address":"ｵｶﾍﾞ","pref":"福島県","city":"福島市","address":"岡部"},
{"zip_code":"9608034","kana_pref":"ﾌｸｼﾏｹﾝ","kana_city":"ﾌｸｼﾏｼ","kana_address":"ｵｷﾀﾏﾁｮｳ","pref":"福島県","city":"福島市","address":"置賜町"},
{"zip_code":"9600114","kana_pref":"ﾌｸｼﾏｹﾝ","kana_city":"ﾌｸｼﾏｼ","kana_address":"ｵｷﾀﾞｶ","pref":"福島県","city":"福島市","address":"沖高"},
{"zip_code":"9608142","kana_pref":"ﾌｸｼﾏｹﾝ","kana_city":"ﾌｸｼﾏｼ","kana_address":"ｵｸﾞﾗｼﾞ","pref":"福島県","city":"福島市","address":"小倉寺"},
{"zip_code":"9608064","kana_pref":"ﾌｸｼﾏｹﾝ","kana_city":"ﾌｸｼﾏｼ","kana_address":"ｵｸﾞﾗﾁｮｳ","pref":"福島県","city":"福島市","address":"御倉町"},
{"zip_code":"9601104","kana_pref":"ﾌｸｼﾏｹﾝ","kana_city":"ﾌｸｼﾏｼ","kana_address":"ｵﾀﾞ","pref":"福島県","city":"福島市","address":"小田"},
{"zip_code":"9608252","kana_pref":"ﾌｸｼﾏｹﾝ","kana_city":"ﾌｸｼﾏｼ","kana_address":"ｵﾔﾏ","pref":"福島県","city":"福島市","address":"御山"},
{"zip_code":"9608012","kana_pref":"ﾌｸｼﾏｹﾝ","kana_city":"ﾌｸｼﾏｼ","kana_address":"ｵﾔﾏﾁｮｳ","pref":"福島県","city":"福島市","address":"御山町"},
{"zip_code":"9608116","kana_pref":"ﾌｸｼﾏｹﾝ","kana_city":"ﾌｸｼﾏｼ","kana_address":"ｶｽｶﾞﾁｮｳ","pref":"福島県","city":"福島市","address":"春日町"},
{"zip_code":"9608021","kana_pref":"ﾌｸｼﾏｹﾝ","kana_city":"ﾌｸｼﾏｼ","kana_address":"ｶｽﾐﾁｮｳ","pref":"福島県","city":"福島市","address":"霞町"},
{"zip_code":"9601248","kana_pref":"ﾌｸｼﾏｹﾝ","kana_city":"ﾌｸｼﾏｼ","kana_address":"ｶﾅﾔｶﾞﾜ","pref":"福島県","city":"福島市","address":"金谷川"},
{"zip_code":"9600102","kana_pref":"ﾌｸｼﾏｹﾝ","kana_city":"ﾌｸｼﾏｼ","kana_address":"ｶﾏﾀ","pref":"福島県","city":"福島市","address":"鎌田"},
{"zip_code":"9608217","kana_pref":"ﾌｸｼﾏｹﾝ","kana_city":"ﾌｸｼﾏｼ","kana_address":"ｶﾐｱﾗｺ","pref":"福島県","city":"福島市","address":"上荒子"},
{"zip_code":"9601107","kana_pref":"ﾌｸｼﾏｹﾝ","kana_city":"ﾌｸｼﾏｼ","kana_address":"ｶﾐﾄﾘﾜﾀ","pref":"福島県","city":"福島市","address":"上鳥渡"},
{"zip_code":"9602155","kana_pref":"ﾌｸｼﾏｹﾝ","kana_city":"ﾌｸｼﾏｼ","kana_address":"ｶﾐﾅｸﾞﾗ","pref":"福島県","city":"福島市","address":"上名倉"},
{"zip_code":"9608076","kana_pref":"ﾌｸｼﾏｹﾝ","kana_city":"ﾌｸｼﾏｼ","kana_address":"ｶﾐﾉﾃﾞﾗ","pref":"福島県","city":"福島市","address":"上野寺"},
{"zip_code":"9608134","kana_pref":"ﾌｸｼﾏｹﾝ","kana_city":"ﾌｸｼﾏｼ","kana_address":"ｶﾐﾊﾏﾁｮｳ","pref":"福島県","city":"福島市","address":"上浜町"},
{"zip_code":"9608026","kana_pref":"ﾌｸｼﾏｹﾝ","kana_city":"ﾌｸｼﾏｼ","kana_address":"ｶﾘﾉ","pref":"福島県","city":"福島市","address":"狩野"},
{"zip_code":"9608131","kana_pref":"ﾌｸｼﾏｹﾝ","kana_city":"ﾌｸｼﾏｼ","kana_address":"ｷﾀｺﾞﾛｳｳﾁﾏﾁ","pref":"福島県","city":"福島市","address":"北五老内町"},
{"zip_code":"9608251","kana_pref":"ﾌｸｼﾏｹﾝ","kana_city":"ﾌｸｼﾏｼ","kana_address":"ｷﾀｻﾜﾏﾀ","pref":"福島県","city":"福島市","address":"北沢又"},
{"zip_code":"9608072","kana_pref":"ﾌｸｼﾏｹﾝ","kana_city":"ﾌｸｼﾏｼ","kana_address":"ｷﾀﾁｭｳｵｳ","pref":"福島県","city":"福島市","address":"北中央"},
{"zip_code":"9608221","kana_pref":"ﾌｸｼﾏｹﾝ","kana_city":"ﾌｸｼﾏｼ","kana_address":"ｷﾀﾅｶｶﾜﾊﾗ","pref":"福島県","city":"福島市","address":"北中川原"},
{"zip_code":"9608226","kana_pref":"ﾌｸｼﾏｹﾝ","kana_city":"ﾌｸｼﾏｼ","kana_address":"ｷﾀﾉﾏｴ","pref":"福島県","city":"福島市","address":"北ノ前"},
{"zip_code":"9608231","kana_pref":"ﾌｸｼﾏｹﾝ","kana_city":"ﾌｸｼﾏｼ","kana_address":"ｷﾀﾊﾗ","pref":"福島県","city":"福島市","address":"北原"},
{"zip_code":"9608102","kana_pref":"ﾌｸｼﾏｹﾝ","kana_city":"ﾌｸｼﾏｼ","kana_address":"ｷﾀﾏﾁ","pref":"福島県","city":"福島市","address":"北町"},
{"zip_code":"9600113","kana_pref":"ﾌｸｼﾏｹﾝ","kana_city":"ﾌｸｼﾏｼ","kana_address":"ｷﾀﾔﾉﾒ","pref":"福島県","city":"福島市","address":"北矢野目"},
{"zip_code":"9608017","kana_pref":"ﾌｸｼﾏｹﾝ","kana_city":"ﾌｸｼﾏｼ","kana_address":"ｷﾂﾈﾂﾞｶ","pref":"福島県","city":"福島市","address":"狐塚"},
{"zip_code":"9608016","kana_pref":"ﾌｸｼﾏｹﾝ","kana_city":"ﾌｸｼﾏｼ","kana_address":"ｷﾂﾈﾂﾞｶﾊﾀ","pref":"福島県","city":"福島市","address":"狐塚畑"},
{"zip_code":"9608015","kana_pref":"ﾌｸｼﾏｹﾝ","kana_city":"ﾌｸｼﾏｼ","kana_address":"ｷﾂﾈﾔﾏ","pref":"福島県","city":"福島市","address":"狐山"},
{"zip_code":"9608153","kana_pref":"ﾌｸｼﾏｹﾝ","kana_city":"ﾌｸｼﾏｼ","kana_address":"ｸﾛｲﾜ","pref":"福島県","city":"福島市","address":"黒岩"},
{"zip_code":"9608014","kana_pref":"ﾌｸｼﾏｹﾝ","kana_city":"ﾌｸｼﾏｼ","kana_address":"ｺｲｼ","pref":"福島県","city":"福島市","address":"児石"},
{"zip_code":"9608052","kana_pref":"ﾌｸｼﾏｹﾝ","kana_city":"ﾌｸｼﾏｼ","kana_address":"ｺｳｼﾞﾀﾞ","pref":"福島県","city":"福島市","address":"公事田"},
{"zip_code":"9608218","kana_pref":"ﾌｸｼﾏｹﾝ","kana_city":"ﾌｸｼﾏｼ","kana_address":"ｺｳﾔｶﾜﾊﾗｼﾀ","pref":"福島県","city":"福島市","address":"高野河原下"},
{"zip_code":"9608121","kana_pref":"ﾌｸｼﾏｹﾝ","kana_city":"ﾌｸｼﾏｼ","kana_address":"ｺｶﾞﾈﾔﾏ","pref":"福島県","city":"福島市","address":"小金山"},
{"zip_code":"9608135","kana_pref":"ﾌｸｼﾏｹﾝ","kana_city":"ﾌｸｼﾏｼ","kana_address":"ｺｼﾊﾏﾁｮｳ","pref":"福島県","city":"福島市","address":"腰浜町"},
{"zip_code":"9608025","kana_pref":"ﾌｸｼﾏｹﾝ","kana_city":"ﾌｸｼﾏｼ","kana_address":"ｺﾏﾔﾏ","pref":"福島県","city":"福島市","address":"駒山"},
{"zip_code":"9608161","kana_pref":"ﾌｸｼﾏｹﾝ","kana_city":"ﾌｸｼﾏｼ","kana_address":"ｺﾞｳﾉﾒ","pref":"福島県","city":"福島市","address":"郷野目"},
{"zip_code":"9608111","kana_pref":"ﾌｸｼﾏｹﾝ","kana_city":"ﾌｸｼﾏｼ","kana_address":"ｺﾞﾛｳｳﾁﾏﾁ","pref":"福島県","city":"福島市","address":"五老内町"},
{"zip_code":"9602262","kana_pref":"ﾌｸｼﾏｹﾝ","kana_city":"ﾌｸｼﾏｼ","kana_address":"ｻﾞｲﾆﾜｻｶ","pref":"福島県","city":"福島市","address":"在庭坂"},
{"zip_code":"9608031","kana_pref":"ﾌｸｼﾏｹﾝ","kana_city":"ﾌｸｼﾏｼ","kana_address":"ｻｶｴﾏﾁ","pref":"福島県","city":"福島市","address":"栄町"},
{"zip_code":"9608242","kana_pref":"ﾌｸｼﾏｹﾝ","kana_city":"ﾌｸｼﾏｼ","kana_address":"ｻｶﾉﾎﾞﾘ","pref":"福島県","city":"福島市","address":"坂登"},
{"zip_code":"9602101","kana_pref":"ﾌｸｼﾏｹﾝ","kana_city":"ﾌｸｼﾏｼ","kana_address":"ｻｸﾗ","pref":"福島県","city":"福島市","address":"さくら"},
{"zip_code":"9608133","kana_pref":"ﾌｸｼﾏｹﾝ","kana_city":"ﾌｸｼﾏｼ","kana_address":"ｻｸﾗｷﾞﾁｮｳ","pref":"福島県","city":"福島市","address":"桜木町"},
{"zip_code":"9602154","kana_pref":"ﾌｸｼﾏｹﾝ","kana_city":"ﾌｸｼﾏｼ","kana_address":"ｻｸﾗｼﾓ","pref":"福島県","city":"福島市","address":"佐倉下"},
{"zip_code":"9602251","kana_pref":"ﾌｸｼﾏｹﾝ","kana_city":"ﾌｸｼﾏｼ","kana_address":"ｻｸﾗﾓﾄ","pref":"福島県","city":"福島市","address":"桜本"},
{"zip_code":"9602151","kana_pref":"ﾌｸｼﾏｹﾝ","kana_city":"ﾌｸｼﾏｼ","kana_address":"ｻｸﾗﾓﾄ","pref":"福島県","city":"福島市","address":"桜本"},
{"zip_code":"9608057","kana_pref":"ﾌｸｼﾏｹﾝ","kana_city":"ﾌｸｼﾏｼ","kana_address":"ｻｻｷﾉ","pref":"福島県","city":"福島市","address":"笹木野"},
{"zip_code":"9600241","kana_pref":"ﾌｸｼﾏｹﾝ","kana_city":"ﾌｸｼﾏｼ","kana_address":"ｻｻﾔ","pref":"福島県","city":"福島市","address":"笹谷"},
{"zip_code":"9608061","kana_pref":"ﾌｸｼﾏｹﾝ","kana_city":"ﾌｸｼﾏｼ","kana_address":"ｻﾂｷﾁｮｳ","pref":"福島県","city":"福島市","address":"五月町"},
{"zip_code":"9602158","kana_pref":"ﾌｸｼﾏｹﾝ","kana_city":"ﾌｸｼﾏｼ","kana_address":"ｻﾊﾞﾗ","pref":"福島県","city":"福島市","address":"佐原"},
{"zip_code":"9608234","kana_pref":"ﾌｸｼﾏｹﾝ","kana_city":"ﾌｸｼﾏｼ","kana_address":"ｻﾝｷｮ","pref":"福島県","city":"福島市","address":"山居"},
{"zip_code":"9608124","kana_pref":"ﾌｸｼﾏｹﾝ","kana_city":"ﾌｸｼﾏｼ","kana_address":"ｻﾝｷｮｳｴ","pref":"福島県","city":"福島市","address":"山居上"},
{"zip_code":"9608155","kana_pref":"ﾌｸｼﾏｹﾝ","kana_city":"ﾌｸｼﾏｼ","kana_address":"ｼﾐｽﾞﾏﾁ","pref":"福島県","city":"福島市","address":"清水町"},
{"zip_code":"9608122","kana_pref":"ﾌｸｼﾏｹﾝ","kana_city":"ﾌｸｼﾏｼ","kana_address":"ｼﾐｽﾞﾔﾏ","pref":"福島県","city":"福島市","address":"清水山"},
{"zip_code":"9608215","kana_pref":"ﾌｸｼﾏｹﾝ","kana_city":"ﾌｸｼﾏｼ","kana_address":"ｼﾓｱﾗｺ","pref":"福島県","city":"福島市","address":"下荒子"},
{"zip_code":"9600115","kana_pref":"ﾌｸｼﾏｹﾝ","kana_city":"ﾌｸｼﾏｼ","kana_address":"ｼﾓｲｲｻﾞｶ","pref":"福島県","city":"福島市","address":"下飯坂"},
{"zip_code":"9601106","kana_pref":"ﾌｸｼﾏｹﾝ","kana_city":"ﾌｸｼﾏｼ","kana_address":"ｼﾓﾄﾘﾜﾀ","pref":"福島県","city":"福島市","address":"下鳥渡"},
{"zip_code":"9608075","kana_pref":"ﾌｸｼﾏｹﾝ","kana_city":"ﾌｸｼﾏｼ","kana_address":"ｼﾓﾉﾃﾞﾗ","pref":"福島県","city":"福島市","address":"下野寺"},
{"zip_code":"9602153","kana_pref":"ﾌｸｼﾏｹﾝ","kana_city":"ﾌｸｼﾏｼ","kana_address":"ｼｮｳﾉ","pref":"福島県","city":"福島市","address":"庄野"},
{"zip_code":"9608032","kana_pref":"ﾌｸｼﾏｹﾝ","kana_city":"ﾌｸｼﾏｼ","kana_address":"ｼﾞﾝﾊﾞﾁｮｳ","pref":"福島県","city":"福島市","address":"陣場町"},
{"zip_code":"9608022","kana_pref":"ﾌｸｼﾏｹﾝ","kana_city":"ﾌｸｼﾏｼ","kana_address":"ｼﾝﾊﾏﾁｮｳ","pref":"福島県","city":"福島市","address":"新浜町"},
{"zip_code":"9608036","kana_pref":"ﾌｸｼﾏｹﾝ","kana_city":"ﾌｸｼﾏｼ","kana_address":"ｼﾝﾏﾁ","pref":"福島県","city":"福島市","address":"新町"},
{"zip_code":"9608067","kana_pref":"ﾌｸｼﾏｹﾝ","kana_city":"ﾌｸｼﾏｼ","kana_address":"ｽｶﾜﾁｮｳ","pref":"福島県","city":"福島市","address":"須川町"},
{"zip_code":"9608065","kana_pref":"ﾌｸｼﾏｹﾝ","kana_city":"ﾌｸｼﾏｼ","kana_address":"ｽｷﾞﾂﾏﾁｮｳ","pref":"福島県","city":"福島市","address":"杉妻町"},
{"zip_code":"9600252","kana_pref":"ﾌｸｼﾏｹﾝ","kana_city":"ﾌｸｼﾏｼ","kana_address":"ｽﾓﾓﾀﾞｲﾗ","pref":"福島県","city":"福島市","address":"李平"},
{"zip_code":"9608062","kana_pref":"ﾌｸｼﾏｹﾝ","kana_city":"ﾌｸｼﾏｼ","kana_address":"ｾｲﾒｲﾁｮｳ","pref":"福島県","city":"福島市","address":"清明町"},
{"zip_code":"9600101","kana_pref":"ﾌｸｼﾏｹﾝ","kana_city":"ﾌｸｼﾏｼ","kana_address":"ｾﾉｳｴﾏﾁ","pref":"福島県","city":"福島市","address":"瀬上町"},
{"zip_code":"9608051","kana_pref":"ﾌｸｼﾏｹﾝ","kana_city":"ﾌｸｼﾏｼ","kana_address":"ｿﾈﾀﾞﾁｮｳ","pref":"福島県","city":"福島市","address":"曾根田町"},
{"zip_code":"9608151","kana_pref":"ﾌｸｼﾏｹﾝ","kana_city":"ﾌｸｼﾏｼ","kana_address":"ﾀｲﾍｲｼﾞ","pref":"福島県","city":"福島市","address":"太平寺"},
{"zip_code":"9608023","kana_pref":"ﾌｸｼﾏｹﾝ","kana_city":"ﾌｸｼﾏｼ","kana_address":"ﾀﾞｲﾐｮｳｼﾞﾝ","pref":"福島県","city":"福島市","address":"大明神"},
{"zip_code":"9608235","kana_pref":"ﾌｸｼﾏｹﾝ","kana_city":"ﾌｸｼﾏｼ","kana_address":"ﾀｷﾓﾄ","pref":"福島県","city":"福島市","address":"滝元"},
{"zip_code":"9608156","kana_pref":"ﾌｸｼﾏｹﾝ","kana_city":"ﾌｸｼﾏｼ","kana_address":"ﾀｻﾞﾜ","pref":"福島県","city":"福島市","address":"田沢"},
{"zip_code":"9601321","kana_pref":"ﾌｸｼﾏｹﾝ","kana_city":"ﾌｸｼﾏｼ","kana_address":"ﾀﾂｺﾞﾔﾏ","pref":"福島県","city":"福島市","address":"立子山"},
{"zip_code":"9608232","kana_pref":"ﾌｸｼﾏｹﾝ","kana_city":"ﾌｸｼﾏｼ","kana_address":"ﾀﾃｲｼ","pref":"福島県","city":"福島市","address":"立石"},
{"zip_code":"9608225","kana_pref":"ﾌｸｼﾏｹﾝ","kana_city":"ﾌｸｼﾏｼ","kana_address":"ﾀﾃﾉｳﾁ","pref":"福島県","city":"福島市","address":"舘ノ内"},
{"zip_code":"9608224","kana_pref":"ﾌｸｼﾏｹﾝ","kana_city":"ﾌｸｼﾏｼ","kana_address":"ﾀﾃﾉﾏｴ","pref":"福島県","city":"福島市","address":"舘ノ前"},
{"zip_code":"9608227","kana_pref":"ﾌｸｼﾏｹﾝ","kana_city":"ﾌｸｼﾏｼ","kana_address":"ﾀﾅｶｼﾞﾏ","pref":"福島県","city":"福島市","address":"田中島"},
{"zip_code":"9608211","kana_pref":"ﾌｸｼﾏｹﾝ","kana_city":"ﾌｸｼﾏｼ","kana_address":"ﾁｬﾔｼﾀ","pref":"福島県","city":"福島市","address":"茶屋下"},
{"zip_code":"9608105","kana_pref":"ﾌｸｼﾏｹﾝ","kana_city":"ﾌｸｼﾏｼ","kana_address":"ﾁｭｳｹﾞﾝﾁｮｳ","pref":"福島県","city":"福島市","address":"仲間町"},
{"zip_code":"9602152","kana_pref":"ﾌｸｼﾏｹﾝ","kana_city":"ﾌｸｼﾏｼ","kana_address":"ﾂﾁﾌﾈ","pref":"福島県","city":"福島市","address":"土船"},
{"zip_code":"9602157","kana_pref":"ﾌｸｼﾏｹﾝ","kana_city":"ﾌｸｼﾏｼ","kana_address":"ﾂﾁﾕｵﾝｾﾝﾏﾁ","pref":"福島県","city":"福島市","address":"土湯温泉町"},
{"zip_code":"9608001","kana_pref":"ﾌｸｼﾏｹﾝ","kana_city":"ﾌｸｼﾏｼ","kana_address":"ﾃﾝｼﾞﾝﾁｮｳ","pref":"福島県","city":"福島市","address":"天神町"},
{"zip_code":"9608024","kana_pref":"ﾌｸｼﾏｹﾝ","kana_city":"ﾌｸｼﾏｼ","kana_address":"ﾄﾞｳﾃﾞﾝ","pref":"福島県","city":"福島市","address":"堂殿"},
{"zip_code":"9608213","kana_pref":"ﾌｸｼﾏｹﾝ","kana_city":"ﾌｸｼﾏｼ","kana_address":"ﾄｵｾﾄ","pref":"福島県","city":"福島市","address":"遠瀬戸"},
{"zip_code":"9608125","kana_pref":"ﾌｸｼﾏｹﾝ","kana_city":"ﾌｸｼﾏｼ","kana_address":"ﾄｷﾄｳﾓﾘ","pref":"福島県","city":"福島市","address":"鴇頭森"},
{"zip_code":"9608123","kana_pref":"ﾌｸｼﾏｹﾝ","kana_city":"ﾌｸｼﾏｼ","kana_address":"ﾄｺﾛｸﾎﾞ","pref":"福島県","city":"福島市","address":"所窪"},
{"zip_code":"9608152","kana_pref":"ﾌｸｼﾏｹﾝ","kana_city":"ﾌｸｼﾏｼ","kana_address":"ﾄﾔﾉ","pref":"福島県","city":"福島市","address":"鳥谷野"},
{"zip_code":"9608104","kana_pref":"ﾌｸｼﾏｹﾝ","kana_city":"ﾌｸｼﾏｼ","kana_address":"ﾄﾖﾀﾞﾏﾁ","pref":"福島県","city":"福島市","address":"豊田町"},
{"zip_code":"9608216","kana_pref":"ﾌｸｼﾏｹﾝ","kana_city":"ﾌｸｼﾏｼ","kana_address":"ﾅｶｱﾗｺ","pref":"福島県","city":"福島市","address":"中荒子"},
{"zip_code":"9608043","kana_pref":"ﾌｸｼﾏｹﾝ","kana_city":"ﾌｸｼﾏｼ","kana_address":"ﾅｶﾏﾁ","pref":"福島県","city":"福島市","address":"中町"},
{"zip_code":"9601102","kana_pref":"ﾌｸｼﾏｹﾝ","kana_city":"ﾌｸｼﾏｼ","kana_address":"ﾅｶﾞｲｶﾜ","pref":"福島県","city":"福島市","address":"永井川"},
{"zip_code":"9601108","kana_pref":"ﾌｸｼﾏｹﾝ","kana_city":"ﾌｸｼﾏｼ","kana_address":"ﾅﾘｶﾜ","pref":"福島県","city":"福島市","address":"成川"},
{"zip_code":"9608143","kana_pref":"ﾌｸｼﾏｹﾝ","kana_city":"ﾌｸｼﾏｼ","kana_address":"ﾅﾝｺｳﾀﾞｲ","pref":"福島県","city":"福島市","address":"南向台"},
{"zip_code":"9608013","kana_pref":"ﾌｸｼﾏｹﾝ","kana_city":"ﾌｸｼﾏｼ","kana_address":"ﾅﾝﾍﾟｲ","pref":"福島県","city":"福島市","address":"南平"},
{"zip_code":"9608166","kana_pref":"ﾌｸｼﾏｹﾝ","kana_city":"ﾌｸｼﾏｼ","kana_address":"ﾆｲﾀﾞ","pref":"福島県","city":"福島市","address":"仁井田"},
{"zip_code":"9608074","kana_pref":"ﾌｸｼﾏｹﾝ","kana_city":"ﾌｸｼﾏｼ","kana_address":"ﾆｼﾁｭｳｵｳ","pref":"福島県","city":"福島市","address":"西中央"},
{"zip_code":"9608233","kana_pref":"ﾌｸｼﾏｹﾝ","kana_city":"ﾌｸｼﾏｼ","kana_address":"ﾈｺﾌﾞﾁ","pref":"福島県","city":"福島市","address":"猫渕"},
{"zip_code":"9608055","kana_pref":"ﾌｸｼﾏｹﾝ","kana_city":"ﾌｸｼﾏｼ","kana_address":"ﾉﾀﾞﾏﾁ","pref":"福島県","city":"福島市","address":"野田町"},
{"zip_code":"9608112","kana_pref":"ﾌｸｼﾏｹﾝ","kana_city":"ﾌｸｼﾏｼ","kana_address":"ﾊﾅｿﾞﾉﾁｮｳ","pref":"福島県","city":"福島市","address":"花園町"},
{"zip_code":"9608107","kana_pref":"ﾌｸｼﾏｹﾝ","kana_city":"ﾌｸｼﾏｼ","kana_address":"ﾊﾏﾀﾞﾁｮｳ","pref":"福島県","city":"福島市","address":"浜田町"},
{"zip_code":"9608033","kana_pref":"ﾌｸｼﾏｹﾝ","kana_city":"ﾌｸｼﾏｼ","kana_address":"ﾊﾞﾝｾｲﾁｮｳ","pref":"福島県","city":"福島市","address":"万世町"},
{"zip_code":"9601247","kana_pref":"ﾌｸｼﾏｹﾝ","kana_city":"ﾌｸｼﾏｼ","kana_address":"ﾋｶﾘｶﾞｵｶ","pref":"福島県","city":"福島市","address":"光が丘"},
{"zip_code":"9608071","kana_pref":"ﾌｸｼﾏｹﾝ","kana_city":"ﾌｸｼﾏｼ","kana_address":"ﾋｶﾞｼﾁｭｳｵｳ","pref":"福島県","city":"福島市","address":"東中央"},
{"zip_code":"9608132","kana_pref":"ﾌｸｼﾏｹﾝ","kana_city":"ﾌｸｼﾏｼ","kana_address":"ﾋｶﾞｼﾊﾏﾁｮｳ","pref":"福島県","city":"福島市","address":"東浜町"},
{"zip_code":"9601103","kana_pref":"ﾌｸｼﾏｹﾝ","kana_city":"ﾌｸｼﾏｼ","kana_address":"ﾋﾗｲｼ","pref":"福島県","city":"福島市","address":"平石"},
{"zip_code":"9608154","kana_pref":"ﾌｸｼﾏｹﾝ","kana_city":"ﾌｸｼﾏｼ","kana_address":"ﾌｼｵｶﾞﾐ","pref":"福島県","city":"福島市","address":"伏拝"},
{"zip_code":"9602263","kana_pref":"ﾌｸｼﾏｹﾝ","kana_city":"ﾌｸｼﾏｼ","kana_address":"ﾌﾀｺﾞﾂﾞｶ","pref":"福島県","city":"福島市","address":"二子塚"},
{"zip_code":"9608103","kana_pref":"ﾌｸｼﾏｹﾝ","kana_city":"ﾌｸｼﾏｼ","kana_address":"ﾌﾅﾊﾞﾁｮｳ","pref":"福島県","city":"福島市","address":"舟場町"},
{"zip_code":"9608214","kana_pref":"ﾌｸｼﾏｹﾝ","kana_city":"ﾌｸｼﾏｼ","kana_address":"ﾌﾙｶﾜ","pref":"福島県","city":"福島市","address":"古川"},
{"zip_code":"9608163","kana_pref":"ﾌｸｼﾏｹﾝ","kana_city":"ﾌｸｼﾏｼ","kana_address":"ﾎｳｷﾀﾞ","pref":"福島県","city":"福島市","address":"方木田"},
{"zip_code":"9608157","kana_pref":"ﾌｸｼﾏｹﾝ","kana_city":"ﾌｸｼﾏｼ","kana_address":"ﾎｳﾗｲﾁｮｳ","pref":"福島県","city":"福島市","address":"蓬莱町"},
{"zip_code":"9608137","kana_pref":"ﾌｸｼﾏｹﾝ","kana_city":"ﾌｸｼﾏｼ","kana_address":"ﾎﾘｶﾜﾁｮｳ","pref":"福島県","city":"福島市","address":"堀河町"},
{"zip_code":"9602261","kana_pref":"ﾌｸｼﾏｹﾝ","kana_city":"ﾌｸｼﾏｼ","kana_address":"ﾏﾁﾆﾜｻｶ","pref":"福島県","city":"福島市","address":"町庭坂"},
{"zip_code":"9601241","kana_pref":"ﾌｸｼﾏｹﾝ","kana_city":"ﾌｸｼﾏｼ","kana_address":"ﾏﾂｶﾜﾏﾁ","pref":"福島県","city":"福島市","address":"松川町"},
{"zip_code":"9601245","kana_pref":"ﾌｸｼﾏｹﾝ","kana_city":"ﾌｸｼﾏｼ","kana_address":"ﾏﾂｶﾜﾏﾁｱｻｶﾜ","pref":"福島県","city":"福島市","address":"松川町浅川"},
{"zip_code":"9601246","kana_pref":"ﾌｸｼﾏｹﾝ","kana_city":"ﾌｸｼﾏｼ","kana_address":"ﾏﾂｶﾜﾏﾁｶﾈｻﾞﾜ","pref":"福島県","city":"福島市","address":"松川町金沢"},
{"zip_code":"9601232","kana_pref":"ﾌｸｼﾏｹﾝ","kana_city":"ﾌｸｼﾏｼ","kana_address":"ﾏﾂｶﾜﾏﾁｼﾓｶﾜｻｷ","pref":"福島県","city":"福島市","address":"松川町下川崎"},
{"zip_code":"9601244","kana_pref":"ﾌｸｼﾏｹﾝ","kana_city":"ﾌｸｼﾏｼ","kana_address":"ﾏﾂｶﾜﾏﾁｾｷﾔ","pref":"福島県","city":"福島市","address":"松川町関谷"},
{"zip_code":"9601231","kana_pref":"ﾌｸｼﾏｹﾝ","kana_city":"ﾌｸｼﾏｼ","kana_address":"ﾏﾂｶﾜﾏﾁﾇﾏﾌﾞｸﾛ","pref":"福島県","city":"福島市","address":"松川町沼袋"},
{"zip_code":"9601242","kana_pref":"ﾌｸｼﾏｹﾝ","kana_city":"ﾌｸｼﾏｼ","kana_address":"ﾏﾂｶﾜﾏﾁﾐｻﾄ","pref":"福島県","city":"福島市","address":"松川町美郷"},
{"zip_code":"9601243","kana_pref":"ﾌｸｼﾏｹﾝ","kana_city":"ﾌｸｼﾏｼ","kana_address":"ﾏﾂｶﾜﾏﾁﾐｽﾞﾊﾗ","pref":"福島県","city":"福島市","address":"松川町水原"},
{"zip_code":"9608018","kana_pref":"ﾌｸｼﾏｹﾝ","kana_city":"ﾌｸｼﾏｼ","kana_address":"ﾏﾂｷﾁｮｳ","pref":"福島県","city":"福島市","address":"松木町"},
{"zip_code":"9608114","kana_pref":"ﾌｸｼﾏｹﾝ","kana_city":"ﾌｸｼﾏｼ","kana_address":"ﾏﾂﾅﾐﾁｮｳ","pref":"福島県","city":"福島市","address":"松浪町"},
{"zip_code":"9608228","kana_pref":"ﾌｸｼﾏｹﾝ","kana_city":"ﾌｸｼﾏｼ","kana_address":"ﾏﾂﾔﾏﾁｮｳ","pref":"福島県","city":"福島市","address":"松山町"},
{"zip_code":"9600111","kana_pref":"ﾌｸｼﾏｹﾝ","kana_city":"ﾌｸｼﾏｼ","kana_address":"ﾏﾘｺ","pref":"福島県","city":"福島市","address":"丸子"},
{"zip_code":"9608053","kana_pref":"ﾌｸｼﾏｹﾝ","kana_city":"ﾌｸｼﾏｼ","kana_address":"ﾐｶﾜﾐﾅﾐﾏﾁ","pref":"福島県","city":"福島市","address":"三河南町"},
{"zip_code":"9608054","kana_pref":"ﾌｸｼﾏｹﾝ","kana_city":"ﾌｸｼﾏｼ","kana_address":"ﾐｶﾜｷﾀﾏﾁ","pref":"福島県","city":"福島市","address":"三河北町"},
{"zip_code":"9608212","kana_pref":"ﾌｸｼﾏｹﾝ","kana_city":"ﾌｸｼﾏｼ","kana_address":"ﾐﾁﾏｴ","pref":"福島県","city":"福島市","address":"道前"},
{"zip_code":"9608254","kana_pref":"ﾌｸｼﾏｹﾝ","kana_city":"ﾌｸｼﾏｼ","kana_address":"ﾐﾅﾐｻﾜﾏﾀ","pref":"福島県","city":"福島市","address":"南沢又"},
{"zip_code":"9608073","kana_pref":"ﾌｸｼﾏｹﾝ","kana_city":"ﾌｸｼﾏｼ","kana_address":"ﾐﾅﾐﾁｭｳｵｳ","pref":"福島県","city":"福島市","address":"南中央"},
{"zip_code":"9608162","kana_pref":"ﾌｸｼﾏｹﾝ","kana_city":"ﾌｸｼﾏｼ","kana_address":"ﾐﾅﾐﾏﾁ","pref":"福島県","city":"福島市","address":"南町"},
{"zip_code":"9600112","kana_pref":"ﾌｸｼﾏｹﾝ","kana_city":"ﾌｸｼﾏｼ","kana_address":"ﾐﾅﾐﾔﾉﾒ","pref":"福島県","city":"福島市","address":"南矢野目"},
{"zip_code":"9608011","kana_pref":"ﾌｸｼﾏｹﾝ","kana_city":"ﾌｸｼﾏｼ","kana_address":"ﾐﾔｼﾀﾁｮｳ","pref":"福島県","city":"福島市","address":"宮下町"},
{"zip_code":"9600116","kana_pref":"ﾌｸｼﾏｹﾝ","kana_city":"ﾌｸｼﾏｼ","kana_address":"ﾐﾔｼﾛ","pref":"福島県","city":"福島市","address":"宮代"},
{"zip_code":"9608106","kana_pref":"ﾌｸｼﾏｹﾝ","kana_city":"ﾌｸｼﾏｼ","kana_address":"ﾐﾔﾏﾁ","pref":"福島県","city":"福島市","address":"宮町"},
{"zip_code":"9608203","kana_pref":"ﾌｸｼﾏｹﾝ","kana_city":"ﾌｸｼﾏｼ","kana_address":"ﾓﾄｳﾁ","pref":"福島県","city":"福島市","address":"本内"},
{"zip_code":"9600103","kana_pref":"ﾌｸｼﾏｹﾝ","kana_city":"ﾌｸｼﾏｼ","kana_address":"ﾓﾄｳﾁ","pref":"福島県","city":"福島市","address":"本内"},
{"zip_code":"9608035","kana_pref":"ﾌｸｼﾏｹﾝ","kana_city":"ﾌｸｼﾏｼ","kana_address":"ﾓﾄﾏﾁ","pref":"福島県","city":"福島市","address":"本町"},
{"zip_code":"9608003","kana_pref":"ﾌｸｼﾏｹﾝ","kana_city":"ﾌｸｼﾏｼ","kana_address":"ﾓﾘｱｲ","pref":"福島県","city":"福島市","address":"森合"},
{"zip_code":"9608002","kana_pref":"ﾌｸｼﾏｹﾝ","kana_city":"ﾌｸｼﾏｼ","kana_address":"ﾓﾘｱｲﾁｮｳ","pref":"福島県","city":"福島市","address":"森合町"},
{"zip_code":"9608164","kana_pref":"ﾌｸｼﾏｹﾝ","kana_city":"ﾌｸｼﾏｼ","kana_address":"ﾔｷﾞﾀ","pref":"福島県","city":"福島市","address":"八木田"},
{"zip_code":"9608223","kana_pref":"ﾌｸｼﾏｹﾝ","kana_city":"ﾌｸｼﾏｼ","kana_address":"ﾔｸﾞﾗｼﾀ","pref":"福島県","city":"福島市","address":"矢倉下"},
{"zip_code":"9608056","kana_pref":"ﾌｸｼﾏｹﾝ","kana_city":"ﾌｸｼﾏｼ","kana_address":"ﾔｼﾏﾀﾞ","pref":"福島県","city":"福島市","address":"八島田"},
{"zip_code":"9608136","kana_pref":"ﾌｸｼﾏｹﾝ","kana_city":"ﾌｸｼﾏｼ","kana_address":"ﾔｼﾏﾁｮｳ","pref":"福島県","city":"福島市","address":"八島町"},
{"zip_code":"9608066","kana_pref":"ﾌｸｼﾏｹﾝ","kana_city":"ﾌｸｼﾏｼ","kana_address":"ﾔﾂﾙｷﾞﾁｮｳ","pref":"福島県","city":"福島市","address":"矢剣町"},
{"zip_code":"9608063","kana_pref":"ﾌｸｼﾏｹﾝ","kana_city":"ﾌｸｼﾏｼ","kana_address":"ﾔﾅｷﾞﾏﾁ","pref":"福島県","city":"福島市","address":"柳町"},
{"zip_code":"9608236","kana_pref":"ﾌｸｼﾏｹﾝ","kana_city":"ﾌｸｼﾏｼ","kana_address":"ﾔﾏｷﾞﾜ","pref":"福島県","city":"福島市","address":"山際"},
{"zip_code":"9608202","kana_pref":"ﾌｸｼﾏｹﾝ","kana_city":"ﾌｸｼﾏｼ","kana_address":"ﾔﾏｸﾞﾁ","pref":"福島県","city":"福島市","address":"山口"},
{"zip_code":"9608115","kana_pref":"ﾌｸｼﾏｹﾝ","kana_city":"ﾌｸｼﾏｼ","kana_address":"ﾔﾏｼﾀﾁｮｳ","pref":"福島県","city":"福島市","address":"山下町"},
{"zip_code":"9601105","kana_pref":"ﾌｸｼﾏｹﾝ","kana_city":"ﾌｸｼﾏｼ","kana_address":"ﾔﾏﾀﾞ","pref":"福島県","city":"福島市","address":"山田"},
{"zip_code":"9608165","kana_pref":"ﾌｸｼﾏｹﾝ","kana_city":"ﾌｸｼﾏｼ","kana_address":"ﾖｼｸﾗ","pref":"福島県","city":"福島市","address":"吉倉"},
{"zip_code":"9608044","kana_pref":"ﾌｸｼﾏｹﾝ","kana_city":"ﾌｸｼﾏｼ","kana_address":"ﾜｾﾁｮｳ","pref":"福島県","city":"福島市","address":"早稲町"},
{"zip_code":"9608141","kana_pref":"ﾌｸｼﾏｹﾝ","kana_city":"ﾌｸｼﾏｼ","kana_address":"ﾜﾀﾘ","pref":"福島県","city":"福島市","address":"渡利"},
{"zip_code":"9600600","kana_pref":"ﾌｸｼﾏｹﾝ","kana_city":"ﾀﾞﾃｼ","kana_address":"","pref":"福島県","city":"伊達市","address":""},
{"zip_code":"9600423","kana_pref":"ﾌｸｼﾏｹﾝ","kana_city":"ﾀﾞﾃｼ","kana_address":"ｱﾗﾏﾁ","pref":"福島県","city":"伊達市","address":"荒町"},
{"zip_code":"9600405","kana_pref":"ﾌｸｼﾏｹﾝ","kana_city":"ﾀﾞﾃｼ","kana_address":"ｲｯﾎﾟﾝｷﾞ","pref":"福島県","city":"伊達市","address":"一本木"},
{"zip_code":"9600421","kana_pref":"ﾌｸｼﾏｹﾝ","kana_city":"ﾀﾞﾃｼ","kana_address":"ｲｯﾎﾟﾝｽｷﾞ","pref":"福島県","city":"伊達市","address":"一本杉"},
{"zip_code":"9600437","kana_pref":"ﾌｸｼﾏｹﾝ","kana_city":"ﾀﾞﾃｼ","kana_address":"ｲｯﾎﾟﾝﾏﾂ","pref":"福島県","city":"伊達市","address":"一本松"},
{"zip_code":"9600415","kana_pref":"ﾌｸｼﾏｹﾝ","kana_city":"ﾀﾞﾃｼ","kana_address":"ｳｼﾛ","pref":"福島県","city":"伊達市","address":"右城"},
{"zip_code":"9600455","kana_pref":"ﾌｸｼﾏｹﾝ","kana_city":"ﾀﾞﾃｼ","kana_address":"ｳﾊﾞｲｼ","pref":"福島県","city":"伊達市","address":"姥石"},
{"zip_code":"9600424","kana_pref":"ﾌｸｼﾏｹﾝ","kana_city":"ﾀﾞﾃｼ","kana_address":"ｳﾊﾞｶﾞﾌﾄｺﾛ","pref":"福島県","city":"伊達市","address":"姥ケ懐"},
{"zip_code":"9600425","kana_pref":"ﾌｸｼﾏｹﾝ","kana_city":"ﾀﾞﾃｼ","kana_address":"ｳﾊﾞｶﾞﾜ","pref":"福島県","city":"伊達市","address":"姥川"},
{"zip_code":"9600488","kana_pref":"ﾌｸｼﾏｹﾝ","kana_city":"ﾀﾞﾃｼ","kana_address":"ｳﾜﾀﾞｲ","pref":"福島県","city":"伊達市","address":"上台"},
{"zip_code":"9600457","kana_pref":"ﾌｸｼﾏｹﾝ","kana_city":"ﾀﾞﾃｼ","kana_address":"ｴﾑｶｲ","pref":"福島県","city":"伊達市","address":"江向"},
{"zip_code":"9600458","kana_pref":"ﾌｸｼﾏｹﾝ","kana_city":"ﾀﾞﾃｼ","kana_address":"ｵｳｷﾞﾀﾞ","pref":"福島県","city":"伊達市","address":"扇田"},
{"zip_code":"9600408","kana_pref":"ﾌｸｼﾏｹﾝ","kana_city":"ﾀﾞﾃｼ","kana_address":"ｵｶﾇﾏ","pref":"福島県","city":"伊達市","address":"岡沼"},
{"zip_code":"9600418","kana_pref":"ﾌｸｼﾏｹﾝ","kana_city":"ﾀﾞﾃｼ","kana_address":"ｵｶﾏｴ","pref":"福島県","city":"伊達市","address":"岡前"},
{"zip_code":"9600485","kana_pref":"ﾌｸｼﾏｹﾝ","kana_city":"ﾀﾞﾃｼ","kana_address":"ｶｺﾞﾀ","pref":"福島県","city":"伊達市","address":"篭田"},
{"zip_code":"9600427","kana_pref":"ﾌｸｼﾏｹﾝ","kana_city":"ﾀﾞﾃｼ","kana_address":"ｶｼﾞﾔｶﾞﾜ","pref":"福島県","city":"伊達市","address":"鍛治屋川"},
{"zip_code":"9600477","kana_pref":"ﾌｸｼﾏｹﾝ","kana_city":"ﾀﾞﾃｼ","kana_address":"ｶｼﾜｷﾞﾁｮｳ","pref":"福島県","city":"伊達市","address":"柏木町"},
{"zip_code":"9600461","kana_pref":"ﾌｸｼﾏｹﾝ","kana_city":"ﾀﾞﾃｼ","kana_address":"ｶﾀﾏﾁ","pref":"福島県","city":"伊達市","address":"片町"},
{"zip_code":"9600433","kana_pref":"ﾌｸｼﾏｹﾝ","kana_city":"ﾀﾞﾃｼ","kana_address":"ｶﾐｶﾜﾗ","pref":"福島県","city":"伊達市","address":"上川原"},
{"zip_code":"9600453","kana_pref":"ﾌｸｼﾏｹﾝ","kana_city":"ﾀﾞﾃｼ","kana_address":"ｶﾐｼﾜﾀﾞ","pref":"福島県","city":"伊達市","address":"上志和田"},
{"zip_code":"9600422","kana_pref":"ﾌｸｼﾏｹﾝ","kana_city":"ﾀﾞﾃｼ","kana_address":"ｶﾜﾗﾀﾞ","pref":"福島県","city":"伊達市","address":"川原田"},
{"zip_code":"9600431","kana_pref":"ﾌｸｼﾏｹﾝ","kana_city":"ﾀﾞﾃｼ","kana_address":"ｶﾜﾗﾏﾁ","pref":"福島県","city":"伊達市","address":"川原町"},
{"zip_code":"9600468","kana_pref":"ﾌｸｼﾏｹﾝ","kana_city":"ﾀﾞﾃｼ","kana_address":"ｷﾀｳｼﾛ","pref":"福島県","city":"伊達市","address":"北後"},
{"zip_code":"9600417","kana_pref":"ﾌｸｼﾏｹﾝ","kana_city":"ﾀﾞﾃｼ","kana_address":"ｷﾀﾊﾀ","pref":"福島県","city":"伊達市","address":"北畑"},
{"zip_code":"9600474","kana_pref":"ﾌｸｼﾏｹﾝ","kana_city":"ﾀﾞﾃｼ","kana_address":"ｸﾂｶﾞﾀ","pref":"福島県","city":"伊達市","address":"沓形"},
{"zip_code":"9600465","kana_pref":"ﾌｸｼﾏｹﾝ","kana_city":"ﾀﾞﾃｼ","kana_address":"ｸﾈﾂﾏ","pref":"福島県","city":"伊達市","address":"久根妻"},
{"zip_code":"9600428","kana_pref":"ﾌｸｼﾏｹﾝ","kana_city":"ﾀﾞﾃｼ","kana_address":"ｻｶﾉｳｴ","pref":"福島県","city":"伊達市","address":"坂ノ上"},
{"zip_code":"9600426","kana_pref":"ﾌｸｼﾏｹﾝ","kana_city":"ﾀﾞﾃｼ","kana_address":"ｻｶﾉｼﾀ","pref":"福島県","city":"伊達市","address":"坂ノ下"},
{"zip_code":"9600473","kana_pref":"ﾌｸｼﾏｹﾝ","kana_city":"ﾀﾞﾃｼ","kana_address":"ｻﾜﾀﾞ","pref":"福島県","city":"伊達市","address":"沢田"},
{"zip_code":"9600401","kana_pref":"ﾌｸｼﾏｹﾝ","kana_city":"ﾀﾞﾃｼ","kana_address":"ｼﾓｶﾜﾗ","pref":"福島県","city":"伊達市","address":"下川原"},
{"zip_code":"9600451","kana_pref":"ﾌｸｼﾏｹﾝ","kana_city":"ﾀﾞﾃｼ","kana_address":"ｼﾓｼﾜﾀﾞ","pref":"福島県","city":"伊達市","address":"下志和田"},
{"zip_code":"9600454","kana_pref":"ﾌｸｼﾏｹﾝ","kana_city":"ﾀﾞﾃｼ","kana_address":"ｼﾜﾀﾞﾏｴ","pref":"福島県","city":"伊達市","address":"志和田前"},
{"zip_code":"9600441","kana_pref":"ﾌｸｼﾏｹﾝ","kana_city":"ﾀﾞﾃｼ","kana_address":"ｼﾝﾏﾁ","pref":"福島県","city":"伊達市","address":"新町"},
{"zip_code":"9600445","kana_pref":"ﾌｸｼﾏｹﾝ","kana_city":"ﾀﾞﾃｼ","kana_address":"ｼﾝﾒｲﾏｴ","pref":"福島県","city":"伊達市","address":"神明前"},
{"zip_code":"9600442","kana_pref":"ﾌｸｼﾏｹﾝ","kana_city":"ﾀﾞﾃｼ","kana_address":"ｽｶﾞﾀ","pref":"福島県","city":"伊達市","address":"菅田"},
{"zip_code":"9600443","kana_pref":"ﾌｸｼﾏｹﾝ","kana_city":"ﾀﾞﾃｼ","kana_address":"ｽﾜﾆｼ","pref":"福島県","city":"伊達市","address":"諏訪西"},
{"zip_code":"9600446","kana_pref":"ﾌｸｼﾏｹﾝ","kana_city":"ﾀﾞﾃｼ","kana_address":"ｽﾜﾉ","pref":"福島県","city":"伊達市","address":"諏訪野"},
{"zip_code":"9600444","kana_pref":"ﾌｸｼﾏｹﾝ","kana_city":"ﾀﾞﾃｼ","kana_address":"ｽﾜﾏｴ","pref":"福島県","city":"伊達市","address":"諏訪前"},
{"zip_code":"9600435","kana_pref":"ﾌｸｼﾏｹﾝ","kana_city":"ﾀﾞﾃｼ","kana_address":"ｾｷｳｴ","pref":"福島県","city":"伊達市","address":"堰上"},
{"zip_code":"9600434","kana_pref":"ﾌｸｼﾏｹﾝ","kana_city":"ﾀﾞﾃｼ","kana_address":"ｾｷｼﾀ","pref":"福島県","city":"伊達市","address":"堰下"},
{"zip_code":"9600489","kana_pref":"ﾌｸｼﾏｹﾝ","kana_city":"ﾀﾞﾃｼ","kana_address":"ｾﾄﾊﾞ","pref":"福島県","city":"伊達市","address":"瀬戸場"},
{"zip_code":"9600412","kana_pref":"ﾌｸｼﾏｹﾝ","kana_city":"ﾀﾞﾃｼ","kana_address":"ｿﾘﾏﾁ","pref":"福島県","city":"伊達市","address":"雪車町"},
{"zip_code":"9600487","kana_pref":"ﾌｸｼﾏｹﾝ","kana_city":"ﾀﾞﾃｼ","kana_address":"ﾀｶﾀﾞ","pref":"福島県","city":"伊達市","address":"高田"},
{"zip_code":"9600467","kana_pref":"ﾌｸｼﾏｹﾝ","kana_city":"ﾀﾞﾃｼ","kana_address":"ﾀﾃﾉｳﾁ","pref":"福島県","city":"伊達市","address":"舘ノ内"},
{"zip_code":"9600463","kana_pref":"ﾌｸｼﾏｹﾝ","kana_city":"ﾀﾞﾃｼ","kana_address":"ﾀﾏﾁ","pref":"福島県","city":"伊達市","address":"田町"},
{"zip_code":"9600429","kana_pref":"ﾌｸｼﾏｹﾝ","kana_city":"ﾀﾞﾃｼ","kana_address":"ﾂｶﾊﾀ","pref":"福島県","city":"伊達市","address":"塚畑"},
{"zip_code":"9600904","kana_pref":"ﾌｸｼﾏｹﾝ","kana_city":"ﾀﾞﾃｼ","kana_address":"ﾂｷﾀﾞﾃﾏﾁｶﾐﾃﾄﾞ","pref":"福島県","city":"伊達市","address":"月舘町上手渡"},
{"zip_code":"9600903","kana_pref":"ﾌｸｼﾏｹﾝ","kana_city":"ﾀﾞﾃｼ","kana_address":"ﾂｷﾀﾞﾃﾏﾁｼﾓﾃﾄﾞ","pref":"福島県","city":"伊達市","address":"月舘町下手渡"},
{"zip_code":"9600902","kana_pref":"ﾌｸｼﾏｹﾝ","kana_city":"ﾀﾞﾃｼ","kana_address":"ﾂｷﾀﾞﾃﾏﾁﾂｷﾀﾞﾃ","pref":"福島県","city":"伊達市","address":"月舘町月舘"},
{"zip_code":"9600905","kana_pref":"ﾌｸｼﾏｹﾝ","kana_city":"ﾀﾞﾃｼ","kana_address":"ﾂｷﾀﾞﾃﾏﾁﾇｶﾀﾞ","pref":"福島県","city":"伊達市","address":"月舘町糠田"},
{"zip_code":"9600901","kana_pref":"ﾌｸｼﾏｹﾝ","kana_city":"ﾀﾞﾃｼ","kana_address":"ﾂｷﾀﾞﾃﾏﾁﾇﾉｶﾜ","pref":"福島県","city":"伊達市","address":"月舘町布川"},
{"zip_code":"9600906","kana_pref":"ﾌｸｼﾏｹﾝ","kana_city":"ﾀﾞﾃｼ","kana_address":"ﾂｷﾀﾞﾃﾏﾁﾐﾖﾀﾞ","pref":"福島県","city":"伊達市","address":"月舘町御代田"},
{"zip_code":"9600482","kana_pref":"ﾌｸｼﾏｹﾝ","kana_city":"ﾀﾞﾃｼ","kana_address":"ﾂﾙﾀ","pref":"福島県","city":"伊達市","address":"鶴田"},
{"zip_code":"9600476","kana_pref":"ﾌｸｼﾏｹﾝ","kana_city":"ﾀﾞﾃｼ","kana_address":"ﾂﾙﾏｷ","pref":"福島県","city":"伊達市","address":"鶴巻"},
{"zip_code":"9600447","kana_pref":"ﾌｸｼﾏｹﾝ","kana_city":"ﾀﾞﾃｼ","kana_address":"ﾃﾗﾏｴ","pref":"福島県","city":"伊達市","address":"寺前"},
{"zip_code":"9600406","kana_pref":"ﾌｸｼﾏｹﾝ","kana_city":"ﾀﾞﾃｼ","kana_address":"ﾄﾞｳﾉｳﾁ","pref":"福島県","city":"伊達市","address":"堂ノ内"},
{"zip_code":"9600414","kana_pref":"ﾌｸｼﾏｹﾝ","kana_city":"ﾀﾞﾃｼ","kana_address":"ﾅｶﾞｵｶ","pref":"福島県","city":"伊達市","address":"長岡"},
{"zip_code":"9600432","kana_pref":"ﾌｸｼﾏｹﾝ","kana_city":"ﾀﾞﾃｼ","kana_address":"ﾅｶﾞｶﾜﾗ","pref":"福島県","city":"伊達市","address":"長川原"},
{"zip_code":"9600452","kana_pref":"ﾌｸｼﾏｹﾝ","kana_city":"ﾀﾞﾃｼ","kana_address":"ﾅｶｼﾜﾀﾞ","pref":"福島県","city":"伊達市","address":"中志和田"},
{"zip_code":"9600416","kana_pref":"ﾌｸｼﾏｹﾝ","kana_city":"ﾀﾞﾃｼ","kana_address":"ﾅｶﾊﾀ","pref":"福島県","city":"伊達市","address":"中畑"},
{"zip_code":"9600471","kana_pref":"ﾌｸｼﾏｹﾝ","kana_city":"ﾀﾞﾃｼ","kana_address":"ﾅｶﾞﾏﾁ","pref":"福島県","city":"伊達市","address":"長町"},
{"zip_code":"9600456","kana_pref":"ﾌｸｼﾏｹﾝ","kana_city":"ﾀﾞﾃｼ","kana_address":"ﾅｶﾐﾁ","pref":"福島県","city":"伊達市","address":"中道"},
{"zip_code":"9600411","kana_pref":"ﾌｸｼﾏｹﾝ","kana_city":"ﾀﾞﾃｼ","kana_address":"ﾅｼﾉｷﾏﾁ","pref":"福島県","city":"伊達市","address":"梨子木町"},
{"zip_code":"9600466","kana_pref":"ﾌｸｼﾏｹﾝ","kana_city":"ﾀﾞﾃｼ","kana_address":"ﾈｷﾞｼ","pref":"福島県","city":"伊達市","address":"根岸"},
{"zip_code":"9600472","kana_pref":"ﾌｸｼﾏｹﾝ","kana_city":"ﾀﾞﾃｼ","kana_address":"ﾈﾀﾞ","pref":"福島県","city":"伊達市","address":"根田"},
{"zip_code":"9600479","kana_pref":"ﾌｸｼﾏｹﾝ","kana_city":"ﾀﾞﾃｼ","kana_address":"ﾉｻﾞｷ","pref":"福島県","city":"伊達市","address":"野崎"},
{"zip_code":"9600502","kana_pref":"ﾌｸｼﾏｹﾝ","kana_city":"ﾀﾞﾃｼ","kana_address":"ﾊｺｻﾞｷ","pref":"福島県","city":"伊達市","address":"箱崎"},
{"zip_code":"9600484","kana_pref":"ﾌｸｼﾏｹﾝ","kana_city":"ﾀﾞﾃｼ","kana_address":"ﾊﾞﾊﾞｸﾞﾁ","pref":"福島県","city":"伊達市","address":"馬場口"},
{"zip_code":"9600404","kana_pref":"ﾌｸｼﾏｹﾝ","kana_city":"ﾀﾞﾃｼ","kana_address":"ﾊﾗｼﾞﾏ","pref":"福島県","city":"伊達市","address":"原島"},
{"zip_code":"9600407","kana_pref":"ﾌｸｼﾏｹﾝ","kana_city":"ﾀﾞﾃｼ","kana_address":"ﾋﾃﾞﾘ","pref":"福島県","city":"伊達市","address":"日照"},
{"zip_code":"9600419","kana_pref":"ﾌｸｼﾏｹﾝ","kana_city":"ﾀﾞﾃｼ","kana_address":"ﾋﾛﾏｴ","pref":"福島県","city":"伊達市","address":"広前"},
{"zip_code":"9600501","kana_pref":"ﾌｸｼﾏｹﾝ","kana_city":"ﾀﾞﾃｼ","kana_address":"ﾌｼｸﾞﾛ","pref":"福島県","city":"伊達市","address":"伏黒"},
{"zip_code":"9600475","kana_pref":"ﾌｸｼﾏｹﾝ","kana_city":"ﾀﾞﾃｼ","kana_address":"ﾎｼｸﾃﾞﾝ","pref":"福島県","city":"伊達市","address":"干供田"},
{"zip_code":"9600478","kana_pref":"ﾌｸｼﾏｹﾝ","kana_city":"ﾀﾞﾃｼ","kana_address":"ﾎｿﾔ","pref":"福島県","city":"伊達市","address":"細谷"},
{"zip_code":"9600624","kana_pref":"ﾌｸｼﾏｹﾝ","kana_city":"ﾀﾞﾃｼ","kana_address":"ﾎﾊﾞﾗﾏﾁ1ﾁｮｳﾒ","pref":"福島県","city":"伊達市","address":"保原町１丁目"},
{"zip_code":"9600625","kana_pref":"ﾌｸｼﾏｹﾝ","kana_city":"ﾀﾞﾃｼ","kana_address":"ﾎﾊﾞﾗﾏﾁ2ﾁｮｳﾒ","pref":"福島県","city":"伊達市","address":"保原町２丁目"},
{"zip_code":"9600626","kana_pref":"ﾌｸｼﾏｹﾝ","kana_city":"ﾀﾞﾃｼ","kana_address":"ﾎﾊﾞﾗﾏﾁ3ﾁｮｳﾒ","pref":"福島県","city":"伊達市","address":"保原町３丁目"},
{"zip_code":"9600627","kana_pref":"ﾌｸｼﾏｹﾝ","kana_city":"ﾀﾞﾃｼ","kana_address":"ﾎﾊﾞﾗﾏﾁ4ﾁｮｳﾒ","pref":"福島県","city":"伊達市","address":"保原町４丁目"},
{"zip_code":"9600615","kana_pref":"ﾌｸｼﾏｹﾝ","kana_city":"ﾀﾞﾃｼ","kana_address":"ﾎﾊﾞﾗﾏﾁ5ﾁｮｳﾒ","pref":"福島県","city":"伊達市","address":"保原町５丁目"},
{"zip_code":"9600616","kana_pref":"ﾌｸｼﾏｹﾝ","kana_city":"ﾀﾞﾃｼ","kana_address":"ﾎﾊﾞﾗﾏﾁ6ﾁｮｳﾒ","pref":"福島県","city":"伊達市","address":"保原町６丁目"},
{"zip_code":"9600617","kana_pref":"ﾌｸｼﾏｹﾝ","kana_city":"ﾀﾞﾃｼ","kana_address":"ﾎﾊﾞﾗﾏﾁ7ﾁｮｳﾒ","pref":"福島県","city":"伊達市","address":"保原町７丁目"},
{"zip_code":"9600618","kana_pref":"ﾌｸｼﾏｹﾝ","kana_city":"ﾀﾞﾃｼ","kana_address":"ﾎﾊﾞﾗﾏﾁ8ﾁｮｳﾒ","pref":"福島県","city":"伊達市","address":"保原町８丁目"},
{"zip_code":"9600619","kana_pref":"ﾌｸｼﾏｹﾝ","kana_city":"ﾀﾞﾃｼ","kana_address":"ﾎﾊﾞﾗﾏﾁ9ﾁｮｳﾒ","pref":"福島県","city":"伊達市","address":"保原町９丁目"},
{"zip_code":"9600607","kana_pref":"ﾌｸｼﾏｹﾝ","kana_city":"ﾀﾞﾃｼ","kana_address":"ﾎﾊﾞﾗﾏﾁ10ﾁｮｳﾒ","pref":"福島県","city":"伊達市","address":"保原町１０丁目"},
{"zip_code":"9600608","kana_pref":"ﾌｸｼﾏｹﾝ","kana_city":"ﾀﾞﾃｼ","kana_address":"ﾎﾊﾞﾗﾏﾁ11ﾁｮｳﾒ","pref":"福島県","city":"伊達市","address":"保原町１１丁目"},
{"zip_code":"9600609","kana_pref":"ﾌｸｼﾏｹﾝ","kana_city":"ﾀﾞﾃｼ","kana_address":"ﾎﾊﾞﾗﾏﾁ12ﾁｮｳﾒ","pref":"福島県","city":"伊達市","address":"保原町１２丁目"},
{"zip_code":"9600669","kana_pref":"ﾌｸｼﾏｹﾝ","kana_city":"ﾀﾞﾃｼ","kana_address":"ﾎﾊﾞﾗﾏﾁｱｶﾊﾞｼ","pref":"福島県","city":"伊達市","address":"保原町赤橋"},
{"zip_code":"9600687","kana_pref":"ﾌｸｼﾏｹﾝ","kana_city":"ﾀﾞﾃｼ","kana_address":"ﾎﾊﾞﾗﾏﾁｱｻﾋﾏﾁ","pref":"福島県","city":"伊達市","address":"保原町旭町"},
{"zip_code":"9600679","kana_pref":"ﾌｸｼﾏｹﾝ","kana_city":"ﾀﾞﾃｼ","kana_address":"ﾎﾊﾞﾗﾏﾁｱﾌﾞﾗﾔﾁ","pref":"福島県","city":"伊達市","address":"保原町油谷地"},
{"zip_code":"9600653","kana_pref":"ﾌｸｼﾏｹﾝ","kana_city":"ﾀﾞﾃｼ","kana_address":"ﾎﾊﾞﾗﾏﾁｲｽﾞﾐﾏﾁ","pref":"福島県","city":"伊達市","address":"保原町泉町"},
{"zip_code":"9600622","kana_pref":"ﾌｸｼﾏｹﾝ","kana_city":"ﾀﾞﾃｼ","kana_address":"ﾎﾊﾞﾗﾏﾁｲﾁﾔﾅｷﾞﾁｮｳ","pref":"福島県","city":"伊達市","address":"保原町市柳町"},
{"zip_code":"9600614","kana_pref":"ﾌｸｼﾏｹﾝ","kana_city":"ﾀﾞﾃｼ","kana_address":"ﾎﾊﾞﾗﾏﾁｲﾜﾏｴﾄﾞｵﾘ","pref":"福島県","city":"伊達市","address":"保原町磐前通"},
{"zip_code":"9600613","kana_pref":"ﾌｸｼﾏｹﾝ","kana_city":"ﾀﾞﾃｼ","kana_address":"ﾎﾊﾞﾗﾏﾁｳﾁﾏﾁ","pref":"福島県","city":"伊達市","address":"保原町内町"},
{"zip_code":"9600634","kana_pref":"ﾌｸｼﾏｹﾝ","kana_city":"ﾀﾞﾃｼ","kana_address":"ﾎﾊﾞﾗﾏﾁｵｵｲｽﾞﾐ","pref":"福島県","city":"伊達市","address":"保原町大泉"},
{"zip_code":"9600632","kana_pref":"ﾌｸｼﾏｹﾝ","kana_city":"ﾀﾞﾃｼ","kana_address":"ﾎﾊﾞﾗﾏﾁｵｵﾀﾞﾂﾒ","pref":"福島県","city":"伊達市","address":"保原町大立目"},
{"zip_code":"9600664","kana_pref":"ﾌｸｼﾏｹﾝ","kana_city":"ﾀﾞﾃｼ","kana_address":"ﾎﾊﾞﾗﾏﾁｵｵﾀﾅｶ","pref":"福島県","city":"伊達市","address":"保原町太田中"},
{"zip_code":"9600675","kana_pref":"ﾌｸｼﾏｹﾝ","kana_city":"ﾀﾞﾃｼ","kana_address":"ﾎﾊﾞﾗﾏﾁｵｵﾔﾅｷﾞ","pref":"福島県","city":"伊達市","address":"保原町大柳"},
{"zip_code":"9600665","kana_pref":"ﾌｸｼﾏｹﾝ","kana_city":"ﾀﾞﾃｼ","kana_address":"ﾎﾊﾞﾗﾏﾁｵｶｼﾛ","pref":"福島県","city":"伊達市","address":"保原町岡代"},
{"zip_code":"9600654","kana_pref":"ﾌｸｼﾏｹﾝ","kana_city":"ﾀﾞﾃｼ","kana_address":"ﾎﾊﾞﾗﾏﾁｵﾊﾞﾀﾏﾁ","pref":"福島県","city":"伊達市","address":"保原町小幡町"},
{"zip_code":"9600651","kana_pref":"ﾌｸｼﾏｹﾝ","kana_city":"ﾀﾞﾃｼ","kana_address":"ﾎﾊﾞﾗﾏﾁｶｼﾜﾏﾁ","pref":"福島県","city":"伊達市","address":"保原町柏町"},
{"zip_code":"9600661","kana_pref":"ﾌｸｼﾏｹﾝ","kana_city":"ﾀﾞﾃｼ","kana_address":"ﾎﾊﾞﾗﾏﾁｶﾅﾊﾗﾀﾞ","pref":"福島県","city":"伊達市","address":"保原町金原田"},
{"zip_code":"9600674","kana_pref":"ﾌｸｼﾏｹﾝ","kana_city":"ﾀﾞﾃｼ","kana_address":"ﾎﾊﾞﾗﾏﾁｶﾐﾉｻﾞｷ","pref":"福島県","city":"伊達市","address":"保原町上野崎"},
{"zip_code":"9600684","kana_pref":"ﾌｸｼﾏｹﾝ","kana_city":"ﾀﾞﾃｼ","kana_address":"ﾎﾊﾞﾗﾏﾁｶﾐﾎﾊﾞﾗ","pref":"福島県","city":"伊達市","address":"保原町上保原"},
{"zip_code":"9600668","kana_pref":"ﾌｸｼﾏｹﾝ","kana_city":"ﾀﾞﾃｼ","kana_address":"ﾎﾊﾞﾗﾏﾁｶﾗｽｳﾁ","pref":"福島県","city":"伊達市","address":"保原町烏内"},
{"zip_code":"9600638","kana_pref":"ﾌｸｼﾏｹﾝ","kana_city":"ﾀﾞﾃｼ","kana_address":"ﾎﾊﾞﾗﾏﾁｷﾀｶﾜﾗ","pref":"福島県","city":"伊達市","address":"保原町北河原"},
{"zip_code":"9600678","kana_pref":"ﾌｸｼﾏｹﾝ","kana_city":"ﾀﾞﾃｼ","kana_address":"ﾎﾊﾞﾗﾏﾁｷｮｳﾓﾝ","pref":"福島県","city":"伊達市","address":"保原町京門"},
{"zip_code":"9600602","kana_pref":"ﾌｸｼﾏｹﾝ","kana_city":"ﾀﾞﾃｼ","kana_address":"ﾎﾊﾞﾗﾏﾁｸﾎﾞ","pref":"福島県","city":"伊達市","address":"保原町久保"},
{"zip_code":"9600685","kana_pref":"ﾌｸｼﾏｹﾝ","kana_city":"ﾀﾞﾃｼ","kana_address":"ﾎﾊﾞﾗﾏﾁｺｶﾞﾈﾏﾁ","pref":"福島県","city":"伊達市","address":"保原町黄金町"},
{"zip_code":"9600647","kana_pref":"ﾌｸｼﾏｹﾝ","kana_city":"ﾀﾞﾃｼ","kana_address":"ﾎﾊﾞﾗﾏﾁｺﾌﾞﾀ","pref":"福島県","city":"伊達市","address":"保原町小蓋"},
{"zip_code":"9600601","kana_pref":"ﾌｸｼﾏｹﾝ","kana_city":"ﾀﾞﾃｼ","kana_address":"ﾎﾊﾞﾗﾏﾁｻｶｴﾏﾁ","pref":"福島県","city":"伊達市","address":"保原町栄町"},
{"zip_code":"9600649","kana_pref":"ﾌｸｼﾏｹﾝ","kana_city":"ﾀﾞﾃｼ","kana_address":"ﾎﾊﾞﾗﾏﾁｼﾐｽﾞﾏﾁ","pref":"福島県","city":"伊達市","address":"保原町清水町"},
{"zip_code":"9600643","kana_pref":"ﾌｸｼﾏｹﾝ","kana_city":"ﾀﾞﾃｼ","kana_address":"ﾎﾊﾞﾗﾏﾁｼﾓｶﾜﾗ","pref":"福島県","city":"伊達市","address":"保原町下河原"},
{"zip_code":"9600672","kana_pref":"ﾌｸｼﾏｹﾝ","kana_city":"ﾀﾞﾃｼ","kana_address":"ﾎﾊﾞﾗﾏﾁｼﾓﾉｻﾞｷ","pref":"福島県","city":"伊達市","address":"保原町下野崎"},
{"zip_code":"9600637","kana_pref":"ﾌｸｼﾏｹﾝ","kana_city":"ﾀﾞﾃｼ","kana_address":"ﾎﾊﾞﾗﾏﾁｼｮｳｶﾝ","pref":"福島県","city":"伊達市","address":"保原町将監"},
{"zip_code":"9600611","kana_pref":"ﾌｸｼﾏｹﾝ","kana_city":"ﾀﾞﾃｼ","kana_address":"ﾎﾊﾞﾗﾏﾁｼﾛﾉｳﾁ","pref":"福島県","city":"伊達市","address":"保原町城ノ内"},
{"zip_code":"9600676","kana_pref":"ﾌｸｼﾏｹﾝ","kana_city":"ﾀﾞﾃｼ","kana_address":"ﾎﾊﾞﾗﾏﾁｾﾝｶﾞﾘ","pref":"福島県","city":"伊達市","address":"保原町千刈"},
{"zip_code":"9600645","kana_pref":"ﾌｸｼﾏｹﾝ","kana_city":"ﾀﾞﾃｼ","kana_address":"ﾎﾊﾞﾗﾏﾁﾀﾞｲｺﾞ","pref":"福島県","city":"伊達市","address":"保原町台後"},
{"zip_code":"9600683","kana_pref":"ﾌｸｼﾏｹﾝ","kana_city":"ﾀﾞﾃｼ","kana_address":"ﾎﾊﾞﾗﾏﾁﾀｶﾅﾘﾀ","pref":"福島県","city":"伊達市","address":"保原町高成田"},
{"zip_code":"9600686","kana_pref":"ﾌｸｼﾏｹﾝ","kana_city":"ﾀﾞﾃｼ","kana_address":"ﾎﾊﾞﾗﾏﾁﾀｹｳﾁﾏﾁ","pref":"福島県","city":"伊達市","address":"保原町竹内町"},
{"zip_code":"9600606","kana_pref":"ﾌｸｼﾏｹﾝ","kana_city":"ﾀﾞﾃｼ","kana_address":"ﾎﾊﾞﾗﾏﾁﾃｯﾎﾟｳﾏﾁ","pref":"福島県","city":"伊達市","address":"保原町鉄炮町"},
{"zip_code":"9600681","kana_pref":"ﾌｸｼﾏｹﾝ","kana_city":"ﾀﾞﾃｼ","kana_address":"ﾎﾊﾞﾗﾏﾁﾄｺﾛｻﾞﾜ","pref":"福島県","city":"伊達市","address":"保原町所沢"},
{"zip_code":"9600682","kana_pref":"ﾌｸｼﾏｹﾝ","kana_city":"ﾀﾞﾃｼ","kana_address":"ﾎﾊﾞﾗﾏﾁﾄﾐｻﾞﾜ","pref":"福島県","city":"伊達市","address":"保原町富沢"},
{"zip_code":"9600644","kana_pref":"ﾌｸｼﾏｹﾝ","kana_city":"ﾀﾞﾃｼ","kana_address":"ﾎﾊﾞﾗﾏﾁﾄﾖﾀ","pref":"福島県","city":"伊達市","address":"保原町豊田"},
{"zip_code":"9600631","kana_pref":"ﾌｸｼﾏｹﾝ","kana_city":"ﾀﾞﾃｼ","kana_address":"ﾎﾊﾞﾗﾏﾁﾅｶｾﾞ","pref":"福島県","city":"伊達市","address":"保原町中瀬"},
{"zip_code":"9600657","kana_pref":"ﾌｸｼﾏｹﾝ","kana_city":"ﾀﾞﾃｼ","kana_address":"ﾎﾊﾞﾗﾏﾁﾅｶｾﾞﾏﾁ","pref":"福島県","city":"伊達市","address":"保原町中瀬町"},
{"zip_code":"9600621","kana_pref":"ﾌｸｼﾏｹﾝ","kana_city":"ﾀﾞﾃｼ","kana_address":"ﾎﾊﾞﾗﾏﾁﾅｶﾑﾗﾁｮｳ","pref":"福島県","city":"伊達市","address":"保原町中村町"},
{"zip_code":"9600633","kana_pref":"ﾌｸｼﾏｹﾝ","kana_city":"ﾀﾞﾃｼ","kana_address":"ﾎﾊﾞﾗﾏﾁﾆｲﾀﾞ","pref":"福島県","city":"伊達市","address":"保原町二井田"},
{"zip_code":"9600650","kana_pref":"ﾌｸｼﾏｹﾝ","kana_city":"ﾀﾞﾃｼ","kana_address":"ﾎﾊﾞﾗﾏﾁﾆｼｼﾝﾃﾞﾝ","pref":"福島県","city":"伊達市","address":"保原町西新田"},
{"zip_code":"9600641","kana_pref":"ﾌｸｼﾏｹﾝ","kana_city":"ﾀﾞﾃｼ","kana_address":"ﾎﾊﾞﾗﾏﾁﾆｼﾈｺｶﾞﾜ","pref":"福島県","city":"伊達市","address":"保原町西猫川"},
{"zip_code":"9600659","kana_pref":"ﾌｸｼﾏｹﾝ","kana_city":"ﾀﾞﾃｼ","kana_address":"ﾎﾊﾞﾗﾏﾁﾆｼﾉｳﾁ","pref":"福島県","city":"伊達市","address":"保原町西ノ内"},
{"zip_code":"9600652","kana_pref":"ﾌｸｼﾏｹﾝ","kana_city":"ﾀﾞﾃｼ","kana_address":"ﾎﾊﾞﾗﾏﾁﾆｼﾏﾁ","pref":"福島県","city":"伊達市","address":"保原町西町"},
{"zip_code":"9600673","kana_pref":"ﾌｸｼﾏｹﾝ","kana_city":"ﾀﾞﾃｼ","kana_address":"ﾎﾊﾞﾗﾏﾁﾉｻﾞｷ","pref":"福島県","city":"伊達市","address":"保原町野崎"},
{"zip_code":"9600662","kana_pref":"ﾌｸｼﾏｹﾝ","kana_city":"ﾀﾞﾃｼ","kana_address":"ﾎﾊﾞﾗﾏﾁﾊｼﾗﾀﾞ","pref":"福島県","city":"伊達市","address":"保原町柱田"},
{"zip_code":"9600667","kana_pref":"ﾌｸｼﾏｹﾝ","kana_city":"ﾀﾞﾃｼ","kana_address":"ﾎﾊﾞﾗﾏﾁﾊﾁﾏﾝﾀﾞｲ","pref":"福島県","city":"伊達市","address":"保原町八幡台"},
{"zip_code":"9600635","kana_pref":"ﾌｸｼﾏｹﾝ","kana_city":"ﾀﾞﾃｼ","kana_address":"ﾎﾊﾞﾗﾏﾁﾊﾝﾄﾞｳ","pref":"福島県","city":"伊達市","address":"保原町半道"},
{"zip_code":"9600648","kana_pref":"ﾌｸｼﾏｹﾝ","kana_city":"ﾀﾞﾃｼ","kana_address":"ﾎﾊﾞﾗﾏﾁﾋｶﾞｼｺﾌﾞﾀ","pref":"福島県","city":"伊達市","address":"保原町東小蓋"},
{"zip_code":"9600646","kana_pref":"ﾌｸｼﾏｹﾝ","kana_city":"ﾀﾞﾃｼ","kana_address":"ﾎﾊﾞﾗﾏﾁﾋｶﾞｼﾀﾞｲｺﾞ","pref":"福島県","city":"伊達市","address":"保原町東台後"},
{"zip_code":"9600642","kana_pref":"ﾌｸｼﾏｹﾝ","kana_city":"ﾀﾞﾃｼ","kana_address":"ﾎﾊﾞﾗﾏﾁﾋｶﾞｼﾈｺｶﾞﾜ","pref":"福島県","city":"伊達市","address":"保原町東猫川"},
{"zip_code":"9600671","kana_pref":"ﾌｸｼﾏｹﾝ","kana_city":"ﾀﾞﾃｼ","kana_address":"ﾎﾊﾞﾗﾏﾁﾋｶﾞｼﾉｻﾞｷ","pref":"福島県","city":"伊達市","address":"保原町東野崎"},
{"zip_code":"9600663","kana_pref":"ﾌｸｼﾏｹﾝ","kana_city":"ﾀﾞﾃｼ","kana_address":"ﾎﾊﾞﾗﾏﾁﾌﾅﾊﾞｼ","pref":"福島県","city":"伊達市","address":"保原町舟橋"},
{"zip_code":"9600658","kana_pref":"ﾌｸｼﾏｹﾝ","kana_city":"ﾀﾞﾃｼ","kana_address":"ﾎﾊﾞﾗﾏﾁﾌﾙｶﾜﾊﾞﾀ","pref":"福島県","city":"伊達市","address":"保原町古川端"},
{"zip_code":"9600603","kana_pref":"ﾌｸｼﾏｹﾝ","kana_city":"ﾀﾞﾃｼ","kana_address":"ﾎﾊﾞﾗﾏﾁﾌﾙﾏﾁ","pref":"福島県","city":"伊達市","address":"保原町古町"},
{"zip_code":"9600623","kana_pref":"ﾌｸｼﾏｹﾝ","kana_city":"ﾀﾞﾃｼ","kana_address":"ﾎﾊﾞﾗﾏﾁﾏｴﾀﾞﾁｮｳ","pref":"福島県","city":"伊達市","address":"保原町前田町"},
{"zip_code":"9600688","kana_pref":"ﾌｸｼﾏｹﾝ","kana_city":"ﾀﾞﾃｼ","kana_address":"ﾎﾊﾞﾗﾏﾁﾐｽﾞﾎ","pref":"福島県","city":"伊達市","address":"保原町みずほ"},
{"zip_code":"9600628","kana_pref":"ﾌｸｼﾏｹﾝ","kana_city":"ﾀﾞﾃｼ","kana_address":"ﾎﾊﾞﾗﾏﾁﾐﾉﾙﾏﾁ","pref":"福島県","city":"伊達市","address":"保原町実町"},
{"zip_code":"9600655","kana_pref":"ﾌｸｼﾏｹﾝ","kana_city":"ﾀﾞﾃｼ","kana_address":"ﾎﾊﾞﾗﾏﾁﾐﾔｳﾁﾏﾁ","pref":"福島県","city":"伊達市","address":"保原町宮内町"},
{"zip_code":"9600612","kana_pref":"ﾌｸｼﾏｹﾝ","kana_city":"ﾀﾞﾃｼ","kana_address":"ﾎﾊﾞﾗﾏﾁﾐﾔｼﾀ","pref":"福島県","city":"伊達市","address":"保原町宮下"},
{"zip_code":"9600666","kana_pref":"ﾌｸｼﾏｹﾝ","kana_city":"ﾀﾞﾃｼ","kana_address":"ﾎﾊﾞﾗﾏﾁﾑﾗｵｶ","pref":"福島県","city":"伊達市","address":"保原町村岡"},
{"zip_code":"9600604","kana_pref":"ﾌｸｼﾏｹﾝ","kana_city":"ﾀﾞﾃｼ","kana_address":"ﾎﾊﾞﾗﾏﾁﾓﾄｷ","pref":"福島県","city":"伊達市","address":"保原町元木"},
{"zip_code":"9600605","kana_pref":"ﾌｸｼﾏｹﾝ","kana_city":"ﾀﾞﾃｼ","kana_address":"ﾎﾊﾞﾗﾏﾁﾓﾄﾏﾁ","pref":"福島県","city":"伊達市","address":"保原町元町"},
{"zip_code":"9600656","kana_pref":"ﾌｸｼﾏｹﾝ","kana_city":"ﾀﾞﾃｼ","kana_address":"ﾎﾊﾞﾗﾏﾁﾔﾊﾀﾏﾁ","pref":"福島県","city":"伊達市","address":"保原町八幡町"},
{"zip_code":"9600636","kana_pref":"ﾌｸｼﾏｹﾝ","kana_city":"ﾀﾞﾃｼ","kana_address":"ﾎﾊﾞﾗﾏﾁﾔﾏﾄ","pref":"福島県","city":"伊達市","address":"保原町大和"},
{"zip_code":"9600629","kana_pref":"ﾌｸｼﾏｹﾝ","kana_city":"ﾀﾞﾃｼ","kana_address":"ﾎﾊﾞﾗﾏﾁﾔﾖｲﾁｮｳ","pref":"福島県","city":"伊達市","address":"保原町弥生町"},
{"zip_code":"9600644","kana_pref":"ﾌｸｼﾏｹﾝ","kana_city":"ﾀﾞﾃｼ","kana_address":"ﾎﾊﾞﾗﾏﾁﾕﾀｶﾏﾁ","pref":"福島県","city":"伊達市","address":"保原町豊町"},
{"zip_code":"9600639","kana_pref":"ﾌｸｼﾏｹﾝ","kana_city":"ﾀﾞﾃｼ","kana_address":"ﾎﾊﾞﾗﾏﾁﾛｸﾏﾝﾎﾞｳ","pref":"福島県","city":"伊達市","address":"保原町六万坊"},
{"zip_code":"9600677","kana_pref":"ﾌｸｼﾏｹﾝ","kana_city":"ﾀﾞﾃｼ","kana_address":"ﾎﾊﾞﾗﾏﾁﾜｾﾀﾞ","pref":"福島県","city":"伊達市","address":"保原町早稲田"},
{"zip_code":"9600481","kana_pref":"ﾌｸｼﾏｹﾝ","kana_city":"ﾀﾞﾃｼ","kana_address":"ﾎﾘｷﾘﾊﾀ","pref":"福島県","city":"伊達市","address":"堀切端"},
{"zip_code":"9600403","kana_pref":"ﾌｸｼﾏｹﾝ","kana_city":"ﾀﾞﾃｼ","kana_address":"ﾏｴｶﾜﾗ","pref":"福島県","city":"伊達市","address":"前川原"},
{"zip_code":"9600436","kana_pref":"ﾌｸｼﾏｹﾝ","kana_city":"ﾀﾞﾃｼ","kana_address":"ﾏｴﾀﾞ","pref":"福島県","city":"伊達市","address":"前田"},
{"zip_code":"9600402","kana_pref":"ﾌｸｼﾏｹﾝ","kana_city":"ﾀﾞﾃｼ","kana_address":"ﾐｽﾞﾇｷ","pref":"福島県","city":"伊達市","address":"水抜"},
{"zip_code":"9600464","kana_pref":"ﾌｸｼﾏｹﾝ","kana_city":"ﾀﾞﾃｼ","kana_address":"ﾐﾅﾐﾎﾞﾘ","pref":"福島県","city":"伊達市","address":"南堀"},
{"zip_code":"9600413","kana_pref":"ﾌｸｼﾏｹﾝ","kana_city":"ﾀﾞﾃｼ","kana_address":"ﾐﾔﾏｴ","pref":"福島県","city":"伊達市","address":"宮前"},
{"zip_code":"9600462","kana_pref":"ﾌｸｼﾏｹﾝ","kana_city":"ﾀﾞﾃｼ","kana_address":"ﾓﾄﾏﾁ","pref":"福島県","city":"伊達市","address":"本町"},
{"zip_code":"9600448","kana_pref":"ﾌｸｼﾏｹﾝ","kana_city":"ﾀﾞﾃｼ","kana_address":"ﾔｼｷﾏ","pref":"福島県","city":"伊達市","address":"屋敷間"},
{"zip_code":"9600756","kana_pref":"ﾌｸｼﾏｹﾝ","kana_city":"ﾀﾞﾃｼ","kana_address":"ﾔﾅｶﾞﾜﾏﾁｱｵﾊﾞﾁｮｳ","pref":"福島県","city":"伊達市","address":"梁川町青葉町"},
{"zip_code":"9600725","kana_pref":"ﾌｸｼﾏｹﾝ","kana_city":"ﾀﾞﾃｼ","kana_address":"ﾔﾅｶﾞﾜﾏﾁｱｶｺﾞﾘﾝ","pref":"福島県","city":"伊達市","address":"梁川町赤五輪"},
{"zip_code":"9600723","kana_pref":"ﾌｸｼﾏｹﾝ","kana_city":"ﾀﾞﾃｼ","kana_address":"ﾔﾅｶﾞﾜﾏﾁｱｼﾅｷﾞ","pref":"福島県","city":"伊達市","address":"梁川町足駄木"},
{"zip_code":"9600711","kana_pref":"ﾌｸｼﾏｹﾝ","kana_city":"ﾀﾞﾃｼ","kana_address":"ﾔﾅｶﾞﾜﾏﾁｱﾜﾉ","pref":"福島県","city":"伊達市","address":"梁川町粟野"},
{"zip_code":"9600701","kana_pref":"ﾌｸｼﾏｹﾝ","kana_city":"ﾀﾞﾃｼ","kana_address":"ﾔﾅｶﾞﾜﾏﾁｲｻｻﾞﾜ","pref":"福島県","city":"伊達市","address":"梁川町五十沢"},
{"zip_code":"9600774","kana_pref":"ﾌｸｼﾏｹﾝ","kana_city":"ﾀﾞﾃｼ","kana_address":"ﾔﾅｶﾞﾜﾏﾁｲｼｲﾄﾞ","pref":"福島県","city":"伊達市","address":"梁川町石井戸"},
{"zip_code":"9600764","kana_pref":"ﾌｸｼﾏｹﾝ","kana_city":"ﾀﾞﾃｼ","kana_address":"ﾔﾅｶﾞﾜﾏﾁｲｯﾁｮｳﾀﾞ","pref":"福島県","city":"伊達市","address":"梁川町壱丁田"},
{"zip_code":"9600745","kana_pref":"ﾌｸｼﾏｹﾝ","kana_city":"ﾀﾞﾃｼ","kana_address":"ﾔﾅｶﾞﾜﾏﾁｳｼﾛﾏﾁ","pref":"福島県","city":"伊達市","address":"梁川町右城町"},
{"zip_code":"9600744","kana_pref":"ﾌｸｼﾏｹﾝ","kana_city":"ﾀﾞﾃｼ","kana_address":"ﾔﾅｶﾞﾜﾏﾁｳﾁﾏﾁ","pref":"福島県","city":"伊達市","address":"梁川町内町"},
{"zip_code":"9600723","kana_pref":"ﾌｸｼﾏｹﾝ","kana_city":"ﾀﾞﾃｼ","kana_address":"ﾔﾅｶﾞﾜﾏﾁｳﾁﾔﾏ","pref":"福島県","city":"伊達市","address":"梁川町内山"},
{"zip_code":"9600727","kana_pref":"ﾌｸｼﾏｹﾝ","kana_city":"ﾀﾞﾃｼ","kana_address":"ﾔﾅｶﾞﾜﾏﾁｳﾜﾏﾁ","pref":"福島県","city":"伊達市","address":"梁川町上町"},
{"zip_code":"9600746","kana_pref":"ﾌｸｼﾏｹﾝ","kana_city":"ﾀﾞﾃｼ","kana_address":"ﾔﾅｶﾞﾜﾏﾁｵｵｼﾐｽﾞ","pref":"福島県","city":"伊達市","address":"梁川町大清水"},
{"zip_code":"9600765","kana_pref":"ﾌｸｼﾏｹﾝ","kana_city":"ﾀﾞﾃｼ","kana_address":"ﾔﾅｶﾞﾜﾏﾁｵｵｾﾞｷ","pref":"福島県","city":"伊達市","address":"梁川町大関"},
{"zip_code":"9600715","kana_pref":"ﾌｸｼﾏｹﾝ","kana_city":"ﾀﾞﾃｼ","kana_address":"ﾔﾅｶﾞﾜﾏﾁｵｵﾀﾞﾃ","pref":"福島県","city":"伊達市","address":"梁川町大舘"},
{"zip_code":"9600741","kana_pref":"ﾌｸｼﾏｹﾝ","kana_city":"ﾀﾞﾃｼ","kana_address":"ﾔﾅｶﾞﾜﾏﾁｵｵﾏﾁ","pref":"福島県","city":"伊達市","address":"梁川町大町"},
{"zip_code":"9600712","kana_pref":"ﾌｸｼﾏｹﾝ","kana_city":"ﾀﾞﾃｼ","kana_address":"ﾔﾅｶﾞﾜﾏﾁｵﾊﾁﾛｳ","pref":"福島県","city":"伊達市","address":"梁川町御八郎"},
{"zip_code":"9600723","kana_pref":"ﾌｸｼﾏｹﾝ","kana_city":"ﾀﾞﾃｼ","kana_address":"ﾔﾅｶﾞﾜﾏﾁｶﾐｱｼﾅｷﾞ","pref":"福島県","city":"伊達市","address":"梁川町上足駄木"},
{"zip_code":"9600753","kana_pref":"ﾌｸｼﾏｹﾝ","kana_city":"ﾀﾞﾃｼ","kana_address":"ﾔﾅｶﾞﾜﾏﾁｶﾐｶﾞﾜﾗ","pref":"福島県","city":"伊達市","address":"梁川町上川原"},
{"zip_code":"9600772","kana_pref":"ﾌｸｼﾏｹﾝ","kana_city":"ﾀﾞﾃｼ","kana_address":"ﾔﾅｶﾞﾜﾏﾁｶﾐﾜﾘﾀﾞ","pref":"福島県","city":"伊達市","address":"梁川町上割田"},
{"zip_code":"9600724","kana_pref":"ﾌｸｼﾏｹﾝ","kana_city":"ﾀﾞﾃｼ","kana_address":"ﾔﾅｶﾞﾜﾏﾁｷﾀｱﾗｲ","pref":"福島県","city":"伊達市","address":"梁川町北新井"},
{"zip_code":"9600726","kana_pref":"ﾌｸｼﾏｹﾝ","kana_city":"ﾀﾞﾃｼ","kana_address":"ﾔﾅｶﾞﾜﾏﾁｷﾀﾏﾁｶﾞｼﾗ","pref":"福島県","city":"伊達市","address":"梁川町北町頭"},
{"zip_code":"9600706","kana_pref":"ﾌｸｼﾏｹﾝ","kana_city":"ﾀﾞﾃｼ","kana_address":"ﾔﾅｶﾞﾜﾏﾁｷﾀﾏﾁﾔｶﾞﾜ","pref":"福島県","city":"伊達市","address":"梁川町北町谷川"},
{"zip_code":"9600781","kana_pref":"ﾌｸｼﾏｹﾝ","kana_city":"ﾀﾞﾃｼ","kana_address":"ﾔﾅｶﾞﾜﾏﾁｷﾀﾓﾄﾏﾁ","pref":"福島県","city":"伊達市","address":"梁川町北本町"},
{"zip_code":"9600729","kana_pref":"ﾌｸｼﾏｹﾝ","kana_city":"ﾀﾞﾃｼ","kana_address":"ﾔﾅｶﾞﾜﾏﾁｷﾎﾞｳｶﾞｵｶ","pref":"福島県","city":"伊達市","address":"梁川町希望ケ丘"},
{"zip_code":"9600773","kana_pref":"ﾌｸｼﾏｹﾝ","kana_city":"ﾀﾞﾃｼ","kana_address":"ﾔﾅｶﾞﾜﾏﾁｺﾞﾀﾝﾀﾞ","pref":"福島県","city":"伊達市","address":"梁川町五反田"},
{"zip_code":"9600785","kana_pref":"ﾌｸｼﾏｹﾝ","kana_city":"ﾀﾞﾃｼ","kana_address":"ﾔﾅｶﾞﾜﾏﾁｺﾔﾅｶﾞﾜ","pref":"福島県","city":"伊達市","address":"梁川町小梁川"},
{"zip_code":"9600757","kana_pref":"ﾌｸｼﾏｹﾝ","kana_city":"ﾀﾞﾃｼ","kana_address":"ﾔﾅｶﾞﾜﾏﾁｻｲﾜｲﾁｮｳ","pref":"福島県","city":"伊達市","address":"梁川町幸町"},
{"zip_code":"9600754","kana_pref":"ﾌｸｼﾏｹﾝ","kana_city":"ﾀﾞﾃｼ","kana_address":"ﾔﾅｶﾞﾜﾏﾁｻｶｴﾏﾁ","pref":"福島県","city":"伊達市","address":"梁川町栄町"},
{"zip_code":"9600736","kana_pref":"ﾌｸｼﾏｹﾝ","kana_city":"ﾀﾞﾃｼ","kana_address":"ﾔﾅｶﾞﾜﾏﾁｻｸﾗｶﾞｵｶ","pref":"福島県","city":"伊達市","address":"梁川町桜岳"},
{"zip_code":"9600758","kana_pref":"ﾌｸｼﾏｹﾝ","kana_city":"ﾀﾞﾃｼ","kana_address":"ﾔﾅｶﾞﾜﾏﾁｻｸﾗﾁｮｳ","pref":"福島県","city":"伊達市","address":"梁川町桜町"},
{"zip_code":"9600723","kana_pref":"ﾌｸｼﾏｹﾝ","kana_city":"ﾀﾞﾃｼ","kana_address":"ﾔﾅｶﾞﾜﾏﾁｻﾄﾐﾔﾏ","pref":"福島県","city":"伊達市","address":"梁川町里見山"},
{"zip_code":"9600775","kana_pref":"ﾌｸｼﾏｹﾝ","kana_city":"ﾀﾞﾃｼ","kana_address":"ﾔﾅｶﾞﾜﾏﾁｼｺｸﾏｷ","pref":"福島県","city":"伊達市","address":"梁川町四石蒔"},
{"zip_code":"9600742","kana_pref":"ﾌｸｼﾏｹﾝ","kana_city":"ﾀﾞﾃｼ","kana_address":"ﾔﾅｶﾞﾜﾏﾁｼﾐｽﾞﾏﾁ","pref":"福島県","city":"伊達市","address":"梁川町清水町"},
{"zip_code":"9600711","kana_pref":"ﾌｸｼﾏｹﾝ","kana_city":"ﾀﾞﾃｼ","kana_address":"ﾔﾅｶﾞﾜﾏﾁｼﾓｶﾞﾜﾗ","pref":"福島県","city":"伊達市","address":"梁川町下川原"},
{"zip_code":"9600733","kana_pref":"ﾌｸｼﾏｹﾝ","kana_city":"ﾀﾞﾃｼ","kana_address":"ﾔﾅｶﾞﾜﾏﾁｼｮｳﾌﾞｻﾜ","pref":"福島県","city":"伊達市","address":"梁川町菖蒲沢"},
{"zip_code":"9600716","kana_pref":"ﾌｸｼﾏｹﾝ","kana_city":"ﾀﾞﾃｼ","kana_address":"ﾔﾅｶﾞﾜﾏﾁｼﾗｶﾜﾀﾞ","pref":"福島県","city":"伊達市","address":"梁川町白川田"},
{"zip_code":"9600721","kana_pref":"ﾌｸｼﾏｹﾝ","kana_city":"ﾀﾞﾃｼ","kana_address":"ﾔﾅｶﾞﾜﾏﾁｼﾗﾈ","pref":"福島県","city":"伊達市","address":"梁川町白根"},
{"zip_code":"9600763","kana_pref":"ﾌｸｼﾏｹﾝ","kana_city":"ﾀﾞﾃｼ","kana_address":"ﾔﾅｶﾞﾜﾏﾁﾀﾞｲﾓﾝﾐﾁ","pref":"福島県","city":"伊達市","address":"梁川町大門道"},
{"zip_code":"9600784","kana_pref":"ﾌｸｼﾏｹﾝ","kana_city":"ﾀﾞﾃｼ","kana_address":"ﾔﾅｶﾞﾜﾏﾁﾀﾏﾁ","pref":"福島県","city":"伊達市","address":"梁川町田町"},
{"zip_code":"9600762","kana_pref":"ﾌｸｼﾏｹﾝ","kana_city":"ﾀﾞﾃｼ","kana_address":"ﾔﾅｶﾞﾜﾏﾁﾀﾝﾊﾞﾂﾞｶ","pref":"福島県","city":"伊達市","address":"梁川町丹波塚"},
{"zip_code":"9600734","kana_pref":"ﾌｸｼﾏｹﾝ","kana_city":"ﾀﾞﾃｼ","kana_address":"ﾔﾅｶﾞﾜﾏﾁﾁｬｳｽﾔﾏ","pref":"福島県","city":"伊達市","address":"梁川町茶臼山"},
{"zip_code":"9600735","kana_pref":"ﾌｸｼﾏｹﾝ","kana_city":"ﾀﾞﾃｼ","kana_address":"ﾔﾅｶﾞﾜﾏﾁﾂﾙｶﾞｵｶ","pref":"福島県","city":"伊達市","address":"梁川町鶴ケ岡"},
{"zip_code":"9600728","kana_pref":"ﾌｸｼﾏｹﾝ","kana_city":"ﾀﾞﾃｼ","kana_address":"ﾔﾅｶﾞﾜﾏﾁﾃﾝｼﾞﾝﾏｴ","pref":"福島県","city":"伊達市","address":"梁川町天神前"},
{"zip_code":"9600731","kana_pref":"ﾌｸｼﾏｹﾝ","kana_city":"ﾀﾞﾃｼ","kana_address":"ﾔﾅｶﾞﾜﾏﾁﾃﾝｼﾞﾝﾏﾁ","pref":"福島県","city":"伊達市","address":"梁川町天神町"},
{"zip_code":"9600778","kana_pref":"ﾌｸｼﾏｹﾝ","kana_city":"ﾀﾞﾃｼ","kana_address":"ﾔﾅｶﾞﾜﾏﾁﾃﾞﾝﾋﾟ","pref":"福島県","city":"伊達市","address":"梁川町伝樋"},
{"zip_code":"9600755","kana_pref":"ﾌｸｼﾏｹﾝ","kana_city":"ﾀﾞﾃｼ","kana_address":"ﾔﾅｶﾞﾜﾏﾁﾅｶｸﾎﾞ","pref":"福島県","city":"伊達市","address":"梁川町中久保"},
{"zip_code":"9600782","kana_pref":"ﾌｸｼﾏｹﾝ","kana_city":"ﾀﾞﾃｼ","kana_address":"ﾔﾅｶﾞﾜﾏﾁﾅｶﾏﾁ","pref":"福島県","city":"伊達市","address":"梁川町中町"},
{"zip_code":"9600709","kana_pref":"ﾌｸｼﾏｹﾝ","kana_city":"ﾀﾞﾃｼ","kana_address":"ﾔﾅｶﾞﾜﾏﾁﾆｼｼｵﾉｶﾞﾜ","pref":"福島県","city":"伊達市","address":"梁川町西塩野川"},
{"zip_code":"9600777","kana_pref":"ﾌｸｼﾏｹﾝ","kana_city":"ﾀﾞﾃｼ","kana_address":"ﾔﾅｶﾞﾜﾏﾁﾆｼﾄﾞﾊﾞｼ","pref":"福島県","city":"伊達市","address":"梁川町西土橋"},
{"zip_code":"9600767","kana_pref":"ﾌｸｼﾏｹﾝ","kana_city":"ﾀﾞﾃｼ","kana_address":"ﾔﾅｶﾞﾜﾏﾁﾆｯﾀ","pref":"福島県","city":"伊達市","address":"梁川町新田"},
{"zip_code":"9600718","kana_pref":"ﾌｸｼﾏｹﾝ","kana_city":"ﾀﾞﾃｼ","kana_address":"ﾔﾅｶﾞﾜﾏﾁﾆﾉﾌｸﾛ","pref":"福島県","city":"伊達市","address":"梁川町二野袋"},
{"zip_code":"9600702","kana_pref":"ﾌｸｼﾏｹﾝ","kana_city":"ﾀﾞﾃｼ","kana_address":"ﾔﾅｶﾞﾜﾏﾁﾋｶﾞｼｵｵｴﾀﾞ","pref":"福島県","city":"伊達市","address":"梁川町東大枝"},
{"zip_code":"9600708","kana_pref":"ﾌｸｼﾏｹﾝ","kana_city":"ﾀﾞﾃｼ","kana_address":"ﾔﾅｶﾞﾜﾏﾁﾋｶﾞｼｼｵﾉｶﾞﾜ","pref":"福島県","city":"伊達市","address":"梁川町東塩野川"},
{"zip_code":"9600776","kana_pref":"ﾌｸｼﾏｹﾝ","kana_city":"ﾀﾞﾃｼ","kana_address":"ﾔﾅｶﾞﾜﾏﾁﾋｶﾞｼﾄﾞﾊﾞｼ","pref":"福島県","city":"伊達市","address":"梁川町東土橋"},
{"zip_code":"9600759","kana_pref":"ﾌｸｼﾏｹﾝ","kana_city":"ﾀﾞﾃｼ","kana_address":"ﾔﾅｶﾞﾜﾏﾁﾋﾛｾﾁｮｳ","pref":"福島県","city":"伊達市","address":"梁川町広瀬町"},
{"zip_code":"9600769","kana_pref":"ﾌｸｼﾏｹﾝ","kana_city":"ﾀﾞﾃｼ","kana_address":"ﾔﾅｶﾞﾜﾏﾁﾌﾅﾊﾞｼ","pref":"福島県","city":"伊達市","address":"梁川町舟橋"},
{"zip_code":"9600704","kana_pref":"ﾌｸｼﾏｹﾝ","kana_city":"ﾀﾞﾃｼ","kana_address":"ﾔﾅｶﾞﾜﾏﾁﾌﾆｭｳ","pref":"福島県","city":"伊達市","address":"梁川町舟生"},
{"zip_code":"9600751","kana_pref":"ﾌｸｼﾏｹﾝ","kana_city":"ﾀﾞﾃｼ","kana_address":"ﾔﾅｶﾞﾜﾏﾁﾌﾙﾏﾁ","pref":"福島県","city":"伊達市","address":"梁川町古町"},
{"zip_code":"9600766","kana_pref":"ﾌｸｼﾏｹﾝ","kana_city":"ﾀﾞﾃｼ","kana_address":"ﾔﾅｶﾞﾜﾏﾁﾎｿﾔ","pref":"福島県","city":"伊達市","address":"梁川町細谷"},
{"zip_code":"9600747","kana_pref":"ﾌｸｼﾏｹﾝ","kana_city":"ﾀﾞﾃｼ","kana_address":"ﾔﾅｶﾞﾜﾏﾁﾏﾁｳﾗ","pref":"福島県","city":"伊達市","address":"梁川町町裏"},
{"zip_code":"9600732","kana_pref":"ﾌｸｼﾏｹﾝ","kana_city":"ﾀﾞﾃｼ","kana_address":"ﾔﾅｶﾞﾜﾏﾁﾐﾅﾐﾏﾁｶﾞｼﾗ","pref":"福島県","city":"伊達市","address":"梁川町南町頭"},
{"zip_code":"9600707","kana_pref":"ﾌｸｼﾏｹﾝ","kana_city":"ﾀﾞﾃｼ","kana_address":"ﾔﾅｶﾞﾜﾏﾁﾐﾅﾐﾏﾁﾔｶﾞﾜ","pref":"福島県","city":"伊達市","address":"梁川町南町谷川"},
{"zip_code":"9600786","kana_pref":"ﾌｸｼﾏｹﾝ","kana_city":"ﾀﾞﾃｼ","kana_address":"ﾔﾅｶﾞﾜﾏﾁﾐﾅﾐﾓﾄﾏﾁ","pref":"福島県","city":"伊達市","address":"梁川町南本町"},
{"zip_code":"9600717","kana_pref":"ﾌｸｼﾏｹﾝ","kana_city":"ﾀﾞﾃｼ","kana_address":"ﾔﾅｶﾞﾜﾏﾁﾑｺｳｶﾞﾜﾗ","pref":"福島県","city":"伊達市","address":"梁川町向川原"},
{"zip_code":"9600743","kana_pref":"ﾌｸｼﾏｹﾝ","kana_city":"ﾀﾞﾃｼ","kana_address":"ﾔﾅｶﾞﾜﾏﾁﾓﾄｼﾞﾝﾅｲ","pref":"福島県","city":"伊達市","address":"梁川町元陣内"},
{"zip_code":"9600705","kana_pref":"ﾌｸｼﾏｹﾝ","kana_city":"ﾀﾞﾃｼ","kana_address":"ﾔﾅｶﾞﾜﾏﾁﾓﾄﾌﾅﾊﾞ","pref":"福島県","city":"伊達市","address":"梁川町元舟場"},
{"zip_code":"9600783","kana_pref":"ﾌｸｼﾏｹﾝ","kana_city":"ﾀﾞﾃｼ","kana_address":"ﾔﾅｶﾞﾜﾏﾁﾓﾄﾏﾁ","pref":"福島県","city":"伊達市","address":"梁川町本町"},
{"zip_code":"9600713","kana_pref":"ﾌｸｼﾏｹﾝ","kana_city":"ﾀﾞﾃｼ","kana_address":"ﾔﾅｶﾞﾜﾏﾁﾔｽｼﾞ","pref":"福島県","city":"伊達市","address":"梁川町八筋"},
{"zip_code":"9600719","kana_pref":"ﾌｸｼﾏｹﾝ","kana_city":"ﾀﾞﾃｼ","kana_address":"ﾔﾅｶﾞﾜﾏﾁﾔﾅｶﾞﾜｺｳｷﾞｮｳﾀﾞﾝﾁ","pref":"福島県","city":"伊達市","address":"梁川町やながわ工業団地"},
{"zip_code":"9600768","kana_pref":"ﾌｸｼﾏｹﾝ","kana_city":"ﾀﾞﾃｼ","kana_address":"ﾔﾅｶﾞﾜﾏﾁﾔﾅｷﾞﾀﾞ","pref":"福島県","city":"伊達市","address":"梁川町柳田"},
{"zip_code":"9600787","kana_pref":"ﾌｸｼﾏｹﾝ","kana_city":"ﾀﾞﾃｼ","kana_address":"ﾔﾅｶﾞﾜﾏﾁﾔﾏｼﾛﾀﾞﾃ","pref":"福島県","city":"伊達市","address":"梁川町山城舘"},
{"zip_code":"9600703","kana_pref":"ﾌｸｼﾏｹﾝ","kana_city":"ﾀﾞﾃｼ","kana_address":"ﾔﾅｶﾞﾜﾏﾁﾔﾏﾌﾆｭｳ","pref":"福島県","city":"伊達市","address":"梁川町山舟生"},
{"zip_code":"9600722","kana_pref":"ﾌｸｼﾏｹﾝ","kana_city":"ﾀﾞﾃｼ","kana_address":"ﾔﾅｶﾞﾜﾏﾁﾔﾜﾀ","pref":"福島県","city":"伊達市","address":"梁川町八幡"},
{"zip_code":"9600760","kana_pref":"ﾌｸｼﾏｹﾝ","kana_city":"ﾀﾞﾃｼ","kana_address":"ﾔﾅｶﾞﾜﾏﾁﾖｳｺｳﾀﾞｲ","pref":"福島県","city":"伊達市","address":"梁川町陽光台"},
{"zip_code":"9600752","kana_pref":"ﾌｸｼﾏｹﾝ","kana_city":"ﾀﾞﾃｼ","kana_address":"ﾔﾅｶﾞﾜﾏﾁﾖｯｶｲﾁ","pref":"福島県","city":"伊達市","address":"梁川町四日市"},
{"zip_code":"9600483","kana_pref":"ﾌｸｼﾏｹﾝ","kana_city":"ﾀﾞﾃｼ","kana_address":"ﾔﾅｷﾞｳﾁ","pref":"福島県","city":"伊達市","address":"柳内"},
{"zip_code":"9600438","kana_pref":"ﾌｸｼﾏｹﾝ","kana_city":"ﾀﾞﾃｼ","kana_address":"ﾗｲﾃﾞﾝ","pref":"福島県","city":"伊達市","address":"雷田"},
{"zip_code":"9600807","kana_pref":"ﾌｸｼﾏｹﾝ","kana_city":"ﾀﾞﾃｼ","kana_address":"ﾘｮｳｾﾞﾝﾏﾁｲｼﾀﾞ","pref":"福島県","city":"伊達市","address":"霊山町石田"},
{"zip_code":"9600803","kana_pref":"ﾌｸｼﾏｹﾝ","kana_city":"ﾀﾞﾃｼ","kana_address":"ﾘｮｳｾﾞﾝﾏﾁｲｽﾞﾐﾊﾗ","pref":"福島県","city":"伊達市","address":"霊山町泉原"},
{"zip_code":"9600804","kana_pref":"ﾌｸｼﾏｹﾝ","kana_city":"ﾀﾞﾃｼ","kana_address":"ﾘｮｳｾﾞﾝﾏﾁｵｵｲｼ","pref":"福島県","city":"伊達市","address":"霊山町大石"},
{"zip_code":"9600801","kana_pref":"ﾌｸｼﾏｹﾝ","kana_city":"ﾀﾞﾃｼ","kana_address":"ﾘｮｳｾﾞﾝﾏﾁｶｹﾀﾞ","pref":"福島県","city":"伊達市","address":"霊山町掛田"},
{"zip_code":"9600809","kana_pref":"ﾌｸｼﾏｹﾝ","kana_city":"ﾀﾞﾃｼ","kana_address":"ﾘｮｳｾﾞﾝﾏﾁｶﾐｵｸﾞﾆ","pref":"福島県","city":"伊達市","address":"霊山町上小国"},
{"zip_code":"9600808","kana_pref":"ﾌｸｼﾏｹﾝ","kana_city":"ﾀﾞﾃｼ","kana_address":"ﾘｮｳｾﾞﾝﾏﾁｼﾓｵｸﾞﾆ","pref":"福島県","city":"伊達市","address":"霊山町下小国"},
{"zip_code":"9600805","kana_pref":"ﾌｸｼﾏｹﾝ","kana_city":"ﾀﾞﾃｼ","kana_address":"ﾘｮｳｾﾞﾝﾏﾁﾅｶｶﾞﾜ","pref":"福島県","city":"伊達市","address":"霊山町中川"},
{"zip_code":"9600806","kana_pref":"ﾌｸｼﾏｹﾝ","kana_city":"ﾀﾞﾃｼ","kana_address":"ﾘｮｳｾﾞﾝﾏﾁﾔﾏﾄﾀﾞ","pref":"福島県","city":"伊達市","address":"霊山町山戸田"},
{"zip_code":"9600802","kana_pref":"ﾌｸｼﾏｹﾝ","kana_city":"ﾀﾞﾃｼ","kana_address":"ﾘｮｳｾﾞﾝﾏﾁﾔﾏﾉｶﾞﾜ","pref":"福島県","city":"伊達市","address":"霊山町山野川"},
{"zip_code":"9600486","kana_pref":"ﾌｸｼﾏｹﾝ","kana_city":"ﾀﾞﾃｼ","kana_address":"ﾛｯｶｸ","pref":"福島県","city":"伊達市","address":"六角"},
{"zip_code":"9601400","kana_pref":"ﾌｸｼﾏｹﾝ","kana_city":"ﾀﾞﾃｸﾞﾝｶﾜﾏﾀﾏﾁ","kana_address":"","pref":"福島県","city":"伊達郡川俣町","address":""},
{"zip_code":"9601465","kana_pref":"ﾌｸｼﾏｹﾝ","kana_city":"ﾀﾞﾃｸﾞﾝｶﾜﾏﾀﾏﾁ","kana_address":"ｱｶｻｶ","pref":"福島県","city":"伊達郡川俣町","address":"赤坂"},
{"zip_code":"9601409","kana_pref":"ﾌｸｼﾏｹﾝ","kana_city":"ﾀﾞﾃｸﾞﾝｶﾜﾏﾀﾏﾁ","kana_address":"ｱｷﾔﾏ","pref":"福島県","city":"伊達郡川俣町","address":"秋山"},
{"zip_code":"9601401","kana_pref":"ﾌｸｼﾏｹﾝ","kana_city":"ﾀﾞﾃｸﾞﾝｶﾜﾏﾀﾏﾁ","kana_address":"ｲｲｻﾞｶ","pref":"福島県","city":"伊達郡川俣町","address":"飯坂"},
{"zip_code":"9601423","kana_pref":"ﾌｸｼﾏｹﾝ","kana_city":"ﾀﾞﾃｸﾞﾝｶﾜﾏﾀﾏﾁ","kana_address":"ｲｹﾉｲﾘ","pref":"福島県","city":"伊達郡川俣町","address":"池ノ入"},
{"zip_code":"9601476","kana_pref":"ﾌｸｼﾏｹﾝ","kana_city":"ﾀﾞﾃｸﾞﾝｶﾜﾏﾀﾏﾁ","kana_address":"ｲｼｶﾜ","pref":"福島県","city":"伊達郡川俣町","address":"石川"},
{"zip_code":"9601414","kana_pref":"ﾌｸｼﾏｹﾝ","kana_city":"ﾀﾞﾃｸﾞﾝｶﾜﾏﾀﾏﾁ","kana_address":"ｳｴｻﾞｸﾗ","pref":"福島県","city":"伊達郡川俣町","address":"上桜"},
{"zip_code":"9601452","kana_pref":"ﾌｸｼﾏｹﾝ","kana_city":"ﾀﾞﾃｸﾞﾝｶﾜﾏﾀﾏﾁ","kana_address":"ｳｼﾛﾀﾞ","pref":"福島県","city":"伊達郡川俣町","address":"後田"},
{"zip_code":"9601485","kana_pref":"ﾌｸｼﾏｹﾝ","kana_city":"ﾀﾞﾃｸﾞﾝｶﾜﾏﾀﾏﾁ","kana_address":"ｴﾋﾞｶﾞｻｸ","pref":"福島県","city":"伊達郡川俣町","address":"海老ケ作"},
{"zip_code":"9601484","kana_pref":"ﾌｸｼﾏｹﾝ","kana_city":"ﾀﾞﾃｸﾞﾝｶﾜﾏﾀﾏﾁ","kana_address":"ｴﾝﾒｲｼﾞﾝ","pref":"福島県","city":"伊達郡川俣町","address":"延命神"},
{"zip_code":"9601443","kana_pref":"ﾌｸｼﾏｹﾝ","kana_city":"ﾀﾞﾃｸﾞﾝｶﾜﾏﾀﾏﾁ","kana_address":"ｵｵｳﾁ","pref":"福島県","city":"伊達郡川俣町","address":"大内"},
{"zip_code":"9601435","kana_pref":"ﾌｸｼﾏｹﾝ","kana_city":"ﾀﾞﾃｸﾞﾝｶﾜﾏﾀﾏﾁ","kana_address":"ｵｵｻｸ","pref":"福島県","city":"伊達郡川俣町","address":"大作"},
{"zip_code":"9601431","kana_pref":"ﾌｸｼﾏｹﾝ","kana_city":"ﾀﾞﾃｸﾞﾝｶﾜﾏﾀﾏﾁ","kana_address":"ｵｵｼﾐｽﾞ","pref":"福島県","city":"伊達郡川俣町","address":"大清水"},
{"zip_code":"9601403","kana_pref":"ﾌｸｼﾏｹﾝ","kana_city":"ﾀﾞﾃｸﾞﾝｶﾜﾏﾀﾏﾁ","kana_address":"ｵｵﾂﾅｷﾞ","pref":"福島県","city":"伊達郡川俣町","address":"大綱木"},
{"zip_code":"9601489","kana_pref":"ﾌｸｼﾏｹﾝ","kana_city":"ﾀﾞﾃｸﾞﾝｶﾜﾏﾀﾏﾁ","kana_address":"ｵｼﾞﾏ","pref":"福島県","city":"伊達郡川俣町","address":"小島"},
{"zip_code":"9601429","kana_pref":"ﾌｸｼﾏｹﾝ","kana_city":"ﾀﾞﾃｸﾞﾝｶﾜﾏﾀﾏﾁ","kana_address":"ｶｼﾜｻﾞｷ","pref":"福島県","city":"伊達郡川俣町","address":"柏崎"},
{"zip_code":"9601478","kana_pref":"ﾌｸｼﾏｹﾝ","kana_city":"ﾀﾞﾃｸﾞﾝｶﾜﾏﾀﾏﾁ","kana_address":"ｶﾍﾞｻﾜ","pref":"福島県","city":"伊達郡川俣町","address":"壁沢"},
{"zip_code":"9601436","kana_pref":"ﾌｸｼﾏｹﾝ","kana_city":"ﾀﾞﾃｸﾞﾝｶﾜﾏﾀﾏﾁ","kana_address":"ｶﾜﾊﾗﾀﾞ","pref":"福島県","city":"伊達郡川俣町","address":"川原田"},
{"zip_code":"9601453","kana_pref":"ﾌｸｼﾏｹﾝ","kana_city":"ﾀﾞﾃｸﾞﾝｶﾜﾏﾀﾏﾁ","kana_address":"ｶﾜﾗﾏﾁ","pref":"福島県","city":"伊達郡川俣町","address":"瓦町"},
{"zip_code":"9601472","kana_pref":"ﾌｸｼﾏｹﾝ","kana_city":"ﾀﾞﾃｸﾞﾝｶﾜﾏﾀﾏﾁ","kana_address":"ｸｻｶﾞｲﾘ","pref":"福島県","city":"伊達郡川俣町","address":"草ケ入"},
{"zip_code":"9601477","kana_pref":"ﾌｸｼﾏｹﾝ","kana_city":"ﾀﾞﾃｸﾞﾝｶﾜﾏﾀﾏﾁ","kana_address":"ｸﾗｶﾞｻｸ","pref":"福島県","city":"伊達郡川俣町","address":"倉ケ作"},
{"zip_code":"9601442","kana_pref":"ﾌｸｼﾏｹﾝ","kana_city":"ﾀﾞﾃｸﾞﾝｶﾜﾏﾀﾏﾁ","kana_address":"ｺﾞｱﾝ","pref":"福島県","city":"伊達郡川俣町","address":"後庵"},
{"zip_code":"9601407","kana_pref":"ﾌｸｼﾏｹﾝ","kana_city":"ﾀﾞﾃｸﾞﾝｶﾜﾏﾀﾏﾁ","kana_address":"ｺｶﾞﾐ","pref":"福島県","city":"伊達郡川俣町","address":"小神"},
{"zip_code":"9601434","kana_pref":"ﾌｸｼﾏｹﾝ","kana_city":"ﾀﾞﾃｸﾞﾝｶﾜﾏﾀﾏﾁ","kana_address":"ｺｻｸ","pref":"福島県","city":"伊達郡川俣町","address":"小作"},
{"zip_code":"9601402","kana_pref":"ﾌｸｼﾏｹﾝ","kana_city":"ﾀﾞﾃｸﾞﾝｶﾜﾏﾀﾏﾁ","kana_address":"ｺﾂﾅｷﾞ","pref":"福島県","city":"伊達郡川俣町","address":"小綱木"},
{"zip_code":"9601428","kana_pref":"ﾌｸｼﾏｹﾝ","kana_city":"ﾀﾞﾃｸﾞﾝｶﾜﾏﾀﾏﾁ","kana_address":"ｺﾞﾋｬｸﾀﾞ","pref":"福島県","city":"伊達郡川俣町","address":"五百田"},
{"zip_code":"9601473","kana_pref":"ﾌｸｼﾏｹﾝ","kana_city":"ﾀﾞﾃｸﾞﾝｶﾜﾏﾀﾏﾁ","kana_address":"ｻｸﾗｶﾞｻｸ","pref":"福島県","city":"伊達郡川俣町","address":"桜ケ作"},
{"zip_code":"9601487","kana_pref":"ﾌｸｼﾏｹﾝ","kana_city":"ﾀﾞﾃｸﾞﾝｶﾜﾏﾀﾏﾁ","kana_address":"ｻﾝﾋﾞｬｸﾀﾞ","pref":"福島県","city":"伊達郡川俣町","address":"三百田"},
{"zip_code":"9601486","kana_pref":"ﾌｸｼﾏｹﾝ","kana_city":"ﾀﾞﾃｸﾞﾝｶﾜﾏﾀﾏﾁ","kana_address":"ｼﾀﾋﾞｮｳｼ","pref":"福島県","city":"伊達郡川俣町","address":"下拍子"},
{"zip_code":"9601433","kana_pref":"ﾌｸｼﾏｹﾝ","kana_city":"ﾀﾞﾃｸﾞﾝｶﾜﾏﾀﾏﾁ","kana_address":"ｼﾂﾉﾀ","pref":"福島県","city":"伊達郡川俣町","address":"賤ノ田"},
{"zip_code":"9601488","kana_pref":"ﾌｸｼﾏｹﾝ","kana_city":"ﾀﾞﾃｸﾞﾝｶﾜﾏﾀﾏﾁ","kana_address":"ｼﾝﾃﾞﾝ","pref":"福島県","city":"伊達郡川俣町","address":"新田"},
{"zip_code":"9601422","kana_pref":"ﾌｸｼﾏｹﾝ","kana_city":"ﾀﾞﾃｸﾞﾝｶﾜﾏﾀﾏﾁ","kana_address":"ｼﾝﾅｶﾏﾁ","pref":"福島県","city":"伊達郡川俣町","address":"新中町"},
{"zip_code":"9601425","kana_pref":"ﾌｸｼﾏｹﾝ","kana_city":"ﾀﾞﾃｸﾞﾝｶﾜﾏﾀﾏﾁ","kana_address":"ｼﾝﾐﾔ","pref":"福島県","city":"伊達郡川俣町","address":"新宮"},
{"zip_code":"9601455","kana_pref":"ﾌｸｼﾏｹﾝ","kana_city":"ﾀﾞﾃｸﾞﾝｶﾜﾏﾀﾏﾁ","kana_address":"ﾀｹﾉｳﾁ","pref":"福島県","city":"伊達郡川俣町","address":"竹ノ内"},
{"zip_code":"9601446","kana_pref":"ﾌｸｼﾏｹﾝ","kana_city":"ﾀﾞﾃｸﾞﾝｶﾜﾏﾀﾏﾁ","kana_address":"ﾀﾃ","pref":"福島県","city":"伊達郡川俣町","address":"舘"},
{"zip_code":"9601416","kana_pref":"ﾌｸｼﾏｹﾝ","kana_city":"ﾀﾞﾃｸﾞﾝｶﾜﾏﾀﾏﾁ","kana_address":"ﾀﾃﾉｺｼ","pref":"福島県","city":"伊達郡川俣町","address":"舘ノ腰"},
{"zip_code":"9601427","kana_pref":"ﾌｸｼﾏｹﾝ","kana_city":"ﾀﾞﾃｸﾞﾝｶﾜﾏﾀﾏﾁ","kana_address":"ﾀﾞﾝﾉｺｼ","pref":"福島県","city":"伊達郡川俣町","address":"段ノ腰"},
{"zip_code":"9601483","kana_pref":"ﾌｸｼﾏｹﾝ","kana_city":"ﾀﾞﾃｸﾞﾝｶﾜﾏﾀﾏﾁ","kana_address":"ﾂﾎﾞｶﾞｻｸ","pref":"福島県","city":"伊達郡川俣町","address":"壺ケ作"},
{"zip_code":"9601406","kana_pref":"ﾌｸｼﾏｹﾝ","kana_city":"ﾀﾞﾃｸﾞﾝｶﾜﾏﾀﾏﾁ","kana_address":"ﾂﾙｻﾜ","pref":"福島県","city":"伊達郡川俣町","address":"鶴沢"},
{"zip_code":"9601421","kana_pref":"ﾌｸｼﾏｹﾝ","kana_city":"ﾀﾞﾃｸﾞﾝｶﾜﾏﾀﾏﾁ","kana_address":"ﾃｯﾎﾟｳﾏﾁ","pref":"福島県","city":"伊達郡川俣町","address":"鉄炮町"},
{"zip_code":"9601424","kana_pref":"ﾌｸｼﾏｹﾝ","kana_city":"ﾀﾞﾃｸﾞﾝｶﾜﾏﾀﾏﾁ","kana_address":"ﾃﾗｸﾎﾞ","pref":"福島県","city":"伊達郡川俣町","address":"寺久保"},
{"zip_code":"9601462","kana_pref":"ﾌｸｼﾏｹﾝ","kana_city":"ﾀﾞﾃｸﾞﾝｶﾜﾏﾀﾏﾁ","kana_address":"ﾃﾗﾏｴ","pref":"福島県","city":"伊達郡川俣町","address":"寺前"},
{"zip_code":"9601468","kana_pref":"ﾌｸｼﾏｹﾝ","kana_city":"ﾀﾞﾃｸﾞﾝｶﾜﾏﾀﾏﾁ","kana_address":"ﾃﾝｼﾞﾝｲﾘ","pref":"福島県","city":"伊達郡川俣町","address":"天神入"},
{"zip_code":"9601463","kana_pref":"ﾌｸｼﾏｹﾝ","kana_city":"ﾀﾞﾃｸﾞﾝｶﾜﾏﾀﾏﾁ","kana_address":"ﾄｲﾉｸﾁ","pref":"福島県","city":"伊達郡川俣町","address":"樋ノ口"},
{"zip_code":"9601469","kana_pref":"ﾌｸｼﾏｹﾝ","kana_city":"ﾀﾞﾃｸﾞﾝｶﾜﾏﾀﾏﾁ","kana_address":"ﾄﾞｳｼﾞｮｳ","pref":"福島県","city":"伊達郡川俣町","address":"道場"},
{"zip_code":"9601445","kana_pref":"ﾌｸｼﾏｹﾝ","kana_city":"ﾀﾞﾃｸﾞﾝｶﾜﾏﾀﾏﾁ","kana_address":"ﾅｶｼﾞﾏ","pref":"福島県","city":"伊達郡川俣町","address":"中島"},
{"zip_code":"9601456","kana_pref":"ﾌｸｼﾏｹﾝ","kana_city":"ﾀﾞﾃｸﾞﾝｶﾜﾏﾀﾏﾁ","kana_address":"ﾅｶﾁｮｳ","pref":"福島県","city":"伊達郡川俣町","address":"中丁"},
{"zip_code":"9601412","kana_pref":"ﾌｸｼﾏｹﾝ","kana_city":"ﾀﾞﾃｸﾞﾝｶﾜﾏﾀﾏﾁ","kana_address":"ﾅｶﾉｳﾁ","pref":"福島県","city":"伊達郡川俣町","address":"仲ノ内"},
{"zip_code":"9601481","kana_pref":"ﾌｸｼﾏｹﾝ","kana_city":"ﾀﾞﾃｸﾞﾝｶﾜﾏﾀﾏﾁ","kana_address":"ﾅﾅｸﾎﾞ","pref":"福島県","city":"伊達郡川俣町","address":"七窪"},
{"zip_code":"9601474","kana_pref":"ﾌｸｼﾏｹﾝ","kana_city":"ﾀﾞﾃｸﾞﾝｶﾜﾏﾀﾏﾁ","kana_address":"ﾅﾅﾏｶﾞﾘ","pref":"福島県","city":"伊達郡川俣町","address":"七曲"},
{"zip_code":"9601415","kana_pref":"ﾌｸｼﾏｹﾝ","kana_city":"ﾀﾞﾃｸﾞﾝｶﾜﾏﾀﾏﾁ","kana_address":"ﾆｲﾏﾁ","pref":"福島県","city":"伊達郡川俣町","address":"仁井町"},
{"zip_code":"9601471","kana_pref":"ﾌｸｼﾏｹﾝ","kana_city":"ﾀﾞﾃｸﾞﾝｶﾜﾏﾀﾏﾁ","kana_address":"ﾆｼﾄﾉｳﾁ","pref":"福島県","city":"伊達郡川俣町","address":"西戸ノ内"},
{"zip_code":"9601404","kana_pref":"ﾌｸｼﾏｹﾝ","kana_city":"ﾀﾞﾃｸﾞﾝｶﾜﾏﾀﾏﾁ","kana_address":"ﾆｼﾌｸｻﾞﾜ","pref":"福島県","city":"伊達郡川俣町","address":"西福沢"},
{"zip_code":"9601444","kana_pref":"ﾌｸｼﾏｹﾝ","kana_city":"ﾀﾞﾃｸﾞﾝｶﾜﾏﾀﾏﾁ","kana_address":"ﾈﾓﾄ","pref":"福島県","city":"伊達郡川俣町","address":"根本"},
{"zip_code":"9601417","kana_pref":"ﾌｸｼﾏｹﾝ","kana_city":"ﾀﾞﾃｸﾞﾝｶﾜﾏﾀﾏﾁ","kana_address":"ﾊｼﾓﾄ","pref":"福島県","city":"伊達郡川俣町","address":"橋本"},
{"zip_code":"9601454","kana_pref":"ﾌｸｼﾏｹﾝ","kana_city":"ﾀﾞﾃｸﾞﾝｶﾜﾏﾀﾏﾁ","kana_address":"ﾊｯﾀﾝﾀﾞ","pref":"福島県","city":"伊達郡川俣町","address":"八反田"},
{"zip_code":"9601408","kana_pref":"ﾌｸｼﾏｹﾝ","kana_city":"ﾀﾞﾃｸﾞﾝｶﾜﾏﾀﾏﾁ","kana_address":"ﾊﾈﾀﾞ","pref":"福島県","city":"伊達郡川俣町","address":"羽田"},
{"zip_code":"9601475","kana_pref":"ﾌｸｼﾏｹﾝ","kana_city":"ﾀﾞﾃｸﾞﾝｶﾜﾏﾀﾏﾁ","kana_address":"ﾊﾔｻｶ","pref":"福島県","city":"伊達郡川俣町","address":"早坂"},
{"zip_code":"9601432","kana_pref":"ﾌｸｼﾏｹﾝ","kana_city":"ﾀﾞﾃｸﾞﾝｶﾜﾏﾀﾏﾁ","kana_address":"ﾋｶﾞｼｵｵｼﾐｽﾞ","pref":"福島県","city":"伊達郡川俣町","address":"東大清水"},
{"zip_code":"9601405","kana_pref":"ﾌｸｼﾏｹﾝ","kana_city":"ﾀﾞﾃｸﾞﾝｶﾜﾏﾀﾏﾁ","kana_address":"ﾋｶﾞｼﾌｸｻﾞﾜ","pref":"福島県","city":"伊達郡川俣町","address":"東福沢"},
{"zip_code":"9601413","kana_pref":"ﾌｸｼﾏｹﾝ","kana_city":"ﾀﾞﾃｸﾞﾝｶﾜﾏﾀﾏﾁ","kana_address":"ﾋﾛﾊﾀ","pref":"福島県","city":"伊達郡川俣町","address":"広畑"},
{"zip_code":"9601426","kana_pref":"ﾌｸｼﾏｹﾝ","kana_city":"ﾀﾞﾃｸﾞﾝｶﾜﾏﾀﾏﾁ","kana_address":"ﾋﾜﾀﾞ","pref":"福島県","city":"伊達郡川俣町","address":"日和田"},
{"zip_code":"9601411","kana_pref":"ﾌｸｼﾏｹﾝ","kana_city":"ﾀﾞﾃｸﾞﾝｶﾜﾏﾀﾏﾁ","kana_address":"ﾎｿﾀﾞ","pref":"福島県","city":"伊達郡川俣町","address":"細田"},
{"zip_code":"9601441","kana_pref":"ﾌｸｼﾏｹﾝ","kana_city":"ﾀﾞﾃｸﾞﾝｶﾜﾏﾀﾏﾁ","kana_address":"ﾐﾁｳﾁ","pref":"福島県","city":"伊達郡川俣町","address":"道内"},
{"zip_code":"9601467","kana_pref":"ﾌｸｼﾏｹﾝ","kana_city":"ﾀﾞﾃｸﾞﾝｶﾜﾏﾀﾏﾁ","kana_address":"ﾐﾔﾉｲﾘ","pref":"福島県","city":"伊達郡川俣町","address":"宮ノ入"},
{"zip_code":"9601464","kana_pref":"ﾌｸｼﾏｹﾝ","kana_city":"ﾀﾞﾃｸﾞﾝｶﾜﾏﾀﾏﾁ","kana_address":"ﾐﾔﾉﾜｷ","pref":"福島県","city":"伊達郡川俣町","address":"宮ノ脇"},
{"zip_code":"9601466","kana_pref":"ﾌｸｼﾏｹﾝ","kana_city":"ﾀﾞﾃｸﾞﾝｶﾜﾏﾀﾏﾁ","kana_address":"ﾐﾔﾏｴ","pref":"福島県","city":"伊達郡川俣町","address":"宮前"},
{"zip_code":"9601461","kana_pref":"ﾌｸｼﾏｹﾝ","kana_city":"ﾀﾞﾃｸﾞﾝｶﾜﾏﾀﾏﾁ","kana_address":"ﾐﾔﾏﾁ","pref":"福島県","city":"伊達郡川俣町","address":"宮町"},
{"zip_code":"9601451","kana_pref":"ﾌｸｼﾏｹﾝ","kana_city":"ﾀﾞﾃｸﾞﾝｶﾜﾏﾀﾏﾁ","kana_address":"ﾓﾄﾏﾁ","pref":"福島県","city":"伊達郡川俣町","address":"本町"},
{"zip_code":"9601482","kana_pref":"ﾌｸｼﾏｹﾝ","kana_city":"ﾀﾞﾃｸﾞﾝｶﾜﾏﾀﾏﾁ","kana_address":"ﾓﾄﾔｼｷ","pref":"福島県","city":"伊達郡川俣町","address":"元屋敷"},
{"zip_code":"9601501","kana_pref":"ﾌｸｼﾏｹﾝ","kana_city":"ﾀﾞﾃｸﾞﾝｶﾜﾏﾀﾏﾁ","kana_address":"ﾔﾏｷﾔ","pref":"福島県","city":"伊達郡川俣町","address":"山木屋"},
{"zip_code":"9601600","kana_pref":"ﾌｸｼﾏｹﾝ","kana_city":"ｿｳﾏｸﾞﾝｲｲﾀﾃﾑﾗ","kana_address":"","pref":"福島県","city":"相馬郡飯舘村","address":""},
{"zip_code":"9601812","kana_pref":"ﾌｸｼﾏｹﾝ","kana_city":"ｿｳﾏｸﾞﾝｲｲﾀﾃﾑﾗ","kana_address":"ｱｼﾊﾗ","pref":"福島県","city":"相馬郡飯舘村","address":"芦原"},
{"zip_code":"9601721","kana_pref":"ﾌｸｼﾏｹﾝ","kana_city":"ｿｳﾏｸﾞﾝｲｲﾀﾃﾑﾗ","kana_address":"ｲｲﾄｲ","pref":"福島県","city":"相馬郡飯舘村","address":"飯樋"},
{"zip_code":"9601803","kana_pref":"ﾌｸｼﾏｹﾝ","kana_city":"ｿｳﾏｸﾞﾝｲｲﾀﾃﾑﾗ","kana_address":"ｲﾀﾐｻﾞﾜ","pref":"福島県","city":"相馬郡飯舘村","address":"伊丹沢"},
{"zip_code":"9601633","kana_pref":"ﾌｸｼﾏｹﾝ","kana_city":"ｿｳﾏｸﾞﾝｲｲﾀﾃﾑﾗ","kana_address":"ｳｽｲｼ","pref":"福島県","city":"相馬郡飯舘村","address":"臼石"},
{"zip_code":"9601814","kana_pref":"ﾌｸｼﾏｹﾝ","kana_city":"ｿｳﾏｸﾞﾝｲｲﾀﾃﾑﾗ","kana_address":"ｵｵｸﾗ","pref":"福島県","city":"相馬郡飯舘村","address":"大倉"},
{"zip_code":"9601801","kana_pref":"ﾌｸｼﾏｹﾝ","kana_city":"ｿｳﾏｸﾞﾝｲｲﾀﾃﾑﾗ","kana_address":"ｸｻﾉ","pref":"福島県","city":"相馬郡飯舘村","address":"草野"},
{"zip_code":"9601811","kana_pref":"ﾌｸｼﾏｹﾝ","kana_city":"ｿｳﾏｸﾞﾝｲｲﾀﾃﾑﾗ","kana_address":"ｺﾐﾔ","pref":"福島県","city":"相馬郡飯舘村","address":"小宮"},
{"zip_code":"9601815","kana_pref":"ﾌｸｼﾏｹﾝ","kana_city":"ｿｳﾏｸﾞﾝｲｲﾀﾃﾑﾗ","kana_address":"ｻｽ","pref":"福島県","city":"相馬郡飯舘村","address":"佐須"},
{"zip_code":"9601635","kana_pref":"ﾌｸｼﾏｹﾝ","kana_city":"ｿｳﾏｸﾞﾝｲｲﾀﾃﾑﾗ","kana_address":"ｽｶﾞﾔ","pref":"福島県","city":"相馬郡飯舘村","address":"須萱"},
{"zip_code":"9601804","kana_pref":"ﾌｸｼﾏｹﾝ","kana_city":"ｿｳﾏｸﾞﾝｲｲﾀﾃﾑﾗ","kana_address":"ｾｷｻﾜ","pref":"福島県","city":"相馬郡飯舘村","address":"関沢"},
{"zip_code":"9601632","kana_pref":"ﾌｸｼﾏｹﾝ","kana_city":"ｿｳﾏｸﾞﾝｲｲﾀﾃﾑﾗ","kana_address":"ｾｷﾈ","pref":"福島県","city":"相馬郡飯舘村","address":"関根"},
{"zip_code":"9601723","kana_pref":"ﾌｸｼﾏｹﾝ","kana_city":"ｿｳﾏｸﾞﾝｲｲﾀﾃﾑﾗ","kana_address":"ﾅｶﾞﾄﾞﾛ","pref":"福島県","city":"相馬郡飯舘村","address":"長泥"},
{"zip_code":"9601634","kana_pref":"ﾌｸｼﾏｹﾝ","kana_city":"ｿｳﾏｸﾞﾝｲｲﾀﾃﾑﾗ","kana_address":"ﾆﾏｲﾊﾞｼ","pref":"福島県","city":"相馬郡飯舘村","address":"二枚橋"},
{"zip_code":"9601722","kana_pref":"ﾌｸｼﾏｹﾝ","kana_city":"ｿｳﾏｸﾞﾝｲｲﾀﾃﾑﾗ","kana_address":"ﾋｿ","pref":"福島県","city":"相馬郡飯舘村","address":"比曽"},
{"zip_code":"9601802","kana_pref":"ﾌｸｼﾏｹﾝ","kana_city":"ｿｳﾏｸﾞﾝｲｲﾀﾃﾑﾗ","kana_address":"ﾌｶﾔ","pref":"福島県","city":"相馬郡飯舘村","address":"深谷"},
{"zip_code":"9601636","kana_pref":"ﾌｸｼﾏｹﾝ","kana_city":"ｿｳﾏｸﾞﾝｲｲﾀﾃﾑﾗ","kana_address":"ﾏｴﾀ","pref":"福島県","city":"相馬郡飯舘村","address":"前田"},
{"zip_code":"9601631","kana_pref":"ﾌｸｼﾏｹﾝ","kana_city":"ｿｳﾏｸﾞﾝｲｲﾀﾃﾑﾗ","kana_address":"ﾏﾂﾂﾞｶ","pref":"福島県","city":"相馬郡飯舘村","address":"松塚"},
{"zip_code":"9601813","kana_pref":"ﾌｸｼﾏｹﾝ","kana_city":"ｿｳﾏｸﾞﾝｲｲﾀﾃﾑﾗ","kana_address":"ﾔｷﾞｻﾜ","pref":"福島県","city":"相馬郡飯舘村","address":"八木沢"},
{"zip_code":"9601724","kana_pref":"ﾌｸｼﾏｹﾝ","kana_city":"ｿｳﾏｸﾞﾝｲｲﾀﾃﾑﾗ","kana_address":"ﾜﾗﾋﾞﾀﾞｲﾗ","pref":"福島県","city":"相馬郡飯舘村","address":"蕨平"}]}