{"zip_code":[
{"zip_code":"9610000","kana_pref":"ﾌｸｼﾏｹﾝ","kana_city":"ｼﾗｶﾜｼ","kana_address":"","pref":"福島県","city":"白河市","address":""},
{"zip_code":"9610075","kana_pref":"ﾌｸｼﾏｹﾝ","kana_city":"ｼﾗｶﾜｼ","kana_address":"ｱｲﾂﾞﾏﾁ","pref":"福島県","city":"白河市","address":"会津町"},
{"zip_code":"9610901","kana_pref":"ﾌｸｼﾏｹﾝ","kana_city":"ｼﾗｶﾜｼ","kana_address":"ｱｹﾄﾞ","pref":"福島県","city":"白河市","address":"明戸"},
{"zip_code":"9610912","kana_pref":"ﾌｸｼﾏｹﾝ","kana_city":"ｼﾗｶﾜｼ","kana_address":"ｱｻﾋﾁｮｳ","pref":"福島県","city":"白河市","address":"旭町"},
{"zip_code":"9610942","kana_pref":"ﾌｸｼﾏｹﾝ","kana_city":"ｼﾗｶﾜｼ","kana_address":"ｱﾀｺﾞﾏﾁ","pref":"福島県","city":"白河市","address":"愛宕町"},
{"zip_code":"9610082","kana_pref":"ﾌｸｼﾏｹﾝ","kana_city":"ｼﾗｶﾜｼ","kana_address":"ｲｲｻﾞﾜ","pref":"福島県","city":"白河市","address":"飯沢"},
{"zip_code":"9610081","kana_pref":"ﾌｸｼﾏｹﾝ","kana_city":"ｼﾗｶﾜｼ","kana_address":"ｲｲｻﾞﾜﾔﾏ","pref":"福島県","city":"白河市","address":"飯沢山"},
{"zip_code":"9610032","kana_pref":"ﾌｸｼﾏｹﾝ","kana_city":"ｼﾗｶﾜｼ","kana_address":"ｲｴﾉﾏｴ","pref":"福島県","city":"白河市","address":"家ノ前"},
{"zip_code":"9610827","kana_pref":"ﾌｸｼﾏｹﾝ","kana_city":"ｼﾗｶﾜｼ","kana_address":"ｲｹｼﾀ","pref":"福島県","city":"白河市","address":"池下"},
{"zip_code":"9610826","kana_pref":"ﾌｸｼﾏｹﾝ","kana_city":"ｼﾗｶﾜｼ","kana_address":"ｲｹｼﾀｳﾗ","pref":"福島県","city":"白河市","address":"池下裏"},
{"zip_code":"9610825","kana_pref":"ﾌｸｼﾏｹﾝ","kana_city":"ｼﾗｶﾜｼ","kana_address":"ｲｹｼﾀﾑｶｲﾔﾏ","pref":"福島県","city":"白河市","address":"池下向山"},
{"zip_code":"9610867","kana_pref":"ﾌｸｼﾏｹﾝ","kana_city":"ｼﾗｶﾜｼ","kana_address":"ｲｼｷﾘﾊﾞ","pref":"福島県","city":"白河市","address":"石切場"},
{"zip_code":"9610003","kana_pref":"ﾌｸｼﾏｹﾝ","kana_city":"ｼﾗｶﾜｼ","kana_address":"ｲｽﾞﾐﾀﾞ","pref":"福島県","city":"白河市","address":"泉田"},
{"zip_code":"9610016","kana_pref":"ﾌｸｼﾏｹﾝ","kana_city":"ｼﾗｶﾜｼ","kana_address":"ｲﾀﾊﾞｼ","pref":"福島県","city":"白河市","address":"板橋"},
{"zip_code":"9610947","kana_pref":"ﾌｸｼﾏｹﾝ","kana_city":"ｼﾗｶﾜｼ","kana_address":"ｲﾁﾊﾞﾝﾁｮｳ","pref":"福島県","city":"白河市","address":"一番町"},
{"zip_code":"9610937","kana_pref":"ﾌｸｼﾏｹﾝ","kana_city":"ｼﾗｶﾜｼ","kana_address":"ｳｴﾉﾀﾞｲ","pref":"福島県","city":"白河市","address":"上ノ台"},
{"zip_code":"9610026","kana_pref":"ﾌｸｼﾏｹﾝ","kana_city":"ｼﾗｶﾜｼ","kana_address":"ｳｴﾉﾊﾗ","pref":"福島県","city":"白河市","address":"上ノ原"},
{"zip_code":"9610063","kana_pref":"ﾌｸｼﾏｹﾝ","kana_city":"ｼﾗｶﾜｼ","kana_address":"ｳｽﾊﾞ","pref":"福島県","city":"白河市","address":"薄葉"},
{"zip_code":"9610931","kana_pref":"ﾌｸｼﾏｹﾝ","kana_city":"ｼﾗｶﾜｼ","kana_address":"ｳﾏﾏﾁ","pref":"福島県","city":"白河市","address":"馬町"},
{"zip_code":"9610904","kana_pref":"ﾌｸｼﾏｹﾝ","kana_city":"ｼﾗｶﾜｼ","kana_address":"ｳﾏﾏﾁｳﾗ","pref":"福島県","city":"白河市","address":"馬町裏"},
{"zip_code":"9610915","kana_pref":"ﾌｸｼﾏｹﾝ","kana_city":"ｼﾗｶﾜｼ","kana_address":"ｳﾏﾏﾁｼﾀ","pref":"福島県","city":"白河市","address":"馬町下"},
{"zip_code":"9610036","kana_pref":"ﾌｸｼﾏｹﾝ","kana_city":"ｼﾗｶﾜｼ","kana_address":"ｳﾗﾔﾏ","pref":"福島県","city":"白河市","address":"裏山"},
{"zip_code":"9610921","kana_pref":"ﾌｸｼﾏｹﾝ","kana_city":"ｼﾗｶﾜｼ","kana_address":"ｴﾝﾐｮｳｼﾞ","pref":"福島県","city":"白河市","address":"円明寺"},
{"zip_code":"9610831","kana_pref":"ﾌｸｼﾏｹﾝ","kana_city":"ｼﾗｶﾜｼ","kana_address":"ｵｲｸﾎﾞ","pref":"福島県","city":"白河市","address":"老久保"},
{"zip_code":"9610838","kana_pref":"ﾌｸｼﾏｹﾝ","kana_city":"ｼﾗｶﾜｼ","kana_address":"ｵｲｸﾎﾞﾔﾏ","pref":"福島県","city":"白河市","address":"老久保山"},
{"zip_code":"9610094","kana_pref":"ﾌｸｼﾏｹﾝ","kana_city":"ｼﾗｶﾜｼ","kana_address":"ｵｲﾏﾜｼ","pref":"福島県","city":"白河市","address":"追廻"},
{"zip_code":"9610846","kana_pref":"ﾌｸｼﾏｹﾝ","kana_city":"ｼﾗｶﾜｼ","kana_address":"ｵｵｸﾚﾔﾐﾔﾏ","pref":"福島県","city":"白河市","address":"大暮矢見山"},
{"zip_code":"9610845","kana_pref":"ﾌｸｼﾏｹﾝ","kana_city":"ｼﾗｶﾜｼ","kana_address":"ｵｵｻｶﾔﾏ","pref":"福島県","city":"白河市","address":"大坂山"},
{"zip_code":"9610908","kana_pref":"ﾌｸｼﾏｹﾝ","kana_city":"ｼﾗｶﾜｼ","kana_address":"ｵｵﾃﾏﾁ","pref":"福島県","city":"白河市","address":"大手町"},
{"zip_code":"9610002","kana_pref":"ﾌｸｼﾏｹﾝ","kana_city":"ｼﾗｶﾜｼ","kana_address":"ｵｵﾜﾀﾞ","pref":"福島県","city":"白河市","address":"大和田"},
{"zip_code":"9610985","kana_pref":"ﾌｸｼﾏｹﾝ","kana_city":"ｼﾗｶﾜｼ","kana_address":"ｵｼｮｳﾀﾞﾝ","pref":"福島県","city":"白河市","address":"和尚壇"},
{"zip_code":"9610984","kana_pref":"ﾌｸｼﾏｹﾝ","kana_city":"ｼﾗｶﾜｼ","kana_address":"ｵｼｮｳﾀﾞﾝﾔﾏ","pref":"福島県","city":"白河市","address":"和尚壇山"},
{"zip_code":"9610885","kana_pref":"ﾌｸｼﾏｹﾝ","kana_city":"ｼﾗｶﾜｼ","kana_address":"ｵﾆｺﾞｴ","pref":"福島県","city":"白河市","address":"鬼越"},
{"zip_code":"9610884","kana_pref":"ﾌｸｼﾏｹﾝ","kana_city":"ｼﾗｶﾜｼ","kana_address":"ｵﾆｺﾞｴﾐﾁｼﾀ","pref":"福島県","city":"白河市","address":"鬼越道下"},
{"zip_code":"9610887","kana_pref":"ﾌｸｼﾏｹﾝ","kana_city":"ｼﾗｶﾜｼ","kana_address":"ｵﾆｺﾞｴﾔﾏ","pref":"福島県","city":"白河市","address":"鬼越山"},
{"zip_code":"9610409","kana_pref":"ﾌｸｼﾏｹﾝ","kana_city":"ｼﾗｶﾜｼ","kana_address":"ｵﾓﾃｺﾞｳｶﾄｳﾀﾞ","pref":"福島県","city":"白河市","address":"表郷河東田"},
{"zip_code":"9610416","kana_pref":"ﾌｸｼﾏｹﾝ","kana_city":"ｼﾗｶﾜｼ","kana_address":"ｵﾓﾃｺﾞｳｶﾈﾔﾏ","pref":"福島県","city":"白河市","address":"表郷金山"},
{"zip_code":"9610405","kana_pref":"ﾌｸｼﾏｹﾝ","kana_city":"ｼﾗｶﾜｼ","kana_address":"ｵﾓﾃｺﾞｳｺﾏﾂ","pref":"福島県","city":"白河市","address":"表郷小松"},
{"zip_code":"9610412","kana_pref":"ﾌｸｼﾏｹﾝ","kana_city":"ｼﾗｶﾜｼ","kana_address":"ｵﾓﾃｺﾞｳｼﾓﾊﾊﾞﾗ","pref":"福島県","city":"白河市","address":"表郷下羽原"},
{"zip_code":"9610414","kana_pref":"ﾌｸｼﾏｹﾝ","kana_city":"ｼﾗｶﾜｼ","kana_address":"ｵﾓﾃｺﾞｳﾀｶｷﾞ","pref":"福島県","city":"白河市","address":"表郷高木"},
{"zip_code":"9610402","kana_pref":"ﾌｸｼﾏｹﾝ","kana_city":"ｼﾗｶﾜｼ","kana_address":"ｵﾓﾃｺﾞｳﾅｲﾏﾂ","pref":"福島県","city":"白河市","address":"表郷内松"},
{"zip_code":"9610407","kana_pref":"ﾌｸｼﾏｹﾝ","kana_city":"ｼﾗｶﾜｼ","kana_address":"ｵﾓﾃｺﾞｳﾅｶﾃﾞﾗ","pref":"福島県","city":"白河市","address":"表郷中寺"},
{"zip_code":"9610401","kana_pref":"ﾌｸｼﾏｹﾝ","kana_city":"ｼﾗｶﾜｼ","kana_address":"ｵﾓﾃｺﾞｳﾅｶﾉ","pref":"福島県","city":"白河市","address":"表郷中野"},
{"zip_code":"9610403","kana_pref":"ﾌｸｼﾏｹﾝ","kana_city":"ｼﾗｶﾜｼ","kana_address":"ｵﾓﾃｺﾞｳﾊﾞﾝｻﾞﾜ","pref":"福島県","city":"白河市","address":"表郷番沢"},
{"zip_code":"9610411","kana_pref":"ﾌｸｼﾏｹﾝ","kana_city":"ｼﾗｶﾜｼ","kana_address":"ｵﾓﾃｺﾞｳﾌｶｱﾄﾞ","pref":"福島県","city":"白河市","address":"表郷深渡戸"},
{"zip_code":"9610408","kana_pref":"ﾌｸｼﾏｹﾝ","kana_city":"ｼﾗｶﾜｼ","kana_address":"ｵﾓﾃｺﾞｳﾎﾘﾉｳﾁ","pref":"福島県","city":"白河市","address":"表郷堀之内"},
{"zip_code":"9610413","kana_pref":"ﾌｸｼﾏｹﾝ","kana_city":"ｼﾗｶﾜｼ","kana_address":"ｵﾓﾃｺﾞｳﾐﾓﾘ","pref":"福島県","city":"白河市","address":"表郷三森"},
{"zip_code":"9610404","kana_pref":"ﾌｸｼﾏｹﾝ","kana_city":"ｼﾗｶﾜｼ","kana_address":"ｵﾓﾃｺﾞｳﾔｼﾛﾀﾞ","pref":"福島県","city":"白河市","address":"表郷社田"},
{"zip_code":"9610415","kana_pref":"ﾌｸｼﾏｹﾝ","kana_city":"ｼﾗｶﾜｼ","kana_address":"ｵﾓﾃｺﾞｳﾔﾅﾓﾘ","pref":"福島県","city":"白河市","address":"表郷梁森"},
{"zip_code":"9610406","kana_pref":"ﾌｸｼﾏｹﾝ","kana_city":"ｼﾗｶﾜｼ","kana_address":"ｵﾓﾃｺﾞｳﾔﾜﾀ","pref":"福島県","city":"白河市","address":"表郷八幡"},
{"zip_code":"9610064","kana_pref":"ﾌｸｼﾏｹﾝ","kana_city":"ｼﾗｶﾜｼ","kana_address":"ｵﾝﾅｲｼ","pref":"福島県","city":"白河市","address":"女石"},
{"zip_code":"9610074","kana_pref":"ﾌｸｼﾏｹﾝ","kana_city":"ｼﾗｶﾜｼ","kana_address":"ｶｸﾅｲ","pref":"福島県","city":"白河市","address":"郭内"},
{"zip_code":"9610886","kana_pref":"ﾌｸｼﾏｹﾝ","kana_city":"ｼﾗｶﾜｼ","kana_address":"ｶｹﾞｵﾆｺﾞｴ","pref":"福島県","city":"白河市","address":"影鬼越"},
{"zip_code":"9610913","kana_pref":"ﾌｸｼﾏｹﾝ","kana_city":"ｼﾗｶﾜｼ","kana_address":"ｶｼﾞﾏﾁ","pref":"福島県","city":"白河市","address":"鍛冶町"},
{"zip_code":"9610943","kana_pref":"ﾌｸｼﾏｹﾝ","kana_city":"ｼﾗｶﾜｼ","kana_address":"ｶﾅﾔﾏﾁ","pref":"福島県","city":"白河市","address":"金屋町"},
{"zip_code":"9610023","kana_pref":"ﾌｸｼﾏｹﾝ","kana_city":"ｼﾗｶﾜｼ","kana_address":"ｶﾒｲｼ","pref":"福島県","city":"白河市","address":"亀石"},
{"zip_code":"9610004","kana_pref":"ﾌｸｼﾏｹﾝ","kana_city":"ｼﾗｶﾜｼ","kana_address":"ｶﾔﾈ","pref":"福島県","city":"白河市","address":"萱根"},
{"zip_code":"9610014","kana_pref":"ﾌｸｼﾏｹﾝ","kana_city":"ｼﾗｶﾜｼ","kana_address":"ｶﾘﾔﾄﾞ","pref":"福島県","city":"白河市","address":"借宿"},
{"zip_code":"9610956","kana_pref":"ﾌｸｼﾏｹﾝ","kana_city":"ｼﾗｶﾜｼ","kana_address":"ｶﾝｼﾞｮｳﾏﾁ","pref":"福島県","city":"白河市","address":"勘定町"},
{"zip_code":"9610802","kana_pref":"ﾌｸｼﾏｹﾝ","kana_city":"ｼﾗｶﾜｼ","kana_address":"ｶﾝｾﾝｸﾎﾞ","pref":"福島県","city":"白河市","address":"関川窪"},
{"zip_code":"9610821","kana_pref":"ﾌｸｼﾏｹﾝ","kana_city":"ｼﾗｶﾜｼ","kana_address":"ｷﾀｳﾗ","pref":"福島県","city":"白河市","address":"北裏"},
{"zip_code":"9610054","kana_pref":"ﾌｸｼﾏｹﾝ","kana_city":"ｼﾗｶﾜｼ","kana_address":"ｷﾀﾅｶｶﾞﾜﾗ","pref":"福島県","city":"白河市","address":"北中川原"},
{"zip_code":"9610973","kana_pref":"ﾌｸｼﾏｹﾝ","kana_city":"ｼﾗｶﾜｼ","kana_address":"ｷﾀﾉﾎﾞﾘﾏﾁ","pref":"福島県","city":"白河市","address":"北登リ町"},
{"zip_code":"9610996","kana_pref":"ﾌｸｼﾏｹﾝ","kana_city":"ｼﾗｶﾜｼ","kana_address":"ｷﾀﾎﾘｶﾜﾊﾞﾀ","pref":"福島県","city":"白河市","address":"北堀川端"},
{"zip_code":"9610974","kana_pref":"ﾌｸｼﾏｹﾝ","kana_city":"ｼﾗｶﾜｼ","kana_address":"ｷﾀﾎﾘｷﾘ","pref":"福島県","city":"白河市","address":"北堀切"},
{"zip_code":"9610981","kana_pref":"ﾌｸｼﾏｹﾝ","kana_city":"ｼﾗｶﾜｼ","kana_address":"ｷﾀﾏﾌﾞﾈ","pref":"福島県","city":"白河市","address":"北真舟"},
{"zip_code":"9610083","kana_pref":"ﾌｸｼﾏｹﾝ","kana_city":"ｼﾗｶﾜｼ","kana_address":"ｷﾝｼｮｳｼﾞ","pref":"福島県","city":"白河市","address":"金勝寺"},
{"zip_code":"9610084","kana_pref":"ﾌｸｼﾏｹﾝ","kana_city":"ｼﾗｶﾜｼ","kana_address":"ｷﾝｼｮｳｼﾞﾋｶﾞｼ","pref":"福島県","city":"白河市","address":"金勝寺東"},
{"zip_code":"9610042","kana_pref":"ﾌｸｼﾏｹﾝ","kana_city":"ｼﾗｶﾜｼ","kana_address":"ｷﾝﾚｲ","pref":"福島県","city":"白河市","address":"金鈴"},
{"zip_code":"9610011","kana_pref":"ﾌｸｼﾏｹﾝ","kana_city":"ｼﾗｶﾜｼ","kana_address":"ｸﾀﾉ","pref":"福島県","city":"白河市","address":"久田野"},
{"zip_code":"9610875","kana_pref":"ﾌｸｼﾏｹﾝ","kana_city":"ｼﾗｶﾜｼ","kana_address":"ｸﾊﾞﾝﾁｮｳ","pref":"福島県","city":"白河市","address":"九番町"},
{"zip_code":"9610874","kana_pref":"ﾌｸｼﾏｹﾝ","kana_city":"ｼﾗｶﾜｼ","kana_address":"ｸﾊﾞﾝﾁｮｳﾆｼｳﾗ","pref":"福島県","city":"白河市","address":"九番町西裏"},
{"zip_code":"9610017","kana_pref":"ﾌｸｼﾏｹﾝ","kana_city":"ｼﾗｶﾜｼ","kana_address":"ｸﾗﾍﾞｲｼ","pref":"福島県","city":"白河市","address":"双石"},
{"zip_code":"9610045","kana_pref":"ﾌｸｼﾏｹﾝ","kana_city":"ｼﾗｶﾜｼ","kana_address":"ｺｳｾﾝｻﾞｶ","pref":"福島県","city":"白河市","address":"合戦坂"},
{"zip_code":"9610001","kana_pref":"ﾌｸｼﾏｹﾝ","kana_city":"ｼﾗｶﾜｼ","kana_address":"ｺﾀｶﾞﾜ","pref":"福島県","city":"白河市","address":"小田川"},
{"zip_code":"9610852","kana_pref":"ﾌｸｼﾏｹﾝ","kana_city":"ｼﾗｶﾜｼ","kana_address":"ｺﾛﾋﾞｻﾞｶ","pref":"福島県","city":"白河市","address":"転坂"},
{"zip_code":"9610076","kana_pref":"ﾌｸｼﾏｹﾝ","kana_city":"ｼﾗｶﾜｼ","kana_address":"ｺﾞﾊﾞﾝﾁｮｳｶﾞﾜﾗ","pref":"福島県","city":"白河市","address":"五番町川原"},
{"zip_code":"9610815","kana_pref":"ﾌｸｼﾏｹﾝ","kana_city":"ｼﾗｶﾜｼ","kana_address":"ｺﾞﾛｳｸﾎﾞ","pref":"福島県","city":"白河市","address":"五郎窪"},
{"zip_code":"9610965","kana_pref":"ﾌｸｼﾏｹﾝ","kana_city":"ｼﾗｶﾜｼ","kana_address":"ｻｲｸﾏﾁ","pref":"福島県","city":"白河市","address":"細工町"},
{"zip_code":"9610944","kana_pref":"ﾌｸｼﾏｹﾝ","kana_city":"ｼﾗｶﾜｼ","kana_address":"ｻｲﾘｮｳﾏﾁ","pref":"福島県","city":"白河市","address":"宰領町"},
{"zip_code":"9610803","kana_pref":"ﾌｸｼﾏｹﾝ","kana_city":"ｼﾗｶﾜｼ","kana_address":"ｻｶｴﾏﾁ","pref":"福島県","city":"白河市","address":"栄町"},
{"zip_code":"9610911","kana_pref":"ﾌｸｼﾏｹﾝ","kana_city":"ｼﾗｶﾜｼ","kana_address":"ｻｸﾗﾏﾁ","pref":"福島県","city":"白河市","address":"桜町"},
{"zip_code":"9610862","kana_pref":"ﾌｸｼﾏｹﾝ","kana_city":"ｼﾗｶﾜｼ","kana_address":"ｻﾝﾊﾞﾝﾁｮｳ","pref":"福島県","city":"白河市","address":"三番町"},
{"zip_code":"9610872","kana_pref":"ﾌｸｼﾏｹﾝ","kana_city":"ｼﾗｶﾜｼ","kana_address":"ｻﾝﾎﾞﾝﾏﾂ","pref":"福島県","city":"白河市","address":"三本松"},
{"zip_code":"9610814","kana_pref":"ﾌｸｼﾏｹﾝ","kana_city":"ｼﾗｶﾜｼ","kana_address":"ｻﾝﾎﾞﾝﾏﾂﾔﾏ","pref":"福島県","city":"白河市","address":"三本松山"},
{"zip_code":"9610986","kana_pref":"ﾌｸｼﾏｹﾝ","kana_city":"ｼﾗｶﾜｼ","kana_address":"ｼｵｼﾞﾔﾏ","pref":"福島県","city":"白河市","address":"塩路山"},
{"zip_code":"9610072","kana_pref":"ﾌｸｼﾏｹﾝ","kana_city":"ｼﾗｶﾜｼ","kana_address":"ｼﾀﾏﾁ","pref":"福島県","city":"白河市","address":"士多町"},
{"zip_code":"9610071","kana_pref":"ﾌｸｼﾏｹﾝ","kana_city":"ｼﾗｶﾜｼ","kana_address":"ｼﾀﾏﾁﾋｶﾞｼ","pref":"福島県","city":"白河市","address":"士多町東"},
{"zip_code":"9610863","kana_pref":"ﾌｸｼﾏｹﾝ","kana_city":"ｼﾗｶﾜｼ","kana_address":"ｼﾁﾊﾞﾝﾁｮｳ","pref":"福島県","city":"白河市","address":"七番町"},
{"zip_code":"9610888","kana_pref":"ﾌｸｼﾏｹﾝ","kana_city":"ｼﾗｶﾜｼ","kana_address":"ｼﾞｭｳｻﾝﾊﾟﾗ","pref":"福島県","city":"白河市","address":"十三原"},
{"zip_code":"9610027","kana_pref":"ﾌｸｼﾏｹﾝ","kana_city":"ｼﾗｶﾜｼ","kana_address":"ｼﾞｭｳﾓﾝｼﾞ","pref":"福島県","city":"白河市","address":"十文字"},
{"zip_code":"9610922","kana_pref":"ﾌｸｼﾏｹﾝ","kana_city":"ｼﾗｶﾜｼ","kana_address":"ｼｮｳﾌﾞｻﾞﾜ","pref":"福島県","city":"白河市","address":"菖蒲沢"},
{"zip_code":"9610971","kana_pref":"ﾌｸｼﾏｹﾝ","kana_city":"ｼﾗｶﾜｼ","kana_address":"ｼｮｳﾜﾏﾁ","pref":"福島県","city":"白河市","address":"昭和町"},
{"zip_code":"9610924","kana_pref":"ﾌｸｼﾏｹﾝ","kana_city":"ｼﾗｶﾜｼ","kana_address":"ｼﾗｲｶﾞｹ","pref":"福島県","city":"白河市","address":"白井掛"},
{"zip_code":"9610923","kana_pref":"ﾌｸｼﾏｹﾝ","kana_city":"ｼﾗｶﾜｼ","kana_address":"ｼﾗｲｶﾞｹｼﾀ","pref":"福島県","city":"白河市","address":"白井掛下"},
{"zip_code":"9610835","kana_pref":"ﾌｸｼﾏｹﾝ","kana_city":"ｼﾗｶﾜｼ","kana_address":"ｼﾗｻｶ","pref":"福島県","city":"白河市","address":"白坂"},
{"zip_code":"9610842","kana_pref":"ﾌｸｼﾏｹﾝ","kana_city":"ｼﾗｶﾜｼ","kana_address":"ｼﾝｲｹ","pref":"福島県","city":"白河市","address":"新池"},
{"zip_code":"9610933","kana_pref":"ﾌｸｼﾏｹﾝ","kana_city":"ｼﾗｶﾜｼ","kana_address":"ｼﾝｸﾗﾏﾁ","pref":"福島県","city":"白河市","address":"新蔵町"},
{"zip_code":"9610856","kana_pref":"ﾌｸｼﾏｹﾝ","kana_city":"ｼﾗｶﾜｼ","kana_address":"ｼﾝｼﾗｶﾜ","pref":"福島県","city":"白河市","address":"新白河"},
{"zip_code":"9610853","kana_pref":"ﾌｸｼﾏｹﾝ","kana_city":"ｼﾗｶﾜｼ","kana_address":"ｼﾝﾀｶﾔﾏ","pref":"福島県","city":"白河市","address":"新高山"},
{"zip_code":"9610024","kana_pref":"ﾌｸｼﾏｹﾝ","kana_city":"ｼﾗｶﾜｼ","kana_address":"ｼﾝﾅﾂﾅｼ","pref":"福島県","city":"白河市","address":"新夏梨"},
{"zip_code":"9610037","kana_pref":"ﾌｸｼﾏｹﾝ","kana_city":"ｼﾗｶﾜｼ","kana_address":"ｼﾝﾐﾁ","pref":"福島県","city":"白河市","address":"新道"},
{"zip_code":"9610811","kana_pref":"ﾌｸｼﾏｹﾝ","kana_city":"ｼﾗｶﾜｼ","kana_address":"ｽｺﾞｳﾀﾞﾃ","pref":"福島県","city":"白河市","address":"菅生舘"},
{"zip_code":"9610021","kana_pref":"ﾌｸｼﾏｹﾝ","kana_city":"ｼﾗｶﾜｼ","kana_address":"ｾｷﾍﾞ","pref":"福島県","city":"白河市","address":"関辺"},
{"zip_code":"9610822","kana_pref":"ﾌｸｼﾏｹﾝ","kana_city":"ｼﾗｶﾜｼ","kana_address":"ｾﾄﾊﾗ","pref":"福島県","city":"白河市","address":"瀬戸原"},
{"zip_code":"9610916","kana_pref":"ﾌｸｼﾏｹﾝ","kana_city":"ｼﾗｶﾜｼ","kana_address":"ｿｸｾﾞﾝﾏﾁ","pref":"福島県","city":"白河市","address":"束前町"},
{"zip_code":"9610062","kana_pref":"ﾌｸｼﾏｹﾝ","kana_city":"ｼﾗｶﾜｼ","kana_address":"ｿﾄｳｽﾊﾞ","pref":"福島県","city":"白河市","address":"外薄葉"},
{"zip_code":"9610051","kana_pref":"ﾌｸｼﾏｹﾝ","kana_city":"ｼﾗｶﾜｼ","kana_address":"ﾀﾞｲ","pref":"福島県","city":"白河市","address":"大"},
{"zip_code":"9610936","kana_pref":"ﾌｸｼﾏｹﾝ","kana_city":"ｼﾗｶﾜｼ","kana_address":"ﾀﾞｲｸﾏﾁ","pref":"福島県","city":"白河市","address":"大工町"},
{"zip_code":"9618002","kana_pref":"ﾌｸｼﾏｹﾝ","kana_city":"ｼﾗｶﾜｼ","kana_address":"ﾀｲｼﾝｸﾏﾄﾞ","pref":"福島県","city":"白河市","address":"大信隈戸"},
{"zip_code":"9610953","kana_pref":"ﾌｸｼﾏｹﾝ","kana_city":"ｼﾗｶﾜｼ","kana_address":"ﾀｶｼﾞｮｳﾏﾁ","pref":"福島県","city":"白河市","address":"鷹匠町"},
{"zip_code":"9610854","kana_pref":"ﾌｸｼﾏｹﾝ","kana_city":"ｼﾗｶﾜｼ","kana_address":"ﾀｶﾔﾏ","pref":"福島県","city":"白河市","address":"高山"},
{"zip_code":"9610855","kana_pref":"ﾌｸｼﾏｹﾝ","kana_city":"ｼﾗｶﾜｼ","kana_address":"ﾀｶﾔﾏﾆｼ","pref":"福島県","city":"白河市","address":"高山西"},
{"zip_code":"9610015","kana_pref":"ﾌｸｼﾏｹﾝ","kana_city":"ｼﾗｶﾜｼ","kana_address":"ﾀｼﾞﾏ","pref":"福島県","city":"白河市","address":"田島"},
{"zip_code":"9610972","kana_pref":"ﾌｸｼﾏｹﾝ","kana_city":"ｼﾗｶﾜｼ","kana_address":"ﾀﾃｲｼ","pref":"福島県","city":"白河市","address":"立石"},
{"zip_code":"9610975","kana_pref":"ﾌｸｼﾏｹﾝ","kana_city":"ｼﾗｶﾜｼ","kana_address":"ﾀﾃｲｼﾔﾏ","pref":"福島県","city":"白河市","address":"立石山"},
{"zip_code":"9610061","kana_pref":"ﾌｸｼﾏｹﾝ","kana_city":"ｼﾗｶﾜｼ","kana_address":"ﾀﾅｶﾔﾏ","pref":"福島県","city":"白河市","address":"田中山"},
{"zip_code":"9610073","kana_pref":"ﾌｸｼﾏｹﾝ","kana_city":"ｼﾗｶﾜｼ","kana_address":"ﾀﾏﾁ","pref":"福島県","city":"白河市","address":"田町"},
{"zip_code":"9610866","kana_pref":"ﾌｸｼﾏｹﾝ","kana_city":"ｼﾗｶﾜｼ","kana_address":"ﾂﾙｼﾊﾞ","pref":"福島県","city":"白河市","address":"鶴芝"},
{"zip_code":"9610087","kana_pref":"ﾌｸｼﾏｹﾝ","kana_city":"ｼﾗｶﾜｼ","kana_address":"ﾂﾙﾏｷ","pref":"福島県","city":"白河市","address":"鶴巻"},
{"zip_code":"9610086","kana_pref":"ﾌｸｼﾏｹﾝ","kana_city":"ｼﾗｶﾜｼ","kana_address":"ﾂﾙﾏｷﾔﾏ","pref":"福島県","city":"白河市","address":"鶴巻山"},
{"zip_code":"9610935","kana_pref":"ﾌｸｼﾏｹﾝ","kana_city":"ｼﾗｶﾜｼ","kana_address":"ﾃﾀﾞｲﾏﾁ","pref":"福島県","city":"白河市","address":"手代町"},
{"zip_code":"9610914","kana_pref":"ﾌｸｼﾏｹﾝ","kana_city":"ｼﾗｶﾜｼ","kana_address":"ﾃﾗｺｳｼﾞ","pref":"福島県","city":"白河市","address":"寺小路"},
{"zip_code":"9610954","kana_pref":"ﾌｸｼﾏｹﾝ","kana_city":"ｼﾗｶﾜｼ","kana_address":"ﾃﾝｼﾞﾝﾏﾁ","pref":"福島県","city":"白河市","address":"天神町"},
{"zip_code":"9610957","kana_pref":"ﾌｸｼﾏｹﾝ","kana_city":"ｼﾗｶﾜｼ","kana_address":"ﾄﾞｳｼﾞｮｳｺｳｼﾞ","pref":"福島県","city":"白河市","address":"道場小路"},
{"zip_code":"9610955","kana_pref":"ﾌｸｼﾏｹﾝ","kana_city":"ｼﾗｶﾜｼ","kana_address":"ﾄﾞｳｼﾞｮｳﾏﾁ","pref":"福島県","city":"白河市","address":"道場町"},
{"zip_code":"9610046","kana_pref":"ﾌｸｼﾏｹﾝ","kana_city":"ｼﾗｶﾜｼ","kana_address":"ﾄﾞﾌﾞﾂﾞｶ","pref":"福島県","city":"白河市","address":"土武塚"},
{"zip_code":"9610005","kana_pref":"ﾌｸｼﾏｹﾝ","kana_city":"ｼﾗｶﾜｼ","kana_address":"ﾄﾖﾁ","pref":"福島県","city":"白河市","address":"豊地"},
{"zip_code":"9610823","kana_pref":"ﾌｸｼﾏｹﾝ","kana_city":"ｼﾗｶﾜｼ","kana_address":"ﾅｶｼﾞﾏ","pref":"福島県","city":"白河市","address":"中島"},
{"zip_code":"9610053","kana_pref":"ﾌｸｼﾏｹﾝ","kana_city":"ｼﾗｶﾜｼ","kana_address":"ﾅｶﾀﾞ","pref":"福島県","city":"白河市","address":"中田"},
{"zip_code":"9610844","kana_pref":"ﾌｸｼﾏｹﾝ","kana_city":"ｼﾗｶﾜｼ","kana_address":"ﾅｶﾉﾔﾏ","pref":"福島県","city":"白河市","address":"中野山"},
{"zip_code":"9610951","kana_pref":"ﾌｸｼﾏｹﾝ","kana_city":"ｼﾗｶﾜｼ","kana_address":"ﾅｶﾏﾁ","pref":"福島県","city":"白河市","address":"中町"},
{"zip_code":"9610952","kana_pref":"ﾌｸｼﾏｹﾝ","kana_city":"ｼﾗｶﾜｼ","kana_address":"ﾅｶﾏﾁｷﾀｳﾗ","pref":"福島県","city":"白河市","address":"中町北裏"},
{"zip_code":"9610995","kana_pref":"ﾌｸｼﾏｹﾝ","kana_city":"ｼﾗｶﾜｼ","kana_address":"ﾅｶﾔﾏ","pref":"福島県","city":"白河市","address":"中山"},
{"zip_code":"9610994","kana_pref":"ﾌｸｼﾏｹﾝ","kana_city":"ｼﾗｶﾜｼ","kana_address":"ﾅｶﾔﾏｼﾀ","pref":"福島県","city":"白河市","address":"中山下"},
{"zip_code":"9610991","kana_pref":"ﾌｸｼﾏｹﾝ","kana_city":"ｼﾗｶﾜｼ","kana_address":"ﾅｶﾔﾏﾋｶﾞｼ","pref":"福島県","city":"白河市","address":"中山東"},
{"zip_code":"9610993","kana_pref":"ﾌｸｼﾏｹﾝ","kana_city":"ｼﾗｶﾜｼ","kana_address":"ﾅｶﾔﾏﾐﾅﾐ","pref":"福島県","city":"白河市","address":"中山南"},
{"zip_code":"9610025","kana_pref":"ﾌｸｼﾏｹﾝ","kana_city":"ｼﾗｶﾜｼ","kana_address":"ﾅﾂﾅｼ","pref":"福島県","city":"白河市","address":"夏梨"},
{"zip_code":"9610812","kana_pref":"ﾌｸｼﾏｹﾝ","kana_city":"ｼﾗｶﾜｼ","kana_address":"ﾅﾝｺ","pref":"福島県","city":"白河市","address":"南湖"},
{"zip_code":"9610077","kana_pref":"ﾌｸｼﾏｹﾝ","kana_city":"ｼﾗｶﾜｼ","kana_address":"ﾆｲﾏﾁ","pref":"福島県","city":"白河市","address":"仁井町"},
{"zip_code":"9610816","kana_pref":"ﾌｸｼﾏｹﾝ","kana_city":"ｼﾗｶﾜｼ","kana_address":"ﾆｼｵｵﾇﾏ","pref":"福島県","city":"白河市","address":"西大沼"},
{"zip_code":"9610832","kana_pref":"ﾌｸｼﾏｹﾝ","kana_city":"ｼﾗｶﾜｼ","kana_address":"ﾆｼｺﾏﾙﾔﾏ","pref":"福島県","city":"白河市","address":"西小丸山"},
{"zip_code":"9610834","kana_pref":"ﾌｸｼﾏｹﾝ","kana_city":"ｼﾗｶﾜｼ","kana_address":"ﾆｼﾐｻｶ","pref":"福島県","city":"白河市","address":"西三坂"},
{"zip_code":"9610837","kana_pref":"ﾌｸｼﾏｹﾝ","kana_city":"ｼﾗｶﾜｼ","kana_address":"ﾆｼﾐｻｶﾔﾏ","pref":"福島県","city":"白河市","address":"西三坂山"},
{"zip_code":"9610946","kana_pref":"ﾌｸｼﾏｹﾝ","kana_city":"ｼﾗｶﾜｼ","kana_address":"ﾆﾊﾞﾝﾁｮｳ","pref":"福島県","city":"白河市","address":"二番町"},
{"zip_code":"9610903","kana_pref":"ﾌｸｼﾏｹﾝ","kana_city":"ｼﾗｶﾜｼ","kana_address":"ﾈﾝｸﾞﾏﾁ","pref":"福島県","city":"白河市","address":"年貢町"},
{"zip_code":"9610962","kana_pref":"ﾌｸｼﾏｹﾝ","kana_city":"ｼﾗｶﾜｼ","kana_address":"ﾉﾎﾞﾘﾏﾁ","pref":"福島県","city":"白河市","address":"登リ町"},
{"zip_code":"9610038","kana_pref":"ﾌｸｼﾏｹﾝ","kana_city":"ｼﾗｶﾜｼ","kana_address":"ﾊﾀｼﾞｭｸ","pref":"福島県","city":"白河市","address":"旗宿"},
{"zip_code":"9610941","kana_pref":"ﾌｸｼﾏｹﾝ","kana_city":"ｼﾗｶﾜｼ","kana_address":"ﾊﾁﾏﾝｺｳｼﾞ","pref":"福島県","city":"白河市","address":"八幡小路"},
{"zip_code":"9610033","kana_pref":"ﾌｸｼﾏｹﾝ","kana_city":"ｼﾗｶﾜｼ","kana_address":"ﾊﾁﾏﾝﾔﾏ","pref":"福島県","city":"白河市","address":"八幡山"},
{"zip_code":"9610047","kana_pref":"ﾌｸｼﾏｹﾝ","kana_city":"ｼﾗｶﾜｼ","kana_address":"ﾊﾁﾘｭｳｼﾞﾝ","pref":"福島県","city":"白河市","address":"八竜神"},
{"zip_code":"9610865","kana_pref":"ﾌｸｼﾏｹﾝ","kana_city":"ｼﾗｶﾜｼ","kana_address":"ﾊﾅﾐｻﾞｶ","pref":"福島県","city":"白河市","address":"花見坂"},
{"zip_code":"9610093","kana_pref":"ﾌｸｼﾏｹﾝ","kana_city":"ｼﾗｶﾜｼ","kana_address":"ﾊﾉｷﾀﾞｲﾗ","pref":"福島県","city":"白河市","address":"葉ノ木平"},
{"zip_code":"9610902","kana_pref":"ﾌｸｼﾏｹﾝ","kana_city":"ｼﾗｶﾜｼ","kana_address":"ﾊﾞﾝｼｺｳｼﾞ","pref":"福島県","city":"白河市","address":"番士小路"},
{"zip_code":"9610963","kana_pref":"ﾌｸｼﾏｹﾝ","kana_city":"ｼﾗｶﾜｼ","kana_address":"ﾋｶｹﾞ","pref":"福島県","city":"白河市","address":"日影"},
{"zip_code":"9610306","kana_pref":"ﾌｸｼﾏｹﾝ","kana_city":"ｼﾗｶﾜｼ","kana_address":"ﾋｶﾞｼｶﾀﾐ","pref":"福島県","city":"白河市","address":"東形見"},
{"zip_code":"9610308","kana_pref":"ﾌｸｼﾏｹﾝ","kana_city":"ｼﾗｶﾜｼ","kana_address":"ﾋｶﾞｼｶﾌﾞｳﾁ","pref":"福島県","city":"白河市","address":"東蕪内"},
{"zip_code":"9610303","kana_pref":"ﾌｸｼﾏｹﾝ","kana_city":"ｼﾗｶﾜｼ","kana_address":"ﾋｶﾞｼｶﾏｺ","pref":"福島県","city":"白河市","address":"東釜子"},
{"zip_code":"9610302","kana_pref":"ﾌｸｼﾏｹﾝ","kana_city":"ｼﾗｶﾜｼ","kana_address":"ﾋｶﾞｼｶﾐﾉﾃﾞｼﾞﾏ","pref":"福島県","city":"白河市","address":"東上野出島"},
{"zip_code":"9610304","kana_pref":"ﾌｸｼﾏｹﾝ","kana_city":"ｼﾗｶﾜｼ","kana_address":"ﾋｶﾞｼｺｳｷﾞｮｳﾀﾞﾝﾁ","pref":"福島県","city":"白河市","address":"東工業団地"},
{"zip_code":"9610301","kana_pref":"ﾌｸｼﾏｹﾝ","kana_city":"ｼﾗｶﾜｼ","kana_address":"ﾋｶﾞｼｼﾓﾉﾃﾞｼﾞﾏ","pref":"福島県","city":"白河市","address":"東下野出島"},
{"zip_code":"9610305","kana_pref":"ﾌｸｼﾏｹﾝ","kana_city":"ｼﾗｶﾜｼ","kana_address":"ﾋｶﾞｼｾﾝﾀﾞ","pref":"福島県","city":"白河市","address":"東千田"},
{"zip_code":"9610307","kana_pref":"ﾌｸｼﾏｹﾝ","kana_city":"ｼﾗｶﾜｼ","kana_address":"ﾋｶﾞｼﾄﾁﾓﾄ","pref":"福島県","city":"白河市","address":"東栃本"},
{"zip_code":"9610309","kana_pref":"ﾌｸｼﾏｹﾝ","kana_city":"ｼﾗｶﾜｼ","kana_address":"ﾋｶﾞｼﾌｶﾆｲﾀﾞ","pref":"福島県","city":"白河市","address":"東深仁井田"},
{"zip_code":"9610813","kana_pref":"ﾌｸｼﾏｹﾝ","kana_city":"ｼﾗｶﾜｼ","kana_address":"ﾋｶﾞｼｵｵﾇﾏ","pref":"福島県","city":"白河市","address":"東大沼"},
{"zip_code":"9610883","kana_pref":"ﾌｸｼﾏｹﾝ","kana_city":"ｼﾗｶﾜｼ","kana_address":"ﾋｶﾞｼｺﾏﾙﾔﾏ","pref":"福島県","city":"白河市","address":"東小丸山"},
{"zip_code":"9610833","kana_pref":"ﾌｸｼﾏｹﾝ","kana_city":"ｼﾗｶﾜｼ","kana_address":"ﾋｶﾞｼﾐｻｶﾔﾏ","pref":"福島県","city":"白河市","address":"東三坂山"},
{"zip_code":"9610964","kana_pref":"ﾌｸｼﾏｹﾝ","kana_city":"ｼﾗｶﾜｼ","kana_address":"ﾋﾅﾀ","pref":"福島県","city":"白河市","address":"日向"},
{"zip_code":"9610861","kana_pref":"ﾌｸｼﾏｹﾝ","kana_city":"ｼﾗｶﾜｼ","kana_address":"ﾌｳｼﾞﾝｼﾀ","pref":"福島県","city":"白河市","address":"風神下"},
{"zip_code":"9610864","kana_pref":"ﾌｸｼﾏｹﾝ","kana_city":"ｼﾗｶﾜｼ","kana_address":"ﾌｳｼﾞﾝﾔﾏﾋｶﾞｼ","pref":"福島県","city":"白河市","address":"風神山東"},
{"zip_code":"9610934","kana_pref":"ﾌｸｼﾏｹﾝ","kana_city":"ｼﾗｶﾜｼ","kana_address":"ﾌｸﾛﾏﾁ","pref":"福島県","city":"白河市","address":"袋町"},
{"zip_code":"9610043","kana_pref":"ﾌｸｼﾏｹﾝ","kana_city":"ｼﾗｶﾜｼ","kana_address":"ﾌｼﾞｻﾜ","pref":"福島県","city":"白河市","address":"藤沢"},
{"zip_code":"9610044","kana_pref":"ﾌｸｼﾏｹﾝ","kana_city":"ｼﾗｶﾜｼ","kana_address":"ﾌｼﾞｻﾜﾔﾏ","pref":"福島県","city":"白河市","address":"藤沢山"},
{"zip_code":"9610013","kana_pref":"ﾌｸｼﾏｹﾝ","kana_city":"ｼﾗｶﾜｼ","kana_address":"ﾌﾅﾀﾞ","pref":"福島県","city":"白河市","address":"舟田"},
{"zip_code":"9610843","kana_pref":"ﾌｸｼﾏｹﾝ","kana_city":"ｼﾗｶﾜｼ","kana_address":"ﾌﾙｲｹ","pref":"福島県","city":"白河市","address":"古池"},
{"zip_code":"9610841","kana_pref":"ﾌｸｼﾏｹﾝ","kana_city":"ｼﾗｶﾜｼ","kana_address":"ﾌﾙﾀｶﾔﾏ","pref":"福島県","city":"白河市","address":"古高山"},
{"zip_code":"9610804","kana_pref":"ﾌｸｼﾏｹﾝ","kana_city":"ｼﾗｶﾜｼ","kana_address":"ﾍﾋﾞｲｼ","pref":"福島県","city":"白河市","address":"蛇石"},
{"zip_code":"9610801","kana_pref":"ﾌｸｼﾏｹﾝ","kana_city":"ｼﾗｶﾜｼ","kana_address":"ﾎｳﾈﾝ","pref":"福島県","city":"白河市","address":"豊年"},
{"zip_code":"9610085","kana_pref":"ﾌｸｼﾏｹﾝ","kana_city":"ｼﾗｶﾜｼ","kana_address":"ﾏﾁﾀﾞ","pref":"福島県","city":"白河市","address":"町田"},
{"zip_code":"9610873","kana_pref":"ﾌｸｼﾏｹﾝ","kana_city":"ｼﾗｶﾜｼ","kana_address":"ﾏﾂﾅﾐ","pref":"福島県","city":"白河市","address":"松並"},
{"zip_code":"9610983","kana_pref":"ﾌｸｼﾏｹﾝ","kana_city":"ｼﾗｶﾜｼ","kana_address":"ﾏﾌﾞﾈ","pref":"福島県","city":"白河市","address":"真舟"},
{"zip_code":"9610824","kana_pref":"ﾌｸｼﾏｹﾝ","kana_city":"ｼﾗｶﾜｼ","kana_address":"ﾏﾙｺﾔﾏ","pref":"福島県","city":"白河市","address":"丸小山"},
{"zip_code":"9610836","kana_pref":"ﾌｸｼﾏｹﾝ","kana_city":"ｼﾗｶﾜｼ","kana_address":"ﾐｻｶ","pref":"福島県","city":"白河市","address":"みさか"},
{"zip_code":"9610031","kana_pref":"ﾌｸｼﾏｹﾝ","kana_city":"ｼﾗｶﾜｼ","kana_address":"ﾐﾁﾋｶﾞｼ","pref":"福島県","city":"白河市","address":"道東"},
{"zip_code":"9610035","kana_pref":"ﾌｸｼﾏｹﾝ","kana_city":"ｼﾗｶﾜｼ","kana_address":"ﾐﾅﾐｲｴﾉﾏｴ","pref":"福島県","city":"白河市","address":"南家ノ前"},
{"zip_code":"9610022","kana_pref":"ﾌｸｼﾏｹﾝ","kana_city":"ｼﾗｶﾜｼ","kana_address":"ﾐﾅﾐｲｹｼﾀ","pref":"福島県","city":"白河市","address":"南池下"},
{"zip_code":"9610052","kana_pref":"ﾌｸｼﾏｹﾝ","kana_city":"ｼﾗｶﾜｼ","kana_address":"ﾐﾅﾐﾅｶｶﾞﾜﾗ","pref":"福島県","city":"白河市","address":"南中川原"},
{"zip_code":"9610851","kana_pref":"ﾌｸｼﾏｹﾝ","kana_city":"ｼﾗｶﾜｼ","kana_address":"ﾐﾅﾐﾉﾎﾞﾘﾏﾁ","pref":"福島県","city":"白河市","address":"南登リ町"},
{"zip_code":"9610992","kana_pref":"ﾌｸｼﾏｹﾝ","kana_city":"ｼﾗｶﾜｼ","kana_address":"ﾐﾅﾐﾎﾘｶﾜﾊﾞﾀ","pref":"福島県","city":"白河市","address":"南堀川端"},
{"zip_code":"9610857","kana_pref":"ﾌｸｼﾏｹﾝ","kana_city":"ｼﾗｶﾜｼ","kana_address":"ﾐﾅﾐﾎﾘｷﾘ","pref":"福島県","city":"白河市","address":"南堀切"},
{"zip_code":"9610932","kana_pref":"ﾌｸｼﾏｹﾝ","kana_city":"ｼﾗｶﾜｼ","kana_address":"ﾐﾅﾐﾏﾁ","pref":"福島県","city":"白河市","address":"南町"},
{"zip_code":"9610982","kana_pref":"ﾌｸｼﾏｹﾝ","kana_city":"ｼﾗｶﾜｼ","kana_address":"ﾐﾅﾐﾏﾌﾞﾈ","pref":"福島県","city":"白河市","address":"南真舟"},
{"zip_code":"9610925","kana_pref":"ﾌｸｼﾏｹﾝ","kana_city":"ｼﾗｶﾜｼ","kana_address":"ﾑｶｲｼﾝｸﾗ","pref":"福島県","city":"白河市","address":"向新蔵"},
{"zip_code":"9610065","kana_pref":"ﾌｸｼﾏｹﾝ","kana_city":"ｼﾗｶﾜｼ","kana_address":"ﾑｶｲﾃﾞﾗ","pref":"福島県","city":"白河市","address":"向寺"},
{"zip_code":"9610945","kana_pref":"ﾌｸｼﾏｹﾝ","kana_city":"ｼﾗｶﾜｼ","kana_address":"ﾒｸﾞﾘﾔ","pref":"福島県","city":"白河市","address":"巡り矢"},
{"zip_code":"9610012","kana_pref":"ﾌｸｼﾏｹﾝ","kana_city":"ｼﾗｶﾜｼ","kana_address":"ﾓﾄﾇﾏ","pref":"福島県","city":"白河市","address":"本沼"},
{"zip_code":"9610905","kana_pref":"ﾌｸｼﾏｹﾝ","kana_city":"ｼﾗｶﾜｼ","kana_address":"ﾓﾄﾏﾁ","pref":"福島県","city":"白河市","address":"本町"},
{"zip_code":"9610906","kana_pref":"ﾌｸｼﾏｹﾝ","kana_city":"ｼﾗｶﾜｼ","kana_address":"ﾓﾄﾏﾁｷﾀｳﾗ","pref":"福島県","city":"白河市","address":"本町北裏"},
{"zip_code":"9610805","kana_pref":"ﾌｸｼﾏｹﾝ","kana_city":"ｼﾗｶﾜｼ","kana_address":"ﾓﾝｼﾞｭﾔﾏ","pref":"福島県","city":"白河市","address":"文珠山"},
{"zip_code":"9610917","kana_pref":"ﾌｸｼﾏｹﾝ","kana_city":"ｼﾗｶﾜｼ","kana_address":"ﾔｵﾔﾁｮｳ","pref":"福島県","city":"白河市","address":"八百屋町"},
{"zip_code":"9610034","kana_pref":"ﾌｸｼﾏｹﾝ","kana_city":"ｼﾗｶﾜｼ","kana_address":"ﾔｼｷｿﾞｴ","pref":"福島県","city":"白河市","address":"屋敷添"},
{"zip_code":"9610091","kana_pref":"ﾌｸｼﾏｹﾝ","kana_city":"ｼﾗｶﾜｼ","kana_address":"ﾔｼﾞﾛｳｸﾎﾞ","pref":"福島県","city":"白河市","address":"弥次郎窪"},
{"zip_code":"9610041","kana_pref":"ﾌｸｼﾏｹﾝ","kana_city":"ｼﾗｶﾜｼ","kana_address":"ﾕｳｷ","pref":"福島県","city":"白河市","address":"結城"},
{"zip_code":"9610926","kana_pref":"ﾌｸｼﾏｹﾝ","kana_city":"ｼﾗｶﾜｼ","kana_address":"ﾕｳｹﾞﾂｻﾞﾝ","pref":"福島県","city":"白河市","address":"友月山"},
{"zip_code":"9610907","kana_pref":"ﾌｸｼﾏｹﾝ","kana_city":"ｼﾗｶﾜｼ","kana_address":"ﾖｺﾏﾁ","pref":"福島県","city":"白河市","address":"横町"},
{"zip_code":"9610881","kana_pref":"ﾌｸｼﾏｹﾝ","kana_city":"ｼﾗｶﾜｼ","kana_address":"ﾖｿｳｺﾞﾔ","pref":"福島県","city":"白河市","address":"与惣小屋"},
{"zip_code":"9610882","kana_pref":"ﾌｸｼﾏｹﾝ","kana_city":"ｼﾗｶﾜｼ","kana_address":"ﾖｿｳｺﾞﾔﾔﾏ","pref":"福島県","city":"白河市","address":"与惣小屋山"},
{"zip_code":"9610961","kana_pref":"ﾌｸｼﾏｹﾝ","kana_city":"ｼﾗｶﾜｼ","kana_address":"ﾖﾂﾔ","pref":"福島県","city":"白河市","address":"四ツ谷"},
{"zip_code":"9610078","kana_pref":"ﾌｸｼﾏｹﾝ","kana_city":"ｼﾗｶﾜｼ","kana_address":"ﾖﾈﾑﾗﾐﾁｷﾀ","pref":"福島県","city":"白河市","address":"米村道北"},
{"zip_code":"9610871","kana_pref":"ﾌｸｼﾏｹﾝ","kana_city":"ｼﾗｶﾜｼ","kana_address":"ﾖﾈﾔﾏｺﾞｴ","pref":"福島県","city":"白河市","address":"米山越"},
{"zip_code":"9610066","kana_pref":"ﾌｸｼﾏｹﾝ","kana_city":"ｼﾗｶﾜｼ","kana_address":"ﾗｶﾝﾏｴ","pref":"福島県","city":"白河市","address":"羅漢前"},
{"zip_code":"9610092","kana_pref":"ﾌｸｼﾏｹﾝ","kana_city":"ｼﾗｶﾜｼ","kana_address":"ﾛｸﾀﾝﾔﾏ","pref":"福島県","city":"白河市","address":"六反山"},
{"zip_code":"9610000","kana_pref":"ﾌｸｼﾏｹﾝ","kana_city":"ﾆｼｼﾗｶﾜｸﾞﾝﾆｼｺﾞｳﾑﾗ","kana_address":"","pref":"福島県","city":"西白河郡西郷村","address":""},
{"zip_code":"9618043","kana_pref":"ﾌｸｼﾏｹﾝ","kana_city":"ﾆｼｼﾗｶﾜｸﾞﾝﾆｼｺﾞｳﾑﾗ","kana_address":"ｲｼﾂﾞｶﾐﾅﾐ","pref":"福島県","city":"西白河郡西郷村","address":"石塚南"},
{"zip_code":"9618044","kana_pref":"ﾌｸｼﾏｹﾝ","kana_city":"ﾆｼｼﾗｶﾜｸﾞﾝﾆｼｺﾞｳﾑﾗ","kana_address":"ｲｼﾂﾞｶｷﾀ","pref":"福島県","city":"西白河郡西郷村","address":"石塚北"},
{"zip_code":"9618047","kana_pref":"ﾌｸｼﾏｹﾝ","kana_city":"ﾆｼｼﾗｶﾜｸﾞﾝﾆｼｺﾞｳﾑﾗ","kana_address":"ｳﾗﾔﾏﾐﾅﾐ","pref":"福島県","city":"西白河郡西郷村","address":"裏山南"},
{"zip_code":"9618061","kana_pref":"ﾌｸｼﾏｹﾝ","kana_city":"ﾆｼｼﾗｶﾜｸﾞﾝﾆｼｺﾞｳﾑﾗ","kana_address":"ｵﾀﾞｸﾗ","pref":"福島県","city":"西白河郡西郷村","address":"小田倉"},
{"zip_code":"9618011","kana_pref":"ﾌｸｼﾏｹﾝ","kana_city":"ﾆｼｼﾗｶﾜｸﾞﾝﾆｼｺﾞｳﾑﾗ","kana_address":"ｶｼﾜﾉ","pref":"福島県","city":"西白河郡西郷村","address":"柏野"},
{"zip_code":"9618091","kana_pref":"ﾌｸｼﾏｹﾝ","kana_city":"ﾆｼｼﾗｶﾜｸﾞﾝﾆｼｺﾞｳﾑﾗ","kana_address":"ｸﾏｸﾞﾗ","pref":"福島県","city":"西白河郡西郷村","address":"熊倉"},
{"zip_code":"9618051","kana_pref":"ﾌｸｼﾏｹﾝ","kana_city":"ﾆｼｼﾗｶﾜｸﾞﾝﾆｼｺﾞｳﾑﾗ","kana_address":"ｼﾓﾏｴﾀﾞﾋｶﾞｼ","pref":"福島県","city":"西白河郡西郷村","address":"下前田東"},
{"zip_code":"9618056","kana_pref":"ﾌｸｼﾏｹﾝ","kana_city":"ﾆｼｼﾗｶﾜｸﾞﾝﾆｼｺﾞｳﾑﾗ","kana_address":"ｼﾓﾏｴﾀﾞﾆｼ","pref":"福島県","city":"西白河郡西郷村","address":"下前田西"},
{"zip_code":"9618081","kana_pref":"ﾌｸｼﾏｹﾝ","kana_city":"ﾆｼｼﾗｶﾜｸﾞﾝﾆｼｺﾞｳﾑﾗ","kana_address":"ﾂﾘｭｳ","pref":"福島県","city":"西白河郡西郷村","address":"鶴生"},
{"zip_code":"9618052","kana_pref":"ﾌｸｼﾏｹﾝ","kana_city":"ﾆｼｼﾗｶﾜｸﾞﾝﾆｼｺﾞｳﾑﾗ","kana_address":"ﾄﾞｳﾅﾝﾋｶﾞｼ","pref":"福島県","city":"西白河郡西郷村","address":"道南東"},
{"zip_code":"9618055","kana_pref":"ﾌｸｼﾏｹﾝ","kana_city":"ﾆｼｼﾗｶﾜｸﾞﾝﾆｼｺﾞｳﾑﾗ","kana_address":"ﾄﾞｳﾅﾝﾆｼ","pref":"福島県","city":"西白河郡西郷村","address":"道南西"},
{"zip_code":"9618041","kana_pref":"ﾌｸｼﾏｹﾝ","kana_city":"ﾆｼｼﾗｶﾜｸﾞﾝﾆｼｺﾞｳﾑﾗ","kana_address":"ﾄﾖｻｸﾋｶﾞｼ","pref":"福島県","city":"西白河郡西郷村","address":"豊作東"},
{"zip_code":"9618042","kana_pref":"ﾌｸｼﾏｹﾝ","kana_city":"ﾆｼｼﾗｶﾜｸﾞﾝﾆｼｺﾞｳﾑﾗ","kana_address":"ﾄﾖｻｸﾆｼ","pref":"福島県","city":"西白河郡西郷村","address":"豊作西"},
{"zip_code":"9618021","kana_pref":"ﾌｸｼﾏｹﾝ","kana_city":"ﾆｼｼﾗｶﾜｸﾞﾝﾆｼｺﾞｳﾑﾗ","kana_address":"ﾅｶﾞｻｶ","pref":"福島県","city":"西白河郡西郷村","address":"長坂"},
{"zip_code":"9618001","kana_pref":"ﾌｸｼﾏｹﾝ","kana_city":"ﾆｼｼﾗｶﾜｸﾞﾝﾆｼｺﾞｳﾑﾗ","kana_address":"ﾊﾌﾞﾄ","pref":"福島県","city":"西白河郡西郷村","address":"羽太"},
{"zip_code":"9618053","kana_pref":"ﾌｸｼﾏｹﾝ","kana_city":"ﾆｼｼﾗｶﾜｸﾞﾝﾆｼｺﾞｳﾑﾗ","kana_address":"ﾏｴﾔﾏﾋｶﾞｼ","pref":"福島県","city":"西白河郡西郷村","address":"前山東"},
{"zip_code":"9618054","kana_pref":"ﾌｸｼﾏｹﾝ","kana_city":"ﾆｼｼﾗｶﾜｸﾞﾝﾆｼｺﾞｳﾑﾗ","kana_address":"ﾏｴﾔﾏﾆｼ","pref":"福島県","city":"西白河郡西郷村","address":"前山西"},
{"zip_code":"9618071","kana_pref":"ﾌｸｼﾏｹﾝ","kana_city":"ﾆｼｼﾗｶﾜｸﾞﾝﾆｼｺﾞｳﾑﾗ","kana_address":"ﾏﾌﾞﾈ","pref":"福島県","city":"西白河郡西郷村","address":"真船"},
{"zip_code":"9618046","kana_pref":"ﾌｸｼﾏｹﾝ","kana_city":"ﾆｼｼﾗｶﾜｸﾞﾝﾆｼｺﾞｳﾑﾗ","kana_address":"ﾔｼｷｳﾗﾋｶﾞｼ","pref":"福島県","city":"西白河郡西郷村","address":"屋敷裏東"},
{"zip_code":"9618045","kana_pref":"ﾌｸｼﾏｹﾝ","kana_city":"ﾆｼｼﾗｶﾜｸﾞﾝﾆｼｺﾞｳﾑﾗ","kana_address":"ﾔｼｷｳﾗﾆｼ","pref":"福島県","city":"西白河郡西郷村","address":"屋敷裏西"},
{"zip_code":"9618031","kana_pref":"ﾌｸｼﾏｹﾝ","kana_city":"ﾆｼｼﾗｶﾜｸﾞﾝﾆｼｺﾞｳﾑﾗ","kana_address":"ﾖﾈ","pref":"福島県","city":"西白河郡西郷村","address":"米"},
{"zip_code":"9610100","kana_pref":"ﾌｸｼﾏｹﾝ","kana_city":"ﾆｼｼﾗｶﾜｸﾞﾝﾅｶｼﾞﾏﾑﾗ","kana_address":"","pref":"福島県","city":"西白河郡中島村","address":""},
{"zip_code":"9610105","kana_pref":"ﾌｸｼﾏｹﾝ","kana_city":"ﾆｼｼﾗｶﾜｸﾞﾝﾅｶｼﾞﾏﾑﾗ","kana_address":"ｶﾜﾊﾗﾀﾞ","pref":"福島県","city":"西白河郡中島村","address":"川原田"},
{"zip_code":"9610103","kana_pref":"ﾌｸｼﾏｹﾝ","kana_city":"ﾆｼｼﾗｶﾜｸﾞﾝﾅｶｼﾞﾏﾑﾗ","kana_address":"ﾅｶｼﾞﾏ","pref":"福島県","city":"西白河郡中島村","address":"中島"},
{"zip_code":"9610102","kana_pref":"ﾌｸｼﾏｹﾝ","kana_city":"ﾆｼｼﾗｶﾜｸﾞﾝﾅｶｼﾞﾏﾑﾗ","kana_address":"ﾅﾒﾂ","pref":"福島県","city":"西白河郡中島村","address":"滑津"},
{"zip_code":"9610106","kana_pref":"ﾌｸｼﾏｹﾝ","kana_city":"ﾆｼｼﾗｶﾜｸﾞﾝﾅｶｼﾞﾏﾑﾗ","kana_address":"ﾌﾀｺﾞﾂｶ","pref":"福島県","city":"西白河郡中島村","address":"二子塚"},
{"zip_code":"9610101","kana_pref":"ﾌｸｼﾏｹﾝ","kana_city":"ﾆｼｼﾗｶﾜｸﾞﾝﾅｶｼﾞﾏﾑﾗ","kana_address":"ﾏﾂｻﾞｷ","pref":"福島県","city":"西白河郡中島村","address":"松崎"},
{"zip_code":"9610104","kana_pref":"ﾌｸｼﾏｹﾝ","kana_city":"ﾆｼｼﾗｶﾜｸﾞﾝﾅｶｼﾞﾏﾑﾗ","kana_address":"ﾖｼｵｶ","pref":"福島県","city":"西白河郡中島村","address":"吉岡"}]}