{"zip_code":[
{"zip_code":"9620000","kana_pref":"ﾌｸｼﾏｹﾝ","kana_city":"ｽｶｶﾞﾜｼ","kana_address":"","pref":"福島県","city":"須賀川市","address":""},
{"zip_code":"9620811","kana_pref":"ﾌｸｼﾏｹﾝ","kana_city":"ｽｶｶﾞﾜｼ","kana_address":"ｱｵﾊﾞﾁｮｳ","pref":"福島県","city":"須賀川市","address":"あおば町"},
{"zip_code":"9620816","kana_pref":"ﾌｸｼﾏｹﾝ","kana_city":"ｽｶｶﾞﾜｼ","kana_address":"ｱｻﾋﾀﾞ","pref":"福島県","city":"須賀川市","address":"朝日田"},
{"zip_code":"9620834","kana_pref":"ﾌｸｼﾏｹﾝ","kana_city":"ｽｶｶﾞﾜｼ","kana_address":"ｱｻﾋﾏﾁ","pref":"福島県","city":"須賀川市","address":"旭町"},
{"zip_code":"9620868","kana_pref":"ﾌｸｼﾏｹﾝ","kana_city":"ｽｶｶﾞﾜｼ","kana_address":"ｱｼﾀﾞﾂｶ","pref":"福島県","city":"須賀川市","address":"芦田塚"},
{"zip_code":"9620867","kana_pref":"ﾌｸｼﾏｹﾝ","kana_city":"ｽｶｶﾞﾜｼ","kana_address":"ｱﾀｺﾞﾔﾏ","pref":"福島県","city":"須賀川市","address":"愛宕山"},
{"zip_code":"9620721","kana_pref":"ﾌｸｼﾏｹﾝ","kana_city":"ｽｶｶﾞﾜｼ","kana_address":"ｱﾒﾀﾞ","pref":"福島県","city":"須賀川市","address":"雨田"},
{"zip_code":"9620843","kana_pref":"ﾌｸｼﾏｹﾝ","kana_city":"ｽｶｶﾞﾜｼ","kana_address":"ｲｹｶﾞﾐﾁｮｳ","pref":"福島県","city":"須賀川市","address":"池上町"},
{"zip_code":"9620044","kana_pref":"ﾌｸｼﾏｹﾝ","kana_city":"ｽｶｶﾞﾜｼ","kana_address":"ｲｹｼﾀ","pref":"福島県","city":"須賀川市","address":"池下"},
{"zip_code":"9620058","kana_pref":"ﾌｸｼﾏｹﾝ","kana_city":"ｽｶｶﾞﾜｼ","kana_address":"ｲｹﾉｼﾀﾁｮｳ","pref":"福島県","city":"須賀川市","address":"池ノ下町"},
{"zip_code":"9620046","kana_pref":"ﾌｸｼﾏｹﾝ","kana_city":"ｽｶｶﾞﾜｼ","kana_address":"ｲｽﾞﾐﾀﾞ","pref":"福島県","city":"須賀川市","address":"泉田"},
{"zip_code":"9620726","kana_pref":"ﾌｸｼﾏｹﾝ","kana_city":"ｽｶｶﾞﾜｼ","kana_address":"ｲﾁﾉｾｷ","pref":"福島県","city":"須賀川市","address":"市野関"},
{"zip_code":"9620034","kana_pref":"ﾌｸｼﾏｹﾝ","kana_city":"ｽｶｶﾞﾜｼ","kana_address":"ｲﾁﾘﾀﾞﾝ","pref":"福島県","city":"須賀川市","address":"一里坦"},
{"zip_code":"9620042","kana_pref":"ﾌｸｼﾏｹﾝ","kana_city":"ｽｶｶﾞﾜｼ","kana_address":"ｲﾅ","pref":"福島県","city":"須賀川市","address":"稲"},
{"zip_code":"9620024","kana_pref":"ﾌｸｼﾏｹﾝ","kana_city":"ｽｶｶﾞﾜｼ","kana_address":"ｲﾅﾘﾏﾁ","pref":"福島県","city":"須賀川市","address":"稲荷町"},
{"zip_code":"9620301","kana_pref":"ﾌｸｼﾏｹﾝ","kana_city":"ｽｶｶﾞﾜｼ","kana_address":"ｲﾏｲｽﾞﾐ","pref":"福島県","city":"須賀川市","address":"今泉"},
{"zip_code":"9620026","kana_pref":"ﾌｸｼﾏｹﾝ","kana_city":"ｽｶｶﾞﾜｼ","kana_address":"ｲﾜｻｷ","pref":"福島県","city":"須賀川市","address":"岩崎"},
{"zip_code":"9620033","kana_pref":"ﾌｸｼﾏｹﾝ","kana_city":"ｽｶｶﾞﾜｼ","kana_address":"ｲﾜｻｸ","pref":"福島県","city":"須賀川市","address":"岩作"},
{"zip_code":"9620003","kana_pref":"ﾌｸｼﾏｹﾝ","kana_city":"ｽｶｶﾞﾜｼ","kana_address":"ｲﾜｾﾓﾘ","pref":"福島県","city":"須賀川市","address":"岩瀬森"},
{"zip_code":"9620043","kana_pref":"ﾌｸｼﾏｹﾝ","kana_city":"ｽｶｶﾞﾜｼ","kana_address":"ｲﾜﾌﾞﾁ","pref":"福島県","city":"須賀川市","address":"岩渕"},
{"zip_code":"9620054","kana_pref":"ﾌｸｼﾏｹﾝ","kana_city":"ｽｶｶﾞﾜｼ","kana_address":"ｳｼﾌﾞｸﾛﾏﾁ","pref":"福島県","city":"須賀川市","address":"牛袋町"},
{"zip_code":"9620833","kana_pref":"ﾌｸｼﾏｹﾝ","kana_city":"ｽｶｶﾞﾜｼ","kana_address":"ｳﾏﾏﾁ","pref":"福島県","city":"須賀川市","address":"馬町"},
{"zip_code":"9620303","kana_pref":"ﾌｸｼﾏｹﾝ","kana_city":"ｽｶｶﾞﾜｼ","kana_address":"ｳﾒﾀ","pref":"福島県","city":"須賀川市","address":"梅田"},
{"zip_code":"9620204","kana_pref":"ﾌｸｼﾏｹﾝ","kana_city":"ｽｶｶﾞﾜｼ","kana_address":"ｴﾊﾞﾅ","pref":"福島県","city":"須賀川市","address":"江花"},
{"zip_code":"9620801","kana_pref":"ﾌｸｼﾏｹﾝ","kana_city":"ｽｶｶﾞﾜｼ","kana_address":"ｴﾓﾁ","pref":"福島県","city":"須賀川市","address":"江持"},
{"zip_code":"9620056","kana_pref":"ﾌｸｼﾏｹﾝ","kana_city":"ｽｶｶﾞﾜｼ","kana_address":"ｵｵｶﾝﾊﾞﾗ","pref":"福島県","city":"須賀川市","address":"大桑原"},
{"zip_code":"9620312","kana_pref":"ﾌｸｼﾏｹﾝ","kana_city":"ｽｶｶﾞﾜｼ","kana_address":"ｵｵｸﾎﾞ","pref":"福島県","city":"須賀川市","address":"大久保"},
{"zip_code":"9620722","kana_pref":"ﾌｸｼﾏｹﾝ","kana_city":"ｽｶｶﾞﾜｼ","kana_address":"ｵｵｸﾞﾘ","pref":"福島県","city":"須賀川市","address":"大栗"},
{"zip_code":"9620032","kana_pref":"ﾌｸｼﾏｹﾝ","kana_city":"ｽｶｶﾞﾜｼ","kana_address":"ｵｵﾌﾞｸﾛﾏﾁ","pref":"福島県","city":"須賀川市","address":"大袋町"},
{"zip_code":"9620839","kana_pref":"ﾌｸｼﾏｹﾝ","kana_city":"ｽｶｶﾞﾜｼ","kana_address":"ｵｵﾏﾁ","pref":"福島県","city":"須賀川市","address":"大町"},
{"zip_code":"9620013","kana_pref":"ﾌｸｼﾏｹﾝ","kana_city":"ｽｶｶﾞﾜｼ","kana_address":"ｵｶﾋｶﾞｼﾏﾁ","pref":"福島県","city":"須賀川市","address":"岡東町"},
{"zip_code":"9620712","kana_pref":"ﾌｸｼﾏｹﾝ","kana_city":"ｽｶｶﾞﾜｼ","kana_address":"ｵｸﾞﾗ","pref":"福島県","city":"須賀川市","address":"小倉"},
{"zip_code":"9620051","kana_pref":"ﾌｸｼﾏｹﾝ","kana_city":"ｽｶｶﾞﾜｼ","kana_address":"ｵｯｷｭｳ","pref":"福島県","city":"須賀川市","address":"越久"},
{"zip_code":"9620053","kana_pref":"ﾌｸｼﾏｹﾝ","kana_city":"ｽｶｶﾞﾜｼ","kana_address":"ｵﾛｼﾏﾁ","pref":"福島県","city":"須賀川市","address":"卸町"},
{"zip_code":"9620031","kana_pref":"ﾌｸｼﾏｹﾝ","kana_city":"ｽｶｶﾞﾜｼ","kana_address":"ｶｹﾞﾇﾏﾏﾁ","pref":"福島県","city":"須賀川市","address":"影沼町"},
{"zip_code":"9620846","kana_pref":"ﾌｸｼﾏｹﾝ","kana_city":"ｽｶｶﾞﾜｼ","kana_address":"ｶｼﾞﾏﾁ","pref":"福島県","city":"須賀川市","address":"加治町"},
{"zip_code":"9620713","kana_pref":"ﾌｸｼﾏｹﾝ","kana_city":"ｽｶｶﾞﾜｼ","kana_address":"ｶﾐｵﾔﾏﾀﾞ","pref":"福島県","city":"須賀川市","address":"上小山田"},
{"zip_code":"9620841","kana_pref":"ﾌｸｼﾏｹﾝ","kana_city":"ｽｶｶﾞﾜｼ","kana_address":"ｶﾐｷﾀﾏﾁ","pref":"福島県","city":"須賀川市","address":"上北町"},
{"zip_code":"9620864","kana_pref":"ﾌｸｼﾏｹﾝ","kana_city":"ｽｶｶﾞﾜｼ","kana_address":"ｷﾀｳﾜﾏﾁ","pref":"福島県","city":"須賀川市","address":"北上町"},
{"zip_code":"9620856","kana_pref":"ﾌｸｼﾏｹﾝ","kana_city":"ｽｶｶﾞﾜｼ","kana_address":"ｷﾀﾏﾁ","pref":"福島県","city":"須賀川市","address":"北町"},
{"zip_code":"9620313","kana_pref":"ﾌｸｼﾏｹﾝ","kana_city":"ｽｶｶﾞﾜｼ","kana_address":"ｷﾀﾖｺﾀ","pref":"福島県","city":"須賀川市","address":"北横田"},
{"zip_code":"9620405","kana_pref":"ﾌｸｼﾏｹﾝ","kana_city":"ｽｶｶﾞﾜｼ","kana_address":"ｷﾉｻﾄ","pref":"福島県","city":"須賀川市","address":"季の郷"},
{"zip_code":"9620122","kana_pref":"ﾌｸｼﾏｹﾝ","kana_city":"ｽｶｶﾞﾜｼ","kana_address":"ｷﾉｻｷ","pref":"福島県","city":"須賀川市","address":"木之崎"},
{"zip_code":"9620805","kana_pref":"ﾌｸｼﾏｹﾝ","kana_city":"ｽｶｶﾞﾜｼ","kana_address":"ｸｽﾞﾚﾒﾝ","pref":"福島県","city":"須賀川市","address":"崩免"},
{"zip_code":"9620866","kana_pref":"ﾌｸｼﾏｹﾝ","kana_city":"ｽｶｶﾞﾜｼ","kana_address":"ｸﾘﾔｻﾜ","pref":"福島県","city":"須賀川市","address":"栗谷沢"},
{"zip_code":"9620848","kana_pref":"ﾌｸｼﾏｹﾝ","kana_city":"ｽｶｶﾞﾜｼ","kana_address":"ｺｳﾎﾞｳﾀﾞﾝ","pref":"福島県","city":"須賀川市","address":"弘法坦"},
{"zip_code":"9620401","kana_pref":"ﾌｸｼﾏｹﾝ","kana_city":"ｽｶｶﾞﾜｼ","kana_address":"ｺｳﾖｳﾁｮｳ","pref":"福島県","city":"須賀川市","address":"向陽町"},
{"zip_code":"9620727","kana_pref":"ﾌｸｼﾏｹﾝ","kana_city":"ｽｶｶﾞﾜｼ","kana_address":"ｺｻｸﾀﾞ","pref":"福島県","city":"須賀川市","address":"小作田"},
{"zip_code":"9620202","kana_pref":"ﾌｸｼﾏｹﾝ","kana_city":"ｽｶｶﾞﾜｼ","kana_address":"ｺﾅｶ","pref":"福島県","city":"須賀川市","address":"小中"},
{"zip_code":"9620807","kana_pref":"ﾌｸｼﾏｹﾝ","kana_city":"ｽｶｶﾞﾜｼ","kana_address":"ｻｶｲﾒﾝ","pref":"福島県","city":"須賀川市","address":"境免"},
{"zip_code":"9620858","kana_pref":"ﾌｸｼﾏｹﾝ","kana_city":"ｽｶｶﾞﾜｼ","kana_address":"ｻｶｴﾏﾁ","pref":"福島県","city":"須賀川市","address":"栄町"},
{"zip_code":"9620011","kana_pref":"ﾌｸｼﾏｹﾝ","kana_city":"ｽｶｶﾞﾜｼ","kana_address":"ｻｶﾉｳｴﾏﾁ","pref":"福島県","city":"須賀川市","address":"坂の上町"},
{"zip_code":"9620821","kana_pref":"ﾌｸｼﾏｹﾝ","kana_city":"ｽｶｶﾞﾜｼ","kana_address":"ｻｸﾗｶﾞｵｶ","pref":"福島県","city":"須賀川市","address":"桜岡"},
{"zip_code":"9620035","kana_pref":"ﾌｸｼﾏｹﾝ","kana_city":"ｽｶｶﾞﾜｼ","kana_address":"ｻﾐﾀﾞﾚ","pref":"福島県","city":"須賀川市","address":"五月雨"},
{"zip_code":"9620711","kana_pref":"ﾌｸｼﾏｹﾝ","kana_city":"ｽｶｶﾞﾜｼ","kana_address":"ｼｵﾀﾞ","pref":"福島県","city":"須賀川市","address":"塩田"},
{"zip_code":"9620201","kana_pref":"ﾌｸｼﾏｹﾝ","kana_city":"ｽｶｶﾞﾜｼ","kana_address":"ｼﾓ","pref":"福島県","city":"須賀川市","address":"志茂"},
{"zip_code":"9620714","kana_pref":"ﾌｸｼﾏｹﾝ","kana_city":"ｽｶｶﾞﾜｼ","kana_address":"ｼﾓｵﾔﾏﾀﾞ","pref":"福島県","city":"須賀川市","address":"下小山田"},
{"zip_code":"9620806","kana_pref":"ﾌｸｼﾏｹﾝ","kana_city":"ｽｶｶﾞﾜｼ","kana_address":"ｼﾓｼﾞｭｸﾏｴ","pref":"福島県","city":"須賀川市","address":"下宿前"},
{"zip_code":"9620007","kana_pref":"ﾌｸｼﾏｹﾝ","kana_city":"ｽｶｶﾞﾜｼ","kana_address":"ｼﾓｼﾞｭｸﾏﾁ","pref":"福島県","city":"須賀川市","address":"下宿町"},
{"zip_code":"9620002","kana_pref":"ﾌｸｼﾏｹﾝ","kana_city":"ｽｶｶﾞﾜｼ","kana_address":"ｼｮｳﾆﾝﾀﾞﾝ","pref":"福島県","city":"須賀川市","address":"上人坦"},
{"zip_code":"9620824","kana_pref":"ﾌｸｼﾏｹﾝ","kana_city":"ｽｶｶﾞﾜｼ","kana_address":"ｼﾝﾃﾞﾝ","pref":"福島県","city":"須賀川市","address":"新田"},
{"zip_code":"9620012","kana_pref":"ﾌｸｼﾏｹﾝ","kana_city":"ｽｶｶﾞﾜｼ","kana_address":"ｼﾞﾝﾊﾞﾏﾁ","pref":"福島県","city":"須賀川市","address":"陣場町"},
{"zip_code":"9620055","kana_pref":"ﾌｸｼﾏｹﾝ","kana_city":"ｽｶｶﾞﾜｼ","kana_address":"ｼﾝﾏﾁ","pref":"福島県","city":"須賀川市","address":"新町"},
{"zip_code":"9620847","kana_pref":"ﾌｸｼﾏｹﾝ","kana_city":"ｽｶｶﾞﾜｼ","kana_address":"ｽﾜﾏﾁ","pref":"福島県","city":"須賀川市","address":"諏訪町"},
{"zip_code":"9620205","kana_pref":"ﾌｸｼﾏｹﾝ","kana_city":"ｽｶｶﾞﾜｼ","kana_address":"ｾｲｼﾄﾞｳ","pref":"福島県","city":"須賀川市","address":"勢至堂"},
{"zip_code":"9620036","kana_pref":"ﾌｸｼﾏｹﾝ","kana_city":"ｽｶｶﾞﾜｼ","kana_address":"ｾﾘｻﾞﾜﾏﾁ","pref":"福島県","city":"須賀川市","address":"芹沢町"},
{"zip_code":"9620835","kana_pref":"ﾌｸｼﾏｹﾝ","kana_city":"ｽｶｶﾞﾜｼ","kana_address":"ｾﾝﾆﾁﾄﾞｳ","pref":"福島県","city":"須賀川市","address":"千日堂"},
{"zip_code":"9620005","kana_pref":"ﾌｸｼﾏｹﾝ","kana_city":"ｽｶｶﾞﾜｼ","kana_address":"ﾀﾞｲ","pref":"福島県","city":"須賀川市","address":"台"},
{"zip_code":"9620023","kana_pref":"ﾌｸｼﾏｹﾝ","kana_city":"ｽｶｶﾞﾜｼ","kana_address":"ﾀﾞｲｺｸﾁｮｳ","pref":"福島県","city":"須賀川市","address":"大黒町"},
{"zip_code":"9620837","kana_pref":"ﾌｸｼﾏｹﾝ","kana_city":"ｽｶｶﾞﾜｼ","kana_address":"ﾀｶｸﾀﾞｻｶｲ","pref":"福島県","city":"須賀川市","address":"高久田境"},
{"zip_code":"9620211","kana_pref":"ﾌｸｼﾏｹﾝ","kana_city":"ｽｶｶﾞﾜｼ","kana_address":"ﾀｷ(ｱｶﾂﾁ","pref":"福島県","city":"須賀川市","address":"滝（赤土"},
{"zip_code":"9620211","kana_pref":"ﾌｸｼﾏｹﾝ","kana_city":"ｽｶｶﾞﾜｼ","kana_address":"ｶﾞﾝﾀﾞ","pref":"福島県","city":"須賀川市","address":"雁田"},
{"zip_code":"9620211","kana_pref":"ﾌｸｼﾏｹﾝ","kana_city":"ｽｶｶﾞﾜｼ","kana_address":"ｷﾀｸﾎﾞ","pref":"福島県","city":"須賀川市","address":"北久保"},
{"zip_code":"9620211","kana_pref":"ﾌｸｼﾏｹﾝ","kana_city":"ｽｶｶﾞﾜｼ","kana_address":"ｼﾗｽﾅ","pref":"福島県","city":"須賀川市","address":"白砂"},
{"zip_code":"9620211","kana_pref":"ﾌｸｼﾏｹﾝ","kana_city":"ｽｶｶﾞﾜｼ","kana_address":"ｼﾗｽﾅﾔﾏ","pref":"福島県","city":"須賀川市","address":"白砂山"},
{"zip_code":"9620211","kana_pref":"ﾌｸｼﾏｹﾝ","kana_city":"ｽｶｶﾞﾜｼ","kana_address":"ﾀﾞｲｼﾝﾊﾞﾀ","pref":"福島県","city":"須賀川市","address":"大新畑"},
{"zip_code":"9620211","kana_pref":"ﾌｸｼﾏｹﾝ","kana_city":"ｽｶｶﾞﾜｼ","kana_address":"ﾀﾞｲﾆﾁﾏｴ","pref":"福島県","city":"須賀川市","address":"大日前"},
{"zip_code":"9620211","kana_pref":"ﾌｸｼﾏｹﾝ","kana_city":"ｽｶｶﾞﾜｼ","kana_address":"ﾀｷﾆｼ","pref":"福島県","city":"須賀川市","address":"滝西"},
{"zip_code":"9620211","kana_pref":"ﾌｸｼﾏｹﾝ","kana_city":"ｽｶｶﾞﾜｼ","kana_address":"ﾁｬｸﾉｼﾀ","pref":"福島県","city":"須賀川市","address":"チャクの下"},
{"zip_code":"9620211","kana_pref":"ﾌｸｼﾏｹﾝ","kana_city":"ｽｶｶﾞﾜｼ","kana_address":"","pref":"福島県","city":"須賀川市","address":""},
{"zip_code":"9620211","kana_pref":"ﾌｸｼﾏｹﾝ","kana_city":"ｽｶｶﾞﾜｼ","kana_address":"ﾋﾅﾀﾏｴ","pref":"福島県","city":"須賀川市","address":"日向前"},
{"zip_code":"9620211","kana_pref":"ﾌｸｼﾏｹﾝ","kana_city":"ｽｶｶﾞﾜｼ","kana_address":"ﾎﾝｺﾞｳ","pref":"福島県","city":"須賀川市","address":"本郷"},
{"zip_code":"9620211","kana_pref":"ﾌｸｼﾏｹﾝ","kana_city":"ｽｶｶﾞﾜｼ","kana_address":"ﾏｴﾀ)","pref":"福島県","city":"須賀川市","address":"前田）"},
{"zip_code":"9620304","kana_pref":"ﾌｸｼﾏｹﾝ","kana_city":"ｽｶｶﾞﾜｼ","kana_address":"ﾀｷ","pref":"福島県","city":"須賀川市","address":"滝"},
{"zip_code":"9620404","kana_pref":"ﾌｸｼﾏｹﾝ","kana_city":"ｽｶｶﾞﾜｼ","kana_address":"ﾀﾃｶﾞｵｶ","pref":"福島県","city":"須賀川市","address":"舘ケ岡"},
{"zip_code":"9620021","kana_pref":"ﾌｸｼﾏｹﾝ","kana_city":"ｽｶｶﾞﾜｼ","kana_address":"ﾀﾃﾄﾘﾏﾁ","pref":"福島県","city":"須賀川市","address":"館取町"},
{"zip_code":"9620724","kana_pref":"ﾌｸｼﾏｹﾝ","kana_city":"ｽｶｶﾞﾜｼ","kana_address":"ﾀﾅｶ","pref":"福島県","city":"須賀川市","address":"田中"},
{"zip_code":"9620028","kana_pref":"ﾌｸｼﾏｹﾝ","kana_city":"ｽｶｶﾞﾜｼ","kana_address":"ﾁｬﾊﾞﾀｹﾏﾁ","pref":"福島県","city":"須賀川市","address":"茶畑町"},
{"zip_code":"9620857","kana_pref":"ﾌｸｼﾏｹﾝ","kana_city":"ｽｶｶﾞﾜｼ","kana_address":"ﾁｮｳﾛｸﾁｮｳ","pref":"福島県","city":"須賀川市","address":"長禄町"},
{"zip_code":"9620859","kana_pref":"ﾌｸｼﾏｹﾝ","kana_city":"ｽｶｶﾞﾜｼ","kana_address":"ﾂｶﾀﾞ","pref":"福島県","city":"須賀川市","address":"塚田"},
{"zip_code":"9620802","kana_pref":"ﾌｸｼﾏｹﾝ","kana_city":"ｽｶｶﾞﾜｼ","kana_address":"ﾂﾂﾐ","pref":"福島県","city":"須賀川市","address":"堤"},
{"zip_code":"9620827","kana_pref":"ﾌｸｼﾏｹﾝ","kana_city":"ｽｶｶﾞﾜｼ","kana_address":"ﾃﾗﾀﾞ","pref":"福島県","city":"須賀川市","address":"寺田"},
{"zip_code":"9620851","kana_pref":"ﾌｸｼﾏｹﾝ","kana_city":"ｽｶｶﾞﾜｼ","kana_address":"ﾅｶｼﾞｭｸ","pref":"福島県","city":"須賀川市","address":"中宿"},
{"zip_code":"9620804","kana_pref":"ﾌｸｼﾏｹﾝ","kana_city":"ｽｶｶﾞﾜｼ","kana_address":"ﾅｶｿﾈ","pref":"福島県","city":"須賀川市","address":"中曽根"},
{"zip_code":"9620203","kana_pref":"ﾌｸｼﾏｹﾝ","kana_city":"ｽｶｶﾞﾜｼ","kana_address":"ﾅｶﾞﾇﾏ","pref":"福島県","city":"須賀川市","address":"長沼"},
{"zip_code":"9620852","kana_pref":"ﾌｸｼﾏｹﾝ","kana_city":"ｽｶｶﾞﾜｼ","kana_address":"ﾅｶﾉﾏﾁ","pref":"福島県","city":"須賀川市","address":"仲の町"},
{"zip_code":"9620845","kana_pref":"ﾌｸｼﾏｹﾝ","kana_city":"ｽｶｶﾞﾜｼ","kana_address":"ﾅｶﾏﾁ","pref":"福島県","city":"須賀川市","address":"中町"},
{"zip_code":"9620004","kana_pref":"ﾌｸｼﾏｹﾝ","kana_city":"ｽｶｶﾞﾜｼ","kana_address":"ﾅｶﾔﾏ","pref":"福島県","city":"須賀川市","address":"中山"},
{"zip_code":"9620836","kana_pref":"ﾌｸｼﾏｹﾝ","kana_city":"ｽｶｶﾞﾜｼ","kana_address":"ﾅﾐｷﾁｮｳ","pref":"福島県","city":"須賀川市","address":"並木町"},
{"zip_code":"9620403","kana_pref":"ﾌｸｼﾏｹﾝ","kana_city":"ｽｶｶﾞﾜｼ","kana_address":"ﾅﾒｶﾞﾜ","pref":"福島県","city":"須賀川市","address":"滑川"},
{"zip_code":"9620402","kana_pref":"ﾌｸｼﾏｹﾝ","kana_city":"ｽｶｶﾞﾜｼ","kana_address":"ﾆｲﾀﾞ","pref":"福島県","city":"須賀川市","address":"仁井田"},
{"zip_code":"9620052","kana_pref":"ﾌｸｼﾏｹﾝ","kana_city":"ｽｶｶﾞﾜｼ","kana_address":"ﾆｼｶﾜ","pref":"福島県","city":"須賀川市","address":"西川"},
{"zip_code":"9620014","kana_pref":"ﾌｸｼﾏｹﾝ","kana_city":"ｽｶｶﾞﾜｼ","kana_address":"ﾆｼｶﾜﾏﾁ","pref":"福島県","city":"須賀川市","address":"西川町"},
{"zip_code":"9620016","kana_pref":"ﾌｸｼﾏｹﾝ","kana_city":"ｽｶｶﾞﾜｼ","kana_address":"ﾆｼﾀﾞﾏﾁ","pref":"福島県","city":"須賀川市","address":"西田町"},
{"zip_code":"9620017","kana_pref":"ﾌｸｼﾏｹﾝ","kana_city":"ｽｶｶﾞﾜｼ","kana_address":"ﾆｼﾉｳﾁﾏﾁ","pref":"福島県","city":"須賀川市","address":"西の内町"},
{"zip_code":"9620728","kana_pref":"ﾌｸｼﾏｹﾝ","kana_city":"ｽｶｶﾞﾜｼ","kana_address":"ﾆｼﾞﾉﾀﾞｲ","pref":"福島県","city":"須賀川市","address":"虹の台"},
{"zip_code":"9620302","kana_pref":"ﾌｸｼﾏｹﾝ","kana_city":"ｽｶｶﾞﾜｼ","kana_address":"ﾊｼﾗﾀ","pref":"福島県","city":"須賀川市","address":"柱田"},
{"zip_code":"9620315","kana_pref":"ﾌｸｼﾏｹﾝ","kana_city":"ｽｶｶﾞﾜｼ","kana_address":"ﾊﾀﾀﾞ","pref":"福島県","city":"須賀川市","address":"畑田"},
{"zip_code":"9620831","kana_pref":"ﾌｸｼﾏｹﾝ","kana_city":"ｽｶｶﾞﾜｼ","kana_address":"ﾊﾁﾏﾝﾏﾁ","pref":"福島県","city":"須賀川市","address":"八幡町"},
{"zip_code":"9620025","kana_pref":"ﾌｸｼﾏｹﾝ","kana_city":"ｽｶｶﾞﾜｼ","kana_address":"ﾊﾁﾏﾝﾔﾏ","pref":"福島県","city":"須賀川市","address":"八幡山"},
{"zip_code":"9620823","kana_pref":"ﾌｸｼﾏｹﾝ","kana_city":"ｽｶｶﾞﾜｼ","kana_address":"ﾊﾅｵｶ","pref":"福島県","city":"須賀川市","address":"花岡"},
{"zip_code":"9620126","kana_pref":"ﾌｸｼﾏｹﾝ","kana_city":"ｽｶｶﾞﾜｼ","kana_address":"ﾊﾅﾉｻﾄ","pref":"福島県","city":"須賀川市","address":"花の里"},
{"zip_code":"9620812","kana_pref":"ﾌｸｼﾏｹﾝ","kana_city":"ｽｶｶﾞﾜｼ","kana_address":"ﾊﾏｵ","pref":"福島県","city":"須賀川市","address":"浜尾"},
{"zip_code":"9620822","kana_pref":"ﾌｸｼﾏｹﾝ","kana_city":"ｽｶｶﾞﾜｼ","kana_address":"ﾋｶﾞｼｻｸ","pref":"福島県","city":"須賀川市","address":"東作"},
{"zip_code":"9620844","kana_pref":"ﾌｸｼﾏｹﾝ","kana_city":"ｽｶｶﾞﾜｼ","kana_address":"ﾋｶﾞｼﾏﾁ","pref":"福島県","city":"須賀川市","address":"東町"},
{"zip_code":"9620725","kana_pref":"ﾌｸｼﾏｹﾝ","kana_city":"ｽｶｶﾞﾜｼ","kana_address":"ﾋﾃﾞﾘﾀﾞ","pref":"福島県","city":"須賀川市","address":"日照田"},
{"zip_code":"9620015","kana_pref":"ﾌｸｼﾏｹﾝ","kana_city":"ｽｶｶﾞﾜｼ","kana_address":"ﾋﾅﾀﾏﾁ","pref":"福島県","city":"須賀川市","address":"日向町"},
{"zip_code":"9620826","kana_pref":"ﾌｸｼﾏｹﾝ","kana_city":"ｽｶｶﾞﾜｼ","kana_address":"ﾋﾛｵﾓﾃ","pref":"福島県","city":"須賀川市","address":"広表"},
{"zip_code":"9620314","kana_pref":"ﾌｸｼﾏｹﾝ","kana_city":"ｽｶｶﾞﾜｼ","kana_address":"ﾌｶﾜﾀﾘﾄﾞ","pref":"福島県","city":"須賀川市","address":"深渡戸"},
{"zip_code":"9620057","kana_pref":"ﾌｸｼﾏｹﾝ","kana_city":"ｽｶｶﾞﾜｼ","kana_address":"ﾌｸﾛﾀﾞ","pref":"福島県","city":"須賀川市","address":"袋田"},
{"zip_code":"9620803","kana_pref":"ﾌｸｼﾏｹﾝ","kana_city":"ｽｶｶﾞﾜｼ","kana_address":"ﾌﾙｶﾜ","pref":"福島県","city":"須賀川市","address":"古河"},
{"zip_code":"9620861","kana_pref":"ﾌｸｼﾏｹﾝ","kana_city":"ｽｶｶﾞﾜｼ","kana_address":"ﾌﾙﾀﾞﾃ","pref":"福島県","city":"須賀川市","address":"古舘"},
{"zip_code":"9620854","kana_pref":"ﾌｸｼﾏｹﾝ","kana_city":"ｽｶｶﾞﾜｼ","kana_address":"ﾌﾙﾔｼｷ","pref":"福島県","city":"須賀川市","address":"古屋敷"},
{"zip_code":"9620124","kana_pref":"ﾌｸｼﾏｹﾝ","kana_city":"ｽｶｶﾞﾜｼ","kana_address":"ﾎｺﾂｷ","pref":"福島県","city":"須賀川市","address":"桙衝"},
{"zip_code":"9620045","kana_pref":"ﾌｸｼﾏｹﾝ","kana_city":"ｽｶｶﾞﾜｼ","kana_address":"ﾎﾄﾞﾜﾗ","pref":"福島県","city":"須賀川市","address":"保土原"},
{"zip_code":"9620125","kana_pref":"ﾌｸｼﾏｹﾝ","kana_city":"ｽｶｶﾞﾜｼ","kana_address":"ﾎﾘｺﾞﾒ","pref":"福島県","city":"須賀川市","address":"堀込"},
{"zip_code":"9620027","kana_pref":"ﾌｸｼﾏｹﾝ","kana_city":"ｽｶｶﾞﾜｼ","kana_address":"ﾎﾘｿｺﾏﾁ","pref":"福島県","city":"須賀川市","address":"堀底町"},
{"zip_code":"9620815","kana_pref":"ﾌｸｼﾏｹﾝ","kana_city":"ｽｶｶﾞﾜｼ","kana_address":"ﾎﾞﾀﾝｴﾝ","pref":"福島県","city":"須賀川市","address":"牡丹園"},
{"zip_code":"9620853","kana_pref":"ﾌｸｼﾏｹﾝ","kana_city":"ｽｶｶﾞﾜｼ","kana_address":"ﾏｴｶﾜ","pref":"福島県","city":"須賀川市","address":"前川"},
{"zip_code":"9620814","kana_pref":"ﾌｸｼﾏｹﾝ","kana_city":"ｽｶｶﾞﾜｼ","kana_address":"ﾏｴﾀﾞｶﾞﾜ","pref":"福島県","city":"須賀川市","address":"前田川"},
{"zip_code":"9620047","kana_pref":"ﾌｸｼﾏｹﾝ","kana_city":"ｽｶｶﾞﾜｼ","kana_address":"ﾏﾂﾂﾞｶ","pref":"福島県","city":"須賀川市","address":"松塚"},
{"zip_code":"9620022","kana_pref":"ﾌｸｼﾏｹﾝ","kana_city":"ｽｶｶﾞﾜｼ","kana_address":"ﾏﾙﾀﾏﾁ","pref":"福島県","city":"須賀川市","address":"丸田町"},
{"zip_code":"9620863","kana_pref":"ﾌｸｼﾏｹﾝ","kana_city":"ｽｶｶﾞﾜｼ","kana_address":"ﾐﾄﾞﾘﾁｮｳ","pref":"福島県","city":"須賀川市","address":"緑町"},
{"zip_code":"9620817","kana_pref":"ﾌｸｼﾏｹﾝ","kana_city":"ｽｶｶﾞﾜｼ","kana_address":"ﾐﾅﾐｳﾜﾏﾁ","pref":"福島県","city":"須賀川市","address":"南上町"},
{"zip_code":"9620838","kana_pref":"ﾌｸｼﾏｹﾝ","kana_city":"ｽｶｶﾞﾜｼ","kana_address":"ﾐﾅﾐﾏﾁ","pref":"福島県","city":"須賀川市","address":"南町"},
{"zip_code":"9620842","kana_pref":"ﾌｸｼﾏｹﾝ","kana_city":"ｽｶｶﾞﾜｼ","kana_address":"ﾐﾔｻﾞｷﾁｮｳ","pref":"福島県","city":"須賀川市","address":"宮先町"},
{"zip_code":"9620406","kana_pref":"ﾌｸｼﾏｹﾝ","kana_city":"ｽｶｶﾞﾜｼ","kana_address":"ﾐﾔﾉﾓﾘ","pref":"福島県","city":"須賀川市","address":"宮の杜"},
{"zip_code":"9620865","kana_pref":"ﾌｸｼﾏｹﾝ","kana_city":"ｽｶｶﾞﾜｼ","kana_address":"ﾐｮｳｹﾝ","pref":"福島県","city":"須賀川市","address":"妙見"},
{"zip_code":"9620723","kana_pref":"ﾌｸｼﾏｹﾝ","kana_city":"ｽｶｶﾞﾜｼ","kana_address":"ﾑｼﾞﾅﾓﾘ","pref":"福島県","city":"須賀川市","address":"狸森"},
{"zip_code":"9620832","kana_pref":"ﾌｸｼﾏｹﾝ","kana_city":"ｽｶｶﾞﾜｼ","kana_address":"ﾓﾄﾏﾁ","pref":"福島県","city":"須賀川市","address":"本町"},
{"zip_code":"9620001","kana_pref":"ﾌｸｼﾏｹﾝ","kana_city":"ｽｶｶﾞﾜｼ","kana_address":"ﾓﾘｼﾞｭｸ","pref":"福島県","city":"須賀川市","address":"森宿"},
{"zip_code":"9620305","kana_pref":"ﾌｸｼﾏｹﾝ","kana_city":"ｽｶｶﾞﾜｼ","kana_address":"ﾓﾘﾔ","pref":"福島県","city":"須賀川市","address":"守屋"},
{"zip_code":"9620855","kana_pref":"ﾌｸｼﾏｹﾝ","kana_city":"ｽｶｶﾞﾜｼ","kana_address":"ﾓﾘﾔﾀﾃ","pref":"福島県","city":"須賀川市","address":"守谷舘"},
{"zip_code":"9620311","kana_pref":"ﾌｸｼﾏｹﾝ","kana_city":"ｽｶｶﾞﾜｼ","kana_address":"ﾔｻﾞﾜ","pref":"福島県","city":"須賀川市","address":"矢沢"},
{"zip_code":"9620123","kana_pref":"ﾌｸｼﾏｹﾝ","kana_city":"ｽｶｶﾞﾜｼ","kana_address":"ﾔﾀﾉ","pref":"福島県","city":"須賀川市","address":"矢田野"},
{"zip_code":"9620006","kana_pref":"ﾌｸｼﾏｹﾝ","kana_city":"ｽｶｶﾞﾜｼ","kana_address":"ﾔﾏﾃﾞﾗﾐﾁ","pref":"福島県","city":"須賀川市","address":"山寺道"},
{"zip_code":"9620121","kana_pref":"ﾌｸｼﾏｹﾝ","kana_city":"ｽｶｶﾞﾜｼ","kana_address":"ﾖｺﾀ","pref":"福島県","city":"須賀川市","address":"横田"},
{"zip_code":"9620041","kana_pref":"ﾌｸｼﾏｹﾝ","kana_city":"ｽｶｶﾞﾜｼ","kana_address":"ﾖｺﾔﾏﾁｮｳ","pref":"福島県","city":"須賀川市","address":"横山町"},
{"zip_code":"9620059","kana_pref":"ﾌｸｼﾏｹﾝ","kana_city":"ｽｶｶﾞﾜｼ","kana_address":"ﾖｼﾐﾈ","pref":"福島県","city":"須賀川市","address":"吉美根"},
{"zip_code":"9620862","kana_pref":"ﾌｸｼﾏｹﾝ","kana_city":"ｽｶｶﾞﾜｼ","kana_address":"ﾛｸﾛｳﾍﾞｴ","pref":"福島県","city":"須賀川市","address":"六郎兵衛"},
{"zip_code":"9620825","kana_pref":"ﾌｸｼﾏｹﾝ","kana_city":"ｽｶｶﾞﾜｼ","kana_address":"ﾛｯｹﾝ","pref":"福島県","city":"須賀川市","address":"六軒"},
{"zip_code":"9620813","kana_pref":"ﾌｸｼﾏｹﾝ","kana_city":"ｽｶｶﾞﾜｼ","kana_address":"ﾜﾀﾞ","pref":"福島県","city":"須賀川市","address":"和田"},
{"zip_code":"9620818","kana_pref":"ﾌｸｼﾏｹﾝ","kana_city":"ｽｶｶﾞﾜｼ","kana_address":"ﾜﾀﾞﾐﾁ","pref":"福島県","city":"須賀川市","address":"和田道"},
{"zip_code":"9620500","kana_pref":"ﾌｸｼﾏｹﾝ","kana_city":"ｲﾜｾｸﾞﾝﾃﾝｴｲﾑﾗ","kana_address":"","pref":"福島県","city":"岩瀬郡天栄村","address":""},
{"zip_code":"9620512","kana_pref":"ﾌｸｼﾏｹﾝ","kana_city":"ｲﾜｾｸﾞﾝﾃﾝｴｲﾑﾗ","kana_address":"ｲｲﾄﾖ","pref":"福島県","city":"岩瀬郡天栄村","address":"飯豊"},
{"zip_code":"9620504","kana_pref":"ﾌｸｼﾏｹﾝ","kana_city":"ｲﾜｾｸﾞﾝﾃﾝｴｲﾑﾗ","kana_address":"ｵｵｻﾄ","pref":"福島県","city":"岩瀬郡天栄村","address":"大里"},
{"zip_code":"9620516","kana_pref":"ﾌｸｼﾏｹﾝ","kana_city":"ｲﾜｾｸﾞﾝﾃﾝｴｲﾑﾗ","kana_address":"ｵｶﾞﾜ","pref":"福島県","city":"岩瀬郡天栄村","address":"小川"},
{"zip_code":"9620513","kana_pref":"ﾌｸｼﾏｹﾝ","kana_city":"ｲﾜｾｸﾞﾝﾃﾝｴｲﾑﾗ","kana_address":"ｵｷｳﾁ","pref":"福島県","city":"岩瀬郡天栄村","address":"沖内"},
{"zip_code":"9620514","kana_pref":"ﾌｸｼﾏｹﾝ","kana_city":"ｲﾜｾｸﾞﾝﾃﾝｴｲﾑﾗ","kana_address":"ｶｷﾉｳﾁ","pref":"福島県","city":"岩瀬郡天栄村","address":"柿之内"},
{"zip_code":"9620502","kana_pref":"ﾌｸｼﾏｹﾝ","kana_city":"ｲﾜｾｸﾞﾝﾃﾝｴｲﾑﾗ","kana_address":"ｶﾐﾏﾂﾓﾄ","pref":"福島県","city":"岩瀬郡天栄村","address":"上松本"},
{"zip_code":"9620503","kana_pref":"ﾌｸｼﾏｹﾝ","kana_city":"ｲﾜｾｸﾞﾝﾃﾝｴｲﾑﾗ","kana_address":"ｼﾓﾏﾂﾓﾄ","pref":"福島県","city":"岩瀬郡天栄村","address":"下松本"},
{"zip_code":"9620511","kana_pref":"ﾌｸｼﾏｹﾝ","kana_city":"ｲﾜｾｸﾞﾝﾃﾝｴｲﾑﾗ","kana_address":"ｼﾛｺ","pref":"福島県","city":"岩瀬郡天栄村","address":"白子"},
{"zip_code":"9620515","kana_pref":"ﾌｸｼﾏｹﾝ","kana_city":"ｲﾜｾｸﾞﾝﾃﾝｴｲﾑﾗ","kana_address":"ﾀｶﾊﾔｼ","pref":"福島県","city":"岩瀬郡天栄村","address":"高林"},
{"zip_code":"9620622","kana_pref":"ﾌｸｼﾏｹﾝ","kana_city":"ｲﾜｾｸﾞﾝﾃﾝｴｲﾑﾗ","kana_address":"ﾀﾗｵ","pref":"福島県","city":"岩瀬郡天栄村","address":"田良尾"},
{"zip_code":"9620623","kana_pref":"ﾌｸｼﾏｹﾝ","kana_city":"ｲﾜｾｸﾞﾝﾃﾝｴｲﾑﾗ","kana_address":"ﾊﾄﾘ","pref":"福島県","city":"岩瀬郡天栄村","address":"羽鳥"},
{"zip_code":"9620501","kana_pref":"ﾌｸｼﾏｹﾝ","kana_city":"ｲﾜｾｸﾞﾝﾃﾝｴｲﾑﾗ","kana_address":"ﾏｷﾉｳﾁ","pref":"福島県","city":"岩瀬郡天栄村","address":"牧之内"},
{"zip_code":"9620621","kana_pref":"ﾌｸｼﾏｹﾝ","kana_city":"ｲﾜｾｸﾞﾝﾃﾝｴｲﾑﾗ","kana_address":"ﾕﾓﾄ","pref":"福島県","city":"岩瀬郡天栄村","address":"湯本"}]}