{"zip_code":[
{"zip_code":"9630000","kana_pref":"ﾌｸｼﾏｹﾝ","kana_city":"ｺｵﾘﾔﾏｼ","kana_address":"","pref":"福島県","city":"郡山市","address":""},
{"zip_code":"9638006","kana_pref":"ﾌｸｼﾏｹﾝ","kana_city":"ｺｵﾘﾔﾏｼ","kana_address":"ｱｶｷﾞﾏﾁ","pref":"福島県","city":"郡山市","address":"赤木町"},
{"zip_code":"9630667","kana_pref":"ﾌｸｼﾏｹﾝ","kana_city":"ｺｵﾘﾔﾏｼ","kana_address":"ｱｸﾂﾏﾁ","pref":"福島県","city":"郡山市","address":"阿久津町"},
{"zip_code":"9630107","kana_pref":"ﾌｸｼﾏｹﾝ","kana_city":"ｺｵﾘﾔﾏｼ","kana_address":"ｱｻｶ","pref":"福島県","city":"郡山市","address":"安積"},
{"zip_code":"9630114","kana_pref":"ﾌｸｼﾏｹﾝ","kana_city":"ｺｵﾘﾔﾏｼ","kana_address":"ｱｻｶﾏﾁ","pref":"福島県","city":"郡山市","address":"安積町"},
{"zip_code":"9630111","kana_pref":"ﾌｸｼﾏｹﾝ","kana_city":"ｺｵﾘﾔﾏｼ","kana_address":"ｱｻｶﾏﾁｱﾗｲ","pref":"福島県","city":"郡山市","address":"安積町荒井"},
{"zip_code":"9630113","kana_pref":"ﾌｸｼﾏｹﾝ","kana_city":"ｺｵﾘﾔﾏｼ","kana_address":"ｱｻｶﾏﾁｳｼﾆﾜ","pref":"福島県","city":"郡山市","address":"安積町牛庭"},
{"zip_code":"9630103","kana_pref":"ﾌｸｼﾏｹﾝ","kana_city":"ｺｵﾘﾔﾏｼ","kana_address":"ｱｻｶﾏﾁｵｵﾓﾘﾁｮｳ","pref":"福島県","city":"郡山市","address":"安積町大森町"},
{"zip_code":"9630102","kana_pref":"ﾌｸｼﾏｹﾝ","kana_city":"ｺｵﾘﾔﾏｼ","kana_address":"ｱｻｶﾏﾁｻｻｶﾞﾜ","pref":"福島県","city":"郡山市","address":"安積町笹川"},
{"zip_code":"9630105","kana_pref":"ﾌｸｼﾏｹﾝ","kana_city":"ｺｵﾘﾔﾏｼ","kana_address":"ｱｻｶﾏﾁﾅｶﾞｸﾎﾞ","pref":"福島県","city":"郡山市","address":"安積町長久保"},
{"zip_code":"9630112","kana_pref":"ﾌｸｼﾏｹﾝ","kana_city":"ｺｵﾘﾔﾏｼ","kana_address":"ｱｻｶﾏﾁﾅﾘﾀ","pref":"福島県","city":"郡山市","address":"安積町成田"},
{"zip_code":"9630101","kana_pref":"ﾌｸｼﾏｹﾝ","kana_city":"ｺｵﾘﾔﾏｼ","kana_address":"ｱｻｶﾏﾁﾋﾃﾞﾉﾔﾏ","pref":"福島県","city":"郡山市","address":"安積町日出山"},
{"zip_code":"9630104","kana_pref":"ﾌｸｼﾏｹﾝ","kana_city":"ｺｵﾘﾔﾏｼ","kana_address":"ｱｻｶﾏﾁﾐﾅﾐﾅｶﾞｸﾎﾞ","pref":"福島県","city":"郡山市","address":"安積町南長久保"},
{"zip_code":"9630109","kana_pref":"ﾌｸｼﾏｹﾝ","kana_city":"ｺｵﾘﾔﾏｼ","kana_address":"ｱｻｶﾏﾁﾖｼﾀ","pref":"福島県","city":"郡山市","address":"安積町吉田"},
{"zip_code":"9638024","kana_pref":"ﾌｸｼﾏｹﾝ","kana_city":"ｺｵﾘﾔﾏｼ","kana_address":"ｱｻﾋ","pref":"福島県","city":"郡山市","address":"朝日"},
{"zip_code":"9638873","kana_pref":"ﾌｸｼﾏｹﾝ","kana_city":"ｺｵﾘﾔﾏｼ","kana_address":"ｱﾀｺﾞﾏﾁ","pref":"福島県","city":"郡山市","address":"愛宕町"},
{"zip_code":"9631304","kana_pref":"ﾌｸｼﾏｹﾝ","kana_city":"ｺｵﾘﾔﾏｼ","kana_address":"ｱﾀﾐﾏﾁｱｺｶﾞｼﾏ","pref":"福島県","city":"郡山市","address":"熱海町安子島"},
{"zip_code":"9631309","kana_pref":"ﾌｸｼﾏｹﾝ","kana_city":"ｺｵﾘﾔﾏｼ","kana_address":"ｱﾀﾐﾏﾁｱﾀﾐ","pref":"福島県","city":"郡山市","address":"熱海町熱海"},
{"zip_code":"9631301","kana_pref":"ﾌｸｼﾏｹﾝ","kana_city":"ｺｵﾘﾔﾏｼ","kana_address":"ｱﾀﾐﾏﾁｲｼﾑｼﾛ","pref":"福島県","city":"郡山市","address":"熱海町石筵"},
{"zip_code":"9631306","kana_pref":"ﾌｸｼﾏｹﾝ","kana_city":"ｺｵﾘﾔﾏｼ","kana_address":"ｱﾀﾐﾏﾁｶﾐｲｽﾞｼﾏ","pref":"福島県","city":"郡山市","address":"熱海町上伊豆島"},
{"zip_code":"9631305","kana_pref":"ﾌｸｼﾏｹﾝ","kana_city":"ｺｵﾘﾔﾏｼ","kana_address":"ｱﾀﾐﾏﾁｼﾓｲｽﾞｼﾏ","pref":"福島県","city":"郡山市","address":"熱海町下伊豆島"},
{"zip_code":"9631302","kana_pref":"ﾌｸｼﾏｹﾝ","kana_city":"ｺｵﾘﾔﾏｼ","kana_address":"ｱﾀﾐﾏﾁﾀｶﾀﾏ","pref":"福島県","city":"郡山市","address":"熱海町高玉"},
{"zip_code":"9631303","kana_pref":"ﾌｸｼﾏｹﾝ","kana_city":"ｺｵﾘﾔﾏｼ","kana_address":"ｱﾀﾐﾏﾁﾀﾏｶﾞﾜ","pref":"福島県","city":"郡山市","address":"熱海町玉川"},
{"zip_code":"9631308","kana_pref":"ﾌｸｼﾏｹﾝ","kana_city":"ｺｵﾘﾔﾏｼ","kana_address":"ｱﾀﾐﾏﾁﾅｶﾔﾏ","pref":"福島県","city":"郡山市","address":"熱海町中山"},
{"zip_code":"9631307","kana_pref":"ﾌｸｼﾏｹﾝ","kana_city":"ｺｵﾘﾔﾏｼ","kana_address":"ｱﾀﾐﾏﾁﾅｶﾞﾊｼ","pref":"福島県","city":"郡山市","address":"熱海町長橋"},
{"zip_code":"9630664","kana_pref":"ﾌｸｼﾏｹﾝ","kana_city":"ｺｵﾘﾔﾏｼ","kana_address":"ｱﾌﾞｸﾏﾀﾞｲ","pref":"福島県","city":"郡山市","address":"あぶくま台"},
{"zip_code":"9630704","kana_pref":"ﾌｸｼﾏｹﾝ","kana_city":"ｺｵﾘﾔﾏｼ","kana_address":"ｱﾗｲﾏﾁ","pref":"福島県","city":"郡山市","address":"荒井町"},
{"zip_code":"9638045","kana_pref":"ﾌｸｼﾏｹﾝ","kana_city":"ｺｵﾘﾔﾏｼ","kana_address":"ｱﾗﾔｼｷ","pref":"福島県","city":"郡山市","address":"新屋敷"},
{"zip_code":"9638875","kana_pref":"ﾌｸｼﾏｹﾝ","kana_city":"ｺｵﾘﾔﾏｼ","kana_address":"ｲｹﾉﾀﾞｲ","pref":"福島県","city":"郡山市","address":"池ノ台"},
{"zip_code":"9638825","kana_pref":"ﾌｸｼﾏｹﾝ","kana_city":"ｺｵﾘﾔﾏｼ","kana_address":"ｲｼﾂﾞｶ","pref":"福島県","city":"郡山市","address":"石塚"},
{"zip_code":"9638814","kana_pref":"ﾌｸｼﾏｹﾝ","kana_city":"ｺｵﾘﾔﾏｼ","kana_address":"ｲｼﾌﾞﾁﾏﾁ","pref":"福島県","city":"郡山市","address":"石渕町"},
{"zip_code":"9638036","kana_pref":"ﾌｸｼﾏｹﾝ","kana_city":"ｺｵﾘﾔﾏｼ","kana_address":"ｳﾈﾒﾏﾁ","pref":"福島県","city":"郡山市","address":"うねめ町"},
{"zip_code":"9638002","kana_pref":"ﾌｸｼﾏｹﾝ","kana_city":"ｺｵﾘﾔﾏｼ","kana_address":"ｴｷﾏｴ","pref":"福島県","city":"郡山市","address":"駅前"},
{"zip_code":"9630212","kana_pref":"ﾌｸｼﾏｹﾝ","kana_city":"ｺｵﾘﾔﾏｼ","kana_address":"ｵｳｾﾏﾁｺｳｽﾞ","pref":"福島県","city":"郡山市","address":"逢瀬町河内"},
{"zip_code":"9630213","kana_pref":"ﾌｸｼﾏｹﾝ","kana_city":"ｺｵﾘﾔﾏｼ","kana_address":"ｵｳｾﾏﾁﾀﾀﾞﾉ","pref":"福島県","city":"郡山市","address":"逢瀬町多田野"},
{"zip_code":"9630214","kana_pref":"ﾌｸｼﾏｹﾝ","kana_city":"ｺｵﾘﾔﾏｼ","kana_address":"ｵｳｾﾏﾁﾅﾂｲﾃﾞ","pref":"福島県","city":"郡山市","address":"逢瀬町夏出"},
{"zip_code":"9638828","kana_pref":"ﾌｸｼﾏｹﾝ","kana_city":"ｺｵﾘﾔﾏｼ","kana_address":"ｵｵｶﾜﾗ","pref":"福島県","city":"郡山市","address":"大河原"},
{"zip_code":"9638817","kana_pref":"ﾌｸｼﾏｹﾝ","kana_city":"ｺｵﾘﾔﾏｼ","kana_address":"ｵｵﾀﾞｲﾗﾏﾁ","pref":"福島県","city":"郡山市","address":"大平町"},
{"zip_code":"9630201","kana_pref":"ﾌｸｼﾏｹﾝ","kana_city":"ｺｵﾘﾔﾏｼ","kana_address":"ｵｵﾂｷﾏﾁ","pref":"福島県","city":"郡山市","address":"大槻町"},
{"zip_code":"9638001","kana_pref":"ﾌｸｼﾏｹﾝ","kana_city":"ｺｵﾘﾔﾏｼ","kana_address":"ｵｵﾏﾁ","pref":"福島県","city":"郡山市","address":"大町"},
{"zip_code":"9638851","kana_pref":"ﾌｸｼﾏｹﾝ","kana_city":"ｺｵﾘﾔﾏｼ","kana_address":"ｶｲｾｲ","pref":"福島県","city":"郡山市","address":"開成"},
{"zip_code":"9638833","kana_pref":"ﾌｸｼﾏｹﾝ","kana_city":"ｺｵﾘﾔﾏｼ","kana_address":"ｶｸﾞｲｹ","pref":"福島県","city":"郡山市","address":"香久池"},
{"zip_code":"9638844","kana_pref":"ﾌｸｼﾏｹﾝ","kana_city":"ｺｵﾘﾔﾏｼ","kana_address":"ｶﾞｼｮｳ","pref":"福島県","city":"郡山市","address":"賀庄"},
{"zip_code":"9630202","kana_pref":"ﾌｸｼﾏｹﾝ","kana_city":"ｺｵﾘﾔﾏｼ","kana_address":"ｶｼﾜﾔﾏﾏﾁ","pref":"福島県","city":"郡山市","address":"柏山町"},
{"zip_code":"9630211","kana_pref":"ﾌｸｼﾏｹﾝ","kana_city":"ｺｵﾘﾔﾏｼ","kana_address":"ｶﾀﾋﾗﾏﾁ","pref":"福島県","city":"郡山市","address":"片平町"},
{"zip_code":"9630703","kana_pref":"ﾌｸｼﾏｹﾝ","kana_city":"ｺｵﾘﾔﾏｼ","kana_address":"ｶﾊﾞｸﾗﾏﾁ","pref":"福島県","city":"郡山市","address":"蒲倉町"},
{"zip_code":"9638031","kana_pref":"ﾌｸｼﾏｹﾝ","kana_city":"ｺｵﾘﾔﾏｼ","kana_address":"ｶﾐｶﾒﾀﾞ","pref":"福島県","city":"郡山市","address":"上亀田"},
{"zip_code":"9638816","kana_pref":"ﾌｸｼﾏｹﾝ","kana_city":"ｺｵﾘﾔﾏｼ","kana_address":"ｶﾐﾉﾔﾏ","pref":"福島県","city":"郡山市","address":"上野山"},
{"zip_code":"9638033","kana_pref":"ﾌｸｼﾏｹﾝ","kana_city":"ｺｵﾘﾔﾏｼ","kana_address":"ｶﾒﾀﾞ","pref":"福島県","city":"郡山市","address":"亀田"},
{"zip_code":"9630221","kana_pref":"ﾌｸｼﾏｹﾝ","kana_city":"ｺｵﾘﾔﾏｼ","kana_address":"ｶﾒﾀﾞﾆｼ","pref":"福島県","city":"郡山市","address":"亀田西"},
{"zip_code":"9638829","kana_pref":"ﾌｸｼﾏｹﾝ","kana_city":"ｺｵﾘﾔﾏｼ","kana_address":"ｶﾔﾉｷ","pref":"福島県","city":"郡山市","address":"榧の木"},
{"zip_code":"9638843","kana_pref":"ﾌｸｼﾏｹﾝ","kana_city":"ｺｵﾘﾔﾏｼ","kana_address":"ｶﾜﾑｶｲ","pref":"福島県","city":"郡山市","address":"川向"},
{"zip_code":"9630551","kana_pref":"ﾌｸｼﾏｹﾝ","kana_city":"ｺｵﾘﾔﾏｼ","kana_address":"ｷｸﾀﾏﾁ","pref":"福島県","city":"郡山市","address":"喜久田町"},
{"zip_code":"9630545","kana_pref":"ﾌｸｼﾏｹﾝ","kana_city":"ｺｵﾘﾔﾏｼ","kana_address":"ｷｸﾀﾏﾁｱｶｻｶ","pref":"福島県","city":"郡山市","address":"喜久田町赤坂"},
{"zip_code":"9630547","kana_pref":"ﾌｸｼﾏｹﾝ","kana_city":"ｺｵﾘﾔﾏｼ","kana_address":"ｷｸﾀﾏﾁｵﾛｼ","pref":"福島県","city":"郡山市","address":"喜久田町卸"},
{"zip_code":"9630544","kana_pref":"ﾌｸｼﾏｹﾝ","kana_city":"ｺｵﾘﾔﾏｼ","kana_address":"ｷｸﾀﾏﾁﾂﾎﾞｻﾜ","pref":"福島県","city":"郡山市","address":"喜久田町坪沢"},
{"zip_code":"9630542","kana_pref":"ﾌｸｼﾏｹﾝ","kana_city":"ｺｵﾘﾔﾏｼ","kana_address":"ｷｸﾀﾏﾁﾊﾗ","pref":"福島県","city":"郡山市","address":"喜久田町原"},
{"zip_code":"9630541","kana_pref":"ﾌｸｼﾏｹﾝ","kana_city":"ｺｵﾘﾔﾏｼ","kana_address":"ｷｸﾀﾏﾁﾎﾘﾉｳﾁ","pref":"福島県","city":"郡山市","address":"喜久田町堀之内"},
{"zip_code":"9630543","kana_pref":"ﾌｸｼﾏｹﾝ","kana_city":"ｺｵﾘﾔﾏｼ","kana_address":"ｷｸﾀﾏﾁﾏｴﾀｻﾞﾜ","pref":"福島県","city":"郡山市","address":"喜久田町前田沢"},
{"zip_code":"9630546","kana_pref":"ﾌｸｼﾏｹﾝ","kana_city":"ｺｵﾘﾔﾏｼ","kana_address":"ｷｸﾀﾏﾁﾜｾﾊﾗ","pref":"福島県","city":"郡山市","address":"喜久田町早稲原"},
{"zip_code":"9638804","kana_pref":"ﾌｸｼﾏｹﾝ","kana_city":"ｺｵﾘﾔﾏｼ","kana_address":"ｷﾀﾊﾞﾀｹ","pref":"福島県","city":"郡山市","address":"北畑"},
{"zip_code":"9638035","kana_pref":"ﾌｸｼﾏｹﾝ","kana_city":"ｺｵﾘﾔﾏｼ","kana_address":"ｷﾎﾞｳｶﾞｵｶ","pref":"福島県","city":"郡山市","address":"希望ケ丘"},
{"zip_code":"9638846","kana_pref":"ﾌｸｼﾏｹﾝ","kana_city":"ｺｵﾘﾔﾏｼ","kana_address":"ｸﾙﾒ","pref":"福島県","city":"郡山市","address":"久留米"},
{"zip_code":"9638025","kana_pref":"ﾌｸｼﾏｹﾝ","kana_city":"ｺｵﾘﾔﾏｼ","kana_address":"ｸﾜﾉ","pref":"福島県","city":"郡山市","address":"桑野"},
{"zip_code":"9638038","kana_pref":"ﾌｸｼﾏｹﾝ","kana_city":"ｺｵﾘﾔﾏｼ","kana_address":"ｸﾜﾉｷﾀﾏﾁ","pref":"福島県","city":"郡山市","address":"桑野北町"},
{"zip_code":"9638866","kana_pref":"ﾌｸｼﾏｹﾝ","kana_city":"ｺｵﾘﾔﾏｼ","kana_address":"ｸﾜﾉｼﾐｽﾞﾀﾞｲ","pref":"福島県","city":"郡山市","address":"桑野清水台"},
{"zip_code":"9638039","kana_pref":"ﾌｸｼﾏｹﾝ","kana_city":"ｺｵﾘﾔﾏｼ","kana_address":"ｺｾｷﾔｼﾞ","pref":"福島県","city":"郡山市","address":"小関谷地"},
{"zip_code":"9630209","kana_pref":"ﾌｸｼﾏｹﾝ","kana_city":"ｺｵﾘﾔﾏｼ","kana_address":"ｺﾞｾﾞﾝﾐﾅﾐ","pref":"福島県","city":"郡山市","address":"御前南"},
{"zip_code":"9631631","kana_pref":"ﾌｸｼﾏｹﾝ","kana_city":"ｺｵﾘﾔﾏｼ","kana_address":"ｺﾅﾝﾏﾁｱｶﾂ","pref":"福島県","city":"郡山市","address":"湖南町赤津"},
{"zip_code":"9631412","kana_pref":"ﾌｸｼﾏｹﾝ","kana_city":"ｺｵﾘﾔﾏｼ","kana_address":"ｺﾅﾝﾏﾁﾀﾃ","pref":"福島県","city":"郡山市","address":"湖南町舘"},
{"zip_code":"9631521","kana_pref":"ﾌｸｼﾏｹﾝ","kana_city":"ｺｵﾘﾔﾏｼ","kana_address":"ｺﾅﾝﾏﾁﾅｶﾉ","pref":"福島県","city":"郡山市","address":"湖南町中野"},
{"zip_code":"9631414","kana_pref":"ﾌｸｼﾏｹﾝ","kana_city":"ｺｵﾘﾔﾏｼ","kana_address":"ｺﾅﾝﾏﾁﾊﾏｼﾞ","pref":"福島県","city":"郡山市","address":"湖南町浜路"},
{"zip_code":"9631632","kana_pref":"ﾌｸｼﾏｹﾝ","kana_city":"ｺｵﾘﾔﾏｼ","kana_address":"ｺﾅﾝﾏﾁﾊﾞﾆｭｳｼﾝﾃﾞﾝ","pref":"福島県","city":"郡山市","address":"湖南町馬入新田"},
{"zip_code":"9631633","kana_pref":"ﾌｸｼﾏｹﾝ","kana_city":"ｺｵﾘﾔﾏｼ","kana_address":"ｺﾅﾝﾏﾁﾌｸﾗ","pref":"福島県","city":"郡山市","address":"湖南町福良"},
{"zip_code":"9631411","kana_pref":"ﾌｸｼﾏｹﾝ","kana_city":"ｺｵﾘﾔﾏｼ","kana_address":"ｺﾅﾝﾏﾁﾌﾅﾂ","pref":"福島県","city":"郡山市","address":"湖南町舟津"},
{"zip_code":"9631522","kana_pref":"ﾌｸｼﾏｹﾝ","kana_city":"ｺｵﾘﾔﾏｼ","kana_address":"ｺﾅﾝﾏﾁﾐﾖ","pref":"福島県","city":"郡山市","address":"湖南町三代"},
{"zip_code":"9631413","kana_pref":"ﾌｸｼﾏｹﾝ","kana_city":"ｺｵﾘﾔﾏｼ","kana_address":"ｺﾅﾝﾏﾁﾖｺｻﾜ","pref":"福島県","city":"郡山市","address":"湖南町横沢"},
{"zip_code":"9638835","kana_pref":"ﾌｸｼﾏｹﾝ","kana_city":"ｺｵﾘﾔﾏｼ","kana_address":"ｺﾊﾗﾀﾞ","pref":"福島県","city":"郡山市","address":"小原田"},
{"zip_code":"9638865","kana_pref":"ﾌｸｼﾏｹﾝ","kana_city":"ｺｵﾘﾔﾏｼ","kana_address":"ｺﾞﾋｬｸﾌﾞﾁﾆｼ","pref":"福島県","city":"郡山市","address":"五百渕西"},
{"zip_code":"9638867","kana_pref":"ﾌｸｼﾏｹﾝ","kana_city":"ｺｵﾘﾔﾏｼ","kana_address":"ｺﾞﾋｬｸﾌﾞﾁﾔﾏ","pref":"福島県","city":"郡山市","address":"五百渕山"},
{"zip_code":"9638862","kana_pref":"ﾌｸｼﾏｹﾝ","kana_city":"ｺｵﾘﾔﾏｼ","kana_address":"ｻｲｺﾝ","pref":"福島県","city":"郡山市","address":"菜根"},
{"zip_code":"9638863","kana_pref":"ﾌｸｼﾏｹﾝ","kana_city":"ｺｵﾘﾔﾏｼ","kana_address":"ｻｲｺﾝﾔｼｷ","pref":"福島県","city":"郡山市","address":"菜根屋敷"},
{"zip_code":"9638872","kana_pref":"ﾌｸｼﾏｹﾝ","kana_city":"ｺｵﾘﾔﾏｼ","kana_address":"ｻｶｴﾏﾁ","pref":"福島県","city":"郡山市","address":"栄町"},
{"zip_code":"9638012","kana_pref":"ﾌｸｼﾏｹﾝ","kana_city":"ｺｵﾘﾔﾏｼ","kana_address":"ｻｸﾀ","pref":"福島県","city":"郡山市","address":"咲田"},
{"zip_code":"9638021","kana_pref":"ﾌｸｼﾏｹﾝ","kana_city":"ｺｵﾘﾔﾏｼ","kana_address":"ｻｸﾗｷﾞ","pref":"福島県","city":"郡山市","address":"桜木"},
{"zip_code":"9630108","kana_pref":"ﾌｸｼﾏｹﾝ","kana_city":"ｺｵﾘﾔﾏｼ","kana_address":"ｻｻｶﾞﾜ","pref":"福島県","city":"郡山市","address":"笹川"},
{"zip_code":"9638807","kana_pref":"ﾌｸｼﾏｹﾝ","kana_city":"ｺｵﾘﾔﾏｼ","kana_address":"ｻﾉﾗ","pref":"福島県","city":"郡山市","address":"佐野良"},
{"zip_code":"9630203","kana_pref":"ﾌｸｼﾏｹﾝ","kana_city":"ｺｵﾘﾔﾏｼ","kana_address":"ｼｽﾞｶﾏﾁ","pref":"福島県","city":"郡山市","address":"静町"},
{"zip_code":"9638034","kana_pref":"ﾌｸｼﾏｹﾝ","kana_city":"ｺｵﾘﾔﾏｼ","kana_address":"ｼﾏ","pref":"福島県","city":"郡山市","address":"島"},
{"zip_code":"9638005","kana_pref":"ﾌｸｼﾏｹﾝ","kana_city":"ｺｵﾘﾔﾏｼ","kana_address":"ｼﾐｽﾞﾀﾞｲ","pref":"福島県","city":"郡山市","address":"清水台"},
{"zip_code":"9638032","kana_pref":"ﾌｸｼﾏｹﾝ","kana_city":"ｺｵﾘﾔﾏｼ","kana_address":"ｼﾓｶﾒﾀﾞ","pref":"福島県","city":"郡山市","address":"下亀田"},
{"zip_code":"9630663","kana_pref":"ﾌｸｼﾏｹﾝ","kana_city":"ｺｵﾘﾔﾏｼ","kana_address":"ｼﾓｼﾗｲﾜﾏﾁ","pref":"福島県","city":"郡山市","address":"下白岩町"},
{"zip_code":"9638806","kana_pref":"ﾌｸｼﾏｹﾝ","kana_city":"ｺｵﾘﾔﾏｼ","kana_address":"ｼﾓﾀﾃﾉ","pref":"福島県","city":"郡山市","address":"下舘野"},
{"zip_code":"9638818","kana_pref":"ﾌｸｼﾏｹﾝ","kana_city":"ｺｵﾘﾔﾏｼ","kana_address":"ｼﾞｭｯｶﾝｶﾞﾜﾗ","pref":"福島県","city":"郡山市","address":"十貫河原"},
{"zip_code":"9638822","kana_pref":"ﾌｸｼﾏｹﾝ","kana_city":"ｺｵﾘﾔﾏｼ","kana_address":"ｼｮｳﾜ","pref":"福島県","city":"郡山市","address":"昭和"},
{"zip_code":"9630662","kana_pref":"ﾌｸｼﾏｹﾝ","kana_city":"ｺｵﾘﾔﾏｼ","kana_address":"ｼﾗｲﾜﾏﾁ","pref":"福島県","city":"郡山市","address":"白岩町"},
{"zip_code":"9638842","kana_pref":"ﾌｸｼﾏｹﾝ","kana_city":"ｺｵﾘﾔﾏｼ","kana_address":"ｼﾛｼﾐｽﾞ","pref":"福島県","city":"郡山市","address":"城清水"},
{"zip_code":"9638013","kana_pref":"ﾌｸｼﾏｹﾝ","kana_city":"ｺｵﾘﾔﾏｼ","kana_address":"ｼﾝﾒｲﾁｮｳ","pref":"福島県","city":"郡山市","address":"神明町"},
{"zip_code":"9638815","kana_pref":"ﾌｸｼﾏｹﾝ","kana_city":"ｺｵﾘﾔﾏｼ","kana_address":"ｽｲﾓﾝﾏﾁ","pref":"福島県","city":"郡山市","address":"水門町"},
{"zip_code":"9638834","kana_pref":"ﾌｸｼﾏｹﾝ","kana_city":"ｺｵﾘﾔﾏｼ","kana_address":"ｽﾞｹｲ","pref":"福島県","city":"郡山市","address":"図景"},
{"zip_code":"9638827","kana_pref":"ﾌｸｼﾏｹﾝ","kana_city":"ｺｵﾘﾔﾏｼ","kana_address":"ｿﾄｶﾞﾜﾗ","pref":"福島県","city":"郡山市","address":"外河原"},
{"zip_code":"9638852","kana_pref":"ﾌｸｼﾏｹﾝ","kana_city":"ｺｵﾘﾔﾏｼ","kana_address":"ﾀﾞｲｼﾝ","pref":"福島県","city":"郡山市","address":"台新"},
{"zip_code":"9638007","kana_pref":"ﾌｸｼﾏｹﾝ","kana_city":"ｺｵﾘﾔﾏｼ","kana_address":"ﾀﾞｲﾅｺﾞﾝ","pref":"福島県","city":"郡山市","address":"大名艮"},
{"zip_code":"9638864","kana_pref":"ﾌｸｼﾏｹﾝ","kana_city":"ｺｵﾘﾔﾏｼ","kana_address":"ﾀﾞｲﾋｶﾞｼ","pref":"福島県","city":"郡山市","address":"台東"},
{"zip_code":"9631153","kana_pref":"ﾌｸｼﾏｹﾝ","kana_city":"ｺｵﾘﾔﾏｼ","kana_address":"ﾀﾑﾗﾏﾁｵｵﾄﾓ","pref":"福島県","city":"郡山市","address":"田村町大供"},
{"zip_code":"9631151","kana_pref":"ﾌｸｼﾏｹﾝ","kana_city":"ｺｵﾘﾔﾏｼ","kana_address":"ﾀﾑﾗﾏﾁｶﾈｻﾞﾜ","pref":"福島県","city":"郡山市","address":"田村町金沢"},
{"zip_code":"9630725","kana_pref":"ﾌｸｼﾏｹﾝ","kana_city":"ｺｵﾘﾔﾏｼ","kana_address":"ﾀﾑﾗﾏﾁｶﾅﾔ","pref":"福島県","city":"郡山市","address":"田村町金屋"},
{"zip_code":"9631248","kana_pref":"ﾌｸｼﾏｹﾝ","kana_city":"ｺｵﾘﾔﾏｼ","kana_address":"ﾀﾑﾗﾏﾁｶﾐﾐﾁﾜﾀｼ","pref":"福島県","city":"郡山市","address":"田村町上道渡"},
{"zip_code":"9630724","kana_pref":"ﾌｸｼﾏｹﾝ","kana_city":"ｺｵﾘﾔﾏｼ","kana_address":"ﾀﾑﾗﾏﾁｶﾐﾕｷｱｲ","pref":"福島県","city":"郡山市","address":"田村町上行合"},
{"zip_code":"9631241","kana_pref":"ﾌｸｼﾏｹﾝ","kana_city":"ｺｵﾘﾔﾏｼ","kana_address":"ﾀﾑﾗﾏﾁｶﾜﾏｶﾞﾘ","pref":"福島県","city":"郡山市","address":"田村町川曲"},
{"zip_code":"9631154","kana_pref":"ﾌｸｼﾏｹﾝ","kana_city":"ｺｵﾘﾔﾏｼ","kana_address":"ﾀﾑﾗﾏﾁｶﾞﾝｻﾞｸ","pref":"福島県","city":"郡山市","address":"田村町岩作"},
{"zip_code":"9630722","kana_pref":"ﾌｸｼﾏｹﾝ","kana_city":"ｺｵﾘﾔﾏｼ","kana_address":"ﾀﾑﾗﾏﾁｺｶﾞﾜ","pref":"福島県","city":"郡山市","address":"田村町小川"},
{"zip_code":"9630723","kana_pref":"ﾌｸｼﾏｹﾝ","kana_city":"ｺｵﾘﾔﾏｼ","kana_address":"ﾀﾑﾗﾏﾁｻｸﾗｶﾞｵｶ","pref":"福島県","city":"郡山市","address":"田村町桜ケ丘"},
{"zip_code":"9631162","kana_pref":"ﾌｸｼﾏｹﾝ","kana_city":"ｺｵﾘﾔﾏｼ","kana_address":"ﾀﾑﾗﾏﾁｻﾝﾁｭｳ","pref":"福島県","city":"郡山市","address":"田村町山中"},
{"zip_code":"9631247","kana_pref":"ﾌｸｼﾏｹﾝ","kana_city":"ｺｵﾘﾔﾏｼ","kana_address":"ﾀﾑﾗﾏﾁｼﾓﾐﾁﾜﾀｼ","pref":"福島県","city":"郡山市","address":"田村町下道渡"},
{"zip_code":"9630726","kana_pref":"ﾌｸｼﾏｹﾝ","kana_city":"ｺｵﾘﾔﾏｼ","kana_address":"ﾀﾑﾗﾏﾁｼﾓﾕｷｱｲ","pref":"福島県","city":"郡山市","address":"田村町下行合"},
{"zip_code":"9631163","kana_pref":"ﾌｸｼﾏｹﾝ","kana_city":"ｺｵﾘﾔﾏｼ","kana_address":"ﾀﾑﾗﾏﾁｼｮｳｼﾞｷ","pref":"福島県","city":"郡山市","address":"田村町正直"},
{"zip_code":"9631243","kana_pref":"ﾌｸｼﾏｹﾝ","kana_city":"ｺｵﾘﾔﾏｼ","kana_address":"ﾀﾑﾗﾏﾁﾀﾓｶﾞﾐ","pref":"福島県","city":"郡山市","address":"田村町田母神"},
{"zip_code":"9631161","kana_pref":"ﾌｸｼﾏｹﾝ","kana_city":"ｺｵﾘﾔﾏｼ","kana_address":"ﾀﾑﾗﾏﾁﾀﾞｲｾﾞﾝｼﾞ","pref":"福島県","city":"郡山市","address":"田村町大善寺"},
{"zip_code":"9630721","kana_pref":"ﾌｸｼﾏｹﾝ","kana_city":"ｺｵﾘﾔﾏｼ","kana_address":"ﾀﾑﾗﾏﾁﾃｼﾛｷﾞ","pref":"福島県","city":"郡山市","address":"田村町手代木"},
{"zip_code":"9631165","kana_pref":"ﾌｸｼﾏｹﾝ","kana_city":"ｺｵﾘﾔﾏｼ","kana_address":"ﾀﾑﾗﾏﾁﾄｸｻﾀﾞ","pref":"福島県","city":"郡山市","address":"田村町徳定"},
{"zip_code":"9631244","kana_pref":"ﾌｸｼﾏｹﾝ","kana_city":"ｺｵﾘﾔﾏｼ","kana_address":"ﾀﾑﾗﾏﾁﾄﾁﾓﾄ","pref":"福島県","city":"郡山市","address":"田村町栃本"},
{"zip_code":"9631245","kana_pref":"ﾌｸｼﾏｹﾝ","kana_city":"ｺｵﾘﾔﾏｼ","kana_address":"ﾀﾑﾗﾏﾁﾄﾁﾔﾏｶﾐ","pref":"福島県","city":"郡山市","address":"田村町栃山神"},
{"zip_code":"9631242","kana_pref":"ﾌｸｼﾏｹﾝ","kana_city":"ｺｵﾘﾔﾏｼ","kana_address":"ﾀﾑﾗﾏﾁﾇｶﾂﾞｶ","pref":"福島県","city":"郡山市","address":"田村町糠塚"},
{"zip_code":"9631156","kana_pref":"ﾌｸｼﾏｹﾝ","kana_city":"ｺｵﾘﾔﾏｼ","kana_address":"ﾀﾑﾗﾏﾁﾋｶﾞｼﾔﾏ","pref":"福島県","city":"郡山市","address":"田村町東山"},
{"zip_code":"9631152","kana_pref":"ﾌｸｼﾏｹﾝ","kana_city":"ｺｵﾘﾔﾏｼ","kana_address":"ﾀﾑﾗﾏﾁﾎｿﾀﾞ","pref":"福島県","city":"郡山市","address":"田村町細田"},
{"zip_code":"9631164","kana_pref":"ﾌｸｼﾏｹﾝ","kana_city":"ｺｵﾘﾔﾏｼ","kana_address":"ﾀﾑﾗﾏﾁﾐﾖﾀﾞ","pref":"福島県","city":"郡山市","address":"田村町御代田"},
{"zip_code":"9631155","kana_pref":"ﾌｸｼﾏｹﾝ","kana_city":"ｺｵﾘﾔﾏｼ","kana_address":"ﾀﾑﾗﾏﾁﾓﾘﾔﾏ","pref":"福島県","city":"郡山市","address":"田村町守山"},
{"zip_code":"9631246","kana_pref":"ﾌｸｼﾏｹﾝ","kana_city":"ｺｵﾘﾔﾏｼ","kana_address":"ﾀﾑﾗﾏﾁﾔﾀｶﾞﾜ","pref":"福島県","city":"郡山市","address":"田村町谷田川"},
{"zip_code":"9638017","kana_pref":"ﾌｸｼﾏｹﾝ","kana_city":"ｺｵﾘﾔﾏｼ","kana_address":"ﾁｮｳｼﾞｬ","pref":"福島県","city":"郡山市","address":"長者"},
{"zip_code":"9630204","kana_pref":"ﾌｸｼﾏｹﾝ","kana_city":"ｺｵﾘﾔﾏｼ","kana_address":"ﾂﾁｳﾘ","pref":"福島県","city":"郡山市","address":"土瓜"},
{"zip_code":"9630205","kana_pref":"ﾌｸｼﾏｹﾝ","kana_city":"ｺｵﾘﾔﾏｼ","kana_address":"ﾂﾂﾐ","pref":"福島県","city":"郡山市","address":"堤"},
{"zip_code":"9638878","kana_pref":"ﾌｸｼﾏｹﾝ","kana_city":"ｺｵﾘﾔﾏｼ","kana_address":"ﾂﾂﾐｼﾀﾏﾁ","pref":"福島県","city":"郡山市","address":"堤下町"},
{"zip_code":"9638861","kana_pref":"ﾌｸｼﾏｹﾝ","kana_city":"ｺｵﾘﾔﾏｼ","kana_address":"ﾂﾙﾐﾀﾞﾝ","pref":"福島県","city":"郡山市","address":"鶴見坦"},
{"zip_code":"9638008","kana_pref":"ﾌｸｼﾏｹﾝ","kana_city":"ｺｵﾘﾔﾏｼ","kana_address":"ﾄｳｼﾞｭｸ","pref":"福島県","city":"郡山市","address":"東宿"},
{"zip_code":"9638824","kana_pref":"ﾌｸｼﾏｹﾝ","kana_city":"ｺｵﾘﾔﾏｼ","kana_address":"ﾄﾞｳﾊﾞ","pref":"福島県","city":"郡山市","address":"道場"},
{"zip_code":"9638877","kana_pref":"ﾌｸｼﾏｹﾝ","kana_city":"ｺｵﾘﾔﾏｼ","kana_address":"ﾄﾞｳﾏｴﾏﾁ","pref":"福島県","city":"郡山市","address":"堂前町"},
{"zip_code":"9638041","kana_pref":"ﾌｸｼﾏｹﾝ","kana_city":"ｺｵﾘﾔﾏｼ","kana_address":"ﾄﾐﾀﾏﾁ","pref":"福島県","city":"郡山市","address":"富田町"},
{"zip_code":"9638016","kana_pref":"ﾌｸｼﾏｹﾝ","kana_city":"ｺｵﾘﾔﾏｼ","kana_address":"ﾄﾖﾀﾏﾁ","pref":"福島県","city":"郡山市","address":"豊田町"},
{"zip_code":"9638014","kana_pref":"ﾌｸｼﾏｹﾝ","kana_city":"ｺｵﾘﾔﾏｼ","kana_address":"ﾄﾗﾏﾙﾏﾁ","pref":"福島県","city":"郡山市","address":"虎丸町"},
{"zip_code":"9630714","kana_pref":"ﾌｸｼﾏｹﾝ","kana_city":"ｺｵﾘﾔﾏｼ","kana_address":"ﾅｶﾀﾏﾁｱｶﾇﾏ","pref":"福島県","city":"郡山市","address":"中田町赤沼"},
{"zip_code":"9630711","kana_pref":"ﾌｸｼﾏｹﾝ","kana_city":"ｺｵﾘﾔﾏｼ","kana_address":"ﾅｶﾀﾏﾁｱｹﾞｲｼ","pref":"福島県","city":"郡山市","address":"中田町上石"},
{"zip_code":"9630834","kana_pref":"ﾌｸｼﾏｹﾝ","kana_city":"ｺｵﾘﾔﾏｼ","kana_address":"ﾅｶﾀﾏﾁｳｼｸﾋﾞﾘﾎﾝｺﾞｳ","pref":"福島県","city":"郡山市","address":"中田町牛縊本郷"},
{"zip_code":"9630712","kana_pref":"ﾌｸｼﾏｹﾝ","kana_city":"ｺｵﾘﾔﾏｼ","kana_address":"ﾅｶﾀﾏﾁｴﾋﾞﾈ","pref":"福島県","city":"郡山市","address":"中田町海老根"},
{"zip_code":"9630835","kana_pref":"ﾌｸｼﾏｹﾝ","kana_city":"ｺｵﾘﾔﾏｼ","kana_address":"ﾅｶﾀﾏﾁｸﾛｷ","pref":"福島県","city":"郡山市","address":"中田町黒木"},
{"zip_code":"9630836","kana_pref":"ﾌｸｼﾏｹﾝ","kana_city":"ｺｵﾘﾔﾏｼ","kana_address":"ﾅｶﾀﾏﾁｺﾉﾒｻﾞﾜ","pref":"福島県","city":"郡山市","address":"中田町木目沢"},
{"zip_code":"9630837","kana_pref":"ﾌｸｼﾏｹﾝ","kana_city":"ｺｵﾘﾔﾏｼ","kana_address":"ﾅｶﾀﾏﾁｺﾏｲﾀ","pref":"福島県","city":"郡山市","address":"中田町駒板"},
{"zip_code":"9630833","kana_pref":"ﾌｸｼﾏｹﾝ","kana_city":"ｺｵﾘﾔﾏｼ","kana_address":"ﾅｶﾀﾏﾁｼﾀｴﾀﾞ","pref":"福島県","city":"郡山市","address":"中田町下枝"},
{"zip_code":"9630713","kana_pref":"ﾌｸｼﾏｹﾝ","kana_city":"ｺｵﾘﾔﾏｼ","kana_address":"ﾅｶﾀﾏﾁﾀｶｸﾗ","pref":"福島県","city":"郡山市","address":"中田町高倉"},
{"zip_code":"9630832","kana_pref":"ﾌｸｼﾏｹﾝ","kana_city":"ｺｵﾘﾔﾏｼ","kana_address":"ﾅｶﾀﾏﾁﾅｶﾂｶﾞﾜ","pref":"福島県","city":"郡山市","address":"中田町中津川"},
{"zip_code":"9630831","kana_pref":"ﾌｸｼﾏｹﾝ","kana_city":"ｺｵﾘﾔﾏｼ","kana_address":"ﾅｶﾀﾏﾁﾔﾅｷﾞﾊｼ","pref":"福島県","city":"郡山市","address":"中田町柳橋"},
{"zip_code":"9630206","kana_pref":"ﾌｸｼﾏｹﾝ","kana_city":"ｺｵﾘﾔﾏｼ","kana_address":"ﾅｶﾉ","pref":"福島県","city":"郡山市","address":"中野"},
{"zip_code":"9630216","kana_pref":"ﾌｸｼﾏｹﾝ","kana_city":"ｺｵﾘﾔﾏｼ","kana_address":"ﾅｶﾉﾒ","pref":"福島県","city":"郡山市","address":"中ノ目"},
{"zip_code":"9638004","kana_pref":"ﾌｸｼﾏｹﾝ","kana_city":"ｺｵﾘﾔﾏｼ","kana_address":"ﾅｶﾏﾁ","pref":"福島県","city":"郡山市","address":"中町"},
{"zip_code":"9638845","kana_pref":"ﾌｸｼﾏｹﾝ","kana_city":"ｺｵﾘﾔﾏｼ","kana_address":"ﾅｸﾞﾗ","pref":"福島県","city":"郡山市","address":"名倉"},
{"zip_code":"9638043","kana_pref":"ﾌｸｼﾏｹﾝ","kana_city":"ｺｵﾘﾔﾏｼ","kana_address":"ﾅｺﾞｳﾀﾞ","pref":"福島県","city":"郡山市","address":"名郷田"},
{"zip_code":"9638831","kana_pref":"ﾌｸｼﾏｹﾝ","kana_city":"ｺｵﾘﾔﾏｼ","kana_address":"ﾅﾅﾂｲｹﾏﾁ","pref":"福島県","city":"郡山市","address":"七ツ池町"},
{"zip_code":"9638026","kana_pref":"ﾌｸｼﾏｹﾝ","kana_city":"ｺｵﾘﾔﾏｼ","kana_address":"ﾅﾐｷ","pref":"福島県","city":"郡山市","address":"並木"},
{"zip_code":"9630106","kana_pref":"ﾌｸｼﾏｹﾝ","kana_city":"ｺｵﾘﾔﾏｼ","kana_address":"ﾅﾘﾔﾏﾏﾁ","pref":"福島県","city":"郡山市","address":"成山町"},
{"zip_code":"9630207","kana_pref":"ﾌｸｼﾏｹﾝ","kana_city":"ｺｵﾘﾔﾏｼ","kana_address":"ﾅﾙｶﾞﾐ","pref":"福島県","city":"郡山市","address":"鳴神"},
{"zip_code":"9630925","kana_pref":"ﾌｸｼﾏｹﾝ","kana_city":"ｺｵﾘﾔﾏｼ","kana_address":"ﾆｼﾀﾏﾁｱｺｳｷﾞ","pref":"福島県","city":"郡山市","address":"西田町阿広木"},
{"zip_code":"9630903","kana_pref":"ﾌｸｼﾏｹﾝ","kana_city":"ｺｵﾘﾔﾏｼ","kana_address":"ﾆｼﾀﾏﾁｲﾀﾊｼ","pref":"福島県","city":"郡山市","address":"西田町板橋"},
{"zip_code":"9630924","kana_pref":"ﾌｸｼﾏｹﾝ","kana_city":"ｺｵﾘﾔﾏｼ","kana_address":"ﾆｼﾀﾏﾁｵｵｱﾐ","pref":"福島県","city":"郡山市","address":"西田町大網"},
{"zip_code":"9630911","kana_pref":"ﾌｸｼﾏｹﾝ","kana_city":"ｺｵﾘﾔﾏｼ","kana_address":"ﾆｼﾀﾏﾁｵｵﾀ","pref":"福島県","city":"郡山市","address":"西田町大田"},
{"zip_code":"9630921","kana_pref":"ﾌｸｼﾏｹﾝ","kana_city":"ｺｵﾘﾔﾏｼ","kana_address":"ﾆｼﾀﾏﾁｵﾆｳﾀ","pref":"福島県","city":"郡山市","address":"西田町鬼生田"},
{"zip_code":"9630914","kana_pref":"ﾌｸｼﾏｹﾝ","kana_city":"ｺｵﾘﾔﾏｼ","kana_address":"ﾆｼﾀﾏﾁｷﾑﾗ","pref":"福島県","city":"郡山市","address":"西田町木村"},
{"zip_code":"9630923","kana_pref":"ﾌｸｼﾏｹﾝ","kana_city":"ｺｵﾘﾔﾏｼ","kana_address":"ﾆｼﾀﾏﾁｸﾛﾀﾞ","pref":"福島県","city":"郡山市","address":"西田町黒田"},
{"zip_code":"9630922","kana_pref":"ﾌｸｼﾏｹﾝ","kana_city":"ｺｵﾘﾔﾏｼ","kana_address":"ﾆｼﾀﾏﾁｻﾝﾁｮｳﾒ","pref":"福島県","city":"郡山市","address":"西田町三町目"},
{"zip_code":"9630913","kana_pref":"ﾌｸｼﾏｹﾝ","kana_city":"ｺｵﾘﾔﾏｼ","kana_address":"ﾆｼﾀﾏﾁｾﾘｻﾜ","pref":"福島県","city":"郡山市","address":"西田町芹沢"},
{"zip_code":"9630902","kana_pref":"ﾌｸｼﾏｹﾝ","kana_city":"ｺｵﾘﾔﾏｼ","kana_address":"ﾆｼﾀﾏﾁﾀｶｼﾊﾞ","pref":"福島県","city":"郡山市","address":"西田町高柴"},
{"zip_code":"9630904","kana_pref":"ﾌｸｼﾏｹﾝ","kana_city":"ｺｵﾘﾔﾏｼ","kana_address":"ﾆｼﾀﾏﾁﾂﾁﾀﾞﾅ","pref":"福島県","city":"郡山市","address":"西田町土棚"},
{"zip_code":"9630901","kana_pref":"ﾌｸｼﾏｹﾝ","kana_city":"ｺｵﾘﾔﾏｼ","kana_address":"ﾆｼﾀﾏﾁﾆｲﾀ","pref":"福島県","city":"郡山市","address":"西田町丹伊田"},
{"zip_code":"9630912","kana_pref":"ﾌｸｼﾏｹﾝ","kana_city":"ｺｵﾘﾔﾏｼ","kana_address":"ﾆｼﾀﾏﾁﾈｷﾞﾔ","pref":"福島県","city":"郡山市","address":"西田町根木屋"},
{"zip_code":"9638022","kana_pref":"ﾌｸｼﾏｹﾝ","kana_city":"ｺｵﾘﾔﾏｼ","kana_address":"ﾆｼﾉｳﾁ","pref":"福島県","city":"郡山市","address":"西ノ内"},
{"zip_code":"9638813","kana_pref":"ﾌｸｼﾏｹﾝ","kana_city":"ｺｵﾘﾔﾏｼ","kana_address":"ﾊｶﾞ","pref":"福島県","city":"郡山市","address":"芳賀"},
{"zip_code":"9638836","kana_pref":"ﾌｸｼﾏｹﾝ","kana_city":"ｺｵﾘﾔﾏｼ","kana_address":"ﾊｯｻｸｳﾁ","pref":"福島県","city":"郡山市","address":"八作内"},
{"zip_code":"9638876","kana_pref":"ﾌｸｼﾏｹﾝ","kana_city":"ｺｵﾘﾔﾏｼ","kana_address":"ﾊﾔﾏ","pref":"福島県","city":"郡山市","address":"麓山"},
{"zip_code":"9638037","kana_pref":"ﾌｸｼﾏｹﾝ","kana_city":"ｺｵﾘﾔﾏｼ","kana_address":"ﾊﾗﾅｶ","pref":"福島県","city":"郡山市","address":"原中"},
{"zip_code":"9638871","kana_pref":"ﾌｸｼﾏｹﾝ","kana_city":"ｺｵﾘﾔﾏｼ","kana_address":"ﾊﾚﾓﾝﾀﾞ","pref":"福島県","city":"郡山市","address":"晴門田"},
{"zip_code":"9638003","kana_pref":"ﾌｸｼﾏｹﾝ","kana_city":"ｺｵﾘﾔﾏｼ","kana_address":"ﾋｳﾁﾀ","pref":"福島県","city":"郡山市","address":"燧田"},
{"zip_code":"9638821","kana_pref":"ﾌｸｼﾏｹﾝ","kana_city":"ｺｵﾘﾔﾏｼ","kana_address":"ﾋｼﾀﾞﾏﾁ","pref":"福島県","city":"郡山市","address":"菱田町"},
{"zip_code":"9638044","kana_pref":"ﾌｸｼﾏｹﾝ","kana_city":"ｺｵﾘﾔﾏｼ","kana_address":"ﾋﾞｾﾞﾝﾀﾞﾃ","pref":"福島県","city":"郡山市","address":"備前舘"},
{"zip_code":"9630534","kana_pref":"ﾌｸｼﾏｹﾝ","kana_city":"ｺｵﾘﾔﾏｼ","kana_address":"ﾋﾜﾀﾞﾏﾁ","pref":"福島県","city":"郡山市","address":"日和田町"},
{"zip_code":"9630532","kana_pref":"ﾌｸｼﾏｹﾝ","kana_city":"ｺｵﾘﾔﾏｼ","kana_address":"ﾋﾜﾀﾞﾏﾁｳﾒｻﾞﾜ","pref":"福島県","city":"郡山市","address":"日和田町梅沢"},
{"zip_code":"9630531","kana_pref":"ﾌｸｼﾏｹﾝ","kana_city":"ｺｵﾘﾔﾏｼ","kana_address":"ﾋﾜﾀﾞﾏﾁﾀｶｸﾗ","pref":"福島県","city":"郡山市","address":"日和田町高倉"},
{"zip_code":"9630533","kana_pref":"ﾌｸｼﾏｹﾝ","kana_city":"ｺｵﾘﾔﾏｼ","kana_address":"ﾋﾜﾀﾞﾏﾁﾊｯﾁｮｳﾒ","pref":"福島県","city":"郡山市","address":"日和田町八丁目"},
{"zip_code":"9638874","kana_pref":"ﾌｸｼﾏｹﾝ","kana_city":"ｺｵﾘﾔﾏｼ","kana_address":"ﾌｶｻﾞﾜ","pref":"福島県","city":"郡山市","address":"深沢"},
{"zip_code":"9638838","kana_pref":"ﾌｸｼﾏｹﾝ","kana_city":"ｺｵﾘﾔﾏｼ","kana_address":"ﾌｶﾀﾞﾀﾞｲ","pref":"福島県","city":"郡山市","address":"深田台"},
{"zip_code":"9638071","kana_pref":"ﾌｸｼﾏｹﾝ","kana_city":"ｺｵﾘﾔﾏｼ","kana_address":"ﾌｸﾔﾏﾏﾁｸﾎﾞﾀ","pref":"福島県","city":"郡山市","address":"富久山町久保田"},
{"zip_code":"9630673","kana_pref":"ﾌｸｼﾏｹﾝ","kana_city":"ｺｵﾘﾔﾏｼ","kana_address":"ﾌｸﾔﾏﾏﾁﾄﾞｳｻﾞｶ","pref":"福島県","city":"郡山市","address":"富久山町堂坂"},
{"zip_code":"9638061","kana_pref":"ﾌｸｼﾏｹﾝ","kana_city":"ｺｵﾘﾔﾏｼ","kana_address":"ﾌｸﾔﾏﾏﾁﾌｸﾊﾗ","pref":"福島県","city":"郡山市","address":"富久山町福原"},
{"zip_code":"9630671","kana_pref":"ﾌｸｼﾏｹﾝ","kana_city":"ｺｵﾘﾔﾏｼ","kana_address":"ﾌｸﾔﾏﾏﾁﾐﾅﾐｺｲｽﾞﾐ","pref":"福島県","city":"郡山市","address":"富久山町南小泉"},
{"zip_code":"9630672","kana_pref":"ﾌｸｼﾏｹﾝ","kana_city":"ｺｵﾘﾔﾏｼ","kana_address":"ﾌｸﾔﾏﾏﾁｷﾀｺｲｽﾞﾐ","pref":"福島県","city":"郡山市","address":"富久山町北小泉"},
{"zip_code":"9638051","kana_pref":"ﾌｸｼﾏｹﾝ","kana_city":"ｺｵﾘﾔﾏｼ","kana_address":"ﾌｸﾔﾏﾏﾁﾔﾂﾔﾏﾀﾞ","pref":"福島県","city":"郡山市","address":"富久山町八山田"},
{"zip_code":"9638042","kana_pref":"ﾌｸｼﾏｹﾝ","kana_city":"ｺｵﾘﾔﾏｼ","kana_address":"ﾌﾄﾞｳﾏｴ","pref":"福島県","city":"郡山市","address":"不動前"},
{"zip_code":"9638826","kana_pref":"ﾌｸｼﾏｹﾝ","kana_city":"ｺｵﾘﾔﾏｼ","kana_address":"ﾌﾅﾊﾞﾑｶｲ","pref":"福島県","city":"郡山市","address":"船場向"},
{"zip_code":"9638823","kana_pref":"ﾌｸｼﾏｹﾝ","kana_city":"ｺｵﾘﾔﾏｼ","kana_address":"ﾌﾙｶﾜ","pref":"福島県","city":"郡山市","address":"古川"},
{"zip_code":"9638805","kana_pref":"ﾌｸｼﾏｹﾝ","kana_city":"ｺｵﾘﾔﾏｼ","kana_address":"ﾌﾙﾔｼｷ","pref":"福島県","city":"郡山市","address":"古屋敷"},
{"zip_code":"9638811","kana_pref":"ﾌｸｼﾏｹﾝ","kana_city":"ｺｵﾘﾔﾏｼ","kana_address":"ﾎｳﾊｯﾁｮｳ","pref":"福島県","city":"郡山市","address":"方八町"},
{"zip_code":"9638015","kana_pref":"ﾌｸｼﾏｹﾝ","kana_city":"ｺｵﾘﾔﾏｼ","kana_address":"ﾎｿﾇﾏﾏﾁ","pref":"福島県","city":"郡山市","address":"細沼町"},
{"zip_code":"9630215","kana_pref":"ﾌｸｼﾏｹﾝ","kana_city":"ｺｵﾘﾔﾏｼ","kana_address":"ﾏﾁｲｹﾀﾞｲ","pref":"福島県","city":"郡山市","address":"待池台"},
{"zip_code":"9638046","kana_pref":"ﾌｸｼﾏｹﾝ","kana_city":"ｺｵﾘﾔﾏｼ","kana_address":"ﾏﾁﾋｶﾞｼ","pref":"福島県","city":"郡山市","address":"町東"},
{"zip_code":"9638812","kana_pref":"ﾌｸｼﾏｹﾝ","kana_city":"ｺｵﾘﾔﾏｼ","kana_address":"ﾏﾂｷﾁｮｳ","pref":"福島県","city":"郡山市","address":"松木町"},
{"zip_code":"9630702","kana_pref":"ﾌｸｼﾏｹﾝ","kana_city":"ｺｵﾘﾔﾏｼ","kana_address":"ﾐﾄﾞﾘｶﾞｵｶﾋｶﾞｼ","pref":"福島県","city":"郡山市","address":"緑ケ丘東"},
{"zip_code":"9630701","kana_pref":"ﾌｸｼﾏｹﾝ","kana_city":"ｺｵﾘﾔﾏｼ","kana_address":"ﾐﾄﾞﾘｶﾞｵｶﾆｼ","pref":"福島県","city":"郡山市","address":"緑ケ丘西"},
{"zip_code":"9638023","kana_pref":"ﾌｸｼﾏｹﾝ","kana_city":"ｺｵﾘﾔﾏｼ","kana_address":"ﾐﾄﾞﾘﾏﾁ","pref":"福島県","city":"郡山市","address":"緑町"},
{"zip_code":"9630115","kana_pref":"ﾌｸｼﾏｹﾝ","kana_city":"ｺｵﾘﾔﾏｼ","kana_address":"ﾐﾅﾐ","pref":"福島県","city":"郡山市","address":"南"},
{"zip_code":"9630127","kana_pref":"ﾌｸｼﾏｹﾝ","kana_city":"ｺｵﾘﾔﾏｼ","kana_address":"ﾐﾎﾀﾏﾁｵｵﾔ","pref":"福島県","city":"郡山市","address":"三穂田町大谷"},
{"zip_code":"9630121","kana_pref":"ﾌｸｼﾏｹﾝ","kana_city":"ｺｵﾘﾔﾏｼ","kana_address":"ﾐﾎﾀﾏﾁｶﾜﾀ","pref":"福島県","city":"郡山市","address":"三穂田町川田"},
{"zip_code":"9630128","kana_pref":"ﾌｸｼﾏｹﾝ","kana_city":"ｺｵﾘﾔﾏｼ","kana_address":"ﾐﾎﾀﾏﾁｺﾏﾔ","pref":"福島県","city":"郡山市","address":"三穂田町駒屋"},
{"zip_code":"9630124","kana_pref":"ﾌｸｼﾏｹﾝ","kana_city":"ｺｵﾘﾔﾏｼ","kana_address":"ﾐﾎﾀﾏﾁｼﾓﾓﾘﾔ","pref":"福島県","city":"郡山市","address":"三穂田町下守屋"},
{"zip_code":"9630125","kana_pref":"ﾌｸｼﾏｹﾝ","kana_city":"ｺｵﾘﾔﾏｼ","kana_address":"ﾐﾎﾀﾏﾁﾄﾐｵｶ","pref":"福島県","city":"郡山市","address":"三穂田町富岡"},
{"zip_code":"9630123","kana_pref":"ﾌｸｼﾏｹﾝ","kana_city":"ｺｵﾘﾔﾏｼ","kana_address":"ﾐﾎﾀﾏﾁﾅﾍﾞﾔﾏ","pref":"福島県","city":"郡山市","address":"三穂田町鍋山"},
{"zip_code":"9630122","kana_pref":"ﾌｸｼﾏｹﾝ","kana_city":"ｺｵﾘﾔﾏｼ","kana_address":"ﾐﾎﾀﾏﾁﾉﾀﾞ","pref":"福島県","city":"郡山市","address":"三穂田町野田"},
{"zip_code":"9630129","kana_pref":"ﾌｸｼﾏｹﾝ","kana_city":"ｺｵﾘﾔﾏｼ","kana_address":"ﾐﾎﾀﾏﾁﾔﾊﾀ","pref":"福島県","city":"郡山市","address":"三穂田町八幡"},
{"zip_code":"9630126","kana_pref":"ﾌｸｼﾏｹﾝ","kana_city":"ｺｵﾘﾔﾏｼ","kana_address":"ﾐﾎﾀﾏﾁﾔﾏｸﾞﾁ","pref":"福島県","city":"郡山市","address":"三穂田町山口"},
{"zip_code":"9638801","kana_pref":"ﾌｸｼﾏｹﾝ","kana_city":"ｺｵﾘﾔﾏｼ","kana_address":"ﾑｶｲｶﾞﾜﾗﾏﾁ","pref":"福島県","city":"郡山市","address":"向河原町"},
{"zip_code":"9630661","kana_pref":"ﾌｸｼﾏｹﾝ","kana_city":"ｺｵﾘﾔﾏｼ","kana_address":"ﾓｳｷﾞﾏﾁ","pref":"福島県","city":"郡山市","address":"舞木町"},
{"zip_code":"9638871","kana_pref":"ﾌｸｼﾏｹﾝ","kana_city":"ｺｵﾘﾔﾏｼ","kana_address":"ﾓﾄﾏﾁ","pref":"福島県","city":"郡山市","address":"本町"},
{"zip_code":"9638018","kana_pref":"ﾌｸｼﾏｹﾝ","kana_city":"ｺｵﾘﾔﾏｼ","kana_address":"ﾓﾓﾐﾀﾞｲ","pref":"福島県","city":"郡山市","address":"桃見台"},
{"zip_code":"9638837","kana_pref":"ﾌｸｼﾏｹﾝ","kana_city":"ｺｵﾘﾔﾏｼ","kana_address":"ﾔｷﾞﾊｼ","pref":"福島県","city":"郡山市","address":"八木橋"},
{"zip_code":"9638802","kana_pref":"ﾌｸｼﾏｹﾝ","kana_city":"ｺｵﾘﾔﾏｼ","kana_address":"ﾔｼﾏﾏﾁ","pref":"福島県","city":"郡山市","address":"谷島町"},
{"zip_code":"9630208","kana_pref":"ﾌｸｼﾏｹﾝ","kana_city":"ｺｵﾘﾔﾏｼ","kana_address":"ﾔｼﾞ","pref":"福島県","city":"郡山市","address":"谷地"},
{"zip_code":"9630666","kana_pref":"ﾌｸｼﾏｹﾝ","kana_city":"ｺｵﾘﾔﾏｼ","kana_address":"ﾔｽﾊﾗﾏﾁ","pref":"福島県","city":"郡山市","address":"安原町"},
{"zip_code":"9638052","kana_pref":"ﾌｸｼﾏｹﾝ","kana_city":"ｺｵﾘﾔﾏｼ","kana_address":"ﾔﾂﾔﾏﾀﾞ","pref":"福島県","city":"郡山市","address":"八山田"},
{"zip_code":"9638841","kana_pref":"ﾌｸｼﾏｹﾝ","kana_city":"ｺｵﾘﾔﾏｼ","kana_address":"ﾔﾏｻﾞｷ","pref":"福島県","city":"郡山市","address":"山崎"},
{"zip_code":"9638832","kana_pref":"ﾌｸｼﾏｹﾝ","kana_city":"ｺｵﾘﾔﾏｼ","kana_address":"ﾔﾏﾈﾏﾁ","pref":"福島県","city":"郡山市","address":"山根町"},
{"zip_code":"9630665","kana_pref":"ﾌｸｼﾏｹﾝ","kana_city":"ｺｵﾘﾔﾏｼ","kana_address":"ﾖｺｶﾜﾏﾁ","pref":"福島県","city":"郡山市","address":"横川町"},
{"zip_code":"9638803","kana_pref":"ﾌｸｼﾏｹﾝ","kana_city":"ｺｵﾘﾔﾏｼ","kana_address":"ﾖｺﾂﾞｶ","pref":"福島県","city":"郡山市","address":"横塚"},
{"zip_code":"9638011","kana_pref":"ﾌｸｼﾏｹﾝ","kana_city":"ｺｵﾘﾔﾏｼ","kana_address":"ﾜｶﾊﾞﾏﾁ","pref":"福島県","city":"郡山市","address":"若葉町"},
{"zip_code":"9634300","kana_pref":"ﾌｸｼﾏｹﾝ","kana_city":"ﾀﾑﾗｼ","kana_address":"","pref":"福島県","city":"田村市","address":""},
{"zip_code":"9634111","kana_pref":"ﾌｸｼﾏｹﾝ","kana_city":"ﾀﾑﾗｼ","kana_address":"ｵｵｺﾞｴﾏﾁｶﾐｵｵｺﾞｴ","pref":"福島県","city":"田村市","address":"大越町上大越"},
{"zip_code":"9634115","kana_pref":"ﾌｸｼﾏｹﾝ","kana_city":"ﾀﾑﾗｼ","kana_address":"ｵｵｺﾞｴﾏﾁｸﾘﾃﾞ","pref":"福島県","city":"田村市","address":"大越町栗出"},
{"zip_code":"9634112","kana_pref":"ﾌｸｼﾏｹﾝ","kana_city":"ﾀﾑﾗｼ","kana_address":"ｵｵｺﾞｴﾏﾁｼﾓｵｵｺﾞｴ","pref":"福島県","city":"田村市","address":"大越町下大越"},
{"zip_code":"9634114","kana_pref":"ﾌｸｼﾏｹﾝ","kana_city":"ﾀﾑﾗｼ","kana_address":"ｵｵｺﾞｴﾏﾁﾏｷﾞﾉ","pref":"福島県","city":"田村市","address":"大越町牧野"},
{"zip_code":"9634113","kana_pref":"ﾌｸｼﾏｹﾝ","kana_city":"ﾀﾑﾗｼ","kana_address":"ｵｵｺﾞｴﾏﾁﾜｾｶﾞﾜ","pref":"福島県","city":"田村市","address":"大越町早稲川"},
{"zip_code":"9633602","kana_pref":"ﾌｸｼﾏｹﾝ","kana_city":"ﾀﾑﾗｼ","kana_address":"ﾀｷﾈﾏﾁｶﾝﾏﾀ","pref":"福島県","city":"田村市","address":"滝根町神俣"},
{"zip_code":"9633601","kana_pref":"ﾌｸｼﾏｹﾝ","kana_city":"ﾀﾑﾗｼ","kana_address":"ﾀｷﾈﾏﾁｽｶﾞﾔ","pref":"福島県","city":"田村市","address":"滝根町菅谷"},
{"zip_code":"9633603","kana_pref":"ﾌｸｼﾏｹﾝ","kana_city":"ﾀﾑﾗｼ","kana_address":"ﾀｷﾈﾏﾁﾋﾛｾ","pref":"福島県","city":"田村市","address":"滝根町広瀬"},
{"zip_code":"9634604","kana_pref":"ﾌｸｼﾏｹﾝ","kana_city":"ﾀﾑﾗｼ","kana_address":"ﾄｷﾜﾏﾁｶﾔﾏ","pref":"福島県","city":"田村市","address":"常葉町鹿山"},
{"zip_code":"9634605","kana_pref":"ﾌｸｼﾏｹﾝ","kana_city":"ﾀﾑﾗｼ","kana_address":"ﾄｷﾜﾏﾁｸﾎﾞ","pref":"福島県","city":"田村市","address":"常葉町久保"},
{"zip_code":"9634614","kana_pref":"ﾌｸｼﾏｹﾝ","kana_city":"ﾀﾑﾗｼ","kana_address":"ﾄｷﾜﾏﾁｺﾋﾞﾔﾏ","pref":"福島県","city":"田村市","address":"常葉町小桧山"},
{"zip_code":"9634613","kana_pref":"ﾌｸｼﾏｹﾝ","kana_city":"ﾀﾑﾗｼ","kana_address":"ﾄｷﾜﾏﾁｾｷﾓﾄ","pref":"福島県","city":"田村市","address":"常葉町関本"},
{"zip_code":"9634602","kana_pref":"ﾌｸｼﾏｹﾝ","kana_city":"ﾀﾑﾗｼ","kana_address":"ﾄｷﾜﾏﾁﾄｷﾜ","pref":"福島県","city":"田村市","address":"常葉町常葉"},
{"zip_code":"9634603","kana_pref":"ﾌｸｼﾏｹﾝ","kana_city":"ﾀﾑﾗｼ","kana_address":"ﾄｷﾜﾏﾁﾆｼﾑｷ","pref":"福島県","city":"田村市","address":"常葉町西向"},
{"zip_code":"9634606","kana_pref":"ﾌｸｼﾏｹﾝ","kana_city":"ﾀﾑﾗｼ","kana_address":"ﾄｷﾜﾏﾁﾆｯﾀｻｸ","pref":"福島県","city":"田村市","address":"常葉町新田作"},
{"zip_code":"9634611","kana_pref":"ﾌｸｼﾏｹﾝ","kana_city":"ﾀﾑﾗｼ","kana_address":"ﾄｷﾜﾏﾁﾎｯﾀ","pref":"福島県","city":"田村市","address":"常葉町堀田"},
{"zip_code":"9634601","kana_pref":"ﾌｸｼﾏｹﾝ","kana_city":"ﾀﾑﾗｼ","kana_address":"ﾄｷﾜﾏﾁﾔﾏﾈ","pref":"福島県","city":"田村市","address":"常葉町山根"},
{"zip_code":"9634612","kana_pref":"ﾌｸｼﾏｹﾝ","kana_city":"ﾀﾑﾗｼ","kana_address":"ﾄｷﾜﾏﾁﾜｾｶﾞﾜ","pref":"福島県","city":"田村市","address":"常葉町早稲川"},
{"zip_code":"9634316","kana_pref":"ﾌｸｼﾏｹﾝ","kana_city":"ﾀﾑﾗｼ","kana_address":"ﾌﾈﾋｷﾏﾁｱｼｻﾞﾜ","pref":"福島県","city":"田村市","address":"船引町芦沢"},
{"zip_code":"9634322","kana_pref":"ﾌｸｼﾏｹﾝ","kana_city":"ﾀﾑﾗｼ","kana_address":"ﾌﾈﾋｷﾏﾁｱﾗﾜﾀ","pref":"福島県","city":"田村市","address":"船引町荒和田"},
{"zip_code":"9634431","kana_pref":"ﾌｸｼﾏｹﾝ","kana_city":"ﾀﾑﾗｼ","kana_address":"ﾌﾈﾋｷﾏﾁｲｼｻﾞﾜ","pref":"福島県","city":"田村市","address":"船引町石沢"},
{"zip_code":"9634313","kana_pref":"ﾌｸｼﾏｹﾝ","kana_city":"ﾀﾑﾗｼ","kana_address":"ﾌﾈﾋｷﾏﾁｲｼﾓﾘ","pref":"福島県","city":"田村市","address":"船引町石森"},
{"zip_code":"9634311","kana_pref":"ﾌｸｼﾏｹﾝ","kana_city":"ﾀﾑﾗｼ","kana_address":"ﾌﾈﾋｷﾏﾁｲﾏｲｽﾞﾐ","pref":"福島県","city":"田村市","address":"船引町今泉"},
{"zip_code":"9634435","kana_pref":"ﾌｸｼﾏｹﾝ","kana_city":"ﾀﾑﾗｼ","kana_address":"ﾌﾈﾋｷﾏﾁｵｵｸﾗ","pref":"福島県","city":"田村市","address":"船引町大倉"},
{"zip_code":"9634203","kana_pref":"ﾌｸｼﾏｹﾝ","kana_city":"ﾀﾑﾗｼ","kana_address":"ﾌﾈﾋｷﾏﾁｶﾄﾞｻﾜ","pref":"福島県","city":"田村市","address":"船引町門沢"},
{"zip_code":"9634434","kana_pref":"ﾌｸｼﾏｹﾝ","kana_city":"ﾀﾑﾗｼ","kana_address":"ﾌﾈﾋｷﾏﾁｶﾄﾞｼｶ","pref":"福島県","city":"田村市","address":"船引町門鹿"},
{"zip_code":"9634323","kana_pref":"ﾌｸｼﾏｹﾝ","kana_city":"ﾀﾑﾗｼ","kana_address":"ﾌﾈﾋｷﾏﾁｶﾅﾒﾀ","pref":"福島県","city":"田村市","address":"船引町要田"},
{"zip_code":"9634541","kana_pref":"ﾌｸｼﾏｹﾝ","kana_city":"ﾀﾑﾗｼ","kana_address":"ﾌﾈﾋｷﾏﾁｶﾐｳﾂｼ","pref":"福島県","city":"田村市","address":"船引町上移"},
{"zip_code":"9634545","kana_pref":"ﾌｸｼﾏｹﾝ","kana_city":"ﾀﾑﾗｼ","kana_address":"ﾌﾈﾋｷﾏﾁｷﾀｳﾂｼ","pref":"福島県","city":"田村市","address":"船引町北移"},
{"zip_code":"9634433","kana_pref":"ﾌｸｼﾏｹﾝ","kana_city":"ﾀﾑﾗｼ","kana_address":"ﾌﾈﾋｷﾏﾁｷﾀｶﾉﾏﾀ","pref":"福島県","city":"田村市","address":"船引町北鹿又"},
{"zip_code":"9634202","kana_pref":"ﾌｸｼﾏｹﾝ","kana_city":"ﾀﾑﾗｼ","kana_address":"ﾌﾈﾋｷﾏﾁｸﾇｷﾞﾔﾏ","pref":"福島県","city":"田村市","address":"船引町椚山"},
{"zip_code":"9634318","kana_pref":"ﾌｸｼﾏｹﾝ","kana_city":"ﾀﾑﾗｼ","kana_address":"ﾌﾈﾋｷﾏﾁｺｳﾖｳﾀﾞｲ","pref":"福島県","city":"田村市","address":"船引町光陽台"},
{"zip_code":"9634321","kana_pref":"ﾌｸｼﾏｹﾝ","kana_city":"ﾀﾑﾗｼ","kana_address":"ﾌﾈﾋｷﾏﾁｻｻﾔﾏ","pref":"福島県","city":"田村市","address":"船引町笹山"},
{"zip_code":"9634317","kana_pref":"ﾌｸｼﾏｹﾝ","kana_city":"ﾀﾑﾗｼ","kana_address":"ﾌﾈﾋｷﾏﾁﾄｳﾌﾞﾀﾞｲ","pref":"福島県","city":"田村市","address":"船引町東部台"},
{"zip_code":"9634205","kana_pref":"ﾌｸｼﾏｹﾝ","kana_city":"ﾀﾑﾗｼ","kana_address":"ﾌﾈﾋｷﾏﾁﾄｵﾔﾏｻﾞﾜ","pref":"福島県","city":"田村市","address":"船引町遠山沢"},
{"zip_code":"9634432","kana_pref":"ﾌｸｼﾏｹﾝ","kana_city":"ﾀﾑﾗｼ","kana_address":"ﾌﾈﾋｷﾏﾁﾅｶﾞﾄﾛ","pref":"福島県","city":"田村市","address":"船引町長外路"},
{"zip_code":"9634201","kana_pref":"ﾌｸｼﾏｹﾝ","kana_city":"ﾀﾑﾗｼ","kana_address":"ﾌﾈﾋｷﾏﾁﾅｶﾞﾔ","pref":"福島県","city":"田村市","address":"船引町永谷"},
{"zip_code":"9634543","kana_pref":"ﾌｸｼﾏｹﾝ","kana_city":"ﾀﾑﾗｼ","kana_address":"ﾌﾈﾋｷﾏﾁﾅｶﾔﾏ","pref":"福島県","city":"田村市","address":"船引町中山"},
{"zip_code":"9634324","kana_pref":"ﾌｸｼﾏｹﾝ","kana_city":"ﾀﾑﾗｼ","kana_address":"ﾌﾈﾋｷﾏﾁﾅﾘﾀ","pref":"福島県","city":"田村市","address":"船引町成田"},
{"zip_code":"9634436","kana_pref":"ﾌｸｼﾏｹﾝ","kana_city":"ﾀﾑﾗｼ","kana_address":"ﾌﾈﾋｷﾏﾁﾆｲﾀﾃ","pref":"福島県","city":"田村市","address":"船引町新舘"},
{"zip_code":"9634315","kana_pref":"ﾌｸｼﾏｹﾝ","kana_city":"ﾀﾑﾗｼ","kana_address":"ﾌﾈﾋｷﾏﾁﾊﾙﾔﾏ","pref":"福島県","city":"田村市","address":"船引町春山"},
{"zip_code":"9634312","kana_pref":"ﾌｸｼﾏｹﾝ","kana_city":"ﾀﾑﾗｼ","kana_address":"ﾌﾈﾋｷﾏﾁﾌﾈﾋｷ","pref":"福島県","city":"田村市","address":"船引町船引"},
{"zip_code":"9634204","kana_pref":"ﾌｸｼﾏｹﾝ","kana_city":"ﾀﾑﾗｼ","kana_address":"ﾌﾈﾋｷﾏﾁﾎﾘｺｼ","pref":"福島県","city":"田村市","address":"船引町堀越"},
{"zip_code":"9634544","kana_pref":"ﾌｸｼﾏｹﾝ","kana_city":"ﾀﾑﾗｼ","kana_address":"ﾌﾈﾋｷﾏﾁﾐﾅﾐｳﾂｼ","pref":"福島県","city":"田村市","address":"船引町南移"},
{"zip_code":"9634314","kana_pref":"ﾌｸｼﾏｹﾝ","kana_city":"ﾀﾑﾗｼ","kana_address":"ﾌﾈﾋｷﾏﾁﾓﾝｼﾞｭ","pref":"福島県","city":"田村市","address":"船引町文珠"},
{"zip_code":"9634542","kana_pref":"ﾌｸｼﾏｹﾝ","kana_city":"ﾀﾑﾗｼ","kana_address":"ﾌﾈﾋｷﾏﾁﾖｺﾐﾁ","pref":"福島県","city":"田村市","address":"船引町横道"},
{"zip_code":"9634702","kana_pref":"ﾌｸｼﾏｹﾝ","kana_city":"ﾀﾑﾗｼ","kana_address":"ﾐﾔｺｼﾞﾏﾁｲﾜｲｻﾞﾜ","pref":"福島県","city":"田村市","address":"都路町岩井沢"},
{"zip_code":"9634701","kana_pref":"ﾌｸｼﾏｹﾝ","kana_city":"ﾀﾑﾗｼ","kana_address":"ﾐﾔｺｼﾞﾏﾁﾌﾙﾐﾁ","pref":"福島県","city":"田村市","address":"都路町古道"},
{"zip_code":"9636100","kana_pref":"ﾌｸｼﾏｹﾝ","kana_city":"ﾋｶﾞｼｼﾗｶﾜｸﾞﾝﾀﾅｸﾞﾗﾏﾁ","kana_address":"","pref":"福島県","city":"東白川郡棚倉町","address":""},
{"zip_code":"9636113","kana_pref":"ﾌｸｼﾏｹﾝ","kana_city":"ﾋｶﾞｼｼﾗｶﾜｸﾞﾝﾀﾅｸﾞﾗﾏﾁ","kana_address":"ｲﾀﾊﾞｼ","pref":"福島県","city":"東白川郡棚倉町","address":"板橋"},
{"zip_code":"9636111","kana_pref":"ﾌｸｼﾏｹﾝ","kana_city":"ﾋｶﾞｼｼﾗｶﾜｸﾞﾝﾀﾅｸﾞﾗﾏﾁ","kana_address":"ｲｯｼｷ","pref":"福島県","city":"東白川郡棚倉町","address":"一色"},
{"zip_code":"9636147","kana_pref":"ﾌｸｼﾏｹﾝ","kana_city":"ﾋｶﾞｼｼﾗｶﾜｸﾞﾝﾀﾅｸﾞﾗﾏﾁ","kana_address":"ｳﾙｼﾉｸｻ","pref":"福島県","city":"東白川郡棚倉町","address":"漆草"},
{"zip_code":"9636114","kana_pref":"ﾌｸｼﾏｹﾝ","kana_city":"ﾋｶﾞｼｼﾗｶﾜｸﾞﾝﾀﾅｸﾞﾗﾏﾁ","kana_address":"ｳﾜﾀﾞｲ","pref":"福島県","city":"東白川郡棚倉町","address":"上台"},
{"zip_code":"9636145","kana_pref":"ﾌｸｼﾏｹﾝ","kana_city":"ﾋｶﾞｼｼﾗｶﾜｸﾞﾝﾀﾅｸﾞﾗﾏﾁ","kana_address":"ｵｵﾒ","pref":"福島県","city":"東白川郡棚倉町","address":"大梅"},
{"zip_code":"9635662","kana_pref":"ﾌｸｼﾏｹﾝ","kana_city":"ﾋｶﾞｼｼﾗｶﾜｸﾞﾝﾀﾅｸﾞﾗﾏﾁ","kana_address":"ｵｶﾀﾞ","pref":"福島県","city":"東白川郡棚倉町","address":"岡田"},
{"zip_code":"9636106","kana_pref":"ﾌｸｼﾏｹﾝ","kana_city":"ﾋｶﾞｼｼﾗｶﾜｸﾞﾝﾀﾅｸﾞﾗﾏﾁ","kana_address":"ｶﾅｻﾞﾜｳﾁ","pref":"福島県","city":"東白川郡棚倉町","address":"金沢内"},
{"zip_code":"9635681","kana_pref":"ﾌｸｼﾏｹﾝ","kana_city":"ﾋｶﾞｼｼﾗｶﾜｸﾞﾝﾀﾅｸﾞﾗﾏﾁ","kana_address":"ｶﾐﾃｻﾞﾜ","pref":"福島県","city":"東白川郡棚倉町","address":"上手沢"},
{"zip_code":"9635685","kana_pref":"ﾌｸｼﾏｹﾝ","kana_city":"ﾋｶﾞｼｼﾗｶﾜｸﾞﾝﾀﾅｸﾞﾗﾏﾁ","kana_address":"ｷﾀﾔﾏﾓﾄ","pref":"福島県","city":"東白川郡棚倉町","address":"北山本"},
{"zip_code":"9636105","kana_pref":"ﾌｸｼﾏｹﾝ","kana_city":"ﾋｶﾞｼｼﾗｶﾜｸﾞﾝﾀﾅｸﾞﾗﾏﾁ","kana_address":"ｺｽｺﾞｳ","pref":"福島県","city":"東白川郡棚倉町","address":"小菅生"},
{"zip_code":"9636152","kana_pref":"ﾌｸｼﾏｹﾝ","kana_city":"ﾋｶﾞｼｼﾗｶﾜｸﾞﾝﾀﾅｸﾞﾗﾏﾁ","kana_address":"ｺﾂﾞﾒ","pref":"福島県","city":"東白川郡棚倉町","address":"小爪"},
{"zip_code":"9636144","kana_pref":"ﾌｸｼﾏｹﾝ","kana_city":"ﾋｶﾞｼｼﾗｶﾜｸﾞﾝﾀﾅｸﾞﾗﾏﾁ","kana_address":"ｺﾜﾅｼ","pref":"福島県","city":"東白川郡棚倉町","address":"強梨"},
{"zip_code":"9636103","kana_pref":"ﾌｸｼﾏｹﾝ","kana_city":"ﾋｶﾞｼｼﾗｶﾜｸﾞﾝﾀﾅｸﾞﾗﾏﾁ","kana_address":"ｻｶｻｶﾞﾜ","pref":"福島県","city":"東白川郡棚倉町","address":"逆川"},
{"zip_code":"9635682","kana_pref":"ﾌｸｼﾏｹﾝ","kana_city":"ﾋｶﾞｼｼﾗｶﾜｸﾞﾝﾀﾅｸﾞﾗﾏﾁ","kana_address":"ｼﾓﾃｻﾞﾜ","pref":"福島県","city":"東白川郡棚倉町","address":"下手沢"},
{"zip_code":"9635683","kana_pref":"ﾌｸｼﾏｹﾝ","kana_city":"ﾋｶﾞｼｼﾗｶﾜｸﾞﾝﾀﾅｸﾞﾗﾏﾁ","kana_address":"ｼﾓﾔﾏﾓﾄ","pref":"福島県","city":"東白川郡棚倉町","address":"下山本"},
{"zip_code":"9636153","kana_pref":"ﾌｸｼﾏｹﾝ","kana_city":"ﾋｶﾞｼｼﾗｶﾜｸﾞﾝﾀﾅｸﾞﾗﾏﾁ","kana_address":"ｾｶﾞﾉ","pref":"福島県","city":"東白川郡棚倉町","address":"瀬ケ野"},
{"zip_code":"9636123","kana_pref":"ﾌｸｼﾏｹﾝ","kana_city":"ﾋｶﾞｼｼﾗｶﾜｸﾞﾝﾀﾅｸﾞﾗﾏﾁ","kana_address":"ｾｷｸﾞﾁ","pref":"福島県","city":"東白川郡棚倉町","address":"関口"},
{"zip_code":"9636131","kana_pref":"ﾌｸｼﾏｹﾝ","kana_city":"ﾋｶﾞｼｼﾗｶﾜｸﾞﾝﾀﾅｸﾞﾗﾏﾁ","kana_address":"ﾀﾅｸﾞﾗ","pref":"福島県","city":"東白川郡棚倉町","address":"棚倉"},
{"zip_code":"9636112","kana_pref":"ﾌｸｼﾏｹﾝ","kana_city":"ﾋｶﾞｼｼﾗｶﾜｸﾞﾝﾀﾅｸﾞﾗﾏﾁ","kana_address":"ﾀﾏﾉ","pref":"福島県","city":"東白川郡棚倉町","address":"玉野"},
{"zip_code":"9635664","kana_pref":"ﾌｸｼﾏｹﾝ","kana_city":"ﾋｶﾞｼｼﾗｶﾜｸﾞﾝﾀﾅｸﾞﾗﾏﾁ","kana_address":"ﾂｶﾊﾗ","pref":"福島県","city":"東白川郡棚倉町","address":"塚原"},
{"zip_code":"9636101","kana_pref":"ﾌｸｼﾏｹﾝ","kana_city":"ﾋｶﾞｼｼﾗｶﾜｸﾞﾝﾀﾅｸﾞﾗﾏﾁ","kana_address":"ﾂﾂﾐ","pref":"福島県","city":"東白川郡棚倉町","address":"堤"},
{"zip_code":"9635671","kana_pref":"ﾌｸｼﾏｹﾝ","kana_city":"ﾋｶﾞｼｼﾗｶﾜｸﾞﾝﾀﾅｸﾞﾗﾏﾁ","kana_address":"ﾃﾗﾔﾏ","pref":"福島県","city":"東白川郡棚倉町","address":"寺山"},
{"zip_code":"9636102","kana_pref":"ﾌｸｼﾏｹﾝ","kana_city":"ﾋｶﾞｼｼﾗｶﾜｸﾞﾝﾀﾅｸﾞﾗﾏﾁ","kana_address":"ﾃﾝﾉｳﾁ","pref":"福島県","city":"東白川郡棚倉町","address":"天王内"},
{"zip_code":"9636146","kana_pref":"ﾌｸｼﾏｹﾝ","kana_city":"ﾋｶﾞｼｼﾗｶﾜｸﾞﾝﾀﾅｸﾞﾗﾏﾁ","kana_address":"ﾄﾁｭｳ","pref":"福島県","city":"東白川郡棚倉町","address":"戸中"},
{"zip_code":"9636141","kana_pref":"ﾌｸｼﾏｹﾝ","kana_city":"ﾋｶﾞｼｼﾗｶﾜｸﾞﾝﾀﾅｸﾞﾗﾏﾁ","kana_address":"ﾄﾐｵｶ","pref":"福島県","city":"東白川郡棚倉町","address":"富岡"},
{"zip_code":"9635684","kana_pref":"ﾌｸｼﾏｹﾝ","kana_city":"ﾋｶﾞｼｼﾗｶﾜｸﾞﾝﾀﾅｸﾞﾗﾏﾁ","kana_address":"ﾅｶﾔﾏﾓﾄ","pref":"福島県","city":"東白川郡棚倉町","address":"中山本"},
{"zip_code":"9635663","kana_pref":"ﾌｸｼﾏｹﾝ","kana_city":"ﾋｶﾞｼｼﾗｶﾜｸﾞﾝﾀﾅｸﾞﾗﾏﾁ","kana_address":"ﾅｶﾞﾚ","pref":"福島県","city":"東白川郡棚倉町","address":"流"},
{"zip_code":"9636122","kana_pref":"ﾌｸｼﾏｹﾝ","kana_city":"ﾋｶﾞｼｼﾗｶﾜｸﾞﾝﾀﾅｸﾞﾗﾏﾁ","kana_address":"ﾆｺｳｷﾞ","pref":"福島県","city":"東白川郡棚倉町","address":"仁公儀"},
{"zip_code":"9636121","kana_pref":"ﾌｸｼﾏｹﾝ","kana_city":"ﾋｶﾞｼｼﾗｶﾜｸﾞﾝﾀﾅｸﾞﾗﾏﾁ","kana_address":"ﾊﾅｿﾞﾉ","pref":"福島県","city":"東白川郡棚倉町","address":"花園"},
{"zip_code":"9636104","kana_pref":"ﾌｸｼﾏｹﾝ","kana_city":"ﾋｶﾞｼｼﾗｶﾜｸﾞﾝﾀﾅｸﾞﾗﾏﾁ","kana_address":"ﾋﾉｷ","pref":"福島県","city":"東白川郡棚倉町","address":"檜木"},
{"zip_code":"9636115","kana_pref":"ﾌｸｼﾏｹﾝ","kana_city":"ﾋｶﾞｼｼﾗｶﾜｸﾞﾝﾀﾅｸﾞﾗﾏﾁ","kana_address":"ﾌｸｲ","pref":"福島県","city":"東白川郡棚倉町","address":"福井"},
{"zip_code":"9636143","kana_pref":"ﾌｸｼﾏｹﾝ","kana_city":"ﾋｶﾞｼｼﾗｶﾜｸﾞﾝﾀﾅｸﾞﾗﾏﾁ","kana_address":"ﾌｸｵｶ","pref":"福島県","city":"東白川郡棚倉町","address":"福岡"},
{"zip_code":"9636151","kana_pref":"ﾌｸｼﾏｹﾝ","kana_city":"ﾋｶﾞｼｼﾗｶﾜｸﾞﾝﾀﾅｸﾞﾗﾏﾁ","kana_address":"ﾎｳﾘｳｼﾞ","pref":"福島県","city":"東白川郡棚倉町","address":"祝部内"},
{"zip_code":"9635672","kana_pref":"ﾌｸｼﾏｹﾝ","kana_city":"ﾋｶﾞｼｼﾗｶﾜｸﾞﾝﾀﾅｸﾞﾗﾏﾁ","kana_address":"ﾔﾂｷ","pref":"福島県","city":"東白川郡棚倉町","address":"八槻"},
{"zip_code":"9636142","kana_pref":"ﾌｸｼﾏｹﾝ","kana_city":"ﾋｶﾞｼｼﾗｶﾜｸﾞﾝﾀﾅｸﾞﾗﾏﾁ","kana_address":"ﾔﾏｷﾞﾜ","pref":"福島県","city":"東白川郡棚倉町","address":"山際"},
{"zip_code":"9635661","kana_pref":"ﾌｸｼﾏｹﾝ","kana_city":"ﾋｶﾞｼｼﾗｶﾜｸﾞﾝﾀﾅｸﾞﾗﾏﾁ","kana_address":"ﾔﾏﾀﾞ","pref":"福島県","city":"東白川郡棚倉町","address":"山田"},
{"zip_code":"9635100","kana_pref":"ﾌｸｼﾏｹﾝ","kana_city":"ﾋｶﾞｼｼﾗｶﾜｸﾞﾝﾔﾏﾂﾘﾏﾁ","kana_address":"","pref":"福島県","city":"東白川郡矢祭町","address":""},
{"zip_code":"9635322","kana_pref":"ﾌｸｼﾏｹﾝ","kana_city":"ﾋｶﾞｼｼﾗｶﾜｸﾞﾝﾔﾏﾂﾘﾏﾁ","kana_address":"ｳﾁｶﾜ","pref":"福島県","city":"東白川郡矢祭町","address":"内川"},
{"zip_code":"9635114","kana_pref":"ﾌｸｼﾏｹﾝ","kana_city":"ﾋｶﾞｼｼﾗｶﾜｸﾞﾝﾔﾏﾂﾘﾏﾁ","kana_address":"ｵｵﾇｶﾘ","pref":"福島県","city":"東白川郡矢祭町","address":"大ぬかり"},
{"zip_code":"9635119","kana_pref":"ﾌｸｼﾏｹﾝ","kana_city":"ﾋｶﾞｼｼﾗｶﾜｸﾞﾝﾔﾏﾂﾘﾏﾁ","kana_address":"ｵﾀﾞｶﾞﾜ","pref":"福島県","city":"東白川郡矢祭町","address":"小田川"},
{"zip_code":"9635111","kana_pref":"ﾌｸｼﾏｹﾝ","kana_city":"ﾋｶﾞｼｼﾗｶﾜｸﾞﾝﾔﾏﾂﾘﾏﾁ","kana_address":"ｶﾈｻﾞﾜ","pref":"福島県","city":"東白川郡矢祭町","address":"金沢"},
{"zip_code":"9635115","kana_pref":"ﾌｸｼﾏｹﾝ","kana_city":"ﾋｶﾞｼｼﾗｶﾜｸﾞﾝﾔﾏﾂﾘﾏﾁ","kana_address":"ｶﾐｾｷｺﾞｳﾄﾞ","pref":"福島県","city":"東白川郡矢祭町","address":"上関河内"},
{"zip_code":"9635116","kana_pref":"ﾌｸｼﾏｹﾝ","kana_city":"ﾋｶﾞｼｼﾗｶﾜｸﾞﾝﾔﾏﾂﾘﾏﾁ","kana_address":"ｺｳﾔ","pref":"福島県","city":"東白川郡矢祭町","address":"高野"},
{"zip_code":"9635202","kana_pref":"ﾌｸｼﾏｹﾝ","kana_city":"ﾋｶﾞｼｼﾗｶﾜｸﾞﾝﾔﾏﾂﾘﾏﾁ","kana_address":"ｼﾓｲｼｲ","pref":"福島県","city":"東白川郡矢祭町","address":"下石井"},
{"zip_code":"9635113","kana_pref":"ﾌｸｼﾏｹﾝ","kana_city":"ﾋｶﾞｼｼﾗｶﾜｸﾞﾝﾔﾏﾂﾘﾏﾁ","kana_address":"ｼﾓｾｷｺﾞｳﾄﾞ","pref":"福島県","city":"東白川郡矢祭町","address":"下関河内"},
{"zip_code":"9635321","kana_pref":"ﾌｸｼﾏｹﾝ","kana_city":"ﾋｶﾞｼｼﾗｶﾜｸﾞﾝﾔﾏﾂﾘﾏﾁ","kana_address":"ｾｷｵｶ","pref":"福島県","city":"東白川郡矢祭町","address":"関岡"},
{"zip_code":"9635203","kana_pref":"ﾌｸｼﾏｹﾝ","kana_city":"ﾋｶﾞｼｼﾗｶﾜｸﾞﾝﾔﾏﾂﾘﾏﾁ","kana_address":"ﾄﾂｶ","pref":"福島県","city":"東白川郡矢祭町","address":"戸塚"},
{"zip_code":"9635201","kana_pref":"ﾌｸｼﾏｹﾝ","kana_city":"ﾋｶﾞｼｼﾗｶﾜｸﾞﾝﾔﾏﾂﾘﾏﾁ","kana_address":"ﾅｶｲｼｲ","pref":"福島県","city":"東白川郡矢祭町","address":"中石井"},
{"zip_code":"9635118","kana_pref":"ﾌｸｼﾏｹﾝ","kana_city":"ﾋｶﾞｼｼﾗｶﾜｸﾞﾝﾔﾏﾂﾘﾏﾁ","kana_address":"ﾋｶﾞｼﾀﾃ","pref":"福島県","city":"東白川郡矢祭町","address":"東舘"},
{"zip_code":"9635112","kana_pref":"ﾌｸｼﾏｹﾝ","kana_city":"ﾋｶﾞｼｼﾗｶﾜｸﾞﾝﾔﾏﾂﾘﾏﾁ","kana_address":"ﾎｳｻﾞｶ","pref":"福島県","city":"東白川郡矢祭町","address":"宝坂"},
{"zip_code":"9635323","kana_pref":"ﾌｸｼﾏｹﾝ","kana_city":"ﾋｶﾞｼｼﾗｶﾜｸﾞﾝﾔﾏﾂﾘﾏﾁ","kana_address":"ﾐｮｳｶﾞ","pref":"福島県","city":"東白川郡矢祭町","address":"茗荷"},
{"zip_code":"9635117","kana_pref":"ﾌｸｼﾏｹﾝ","kana_city":"ﾋｶﾞｼｼﾗｶﾜｸﾞﾝﾔﾏﾂﾘﾏﾁ","kana_address":"ﾔﾏｼﾀ","pref":"福島県","city":"東白川郡矢祭町","address":"山下"},
{"zip_code":"9635400","kana_pref":"ﾌｸｼﾏｹﾝ","kana_city":"ﾋｶﾞｼｼﾗｶﾜｸﾞﾝﾊﾅﾜﾏﾁ","kana_address":"","pref":"福島県","city":"東白川郡塙町","address":""},
{"zip_code":"9635342","kana_pref":"ﾌｸｼﾏｹﾝ","kana_city":"ﾋｶﾞｼｼﾗｶﾜｸﾞﾝﾊﾅﾜﾏﾁ","kana_address":"ｲｺｳ","pref":"福島県","city":"東白川郡塙町","address":"伊香"},
{"zip_code":"9635537","kana_pref":"ﾌｸｼﾏｹﾝ","kana_city":"ﾋｶﾞｼｼﾗｶﾜｸﾞﾝﾊﾅﾜﾏﾁ","kana_address":"ｲﾀﾆﾜ","pref":"福島県","city":"東白川郡塙町","address":"板庭"},
{"zip_code":"9635343","kana_pref":"ﾌｸｼﾏｹﾝ","kana_city":"ﾋｶﾞｼｼﾗｶﾜｸﾞﾝﾊﾅﾜﾏﾁ","kana_address":"ｳｴﾀﾞ","pref":"福島県","city":"東白川郡塙町","address":"植田"},
{"zip_code":"9635532","kana_pref":"ﾌｸｼﾏｹﾝ","kana_city":"ﾋｶﾞｼｼﾗｶﾜｸﾞﾝﾊﾅﾜﾏﾁ","kana_address":"ｵｵﾜﾗﾋﾞ","pref":"福島県","city":"東白川郡塙町","address":"大蕨"},
{"zip_code":"9635522","kana_pref":"ﾌｸｼﾏｹﾝ","kana_city":"ﾋｶﾞｼｼﾗｶﾜｸﾞﾝﾊﾅﾜﾏﾁ","kana_address":"ｶﾀｶｲ","pref":"福島県","city":"東白川郡塙町","address":"片貝"},
{"zip_code":"9635411","kana_pref":"ﾌｸｼﾏｹﾝ","kana_city":"ﾋｶﾞｼｼﾗｶﾜｸﾞﾝﾊﾅﾜﾏﾁ","kana_address":"ｶﾐｲｼｲ","pref":"福島県","city":"東白川郡塙町","address":"上石井"},
{"zip_code":"9635406","kana_pref":"ﾌｸｼﾏｹﾝ","kana_city":"ﾋｶﾞｼｼﾗｶﾜｸﾞﾝﾊﾅﾜﾏﾁ","kana_address":"ｶﾐｼﾌﾞｲ","pref":"福島県","city":"東白川郡塙町","address":"上渋井"},
{"zip_code":"9635536","kana_pref":"ﾌｸｼﾏｹﾝ","kana_city":"ﾋｶﾞｼｼﾗｶﾜｸﾞﾝﾊﾅﾜﾏﾁ","kana_address":"ｶﾜｶﾐ","pref":"福島県","city":"東白川郡塙町","address":"川上"},
{"zip_code":"9635534","kana_pref":"ﾌｸｼﾏｹﾝ","kana_city":"ﾋｶﾞｼｼﾗｶﾜｸﾞﾝﾊﾅﾜﾏﾁ","kana_address":"ｷﾉｿﾘ","pref":"福島県","city":"東白川郡塙町","address":"木野反"},
{"zip_code":"9635341","kana_pref":"ﾌｸｼﾏｹﾝ","kana_city":"ﾋｶﾞｼｼﾗｶﾜｸﾞﾝﾊﾅﾜﾏﾁ","kana_address":"ﾀﾞｲｼﾞｭｸ","pref":"福島県","city":"東白川郡塙町","address":"台宿"},
{"zip_code":"9635404","kana_pref":"ﾌｸｼﾏｹﾝ","kana_city":"ﾋｶﾞｼｼﾗｶﾜｸﾞﾝﾊﾅﾜﾏﾁ","kana_address":"ﾀｹﾉｳﾁ","pref":"福島県","city":"東白川郡塙町","address":"竹之内"},
{"zip_code":"9635531","kana_pref":"ﾌｸｼﾏｹﾝ","kana_city":"ﾋｶﾞｼｼﾗｶﾜｸﾞﾝﾊﾅﾜﾏﾁ","kana_address":"ﾀｼﾛ","pref":"福島県","city":"東白川郡塙町","address":"田代"},
{"zip_code":"9635539","kana_pref":"ﾌｸｼﾏｹﾝ","kana_city":"ﾋｶﾞｼｼﾗｶﾜｸﾞﾝﾊﾅﾜﾏﾁ","kana_address":"ﾀﾉｻｸ","pref":"福島県","city":"東白川郡塙町","address":"田野作"},
{"zip_code":"9635402","kana_pref":"ﾌｸｼﾏｹﾝ","kana_city":"ﾋｶﾞｼｼﾗｶﾜｸﾞﾝﾊﾅﾜﾏﾁ","kana_address":"ﾄｺﾖｷﾀﾉ","pref":"福島県","city":"東白川郡塙町","address":"常世北野"},
{"zip_code":"9635403","kana_pref":"ﾌｸｼﾏｹﾝ","kana_city":"ﾋｶﾞｼｼﾗｶﾜｸﾞﾝﾊﾅﾜﾏﾁ","kana_address":"ﾄｺﾖﾅｶﾉ","pref":"福島県","city":"東白川郡塙町","address":"常世中野"},
{"zip_code":"9635538","kana_pref":"ﾌｸｼﾏｹﾝ","kana_city":"ﾋｶﾞｼｼﾗｶﾜｸﾞﾝﾊﾅﾜﾏﾁ","kana_address":"ﾅｶﾂｶ","pref":"福島県","city":"東白川郡塙町","address":"中塚"},
{"zip_code":"9635521","kana_pref":"ﾌｸｼﾏｹﾝ","kana_city":"ﾋｶﾞｼｼﾗｶﾜｸﾞﾝﾊﾅﾜﾏﾁ","kana_address":"ﾅｸﾞﾗ","pref":"福島県","city":"東白川郡塙町","address":"那倉"},
{"zip_code":"9635407","kana_pref":"ﾌｸｼﾏｹﾝ","kana_city":"ﾋｶﾞｼｼﾗｶﾜｸﾞﾝﾊﾅﾜﾏﾁ","kana_address":"ﾆｼｺﾞｳﾄﾞ","pref":"福島県","city":"東白川郡塙町","address":"西河内"},
{"zip_code":"9635405","kana_pref":"ﾌｸｼﾏｹﾝ","kana_city":"ﾋｶﾞｼｼﾗｶﾜｸﾞﾝﾊﾅﾜﾏﾁ","kana_address":"ﾊﾅﾜ","pref":"福島県","city":"東白川郡塙町","address":"塙"},
{"zip_code":"9635401","kana_pref":"ﾌｸｼﾏｹﾝ","kana_city":"ﾋｶﾞｼｼﾗｶﾜｸﾞﾝﾊﾅﾜﾏﾁ","kana_address":"ﾋｶﾞｼｺﾞｳﾄﾞ","pref":"福島県","city":"東白川郡塙町","address":"東河内"},
{"zip_code":"9635408","kana_pref":"ﾌｸｼﾏｹﾝ","kana_city":"ﾋｶﾞｼｼﾗｶﾜｸﾞﾝﾊﾅﾜﾏﾁ","kana_address":"ﾎﾘｺﾞｼ","pref":"福島県","city":"東白川郡塙町","address":"堀越"},
{"zip_code":"9635344","kana_pref":"ﾌｸｼﾏｹﾝ","kana_city":"ﾋｶﾞｼｼﾗｶﾜｸﾞﾝﾊﾅﾜﾏﾁ","kana_address":"ﾏﾅﾊﾀ","pref":"福島県","city":"東白川郡塙町","address":"真名畑"},
{"zip_code":"9635535","kana_pref":"ﾌｸｼﾏｹﾝ","kana_city":"ﾋｶﾞｼｼﾗｶﾜｸﾞﾝﾊﾅﾜﾏﾁ","kana_address":"ﾔﾏｶﾞﾀ","pref":"福島県","city":"東白川郡塙町","address":"山形"},
{"zip_code":"9635533","kana_pref":"ﾌｸｼﾏｹﾝ","kana_city":"ﾋｶﾞｼｼﾗｶﾜｸﾞﾝﾊﾅﾜﾏﾁ","kana_address":"ﾕｼﾞﾏﾀ","pref":"福島県","city":"東白川郡塙町","address":"湯岐"},
{"zip_code":"9638400","kana_pref":"ﾌｸｼﾏｹﾝ","kana_city":"ﾋｶﾞｼｼﾗｶﾜｸﾞﾝｻﾒｶﾞﾜﾑﾗ","kana_address":"","pref":"福島県","city":"東白川郡鮫川村","address":""},
{"zip_code":"9638401","kana_pref":"ﾌｸｼﾏｹﾝ","kana_city":"ﾋｶﾞｼｼﾗｶﾜｸﾞﾝｻﾒｶﾞﾜﾑﾗ","kana_address":"ｱｶｻｶﾅｶﾉ","pref":"福島県","city":"東白川郡鮫川村","address":"赤坂中野"},
{"zip_code":"9638403","kana_pref":"ﾌｸｼﾏｹﾝ","kana_city":"ﾋｶﾞｼｼﾗｶﾜｸﾞﾝｻﾒｶﾞﾜﾑﾗ","kana_address":"ｱｶｻｶﾋｶﾞｼﾉ","pref":"福島県","city":"東白川郡鮫川村","address":"赤坂東野"},
{"zip_code":"9638407","kana_pref":"ﾌｸｼﾏｹﾝ","kana_city":"ﾋｶﾞｼｼﾗｶﾜｸﾞﾝｻﾒｶﾞﾜﾑﾗ","kana_address":"ｱｶｻｶﾆｼﾉ","pref":"福島県","city":"東白川郡鮫川村","address":"赤坂西野"},
{"zip_code":"9638402","kana_pref":"ﾌｸｼﾏｹﾝ","kana_city":"ﾋｶﾞｼｼﾗｶﾜｸﾞﾝｻﾒｶﾞﾜﾑﾗ","kana_address":"ｲｼｲｸｻ","pref":"福島県","city":"東白川郡鮫川村","address":"石井草"},
{"zip_code":"9638406","kana_pref":"ﾌｸｼﾏｹﾝ","kana_city":"ﾋｶﾞｼｼﾗｶﾜｸﾞﾝｻﾒｶﾞﾜﾑﾗ","kana_address":"ﾄﾐﾀ","pref":"福島県","city":"東白川郡鮫川村","address":"富田"},
{"zip_code":"9638408","kana_pref":"ﾌｸｼﾏｹﾝ","kana_city":"ﾋｶﾞｼｼﾗｶﾜｸﾞﾝｻﾒｶﾞﾜﾑﾗ","kana_address":"ﾆｼﾔﾏ","pref":"福島県","city":"東白川郡鮫川村","address":"西山"},
{"zip_code":"9638404","kana_pref":"ﾌｸｼﾏｹﾝ","kana_city":"ﾋｶﾞｼｼﾗｶﾜｸﾞﾝｻﾒｶﾞﾜﾑﾗ","kana_address":"ﾜﾀﾗｾ","pref":"福島県","city":"東白川郡鮫川村","address":"渡瀬"},
{"zip_code":"9635505","kana_pref":"ﾌｸｼﾏｹﾝ","kana_city":"ﾋｶﾞｼｼﾗｶﾜｸﾞﾝｻﾒｶﾞﾜﾑﾗ","kana_address":"ﾜﾀﾗｾ","pref":"福島県","city":"東白川郡鮫川村","address":"渡瀬"},
{"zip_code":"9638405","kana_pref":"ﾌｸｼﾏｹﾝ","kana_city":"ﾋｶﾞｼｼﾗｶﾜｸﾞﾝｻﾒｶﾞﾜﾑﾗ","kana_address":"ﾜﾀﾗｾ","pref":"福島県","city":"東白川郡鮫川村","address":"渡瀬"},
{"zip_code":"9637800","kana_pref":"ﾌｸｼﾏｹﾝ","kana_city":"ｲｼｶﾜｸﾞﾝｲｼｶﾜﾏﾁ","kana_address":"","pref":"福島県","city":"石川郡石川町","address":""},
{"zip_code":"9637826","kana_pref":"ﾌｸｼﾏｹﾝ","kana_city":"ｲｼｶﾜｸﾞﾝｲｼｶﾜﾏﾁ","kana_address":"ｱｶﾊﾞﾈ","pref":"福島県","city":"石川郡石川町","address":"赤羽"},
{"zip_code":"9637864","kana_pref":"ﾌｸｼﾏｹﾝ","kana_city":"ｲｼｶﾜｸﾞﾝｲｼｶﾜﾏﾁ","kana_address":"ｱｷﾀﾞｲ","pref":"福島県","city":"石川郡石川町","address":"秋台"},
{"zip_code":"9637884","kana_pref":"ﾌｸｼﾏｹﾝ","kana_city":"ｲｼｶﾜｸﾞﾝｲｼｶﾜﾏﾁ","kana_address":"ｱﾗﾔｼｷ","pref":"福島県","city":"石川郡石川町","address":"新屋敷"},
{"zip_code":"9637827","kana_pref":"ﾌｸｼﾏｹﾝ","kana_city":"ｲｼｶﾜｸﾞﾝｲｼｶﾜﾏﾁ","kana_address":"ｱﾗﾔｼｷ","pref":"福島県","city":"石川郡石川町","address":"新屋敷"},
{"zip_code":"9637833","kana_pref":"ﾌｸｼﾏｹﾝ","kana_city":"ｲｼｶﾜｸﾞﾝｲｼｶﾜﾏﾁ","kana_address":"ｲｼﾀﾞ","pref":"福島県","city":"石川郡石川町","address":"石田"},
{"zip_code":"9637867","kana_pref":"ﾌｸｼﾏｹﾝ","kana_city":"ｲｼｶﾜｸﾞﾝｲｼｶﾜﾏﾁ","kana_address":"ｲｼﾂﾞｶ","pref":"福島県","city":"石川郡石川町","address":"石塚"},
{"zip_code":"9637813","kana_pref":"ﾌｸｼﾏｹﾝ","kana_city":"ｲｼｶﾜｸﾞﾝｲｼｶﾜﾏﾁ","kana_address":"ｲﾀﾊﾞｼ","pref":"福島県","city":"石川郡石川町","address":"板橋"},
{"zip_code":"9637849","kana_pref":"ﾌｸｼﾏｹﾝ","kana_city":"ｲｼｶﾜｸﾞﾝｲｼｶﾜﾏﾁ","kana_address":"ｲﾁﾉｻﾜ","pref":"福島県","city":"石川郡石川町","address":"一ノ沢"},
{"zip_code":"9637841","kana_pref":"ﾌｸｼﾏｹﾝ","kana_city":"ｲｼｶﾜｸﾞﾝｲｼｶﾜﾏﾁ","kana_address":"ｴﾎﾘﾀﾞ","pref":"福島県","city":"石川郡石川町","address":"江堀田"},
{"zip_code":"9637823","kana_pref":"ﾌｸｼﾏｹﾝ","kana_city":"ｲｼｶﾜｸﾞﾝｲｼｶﾜﾏﾁ","kana_address":"ｵｳｼﾞﾀﾞｲﾗ","pref":"福島県","city":"石川郡石川町","address":"王子平"},
{"zip_code":"9637872","kana_pref":"ﾌｸｼﾏｹﾝ","kana_city":"ｲｼｶﾜｸﾞﾝｲｼｶﾜﾏﾁ","kana_address":"ｵｵｳﾁ","pref":"福島県","city":"石川郡石川町","address":"大内"},
{"zip_code":"9637815","kana_pref":"ﾌｸｼﾏｹﾝ","kana_city":"ｲｼｶﾜｸﾞﾝｲｼｶﾜﾏﾁ","kana_address":"ｵｵｻﾜ","pref":"福島県","city":"石川郡石川町","address":"大沢"},
{"zip_code":"9637881","kana_pref":"ﾌｸｼﾏｹﾝ","kana_city":"ｲｼｶﾜｸﾞﾝｲｼｶﾜﾏﾁ","kana_address":"ｵｵﾊｼ","pref":"福島県","city":"石川郡石川町","address":"大橋"},
{"zip_code":"9637853","kana_pref":"ﾌｸｼﾏｹﾝ","kana_city":"ｲｼｶﾜｸﾞﾝｲｼｶﾜﾏﾁ","kana_address":"ｵｵﾑﾛ","pref":"福島県","city":"石川郡石川町","address":"大室"},
{"zip_code":"9637848","kana_pref":"ﾌｸｼﾏｹﾝ","kana_city":"ｲｼｶﾜｸﾞﾝｲｼｶﾜﾏﾁ","kana_address":"ｵｻｺﾞｳﾀﾞ","pref":"福島県","city":"石川郡石川町","address":"長郷田"},
{"zip_code":"9637807","kana_pref":"ﾌｸｼﾏｹﾝ","kana_city":"ｲｼｶﾜｸﾞﾝｲｼｶﾜﾏﾁ","kana_address":"ｶﾀﾐ","pref":"福島県","city":"石川郡石川町","address":"形見"},
{"zip_code":"9637862","kana_pref":"ﾌｸｼﾏｹﾝ","kana_city":"ｲｼｶﾜｸﾞﾝｲｼｶﾜﾏﾁ","kana_address":"ｶﾉｻｶ","pref":"福島県","city":"石川郡石川町","address":"鹿ノ坂"},
{"zip_code":"9637844","kana_pref":"ﾌｸｼﾏｹﾝ","kana_city":"ｲｼｶﾜｸﾞﾝｲｼｶﾜﾏﾁ","kana_address":"ｷﾀﾏﾁ","pref":"福島県","city":"石川郡石川町","address":"北町"},
{"zip_code":"9637802","kana_pref":"ﾌｸｼﾏｹﾝ","kana_city":"ｲｼｶﾜｸﾞﾝｲｼｶﾜﾏﾁ","kana_address":"ｷﾀﾔﾏ","pref":"福島県","city":"石川郡石川町","address":"北山"},
{"zip_code":"9637811","kana_pref":"ﾌｸｼﾏｹﾝ","kana_city":"ｲｼｶﾜｸﾞﾝｲｼｶﾜﾏﾁ","kana_address":"ｷﾀﾔﾏｶﾞﾀ","pref":"福島県","city":"石川郡石川町","address":"北山形"},
{"zip_code":"9637835","kana_pref":"ﾌｸｼﾏｹﾝ","kana_city":"ｲｼｶﾜｸﾞﾝｲｼｶﾜﾏﾁ","kana_address":"ｸｻｸﾗﾀﾞ","pref":"福島県","city":"石川郡石川町","address":"草倉田"},
{"zip_code":"9637834","kana_pref":"ﾌｸｼﾏｹﾝ","kana_city":"ｲｼｶﾜｸﾞﾝｲｼｶﾜﾏﾁ","kana_address":"ｸﾂﾜﾄﾞﾘ","pref":"福島県","city":"石川郡石川町","address":"轡取"},
{"zip_code":"9637876","kana_pref":"ﾌｸｼﾏｹﾝ","kana_city":"ｲｼｶﾜｸﾞﾝｲｼｶﾜﾏﾁ","kana_address":"ｸﾆﾐ","pref":"福島県","city":"石川郡石川町","address":"国見"},
{"zip_code":"9637847","kana_pref":"ﾌｸｼﾏｹﾝ","kana_city":"ｲｼｶﾜｸﾞﾝｲｼｶﾜﾏﾁ","kana_address":"ｺﾀﾞﾃ","pref":"福島県","city":"石川郡石川町","address":"古舘"},
{"zip_code":"9637842","kana_pref":"ﾌｸｼﾏｹﾝ","kana_city":"ｲｼｶﾜｸﾞﾝｲｼｶﾜﾏﾁ","kana_address":"ｻｶｲﾉｳﾁ","pref":"福島県","city":"石川郡石川町","address":"境ノ内"},
{"zip_code":"9637804","kana_pref":"ﾌｸｼﾏｹﾝ","kana_city":"ｲｼｶﾜｸﾞﾝｲｼｶﾜﾏﾁ","kana_address":"ｻｶｼﾞ","pref":"福島県","city":"石川郡石川町","address":"坂路"},
{"zip_code":"9637825","kana_pref":"ﾌｸｼﾏｹﾝ","kana_city":"ｲｼｶﾜｸﾞﾝｲｼｶﾜﾏﾁ","kana_address":"ｻﾜｲ","pref":"福島県","city":"石川郡石川町","address":"沢井"},
{"zip_code":"9637836","kana_pref":"ﾌｸｼﾏｹﾝ","kana_city":"ｲｼｶﾜｸﾞﾝｲｼｶﾜﾏﾁ","kana_address":"ｼｵｻﾞﾜ","pref":"福島県","city":"石川郡石川町","address":"塩沢"},
{"zip_code":"9637818","kana_pref":"ﾌｸｼﾏｹﾝ","kana_city":"ｲｼｶﾜｸﾞﾝｲｼｶﾜﾏﾁ","kana_address":"ｼｵﾇﾏ","pref":"福島県","city":"石川郡石川町","address":"塩沼"},
{"zip_code":"9637882","kana_pref":"ﾌｸｼﾏｹﾝ","kana_city":"ｲｼｶﾜｸﾞﾝｲｼｶﾜﾏﾁ","kana_address":"ｼｵﾉﾋﾗ","pref":"福島県","city":"石川郡石川町","address":"塩ノ平"},
{"zip_code":"9637858","kana_pref":"ﾌｸｼﾏｹﾝ","kana_city":"ｲｼｶﾜｸﾞﾝｲｼｶﾜﾏﾁ","kana_address":"ｼﾓｲｽﾞﾐ","pref":"福島県","city":"石川郡石川町","address":"下泉"},
{"zip_code":"9637828","kana_pref":"ﾌｸｼﾏｹﾝ","kana_city":"ｲｼｶﾜｸﾞﾝｲｼｶﾜﾏﾁ","kana_address":"ｼﾓﾉｳﾁ","pref":"福島県","city":"石川郡石川町","address":"下ノ内"},
{"zip_code":"9637856","kana_pref":"ﾌｸｼﾏｹﾝ","kana_city":"ｲｼｶﾜｸﾞﾝｲｼｶﾜﾏﾁ","kana_address":"ｼﾛｲｼ","pref":"福島県","city":"石川郡石川町","address":"白石"},
{"zip_code":"9637851","kana_pref":"ﾌｸｼﾏｹﾝ","kana_city":"ｲｼｶﾜｸﾞﾝｲｼｶﾜﾏﾁ","kana_address":"ｼﾝﾏﾁ","pref":"福島県","city":"石川郡石川町","address":"新町"},
{"zip_code":"9637852","kana_pref":"ﾌｸｼﾏｹﾝ","kana_city":"ｲｼｶﾜｸﾞﾝｲｼｶﾜﾏﾁ","kana_address":"ｾｷﾈ","pref":"福島県","city":"石川郡石川町","address":"関根"},
{"zip_code":"9637808","kana_pref":"ﾌｸｼﾏｹﾝ","kana_city":"ｲｼｶﾜｸﾞﾝｲｼｶﾜﾏﾁ","kana_address":"ｿｳﾘ","pref":"福島県","city":"石川郡石川町","address":"双里"},
{"zip_code":"9637866","kana_pref":"ﾌｸｼﾏｹﾝ","kana_city":"ｲｼｶﾜｸﾞﾝｲｼｶﾜﾏﾁ","kana_address":"ｿﾄｸﾆﾐ","pref":"福島県","city":"石川郡石川町","address":"外国見"},
{"zip_code":"9637874","kana_pref":"ﾌｸｼﾏｹﾝ","kana_city":"ｲｼｶﾜｸﾞﾝｲｼｶﾜﾏﾁ","kana_address":"ﾀﾞｲｺﾞﾛｳｳﾁ","pref":"福島県","city":"石川郡石川町","address":"大五郎内"},
{"zip_code":"9637845","kana_pref":"ﾌｸｼﾏｹﾝ","kana_city":"ｲｼｶﾜｸﾞﾝｲｼｶﾜﾏﾁ","kana_address":"ﾀｶﾀﾞ","pref":"福島県","city":"石川郡石川町","address":"高田"},
{"zip_code":"9637817","kana_pref":"ﾌｸｼﾏｹﾝ","kana_city":"ｲｼｶﾜｸﾞﾝｲｼｶﾜﾏﾁ","kana_address":"ﾀﾃｶﾞｵｶ","pref":"福島県","city":"石川郡石川町","address":"立ケ岡"},
{"zip_code":"9637857","kana_pref":"ﾌｸｼﾏｹﾝ","kana_city":"ｲｼｶﾜｸﾞﾝｲｼｶﾜﾏﾁ","kana_address":"ﾄｳﾏﾁ","pref":"福島県","city":"石川郡石川町","address":"当町"},
{"zip_code":"9637873","kana_pref":"ﾌｸｼﾏｹﾝ","kana_city":"ｲｼｶﾜｸﾞﾝｲｼｶﾜﾏﾁ","kana_address":"ﾄﾋﾞｶﾞｻｸ","pref":"福島県","city":"石川郡石川町","address":"飛ケ作"},
{"zip_code":"9637803","kana_pref":"ﾌｸｼﾏｹﾝ","kana_city":"ｲｼｶﾜｸﾞﾝｲｼｶﾜﾏﾁ","kana_address":"ﾅｶﾀﾞ","pref":"福島県","city":"石川郡石川町","address":"中田"},
{"zip_code":"9637837","kana_pref":"ﾌｸｼﾏｹﾝ","kana_city":"ｲｼｶﾜｸﾞﾝｲｼｶﾜﾏﾁ","kana_address":"ﾅｶﾉ","pref":"福島県","city":"石川郡石川町","address":"中野"},
{"zip_code":"9637846","kana_pref":"ﾌｸｼﾏｹﾝ","kana_city":"ｲｼｶﾜｸﾞﾝｲｼｶﾜﾏﾁ","kana_address":"ﾅｶﾞｸﾎﾞ","pref":"福島県","city":"石川郡石川町","address":"長久保"},
{"zip_code":"9637885","kana_pref":"ﾌｸｼﾏｹﾝ","kana_city":"ｲｼｶﾜｸﾞﾝｲｼｶﾜﾏﾁ","kana_address":"ﾅﾘｶﾞﾒ","pref":"福島県","city":"石川郡石川町","address":"成亀"},
{"zip_code":"9637855","kana_pref":"ﾌｸｼﾏｹﾝ","kana_city":"ｲｼｶﾜｸﾞﾝｲｼｶﾜﾏﾁ","kana_address":"ﾈｺﾅｷ","pref":"福島県","city":"石川郡石川町","address":"猫啼"},
{"zip_code":"9637824","kana_pref":"ﾌｸｼﾏｹﾝ","kana_city":"ｲｼｶﾜｸﾞﾝｲｼｶﾜﾏﾁ","kana_address":"ﾊﾗ","pref":"福島県","city":"石川郡石川町","address":"原"},
{"zip_code":"9637821","kana_pref":"ﾌｸｼﾏｹﾝ","kana_city":"ｲｼｶﾜｸﾞﾝｲｼｶﾜﾏﾁ","kana_address":"ﾎｳﾃﾞﾝﾏｴ","pref":"福島県","city":"石川郡石川町","address":"宝殿前"},
{"zip_code":"9637831","kana_pref":"ﾌｸｼﾏｹﾝ","kana_city":"ｲｼｶﾜｸﾞﾝｲｼｶﾜﾏﾁ","kana_address":"ﾎﾞﾊﾞﾀ","pref":"福島県","city":"石川郡石川町","address":"母畑"},
{"zip_code":"9637871","kana_pref":"ﾌｸｼﾏｹﾝ","kana_city":"ｲｼｶﾜｸﾞﾝｲｼｶﾜﾏﾁ","kana_address":"ﾏｴﾉｳﾁ","pref":"福島県","city":"石川郡石川町","address":"前ノ内"},
{"zip_code":"9637838","kana_pref":"ﾌｸｼﾏｹﾝ","kana_city":"ｲｼｶﾜｸﾞﾝｲｼｶﾜﾏﾁ","kana_address":"ﾏｶﾞｷ","pref":"福島県","city":"石川郡石川町","address":"曲木"},
{"zip_code":"9637865","kana_pref":"ﾌｸｼﾏｹﾝ","kana_city":"ｲｼｶﾜｸﾞﾝｲｼｶﾜﾏﾁ","kana_address":"ﾏｶﾞﾘﾉｳﾁ","pref":"福島県","city":"石川郡石川町","address":"曲ノ内"},
{"zip_code":"9637854","kana_pref":"ﾌｸｼﾏｹﾝ","kana_city":"ｲｼｶﾜｸﾞﾝｲｼｶﾜﾏﾁ","kana_address":"ﾏﾂｷｼﾀ","pref":"福島県","city":"石川郡石川町","address":"松木下"},
{"zip_code":"9637816","kana_pref":"ﾌｸｼﾏｹﾝ","kana_city":"ｲｼｶﾜｸﾞﾝｲｼｶﾜﾏﾁ","kana_address":"ﾏﾒｶﾞﾋﾗ","pref":"福島県","city":"石川郡石川町","address":"豆ケ平"},
{"zip_code":"9637859","kana_pref":"ﾌｸｼﾏｹﾝ","kana_city":"ｲｼｶﾜｸﾞﾝｲｼｶﾜﾏﾁ","kana_address":"ﾐﾅﾐﾏﾁ","pref":"福島県","city":"石川郡石川町","address":"南町"},
{"zip_code":"9637812","kana_pref":"ﾌｸｼﾏｹﾝ","kana_city":"ｲｼｶﾜｸﾞﾝｲｼｶﾜﾏﾁ","kana_address":"ﾐﾅﾐﾔﾏｶﾞﾀ","pref":"福島県","city":"石川郡石川町","address":"南山形"},
{"zip_code":"9637883","kana_pref":"ﾌｸｼﾏｹﾝ","kana_city":"ｲｼｶﾜｸﾞﾝｲｼｶﾜﾏﾁ","kana_address":"ﾑｷﾞﾉｳﾁ","pref":"福島県","city":"石川郡石川町","address":"麦ノ内"},
{"zip_code":"9637832","kana_pref":"ﾌｸｼﾏｹﾝ","kana_city":"ｲｼｶﾜｸﾞﾝｲｼｶﾜﾏﾁ","kana_address":"ﾔｺﾞ","pref":"福島県","city":"石川郡石川町","address":"弥吾"},
{"zip_code":"9637806","kana_pref":"ﾌｸｼﾏｹﾝ","kana_city":"ｲｼｶﾜｸﾞﾝｲｼｶﾜﾏﾁ","kana_address":"ﾔｻﾞﾜ","pref":"福島県","city":"石川郡石川町","address":"谷沢"},
{"zip_code":"9637843","kana_pref":"ﾌｸｼﾏｹﾝ","kana_city":"ｲｼｶﾜｸﾞﾝｲｼｶﾜﾏﾁ","kana_address":"ﾔｼｷﾉｲﾘ","pref":"福島県","city":"石川郡石川町","address":"屋敷ノ入"},
{"zip_code":"9637805","kana_pref":"ﾌｸｼﾏｹﾝ","kana_city":"ｲｼｶﾜｸﾞﾝｲｼｶﾜﾏﾁ","kana_address":"ﾔｼﾞ","pref":"福島県","city":"石川郡石川町","address":"谷地"},
{"zip_code":"9637875","kana_pref":"ﾌｸｼﾏｹﾝ","kana_city":"ｲｼｶﾜｸﾞﾝｲｼｶﾜﾏﾁ","kana_address":"ﾔﾅｷﾞｻｸ","pref":"福島県","city":"石川郡石川町","address":"柳作"},
{"zip_code":"9637822","kana_pref":"ﾌｸｼﾏｹﾝ","kana_city":"ｲｼｶﾜｸﾞﾝｲｼｶﾜﾏﾁ","kana_address":"ﾔﾅｾ","pref":"福島県","city":"石川郡石川町","address":"梁瀬"},
{"zip_code":"9637861","kana_pref":"ﾌｸｼﾏｹﾝ","kana_city":"ｲｼｶﾜｸﾞﾝｲｼｶﾜﾏﾁ","kana_address":"ﾔﾉﾒﾀﾞ","pref":"福島県","city":"石川郡石川町","address":"矢ノ目田"},
{"zip_code":"9637814","kana_pref":"ﾌｸｼﾏｹﾝ","kana_city":"ｲｼｶﾜｸﾞﾝｲｼｶﾜﾏﾁ","kana_address":"ﾔﾏｶﾞﾀ","pref":"福島県","city":"石川郡石川町","address":"山形"},
{"zip_code":"9637801","kana_pref":"ﾌｸｼﾏｹﾝ","kana_city":"ｲｼｶﾜｸﾞﾝｲｼｶﾜﾏﾁ","kana_address":"ﾕｺﾞｳﾄ","pref":"福島県","city":"石川郡石川町","address":"湯郷渡"},
{"zip_code":"9637886","kana_pref":"ﾌｸｼﾏｹﾝ","kana_city":"ｲｼｶﾜｸﾞﾝｲｼｶﾜﾏﾁ","kana_address":"ﾜｸﾞ","pref":"福島県","city":"石川郡石川町","address":"和久"},
{"zip_code":"9637863","kana_pref":"ﾌｸｼﾏｹﾝ","kana_city":"ｲｼｶﾜｸﾞﾝｲｼｶﾜﾏﾁ","kana_address":"ﾜﾀﾘｻﾜ","pref":"福島県","city":"石川郡石川町","address":"渡里沢"},
{"zip_code":"9636300","kana_pref":"ﾌｸｼﾏｹﾝ","kana_city":"ｲｼｶﾜｸﾞﾝﾀﾏｶﾜﾑﾗ","kana_address":"","pref":"福島県","city":"石川郡玉川村","address":""},
{"zip_code":"9636312","kana_pref":"ﾌｸｼﾏｹﾝ","kana_city":"ｲｼｶﾜｸﾞﾝﾀﾏｶﾜﾑﾗ","kana_address":"ｵﾀﾞｶ","pref":"福島県","city":"石川郡玉川村","address":"小高"},
{"zip_code":"9636313","kana_pref":"ﾌｸｼﾏｹﾝ","kana_city":"ｲｼｶﾜｸﾞﾝﾀﾏｶﾜﾑﾗ","kana_address":"ｶﾜﾍﾞ","pref":"福島県","city":"石川郡玉川村","address":"川辺"},
{"zip_code":"9636311","kana_pref":"ﾌｸｼﾏｹﾝ","kana_city":"ｲｼｶﾜｸﾞﾝﾀﾏｶﾜﾑﾗ","kana_address":"ｶﾞﾝﾎﾟｳｼﾞ","pref":"福島県","city":"石川郡玉川村","address":"岩法寺"},
{"zip_code":"9636304","kana_pref":"ﾌｸｼﾏｹﾝ","kana_city":"ｲｼｶﾜｸﾞﾝﾀﾏｶﾜﾑﾗ","kana_address":"ｷﾀｽｶﾞﾏ","pref":"福島県","city":"石川郡玉川村","address":"北須釜"},
{"zip_code":"9636316","kana_pref":"ﾌｸｼﾏｹﾝ","kana_city":"ｲｼｶﾜｸﾞﾝﾀﾏｶﾜﾑﾗ","kana_address":"ﾀﾂｻﾞｷ","pref":"福島県","city":"石川郡玉川村","address":"竜崎"},
{"zip_code":"9636315","kana_pref":"ﾌｸｼﾏｹﾝ","kana_city":"ｲｼｶﾜｸﾞﾝﾀﾏｶﾜﾑﾗ","kana_address":"ﾅｶ","pref":"福島県","city":"石川郡玉川村","address":"中"},
{"zip_code":"9636314","kana_pref":"ﾌｸｼﾏｹﾝ","kana_city":"ｲｼｶﾜｸﾞﾝﾀﾏｶﾜﾑﾗ","kana_address":"ﾋﾘｭｳ","pref":"福島県","city":"石川郡玉川村","address":"蒜生"},
{"zip_code":"9636302","kana_pref":"ﾌｸｼﾏｹﾝ","kana_city":"ｲｼｶﾜｸﾞﾝﾀﾏｶﾜﾑﾗ","kana_address":"ﾐﾅﾐｽｶﾞﾏ","pref":"福島県","city":"石川郡玉川村","address":"南須釜"},
{"zip_code":"9636305","kana_pref":"ﾌｸｼﾏｹﾝ","kana_city":"ｲｼｶﾜｸﾞﾝﾀﾏｶﾜﾑﾗ","kana_address":"ﾔﾏｺﾞﾔ","pref":"福島県","city":"石川郡玉川村","address":"山小屋"},
{"zip_code":"9636306","kana_pref":"ﾌｸｼﾏｹﾝ","kana_city":"ｲｼｶﾜｸﾞﾝﾀﾏｶﾜﾑﾗ","kana_address":"ﾔﾏｼﾝﾃﾞﾝ","pref":"福島県","city":"石川郡玉川村","address":"山新田"},
{"zip_code":"9636303","kana_pref":"ﾌｸｼﾏｹﾝ","kana_city":"ｲｼｶﾜｸﾞﾝﾀﾏｶﾜﾑﾗ","kana_address":"ﾖｼ","pref":"福島県","city":"石川郡玉川村","address":"吉"},
{"zip_code":"9636301","kana_pref":"ﾌｸｼﾏｹﾝ","kana_city":"ｲｼｶﾜｸﾞﾝﾀﾏｶﾜﾑﾗ","kana_address":"ﾖｯﾂｼﾞｼﾝﾃﾞﾝ","pref":"福島県","city":"石川郡玉川村","address":"四辻新田"},
{"zip_code":"9638100","kana_pref":"ﾌｸｼﾏｹﾝ","kana_city":"ｲｼｶﾜｸﾞﾝﾋﾗﾀﾑﾗ","kana_address":"","pref":"福島県","city":"石川郡平田村","address":""},
{"zip_code":"9638114","kana_pref":"ﾌｸｼﾏｹﾝ","kana_city":"ｲｼｶﾜｸﾞﾝﾋﾗﾀﾑﾗ","kana_address":"ｵﾀﾞｲﾗ","pref":"福島県","city":"石川郡平田村","address":"小平"},
{"zip_code":"9638202","kana_pref":"ﾌｸｼﾏｹﾝ","kana_city":"ｲｼｶﾜｸﾞﾝﾋﾗﾀﾑﾗ","kana_address":"ｶﾐﾖﾓｷﾞﾀﾞ","pref":"福島県","city":"石川郡平田村","address":"上蓬田"},
{"zip_code":"9638112","kana_pref":"ﾌｸｼﾏｹﾝ","kana_city":"ｲｼｶﾜｸﾞﾝﾋﾗﾀﾑﾗ","kana_address":"ｷﾀｶﾀ","pref":"福島県","city":"石川郡平田村","address":"北方"},
{"zip_code":"9638203","kana_pref":"ﾌｸｼﾏｹﾝ","kana_city":"ｲｼｶﾜｸﾞﾝﾋﾗﾀﾑﾗ","kana_address":"ｸﾘｭｳﾀﾞｷ","pref":"福島県","city":"石川郡平田村","address":"九生滝"},
{"zip_code":"9638113","kana_pref":"ﾌｸｼﾏｹﾝ","kana_city":"ｲｼｶﾜｸﾞﾝﾋﾗﾀﾑﾗ","kana_address":"ｺﾏｶﾞﾀ","pref":"福島県","city":"石川郡平田村","address":"駒形"},
{"zip_code":"9638206","kana_pref":"ﾌｸｼﾏｹﾝ","kana_city":"ｲｼｶﾜｸﾞﾝﾋﾗﾀﾑﾗ","kana_address":"ｺﾏﾂﾊﾞﾗ","pref":"福島県","city":"石川郡平田村","address":"小松原"},
{"zip_code":"9638207","kana_pref":"ﾌｸｼﾏｹﾝ","kana_city":"ｲｼｶﾜｸﾞﾝﾋﾗﾀﾑﾗ","kana_address":"ｼﾓﾖﾓｷﾞﾀﾞ","pref":"福島県","city":"石川郡平田村","address":"下蓬田"},
{"zip_code":"9638204","kana_pref":"ﾌｸｼﾏｹﾝ","kana_city":"ｲｼｶﾜｸﾞﾝﾋﾗﾀﾑﾗ","kana_address":"ﾄｳﾉｺ","pref":"福島県","city":"石川郡平田村","address":"鴇子"},
{"zip_code":"9638115","kana_pref":"ﾌｸｼﾏｹﾝ","kana_city":"ｲｼｶﾜｸﾞﾝﾋﾗﾀﾑﾗ","kana_address":"ﾅｶｸﾞﾗ","pref":"福島県","city":"石川郡平田村","address":"中倉"},
{"zip_code":"9638205","kana_pref":"ﾌｸｼﾏｹﾝ","kana_city":"ｲｼｶﾜｸﾞﾝﾋﾗﾀﾑﾗ","kana_address":"ﾅｶﾞﾀ","pref":"福島県","city":"石川郡平田村","address":"永田"},
{"zip_code":"9638116","kana_pref":"ﾌｸｼﾏｹﾝ","kana_city":"ｲｼｶﾜｸﾞﾝﾋﾗﾀﾑﾗ","kana_address":"ﾆｼﾔﾏ","pref":"福島県","city":"石川郡平田村","address":"西山"},
{"zip_code":"9638111","kana_pref":"ﾌｸｼﾏｹﾝ","kana_city":"ｲｼｶﾜｸﾞﾝﾋﾗﾀﾑﾗ","kana_address":"ﾋｶﾞｼﾔﾏ","pref":"福島県","city":"石川郡平田村","address":"東山"},
{"zip_code":"9638201","kana_pref":"ﾌｸｼﾏｹﾝ","kana_city":"ｲｼｶﾜｸﾞﾝﾋﾗﾀﾑﾗ","kana_address":"ﾖﾓｷﾞﾀﾞｼﾝﾃﾞﾝ","pref":"福島県","city":"石川郡平田村","address":"蓬田新田"},
{"zip_code":"9636200","kana_pref":"ﾌｸｼﾏｹﾝ","kana_city":"ｲｼｶﾜｸﾞﾝｱｻｶﾜﾏﾁ","kana_address":"","pref":"福島県","city":"石川郡浅川町","address":""},
{"zip_code":"9636204","kana_pref":"ﾌｸｼﾏｹﾝ","kana_city":"ｲｼｶﾜｸﾞﾝｱｻｶﾜﾏﾁ","kana_address":"ｱｻｶﾜ","pref":"福島県","city":"石川郡浅川町","address":"浅川"},
{"zip_code":"9636214","kana_pref":"ﾌｸｼﾏｹﾝ","kana_city":"ｲｼｶﾜｸﾞﾝｱｻｶﾜﾏﾁ","kana_address":"ｵｵｸｻ","pref":"福島県","city":"石川郡浅川町","address":"大草"},
{"zip_code":"9636206","kana_pref":"ﾌｸｼﾏｹﾝ","kana_city":"ｲｼｶﾜｸﾞﾝｱｻｶﾜﾏﾁ","kana_address":"ｵｵﾀﾜ","pref":"福島県","city":"石川郡浅川町","address":"太田輪"},
{"zip_code":"9636207","kana_pref":"ﾌｸｼﾏｹﾝ","kana_city":"ｲｼｶﾜｸﾞﾝｱｻｶﾜﾏﾁ","kana_address":"ｵﾇｷ","pref":"福島県","city":"石川郡浅川町","address":"小貫"},
{"zip_code":"9636202","kana_pref":"ﾌｸｼﾏｹﾝ","kana_city":"ｲｼｶﾜｸﾞﾝｱｻｶﾜﾏﾁ","kana_address":"ｻﾄｼﾗｲｼ","pref":"福島県","city":"石川郡浅川町","address":"里白石"},
{"zip_code":"9636216","kana_pref":"ﾌｸｼﾏｹﾝ","kana_city":"ｲｼｶﾜｸﾞﾝｱｻｶﾜﾏﾁ","kana_address":"ｿﾃﾞﾔﾏ","pref":"福島県","city":"石川郡浅川町","address":"袖山"},
{"zip_code":"9636208","kana_pref":"ﾌｸｼﾏｹﾝ","kana_city":"ｲｼｶﾜｸﾞﾝｱｻｶﾜﾏﾁ","kana_address":"ｿﾒ","pref":"福島県","city":"石川郡浅川町","address":"染"},
{"zip_code":"9636205","kana_pref":"ﾌｸｼﾏｹﾝ","kana_city":"ｲｼｶﾜｸﾞﾝｱｻｶﾜﾏﾁ","kana_address":"ﾀｷﾜ","pref":"福島県","city":"石川郡浅川町","address":"滝輪"},
{"zip_code":"9636213","kana_pref":"ﾌｸｼﾏｹﾝ","kana_city":"ｲｼｶﾜｸﾞﾝｱｻｶﾜﾏﾁ","kana_address":"ﾅｶｻﾞﾄ","pref":"福島県","city":"石川郡浅川町","address":"中里"},
{"zip_code":"9636215","kana_pref":"ﾌｸｼﾏｹﾝ","kana_city":"ｲｼｶﾜｸﾞﾝｱｻｶﾜﾏﾁ","kana_address":"ﾈｷﾞｼ","pref":"福島県","city":"石川郡浅川町","address":"根岸"},
{"zip_code":"9636211","kana_pref":"ﾌｸｼﾏｹﾝ","kana_city":"ｲｼｶﾜｸﾞﾝｱｻｶﾜﾏﾁ","kana_address":"ﾊﾀﾀﾞ","pref":"福島県","city":"石川郡浅川町","address":"畑田"},
{"zip_code":"9636218","kana_pref":"ﾌｸｼﾏｹﾝ","kana_city":"ｲｼｶﾜｸﾞﾝｱｻｶﾜﾏﾁ","kana_address":"ﾋｶﾞｼｵｵﾊﾀ","pref":"福島県","city":"石川郡浅川町","address":"東大畑"},
{"zip_code":"9636201","kana_pref":"ﾌｸｼﾏｹﾝ","kana_city":"ｲｼｶﾜｸﾞﾝｱｻｶﾜﾏﾁ","kana_address":"ﾌｷｻﾞｸ","pref":"福島県","city":"石川郡浅川町","address":"福貴作"},
{"zip_code":"9636212","kana_pref":"ﾌｸｼﾏｹﾝ","kana_city":"ｲｼｶﾜｸﾞﾝｱｻｶﾜﾏﾁ","kana_address":"ﾏﾂﾉｲﾘ","pref":"福島県","city":"石川郡浅川町","address":"松野入"},
{"zip_code":"9636217","kana_pref":"ﾌｸｼﾏｹﾝ","kana_city":"ｲｼｶﾜｸﾞﾝｱｻｶﾜﾏﾁ","kana_address":"ﾐﾉﾜ","pref":"福島県","city":"石川郡浅川町","address":"簑輪"},
{"zip_code":"9636203","kana_pref":"ﾌｸｼﾏｹﾝ","kana_city":"ｲｼｶﾜｸﾞﾝｱｻｶﾜﾏﾁ","kana_address":"ﾔﾏｼﾗｲｼ","pref":"福島県","city":"石川郡浅川町","address":"山白石"},
{"zip_code":"9638300","kana_pref":"ﾌｸｼﾏｹﾝ","kana_city":"ｲｼｶﾜｸﾞﾝﾌﾙﾄﾞﾉﾏﾁ","kana_address":"","pref":"福島県","city":"石川郡古殿町","address":""},
{"zip_code":"9638303","kana_pref":"ﾌｸｼﾏｹﾝ","kana_city":"ｲｼｶﾜｸﾞﾝﾌﾙﾄﾞﾉﾏﾁ","kana_address":"ｵｵｸﾞﾀ","pref":"福島県","city":"石川郡古殿町","address":"大久田"},
{"zip_code":"9638307","kana_pref":"ﾌｸｼﾏｹﾝ","kana_city":"ｲｼｶﾜｸﾞﾝﾌﾙﾄﾞﾉﾏﾁ","kana_address":"ｶﾏﾀ","pref":"福島県","city":"石川郡古殿町","address":"鎌田"},
{"zip_code":"9638308","kana_pref":"ﾌｸｼﾏｹﾝ","kana_city":"ｲｼｶﾜｸﾞﾝﾌﾙﾄﾞﾉﾏﾁ","kana_address":"ｾﾝｺﾞｸ","pref":"福島県","city":"石川郡古殿町","address":"仙石"},
{"zip_code":"9638305","kana_pref":"ﾌｸｼﾏｹﾝ","kana_city":"ｲｼｶﾜｸﾞﾝﾌﾙﾄﾞﾉﾏﾁ","kana_address":"ﾀｶﾇｷ","pref":"福島県","city":"石川郡古殿町","address":"竹貫"},
{"zip_code":"9638306","kana_pref":"ﾌｸｼﾏｹﾝ","kana_city":"ｲｼｶﾜｸﾞﾝﾌﾙﾄﾞﾉﾏﾁ","kana_address":"ﾀｸﾞﾁ","pref":"福島県","city":"石川郡古殿町","address":"田口"},
{"zip_code":"9638304","kana_pref":"ﾌｸｼﾏｹﾝ","kana_city":"ｲｼｶﾜｸﾞﾝﾌﾙﾄﾞﾉﾏﾁ","kana_address":"ﾏﾂｶﾜ","pref":"福島県","city":"石川郡古殿町","address":"松川"},
{"zip_code":"9638302","kana_pref":"ﾌｸｼﾏｹﾝ","kana_city":"ｲｼｶﾜｸﾞﾝﾌﾙﾄﾞﾉﾏﾁ","kana_address":"ﾔﾏｶﾐ","pref":"福島県","city":"石川郡古殿町","address":"山上"},
{"zip_code":"9638301","kana_pref":"ﾌｸｼﾏｹﾝ","kana_city":"ｲｼｶﾜｸﾞﾝﾌﾙﾄﾞﾉﾏﾁ","kana_address":"ﾛﾝﾃﾞﾝ","pref":"福島県","city":"石川郡古殿町","address":"論田"},
{"zip_code":"9637700","kana_pref":"ﾌｸｼﾏｹﾝ","kana_city":"ﾀﾑﾗｸﾞﾝﾐﾊﾙﾏﾁ","kana_address":"","pref":"福島県","city":"田村郡三春町","address":""},
{"zip_code":"9637702","kana_pref":"ﾌｸｼﾏｹﾝ","kana_city":"ﾀﾑﾗｸﾞﾝﾐﾊﾙﾏﾁ","kana_address":"ｱｵｲｼ","pref":"福島県","city":"田村郡三春町","address":"青石"},
{"zip_code":"9637753","kana_pref":"ﾌｸｼﾏｹﾝ","kana_city":"ﾀﾑﾗｸﾞﾝﾐﾊﾙﾏﾁ","kana_address":"ｱｶｻｶ","pref":"福島県","city":"田村郡三春町","address":"赤坂"},
{"zip_code":"9637745","kana_pref":"ﾌｸｼﾏｹﾝ","kana_city":"ﾀﾑﾗｸﾞﾝﾐﾊﾙﾏﾁ","kana_address":"ｱﾏｶﾞﾔ","pref":"福島県","city":"田村郡三春町","address":"尼ケ谷"},
{"zip_code":"9637765","kana_pref":"ﾌｸｼﾏｹﾝ","kana_city":"ﾀﾑﾗｸﾞﾝﾐﾊﾙﾏﾁ","kana_address":"ｱﾗﾏﾁ","pref":"福島県","city":"田村郡三春町","address":"荒町"},
{"zip_code":"9637749","kana_pref":"ﾌｸｼﾏｹﾝ","kana_city":"ﾀﾑﾗｸﾞﾝﾐﾊﾙﾏﾁ","kana_address":"ｲｯﾎﾟﾝﾏﾂ","pref":"福島県","city":"田村郡三春町","address":"一本松"},
{"zip_code":"9637757","kana_pref":"ﾌｸｼﾏｹﾝ","kana_city":"ﾀﾑﾗｸﾞﾝﾐﾊﾙﾏﾁ","kana_address":"ｴｹﾞﾀﾆ","pref":"福島県","city":"田村郡三春町","address":"会下谷"},
{"zip_code":"9637754","kana_pref":"ﾌｸｼﾏｹﾝ","kana_city":"ﾀﾑﾗｸﾞﾝﾐﾊﾙﾏﾁ","kana_address":"ｴｹﾞﾉｺｼ","pref":"福島県","city":"田村郡三春町","address":"恵下越"},
{"zip_code":"9637752","kana_pref":"ﾌｸｼﾏｹﾝ","kana_city":"ﾀﾑﾗｸﾞﾝﾐﾊﾙﾏﾁ","kana_address":"ｴﾎﾞｼｲｼ","pref":"福島県","city":"田村郡三春町","address":"烏帽子石"},
{"zip_code":"9637749","kana_pref":"ﾌｸｼﾏｹﾝ","kana_city":"ﾀﾑﾗｸﾞﾝﾐﾊﾙﾏﾁ","kana_address":"ｵｵｸﾎﾞ","pref":"福島県","city":"田村郡三春町","address":"大久保"},
{"zip_code":"9637706","kana_pref":"ﾌｸｼﾏｹﾝ","kana_city":"ﾀﾑﾗｸﾞﾝﾐﾊﾙﾏﾁ","kana_address":"ｵｵﾀﾞｲﾗ","pref":"福島県","city":"田村郡三春町","address":"大平"},
{"zip_code":"9637759","kana_pref":"ﾌｸｼﾏｹﾝ","kana_city":"ﾀﾑﾗｸﾞﾝﾐﾊﾙﾏﾁ","kana_address":"ｵｵﾏﾁ","pref":"福島県","city":"田村郡三春町","address":"大町"},
{"zip_code":"9637762","kana_pref":"ﾌｸｼﾏｹﾝ","kana_city":"ﾀﾑﾗｸﾞﾝﾐﾊﾙﾏﾁ","kana_address":"ｵﾊﾞﾏｶｲﾄﾞｳ","pref":"福島県","city":"田村郡三春町","address":"小浜海道"},
{"zip_code":"9637772","kana_pref":"ﾌｸｼﾏｹﾝ","kana_city":"ﾀﾑﾗｸﾞﾝﾐﾊﾙﾏﾁ","kana_address":"ｵﾏﾂﾘ","pref":"福島県","city":"田村郡三春町","address":"御祭"},
{"zip_code":"9637719","kana_pref":"ﾌｸｼﾏｹﾝ","kana_city":"ﾀﾑﾗｸﾞﾝﾐﾊﾙﾏﾁ","kana_address":"ｶｲﾔﾏ","pref":"福島県","city":"田村郡三春町","address":"貝山"},
{"zip_code":"9637769","kana_pref":"ﾌｸｼﾏｹﾝ","kana_city":"ﾀﾑﾗｸﾞﾝﾐﾊﾙﾏﾁ","kana_address":"ｶﾂｷﾞﾊﾞｼ","pref":"福島県","city":"田村郡三春町","address":"担橋"},
{"zip_code":"9637741","kana_pref":"ﾌｸｼﾏｹﾝ","kana_city":"ﾀﾑﾗｸﾞﾝﾐﾊﾙﾏﾁ","kana_address":"ｶﾏﾀﾏｴ","pref":"福島県","city":"田村郡三春町","address":"鎌田前"},
{"zip_code":"9637732","kana_pref":"ﾌｸｼﾏｹﾝ","kana_city":"ﾀﾑﾗｸﾞﾝﾐﾊﾙﾏﾁ","kana_address":"ｶﾐﾓｳｷﾞ","pref":"福島県","city":"田村郡三春町","address":"上舞木"},
{"zip_code":"9637752","kana_pref":"ﾌｸｼﾏｹﾝ","kana_city":"ﾀﾑﾗｸﾞﾝﾐﾊﾙﾏﾁ","kana_address":"ｶﾒｲ","pref":"福島県","city":"田村郡三春町","address":"亀井"},
{"zip_code":"9637747","kana_pref":"ﾌｸｼﾏｹﾝ","kana_city":"ﾀﾑﾗｸﾞﾝﾐﾊﾙﾏﾁ","kana_address":"ｶﾞﾝｷﾞﾀ","pref":"福島県","city":"田村郡三春町","address":"雁木田"},
{"zip_code":"9637781","kana_pref":"ﾌｸｼﾏｹﾝ","kana_city":"ﾀﾑﾗｸﾞﾝﾐﾊﾙﾏﾁ","kana_address":"ｷﾀﾅﾘﾀ","pref":"福島県","city":"田村郡三春町","address":"北成田"},
{"zip_code":"9637751","kana_pref":"ﾌｸｼﾏｹﾝ","kana_city":"ﾀﾑﾗｸﾞﾝﾐﾊﾙﾏﾁ","kana_address":"ｷﾀﾏﾁ","pref":"福島県","city":"田村郡三春町","address":"北町"},
{"zip_code":"9637764","kana_pref":"ﾌｸｼﾏｹﾝ","kana_city":"ﾀﾑﾗｸﾞﾝﾐﾊﾙﾏﾁ","kana_address":"ｷﾀﾑｷﾏﾁ","pref":"福島県","city":"田村郡三春町","address":"北向町"},
{"zip_code":"9637717","kana_pref":"ﾌｸｼﾏｹﾝ","kana_city":"ﾀﾑﾗｸﾞﾝﾐﾊﾙﾏﾁ","kana_address":"ｷﾂﾈﾀﾞ","pref":"福島県","city":"田村郡三春町","address":"狐田"},
{"zip_code":"9637712","kana_pref":"ﾌｸｼﾏｹﾝ","kana_city":"ﾀﾑﾗｸﾞﾝﾐﾊﾙﾏﾁ","kana_address":"ｸｸﾞﾘｷ","pref":"福島県","city":"田村郡三春町","address":"込木"},
{"zip_code":"9637704","kana_pref":"ﾌｸｼﾏｹﾝ","kana_city":"ﾀﾑﾗｸﾞﾝﾐﾊﾙﾏﾁ","kana_address":"ｸﾏｶﾞﾐ","pref":"福島県","city":"田村郡三春町","address":"熊耳"},
{"zip_code":"9637708","kana_pref":"ﾌｸｼﾏｹﾝ","kana_city":"ﾀﾑﾗｸﾞﾝﾐﾊﾙﾏﾁ","kana_address":"ｸﾘﾊﾞﾔｼ","pref":"福島県","city":"田村郡三春町","address":"栗林"},
{"zip_code":"9637754","kana_pref":"ﾌｸｼﾏｹﾝ","kana_city":"ﾀﾑﾗｸﾞﾝﾐﾊﾙﾏﾁ","kana_address":"ｹﾊｲｻﾞｶ","pref":"福島県","city":"田村郡三春町","address":"化粧坂"},
{"zip_code":"9637754","kana_pref":"ﾌｸｼﾏｹﾝ","kana_city":"ﾀﾑﾗｸﾞﾝﾐﾊﾙﾏﾁ","kana_address":"ｺｳｼﾝｻﾞｶ","pref":"福島県","city":"田村郡三春町","address":"庚申坂"},
{"zip_code":"9637758","kana_pref":"ﾌｸｼﾏｹﾝ","kana_city":"ﾀﾑﾗｸﾞﾝﾐﾊﾙﾏﾁ","kana_address":"ｺｶﾞﾈﾀﾞｷ","pref":"福島県","city":"田村郡三春町","address":"小金滝"},
{"zip_code":"9637709","kana_pref":"ﾌｸｼﾏｹﾝ","kana_city":"ﾀﾑﾗｸﾞﾝﾐﾊﾙﾏﾁ","kana_address":"ｺﾀﾞｷ","pref":"福島県","city":"田村郡三春町","address":"小滝"},
{"zip_code":"9637767","kana_pref":"ﾌｸｼﾏｹﾝ","kana_city":"ﾀﾑﾗｸﾞﾝﾐﾊﾙﾏﾁ","kana_address":"ｺﾞﾒﾝﾏﾁ","pref":"福島県","city":"田村郡三春町","address":"御免町"},
{"zip_code":"9637723","kana_pref":"ﾌｸｼﾏｹﾝ","kana_city":"ﾀﾑﾗｸﾞﾝﾐﾊﾙﾏﾁ","kana_address":"ｻｲﾄｳ","pref":"福島県","city":"田村郡三春町","address":"斎藤"},
{"zip_code":"9637711","kana_pref":"ﾌｸｼﾏｹﾝ","kana_city":"ﾀﾑﾗｸﾞﾝﾐﾊﾙﾏﾁ","kana_address":"ｻｸﾗｶﾞｵｶ","pref":"福島県","city":"田村郡三春町","address":"桜ケ丘"},
{"zip_code":"9637758","kana_pref":"ﾌｸｼﾏｹﾝ","kana_city":"ﾀﾑﾗｸﾞﾝﾐﾊﾙﾏﾁ","kana_address":"ｻｸﾗﾀﾞﾆ","pref":"福島県","city":"田村郡三春町","address":"桜谷"},
{"zip_code":"9637701","kana_pref":"ﾌｸｼﾏｹﾝ","kana_city":"ﾀﾑﾗｸﾞﾝﾐﾊﾙﾏﾁ","kana_address":"ｻﾈｻﾞﾜ","pref":"福島県","city":"田村郡三春町","address":"実沢"},
{"zip_code":"9637755","kana_pref":"ﾌｸｼﾏｹﾝ","kana_city":"ﾀﾑﾗｸﾞﾝﾐﾊﾙﾏﾁ","kana_address":"ｻﾝﾁｭｳ","pref":"福島県","city":"田村郡三春町","address":"山中"},
{"zip_code":"9637754","kana_pref":"ﾌｸｼﾏｹﾝ","kana_city":"ﾀﾑﾗｸﾞﾝﾐﾊﾙﾏﾁ","kana_address":"ｼｹﾝﾁｮｳ","pref":"福島県","city":"田村郡三春町","address":"四軒丁"},
{"zip_code":"9637761","kana_pref":"ﾌｸｼﾏｹﾝ","kana_city":"ﾀﾑﾗｸﾞﾝﾐﾊﾙﾏﾁ","kana_address":"ｼﾀﾝﾀﾞ","pref":"福島県","city":"田村郡三春町","address":"四反田"},
{"zip_code":"9637753","kana_pref":"ﾌｸｼﾏｹﾝ","kana_city":"ﾀﾑﾗｸﾞﾝﾐﾊﾙﾏﾁ","kana_address":"ｼﾊﾝﾊﾞ","pref":"福島県","city":"田村郡三春町","address":"師範場"},
{"zip_code":"9637713","kana_pref":"ﾌｸｼﾏｹﾝ","kana_city":"ﾀﾑﾗｸﾞﾝﾐﾊﾙﾏﾁ","kana_address":"ｼﾊﾞﾊﾗ","pref":"福島県","city":"田村郡三春町","address":"柴原"},
{"zip_code":"9637768","kana_pref":"ﾌｸｼﾏｹﾝ","kana_city":"ﾀﾑﾗｸﾞﾝﾐﾊﾙﾏﾁ","kana_address":"ｼﾌﾞｲｹ","pref":"福島県","city":"田村郡三春町","address":"渋池"},
{"zip_code":"9637753","kana_pref":"ﾌｸｼﾏｹﾝ","kana_city":"ﾀﾑﾗｸﾞﾝﾐﾊﾙﾏﾁ","kana_address":"ｼﾐｽﾞ","pref":"福島県","city":"田村郡三春町","address":"清水"},
{"zip_code":"9637752","kana_pref":"ﾌｸｼﾏｹﾝ","kana_city":"ﾀﾑﾗｸﾞﾝﾐﾊﾙﾏﾁ","kana_address":"ｼﾐｽﾞﾊﾞﾀ","pref":"福島県","city":"田村郡三春町","address":"清水畑"},
{"zip_code":"9637731","kana_pref":"ﾌｸｼﾏｹﾝ","kana_city":"ﾀﾑﾗｸﾞﾝﾐﾊﾙﾏﾁ","kana_address":"ｼﾓﾓｳｷﾞ","pref":"福島県","city":"田村郡三春町","address":"下舞木"},
{"zip_code":"9637703","kana_pref":"ﾌｸｼﾏｹﾝ","kana_city":"ﾀﾑﾗｸﾞﾝﾐﾊﾙﾏﾁ","kana_address":"ｼｮｳｼﾞ","pref":"福島県","city":"田村郡三春町","address":"庄司"},
{"zip_code":"9637743","kana_pref":"ﾌｸｼﾏｹﾝ","kana_city":"ﾀﾑﾗｸﾞﾝﾐﾊﾙﾏﾁ","kana_address":"ｼﾞｮｳﾛｸ","pref":"福島県","city":"田村郡三春町","address":"丈六"},
{"zip_code":"9637754","kana_pref":"ﾌｸｼﾏｹﾝ","kana_city":"ﾀﾑﾗｸﾞﾝﾐﾊﾙﾏﾁ","kana_address":"ｼﾝﾏﾁ","pref":"福島県","city":"田村郡三春町","address":"新町"},
{"zip_code":"9637707","kana_pref":"ﾌｸｼﾏｹﾝ","kana_city":"ﾀﾑﾗｸﾞﾝﾐﾊﾙﾏﾁ","kana_address":"ｾﾘｶﾞｻﾜ","pref":"福島県","city":"田村郡三春町","address":"芹ケ沢"},
{"zip_code":"9637725","kana_pref":"ﾌｸｼﾏｹﾝ","kana_city":"ﾀﾑﾗｸﾞﾝﾐﾊﾙﾏﾁ","kana_address":"ﾀｶﾉｽ","pref":"福島県","city":"田村郡三春町","address":"鷹巣"},
{"zip_code":"9637714","kana_pref":"ﾌｸｼﾏｹﾝ","kana_city":"ﾀﾑﾗｸﾞﾝﾐﾊﾙﾏﾁ","kana_address":"ﾀｷ","pref":"福島県","city":"田村郡三春町","address":"滝"},
{"zip_code":"9637763","kana_pref":"ﾌｸｼﾏｹﾝ","kana_city":"ﾀﾑﾗｸﾞﾝﾐﾊﾙﾏﾁ","kana_address":"ﾂﾊﾞﾒｼﾐｽﾞ","pref":"福島県","city":"田村郡三春町","address":"燕清水"},
{"zip_code":"9637742","kana_pref":"ﾌｸｼﾏｹﾝ","kana_city":"ﾀﾑﾗｸﾞﾝﾐﾊﾙﾏﾁ","kana_address":"ﾂﾙﾏｷﾀ","pref":"福島県","city":"田村郡三春町","address":"鶴蒔田"},
{"zip_code":"9637705","kana_pref":"ﾌｸｼﾏｹﾝ","kana_city":"ﾀﾑﾗｸﾞﾝﾐﾊﾙﾏﾁ","kana_address":"ﾃﾝﾉｳｼﾀ","pref":"福島県","city":"田村郡三春町","address":"天王下"},
{"zip_code":"9637741","kana_pref":"ﾌｸｼﾏｹﾝ","kana_city":"ﾀﾑﾗｸﾞﾝﾐﾊﾙﾏﾁ","kana_address":"ﾃﾝﾉｳﾏｴ","pref":"福島県","city":"田村郡三春町","address":"天王前"},
{"zip_code":"9637761","kana_pref":"ﾌｸｼﾏｹﾝ","kana_city":"ﾀﾑﾗｸﾞﾝﾐﾊﾙﾏﾁ","kana_address":"ﾄｲﾉｸﾁ","pref":"福島県","city":"田村郡三春町","address":"樋ノ口"},
{"zip_code":"9637782","kana_pref":"ﾌｸｼﾏｹﾝ","kana_city":"ﾀﾑﾗｸﾞﾝﾐﾊﾙﾏﾁ","kana_address":"ﾄﾐｻﾜ","pref":"福島県","city":"田村郡三春町","address":"富沢"},
{"zip_code":"9637766","kana_pref":"ﾌｸｼﾏｹﾝ","kana_city":"ﾀﾑﾗｸﾞﾝﾐﾊﾙﾏﾁ","kana_address":"ﾅｶﾏﾁ","pref":"福島県","city":"田村郡三春町","address":"中町"},
{"zip_code":"9637753","kana_pref":"ﾌｸｼﾏｹﾝ","kana_city":"ﾀﾑﾗｸﾞﾝﾐﾊﾙﾏﾁ","kana_address":"ﾅｶﾞｻｸ","pref":"福島県","city":"田村郡三春町","address":"永作"},
{"zip_code":"9637786","kana_pref":"ﾌｸｼﾏｹﾝ","kana_city":"ﾀﾑﾗｸﾞﾝﾐﾊﾙﾏﾁ","kana_address":"ﾅﾅｸｻｷﾞ","pref":"福島県","city":"田村郡三春町","address":"七草木"},
{"zip_code":"9637752","kana_pref":"ﾌｸｼﾏｹﾝ","kana_city":"ﾀﾑﾗｸﾞﾝﾐﾊﾙﾏﾁ","kana_address":"ﾆｲﾏﾁ","pref":"福島県","city":"田村郡三春町","address":"仁井町"},
{"zip_code":"9637722","kana_pref":"ﾌｸｼﾏｹﾝ","kana_city":"ﾀﾑﾗｸﾞﾝﾐﾊﾙﾏﾁ","kana_address":"ﾆｼｶﾀ","pref":"福島県","city":"田村郡三春町","address":"西方"},
{"zip_code":"9637724","kana_pref":"ﾌｸｼﾏｹﾝ","kana_city":"ﾀﾑﾗｸﾞﾝﾐﾊﾙﾏﾁ","kana_address":"ﾇﾏｻﾜ","pref":"福島県","city":"田村郡三春町","address":"沼沢"},
{"zip_code":"9637726","kana_pref":"ﾌｸｼﾏｹﾝ","kana_city":"ﾀﾑﾗｸﾞﾝﾐﾊﾙﾏﾁ","kana_address":"ﾇﾏﾉｸﾗ","pref":"福島県","city":"田村郡三春町","address":"沼之倉"},
{"zip_code":"9637716","kana_pref":"ﾌｸｼﾏｹﾝ","kana_city":"ﾀﾑﾗｸﾞﾝﾐﾊﾙﾏﾁ","kana_address":"ﾈﾓﾄ","pref":"福島県","city":"田村郡三春町","address":"根本"},
{"zip_code":"9637744","kana_pref":"ﾌｸｼﾏｹﾝ","kana_city":"ﾀﾑﾗｸﾞﾝﾐﾊﾙﾏﾁ","kana_address":"ﾊﾁﾏﾝﾏﾁ","pref":"福島県","city":"田村郡三春町","address":"八幡町"},
{"zip_code":"9637712","kana_pref":"ﾌｸｼﾏｹﾝ","kana_city":"ﾀﾑﾗｸﾞﾝﾐﾊﾙﾏﾁ","kana_address":"ﾊｯﾎﾟｳﾔ","pref":"福島県","city":"田村郡三春町","address":"八方谷"},
{"zip_code":"9637746","kana_pref":"ﾌｸｼﾏｹﾝ","kana_city":"ﾀﾑﾗｸﾞﾝﾐﾊﾙﾏﾁ","kana_address":"ﾊﾞﾊﾞ","pref":"福島県","city":"田村郡三春町","address":"馬場"},
{"zip_code":"9637721","kana_pref":"ﾌｸｼﾏｹﾝ","kana_city":"ﾀﾑﾗｸﾞﾝﾐﾊﾙﾏﾁ","kana_address":"ﾊﾙｻﾜ","pref":"福島県","city":"田村郡三春町","address":"春沢"},
{"zip_code":"9637721","kana_pref":"ﾌｸｼﾏｹﾝ","kana_city":"ﾀﾑﾗｸﾞﾝﾐﾊﾙﾏﾁ","kana_address":"ﾊﾙﾀﾞ","pref":"福島県","city":"田村郡三春町","address":"春田"},
{"zip_code":"9637754","kana_pref":"ﾌｸｼﾏｹﾝ","kana_city":"ﾀﾑﾗｸﾞﾝﾐﾊﾙﾏﾁ","kana_address":"ﾊﾞﾝｸﾞﾐ","pref":"福島県","city":"田村郡三春町","address":"番組"},
{"zip_code":"9637754","kana_pref":"ﾌｸｼﾏｹﾝ","kana_city":"ﾀﾑﾗｸﾞﾝﾐﾊﾙﾏﾁ","kana_address":"ﾊﾞﾝｸﾞﾐｶﾞｼﾗ","pref":"福島県","city":"田村郡三春町","address":"番組頭"},
{"zip_code":"9637763","kana_pref":"ﾌｸｼﾏｹﾝ","kana_city":"ﾀﾑﾗｸﾞﾝﾐﾊﾙﾏﾁ","kana_address":"ﾋﾅﾀﾏﾁ","pref":"福島県","city":"田村郡三春町","address":"日向町"},
{"zip_code":"9637771","kana_pref":"ﾌｸｼﾏｹﾝ","kana_city":"ﾀﾑﾗｸﾞﾝﾐﾊﾙﾏﾁ","kana_address":"ﾋﾗｻﾜ","pref":"福島県","city":"田村郡三春町","address":"平沢"},
{"zip_code":"9637715","kana_pref":"ﾌｸｼﾏｹﾝ","kana_city":"ﾀﾑﾗｸﾞﾝﾐﾊﾙﾏﾁ","kana_address":"ﾋﾜﾀｼ","pref":"福島県","city":"田村郡三春町","address":"樋渡"},
{"zip_code":"9637773","kana_pref":"ﾌｸｼﾏｹﾝ","kana_city":"ﾀﾑﾗｸﾞﾝﾐﾊﾙﾏﾁ","kana_address":"ﾌｶﾀﾞﾜ","pref":"福島県","city":"田村郡三春町","address":"深田和"},
{"zip_code":"9637716","kana_pref":"ﾌｸｼﾏｹﾝ","kana_city":"ﾀﾑﾗｸﾞﾝﾐﾊﾙﾏﾁ","kana_address":"ﾍﾋﾞｲｼ","pref":"福島県","city":"田村郡三春町","address":"蛇石"},
{"zip_code":"9637721","kana_pref":"ﾌｸｼﾏｹﾝ","kana_city":"ﾀﾑﾗｸﾞﾝﾐﾊﾙﾏﾁ","kana_address":"ﾍﾋﾞｻﾜ","pref":"福島県","city":"田村郡三春町","address":"蛇沢"},
{"zip_code":"9637785","kana_pref":"ﾌｸｼﾏｹﾝ","kana_city":"ﾀﾑﾗｸﾞﾝﾐﾊﾙﾏﾁ","kana_address":"ﾏﾂﾊﾞｼ","pref":"福島県","city":"田村郡三春町","address":"松橋"},
{"zip_code":"9637783","kana_pref":"ﾌｸｼﾏｹﾝ","kana_city":"ﾀﾑﾗｸﾞﾝﾐﾊﾙﾏﾁ","kana_address":"ﾐﾅﾐﾅﾘﾀ","pref":"福島県","city":"田村郡三春町","address":"南成田"},
{"zip_code":"9637756","kana_pref":"ﾌｸｼﾏｹﾝ","kana_city":"ﾀﾑﾗｸﾞﾝﾐﾊﾙﾏﾁ","kana_address":"ﾐﾅﾐﾏﾁ","pref":"福島県","city":"田村郡三春町","address":"南町"},
{"zip_code":"9637763","kana_pref":"ﾌｸｼﾏｹﾝ","kana_city":"ﾀﾑﾗｸﾞﾝﾐﾊﾙﾏﾁ","kana_address":"ﾓﾁｱｲﾊﾞﾀ","pref":"福島県","city":"田村郡三春町","address":"持合畑"},
{"zip_code":"9637741","kana_pref":"ﾌｸｼﾏｹﾝ","kana_city":"ﾀﾑﾗｸﾞﾝﾐﾊﾙﾏﾁ","kana_address":"ﾔｼﾏﾀﾞｲ","pref":"福島県","city":"田村郡三春町","address":"八島台"},
{"zip_code":"9637753","kana_pref":"ﾌｸｼﾏｹﾝ","kana_city":"ﾀﾑﾗｸﾞﾝﾐﾊﾙﾏﾁ","kana_address":"ﾔｿｳﾁ","pref":"福島県","city":"田村郡三春町","address":"八十内"},
{"zip_code":"9637748","kana_pref":"ﾌｸｼﾏｹﾝ","kana_city":"ﾀﾑﾗｸﾞﾝﾐﾊﾙﾏﾁ","kana_address":"ﾔﾏｻﾞｷ","pref":"福島県","city":"田村郡三春町","address":"山崎"},
{"zip_code":"9637733","kana_pref":"ﾌｸｼﾏｹﾝ","kana_city":"ﾀﾑﾗｸﾞﾝﾐﾊﾙﾏﾁ","kana_address":"ﾔﾏﾀﾞ","pref":"福島県","city":"田村郡三春町","address":"山田"},
{"zip_code":"9637754","kana_pref":"ﾌｸｼﾏｹﾝ","kana_city":"ﾀﾑﾗｸﾞﾝﾐﾊﾙﾏﾁ","kana_address":"ﾕﾐﾏﾁ","pref":"福島県","city":"田村郡三春町","address":"弓町"},
{"zip_code":"9637718","kana_pref":"ﾌｸｼﾏｹﾝ","kana_city":"ﾀﾑﾗｸﾞﾝﾐﾊﾙﾏﾁ","kana_address":"ﾖｷﾞｱｼ","pref":"福島県","city":"田村郡三春町","address":"過足"},
{"zip_code":"9637712","kana_pref":"ﾌｸｼﾏｹﾝ","kana_city":"ﾀﾑﾗｸﾞﾝﾐﾊﾙﾏﾁ","kana_address":"ﾗｸｳﾁ","pref":"福島県","city":"田村郡三春町","address":"楽内"},
{"zip_code":"9637752","kana_pref":"ﾌｸｼﾏｹﾝ","kana_city":"ﾀﾑﾗｸﾞﾝﾐﾊﾙﾏﾁ","kana_address":"ﾛｸｼｮｳﾏｷ","pref":"福島県","city":"田村郡三春町","address":"六升蒔"},
{"zip_code":"9637784","kana_pref":"ﾌｸｼﾏｹﾝ","kana_city":"ﾀﾑﾗｸﾞﾝﾐﾊﾙﾏﾁ","kana_address":"ﾛｸﾄﾏｷ","pref":"福島県","city":"田村郡三春町","address":"六斗蒔"},
{"zip_code":"9633400","kana_pref":"ﾌｸｼﾏｹﾝ","kana_city":"ﾀﾑﾗｸﾞﾝｵﾉﾏﾁ","kana_address":"","pref":"福島県","city":"田村郡小野町","address":""},
{"zip_code":"9633521","kana_pref":"ﾌｸｼﾏｹﾝ","kana_city":"ﾀﾑﾗｸﾞﾝｵﾉﾏﾁ","kana_address":"ｲｲﾄﾖ","pref":"福島県","city":"田村郡小野町","address":"飯豊"},
{"zip_code":"9633524","kana_pref":"ﾌｸｼﾏｹﾝ","kana_city":"ﾀﾑﾗｸﾞﾝｵﾉﾏﾁ","kana_address":"ｳｷｶﾞﾈ","pref":"福島県","city":"田村郡小野町","address":"浮金"},
{"zip_code":"9633522","kana_pref":"ﾌｸｼﾏｹﾝ","kana_city":"ﾀﾑﾗｸﾞﾝｵﾉﾏﾁ","kana_address":"ｵﾄｶﾐ","pref":"福島県","city":"田村郡小野町","address":"小戸神"},
{"zip_code":"9633403","kana_pref":"ﾌｸｼﾏｹﾝ","kana_city":"ﾀﾑﾗｸﾞﾝｵﾉﾏﾁ","kana_address":"ｵﾉｱｶﾇﾏ","pref":"福島県","city":"田村郡小野町","address":"小野赤沼"},
{"zip_code":"9633401","kana_pref":"ﾌｸｼﾏｹﾝ","kana_city":"ﾀﾑﾗｸﾞﾝｵﾉﾏﾁ","kana_address":"ｵﾉﾆｲﾏﾁ","pref":"福島県","city":"田村郡小野町","address":"小野新町"},
{"zip_code":"9633523","kana_pref":"ﾌｸｼﾏｹﾝ","kana_city":"ﾀﾑﾗｸﾞﾝｵﾉﾏﾁ","kana_address":"ｵﾉﾔﾏｶﾐ","pref":"福島県","city":"田村郡小野町","address":"小野山神"},
{"zip_code":"9633316","kana_pref":"ﾌｸｼﾏｹﾝ","kana_city":"ﾀﾑﾗｸﾞﾝｵﾉﾏﾁ","kana_address":"ｶﾐﾊﾃﾞﾆﾜ","pref":"福島県","city":"田村郡小野町","address":"上羽出庭"},
{"zip_code":"9633405","kana_pref":"ﾌｸｼﾏｹﾝ","kana_city":"ﾀﾑﾗｸﾞﾝｵﾉﾏﾁ","kana_address":"ｶﾘﾏﾝﾀﾞ","pref":"福島県","city":"田村郡小野町","address":"雁股田"},
{"zip_code":"9633406","kana_pref":"ﾌｸｼﾏｹﾝ","kana_city":"ﾀﾑﾗｸﾞﾝｵﾉﾏﾁ","kana_address":"ｶﾜｺﾞｲｼ","pref":"福島県","city":"田村郡小野町","address":"皮籠石"},
{"zip_code":"9633314","kana_pref":"ﾌｸｼﾏｹﾝ","kana_city":"ﾀﾑﾗｸﾞﾝｵﾉﾏﾁ","kana_address":"ｼｵﾆﾜ","pref":"福島県","city":"田村郡小野町","address":"塩庭"},
{"zip_code":"9633404","kana_pref":"ﾌｸｼﾏｹﾝ","kana_city":"ﾀﾑﾗｸﾞﾝｵﾉﾏﾁ","kana_address":"ｼｮｳﾌﾞﾔ","pref":"福島県","city":"田村郡小野町","address":"菖蒲谷"},
{"zip_code":"9633312","kana_pref":"ﾌｸｼﾏｹﾝ","kana_city":"ﾀﾑﾗｸﾞﾝｵﾉﾏﾁ","kana_address":"ﾅﾂｲ","pref":"福島県","city":"田村郡小野町","address":"夏井"},
{"zip_code":"9633313","kana_pref":"ﾌｸｼﾏｹﾝ","kana_city":"ﾀﾑﾗｸﾞﾝｵﾉﾏﾁ","kana_address":"ﾐﾅﾐﾀﾜﾗｲ","pref":"福島県","city":"田村郡小野町","address":"南田原井"},
{"zip_code":"9633402","kana_pref":"ﾌｸｼﾏｹﾝ","kana_city":"ﾀﾑﾗｸﾞﾝｵﾉﾏﾁ","kana_address":"ﾔﾂｻﾞｸ","pref":"福島県","city":"田村郡小野町","address":"谷津作"},
{"zip_code":"9633311","kana_pref":"ﾌｸｼﾏｹﾝ","kana_city":"ﾀﾑﾗｸﾞﾝｵﾉﾏﾁ","kana_address":"ﾕｻﾞﾜ","pref":"福島県","city":"田村郡小野町","address":"湯沢"},
{"zip_code":"9633525","kana_pref":"ﾌｸｼﾏｹﾝ","kana_city":"ﾀﾑﾗｸﾞﾝｵﾉﾏﾁ","kana_address":"ﾖｼﾉﾍﾞ","pref":"福島県","city":"田村郡小野町","address":"吉野辺"},
{"zip_code":"9633315","kana_pref":"ﾌｸｼﾏｹﾝ","kana_city":"ﾀﾑﾗｸﾞﾝｵﾉﾏﾁ","kana_address":"ﾜﾅﾀﾞ","pref":"福島県","city":"田村郡小野町","address":"和名田"}]}