{"zip_code":[
{"zip_code":"9640000","kana_pref":"ﾌｸｼﾏｹﾝ","kana_city":"ﾆﾎﾝﾏﾂｼ","kana_address":"","pref":"福島県","city":"二本松市","address":""},
{"zip_code":"9640982","kana_pref":"ﾌｸｼﾏｹﾝ","kana_city":"ﾆﾎﾝﾏﾂｼ","kana_address":"ｱｶｲｻﾜ","pref":"福島県","city":"二本松市","address":"赤井沢"},
{"zip_code":"9640929","kana_pref":"ﾌｸｼﾏｹﾝ","kana_city":"ﾆﾎﾝﾏﾂｼ","kana_address":"ｱｻｶﾞﾜ","pref":"福島県","city":"二本松市","address":"浅川"},
{"zip_code":"9640938","kana_pref":"ﾌｸｼﾏｹﾝ","kana_city":"ﾆﾎﾝﾏﾂｼ","kana_address":"ｱﾀﾞﾁｶﾞﾊﾗ","pref":"福島県","city":"二本松市","address":"安達ケ原"},
{"zip_code":"9640802","kana_pref":"ﾌｸｼﾏｹﾝ","kana_city":"ﾆﾎﾝﾏﾂｼ","kana_address":"ｱﾌﾞｽﾞﾘｲｼ","pref":"福島県","city":"二本松市","address":"鐙摺石"},
{"zip_code":"9640004","kana_pref":"ﾌｸｼﾏｹﾝ","kana_city":"ﾆﾎﾝﾏﾂｼ","kana_address":"ｲｻﾇﾏﾏﾁ","pref":"福島県","city":"二本松市","address":"伊佐沼町"},
{"zip_code":"9640826","kana_pref":"ﾌｸｼﾏｹﾝ","kana_city":"ﾆﾎﾝﾏﾂｼ","kana_address":"ｲｼﾉﾊﾅ","pref":"福島県","city":"二本松市","address":"石ノ花"},
{"zip_code":"9640927","kana_pref":"ﾌｸｼﾏｹﾝ","kana_city":"ﾆﾎﾝﾏﾂｼ","kana_address":"ｲｼﾊﾀ","pref":"福島県","city":"二本松市","address":"石畑"},
{"zip_code":"9640015","kana_pref":"ﾌｸｼﾏｹﾝ","kana_city":"ﾆﾎﾝﾏﾂｼ","kana_address":"ｲﾀﾒｻﾞﾜ","pref":"福島県","city":"二本松市","address":"板目沢"},
{"zip_code":"9640914","kana_pref":"ﾌｸｼﾏｹﾝ","kana_city":"ﾆﾎﾝﾏﾂｼ","kana_address":"ｲﾁｶｲﾄﾞｳ","pref":"福島県","city":"二本松市","address":"市海道"},
{"zip_code":"9640024","kana_pref":"ﾌｸｼﾏｹﾝ","kana_city":"ﾆﾎﾝﾏﾂｼ","kana_address":"ｲﾄﾞｶﾞﾐ","pref":"福島県","city":"二本松市","address":"井戸神"},
{"zip_code":"9640823","kana_pref":"ﾌｸｼﾏｹﾝ","kana_city":"ﾆﾎﾝﾏﾂｼ","kana_address":"ｲﾜｻｷ","pref":"福島県","city":"二本松市","address":"岩崎"},
{"zip_code":"9640932","kana_pref":"ﾌｸｼﾏｹﾝ","kana_city":"ﾆﾎﾝﾏﾂｼ","kana_address":"ｳｼｺｳﾁ","pref":"福島県","city":"二本松市","address":"丑子内"},
{"zip_code":"9640053","kana_pref":"ﾌｸｼﾏｹﾝ","kana_city":"ﾆﾎﾝﾏﾂｼ","kana_address":"ｳﾊﾞｻﾞﾜ","pref":"福島県","city":"二本松市","address":"乳母沢"},
{"zip_code":"9640898","kana_pref":"ﾌｸｼﾏｹﾝ","kana_city":"ﾆﾎﾝﾏﾂｼ","kana_address":"ｳﾜﾊﾞﾗ","pref":"福島県","city":"二本松市","address":"上原"},
{"zip_code":"9640997","kana_pref":"ﾌｸｼﾏｹﾝ","kana_city":"ﾆﾎﾝﾏﾂｼ","kana_address":"ｴｸﾞﾁ","pref":"福島県","city":"二本松市","address":"江口"},
{"zip_code":"9640937","kana_pref":"ﾌｸｼﾏｹﾝ","kana_city":"ﾆﾎﾝﾏﾂｼ","kana_address":"ｴﾉｷﾄﾞ","pref":"福島県","city":"二本松市","address":"榎戸"},
{"zip_code":"9640057","kana_pref":"ﾌｸｼﾏｹﾝ","kana_city":"ﾆﾎﾝﾏﾂｼ","kana_address":"ｵｵｲｼｶﾞｻｸ","pref":"福島県","city":"二本松市","address":"大石ケ作"},
{"zip_code":"9640954","kana_pref":"ﾌｸｼﾏｹﾝ","kana_city":"ﾆﾎﾝﾏﾂｼ","kana_address":"ｵｵｲﾅﾊﾞ","pref":"福島県","city":"二本松市","address":"大稲場"},
{"zip_code":"9640963","kana_pref":"ﾌｸｼﾏｹﾝ","kana_city":"ﾆﾎﾝﾏﾂｼ","kana_address":"ｵｵｸﾎﾞ","pref":"福島県","city":"二本松市","address":"大久保"},
{"zip_code":"9640048","kana_pref":"ﾌｸｼﾏｹﾝ","kana_city":"ﾆﾎﾝﾏﾂｼ","kana_address":"ｵｵｻｶ","pref":"福島県","city":"二本松市","address":"大坂"},
{"zip_code":"9640849","kana_pref":"ﾌｸｼﾏｹﾝ","kana_city":"ﾆﾎﾝﾏﾂｼ","kana_address":"ｵｵｻﾜ","pref":"福島県","city":"二本松市","address":"大沢"},
{"zip_code":"9640077","kana_pref":"ﾌｸｼﾏｹﾝ","kana_city":"ﾆﾎﾝﾏﾂｼ","kana_address":"ｵｵｾﾞｷ","pref":"福島県","city":"二本松市","address":"大関"},
{"zip_code":"9640111","kana_pref":"ﾌｸｼﾏｹﾝ","kana_city":"ﾆﾎﾝﾏﾂｼ","kana_address":"ｵｵﾀ","pref":"福島県","city":"二本松市","address":"太田"},
{"zip_code":"9640949","kana_pref":"ﾌｸｼﾏｹﾝ","kana_city":"ﾆﾎﾝﾏﾂｼ","kana_address":"ｵｵﾀｲﾗﾅｶｲ","pref":"福島県","city":"二本松市","address":"大平中井"},
{"zip_code":"9640891","kana_pref":"ﾌｸｼﾏｹﾝ","kana_city":"ﾆﾎﾝﾏﾂｼ","kana_address":"ｵｵﾀﾞﾝ","pref":"福島県","city":"二本松市","address":"大壇"},
{"zip_code":"9640869","kana_pref":"ﾌｸｼﾏｹﾝ","kana_city":"ﾆﾎﾝﾏﾂｼ","kana_address":"ｵｵﾋﾗﾔﾏ","pref":"福島県","city":"二本松市","address":"大平山"},
{"zip_code":"9640996","kana_pref":"ﾌｸｼﾏｹﾝ","kana_city":"ﾆﾎﾝﾏﾂｼ","kana_address":"ｵｵﾏﾁ","pref":"福島県","city":"二本松市","address":"大町"},
{"zip_code":"9640016","kana_pref":"ﾌｸｼﾏｹﾝ","kana_city":"ﾆﾎﾝﾏﾂｼ","kana_address":"ｵｵﾓﾘｻﾜ","pref":"福島県","city":"二本松市","address":"大森沢"},
{"zip_code":"9640975","kana_pref":"ﾌｸｼﾏｹﾝ","kana_city":"ﾆﾎﾝﾏﾂｼ","kana_address":"ｵｶﾉｳﾁ","pref":"福島県","city":"二本松市","address":"岡ノ内"},
{"zip_code":"9640955","kana_pref":"ﾌｸｼﾏｹﾝ","kana_city":"ﾆﾎﾝﾏﾂｼ","kana_address":"ｵｷ","pref":"福島県","city":"二本松市","address":"沖"},
{"zip_code":"9640832","kana_pref":"ﾌｸｼﾏｹﾝ","kana_city":"ﾆﾎﾝﾏﾂｼ","kana_address":"ｵﾁｱｲ","pref":"福島県","city":"二本松市","address":"落合"},
{"zip_code":"9640313","kana_pref":"ﾌｸｼﾏｹﾝ","kana_city":"ﾆﾎﾝﾏﾂｼ","kana_address":"ｵﾊﾞﾏ","pref":"福島県","city":"二本松市","address":"小浜"},
{"zip_code":"9640901","kana_pref":"ﾌｸｼﾏｹﾝ","kana_city":"ﾆﾎﾝﾏﾂｼ","kana_address":"ｵﾓﾃ","pref":"福島県","city":"二本松市","address":"表"},
{"zip_code":"9640904","kana_pref":"ﾌｸｼﾏｹﾝ","kana_city":"ﾆﾎﾝﾏﾂｼ","kana_address":"ｶｸﾅｲ","pref":"福島県","city":"二本松市","address":"郭内"},
{"zip_code":"9640842","kana_pref":"ﾌｸｼﾏｹﾝ","kana_city":"ﾆﾎﾝﾏﾂｼ","kana_address":"ｶｸﾚｻﾄ","pref":"福島県","city":"二本松市","address":"隠里"},
{"zip_code":"9640863","kana_pref":"ﾌｸｼﾏｹﾝ","kana_city":"ﾆﾎﾝﾏﾂｼ","kana_address":"ｶﾀｷﾞｼ","pref":"福島県","city":"二本松市","address":"片岸"},
{"zip_code":"9640915","kana_pref":"ﾌｸｼﾏｹﾝ","kana_city":"ﾆﾎﾝﾏﾂｼ","kana_address":"ｶﾅｲﾛ","pref":"福島県","city":"二本松市","address":"金色"},
{"zip_code":"9640807","kana_pref":"ﾌｸｼﾏｹﾝ","kana_city":"ﾆﾎﾝﾏﾂｼ","kana_address":"ｶﾅｲﾛｸﾎﾞ","pref":"福島県","city":"二本松市","address":"金色久保"},
{"zip_code":"9640987","kana_pref":"ﾌｸｼﾏｹﾝ","kana_city":"ﾆﾎﾝﾏﾂｼ","kana_address":"ｶﾌﾞｷ","pref":"福島県","city":"二本松市","address":"冠木"},
{"zip_code":"9640321","kana_pref":"ﾌｸｼﾏｹﾝ","kana_city":"ﾆﾎﾝﾏﾂｼ","kana_address":"ｶﾐｵｵﾀ","pref":"福島県","city":"二本松市","address":"上太田"},
{"zip_code":"9640014","kana_pref":"ﾌｸｼﾏｹﾝ","kana_city":"ﾆﾎﾝﾏﾂｼ","kana_address":"ｶﾐｼﾝﾃﾞﾝ","pref":"福島県","city":"二本松市","address":"上新田"},
{"zip_code":"9640312","kana_pref":"ﾌｸｼﾏｹﾝ","kana_city":"ﾆﾎﾝﾏﾂｼ","kana_address":"ｶﾐﾅｶﾞｵﾘ","pref":"福島県","city":"二本松市","address":"上長折"},
{"zip_code":"9640073","kana_pref":"ﾌｸｼﾏｹﾝ","kana_city":"ﾆﾎﾝﾏﾂｼ","kana_address":"ｶﾐﾊｷﾞｻﾞｶ","pref":"福島県","city":"二本松市","address":"上葉木坂"},
{"zip_code":"9640848","kana_pref":"ﾌｸｼﾏｹﾝ","kana_city":"ﾆﾎﾝﾏﾂｼ","kana_address":"ｶﾐﾋﾗｳﾁ","pref":"福島県","city":"二本松市","address":"上平内"},
{"zip_code":"9640926","kana_pref":"ﾌｸｼﾏｹﾝ","kana_city":"ﾆﾎﾝﾏﾂｼ","kana_address":"ｶﾐﾖﾓｷﾞﾀ","pref":"福島県","city":"二本松市","address":"上蓬田"},
{"zip_code":"9640911","kana_pref":"ﾌｸｼﾏｹﾝ","kana_city":"ﾆﾎﾝﾏﾂｼ","kana_address":"ｶﾒｶﾞｲ","pref":"福島県","city":"二本松市","address":"亀谷"},
{"zip_code":"9640815","kana_pref":"ﾌｸｼﾏｹﾝ","kana_city":"ﾆﾎﾝﾏﾂｼ","kana_address":"ｶﾗｶｲﾔﾏ","pref":"福島県","city":"二本松市","address":"唐谷山"},
{"zip_code":"9640838","kana_pref":"ﾌｸｼﾏｹﾝ","kana_city":"ﾆﾎﾝﾏﾂｼ","kana_address":"ｶﾘﾔﾄﾞ","pref":"福島県","city":"二本松市","address":"借宿"},
{"zip_code":"9640984","kana_pref":"ﾌｸｼﾏｹﾝ","kana_city":"ﾆﾎﾝﾏﾂｼ","kana_address":"ｷﾀﾄﾛﾐ","pref":"福島県","city":"二本松市","address":"北トロミ"},
{"zip_code":"9640808","kana_pref":"ﾌｸｼﾏｹﾝ","kana_city":"ﾆﾎﾝﾏﾂｼ","kana_address":"ｷﾄｳｼﾞﾛｳｳﾁ","pref":"福島県","city":"二本松市","address":"木藤次郎内"},
{"zip_code":"9640956","kana_pref":"ﾌｸｼﾏｹﾝ","kana_city":"ﾆﾎﾝﾏﾂｼ","kana_address":"ｷﾉｻｷ","pref":"福島県","city":"二本松市","address":"木ノ崎"},
{"zip_code":"9640087","kana_pref":"ﾌｸｼﾏｹﾝ","kana_city":"ﾆﾎﾝﾏﾂｼ","kana_address":"ｷﾉﾈｻｶ","pref":"福島県","city":"二本松市","address":"木ノ根坂"},
{"zip_code":"9640853","kana_pref":"ﾌｸｼﾏｹﾝ","kana_city":"ﾆﾎﾝﾏﾂｼ","kana_address":"ｺｳﾖｳﾀﾞｲ","pref":"福島県","city":"二本松市","address":"向陽台"},
{"zip_code":"9640854","kana_pref":"ﾌｸｼﾏｹﾝ","kana_city":"ﾆﾎﾝﾏﾂｼ","kana_address":"ｺｵﾘﾔﾏﾀﾞｲ","pref":"福島県","city":"二本松市","address":"郡山台"},
{"zip_code":"9640921","kana_pref":"ﾌｸｼﾏｹﾝ","kana_city":"ﾆﾎﾝﾏﾂｼ","kana_address":"ｺｾｶﾞﾜ","pref":"福島県","city":"二本松市","address":"小セ川"},
{"zip_code":"9640065","kana_pref":"ﾌｸｼﾏｹﾝ","kana_city":"ﾆﾎﾝﾏﾂｼ","kana_address":"ｺｾｷ","pref":"福島県","city":"二本松市","address":"小関"},
{"zip_code":"9640974","kana_pref":"ﾌｸｼﾏｹﾝ","kana_city":"ﾆﾎﾝﾏﾂｼ","kana_address":"ｺﾀﾞｺｳﾁ","pref":"福島県","city":"二本松市","address":"小高内"},
{"zip_code":"9640203","kana_pref":"ﾌｸｼﾏｹﾝ","kana_city":"ﾆﾎﾝﾏﾂｼ","kana_address":"ｺﾊﾀ","pref":"福島県","city":"二本松市","address":"木幡"},
{"zip_code":"9640007","kana_pref":"ﾌｸｼﾏｹﾝ","kana_city":"ﾆﾎﾝﾏﾂｼ","kana_address":"ｺﾔ","pref":"福島県","city":"二本松市","address":"古家"},
{"zip_code":"9640314","kana_pref":"ﾌｸｼﾏｹﾝ","kana_city":"ﾆﾎﾝﾏﾂｼ","kana_address":"ｻｲｶﾁﾀ","pref":"福島県","city":"二本松市","address":"西勝田"},
{"zip_code":"9640063","kana_pref":"ﾌｸｼﾏｹﾝ","kana_city":"ﾆﾎﾝﾏﾂｼ","kana_address":"ｻｲｷﾔﾏ","pref":"福島県","city":"二本松市","address":"才木山"},
{"zip_code":"9640933","kana_pref":"ﾌｸｼﾏｹﾝ","kana_city":"ﾆﾎﾝﾏﾂｼ","kana_address":"ｻｲｺｳｳﾁ","pref":"福島県","city":"二本松市","address":"西光内"},
{"zip_code":"9640844","kana_pref":"ﾌｸｼﾏｹﾝ","kana_city":"ﾆﾎﾝﾏﾂｼ","kana_address":"ｻﾞｲｼ","pref":"福島県","city":"二本松市","address":"在師"},
{"zip_code":"9640893","kana_pref":"ﾌｸｼﾏｹﾝ","kana_city":"ﾆﾎﾝﾏﾂｼ","kana_address":"ｻｲﾜｲﾁｮｳ","pref":"福島県","city":"二本松市","address":"幸町"},
{"zip_code":"9640913","kana_pref":"ﾌｸｼﾏｹﾝ","kana_city":"ﾆﾎﾝﾏﾂｼ","kana_address":"ｻｴﾝ","pref":"福島県","city":"二本松市","address":"茶園"},
{"zip_code":"9640071","kana_pref":"ﾌｸｼﾏｹﾝ","kana_city":"ﾆﾎﾝﾏﾂｼ","kana_address":"ｻｶｴﾏﾁ","pref":"福島県","city":"二本松市","address":"栄町"},
{"zip_code":"9640944","kana_pref":"ﾌｸｼﾏｹﾝ","kana_city":"ﾆﾎﾝﾏﾂｼ","kana_address":"ｻｸ","pref":"福島県","city":"二本松市","address":"作"},
{"zip_code":"9640986","kana_pref":"ﾌｸｼﾏｹﾝ","kana_city":"ﾆﾎﾝﾏﾂｼ","kana_address":"ｻｸﾀ","pref":"福島県","city":"二本松市","address":"作田"},
{"zip_code":"9640005","kana_pref":"ﾌｸｼﾏｹﾝ","kana_city":"ﾆﾎﾝﾏﾂｼ","kana_address":"ｻｻﾔ","pref":"福島県","city":"二本松市","address":"笹屋"},
{"zip_code":"9640964","kana_pref":"ﾌｸｼﾏｹﾝ","kana_city":"ﾆﾎﾝﾏﾂｼ","kana_address":"ｻﾂｷﾁｮｳ","pref":"福島県","city":"二本松市","address":"五月町"},
{"zip_code":"9640088","kana_pref":"ﾌｸｼﾏｹﾝ","kana_city":"ﾆﾎﾝﾏﾂｼ","kana_address":"ｻﾜﾏﾂｸﾗ","pref":"福島県","city":"二本松市","address":"沢松倉"},
{"zip_code":"9640934","kana_pref":"ﾌｸｼﾏｹﾝ","kana_city":"ﾆﾎﾝﾏﾂｼ","kana_address":"ｻﾝｺﾞｳｳﾁ","pref":"福島県","city":"二本松市","address":"三合内"},
{"zip_code":"9640058","kana_pref":"ﾌｸｼﾏｹﾝ","kana_city":"ﾆﾎﾝﾏﾂｼ","kana_address":"ｻﾝﾕｳｻﾞﾝ","pref":"福島県","city":"二本松市","address":"三雄山"},
{"zip_code":"9640086","kana_pref":"ﾌｸｼﾏｹﾝ","kana_city":"ﾆﾎﾝﾏﾂｼ","kana_address":"ｼｵｻﾞﾜ","pref":"福島県","city":"二本松市","address":"塩沢"},
{"zip_code":"9640897","kana_pref":"ﾌｸｼﾏｹﾝ","kana_city":"ﾆﾎﾝﾏﾂｼ","kana_address":"ｼｵｻﾞﾜﾁｮｳ","pref":"福島県","city":"二本松市","address":"塩沢町"},
{"zip_code":"9640942","kana_pref":"ﾌｸｼﾏｹﾝ","kana_city":"ﾆﾎﾝﾏﾂｼ","kana_address":"ｼｷﾌﾞｳﾁ","pref":"福島県","city":"二本松市","address":"式部内"},
{"zip_code":"9640825","kana_pref":"ﾌｸｼﾏｹﾝ","kana_city":"ﾆﾎﾝﾏﾂｼ","kana_address":"ｼﾀﾏﾁ","pref":"福島県","city":"二本松市","address":"下町"},
{"zip_code":"9640922","kana_pref":"ﾌｸｼﾏｹﾝ","kana_city":"ﾆﾎﾝﾏﾂｼ","kana_address":"ｼﾏﾃﾞﾗ","pref":"福島県","city":"二本松市","address":"島寺"},
{"zip_code":"9640935","kana_pref":"ﾌｸｼﾏｹﾝ","kana_city":"ﾆﾎﾝﾏﾂｼ","kana_address":"ｼﾏﾉｳﾁ","pref":"福島県","city":"二本松市","address":"島ノ内"},
{"zip_code":"9640804","kana_pref":"ﾌｸｼﾏｹﾝ","kana_city":"ﾆﾎﾝﾏﾂｼ","kana_address":"ｼﾓﾀｲﾗ","pref":"福島県","city":"二本松市","address":"下平"},
{"zip_code":"9640316","kana_pref":"ﾌｸｼﾏｹﾝ","kana_city":"ﾆﾎﾝﾏﾂｼ","kana_address":"ｼﾓﾅｶﾞｵﾘ","pref":"福島県","city":"二本松市","address":"下長折"},
{"zip_code":"9640805","kana_pref":"ﾌｸｼﾏｹﾝ","kana_city":"ﾆﾎﾝﾏﾂｼ","kana_address":"ｼﾓﾉｳﾁ","pref":"福島県","city":"二本松市","address":"下ノ内"},
{"zip_code":"9640883","kana_pref":"ﾌｸｼﾏｹﾝ","kana_city":"ﾆﾎﾝﾏﾂｼ","kana_address":"ｼﾓﾔﾏﾀﾞ","pref":"福島県","city":"二本松市","address":"下山田"},
{"zip_code":"9640912","kana_pref":"ﾌｸｼﾏｹﾝ","kana_city":"ﾆﾎﾝﾏﾂｼ","kana_address":"ｼﾞｮｳﾀｹ","pref":"福島県","city":"二本松市","address":"上竹"},
{"zip_code":"9640876","kana_pref":"ﾌｸｼﾏｹﾝ","kana_city":"ﾆﾎﾝﾏﾂｼ","kana_address":"ｼｮｳﾎﾞｳｼﾞﾏﾁ","pref":"福島県","city":"二本松市","address":"正法寺町"},
{"zip_code":"9640966","kana_pref":"ﾌｸｼﾏｹﾝ","kana_city":"ﾆﾎﾝﾏﾂｼ","kana_address":"ｼｮｳﾜﾏﾁ","pref":"福島県","city":"二本松市","address":"昭和町"},
{"zip_code":"9640882","kana_pref":"ﾌｸｼﾏｹﾝ","kana_city":"ﾆﾎﾝﾏﾂｼ","kana_address":"ｼﾝｻﾞ","pref":"福島県","city":"二本松市","address":"新座"},
{"zip_code":"9640976","kana_pref":"ﾌｸｼﾏｹﾝ","kana_city":"ﾆﾎﾝﾏﾂｼ","kana_address":"ｼﾝｾｲﾁｮｳ","pref":"福島県","city":"二本松市","address":"新生町"},
{"zip_code":"9640013","kana_pref":"ﾌｸｼﾏｹﾝ","kana_city":"ﾆﾎﾝﾏﾂｼ","kana_address":"ｼﾝﾃﾞﾝ","pref":"福島県","city":"二本松市","address":"新田"},
{"zip_code":"9640828","kana_pref":"ﾌｸｼﾏｹﾝ","kana_city":"ﾆﾎﾝﾏﾂｼ","kana_address":"ｼﾝﾊﾞﾔｼ","pref":"福島県","city":"二本松市","address":"新林"},
{"zip_code":"9640952","kana_pref":"ﾌｸｼﾏｹﾝ","kana_city":"ﾆﾎﾝﾏﾂｼ","kana_address":"ｼﾝﾒｲｲｼ","pref":"福島県","city":"二本松市","address":"神明石"},
{"zip_code":"9640835","kana_pref":"ﾌｸｼﾏｹﾝ","kana_city":"ﾆﾎﾝﾏﾂｼ","kana_address":"ｽｲｼﾞﾝ","pref":"福島県","city":"二本松市","address":"水神"},
{"zip_code":"9640896","kana_pref":"ﾌｸｼﾏｹﾝ","kana_city":"ﾆﾎﾝﾏﾂｼ","kana_address":"ｽｴﾋﾛﾁｮｳ","pref":"福島県","city":"二本松市","address":"末広町"},
{"zip_code":"9640836","kana_pref":"ﾌｸｼﾏｹﾝ","kana_city":"ﾆﾎﾝﾏﾂｼ","kana_address":"ｽｶﾞﾀ","pref":"福島県","city":"二本松市","address":"菅田"},
{"zip_code":"9640302","kana_pref":"ﾌｸｼﾏｹﾝ","kana_city":"ﾆﾎﾝﾏﾂｼ","kana_address":"ｽｷﾞｻﾜ","pref":"福島県","city":"二本松市","address":"杉沢"},
{"zip_code":"9640862","kana_pref":"ﾌｸｼﾏｹﾝ","kana_city":"ﾆﾎﾝﾏﾂｼ","kana_address":"ｽｷﾞﾀﾀﾞｺﾞｳﾁ","pref":"福島県","city":"二本松市","address":"杉田駄子内"},
{"zip_code":"9640833","kana_pref":"ﾌｸｼﾏｹﾝ","kana_city":"ﾆﾎﾝﾏﾂｼ","kana_address":"ｽｷﾞﾀﾅｶﾉｳﾁ","pref":"福島県","city":"二本松市","address":"杉田仲之内"},
{"zip_code":"9640865","kana_pref":"ﾌｸｼﾏｹﾝ","kana_city":"ﾆﾎﾝﾏﾂｼ","kana_address":"ｽｷﾞﾀﾏﾁ","pref":"福島県","city":"二本松市","address":"杉田町"},
{"zip_code":"9640962","kana_pref":"ﾌｸｼﾏｹﾝ","kana_city":"ﾆﾎﾝﾏﾂｼ","kana_address":"ｽｽﾞｲｼｱｽﾞﾏﾁｮｳ","pref":"福島県","city":"二本松市","address":"鈴石東町"},
{"zip_code":"9640972","kana_pref":"ﾌｸｼﾏｹﾝ","kana_city":"ﾆﾎﾝﾏﾂｼ","kana_address":"ｽｽﾞｲｼﾁｮｳ","pref":"福島県","city":"二本松市","address":"鈴石町"},
{"zip_code":"9640023","kana_pref":"ﾌｸｼﾏｹﾝ","kana_city":"ﾆﾎﾝﾏﾂｼ","kana_address":"ｽｽﾞﾘｲｼ","pref":"福島県","city":"二本松市","address":"硯石"},
{"zip_code":"9640867","kana_pref":"ﾌｸｼﾏｹﾝ","kana_city":"ﾆﾎﾝﾏﾂｼ","kana_address":"ｽﾐﾖｼ","pref":"福島県","city":"二本松市","address":"住吉"},
{"zip_code":"9640824","kana_pref":"ﾌｸｼﾏｹﾝ","kana_city":"ﾆﾎﾝﾏﾂｼ","kana_address":"ｽﾜﾊﾗ","pref":"福島県","city":"二本松市","address":"諏訪原"},
{"zip_code":"9640812","kana_pref":"ﾌｸｼﾏｹﾝ","kana_city":"ﾆﾎﾝﾏﾂｼ","kana_address":"ｾｷ","pref":"福島県","city":"二本松市","address":"関"},
{"zip_code":"9640841","kana_pref":"ﾌｸｼﾏｹﾝ","kana_city":"ﾆﾎﾝﾏﾂｼ","kana_address":"ｾﾉｳｴ","pref":"福島県","city":"二本松市","address":"瀬ノ上"},
{"zip_code":"9640965","kana_pref":"ﾌｸｼﾏｹﾝ","kana_city":"ﾆﾎﾝﾏﾂｼ","kana_address":"ｾﾘｻﾜ","pref":"福島県","city":"二本松市","address":"芹沢"},
{"zip_code":"9640827","kana_pref":"ﾌｸｼﾏｹﾝ","kana_city":"ﾆﾎﾝﾏﾂｼ","kana_address":"ｿﾘｶｴﾘ","pref":"福島県","city":"二本松市","address":"反返"},
{"zip_code":"9640851","kana_pref":"ﾌｸｼﾏｹﾝ","kana_city":"ﾆﾎﾝﾏﾂｼ","kana_address":"ｿﾘﾀ","pref":"福島県","city":"二本松市","address":"反田"},
{"zip_code":"9640084","kana_pref":"ﾌｸｼﾏｹﾝ","kana_city":"ﾆﾎﾝﾏﾂｼ","kana_address":"ﾀﾞｲｺﾝﾊﾀｹ","pref":"福島県","city":"二本松市","address":"大根畑"},
{"zip_code":"9640884","kana_pref":"ﾌｸｼﾏｹﾝ","kana_city":"ﾆﾎﾝﾏﾂｼ","kana_address":"ﾀﾞｲｻｸ","pref":"福島県","city":"二本松市","address":"大作"},
{"zip_code":"9640957","kana_pref":"ﾌｸｼﾏｹﾝ","kana_city":"ﾆﾎﾝﾏﾂｼ","kana_address":"ﾀｲｼﾄﾞｳ","pref":"福島県","city":"二本松市","address":"太子堂"},
{"zip_code":"9640886","kana_pref":"ﾌｸｼﾏｹﾝ","kana_city":"ﾆﾎﾝﾏﾂｼ","kana_address":"ﾀｶｺｼﾏﾂｶﾞｻｸ","pref":"福島県","city":"二本松市","address":"高越松ケ作"},
{"zip_code":"9640885","kana_pref":"ﾌｸｼﾏｹﾝ","kana_city":"ﾆﾎﾝﾏﾂｼ","kana_address":"ﾀｶｺｼﾔﾄﾞ","pref":"福島県","city":"二本松市","address":"高越屋戸"},
{"zip_code":"9640985","kana_pref":"ﾌｸｼﾏｹﾝ","kana_city":"ﾆﾎﾝﾏﾂｼ","kana_address":"ﾀｶﾀﾞ","pref":"福島県","city":"二本松市","address":"高田"},
{"zip_code":"9640028","kana_pref":"ﾌｸｼﾏｹﾝ","kana_city":"ﾆﾎﾝﾏﾂｼ","kana_address":"ﾀｶﾋﾗ","pref":"福島県","city":"二本松市","address":"高平"},
{"zip_code":"9640817","kana_pref":"ﾌｸｼﾏｹﾝ","kana_city":"ﾆﾎﾝﾏﾂｼ","kana_address":"ﾀｶﾆｼ","pref":"福島県","city":"二本松市","address":"高西"},
{"zip_code":"9640074","kana_pref":"ﾌｸｼﾏｹﾝ","kana_city":"ﾆﾎﾝﾏﾂｼ","kana_address":"ﾀﾞｹｵﾝｾﾝ","pref":"福島県","city":"二本松市","address":"岳温泉"},
{"zip_code":"9640062","kana_pref":"ﾌｸｼﾏｹﾝ","kana_city":"ﾆﾎﾝﾏﾂｼ","kana_address":"ﾀﾞｹｵﾝｾﾝﾀﾞｲﾜ","pref":"福島県","city":"二本松市","address":"岳温泉大和"},
{"zip_code":"9640066","kana_pref":"ﾌｸｼﾏｹﾝ","kana_city":"ﾆﾎﾝﾏﾂｼ","kana_address":"ﾀﾞｹｵﾝｾﾝﾆｼﾀﾞｲﾜ","pref":"福島県","city":"二本松市","address":"岳温泉西大和"},
{"zip_code":"9640061","kana_pref":"ﾌｸｼﾏｹﾝ","kana_city":"ﾆﾎﾝﾏﾂｼ","kana_address":"ﾀﾞｹｵﾝｾﾝﾌｶﾎﾘ","pref":"福島県","city":"二本松市","address":"岳温泉深堀"},
{"zip_code":"9640064","kana_pref":"ﾌｸｼﾏｹﾝ","kana_city":"ﾆﾎﾝﾏﾂｼ","kana_address":"ﾀﾞｹｵﾝｾﾝﾖｺﾓﾘ","pref":"福島県","city":"二本松市","address":"岳温泉横森"},
{"zip_code":"9640845","kana_pref":"ﾌｸｼﾏｹﾝ","kana_city":"ﾆﾎﾝﾏﾂｼ","kana_address":"ﾀｹｶﾞﾗ","pref":"福島県","city":"二本松市","address":"竹柄"},
{"zip_code":"9640902","kana_pref":"ﾌｸｼﾏｹﾝ","kana_city":"ﾆﾎﾝﾏﾂｼ","kana_address":"ﾀｹﾀﾞ","pref":"福島県","city":"二本松市","address":"竹田"},
{"zip_code":"9640958","kana_pref":"ﾌｸｼﾏｹﾝ","kana_city":"ﾆﾎﾝﾏﾂｼ","kana_address":"ﾀｹﾉｳﾁ","pref":"福島県","city":"二本松市","address":"竹ノ内"},
{"zip_code":"9640072","kana_pref":"ﾌｸｼﾏｹﾝ","kana_city":"ﾆﾎﾝﾏﾂｼ","kana_address":"ﾀﾞｹﾋｶﾞｼﾏﾁ","pref":"福島県","city":"二本松市","address":"岳東町"},
{"zip_code":"9640431","kana_pref":"ﾌｸｼﾏｹﾝ","kana_city":"ﾆﾎﾝﾏﾂｼ","kana_address":"ﾀｻﾞﾜ","pref":"福島県","city":"二本松市","address":"田沢"},
{"zip_code":"9640038","kana_pref":"ﾌｸｼﾏｹﾝ","kana_city":"ﾆﾎﾝﾏﾂｼ","kana_address":"ﾀﾃｲｼ","pref":"福島県","city":"二本松市","address":"立石"},
{"zip_code":"9640868","kana_pref":"ﾌｸｼﾏｹﾝ","kana_city":"ﾆﾎﾝﾏﾂｼ","kana_address":"ﾀﾃﾉ","pref":"福島県","city":"二本松市","address":"舘野"},
{"zip_code":"9640051","kana_pref":"ﾌｸｼﾏｹﾝ","kana_city":"ﾆﾎﾝﾏﾂｼ","kana_address":"ﾀﾃﾉﾊﾗ","pref":"福島県","city":"二本松市","address":"舘野原"},
{"zip_code":"9640993","kana_pref":"ﾌｸｼﾏｹﾝ","kana_city":"ﾆﾎﾝﾏﾂｼ","kana_address":"ﾀﾏﾁ","pref":"福島県","city":"二本松市","address":"田町"},
{"zip_code":"9640894","kana_pref":"ﾌｸｼﾏｹﾝ","kana_city":"ﾆﾎﾝﾏﾂｼ","kana_address":"ﾀﾞﾝｺﾞｳﾁ","pref":"福島県","city":"二本松市","address":"坦子内"},
{"zip_code":"9640852","kana_pref":"ﾌｸｼﾏｹﾝ","kana_city":"ﾆﾎﾝﾏﾂｼ","kana_address":"ﾁｮｳｼﾞｬﾐﾔ","pref":"福島県","city":"二本松市","address":"長者宮"},
{"zip_code":"9640866","kana_pref":"ﾌｸｼﾏｹﾝ","kana_city":"ﾆﾎﾝﾏﾂｼ","kana_address":"ﾁｮｳﾒｲ","pref":"福島県","city":"二本松市","address":"長命"},
{"zip_code":"9640875","kana_pref":"ﾌｸｼﾏｹﾝ","kana_city":"ﾆﾎﾝﾏﾂｼ","kana_address":"ﾂｷﾉｷ","pref":"福島県","city":"二本松市","address":"槻木"},
{"zip_code":"9640008","kana_pref":"ﾌｸｼﾏｹﾝ","kana_city":"ﾆﾎﾝﾏﾂｼ","kana_address":"ﾃｯｾﾝﾁｮｳ","pref":"福島県","city":"二本松市","address":"鉄扇町"},
{"zip_code":"9640846","kana_pref":"ﾌｸｼﾏｹﾝ","kana_city":"ﾆﾎﾝﾏﾂｼ","kana_address":"ﾄｳｹﾞ","pref":"福島県","city":"二本松市","address":"峠"},
{"zip_code":"9640872","kana_pref":"ﾌｸｼﾏｹﾝ","kana_city":"ﾆﾎﾝﾏﾂｼ","kana_address":"ﾄｳﾀﾛｳｳﾁ","pref":"福島県","city":"二本松市","address":"藤太郎内"},
{"zip_code":"9640881","kana_pref":"ﾌｸｼﾏｹﾝ","kana_city":"ﾆﾎﾝﾏﾂｼ","kana_address":"ﾄｳﾉﾏｴ","pref":"福島県","city":"二本松市","address":"藤之前"},
{"zip_code":"9640433","kana_pref":"ﾌｸｼﾏｹﾝ","kana_city":"ﾆﾎﾝﾏﾂｼ","kana_address":"ﾄﾞｳﾒｷ","pref":"福島県","city":"二本松市","address":"百目木"},
{"zip_code":"9640834","kana_pref":"ﾌｸｼﾏｹﾝ","kana_city":"ﾆﾎﾝﾏﾂｼ","kana_address":"ﾄｵｶﾞﾐ","pref":"福島県","city":"二本松市","address":"十神"},
{"zip_code":"9640945","kana_pref":"ﾌｸｼﾏｹﾝ","kana_city":"ﾆﾎﾝﾏﾂｼ","kana_address":"ﾄｵﾔﾏ","pref":"福島県","city":"二本松市","address":"遠山"},
{"zip_code":"9640814","kana_pref":"ﾌｸｼﾏｹﾝ","kana_city":"ﾆﾎﾝﾏﾂｼ","kana_address":"ﾄｵﾆｼ","pref":"福島県","city":"二本松市","address":"遠西"},
{"zip_code":"9640201","kana_pref":"ﾌｸｼﾏｹﾝ","kana_city":"ﾆﾎﾝﾏﾂｼ","kana_address":"ﾄｻﾜ","pref":"福島県","city":"二本松市","address":"戸沢"},
{"zip_code":"9640054","kana_pref":"ﾌｸｼﾏｹﾝ","kana_city":"ﾆﾎﾝﾏﾂｼ","kana_address":"ﾅｴﾏﾂ","pref":"福島県","city":"二本松市","address":"苗松"},
{"zip_code":"9640859","kana_pref":"ﾌｸｼﾏｹﾝ","kana_city":"ﾆﾎﾝﾏﾂｼ","kana_address":"ﾅｶｴ","pref":"福島県","city":"二本松市","address":"中江"},
{"zip_code":"9640311","kana_pref":"ﾌｸｼﾏｹﾝ","kana_city":"ﾆﾎﾝﾏﾂｼ","kana_address":"ﾅｶﾞｵﾘ","pref":"福島県","city":"二本松市","address":"長折"},
{"zip_code":"9640874","kana_pref":"ﾌｸｼﾏｹﾝ","kana_city":"ﾆﾎﾝﾏﾂｼ","kana_address":"ﾅｶｻﾄ","pref":"福島県","city":"二本松市","address":"中里"},
{"zip_code":"9640075","kana_pref":"ﾌｸｼﾏｹﾝ","kana_city":"ﾆﾎﾝﾏﾂｼ","kana_address":"ﾅｶﾞﾀ","pref":"福島県","city":"二本松市","address":"永田"},
{"zip_code":"9640001","kana_pref":"ﾌｸｼﾏｹﾝ","kana_city":"ﾆﾎﾝﾏﾂｼ","kana_address":"ﾅｶﾉﾒ","pref":"福島県","city":"二本松市","address":"中ノ目"},
{"zip_code":"9640991","kana_pref":"ﾌｸｼﾏｹﾝ","kana_city":"ﾆﾎﾝﾏﾂｼ","kana_address":"ﾅｶﾏﾁ","pref":"福島県","city":"二本松市","address":"中町"},
{"zip_code":"9640924","kana_pref":"ﾌｸｼﾏｹﾝ","kana_city":"ﾆﾎﾝﾏﾂｼ","kana_address":"ﾅｶﾓﾘ","pref":"福島県","city":"二本松市","address":"中森"},
{"zip_code":"9640026","kana_pref":"ﾌｸｼﾏｹﾝ","kana_city":"ﾆﾎﾝﾏﾂｼ","kana_address":"ﾅｶﾔﾏﾀﾞ","pref":"福島県","city":"二本松市","address":"中山田"},
{"zip_code":"9640923","kana_pref":"ﾌｸｼﾏｹﾝ","kana_city":"ﾆﾎﾝﾏﾂｼ","kana_address":"ﾅｶﾞｼﾀ","pref":"福島県","city":"二本松市","address":"長下"},
{"zip_code":"9640029","kana_pref":"ﾌｸｼﾏｹﾝ","kana_city":"ﾆﾎﾝﾏﾂｼ","kana_address":"ﾅｶﾞﾀ","pref":"福島県","city":"二本松市","address":"永田"},
{"zip_code":"9640022","kana_pref":"ﾌｸｼﾏｹﾝ","kana_city":"ﾆﾎﾝﾏﾂｼ","kana_address":"ﾅｶﾞﾀｶｼﾞｳﾁ","pref":"福島県","city":"二本松市","address":"永田鍛治内"},
{"zip_code":"9640011","kana_pref":"ﾌｸｼﾏｹﾝ","kana_city":"ﾆﾎﾝﾏﾂｼ","kana_address":"ﾅｶﾞﾀｻｲｷ","pref":"福島県","city":"二本松市","address":"永田才木"},
{"zip_code":"9640012","kana_pref":"ﾌｸｼﾏｹﾝ","kana_city":"ﾆﾎﾝﾏﾂｼ","kana_address":"ﾅｶﾞﾀﾂﾐｳﾁ","pref":"福島県","city":"二本松市","address":"永田積内"},
{"zip_code":"9640076","kana_pref":"ﾌｸｼﾏｹﾝ","kana_city":"ﾆﾎﾝﾏﾂｼ","kana_address":"ﾅｶﾞﾀﾊﾞｼﾂﾐ","pref":"福島県","city":"二本松市","address":"永田橋積"},
{"zip_code":"9640021","kana_pref":"ﾌｸｼﾏｹﾝ","kana_city":"ﾆﾎﾝﾏﾂｼ","kana_address":"ﾅｶﾞﾀﾊﾞﾎﾞｳﾁ","pref":"福島県","city":"二本松市","address":"永田馬保内"},
{"zip_code":"9640017","kana_pref":"ﾌｸｼﾏｹﾝ","kana_city":"ﾆﾎﾝﾏﾂｼ","kana_address":"ﾅｶﾞﾀﾐﾄﾞｳｳﾁ","pref":"福島県","city":"二本松市","address":"永田御堂内"},
{"zip_code":"9640837","kana_pref":"ﾌｸｼﾏｹﾝ","kana_city":"ﾆﾎﾝﾏﾂｼ","kana_address":"ﾅﾅﾂﾀﾞﾝ","pref":"福島県","city":"二本松市","address":"七ツ段"},
{"zip_code":"9640855","kana_pref":"ﾌｸｼﾏｹﾝ","kana_city":"ﾆﾎﾝﾏﾂｼ","kana_address":"ﾅﾘｶﾐ","pref":"福島県","city":"二本松市","address":"成上"},
{"zip_code":"9640315","kana_pref":"ﾌｸｼﾏｹﾝ","kana_city":"ﾆﾎﾝﾏﾂｼ","kana_address":"ﾅﾘﾀ","pref":"福島県","city":"二本松市","address":"成田"},
{"zip_code":"9640892","kana_pref":"ﾌｸｼﾏｹﾝ","kana_city":"ﾆﾎﾝﾏﾂｼ","kana_address":"ﾅﾘﾀﾋﾅﾀ","pref":"福島県","city":"二本松市","address":"成田日向"},
{"zip_code":"9640871","kana_pref":"ﾌｸｼﾏｹﾝ","kana_city":"ﾆﾎﾝﾏﾂｼ","kana_address":"ﾅﾘﾀﾏﾁ","pref":"福島県","city":"二本松市","address":"成田町"},
{"zip_code":"9640003","kana_pref":"ﾌｸｼﾏｹﾝ","kana_city":"ﾆﾎﾝﾏﾂｼ","kana_address":"ﾆｲﾀｷ","pref":"福島県","city":"二本松市","address":"二伊滝"},
{"zip_code":"9640861","kana_pref":"ﾌｸｼﾏｹﾝ","kana_city":"ﾆﾎﾝﾏﾂｼ","kana_address":"ﾆｼｲｹ","pref":"福島県","city":"二本松市","address":"西池"},
{"zip_code":"9640995","kana_pref":"ﾌｸｼﾏｹﾝ","kana_city":"ﾆﾎﾝﾏﾂｼ","kana_address":"ﾆｼｷﾁｮｳ","pref":"福島県","city":"二本松市","address":"錦町"},
{"zip_code":"9640304","kana_pref":"ﾌｸｼﾏｹﾝ","kana_city":"ﾆﾎﾝﾏﾂｼ","kana_address":"ﾆｼﾆｲﾄﾞﾉ","pref":"福島県","city":"二本松市","address":"西新殿"},
{"zip_code":"9640856","kana_pref":"ﾌｸｼﾏｹﾝ","kana_city":"ﾆﾎﾝﾏﾂｼ","kana_address":"ﾆｼﾏﾁ","pref":"福島県","city":"二本松市","address":"西町"},
{"zip_code":"9640953","kana_pref":"ﾌｸｼﾏｹﾝ","kana_city":"ﾆﾎﾝﾏﾂｼ","kana_address":"ﾇﾏｶﾞｻｸ","pref":"福島県","city":"二本松市","address":"沼ケ作"},
{"zip_code":"9640903","kana_pref":"ﾌｸｼﾏｹﾝ","kana_city":"ﾆﾎﾝﾏﾂｼ","kana_address":"ﾈｻﾞｷ","pref":"福島県","city":"二本松市","address":"根崎"},
{"zip_code":"9640039","kana_pref":"ﾌｸｼﾏｹﾝ","kana_city":"ﾆﾎﾝﾏﾂｼ","kana_address":"ﾊｷﾞｻｶ","pref":"福島県","city":"二本松市","address":"萩坂"},
{"zip_code":"9640948","kana_pref":"ﾌｸｼﾏｹﾝ","kana_city":"ﾆﾎﾝﾏﾂｼ","kana_address":"ﾊｼﾓﾄ","pref":"福島県","city":"二本松市","address":"橋本"},
{"zip_code":"9640803","kana_pref":"ﾌｸｼﾏｹﾝ","kana_city":"ﾆﾎﾝﾏﾂｼ","kana_address":"ﾊﾁﾏﾝﾀﾞﾃ","pref":"福島県","city":"二本松市","address":"八万舘"},
{"zip_code":"9640303","kana_pref":"ﾌｸｼﾏｹﾝ","kana_city":"ﾆﾎﾝﾏﾂｼ","kana_address":"ﾊﾂﾓﾘ","pref":"福島県","city":"二本松市","address":"初森"},
{"zip_code":"9640806","kana_pref":"ﾌｸｼﾏｹﾝ","kana_city":"ﾆﾎﾝﾏﾂｼ","kana_address":"ﾊﾈｲｼ","pref":"福島県","city":"二本松市","address":"羽石"},
{"zip_code":"9640055","kana_pref":"ﾌｸｼﾏｹﾝ","kana_city":"ﾆﾎﾝﾏﾂｼ","kana_address":"ﾊﾞﾊﾞﾀﾞｲﾗ","pref":"福島県","city":"二本松市","address":"馬場平"},
{"zip_code":"9640035","kana_pref":"ﾌｸｼﾏｹﾝ","kana_city":"ﾆﾎﾝﾏﾂｼ","kana_address":"ﾊﾗｾｱﾏｶﾞｻｸ","pref":"福島県","city":"二本松市","address":"原セ天ケ作"},
{"zip_code":"9640042","kana_pref":"ﾌｸｼﾏｹﾝ","kana_city":"ﾆﾎﾝﾏﾂｼ","kana_address":"ﾊﾗｾｵｵﾊﾀ","pref":"福島県","city":"二本松市","address":"原セ大畑"},
{"zip_code":"9640045","kana_pref":"ﾌｸｼﾏｹﾝ","kana_city":"ﾆﾎﾝﾏﾂｼ","kana_address":"ﾊﾗｾｶｻﾊﾘ","pref":"福島県","city":"二本松市","address":"原セ笠張"},
{"zip_code":"9640047","kana_pref":"ﾌｸｼﾏｹﾝ","kana_city":"ﾆﾎﾝﾏﾂｼ","kana_address":"ﾊﾗｾｶﾐﾀｲﾗ","pref":"福島県","city":"二本松市","address":"原セ上平"},
{"zip_code":"9640044","kana_pref":"ﾌｸｼﾏｹﾝ","kana_city":"ﾆﾎﾝﾏﾂｼ","kana_address":"ﾊﾗｾｶﾐﾉｳﾁ","pref":"福島県","city":"二本松市","address":"原セ上ノ内"},
{"zip_code":"9640037","kana_pref":"ﾌｸｼﾏｹﾝ","kana_city":"ﾆﾎﾝﾏﾂｼ","kana_address":"ﾊﾗｾｶﾜﾊﾗ","pref":"福島県","city":"二本松市","address":"原セ川原"},
{"zip_code":"9640036","kana_pref":"ﾌｸｼﾏｹﾝ","kana_city":"ﾆﾎﾝﾏﾂｼ","kana_address":"ﾊﾗｾｻｲｷ","pref":"福島県","city":"二本松市","address":"原セ才木"},
{"zip_code":"9640043","kana_pref":"ﾌｸｼﾏｹﾝ","kana_city":"ﾆﾎﾝﾏﾂｼ","kana_address":"ﾊﾗｾｽﾜ","pref":"福島県","city":"二本松市","address":"原セ諏訪"},
{"zip_code":"9640034","kana_pref":"ﾌｸｼﾏｹﾝ","kana_city":"ﾆﾎﾝﾏﾂｼ","kana_address":"ﾊﾗｾｾｷｼﾀ","pref":"福島県","city":"二本松市","address":"原セ堰下"},
{"zip_code":"9640049","kana_pref":"ﾌｸｼﾏｹﾝ","kana_city":"ﾆﾎﾝﾏﾂｼ","kana_address":"ﾊﾗｾﾅｶﾔｼﾞ","pref":"福島県","city":"二本松市","address":"原セ仲谷地"},
{"zip_code":"9640041","kana_pref":"ﾌｸｼﾏｹﾝ","kana_city":"ﾆﾎﾝﾏﾂｼ","kana_address":"ﾊﾗｾﾋﾃﾞﾘﾀ","pref":"福島県","city":"二本松市","address":"原セ日照田"},
{"zip_code":"9640046","kana_pref":"ﾌｸｼﾏｹﾝ","kana_city":"ﾆﾎﾝﾏﾂｼ","kana_address":"ﾊﾗｾﾔﾏｸﾞﾁ","pref":"福島県","city":"二本松市","address":"原セ山口"},
{"zip_code":"9640816","kana_pref":"ﾌｸｼﾏｹﾝ","kana_city":"ﾆﾎﾝﾏﾂｼ","kana_address":"ﾊﾗﾀﾞ","pref":"福島県","city":"二本松市","address":"原田"},
{"zip_code":"9640202","kana_pref":"ﾌｸｼﾏｹﾝ","kana_city":"ﾆﾎﾝﾏﾂｼ","kana_address":"ﾊﾘﾐﾁ","pref":"福島県","city":"二本松市","address":"針道"},
{"zip_code":"9640873","kana_pref":"ﾌｸｼﾏｹﾝ","kana_city":"ﾆﾎﾝﾏﾂｼ","kana_address":"ﾋｶﾞｼｳﾗ","pref":"福島県","city":"二本松市","address":"東裏"},
{"zip_code":"9640301","kana_pref":"ﾌｸｼﾏｹﾝ","kana_city":"ﾆﾎﾝﾏﾂｼ","kana_address":"ﾋｶﾞｼﾆｲﾄﾞﾉ","pref":"福島県","city":"二本松市","address":"東新殿"},
{"zip_code":"9640857","kana_pref":"ﾌｸｼﾏｹﾝ","kana_city":"ﾆﾎﾝﾏﾂｼ","kana_address":"ﾋｶﾞｼﾏﾁ","pref":"福島県","city":"二本松市","address":"東町"},
{"zip_code":"9640033","kana_pref":"ﾌｸｼﾏｹﾝ","kana_city":"ﾆﾎﾝﾏﾂｼ","kana_address":"ﾋﾞｼｬﾓﾝﾄﾞｳ","pref":"福島県","city":"二本松市","address":"毘沙門堂"},
{"zip_code":"9640032","kana_pref":"ﾌｸｼﾏｹﾝ","kana_city":"ﾆﾎﾝﾏﾂｼ","kana_address":"ﾋﾞｼｬﾓﾝﾄﾞｳﾔﾏ","pref":"福島県","city":"二本松市","address":"毘沙門堂山"},
{"zip_code":"9640858","kana_pref":"ﾌｸｼﾏｹﾝ","kana_city":"ﾆﾎﾝﾏﾂｼ","kana_address":"ﾋﾒｺﾏﾂ","pref":"福島県","city":"二本松市","address":"姫子松"},
{"zip_code":"9640992","kana_pref":"ﾌｸｼﾏｹﾝ","kana_city":"ﾆﾎﾝﾏﾂｼ","kana_address":"ﾋﾗｲｼｻﾝﾁｮｳﾒ","pref":"福島県","city":"二本松市","address":"平石三丁目"},
{"zip_code":"9640981","kana_pref":"ﾌｸｼﾏｹﾝ","kana_city":"ﾆﾎﾝﾏﾂｼ","kana_address":"ﾋﾗｲｼﾀｶﾀﾞ","pref":"福島県","city":"二本松市","address":"平石高田"},
{"zip_code":"9640973","kana_pref":"ﾌｸｼﾏｹﾝ","kana_city":"ﾆﾎﾝﾏﾂｼ","kana_address":"ﾋﾗｲｼﾁｮｳ","pref":"福島県","city":"二本松市","address":"平石町"},
{"zip_code":"9640829","kana_pref":"ﾌｸｼﾏｹﾝ","kana_city":"ﾆﾎﾝﾏﾂｼ","kana_address":"ﾌｸﾛｳﾁ","pref":"福島県","city":"二本松市","address":"袋内"},
{"zip_code":"9640006","kana_pref":"ﾌｸｼﾏｹﾝ","kana_city":"ﾆﾎﾝﾏﾂｼ","kana_address":"ﾌﾀﾏﾀ","pref":"福島県","city":"二本松市","address":"二又"},
{"zip_code":"9640818","kana_pref":"ﾌｸｼﾏｹﾝ","kana_city":"ﾆﾎﾝﾏﾂｼ","kana_address":"ﾌﾄﾞｳ","pref":"福島県","city":"二本松市","address":"不動"},
{"zip_code":"9640085","kana_pref":"ﾌｸｼﾏｹﾝ","kana_city":"ﾆﾎﾝﾏﾂｼ","kana_address":"ﾌﾄﾞｳﾀﾞｲﾗ","pref":"福島県","city":"二本松市","address":"不動平"},
{"zip_code":"9640822","kana_pref":"ﾌｸｼﾏｹﾝ","kana_city":"ﾆﾎﾝﾏﾂｼ","kana_address":"ﾌﾅｲｼ","pref":"福島県","city":"二本松市","address":"舟石"},
{"zip_code":"9640821","kana_pref":"ﾌｸｼﾏｹﾝ","kana_city":"ﾆﾎﾝﾏﾂｼ","kana_address":"ﾌﾅｶﾀｲｼ","pref":"福島県","city":"二本松市","address":"舟形石"},
{"zip_code":"9640813","kana_pref":"ﾌｸｼﾏｹﾝ","kana_city":"ﾆﾎﾝﾏﾂｼ","kana_address":"ﾌﾅｶﾀｲｼﾔﾏ","pref":"福島県","city":"二本松市","address":"舟形石山"},
{"zip_code":"9640907","kana_pref":"ﾌｸｼﾏｹﾝ","kana_city":"ﾆﾎﾝﾏﾂｼ","kana_address":"ﾎｿﾉ","pref":"福島県","city":"二本松市","address":"細野"},
{"zip_code":"9640843","kana_pref":"ﾌｸｼﾏｹﾝ","kana_city":"ﾆﾎﾝﾏﾂｼ","kana_address":"ﾎﾞｳｽﾞﾀｷ","pref":"福島県","city":"二本松市","address":"坊主滝"},
{"zip_code":"9640946","kana_pref":"ﾌｸｼﾏｹﾝ","kana_city":"ﾆﾎﾝﾏﾂｼ","kana_address":"ﾎﾘｺｼ","pref":"福島県","city":"二本松市","address":"堀越"},
{"zip_code":"9640831","kana_pref":"ﾌｸｼﾏｹﾝ","kana_city":"ﾆﾎﾝﾏﾂｼ","kana_address":"ﾏｴﾀﾞ","pref":"福島県","city":"二本松市","address":"前田"},
{"zip_code":"9640031","kana_pref":"ﾌｸｼﾏｹﾝ","kana_city":"ﾆﾎﾝﾏﾂｼ","kana_address":"ﾏｴﾊﾗ","pref":"福島県","city":"二本松市","address":"前原"},
{"zip_code":"9640905","kana_pref":"ﾌｸｼﾏｹﾝ","kana_city":"ﾆﾎﾝﾏﾂｼ","kana_address":"ﾏﾂｵｶ","pref":"福島県","city":"二本松市","address":"松岡"},
{"zip_code":"9640947","kana_pref":"ﾌｸｼﾏｹﾝ","kana_city":"ﾆﾎﾝﾏﾂｼ","kana_address":"ﾏﾂﾊﾞﾔｼ","pref":"福島県","city":"二本松市","address":"松林"},
{"zip_code":"9640941","kana_pref":"ﾌｸｼﾏｹﾝ","kana_city":"ﾆﾎﾝﾏﾂｼ","kana_address":"ﾐｽﾞｶﾐ","pref":"福島県","city":"二本松市","address":"水上"},
{"zip_code":"9640983","kana_pref":"ﾌｸｼﾏｹﾝ","kana_city":"ﾆﾎﾝﾏﾂｼ","kana_address":"ﾐﾅﾐﾄﾛﾐ","pref":"福島県","city":"二本松市","address":"南トロミ"},
{"zip_code":"9640994","kana_pref":"ﾌｸｼﾏｹﾝ","kana_city":"ﾆﾎﾝﾏﾂｼ","kana_address":"ﾐﾅﾐﾏﾁ","pref":"福島県","city":"二本松市","address":"南町"},
{"zip_code":"9640052","kana_pref":"ﾌｸｼﾏｹﾝ","kana_city":"ﾆﾎﾝﾏﾂｼ","kana_address":"ﾐﾉﾜ","pref":"福島県","city":"二本松市","address":"箕輪"},
{"zip_code":"9640895","kana_pref":"ﾌｸｼﾏｹﾝ","kana_city":"ﾆﾎﾝﾏﾂｼ","kana_address":"ﾐﾊﾗﾁｮｳ","pref":"福島県","city":"二本松市","address":"三原町"},
{"zip_code":"9640887","kana_pref":"ﾌｸｼﾏｹﾝ","kana_city":"ﾆﾎﾝﾏﾂｼ","kana_address":"ﾐﾎｳﾁ","pref":"福島県","city":"二本松市","address":"三保内"},
{"zip_code":"9640081","kana_pref":"ﾌｸｼﾏｹﾝ","kana_city":"ﾆﾎﾝﾏﾂｼ","kana_address":"ﾐﾔｻﾞﾜ","pref":"福島県","city":"二本松市","address":"宮沢"},
{"zip_code":"9640811","kana_pref":"ﾌｸｼﾏｹﾝ","kana_city":"ﾆﾎﾝﾏﾂｼ","kana_address":"ﾐﾔﾄ","pref":"福島県","city":"二本松市","address":"宮戸"},
{"zip_code":"9640951","kana_pref":"ﾌｸｼﾏｹﾝ","kana_city":"ﾆﾎﾝﾏﾂｼ","kana_address":"ﾐﾔﾓﾄ","pref":"福島県","city":"二本松市","address":"宮本"},
{"zip_code":"9640943","kana_pref":"ﾌｸｼﾏｹﾝ","kana_city":"ﾆﾎﾝﾏﾂｼ","kana_address":"ﾐｮｳｼｭｳﾁ","pref":"福島県","city":"二本松市","address":"明主内"},
{"zip_code":"9640801","kana_pref":"ﾌｸｼﾏｹﾝ","kana_city":"ﾆﾎﾝﾏﾂｼ","kana_address":"ﾑｶｲｻｸﾀ","pref":"福島県","city":"二本松市","address":"向作田"},
{"zip_code":"9640916","kana_pref":"ﾌｸｼﾏｹﾝ","kana_city":"ﾆﾎﾝﾏﾂｼ","kana_address":"ﾑｶｲﾊﾗ","pref":"福島県","city":"二本松市","address":"向原"},
{"zip_code":"9640917","kana_pref":"ﾌｸｼﾏｹﾝ","kana_city":"ﾆﾎﾝﾏﾂｼ","kana_address":"ﾓﾄﾏﾁ","pref":"福島県","city":"二本松市","address":"本町"},
{"zip_code":"9640432","kana_pref":"ﾌｸｼﾏｹﾝ","kana_city":"ﾆﾎﾝﾏﾂｼ","kana_address":"ﾓﾊﾞﾗ","pref":"福島県","city":"二本松市","address":"茂原"},
{"zip_code":"9640936","kana_pref":"ﾌｸｼﾏｹﾝ","kana_city":"ﾆﾎﾝﾏﾂｼ","kana_address":"ﾓﾛｺｼｶﾞｲ","pref":"福島県","city":"二本松市","address":"諸越谷"},
{"zip_code":"9640847","kana_pref":"ﾌｸｼﾏｹﾝ","kana_city":"ﾆﾎﾝﾏﾂｼ","kana_address":"ﾔｸｼ","pref":"福島県","city":"二本松市","address":"薬師"},
{"zip_code":"9640961","kana_pref":"ﾌｸｼﾏｹﾝ","kana_city":"ﾆﾎﾝﾏﾂｼ","kana_address":"ﾔｻｶﾁｮｳ","pref":"福島県","city":"二本松市","address":"八坂町"},
{"zip_code":"9640864","kana_pref":"ﾌｸｼﾏｹﾝ","kana_city":"ﾆﾎﾝﾏﾂｼ","kana_address":"ﾔｼﾛﾏｴ","pref":"福島県","city":"二本松市","address":"社前"},
{"zip_code":"9640082","kana_pref":"ﾌｸｼﾏｹﾝ","kana_city":"ﾆﾎﾝﾏﾂｼ","kana_address":"ﾔｽﾐｲｼ","pref":"福島県","city":"二本松市","address":"休石"},
{"zip_code":"9640083","kana_pref":"ﾌｸｼﾏｹﾝ","kana_city":"ﾆﾎﾝﾏﾂｼ","kana_address":"ﾔｽﾐｲｼﾊﾗ","pref":"福島県","city":"二本松市","address":"休石原"},
{"zip_code":"9640025","kana_pref":"ﾌｸｼﾏｹﾝ","kana_city":"ﾆﾎﾝﾏﾂｼ","kana_address":"ﾔﾄﾞｲﾘ","pref":"福島県","city":"二本松市","address":"屋戸入"},
{"zip_code":"9640931","kana_pref":"ﾌｸｼﾏｹﾝ","kana_city":"ﾆﾎﾝﾏﾂｼ","kana_address":"ﾔﾉﾄ","pref":"福島県","city":"二本松市","address":"矢ノ戸"},
{"zip_code":"9640027","kana_pref":"ﾌｸｼﾏｹﾝ","kana_city":"ﾆﾎﾝﾏﾂｼ","kana_address":"ﾔﾏﾀﾞ","pref":"福島県","city":"二本松市","address":"山田"},
{"zip_code":"9640925","kana_pref":"ﾌｸｼﾏｹﾝ","kana_city":"ﾆﾎﾝﾏﾂｼ","kana_address":"ﾔﾜｺ","pref":"福島県","city":"二本松市","address":"谷和子"},
{"zip_code":"9640056","kana_pref":"ﾌｸｼﾏｹﾝ","kana_city":"ﾆﾎﾝﾏﾂｼ","kana_address":"ﾕｳﾍｲﾀﾞｲ","pref":"福島県","city":"二本松市","address":"雄平台"},
{"zip_code":"9640002","kana_pref":"ﾌｸｼﾏｹﾝ","kana_city":"ﾆﾎﾝﾏﾂｼ","kana_address":"ﾕｶﾜﾁｮｳ","pref":"福島県","city":"二本松市","address":"湯川町"},
{"zip_code":"9640971","kana_pref":"ﾌｸｼﾏｹﾝ","kana_city":"ﾆﾎﾝﾏﾂｼ","kana_address":"ﾖﾅｺﾞﾁｮｳ","pref":"福島県","city":"二本松市","address":"米五町"},
{"zip_code":"9640928","kana_pref":"ﾌｸｼﾏｹﾝ","kana_city":"ﾆﾎﾝﾏﾂｼ","kana_address":"ﾖﾓｷﾞﾀﾞ","pref":"福島県","city":"二本松市","address":"蓬田"},
{"zip_code":"9640906","kana_pref":"ﾌｸｼﾏｹﾝ","kana_city":"ﾆﾎﾝﾏﾂｼ","kana_address":"ﾜｶﾐﾔ","pref":"福島県","city":"二本松市","address":"若宮"},
{"zip_code":"9640091","kana_pref":"ﾌｸｼﾏｹﾝ","kana_city":"ｱﾀﾞﾁｸﾞﾝｵｵﾀﾏﾑﾗ","kana_address":"ﾀﾏﾉｲ","pref":"福島県","city":"安達郡大玉村","address":"玉井"}]}