{"zip_code":[
{"zip_code":"9650000","kana_pref":"ﾌｸｼﾏｹﾝ","kana_city":"ｱｲﾂﾞﾜｶﾏﾂｼ","kana_address":"","pref":"福島県","city":"会津若松市","address":""},
{"zip_code":"9650031","kana_pref":"ﾌｸｼﾏｹﾝ","kana_city":"ｱｲﾂﾞﾜｶﾏﾂｼ","kana_address":"ｱｲｵｲﾏﾁ","pref":"福島県","city":"会津若松市","address":"相生町"},
{"zip_code":"9650032","kana_pref":"ﾌｸｼﾏｹﾝ","kana_city":"ｱｲﾂﾞﾜｶﾏﾂｼ","kana_address":"ｱｻﾋﾏﾁ","pref":"福島県","city":"会津若松市","address":"旭町"},
{"zip_code":"9650012","kana_pref":"ﾌｸｼﾏｹﾝ","kana_city":"ｱｲﾂﾞﾜｶﾏﾂｼ","kana_address":"ｲｱﾜｾﾏﾁ","pref":"福島県","city":"会津若松市","address":"居合町"},
{"zip_code":"9650007","kana_pref":"ﾌｸｼﾏｹﾝ","kana_city":"ｱｲﾂﾞﾜｶﾏﾂｼ","kana_address":"ｲｲﾓﾘ","pref":"福島県","city":"会津若松市","address":"飯盛"},
{"zip_code":"9650055","kana_pref":"ﾌｸｼﾏｹﾝ","kana_city":"ｱｲﾂﾞﾜｶﾏﾂｼ","kana_address":"ｲｼﾄﾞｳﾏﾁ","pref":"福島県","city":"会津若松市","address":"石堂町"},
{"zip_code":"9650002","kana_pref":"ﾌｸｼﾏｹﾝ","kana_city":"ｱｲﾂﾞﾜｶﾏﾂｼ","kana_address":"ｲｯｷﾏﾁｶﾈﾎﾘ","pref":"福島県","city":"会津若松市","address":"一箕町金堀"},
{"zip_code":"9650005","kana_pref":"ﾌｸｼﾏｹﾝ","kana_city":"ｱｲﾂﾞﾜｶﾏﾂｼ","kana_address":"ｲｯｷﾏﾁｶﾒｶﾞ","pref":"福島県","city":"会津若松市","address":"一箕町亀賀"},
{"zip_code":"9650006","kana_pref":"ﾌｸｼﾏｹﾝ","kana_city":"ｱｲﾂﾞﾜｶﾏﾂｼ","kana_address":"ｲｯｷﾏﾁﾂﾙｶﾞ","pref":"福島県","city":"会津若松市","address":"一箕町鶴賀"},
{"zip_code":"9650001","kana_pref":"ﾌｸｼﾏｹﾝ","kana_city":"ｱｲﾂﾞﾜｶﾏﾂｼ","kana_address":"ｲｯｷﾏﾁﾏﾂﾅｶﾞ","pref":"福島県","city":"会津若松市","address":"一箕町松長"},
{"zip_code":"9650004","kana_pref":"ﾌｸｼﾏｹﾝ","kana_city":"ｱｲﾂﾞﾜｶﾏﾂｼ","kana_address":"ｲｯｷﾏﾁﾔｽﾐ","pref":"福島県","city":"会津若松市","address":"一箕町八角"},
{"zip_code":"9650003","kana_pref":"ﾌｸｼﾏｹﾝ","kana_city":"ｱｲﾂﾞﾜｶﾏﾂｼ","kana_address":"ｲｯｷﾏﾁﾔﾊﾀ","pref":"福島県","city":"会津若松市","address":"一箕町八幡"},
{"zip_code":"9650059","kana_pref":"ﾌｸｼﾏｹﾝ","kana_city":"ｱｲﾂﾞﾜｶﾏﾂｼ","kana_address":"ｲﾝﾀｰﾆｼ","pref":"福島県","city":"会津若松市","address":"インター西"},
{"zip_code":"9650034","kana_pref":"ﾌｸｼﾏｹﾝ","kana_city":"ｱｲﾂﾞﾜｶﾏﾂｼ","kana_address":"ｳﾜﾏﾁ","pref":"福島県","city":"会津若松市","address":"上町"},
{"zip_code":"9650041","kana_pref":"ﾌｸｼﾏｹﾝ","kana_city":"ｱｲﾂﾞﾜｶﾏﾂｼ","kana_address":"ｴｷﾏｴﾏﾁ","pref":"福島県","city":"会津若松市","address":"駅前町"},
{"zip_code":"9650873","kana_pref":"ﾌｸｼﾏｹﾝ","kana_city":"ｱｲﾂﾞﾜｶﾏﾂｼ","kana_address":"ｵｳﾃﾏﾁ","pref":"福島県","city":"会津若松市","address":"追手町"},
{"zip_code":"9650025","kana_pref":"ﾌｸｼﾏｹﾝ","kana_city":"ｱｲﾂﾞﾜｶﾏﾂｼ","kana_address":"ｵｵｷﾞﾏﾁ","pref":"福島県","city":"会津若松市","address":"扇町"},
{"zip_code":"9650014","kana_pref":"ﾌｸｼﾏｹﾝ","kana_city":"ｱｲﾂﾞﾜｶﾏﾂｼ","kana_address":"ｵｵﾂｶ","pref":"福島県","city":"会津若松市","address":"大塚"},
{"zip_code":"9650042","kana_pref":"ﾌｸｼﾏｹﾝ","kana_city":"ｱｲﾂﾞﾜｶﾏﾂｼ","kana_address":"ｵｵﾏﾁ","pref":"福島県","city":"会津若松市","address":"大町"},
{"zip_code":"9650851","kana_pref":"ﾌｸｼﾏｹﾝ","kana_city":"ｱｲﾂﾞﾜｶﾏﾂｼ","kana_address":"ｵﾊﾀﾏﾁ","pref":"福島県","city":"会津若松市","address":"御旗町"},
{"zip_code":"9650831","kana_pref":"ﾌｸｼﾏｹﾝ","kana_city":"ｱｲﾂﾞﾜｶﾏﾂｼ","kana_address":"ｵﾓﾃﾏﾁ","pref":"福島県","city":"会津若松市","address":"表町"},
{"zip_code":"9650802","kana_pref":"ﾌｸｼﾏｹﾝ","kana_city":"ｱｲﾂﾞﾜｶﾏﾂｼ","kana_address":"ｶﾁﾉﾏﾁ","pref":"福島県","city":"会津若松市","address":"徒之町"},
{"zip_code":"9650056","kana_pref":"ﾌｸｼﾏｹﾝ","kana_city":"ｱｲﾂﾞﾜｶﾏﾂｼ","kana_address":"ｶﾅｶﾞﾜﾏﾁ","pref":"福島県","city":"会津若松市","address":"金川町"},
{"zip_code":"9650865","kana_pref":"ﾌｸｼﾏｹﾝ","kana_city":"ｱｲﾂﾞﾜｶﾏﾂｼ","kana_address":"ｶﾜﾗﾏﾁ","pref":"福島県","city":"会津若松市","address":"川原町"},
{"zip_code":"9650113","kana_pref":"ﾌｸｼﾏｹﾝ","kana_city":"ｱｲﾂﾞﾜｶﾏﾂｼ","kana_address":"ｷﾀｱｲﾂﾞﾏﾁｱﾗﾀ","pref":"福島県","city":"会津若松市","address":"北会津町安良田"},
{"zip_code":"9650118","kana_pref":"ﾌｸｼﾏｹﾝ","kana_city":"ｱｲﾂﾞﾜｶﾏﾂｼ","kana_address":"ｷﾀｱｲﾂﾞﾏﾁｲｼﾊﾗ","pref":"福島県","city":"会津若松市","address":"北会津町石原"},
{"zip_code":"9650107","kana_pref":"ﾌｸｼﾏｹﾝ","kana_city":"ｱｲﾂﾞﾜｶﾏﾂｼ","kana_address":"ｷﾀｱｲﾂﾞﾏﾁｲｽﾞﾐ","pref":"福島県","city":"会津若松市","address":"北会津町和泉"},
{"zip_code":"9650116","kana_pref":"ﾌｸｼﾏｹﾝ","kana_city":"ｱｲﾂﾞﾜｶﾏﾂｼ","kana_address":"ｷﾀｱｲﾂﾞﾏﾁｲﾃﾞｼﾞﾘ","pref":"福島県","city":"会津若松市","address":"北会津町出尻"},
{"zip_code":"9650136","kana_pref":"ﾌｸｼﾏｹﾝ","kana_city":"ｱｲﾂﾞﾜｶﾏﾂｼ","kana_address":"ｷﾀｱｲﾂﾞﾏﾁｲﾏｲｽﾞﾐ","pref":"福島県","city":"会津若松市","address":"北会津町今和泉"},
{"zip_code":"9650121","kana_pref":"ﾌｸｼﾏｹﾝ","kana_city":"ｱｲﾂﾞﾜｶﾏﾂｼ","kana_address":"ｷﾀｱｲﾂﾞﾏﾁｶﾆｶﾜ","pref":"福島県","city":"会津若松市","address":"北会津町蟹川"},
{"zip_code":"9650126","kana_pref":"ﾌｸｼﾏｹﾝ","kana_city":"ｱｲﾂﾞﾜｶﾏﾂｼ","kana_address":"ｷﾀｱｲﾂﾞﾏﾁｻｷﾞﾊﾞﾔｼ","pref":"福島県","city":"会津若松市","address":"北会津町鷺林"},
{"zip_code":"9650111","kana_pref":"ﾌｸｼﾏｹﾝ","kana_city":"ｱｲﾂﾞﾜｶﾏﾂｼ","kana_address":"ｷﾀｱｲﾂﾞﾏﾁｼﾓｱﾗｲ","pref":"福島県","city":"会津若松市","address":"北会津町下荒井"},
{"zip_code":"9650128","kana_pref":"ﾌｸｼﾏｹﾝ","kana_city":"ｱｲﾂﾞﾜｶﾏﾂｼ","kana_address":"ｷﾀｱｲﾂﾞﾏﾁｼﾞｭｳﾆｼｮ","pref":"福島県","city":"会津若松市","address":"北会津町十二所"},
{"zip_code":"9650115","kana_pref":"ﾌｸｼﾏｹﾝ","kana_city":"ｱｲﾂﾞﾜｶﾏﾂｼ","kana_address":"ｷﾀｱｲﾂﾞﾏﾁﾀﾃ","pref":"福島県","city":"会津若松市","address":"北会津町舘"},
{"zip_code":"9650117","kana_pref":"ﾌｸｼﾏｹﾝ","kana_city":"ｱｲﾂﾞﾜｶﾏﾂｼ","kana_address":"ｷﾀｱｲﾂﾞﾏﾁﾀﾑﾗﾔﾏ","pref":"福島県","city":"会津若松市","address":"北会津町田村山"},
{"zip_code":"9650135","kana_pref":"ﾌｸｼﾏｹﾝ","kana_city":"ｱｲﾂﾞﾜｶﾏﾂｼ","kana_address":"ｷﾀｱｲﾂﾞﾏﾁﾃﾗﾎﾞﾘ","pref":"福島県","city":"会津若松市","address":"北会津町寺堀"},
{"zip_code":"9650131","kana_pref":"ﾌｸｼﾏｹﾝ","kana_city":"ｱｲﾂﾞﾜｶﾏﾂｼ","kana_address":"ｷﾀｱｲﾂﾞﾏﾁﾅｶｱﾗｲ","pref":"福島県","city":"会津若松市","address":"北会津町中荒井"},
{"zip_code":"9650110","kana_pref":"ﾌｸｼﾏｹﾝ","kana_city":"ｱｲﾂﾞﾜｶﾏﾂｼ","kana_address":"ｷﾀｱｲﾂﾞﾏﾁﾅｶｻﾞﾄ","pref":"福島県","city":"会津若松市","address":"北会津町中里"},
{"zip_code":"9650112","kana_pref":"ﾌｸｼﾏｹﾝ","kana_city":"ｱｲﾂﾞﾜｶﾏﾂｼ","kana_address":"ｷﾀｱｲﾂﾞﾏﾁﾊｸｻﾝ","pref":"福島県","city":"会津若松市","address":"北会津町白山"},
{"zip_code":"9650134","kana_pref":"ﾌｸｼﾏｹﾝ","kana_city":"ｱｲﾂﾞﾜｶﾏﾂｼ","kana_address":"ｷﾀｱｲﾂﾞﾏﾁﾋｶﾞｼｱｿｳ","pref":"福島県","city":"会津若松市","address":"北会津町東麻生"},
{"zip_code":"9650133","kana_pref":"ﾌｸｼﾏｹﾝ","kana_city":"ｱｲﾂﾞﾜｶﾏﾂｼ","kana_address":"ｷﾀｱｲﾂﾞﾏﾁﾌﾂｶﾏﾁ","pref":"福島県","city":"会津若松市","address":"北会津町二日町"},
{"zip_code":"9650132","kana_pref":"ﾌｸｼﾏｹﾝ","kana_city":"ｱｲﾂﾞﾜｶﾏﾂｼ","kana_address":"ｷﾀｱｲﾂﾞﾏﾁﾎﾀﾙﾉﾓﾘ","pref":"福島県","city":"会津若松市","address":"北会津町ほたるの森"},
{"zip_code":"9650129","kana_pref":"ﾌｸｼﾏｹﾝ","kana_city":"ｱｲﾂﾞﾜｶﾏﾂｼ","kana_address":"ｷﾀｱｲﾂﾞﾏﾁﾎﾝﾀﾞ","pref":"福島県","city":"会津若松市","address":"北会津町本田"},
{"zip_code":"9650101","kana_pref":"ﾌｸｼﾏｹﾝ","kana_city":"ｱｲﾂﾞﾜｶﾏﾂｼ","kana_address":"ｷﾀｱｲﾂﾞﾏﾁﾏﾐﾔ","pref":"福島県","city":"会津若松市","address":"北会津町真宮"},
{"zip_code":"9650114","kana_pref":"ﾌｸｼﾏｹﾝ","kana_city":"ｱｲﾂﾞﾜｶﾏﾂｼ","kana_address":"ｷﾀｱｲﾂﾞﾏﾁﾐﾔﾉｼﾀ","pref":"福島県","city":"会津若松市","address":"北会津町宮ノ下"},
{"zip_code":"9650124","kana_pref":"ﾌｸｼﾏｹﾝ","kana_city":"ｱｲﾂﾞﾜｶﾏﾂｼ","kana_address":"ｷﾀｱｲﾂﾞﾏﾁﾐﾔﾌﾞｸﾛ","pref":"福島県","city":"会津若松市","address":"北会津町宮袋"},
{"zip_code":"9650127","kana_pref":"ﾌｸｼﾏｹﾝ","kana_city":"ｱｲﾂﾞﾜｶﾏﾂｼ","kana_address":"ｷﾀｱｲﾂﾞﾏﾁﾐﾔﾌﾞｸﾛｼﾝﾃﾞﾝ","pref":"福島県","city":"会津若松市","address":"北会津町宮袋新田"},
{"zip_code":"9650824","kana_pref":"ﾌｸｼﾏｹﾝ","kana_city":"ｱｲﾂﾞﾜｶﾏﾂｼ","kana_address":"ｷﾀｱｵｷ","pref":"福島県","city":"会津若松市","address":"北青木"},
{"zip_code":"9650015","kana_pref":"ﾌｸｼﾏｹﾝ","kana_city":"ｱｲﾂﾞﾜｶﾏﾂｼ","kana_address":"ｷﾀﾀｷｻﾞﾜ","pref":"福島県","city":"会津若松市","address":"北滝沢"},
{"zip_code":"9650033","kana_pref":"ﾌｸｼﾏｹﾝ","kana_city":"ｱｲﾂﾞﾜｶﾏﾂｼ","kana_address":"ｷﾞｮｳﾆﾝﾏﾁ","pref":"福島県","city":"会津若松市","address":"行仁町"},
{"zip_code":"9650812","kana_pref":"ﾌｸｼﾏｹﾝ","kana_city":"ｱｲﾂﾞﾜｶﾏﾂｼ","kana_address":"ｹｲｻﾞﾝ","pref":"福島県","city":"会津若松市","address":"慶山"},
{"zip_code":"9650823","kana_pref":"ﾌｸｼﾏｹﾝ","kana_city":"ｱｲﾂﾞﾜｶﾏﾂｼ","kana_address":"ｹﾝﾌﾟｸｼﾞﾏｴ","pref":"福島県","city":"会津若松市","address":"建福寺前"},
{"zip_code":"9650082","kana_pref":"ﾌｸｼﾏｹﾝ","kana_city":"ｱｲﾂﾞﾜｶﾏﾂｼ","kana_address":"ｺｳｻﾞｼﾏﾁｴﾉｷﾀﾞﾝ","pref":"福島県","city":"会津若松市","address":"神指町榎木檀"},
{"zip_code":"9650068","kana_pref":"ﾌｸｼﾏｹﾝ","kana_city":"ｱｲﾂﾞﾜｶﾏﾂｼ","kana_address":"ｺｳｻﾞｼﾏﾁｵﾐ","pref":"福島県","city":"会津若松市","address":"神指町小見"},
{"zip_code":"9650083","kana_pref":"ﾌｸｼﾏｹﾝ","kana_city":"ｱｲﾂﾞﾜｶﾏﾂｼ","kana_address":"ｺｳｻﾞｼﾏﾁｶﾐｺｳｻﾞｼ","pref":"福島県","city":"会津若松市","address":"神指町上神指"},
{"zip_code":"9650062","kana_pref":"ﾌｸｼﾏｹﾝ","kana_city":"ｱｲﾂﾞﾜｶﾏﾂｼ","kana_address":"ｺｳｻﾞｼﾏﾁｷﾀｼｺﾞｳ","pref":"福島県","city":"会津若松市","address":"神指町北四合"},
{"zip_code":"9650064","kana_pref":"ﾌｸｼﾏｹﾝ","kana_city":"ｱｲﾂﾞﾜｶﾏﾂｼ","kana_address":"ｺｳｻﾞｼﾏﾁｸﾛｶﾜ","pref":"福島県","city":"会津若松市","address":"神指町黒川"},
{"zip_code":"9650067","kana_pref":"ﾌｸｼﾏｹﾝ","kana_city":"ｱｲﾂﾞﾜｶﾏﾂｼ","kana_address":"ｺｳｻﾞｼﾏﾁｼﾓｺｳｻﾞｼ","pref":"福島県","city":"会津若松市","address":"神指町下神指"},
{"zip_code":"9650061","kana_pref":"ﾌｸｼﾏｹﾝ","kana_city":"ｱｲﾂﾞﾜｶﾏﾂｼ","kana_address":"ｺｳｻﾞｼﾏﾁﾀｶｸ","pref":"福島県","city":"会津若松市","address":"神指町高久"},
{"zip_code":"9650063","kana_pref":"ﾌｸｼﾏｹﾝ","kana_city":"ｱｲﾂﾞﾜｶﾏﾂｼ","kana_address":"ｺｳｻﾞｼﾏﾁﾀｶｾ","pref":"福島県","city":"会津若松市","address":"神指町高瀬"},
{"zip_code":"9650087","kana_pref":"ﾌｸｼﾏｹﾝ","kana_city":"ｱｲﾂﾞﾜｶﾏﾂｼ","kana_address":"ｺｳｻﾞｼﾏﾁﾀｶｾｼﾝﾃﾞﾝ","pref":"福島県","city":"会津若松市","address":"神指町高瀬新田"},
{"zip_code":"9650069","kana_pref":"ﾌｸｼﾏｹﾝ","kana_city":"ｱｲﾂﾞﾜｶﾏﾂｼ","kana_address":"ｺｳｻﾞｼﾏﾁﾃﾝﾏﾝ","pref":"福島県","city":"会津若松市","address":"神指町天満"},
{"zip_code":"9650065","kana_pref":"ﾌｸｼﾏｹﾝ","kana_city":"ｱｲﾂﾞﾜｶﾏﾂｼ","kana_address":"ｺｳｻﾞｼﾏﾁﾅｶｼｺﾞｳ","pref":"福島県","city":"会津若松市","address":"神指町中四合"},
{"zip_code":"9650081","kana_pref":"ﾌｸｼﾏｹﾝ","kana_city":"ｱｲﾂﾞﾜｶﾏﾂｼ","kana_address":"ｺｳｻﾞｼﾏﾁﾆｼｷﾄﾞ","pref":"福島県","city":"会津若松市","address":"神指町西城戸"},
{"zip_code":"9650085","kana_pref":"ﾌｸｼﾏｹﾝ","kana_city":"ｱｲﾂﾞﾜｶﾏﾂｼ","kana_address":"ｺｳｻﾞｼﾏﾁﾆｮﾗｲﾄﾞｳ","pref":"福島県","city":"会津若松市","address":"神指町如来堂"},
{"zip_code":"9650089","kana_pref":"ﾌｸｼﾏｹﾝ","kana_city":"ｱｲﾂﾞﾜｶﾏﾂｼ","kana_address":"ｺｳｻﾞｼﾏﾁﾋｶﾞｼｷﾄﾞ","pref":"福島県","city":"会津若松市","address":"神指町東城戸"},
{"zip_code":"9650084","kana_pref":"ﾌｸｼﾏｹﾝ","kana_city":"ｱｲﾂﾞﾜｶﾏﾂｼ","kana_address":"ｺｳｻﾞｼﾏﾁﾋｶﾞｼｺｳｻﾞｼ","pref":"福島県","city":"会津若松市","address":"神指町東神指"},
{"zip_code":"9650086","kana_pref":"ﾌｸｼﾏｹﾝ","kana_city":"ｱｲﾂﾞﾜｶﾏﾂｼ","kana_address":"ｺｳｻﾞｼﾏﾁﾎﾝﾏﾙ","pref":"福島県","city":"会津若松市","address":"神指町本丸"},
{"zip_code":"9650858","kana_pref":"ﾌｸｼﾏｹﾝ","kana_city":"ｱｲﾂﾞﾜｶﾏﾂｼ","kana_address":"ｺｳｻﾞｼﾏﾁﾐﾅﾐｼｺﾞｳ","pref":"福島県","city":"会津若松市","address":"神指町南四合"},
{"zip_code":"9650066","kana_pref":"ﾌｸｼﾏｹﾝ","kana_city":"ｱｲﾂﾞﾜｶﾏﾂｼ","kana_address":"ｺｳｻﾞｼﾏﾁﾖｺﾇﾏ","pref":"福島県","city":"会津若松市","address":"神指町横沼"},
{"zip_code":"9650073","kana_pref":"ﾌｸｼﾏｹﾝ","kana_city":"ｱｲﾂﾞﾜｶﾏﾂｼ","kana_address":"ｺｳﾔﾏﾁｳﾜﾇﾏ","pref":"福島県","city":"会津若松市","address":"高野町上沼"},
{"zip_code":"9650077","kana_pref":"ﾌｸｼﾏｹﾝ","kana_city":"ｱｲﾂﾞﾜｶﾏﾂｼ","kana_address":"ｺｳﾔﾏﾁｶﾐｺｳﾔ","pref":"福島県","city":"会津若松市","address":"高野町上高野"},
{"zip_code":"9650071","kana_pref":"ﾌｸｼﾏｹﾝ","kana_city":"ｱｲﾂﾞﾜｶﾏﾂｼ","kana_address":"ｺｳﾔﾏﾁｷﾅｶﾞｼ","pref":"福島県","city":"会津若松市","address":"高野町木流"},
{"zip_code":"9650079","kana_pref":"ﾌｸｼﾏｹﾝ","kana_city":"ｱｲﾂﾞﾜｶﾏﾂｼ","kana_address":"ｺｳﾔﾏﾁｻｶｲｻﾞﾜ","pref":"福島県","city":"会津若松市","address":"高野町界沢"},
{"zip_code":"9650076","kana_pref":"ﾌｸｼﾏｹﾝ","kana_city":"ｱｲﾂﾞﾜｶﾏﾂｼ","kana_address":"ｺｳﾔﾏﾁﾅｶﾇﾏ","pref":"福島県","city":"会津若松市","address":"高野町中沼"},
{"zip_code":"9650075","kana_pref":"ﾌｸｼﾏｹﾝ","kana_city":"ｱｲﾂﾞﾜｶﾏﾂｼ","kana_address":"ｺｳﾔﾏﾁﾅｶﾏｴﾀﾞ","pref":"福島県","city":"会津若松市","address":"高野町中前田"},
{"zip_code":"9650072","kana_pref":"ﾌｸｼﾏｹﾝ","kana_city":"ｱｲﾂﾞﾜｶﾏﾂｼ","kana_address":"ｺｳﾔﾏﾁﾊｼﾓﾄｷﾅｶﾞｼ","pref":"福島県","city":"会津若松市","address":"高野町橋本木流"},
{"zip_code":"9650074","kana_pref":"ﾌｸｼﾏｹﾝ","kana_city":"ｱｲﾂﾞﾜｶﾏﾂｼ","kana_address":"ｺｳﾔﾏﾁﾋﾗﾂｶ","pref":"福島県","city":"会津若松市","address":"高野町平塚"},
{"zip_code":"9650078","kana_pref":"ﾌｸｼﾏｹﾝ","kana_city":"ｱｲﾂﾞﾜｶﾏﾂｼ","kana_address":"ｺｳﾔﾏﾁﾔﾅｶﾞﾜ","pref":"福島県","city":"会津若松市","address":"高野町柳川"},
{"zip_code":"9650023","kana_pref":"ﾌｸｼﾏｹﾝ","kana_city":"ｱｲﾂﾞﾜｶﾏﾂｼ","kana_address":"ｺｶﾞｲﾏﾁ","pref":"福島県","city":"会津若松市","address":"蚕養町"},
{"zip_code":"9650853","kana_pref":"ﾌｸｼﾏｹﾝ","kana_city":"ｱｲﾂﾞﾜｶﾏﾂｼ","kana_address":"ｻﾞｲﾓｸﾏﾁ","pref":"福島県","city":"会津若松市","address":"材木町"},
{"zip_code":"9650871","kana_pref":"ﾌｸｼﾏｹﾝ","kana_city":"ｱｲﾂﾞﾜｶﾏﾂｼ","kana_address":"ｻｶｴﾏﾁ","pref":"福島県","city":"会津若松市","address":"栄町"},
{"zip_code":"9650854","kana_pref":"ﾌｸｼﾏｹﾝ","kana_city":"ｱｲﾂﾞﾜｶﾏﾂｼ","kana_address":"ｻｸﾗﾏﾁ","pref":"福島県","city":"会津若松市","address":"桜町"},
{"zip_code":"9650047","kana_pref":"ﾌｸｼﾏｹﾝ","kana_city":"ｱｲﾂﾞﾜｶﾏﾂｼ","kana_address":"ｻﾂｷﾏﾁ","pref":"福島県","city":"会津若松市","address":"五月町"},
{"zip_code":"9650864","kana_pref":"ﾌｸｼﾏｹﾝ","kana_city":"ｱｲﾂﾞﾜｶﾏﾂｼ","kana_address":"ｼﾞｮｳｻｲﾏﾁ","pref":"福島県","city":"会津若松市","address":"城西町"},
{"zip_code":"9650807","kana_pref":"ﾌｸｼﾏｹﾝ","kana_city":"ｱｲﾂﾞﾜｶﾏﾂｼ","kana_address":"ｼﾞｮｳﾄｳﾏﾁ","pref":"福島県","city":"会津若松市","address":"城東町"},
{"zip_code":"9650809","kana_pref":"ﾌｸｼﾏｹﾝ","kana_city":"ｱｲﾂﾞﾜｶﾏﾂｼ","kana_address":"ｼﾞｮｳﾅﾝﾏﾁ","pref":"福島県","city":"会津若松市","address":"城南町"},
{"zip_code":"9650043","kana_pref":"ﾌｸｼﾏｹﾝ","kana_city":"ｱｲﾂﾞﾜｶﾏﾂｼ","kana_address":"ｼﾞｮｳﾎｸﾏﾁ","pref":"福島県","city":"会津若松市","address":"城北町"},
{"zip_code":"9650038","kana_pref":"ﾌｸｼﾏｹﾝ","kana_city":"ｱｲﾂﾞﾜｶﾏﾂｼ","kana_address":"ｼｮｳﾜﾏﾁ","pref":"福島県","city":"会津若松市","address":"昭和町"},
{"zip_code":"9650803","kana_pref":"ﾌｸｼﾏｹﾝ","kana_city":"ｱｲﾂﾞﾜｶﾏﾂｼ","kana_address":"ｼﾛﾏｴ","pref":"福島県","city":"会津若松市","address":"城前"},
{"zip_code":"9650866","kana_pref":"ﾌｸｼﾏｹﾝ","kana_city":"ｱｲﾂﾞﾜｶﾏﾂｼ","kana_address":"ｼﾝﾖｺﾏﾁ","pref":"福島県","city":"会津若松市","address":"新横町"},
{"zip_code":"9650855","kana_pref":"ﾌｸｼﾏｹﾝ","kana_city":"ｱｲﾂﾞﾜｶﾏﾂｼ","kana_address":"ｽﾐﾖｼﾏﾁ","pref":"福島県","city":"会津若松市","address":"住吉町"},
{"zip_code":"9650817","kana_pref":"ﾌｸｼﾏｹﾝ","kana_city":"ｱｲﾂﾞﾜｶﾏﾂｼ","kana_address":"ｾﾝｺﾞｸﾏﾁ","pref":"福島県","city":"会津若松市","address":"千石町"},
{"zip_code":"9650060","kana_pref":"ﾌｸｼﾏｹﾝ","kana_city":"ｱｲﾂﾞﾜｶﾏﾂｼ","kana_address":"ﾀｶｸｺｳｷﾞｮｳﾀﾞﾝﾁ","pref":"福島県","city":"会津若松市","address":"高久工業団地"},
{"zip_code":"9650806","kana_pref":"ﾌｸｼﾏｹﾝ","kana_city":"ｱｲﾂﾞﾜｶﾏﾂｼ","kana_address":"ﾀｶﾗﾏﾁ","pref":"福島県","city":"会津若松市","address":"宝町"},
{"zip_code":"9650022","kana_pref":"ﾌｸｼﾏｹﾝ","kana_city":"ｱｲﾂﾞﾜｶﾏﾂｼ","kana_address":"ﾀｷｻﾞﾜﾏﾁ","pref":"福島県","city":"会津若松市","address":"滝沢町"},
{"zip_code":"9650835","kana_pref":"ﾌｸｼﾏｹﾝ","kana_city":"ｱｲﾂﾞﾜｶﾏﾂｼ","kana_address":"ﾀﾃｳﾏﾏﾁ","pref":"福島県","city":"会津若松市","address":"館馬町"},
{"zip_code":"9650836","kana_pref":"ﾌｸｼﾏｹﾝ","kana_city":"ｱｲﾂﾞﾜｶﾏﾂｼ","kana_address":"ﾀﾃﾜｷﾏﾁ","pref":"福島県","city":"会津若松市","address":"館脇町"},
{"zip_code":"9650037","kana_pref":"ﾌｸｼﾏｹﾝ","kana_city":"ｱｲﾂﾞﾜｶﾏﾂｼ","kana_address":"ﾁｭｳｵｳ","pref":"福島県","city":"会津若松市","address":"中央"},
{"zip_code":"9650013","kana_pref":"ﾌｸｼﾏｹﾝ","kana_city":"ｱｲﾂﾞﾜｶﾏﾂｼ","kana_address":"ﾂﾂﾐﾏﾁ","pref":"福島県","city":"会津若松市","address":"堤町"},
{"zip_code":"9650011","kana_pref":"ﾌｸｼﾏｹﾝ","kana_city":"ｱｲﾂﾞﾜｶﾏﾂｼ","kana_address":"ﾂﾙｶﾞﾏﾁ","pref":"福島県","city":"会津若松市","address":"鶴賀町"},
{"zip_code":"9650832","kana_pref":"ﾌｸｼﾏｹﾝ","kana_city":"ｱｲﾂﾞﾜｶﾏﾂｼ","kana_address":"ﾃﾝｼﾞﾝﾏﾁ","pref":"福島県","city":"会津若松市","address":"天神町"},
{"zip_code":"9650805","kana_pref":"ﾌｸｼﾏｹﾝ","kana_city":"ｱｲﾂﾞﾜｶﾏﾂｼ","kana_address":"ﾃﾝﾈｲｼﾞﾏﾁ","pref":"福島県","city":"会津若松市","address":"天寧寺町"},
{"zip_code":"9650016","kana_pref":"ﾌｸｼﾏｹﾝ","kana_city":"ｱｲﾂﾞﾜｶﾏﾂｼ","kana_address":"ﾅｶｼﾞﾏﾏﾁ","pref":"福島県","city":"会津若松市","address":"中島町"},
{"zip_code":"9650878","kana_pref":"ﾌｸｼﾏｹﾝ","kana_city":"ｱｲﾂﾞﾜｶﾏﾂｼ","kana_address":"ﾅｶﾏﾁ","pref":"福島県","city":"会津若松市","address":"中町"},
{"zip_code":"9650044","kana_pref":"ﾌｸｼﾏｹﾝ","kana_city":"ｱｲﾂﾞﾜｶﾏﾂｼ","kana_address":"ﾅﾉｶﾏﾁ","pref":"福島県","city":"会津若松市","address":"七日町"},
{"zip_code":"9650837","kana_pref":"ﾌｸｼﾏｹﾝ","kana_city":"ｱｲﾂﾞﾜｶﾏﾂｼ","kana_address":"ﾆｼｷﾏﾁ","pref":"福島県","city":"会津若松市","address":"錦町"},
{"zip_code":"9650877","kana_pref":"ﾌｸｼﾏｹﾝ","kana_city":"ｱｲﾂﾞﾜｶﾏﾂｼ","kana_address":"ﾆｼｻｶｴﾏﾁ","pref":"福島県","city":"会津若松市","address":"西栄町"},
{"zip_code":"9650045","kana_pref":"ﾌｸｼﾏｹﾝ","kana_city":"ｱｲﾂﾞﾜｶﾏﾂｼ","kana_address":"ﾆｼﾅﾉｶﾏﾁ","pref":"福島県","city":"会津若松市","address":"西七日町"},
{"zip_code":"9650830","kana_pref":"ﾌｸｼﾏｹﾝ","kana_city":"ｱｲﾂﾞﾜｶﾏﾂｼ","kana_address":"ﾆｼﾈﾝｸﾞ","pref":"福島県","city":"会津若松市","address":"西年貢"},
{"zip_code":"9650861","kana_pref":"ﾌｸｼﾏｹﾝ","kana_city":"ｱｲﾂﾞﾜｶﾏﾂｼ","kana_address":"ﾆｯｼﾝﾏﾁ","pref":"福島県","city":"会津若松市","address":"日新町"},
{"zip_code":"9650048","kana_pref":"ﾌｸｼﾏｹﾝ","kana_city":"ｱｲﾂﾞﾜｶﾏﾂｼ","kana_address":"ﾊｼﾓﾄ","pref":"福島県","city":"会津若松市","address":"橋本"},
{"zip_code":"9650027","kana_pref":"ﾌｸｼﾏｹﾝ","kana_city":"ｱｲﾂﾞﾜｶﾏﾂｼ","kana_address":"ﾊﾅﾊﾞﾀｹﾋｶﾞｼ","pref":"福島県","city":"会津若松市","address":"花畑東"},
{"zip_code":"9650804","kana_pref":"ﾌｸｼﾏｹﾝ","kana_city":"ｱｲﾂﾞﾜｶﾏﾂｼ","kana_address":"ﾊﾅﾊﾙﾏﾁ","pref":"福島県","city":"会津若松市","address":"花春町"},
{"zip_code":"9650822","kana_pref":"ﾌｸｼﾏｹﾝ","kana_city":"ｱｲﾂﾞﾜｶﾏﾂｼ","kana_address":"ﾊﾅﾐｶﾞｵｶ","pref":"福島県","city":"会津若松市","address":"花見ケ丘"},
{"zip_code":"9650036","kana_pref":"ﾌｸｼﾏｹﾝ","kana_city":"ｱｲﾂﾞﾜｶﾏﾂｼ","kana_address":"ﾊﾞﾊﾞﾓﾄﾏﾁ","pref":"福島県","city":"会津若松市","address":"馬場本町"},
{"zip_code":"9650035","kana_pref":"ﾌｸｼﾏｹﾝ","kana_city":"ｱｲﾂﾞﾜｶﾏﾂｼ","kana_address":"ﾊﾞﾊﾞﾏﾁ","pref":"福島県","city":"会津若松市","address":"馬場町"},
{"zip_code":"9650872","kana_pref":"ﾌｸｼﾏｹﾝ","kana_city":"ｱｲﾂﾞﾜｶﾏﾂｼ","kana_address":"ﾋｶﾞｼｻｶｴﾏﾁ","pref":"福島県","city":"会津若松市","address":"東栄町"},
{"zip_code":"9650818","kana_pref":"ﾌｸｼﾏｹﾝ","kana_city":"ｱｲﾂﾞﾜｶﾏﾂｼ","kana_address":"ﾋｶﾞｼｾﾝｺﾞｸ","pref":"福島県","city":"会津若松市","address":"東千石"},
{"zip_code":"9650839","kana_pref":"ﾌｸｼﾏｹﾝ","kana_city":"ｱｲﾂﾞﾜｶﾏﾂｼ","kana_address":"ﾋｶﾞｼﾈﾝｸﾞ","pref":"福島県","city":"会津若松市","address":"東年貢"},
{"zip_code":"9650813","kana_pref":"ﾌｸｼﾏｹﾝ","kana_city":"ｱｲﾂﾞﾜｶﾏﾂｼ","kana_address":"ﾋｶﾞｼﾔﾏﾏﾁｲｼﾔﾏ","pref":"福島県","city":"会津若松市","address":"東山町石山"},
{"zip_code":"9650815","kana_pref":"ﾌｸｼﾏｹﾝ","kana_city":"ｱｲﾂﾞﾜｶﾏﾂｼ","kana_address":"ﾋｶﾞｼﾔﾏﾏﾁﾕｶﾞﾜ","pref":"福島県","city":"会津若松市","address":"東山町湯川"},
{"zip_code":"9650814","kana_pref":"ﾌｸｼﾏｹﾝ","kana_city":"ｱｲﾂﾞﾜｶﾏﾂｼ","kana_address":"ﾋｶﾞｼﾔﾏﾏﾁﾕﾓﾄ","pref":"福島県","city":"会津若松市","address":"東山町湯本"},
{"zip_code":"9650008","kana_pref":"ﾌｸｼﾏｹﾝ","kana_city":"ｱｲﾂﾞﾜｶﾏﾂｼ","kana_address":"ﾋﾉｷﾏﾁ","pref":"福島県","city":"会津若松市","address":"桧町"},
{"zip_code":"9650024","kana_pref":"ﾌｸｼﾏｹﾝ","kana_city":"ｱｲﾂﾞﾜｶﾏﾂｼ","kana_address":"ﾋﾞｬｯｺﾏﾁ","pref":"福島県","city":"会津若松市","address":"白虎町"},
{"zip_code":"9650852","kana_pref":"ﾌｸｼﾏｹﾝ","kana_city":"ｱｲﾂﾞﾜｶﾏﾂｼ","kana_address":"ﾋﾖｼﾏﾁ","pref":"福島県","city":"会津若松市","address":"日吉町"},
{"zip_code":"9650838","kana_pref":"ﾌｸｼﾏｹﾝ","kana_city":"ｱｲﾂﾞﾜｶﾏﾂｼ","kana_address":"ﾌﾙｶﾜﾏﾁ","pref":"福島県","city":"会津若松市","address":"古川町"},
{"zip_code":"9650026","kana_pref":"ﾌｸｼﾏｹﾝ","kana_city":"ｱｲﾂﾞﾜｶﾏﾂｼ","kana_address":"ﾍｲｱﾝﾏﾁ","pref":"福島県","city":"会津若松市","address":"平安町"},
{"zip_code":"9650862","kana_pref":"ﾌｸｼﾏｹﾝ","kana_city":"ｱｲﾂﾞﾜｶﾏﾂｼ","kana_address":"ﾎﾝﾏﾁ","pref":"福島県","city":"会津若松市","address":"本町"},
{"zip_code":"9650856","kana_pref":"ﾌｸｼﾏｹﾝ","kana_city":"ｱｲﾂﾞﾜｶﾏﾂｼ","kana_address":"ﾏｸｳﾁﾋｶﾞｼﾏﾁ","pref":"福島県","city":"会津若松市","address":"幕内東町"},
{"zip_code":"9650054","kana_pref":"ﾌｸｼﾏｹﾝ","kana_city":"ｱｲﾂﾞﾜｶﾏﾂｼ","kana_address":"ﾏﾁｷﾀﾏﾁｲｼﾄﾞｳ","pref":"福島県","city":"会津若松市","address":"町北町石堂"},
{"zip_code":"9650053","kana_pref":"ﾌｸｼﾏｹﾝ","kana_city":"ｱｲﾂﾞﾜｶﾏﾂｼ","kana_address":"ﾏﾁｷﾀﾏﾁｶﾐｱﾗｸﾀﾞ","pref":"福島県","city":"会津若松市","address":"町北町上荒久田"},
{"zip_code":"9650058","kana_pref":"ﾌｸｼﾏｹﾝ","kana_city":"ｱｲﾂﾞﾜｶﾏﾂｼ","kana_address":"ﾏﾁｷﾀﾏﾁﾅｶｻﾜ","pref":"福島県","city":"会津若松市","address":"町北町中沢"},
{"zip_code":"9650088","kana_pref":"ﾌｸｼﾏｹﾝ","kana_city":"ｱｲﾂﾞﾜｶﾏﾂｼ","kana_address":"ﾏﾁｷﾀﾏﾁﾅｶｻﾜﾆｼ","pref":"福島県","city":"会津若松市","address":"町北町中沢西"},
{"zip_code":"9650052","kana_pref":"ﾌｸｼﾏｹﾝ","kana_city":"ｱｲﾂﾞﾜｶﾏﾂｼ","kana_address":"ﾏﾁｷﾀﾏﾁﾊｼﾒ","pref":"福島県","city":"会津若松市","address":"町北町始"},
{"zip_code":"9650057","kana_pref":"ﾌｸｼﾏｹﾝ","kana_city":"ｱｲﾂﾞﾜｶﾏﾂｼ","kana_address":"ﾏﾁｷﾀﾏﾁﾌｼﾞﾑﾛ","pref":"福島県","city":"会津若松市","address":"町北町藤室"},
{"zip_code":"9650051","kana_pref":"ﾌｸｼﾏｹﾝ","kana_city":"ｱｲﾂﾞﾜｶﾏﾂｼ","kana_address":"ﾏﾁｷﾀﾏﾁﾔﾁ","pref":"福島県","city":"会津若松市","address":"町北町谷地"},
{"zip_code":"9650102","kana_pref":"ﾌｸｼﾏｹﾝ","kana_city":"ｱｲﾂﾞﾜｶﾏﾂｼ","kana_address":"ﾏﾐﾔｼﾝﾏﾁｷﾀ","pref":"福島県","city":"会津若松市","address":"真宮新町北"},
{"zip_code":"9650103","kana_pref":"ﾌｸｼﾏｹﾝ","kana_city":"ｱｲﾂﾞﾜｶﾏﾂｼ","kana_address":"ﾏﾐﾔｼﾝﾏﾁﾐﾅﾐ","pref":"福島県","city":"会津若松市","address":"真宮新町南"},
{"zip_code":"9650867","kana_pref":"ﾌｸｼﾏｹﾝ","kana_city":"ｱｲﾂﾞﾜｶﾏﾂｼ","kana_address":"ﾐﾄﾞﾘﾏﾁ","pref":"福島県","city":"会津若松市","address":"緑町"},
{"zip_code":"9650201","kana_pref":"ﾌｸｼﾏｹﾝ","kana_city":"ｱｲﾂﾞﾜｶﾏﾂｼ","kana_address":"ﾐﾅﾄﾏﾁｱｶｲ","pref":"福島県","city":"会津若松市","address":"湊町赤井"},
{"zip_code":"9650202","kana_pref":"ﾌｸｼﾏｹﾝ","kana_city":"ｱｲﾂﾞﾜｶﾏﾂｼ","kana_address":"ﾐﾅﾄﾏﾁｷｮｳﾜ","pref":"福島県","city":"会津若松市","address":"湊町共和"},
{"zip_code":"9650203","kana_pref":"ﾌｸｼﾏｹﾝ","kana_city":"ｱｲﾂﾞﾜｶﾏﾂｼ","kana_address":"ﾐﾅﾄﾏﾁｼｽﾞｶﾀ","pref":"福島県","city":"会津若松市","address":"湊町静潟"},
{"zip_code":"9650204","kana_pref":"ﾌｸｼﾏｹﾝ","kana_city":"ｱｲﾂﾞﾜｶﾏﾂｼ","kana_address":"ﾐﾅﾄﾏﾁﾊﾗ","pref":"福島県","city":"会津若松市","address":"湊町原"},
{"zip_code":"9650205","kana_pref":"ﾌｸｼﾏｹﾝ","kana_city":"ｱｲﾂﾞﾜｶﾏﾂｼ","kana_address":"ﾐﾅﾄﾏﾁﾋﾗｶﾀ","pref":"福島県","city":"会津若松市","address":"湊町平潟"},
{"zip_code":"9650816","kana_pref":"ﾌｸｼﾏｹﾝ","kana_city":"ｱｲﾂﾞﾜｶﾏﾂｼ","kana_address":"ﾐﾅﾐｾﾝｺﾞｸﾏﾁ","pref":"福島県","city":"会津若松市","address":"南千石町"},
{"zip_code":"9650874","kana_pref":"ﾌｸｼﾏｹﾝ","kana_city":"ｱｲﾂﾞﾜｶﾏﾂｼ","kana_address":"ﾐﾅﾐﾊﾅﾊﾞﾀｹ","pref":"福島県","city":"会津若松市","address":"南花畑"},
{"zip_code":"9650808","kana_pref":"ﾌｸｼﾏｹﾝ","kana_city":"ｱｲﾂﾞﾜｶﾏﾂｼ","kana_address":"ﾐﾅﾐﾏﾁ","pref":"福島県","city":"会津若松市","address":"南町"},
{"zip_code":"9650801","kana_pref":"ﾌｸｼﾏｹﾝ","kana_city":"ｱｲﾂﾞﾜｶﾏﾂｼ","kana_address":"ﾐﾔﾏﾁ","pref":"福島県","city":"会津若松市","address":"宮町"},
{"zip_code":"9650833","kana_pref":"ﾌｸｼﾏｹﾝ","kana_city":"ｱｲﾂﾞﾜｶﾏﾂｼ","kana_address":"ﾒｲﾜﾏﾁ","pref":"福島県","city":"会津若松市","address":"明和町"},
{"zip_code":"9650844","kana_pref":"ﾌｸｼﾏｹﾝ","kana_city":"ｱｲﾂﾞﾜｶﾏﾂｼ","kana_address":"ﾓﾝﾃﾞﾝﾏﾁｲﾁﾉｾｷ","pref":"福島県","city":"会津若松市","address":"門田町一ノ堰"},
{"zip_code":"9650828","kana_pref":"ﾌｸｼﾏｹﾝ","kana_city":"ｱｲﾂﾞﾜｶﾏﾂｼ","kana_address":"ﾓﾝﾃﾞﾝﾏﾁｵﾓｶﾞﾜ","pref":"福島県","city":"会津若松市","address":"門田町面川"},
{"zip_code":"9650826","kana_pref":"ﾌｸｼﾏｹﾝ","kana_city":"ｱｲﾂﾞﾜｶﾏﾂｼ","kana_address":"ﾓﾝﾃﾞﾝﾏﾁｵﾔﾏ","pref":"福島県","city":"会津若松市","address":"門田町御山"},
{"zip_code":"9650825","kana_pref":"ﾌｸｼﾏｹﾝ","kana_city":"ｱｲﾂﾞﾜｶﾏﾂｼ","kana_address":"ﾓﾝﾃﾞﾝﾏﾁｸﾛｲﾜ","pref":"福島県","city":"会津若松市","address":"門田町黒岩"},
{"zip_code":"9650827","kana_pref":"ﾌｸｼﾏｹﾝ","kana_city":"ｱｲﾂﾞﾜｶﾏﾂｼ","kana_address":"ﾓﾝﾃﾞﾝﾏﾁﾂﾂﾐｻﾞﾜ","pref":"福島県","city":"会津若松市","address":"門田町堤沢"},
{"zip_code":"9650843","kana_pref":"ﾌｸｼﾏｹﾝ","kana_city":"ｱｲﾂﾞﾜｶﾏﾂｼ","kana_address":"ﾓﾝﾃﾞﾝﾏﾁﾄｸﾋｻ","pref":"福島県","city":"会津若松市","address":"門田町徳久"},
{"zip_code":"9650842","kana_pref":"ﾌｸｼﾏｹﾝ","kana_city":"ｱｲﾂﾞﾜｶﾏﾂｼ","kana_address":"ﾓﾝﾃﾞﾝﾏﾁﾅｶﾉ","pref":"福島県","city":"会津若松市","address":"門田町中野"},
{"zip_code":"9650846","kana_pref":"ﾌｸｼﾏｹﾝ","kana_city":"ｱｲﾂﾞﾜｶﾏﾂｼ","kana_address":"ﾓﾝﾃﾞﾝﾏﾁﾆｲﾃﾞﾗ","pref":"福島県","city":"会津若松市","address":"門田町飯寺"},
{"zip_code":"9650834","kana_pref":"ﾌｸｼﾏｹﾝ","kana_city":"ｱｲﾂﾞﾜｶﾏﾂｼ","kana_address":"ﾓﾝﾃﾞﾝﾏﾁﾈﾝｸﾞﾏﾁ","pref":"福島県","city":"会津若松市","address":"門田町年貢町"},
{"zip_code":"9650841","kana_pref":"ﾌｸｼﾏｹﾝ","kana_city":"ｱｲﾂﾞﾜｶﾏﾂｼ","kana_address":"ﾓﾝﾃﾞﾝﾏﾁﾋﾖｼ","pref":"福島県","city":"会津若松市","address":"門田町日吉"},
{"zip_code":"9650845","kana_pref":"ﾌｸｼﾏｹﾝ","kana_city":"ｱｲﾂﾞﾜｶﾏﾂｼ","kana_address":"ﾓﾝﾃﾞﾝﾏﾁｺｳｷﾞｮｳﾀﾞﾝﾁ","pref":"福島県","city":"会津若松市","address":"門田町工業団地"},
{"zip_code":"9650009","kana_pref":"ﾌｸｼﾏｹﾝ","kana_city":"ｱｲﾂﾞﾜｶﾏﾂｼ","kana_address":"ﾔｽﾐﾏﾁ","pref":"福島県","city":"会津若松市","address":"八角町"},
{"zip_code":"9650857","kana_pref":"ﾌｸｼﾏｹﾝ","kana_city":"ｱｲﾂﾞﾜｶﾏﾂｼ","kana_address":"ﾔﾅｷﾞﾜﾗﾏﾁ","pref":"福島県","city":"会津若松市","address":"柳原町"},
{"zip_code":"9650876","kana_pref":"ﾌｸｼﾏｹﾝ","kana_city":"ｱｲﾂﾞﾜｶﾏﾂｼ","kana_address":"ﾔﾏｶﾞﾏﾁ","pref":"福島県","city":"会津若松市","address":"山鹿町"},
{"zip_code":"9650021","kana_pref":"ﾌｸｼﾏｹﾝ","kana_city":"ｱｲﾂﾞﾜｶﾏﾂｼ","kana_address":"ﾔﾏﾐﾏﾁ","pref":"福島県","city":"会津若松市","address":"山見町"},
{"zip_code":"9650863","kana_pref":"ﾌｸｼﾏｹﾝ","kana_city":"ｱｲﾂﾞﾜｶﾏﾂｼ","kana_address":"ﾕｶﾞﾜﾏﾁ","pref":"福島県","city":"会津若松市","address":"湯川町"},
{"zip_code":"9650821","kana_pref":"ﾌｸｼﾏｹﾝ","kana_city":"ｱｲﾂﾞﾜｶﾏﾂｼ","kana_address":"ﾕｶﾞﾜﾐﾅﾐ","pref":"福島県","city":"会津若松市","address":"湯川南"},
{"zip_code":"9650046","kana_pref":"ﾌｸｼﾏｹﾝ","kana_city":"ｱｲﾂﾞﾜｶﾏﾂｼ","kana_address":"ﾖｳｶﾏﾁ","pref":"福島県","city":"会津若松市","address":"八日町"},
{"zip_code":"9650875","kana_pref":"ﾌｸｼﾏｹﾝ","kana_city":"ｱｲﾂﾞﾜｶﾏﾂｼ","kana_address":"ﾖﾈﾀﾞｲ","pref":"福島県","city":"会津若松市","address":"米代"},
{"zip_code":"9650811","kana_pref":"ﾌｸｼﾏｹﾝ","kana_city":"ｱｲﾂﾞﾜｶﾏﾂｼ","kana_address":"ﾜﾀﾞ","pref":"福島県","city":"会津若松市","address":"和田"}]}