{"zip_code":[
{"zip_code":"9670500","kana_pref":"ﾌｸｼﾏｹﾝ","kana_city":"ﾐﾅﾐｱｲﾂﾞｸﾞﾝﾋﾉｴﾏﾀﾑﾗ","kana_address":"","pref":"福島県","city":"南会津郡檜枝岐村","address":""},
{"zip_code":"9670521","kana_pref":"ﾌｸｼﾏｹﾝ","kana_city":"ﾐﾅﾐｱｲﾂﾞｸﾞﾝﾋﾉｴﾏﾀﾑﾗ","kana_address":"ｲﾀﾞｲﾗ","pref":"福島県","city":"南会津郡檜枝岐村","address":"居平"},
{"zip_code":"9670524","kana_pref":"ﾌｸｼﾏｹﾝ","kana_city":"ﾐﾅﾐｱｲﾂﾞｸﾞﾝﾋﾉｴﾏﾀﾑﾗ","kana_address":"ｳｴﾉﾀﾞｲ","pref":"福島県","city":"南会津郡檜枝岐村","address":"上ノ台"},
{"zip_code":"9670532","kana_pref":"ﾌｸｼﾏｹﾝ","kana_city":"ﾐﾅﾐｱｲﾂﾞｸﾞﾝﾋﾉｴﾏﾀﾑﾗ","kana_address":"ｵｾﾞﾇﾏ","pref":"福島県","city":"南会津郡檜枝岐村","address":"尾瀬沼"},
{"zip_code":"9670522","kana_pref":"ﾌｸｼﾏｹﾝ","kana_city":"ﾐﾅﾐｱｲﾂﾞｸﾞﾝﾋﾉｴﾏﾀﾑﾗ","kana_address":"ｶﾐﾉﾊﾗ","pref":"福島県","city":"南会津郡檜枝岐村","address":"上ノ原"},
{"zip_code":"9670523","kana_pref":"ﾌｸｼﾏｹﾝ","kana_city":"ﾐﾅﾐｱｲﾂﾞｸﾞﾝﾋﾉｴﾏﾀﾑﾗ","kana_address":"ｼﾀﾉﾀﾞｲ","pref":"福島県","city":"南会津郡檜枝岐村","address":"下ノ台"},
{"zip_code":"9670525","kana_pref":"ﾌｸｼﾏｹﾝ","kana_city":"ﾐﾅﾐｱｲﾂﾞｸﾞﾝﾋﾉｴﾏﾀﾑﾗ","kana_address":"ｼﾓﾉﾊﾗ","pref":"福島県","city":"南会津郡檜枝岐村","address":"下ノ原"},
{"zip_code":"9670526","kana_pref":"ﾌｸｼﾏｹﾝ","kana_city":"ﾐﾅﾐｱｲﾂﾞｸﾞﾝﾋﾉｴﾏﾀﾑﾗ","kana_address":"ﾀｷｻﾞﾜ","pref":"福島県","city":"南会津郡檜枝岐村","address":"滝沢"},
{"zip_code":"9670531","kana_pref":"ﾌｸｼﾏｹﾝ","kana_city":"ﾐﾅﾐｱｲﾂﾞｸﾞﾝﾋﾉｴﾏﾀﾑﾗ","kana_address":"ﾋｳﾁｶﾞﾀｹ","pref":"福島県","city":"南会津郡檜枝岐村","address":"燧ケ岳"},
{"zip_code":"9670527","kana_pref":"ﾌｸｼﾏｹﾝ","kana_city":"ﾐﾅﾐｱｲﾂﾞｸﾞﾝﾋﾉｴﾏﾀﾑﾗ","kana_address":"ﾐﾂﾞｳﾘ","pref":"福島県","city":"南会津郡檜枝岐村","address":"見通"},
{"zip_code":"9670528","kana_pref":"ﾌｸｼﾏｹﾝ","kana_city":"ﾐﾅﾐｱｲﾂﾞｸﾞﾝﾋﾉｴﾏﾀﾑﾗ","kana_address":"ﾖｼｶﾞﾀｲﾗ","pref":"福島県","city":"南会津郡檜枝岐村","address":"葭ケ平"},
{"zip_code":"9670000","kana_pref":"ﾌｸｼﾏｹﾝ","kana_city":"ﾐﾅﾐｱｲﾂﾞｸﾞﾝﾐﾅﾐｱｲﾂﾞﾏﾁ","kana_address":"","pref":"福島県","city":"南会津郡南会津町","address":""},
{"zip_code":"9670507","kana_pref":"ﾌｸｼﾏｹﾝ","kana_city":"ﾐﾅﾐｱｲﾂﾞｸﾞﾝﾐﾅﾐｱｲﾂﾞﾏﾁ","kana_address":"ｱｵﾔｷﾞ","pref":"福島県","city":"南会津郡南会津町","address":"青柳"},
{"zip_code":"9670605","kana_pref":"ﾌｸｼﾏｹﾝ","kana_city":"ﾐﾅﾐｱｲﾂﾞｸﾞﾝﾐﾅﾐｱｲﾂﾞﾏﾁ","kana_address":"ｱｽﾞﾏ","pref":"福島県","city":"南会津郡南会津町","address":"東"},
{"zip_code":"9670341","kana_pref":"ﾌｸｼﾏｹﾝ","kana_city":"ﾐﾅﾐｱｲﾂﾞｸﾞﾝﾐﾅﾐｱｲﾂﾞﾏﾁ","kana_address":"ｱﾅﾊﾞﾗ","pref":"福島県","city":"南会津郡南会津町","address":"穴原"},
{"zip_code":"9670321","kana_pref":"ﾌｸｼﾏｹﾝ","kana_city":"ﾐﾅﾐｱｲﾂﾞｸﾞﾝﾐﾅﾐｱｲﾂﾞﾏﾁ","kana_address":"ｲｹﾞﾀ","pref":"福島県","city":"南会津郡南会津町","address":"井桁"},
{"zip_code":"9670641","kana_pref":"ﾌｸｼﾏｹﾝ","kana_city":"ﾐﾅﾐｱｲﾂﾞｸﾞﾝﾐﾅﾐｱｲﾂﾞﾏﾁ","kana_address":"ｲｽﾞﾐﾀ","pref":"福島県","city":"南会津郡南会津町","address":"和泉田"},
{"zip_code":"9670014","kana_pref":"ﾌｸｼﾏｹﾝ","kana_city":"ﾐﾅﾐｱｲﾂﾞｸﾞﾝﾐﾅﾐｱｲﾂﾞﾏﾁ","kana_address":"ｲﾄｻﾞﾜ","pref":"福島県","city":"南会津郡南会津町","address":"糸沢"},
{"zip_code":"9670317","kana_pref":"ﾌｸｼﾏｹﾝ","kana_city":"ﾐﾅﾐｱｲﾂﾞｸﾞﾝﾐﾅﾐｱｲﾂﾞﾏﾁ","kana_address":"ｲﾖﾄ","pref":"福島県","city":"南会津郡南会津町","address":"伊与戸"},
{"zip_code":"9670323","kana_pref":"ﾌｸｼﾏｹﾝ","kana_city":"ﾐﾅﾐｱｲﾂﾞｸﾞﾝﾐﾅﾐｱｲﾂﾞﾏﾁ","kana_address":"ｲﾜｼﾀ","pref":"福島県","city":"南会津郡南会津町","address":"岩下"},
{"zip_code":"9670511","kana_pref":"ﾌｸｼﾏｹﾝ","kana_city":"ﾐﾅﾐｱｲﾂﾞｸﾞﾝﾐﾅﾐｱｲﾂﾞﾏﾁ","kana_address":"ｳﾁｶﾜ","pref":"福島県","city":"南会津郡南会津町","address":"内川"},
{"zip_code":"9670319","kana_pref":"ﾌｸｼﾏｹﾝ","kana_city":"ﾐﾅﾐｱｲﾂﾞｸﾞﾝﾐﾅﾐｱｲﾂﾞﾏﾁ","kana_address":"ｵｵｸﾎﾞ","pref":"福島県","city":"南会津郡南会津町","address":"大久保"},
{"zip_code":"9670603","kana_pref":"ﾌｸｼﾏｹﾝ","kana_city":"ﾐﾅﾐｱｲﾂﾞｸﾞﾝﾐﾅﾐｱｲﾂﾞﾏﾁ","kana_address":"ｵｵﾆﾀ","pref":"福島県","city":"南会津郡南会津町","address":"大新田"},
{"zip_code":"9670604","kana_pref":"ﾌｸｼﾏｹﾝ","kana_city":"ﾐﾅﾐｱｲﾂﾞｸﾞﾝﾐﾅﾐｱｲﾂﾞﾏﾁ","kana_address":"ｵｵﾊｼ","pref":"福島県","city":"南会津郡南会津町","address":"大橋"},
{"zip_code":"9670513","kana_pref":"ﾌｸｼﾏｹﾝ","kana_city":"ﾐﾅﾐｱｲﾂﾞｸﾞﾝﾐﾅﾐｱｲﾂﾞﾏﾁ","kana_address":"ｵｵﾊﾗ","pref":"福島県","city":"南会津郡南会津町","address":"大原"},
{"zip_code":"9670515","kana_pref":"ﾌｸｼﾏｹﾝ","kana_city":"ﾐﾅﾐｱｲﾂﾞｸﾞﾝﾐﾅﾐｱｲﾂﾞﾏﾁ","kana_address":"ｵｵﾓﾓ","pref":"福島県","city":"南会津郡南会津町","address":"大桃"},
{"zip_code":"9670331","kana_pref":"ﾌｸｼﾏｹﾝ","kana_city":"ﾐﾅﾐｱｲﾂﾞｸﾞﾝﾐﾅﾐｱｲﾂﾞﾏﾁ","kana_address":"ｵｼﾄﾞ","pref":"福島県","city":"南会津郡南会津町","address":"押戸"},
{"zip_code":"9670642","kana_pref":"ﾌｸｼﾏｹﾝ","kana_city":"ﾐﾅﾐｱｲﾂﾞｸﾞﾝﾐﾅﾐｱｲﾂﾞﾏﾁ","kana_address":"ｵﾉｼﾏ","pref":"福島県","city":"南会津郡南会津町","address":"小野島"},
{"zip_code":"9670335","kana_pref":"ﾌｸｼﾏｹﾝ","kana_city":"ﾐﾅﾐｱｲﾂﾞｸﾞﾝﾐﾅﾐｱｲﾂﾞﾏﾁ","kana_address":"ｶｲﾊﾞﾗ","pref":"福島県","city":"南会津郡南会津町","address":"貝原"},
{"zip_code":"9670632","kana_pref":"ﾌｸｼﾏｹﾝ","kana_city":"ﾐﾅﾐｱｲﾂﾞｸﾞﾝﾐﾅﾐｱｲﾂﾞﾏﾁ","kana_address":"ｶﾀｶｲ","pref":"福島県","city":"南会津郡南会津町","address":"片貝"},
{"zip_code":"9670024","kana_pref":"ﾌｸｼﾏｹﾝ","kana_city":"ﾐﾅﾐｱｲﾂﾞｸﾞﾝﾐﾅﾐｱｲﾂﾞﾏﾁ","kana_address":"ｶﾅｲｻﾞﾜ","pref":"福島県","city":"南会津郡南会津町","address":"金井沢"},
{"zip_code":"9670344","kana_pref":"ﾌｸｼﾏｹﾝ","kana_city":"ﾐﾅﾐｱｲﾂﾞｸﾞﾝﾐﾅﾐｱｲﾂﾞﾏﾁ","kana_address":"ｶﾐﾉﾊﾗ","pref":"福島県","city":"南会津郡南会津町","address":"上ミノ原"},
{"zip_code":"9670346","kana_pref":"ﾌｸｼﾏｹﾝ","kana_city":"ﾐﾅﾐｱｲﾂﾞｸﾞﾝﾐﾅﾐｱｲﾂﾞﾏﾁ","kana_address":"ｶﾜｷﾞﾇ","pref":"福島県","city":"南会津郡南会津町","address":"川衣"},
{"zip_code":"9670012","kana_pref":"ﾌｸｼﾏｹﾝ","kana_city":"ﾐﾅﾐｱｲﾂﾞｸﾞﾝﾐﾅﾐｱｲﾂﾞﾏﾁ","kana_address":"ｶﾜｼﾏ","pref":"福島県","city":"南会津郡南会津町","address":"川島"},
{"zip_code":"9670601","kana_pref":"ﾌｸｼﾏｹﾝ","kana_city":"ﾐﾅﾐｱｲﾂﾞｸﾞﾝﾐﾅﾐｱｲﾂﾞﾏﾁ","kana_address":"ｷﾌﾞｼ","pref":"福島県","city":"南会津郡南会津町","address":"木伏"},
{"zip_code":"9670011","kana_pref":"ﾌｸｼﾏｹﾝ","kana_city":"ﾐﾅﾐｱｲﾂﾞｸﾞﾝﾐﾅﾐｱｲﾂﾞﾏﾁ","kana_address":"ｸﾘｭｳｻﾞﾜ","pref":"福島県","city":"南会津郡南会津町","address":"栗生沢"},
{"zip_code":"9670021","kana_pref":"ﾌｸｼﾏｹﾝ","kana_city":"ﾐﾅﾐｱｲﾂﾞｸﾞﾝﾐﾅﾐｱｲﾂﾞﾏﾁ","kana_address":"ｺｳﾔ","pref":"福島県","city":"南会津郡南会津町","address":"高野"},
{"zip_code":"9670506","kana_pref":"ﾌｸｼﾏｹﾝ","kana_city":"ﾐﾅﾐｱｲﾂﾞｸﾞﾝﾐﾅﾐｱｲﾂﾞﾏﾁ","kana_address":"ｺｼｵ","pref":"福島県","city":"南会津郡南会津町","address":"小塩"},
{"zip_code":"9670343","kana_pref":"ﾌｸｼﾏｹﾝ","kana_city":"ﾐﾅﾐｱｲﾂﾞｸﾞﾝﾐﾅﾐｱｲﾂﾞﾏﾁ","kana_address":"ｺﾀｶﾊﾞﾔｼ","pref":"福島県","city":"南会津郡南会津町","address":"小高林"},
{"zip_code":"9670514","kana_pref":"ﾌｸｼﾏｹﾝ","kana_city":"ﾐﾅﾐｱｲﾂﾞｸﾞﾝﾐﾅﾐｱｲﾂﾞﾏﾁ","kana_address":"ｺﾀﾞﾃｲﾜ","pref":"福島県","city":"南会津郡南会津町","address":"小立岩"},
{"zip_code":"9670631","kana_pref":"ﾌｸｼﾏｹﾝ","kana_city":"ﾐﾅﾐｱｲﾂﾞｸﾞﾝﾐﾅﾐｱｲﾂﾞﾏﾁ","kana_address":"ｻｶｲ","pref":"福島県","city":"南会津郡南会津町","address":"界"},
{"zip_code":"9670022","kana_pref":"ﾌｸｼﾏｹﾝ","kana_city":"ﾐﾅﾐｱｲﾂﾞｸﾞﾝﾐﾅﾐｱｲﾂﾞﾏﾁ","kana_address":"ｼｵｴ","pref":"福島県","city":"南会津郡南会津町","address":"塩江"},
{"zip_code":"9670302","kana_pref":"ﾌｸｼﾏｹﾝ","kana_city":"ﾐﾅﾐｱｲﾂﾞｸﾞﾝﾐﾅﾐｱｲﾂﾞﾏﾁ","kana_address":"ｼｵﾉﾊﾗ","pref":"福島県","city":"南会津郡南会津町","address":"塩ノ原"},
{"zip_code":"9670025","kana_pref":"ﾌｸｼﾏｹﾝ","kana_city":"ﾐﾅﾐｱｲﾂﾞｸﾞﾝﾐﾅﾐｱｲﾂﾞﾏﾁ","kana_address":"ｼｽﾞｶﾜ","pref":"福島県","city":"南会津郡南会津町","address":"静川"},
{"zip_code":"9670634","kana_pref":"ﾌｸｼﾏｹﾝ","kana_city":"ﾐﾅﾐｱｲﾂﾞｸﾞﾝﾐﾅﾐｱｲﾂﾞﾏﾁ","kana_address":"ｼﾓﾔﾏ","pref":"福島県","city":"南会津郡南会津町","address":"下山"},
{"zip_code":"9670322","kana_pref":"ﾌｸｼﾏｹﾝ","kana_city":"ﾐﾅﾐｱｲﾂﾞｸﾞﾝﾐﾅﾐｱｲﾂﾞﾏﾁ","kana_address":"ｼｮｳｼﾞｬ","pref":"福島県","city":"南会津郡南会津町","address":"精舎"},
{"zip_code":"9670503","kana_pref":"ﾌｸｼﾏｹﾝ","kana_city":"ﾐﾅﾐｱｲﾂﾞｸﾞﾝﾐﾅﾐｱｲﾂﾞﾏﾁ","kana_address":"ｼﾗｻﾜ","pref":"福島県","city":"南会津郡南会津町","address":"白沢"},
{"zip_code":"9670311","kana_pref":"ﾌｸｼﾏｹﾝ","kana_city":"ﾐﾅﾐｱｲﾂﾞｸﾞﾝﾐﾅﾐｱｲﾂﾞﾏﾁ","kana_address":"ｼﾝﾃﾞﾝﾊﾗ","pref":"福島県","city":"南会津郡南会津町","address":"新田原"},
{"zip_code":"9670307","kana_pref":"ﾌｸｼﾏｹﾝ","kana_city":"ﾐﾅﾐｱｲﾂﾞｸﾞﾝﾐﾅﾐｱｲﾂﾞﾏﾁ","kana_address":"ｽｲｼ","pref":"福島県","city":"南会津郡南会津町","address":"水石"},
{"zip_code":"9670342","kana_pref":"ﾌｸｼﾏｹﾝ","kana_city":"ﾐﾅﾐｱｲﾂﾞｸﾞﾝﾐﾅﾐｱｲﾂﾞﾏﾁ","kana_address":"ｽｹｷﾞｭｳ","pref":"福島県","city":"南会津郡南会津町","address":"助木生"},
{"zip_code":"9670013","kana_pref":"ﾌｸｼﾏｹﾝ","kana_city":"ﾐﾅﾐｱｲﾂﾞｸﾞﾝﾐﾅﾐｱｲﾂﾞﾏﾁ","kana_address":"ｾｷﾓﾄ","pref":"福島県","city":"南会津郡南会津町","address":"関本"},
{"zip_code":"9670315","kana_pref":"ﾌｸｼﾏｹﾝ","kana_city":"ﾐﾅﾐｱｲﾂﾞｸﾞﾝﾐﾅﾐｱｲﾂﾞﾏﾁ","kana_address":"ﾀｶﾂｴﾊﾗ","pref":"福島県","city":"南会津郡南会津町","address":"高杖原"},
{"zip_code":"9670015","kana_pref":"ﾌｸｼﾏｹﾝ","kana_city":"ﾐﾅﾐｱｲﾂﾞｸﾞﾝﾐﾅﾐｱｲﾂﾞﾏﾁ","kana_address":"ﾀｷﾉﾊﾗ","pref":"福島県","city":"南会津郡南会津町","address":"滝原"},
{"zip_code":"9670004","kana_pref":"ﾌｸｼﾏｹﾝ","kana_city":"ﾐﾅﾐｱｲﾂﾞｸﾞﾝﾐﾅﾐｱｲﾂﾞﾏﾁ","kana_address":"ﾀｼﾞﾏ","pref":"福島県","city":"南会津郡南会津町","address":"田島"},
{"zip_code":"9670502","kana_pref":"ﾌｸｼﾏｹﾝ","kana_city":"ﾐﾅﾐｱｲﾂﾞｸﾞﾝﾐﾅﾐｱｲﾂﾞﾏﾁ","kana_address":"ﾀﾀﾞｲｼ","pref":"福島県","city":"南会津郡南会津町","address":"多々石"},
{"zip_code":"9670301","kana_pref":"ﾌｸｼﾏｹﾝ","kana_city":"ﾐﾅﾐｱｲﾂﾞｸﾞﾝﾐﾅﾐｱｲﾂﾞﾏﾁ","kana_address":"ﾀﾉｾ","pref":"福島県","city":"南会津郡南会津町","address":"たのせ"},
{"zip_code":"9670002","kana_pref":"ﾌｸｼﾏｹﾝ","kana_city":"ﾐﾅﾐｱｲﾂﾞｸﾞﾝﾐﾅﾐｱｲﾂﾞﾏﾁ","kana_address":"ﾀﾍﾞ","pref":"福島県","city":"南会津郡南会津町","address":"田部"},
{"zip_code":"9670007","kana_pref":"ﾌｸｼﾏｹﾝ","kana_city":"ﾐﾅﾐｱｲﾂﾞｸﾞﾝﾐﾅﾐｱｲﾂﾞﾏﾁ","kana_address":"ﾀﾝﾄﾞｳ","pref":"福島県","city":"南会津郡南会津町","address":"丹藤"},
{"zip_code":"9670332","kana_pref":"ﾌｸｼﾏｹﾝ","kana_city":"ﾐﾅﾐｱｲﾂﾞｸﾞﾝﾐﾅﾐｱｲﾂﾞﾏﾁ","kana_address":"ﾂﾉｳ","pref":"福島県","city":"南会津郡南会津町","address":"角生"},
{"zip_code":"9670016","kana_pref":"ﾌｸｼﾏｹﾝ","kana_city":"ﾐﾅﾐｱｲﾂﾞｸﾞﾝﾐﾅﾐｱｲﾂﾞﾏﾁ","kana_address":"ﾄｳﾆｭｳ","pref":"福島県","city":"南会津郡南会津町","address":"藤生"},
{"zip_code":"9670621","kana_pref":"ﾌｸｼﾏｹﾝ","kana_city":"ﾐﾅﾐｱｲﾂﾞｸﾞﾝﾐﾅﾐｱｲﾂﾞﾏﾁ","kana_address":"ﾄｳﾉｽ","pref":"福島県","city":"南会津郡南会津町","address":"鴇巣"},
{"zip_code":"9670345","kana_pref":"ﾌｸｼﾏｹﾝ","kana_city":"ﾐﾅﾐｱｲﾂﾞｸﾞﾝﾐﾅﾐｱｲﾂﾞﾏﾁ","kana_address":"ﾄｸｻ","pref":"福島県","city":"南会津郡南会津町","address":"木賊"},
{"zip_code":"9670305","kana_pref":"ﾌｸｼﾏｹﾝ","kana_city":"ﾐﾅﾐｱｲﾂﾞｸﾞﾝﾐﾅﾐｱｲﾂﾞﾏﾁ","kana_address":"ﾄﾁｭｳ","pref":"福島県","city":"南会津郡南会津町","address":"戸中"},
{"zip_code":"9670633","kana_pref":"ﾌｸｼﾏｹﾝ","kana_city":"ﾐﾅﾐｱｲﾂﾞｸﾞﾝﾐﾅﾐｱｲﾂﾞﾏﾁ","kana_address":"ﾄﾐﾔﾏ","pref":"福島県","city":"南会津郡南会津町","address":"富山"},
{"zip_code":"9670005","kana_pref":"ﾌｸｼﾏｹﾝ","kana_city":"ﾐﾅﾐｱｲﾂﾞｸﾞﾝﾐﾅﾐｱｲﾂﾞﾏﾁ","kana_address":"ﾅｶｱﾗｲ","pref":"福島県","city":"南会津郡南会津町","address":"中荒井"},
{"zip_code":"9670006","kana_pref":"ﾌｸｼﾏｹﾝ","kana_city":"ﾐﾅﾐｱｲﾂﾞｸﾞﾝﾐﾅﾐｱｲﾂﾞﾏﾁ","kana_address":"ﾅｶﾞﾀ","pref":"福島県","city":"南会津郡南会津町","address":"永田"},
{"zip_code":"9670001","kana_pref":"ﾌｸｼﾏｹﾝ","kana_city":"ﾐﾅﾐｱｲﾂﾞｸﾞﾝﾐﾅﾐｱｲﾂﾞﾏﾁ","kana_address":"ﾅｶﾞﾉ","pref":"福島県","city":"南会津郡南会津町","address":"長野"},
{"zip_code":"9670312","kana_pref":"ﾌｸｼﾏｹﾝ","kana_city":"ﾐﾅﾐｱｲﾂﾞｸﾞﾝﾐﾅﾐｱｲﾂﾞﾏﾁ","kana_address":"ﾉｼﾄ","pref":"福島県","city":"南会津郡南会津町","address":"熨斗戸"},
{"zip_code":"9670512","kana_pref":"ﾌｸｼﾏｹﾝ","kana_city":"ﾐﾅﾐｱｲﾂﾞｸﾞﾝﾐﾅﾐｱｲﾂﾞﾏﾁ","kana_address":"ﾊｼﾞｶｾﾞ","pref":"福島県","city":"南会津郡南会津町","address":"耻風"},
{"zip_code":"9670504","kana_pref":"ﾌｸｼﾏｹﾝ","kana_city":"ﾐﾅﾐｱｲﾂﾞｸﾞﾝﾐﾅﾐｱｲﾂﾞﾏﾁ","kana_address":"ﾊﾏﾉ","pref":"福島県","city":"南会津郡南会津町","address":"浜野"},
{"zip_code":"9670026","kana_pref":"ﾌｸｼﾏｹﾝ","kana_city":"ﾐﾅﾐｱｲﾂﾞｸﾞﾝﾐﾅﾐｱｲﾂﾞﾏﾁ","kana_address":"ﾊﾘｭｳ","pref":"福島県","city":"南会津郡南会津町","address":"針生"},
{"zip_code":"9670324","kana_pref":"ﾌｸｼﾏｹﾝ","kana_city":"ﾐﾅﾐｱｲﾂﾞｸﾞﾝﾐﾅﾐｱｲﾂﾞﾏﾁ","kana_address":"ﾊﾞﾝﾔ","pref":"福島県","city":"南会津郡南会津町","address":"番屋"},
{"zip_code":"9670023","kana_pref":"ﾌｸｼﾏｹﾝ","kana_city":"ﾐﾅﾐｱｲﾂﾞｸﾞﾝﾐﾅﾐｱｲﾂﾞﾏﾁ","kana_address":"ﾌｸﾒｻﾞﾜ","pref":"福島県","city":"南会津郡南会津町","address":"福米沢"},
{"zip_code":"9670303","kana_pref":"ﾌｸｼﾏｹﾝ","kana_city":"ﾐﾅﾐｱｲﾂﾞｸﾞﾝﾐﾅﾐｱｲﾂﾞﾏﾁ","kana_address":"ﾌｸﾜﾀ","pref":"福島県","city":"南会津郡南会津町","address":"福渡"},
{"zip_code":"9670501","kana_pref":"ﾌｸｼﾏｹﾝ","kana_city":"ﾐﾅﾐｱｲﾂﾞｸﾞﾝﾐﾅﾐｱｲﾂﾞﾏﾁ","kana_address":"ﾌﾙﾏﾁ","pref":"福島県","city":"南会津郡南会津町","address":"古町"},
{"zip_code":"9670306","kana_pref":"ﾌｸｼﾏｹﾝ","kana_city":"ﾐﾅﾐｱｲﾂﾞｸﾞﾝﾐﾅﾐｱｲﾂﾞﾏﾁ","kana_address":"ﾏｴｻﾞﾜ","pref":"福島県","city":"南会津郡南会津町","address":"前沢"},
{"zip_code":"9670304","kana_pref":"ﾌｸｼﾏｹﾝ","kana_city":"ﾐﾅﾐｱｲﾂﾞｸﾞﾝﾐﾅﾐｱｲﾂﾞﾏﾁ","kana_address":"ﾏﾂﾄﾊﾗ","pref":"福島県","city":"南会津郡南会津町","address":"松戸原"},
{"zip_code":"9670003","kana_pref":"ﾌｸｼﾏｹﾝ","kana_city":"ﾐﾅﾐｱｲﾂﾞｸﾞﾝﾐﾅﾐｱｲﾂﾞﾏﾁ","kana_address":"ﾐｽﾞﾅｼ","pref":"福島県","city":"南会津郡南会津町","address":"水無"},
{"zip_code":"9670602","kana_pref":"ﾌｸｼﾏｹﾝ","kana_city":"ﾐﾅﾐｱｲﾂﾞｸﾞﾝﾐﾅﾐｱｲﾂﾞﾏﾁ","kana_address":"ﾐｽﾞﾈｻﾜ","pref":"福島県","city":"南会津郡南会津町","address":"水根沢"},
{"zip_code":"9670334","kana_pref":"ﾌｸｼﾏｹﾝ","kana_city":"ﾐﾅﾐｱｲﾂﾞｸﾞﾝﾐﾅﾐｱｲﾂﾞﾏﾁ","kana_address":"ﾐｽﾞﾋｷ","pref":"福島県","city":"南会津郡南会津町","address":"水引"},
{"zip_code":"9670347","kana_pref":"ﾌｸｼﾏｹﾝ","kana_city":"ﾐﾅﾐｱｲﾂﾞｸﾞﾝﾐﾅﾐｱｲﾂﾞﾏﾁ","kana_address":"ﾐﾔｻﾞﾄ","pref":"福島県","city":"南会津郡南会津町","address":"宮里"},
{"zip_code":"9670505","kana_pref":"ﾌｸｼﾏｹﾝ","kana_city":"ﾐﾅﾐｱｲﾂﾞｸﾞﾝﾐﾅﾐｱｲﾂﾞﾏﾁ","kana_address":"ﾐﾔｻﾞﾜ","pref":"福島県","city":"南会津郡南会津町","address":"宮沢"},
{"zip_code":"9670622","kana_pref":"ﾌｸｼﾏｹﾝ","kana_city":"ﾐﾅﾐｱｲﾂﾞｸﾞﾝﾐﾅﾐｱｲﾂﾞﾏﾁ","kana_address":"ﾐﾔﾄｺ","pref":"福島県","city":"南会津郡南会津町","address":"宮床"},
{"zip_code":"9670313","kana_pref":"ﾌｸｼﾏｹﾝ","kana_city":"ﾐﾅﾐｱｲﾂﾞｸﾞﾝﾐﾅﾐｱｲﾂﾞﾏﾁ","kana_address":"ﾓﾘﾄ","pref":"福島県","city":"南会津郡南会津町","address":"森戸"},
{"zip_code":"9670318","kana_pref":"ﾌｸｼﾏｹﾝ","kana_city":"ﾐﾅﾐｱｲﾂﾞｸﾞﾝﾐﾅﾐｱｲﾂﾞﾏﾁ","kana_address":"ﾔｷﾞﾉｻﾜ","pref":"福島県","city":"南会津郡南会津町","address":"八木ノ沢"},
{"zip_code":"9670314","kana_pref":"ﾌｸｼﾏｹﾝ","kana_city":"ﾐﾅﾐｱｲﾂﾞｸﾞﾝﾐﾅﾐｱｲﾂﾞﾏﾁ","kana_address":"ﾔｿｳ","pref":"福島県","city":"南会津郡南会津町","address":"八総"},
{"zip_code":"9670611","kana_pref":"ﾌｸｼﾏｹﾝ","kana_city":"ﾐﾅﾐｱｲﾂﾞｸﾞﾝﾐﾅﾐｱｲﾂﾞﾏﾁ","kana_address":"ﾔﾏｸﾞﾁ","pref":"福島県","city":"南会津郡南会津町","address":"山口"},
{"zip_code":"9670333","kana_pref":"ﾌｸｼﾏｹﾝ","kana_city":"ﾐﾅﾐｱｲﾂﾞｸﾞﾝﾐﾅﾐｱｲﾂﾞﾏﾁ","kana_address":"ﾕﾉﾊﾅ","pref":"福島県","city":"南会津郡南会津町","address":"湯ノ花"},
{"zip_code":"9670336","kana_pref":"ﾌｸｼﾏｹﾝ","kana_city":"ﾐﾅﾐｱｲﾂﾞｸﾞﾝﾐﾅﾐｱｲﾂﾞﾏﾁ","kana_address":"ﾖｼﾀｶ","pref":"福島県","city":"南会津郡南会津町","address":"吉高"}]}