{"zip_code":[
{"zip_code":"9680400","kana_pref":"ﾌｸｼﾏｹﾝ","kana_city":"ﾐﾅﾐｱｲﾂﾞｸﾞﾝﾀﾀﾞﾐﾏﾁ","kana_address":"","pref":"福島県","city":"南会津郡只見町","address":""},
{"zip_code":"9680443","kana_pref":"ﾌｸｼﾏｹﾝ","kana_city":"ﾐﾅﾐｱｲﾂﾞｸﾞﾝﾀﾀﾞﾐﾏﾁ","kana_address":"ｱﾗｼﾏ","pref":"福島県","city":"南会津郡只見町","address":"荒島"},
{"zip_code":"9680422","kana_pref":"ﾌｸｼﾏｹﾝ","kana_city":"ﾐﾅﾐｱｲﾂﾞｸﾞﾝﾀﾀﾞﾐﾏﾁ","kana_address":"ｲｼﾌﾞｼ","pref":"福島県","city":"南会津郡只見町","address":"石伏"},
{"zip_code":"9680602","kana_pref":"ﾌｸｼﾏｹﾝ","kana_city":"ﾐﾅﾐｱｲﾂﾞｸﾞﾝﾀﾀﾞﾐﾏﾁ","kana_address":"ｵｵｸﾗ","pref":"福島県","city":"南会津郡只見町","address":"大倉"},
{"zip_code":"9680434","kana_pref":"ﾌｸｼﾏｹﾝ","kana_city":"ﾐﾅﾐｱｲﾂﾞｸﾞﾝﾀﾀﾞﾐﾏﾁ","kana_address":"ｵｶﾞﾜ","pref":"福島県","city":"南会津郡只見町","address":"小川"},
{"zip_code":"9680415","kana_pref":"ﾌｸｼﾏｹﾝ","kana_city":"ﾐﾅﾐｱｲﾂﾞｸﾞﾝﾀﾀﾞﾐﾏﾁ","kana_address":"ｶﾉｳﾂﾞ","pref":"福島県","city":"南会津郡只見町","address":"叶津"},
{"zip_code":"9680445","kana_pref":"ﾌｸｼﾏｹﾝ","kana_city":"ﾐﾅﾐｱｲﾂﾞｸﾞﾝﾀﾀﾞﾐﾏﾁ","kana_address":"ｶﾒｵｶ","pref":"福島県","city":"南会津郡只見町","address":"亀岡"},
{"zip_code":"9680414","kana_pref":"ﾌｸｼﾏｹﾝ","kana_city":"ﾐﾅﾐｱｲﾂﾞｸﾞﾝﾀﾀﾞﾐﾏﾁ","kana_address":"ｶﾞﾓｳ","pref":"福島県","city":"南会津郡只見町","address":"蒲生"},
{"zip_code":"9680444","kana_pref":"ﾌｸｼﾏｹﾝ","kana_city":"ﾐﾅﾐｱｲﾂﾞｸﾞﾝﾀﾀﾞﾐﾏﾁ","kana_address":"ｸﾏｸﾞﾗ","pref":"福島県","city":"南会津郡只見町","address":"熊倉"},
{"zip_code":"9680432","kana_pref":"ﾌｸｼﾏｹﾝ","kana_city":"ﾐﾅﾐｱｲﾂﾞｸﾞﾝﾀﾀﾞﾐﾏﾁ","kana_address":"ｸﾛｻﾜ","pref":"福島県","city":"南会津郡只見町","address":"黒沢"},
{"zip_code":"9680441","kana_pref":"ﾌｸｼﾏｹﾝ","kana_city":"ﾐﾅﾐｱｲﾂﾞｸﾞﾝﾀﾀﾞﾐﾏﾁ","kana_address":"ｸﾛﾀﾆ","pref":"福島県","city":"南会津郡只見町","address":"黒谷"},
{"zip_code":"9680601","kana_pref":"ﾌｸｼﾏｹﾝ","kana_city":"ﾐﾅﾐｱｲﾂﾞｸﾞﾝﾀﾀﾞﾐﾏﾁ","kana_address":"ｺﾊﾞﾔｼ","pref":"福島県","city":"南会津郡只見町","address":"小林"},
{"zip_code":"9680606","kana_pref":"ﾌｸｼﾏｹﾝ","kana_city":"ﾐﾅﾐｱｲﾂﾞｸﾞﾝﾀﾀﾞﾐﾏﾁ","kana_address":"ｻｶﾀ","pref":"福島県","city":"南会津郡只見町","address":"坂田"},
{"zip_code":"9680411","kana_pref":"ﾌｸｼﾏｹﾝ","kana_city":"ﾐﾅﾐｱｲﾂﾞｸﾞﾝﾀﾀﾞﾐﾏﾁ","kana_address":"ｼｵｻﾞﾜ","pref":"福島県","city":"南会津郡只見町","address":"塩沢"},
{"zip_code":"9680604","kana_pref":"ﾌｸｼﾏｹﾝ","kana_city":"ﾐﾅﾐｱｲﾂﾞｸﾞﾝﾀﾀﾞﾐﾏﾁ","kana_address":"ｼｵﾉﾏﾀ","pref":"福島県","city":"南会津郡只見町","address":"塩ノ岐"},
{"zip_code":"9680412","kana_pref":"ﾌｸｼﾏｹﾝ","kana_city":"ﾐﾅﾐｱｲﾂﾞｸﾞﾝﾀﾀﾞﾐﾏﾁ","kana_address":"ｼﾞｭｳｼﾞﾏ","pref":"福島県","city":"南会津郡只見町","address":"十島"},
{"zip_code":"9680423","kana_pref":"ﾌｸｼﾏｹﾝ","kana_city":"ﾐﾅﾐｱｲﾂﾞｸﾞﾝﾀﾀﾞﾐﾏﾁ","kana_address":"ﾀｺﾞｸﾗ","pref":"福島県","city":"南会津郡只見町","address":"田子倉"},
{"zip_code":"9680421","kana_pref":"ﾌｸｼﾏｹﾝ","kana_city":"ﾐﾅﾐｱｲﾂﾞｸﾞﾝﾀﾀﾞﾐﾏﾁ","kana_address":"ﾀﾀﾞﾐ","pref":"福島県","city":"南会津郡只見町","address":"只見"},
{"zip_code":"9680442","kana_pref":"ﾌｸｼﾏｹﾝ","kana_city":"ﾐﾅﾐｱｲﾂﾞｸﾞﾝﾀﾀﾞﾐﾏﾁ","kana_address":"ﾅｶﾞﾊﾏ","pref":"福島県","city":"南会津郡只見町","address":"長浜"},
{"zip_code":"9680431","kana_pref":"ﾌｸｼﾏｹﾝ","kana_city":"ﾐﾅﾐｱｲﾂﾞｸﾞﾝﾀﾀﾞﾐﾏﾁ","kana_address":"ﾅﾗﾄ","pref":"福島県","city":"南会津郡只見町","address":"楢戸"},
{"zip_code":"9680605","kana_pref":"ﾌｸｼﾏｹﾝ","kana_city":"ﾐﾅﾐｱｲﾂﾞｸﾞﾝﾀﾀﾞﾐﾏﾁ","kana_address":"ﾆｹﾝｻﾞｲｹ","pref":"福島県","city":"南会津郡只見町","address":"二軒在家"},
{"zip_code":"9680433","kana_pref":"ﾌｸｼﾏｹﾝ","kana_city":"ﾐﾅﾐｱｲﾂﾞｸﾞﾝﾀﾀﾞﾐﾏﾁ","kana_address":"ﾌｸｲ","pref":"福島県","city":"南会津郡只見町","address":"福井"},
{"zip_code":"9680607","kana_pref":"ﾌｸｼﾏｹﾝ","kana_city":"ﾐﾅﾐｱｲﾂﾞｸﾞﾝﾀﾀﾞﾐﾏﾁ","kana_address":"ﾌｻﾞﾜ","pref":"福島県","city":"南会津郡只見町","address":"布沢"},
{"zip_code":"9680603","kana_pref":"ﾌｸｼﾏｹﾝ","kana_city":"ﾐﾅﾐｱｲﾂﾞｸﾞﾝﾀﾀﾞﾐﾏﾁ","kana_address":"ﾔﾅﾄﾘ","pref":"福島県","city":"南会津郡只見町","address":"梁取"},
{"zip_code":"9680413","kana_pref":"ﾌｸｼﾏｹﾝ","kana_city":"ﾐﾅﾐｱｲﾂﾞｸﾞﾝﾀﾀﾞﾐﾏﾁ","kana_address":"ﾖﾘｲﾜ","pref":"福島県","city":"南会津郡只見町","address":"寄岩"},
{"zip_code":"9680000","kana_pref":"ﾌｸｼﾏｹﾝ","kana_city":"ｵｵﾇﾏｸﾞﾝｶﾈﾔﾏﾏﾁ","kana_address":"","pref":"福島県","city":"大沼郡金山町","address":""},
{"zip_code":"9680002","kana_pref":"ﾌｸｼﾏｹﾝ","kana_city":"ｵｵﾇﾏｸﾞﾝｶﾈﾔﾏﾏﾁ","kana_address":"ｵｵｸﾘﾔﾏ","pref":"福島県","city":"大沼郡金山町","address":"大栗山"},
{"zip_code":"9680005","kana_pref":"ﾌｸｼﾏｹﾝ","kana_city":"ｵｵﾇﾏｸﾞﾝｶﾈﾔﾏﾏﾁ","kana_address":"ｵｵｼ","pref":"福島県","city":"大沼郡金山町","address":"大志"},
{"zip_code":"9680326","kana_pref":"ﾌｸｼﾏｹﾝ","kana_city":"ｵｵﾇﾏｸﾞﾝｶﾈﾔﾏﾏﾁ","kana_address":"ｵｵｼｵ","pref":"福島県","city":"大沼郡金山町","address":"大塩"},
{"zip_code":"9680011","kana_pref":"ﾌｸｼﾏｹﾝ","kana_city":"ｵｵﾇﾏｸﾞﾝｶﾈﾔﾏﾏﾁ","kana_address":"ｶﾜｸﾞﾁ","pref":"福島県","city":"大沼郡金山町","address":"川口"},
{"zip_code":"9680012","kana_pref":"ﾌｸｼﾏｹﾝ","kana_city":"ｵｵﾇﾏｸﾞﾝｶﾈﾔﾏﾏﾁ","kana_address":"ｺｸﾞﾘﾔﾏ","pref":"福島県","city":"大沼郡金山町","address":"小栗山"},
{"zip_code":"9680321","kana_pref":"ﾌｸｼﾏｹﾝ","kana_city":"ｵｵﾇﾏｸﾞﾝｶﾈﾔﾏﾏﾁ","kana_address":"ｺｽｶﾞﾜ","pref":"福島県","city":"大沼郡金山町","address":"越川"},
{"zip_code":"9680325","kana_pref":"ﾌｸｼﾏｹﾝ","kana_city":"ｵｵﾇﾏｸﾞﾝｶﾈﾔﾏﾏﾁ","kana_address":"ﾀｷｻﾞﾜ","pref":"福島県","city":"大沼郡金山町","address":"滝沢"},
{"zip_code":"9680324","kana_pref":"ﾌｸｼﾏｹﾝ","kana_city":"ｵｵﾇﾏｸﾞﾝｶﾈﾔﾏﾏﾁ","kana_address":"ﾀｻﾞﾜ","pref":"福島県","city":"大沼郡金山町","address":"田沢"},
{"zip_code":"9680014","kana_pref":"ﾌｸｼﾏｹﾝ","kana_city":"ｵｵﾇﾏｸﾞﾝｶﾈﾔﾏﾏﾁ","kana_address":"ﾀﾏﾅｼ","pref":"福島県","city":"大沼郡金山町","address":"玉梨"},
{"zip_code":"9680004","kana_pref":"ﾌｸｼﾏｹﾝ","kana_city":"ｵｵﾇﾏｸﾞﾝｶﾈﾔﾏﾏﾁ","kana_address":"ﾀﾛｳﾌﾞ","pref":"福島県","city":"大沼郡金山町","address":"太郎布"},
{"zip_code":"9680006","kana_pref":"ﾌｸｼﾏｹﾝ","kana_city":"ｵｵﾇﾏｸﾞﾝｶﾈﾔﾏﾏﾁ","kana_address":"ﾅｶｶﾞﾜ","pref":"福島県","city":"大沼郡金山町","address":"中川"},
{"zip_code":"9680015","kana_pref":"ﾌｸｼﾏｹﾝ","kana_city":"ｵｵﾇﾏｸﾞﾝｶﾈﾔﾏﾏﾁ","kana_address":"ﾆｼﾀﾆ","pref":"福島県","city":"大沼郡金山町","address":"西谷"},
{"zip_code":"9680003","kana_pref":"ﾌｸｼﾏｹﾝ","kana_city":"ｵｵﾇﾏｸﾞﾝｶﾈﾔﾏﾏﾁ","kana_address":"ﾇﾏｻﾞﾜ","pref":"福島県","city":"大沼郡金山町","address":"沼沢"},
{"zip_code":"9680013","kana_pref":"ﾌｸｼﾏｹﾝ","kana_city":"ｵｵﾇﾏｸﾞﾝｶﾈﾔﾏﾏﾁ","kana_address":"ﾊﾁﾏﾁ","pref":"福島県","city":"大沼郡金山町","address":"八町"},
{"zip_code":"9680016","kana_pref":"ﾌｸｼﾏｹﾝ","kana_city":"ｵｵﾇﾏｸﾞﾝｶﾈﾔﾏﾏﾁ","kana_address":"ﾎﾝﾅ","pref":"福島県","city":"大沼郡金山町","address":"本名"},
{"zip_code":"9680001","kana_pref":"ﾌｸｼﾏｹﾝ","kana_city":"ｵｵﾇﾏｸﾞﾝｶﾈﾔﾏﾏﾁ","kana_address":"ﾐｽﾞﾇﾏ","pref":"福島県","city":"大沼郡金山町","address":"水沼"},
{"zip_code":"9680323","kana_pref":"ﾌｸｼﾏｹﾝ","kana_city":"ｵｵﾇﾏｸﾞﾝｶﾈﾔﾏﾏﾁ","kana_address":"ﾔﾏｲﾘ","pref":"福島県","city":"大沼郡金山町","address":"山入"},
{"zip_code":"9680322","kana_pref":"ﾌｸｼﾏｹﾝ","kana_city":"ｵｵﾇﾏｸﾞﾝｶﾈﾔﾏﾏﾁ","kana_address":"ﾖｺﾀ","pref":"福島県","city":"大沼郡金山町","address":"横田"},
{"zip_code":"9680100","kana_pref":"ﾌｸｼﾏｹﾝ","kana_city":"ｵｵﾇﾏｸﾞﾝｼｮｳﾜﾑﾗ","kana_address":"","pref":"福島県","city":"大沼郡昭和村","address":""},
{"zip_code":"9680214","kana_pref":"ﾌｸｼﾏｹﾝ","kana_city":"ｵｵﾇﾏｸﾞﾝｼｮｳﾜﾑﾗ","kana_address":"ｵｵｱｼ","pref":"福島県","city":"大沼郡昭和村","address":"大芦"},
{"zip_code":"9680211","kana_pref":"ﾌｸｼﾏｹﾝ","kana_city":"ｵｵﾇﾏｸﾞﾝｼｮｳﾜﾑﾗ","kana_address":"ｵﾉｶﾞﾜ","pref":"福島県","city":"大沼郡昭和村","address":"小野川"},
{"zip_code":"9680212","kana_pref":"ﾌｸｼﾏｹﾝ","kana_city":"ｵｵﾇﾏｸﾞﾝｼｮｳﾜﾑﾗ","kana_address":"ｸｲﾏﾙ","pref":"福島県","city":"大沼郡昭和村","address":"喰丸"},
{"zip_code":"9680104","kana_pref":"ﾌｸｼﾏｹﾝ","kana_city":"ｵｵﾇﾏｸﾞﾝｼｮｳﾜﾑﾗ","kana_address":"ｺﾅｶﾂｶﾜ","pref":"福島県","city":"大沼郡昭和村","address":"小中津川"},
{"zip_code":"9680215","kana_pref":"ﾌｸｼﾏｹﾝ","kana_city":"ｵｵﾇﾏｸﾞﾝｼｮｳﾜﾑﾗ","kana_address":"ｻｸﾞﾗ","pref":"福島県","city":"大沼郡昭和村","address":"佐倉"},
{"zip_code":"9680103","kana_pref":"ﾌｸｼﾏｹﾝ","kana_city":"ｵｵﾇﾏｸﾞﾝｼｮｳﾜﾑﾗ","kana_address":"ｼﾓﾅｶﾂｶﾜ","pref":"福島県","city":"大沼郡昭和村","address":"下中津川"},
{"zip_code":"9680102","kana_pref":"ﾌｸｼﾏｹﾝ","kana_city":"ｵｵﾇﾏｸﾞﾝｼｮｳﾜﾑﾗ","kana_address":"ﾉｼﾞﾘ","pref":"福島県","city":"大沼郡昭和村","address":"野尻"},
{"zip_code":"9680101","kana_pref":"ﾌｸｼﾏｹﾝ","kana_city":"ｵｵﾇﾏｸﾞﾝｼｮｳﾜﾑﾗ","kana_address":"ﾏﾂﾔﾏ","pref":"福島県","city":"大沼郡昭和村","address":"松山"},
{"zip_code":"9680213","kana_pref":"ﾌｸｼﾏｹﾝ","kana_city":"ｵｵﾇﾏｸﾞﾝｼｮｳﾜﾑﾗ","kana_address":"ﾘｮｳﾊﾗ","pref":"福島県","city":"大沼郡昭和村","address":"両原"}]}