{"zip_code":[
{"zip_code":"9695147","kana_pref":"ﾌｸｼﾏｹﾝ","kana_city":"ｱｲﾂﾞﾜｶﾏﾂｼ","kana_address":"ｵｵﾄﾏﾁｱｼﾉﾏｷ","pref":"福島県","city":"会津若松市","address":"大戸町芦牧"},
{"zip_code":"9695111","kana_pref":"ﾌｸｼﾏｹﾝ","kana_city":"ｱｲﾂﾞﾜｶﾏﾂｼ","kana_address":"ｵｵﾄﾏﾁｲｼﾑﾗ","pref":"福島県","city":"会津若松市","address":"大戸町石村"},
{"zip_code":"9695133","kana_pref":"ﾌｸｼﾏｹﾝ","kana_city":"ｱｲﾂﾞﾜｶﾏﾂｼ","kana_address":"ｵｵﾄﾏﾁｵｵｶﾜ","pref":"福島県","city":"会津若松市","address":"大戸町大川"},
{"zip_code":"9695141","kana_pref":"ﾌｸｼﾏｹﾝ","kana_city":"ｱｲﾂﾞﾜｶﾏﾂｼ","kana_address":"ｵｵﾄﾏﾁｵﾔｶﾜﾊﾞﾀ","pref":"福島県","city":"会津若松市","address":"大戸町小谷川端"},
{"zip_code":"9695142","kana_pref":"ﾌｸｼﾏｹﾝ","kana_city":"ｱｲﾂﾞﾜｶﾏﾂｼ","kana_address":"ｵｵﾄﾏﾁｵﾔｻｶﾉｼﾀ","pref":"福島県","city":"会津若松市","address":"大戸町小谷坂下"},
{"zip_code":"9695144","kana_pref":"ﾌｸｼﾏｹﾝ","kana_city":"ｱｲﾂﾞﾜｶﾏﾂｼ","kana_address":"ｵｵﾄﾏﾁｵﾔﾆｼﾑﾗ","pref":"福島県","city":"会津若松市","address":"大戸町小谷西村"},
{"zip_code":"9695143","kana_pref":"ﾌｸｼﾏｹﾝ","kana_city":"ｱｲﾂﾞﾜｶﾏﾂｼ","kana_address":"ｵｵﾄﾏﾁｵﾔﾊﾗ","pref":"福島県","city":"会津若松市","address":"大戸町小谷原"},
{"zip_code":"9695145","kana_pref":"ﾌｸｼﾏｹﾝ","kana_city":"ｱｲﾂﾞﾜｶﾏﾂｼ","kana_address":"ｵｵﾄﾏﾁｵﾔﾋﾗｻﾜ","pref":"福島県","city":"会津若松市","address":"大戸町小谷平沢"},
{"zip_code":"9695146","kana_pref":"ﾌｸｼﾏｹﾝ","kana_city":"ｱｲﾂﾞﾜｶﾏﾂｼ","kana_address":"ｵｵﾄﾏﾁｵﾔﾕﾉﾀﾞｲﾗ","pref":"福島県","city":"会津若松市","address":"大戸町小谷湯ノ平"},
{"zip_code":"9695114","kana_pref":"ﾌｸｼﾏｹﾝ","kana_city":"ｱｲﾂﾞﾜｶﾏﾂｼ","kana_address":"ｵｵﾄﾏﾁｶﾐｱﾏﾔ","pref":"福島県","city":"会津若松市","address":"大戸町上雨屋"},
{"zip_code":"9695132","kana_pref":"ﾌｸｼﾏｹﾝ","kana_city":"ｱｲﾂﾞﾜｶﾏﾂｼ","kana_address":"ｵｵﾄﾏﾁｶﾐｵｼｭｳ","pref":"福島県","city":"会津若松市","address":"大戸町上小塩"},
{"zip_code":"9695123","kana_pref":"ﾌｸｼﾏｹﾝ","kana_city":"ｱｲﾂﾞﾜｶﾏﾂｼ","kana_address":"ｵｵﾄﾏﾁｶﾐﾐﾖﾘｵｵﾏﾒﾀ","pref":"福島県","city":"会津若松市","address":"大戸町上三寄大豆田"},
{"zip_code":"9695122","kana_pref":"ﾌｸｼﾏｹﾝ","kana_city":"ｱｲﾂﾞﾜｶﾏﾂｼ","kana_address":"ｵｵﾄﾏﾁｶﾐﾐﾖﾘｵﾂ","pref":"福島県","city":"会津若松市","address":"大戸町上三寄乙"},
{"zip_code":"9695122","kana_pref":"ﾌｸｼﾏｹﾝ","kana_city":"ｱｲﾂﾞﾜｶﾏﾂｼ","kana_address":"ｵｵﾄﾏﾁｶﾐﾐﾖﾘｶｼｭｳ","pref":"福島県","city":"会津若松市","address":"大戸町上三寄香塩"},
{"zip_code":"9695123","kana_pref":"ﾌｸｼﾏｹﾝ","kana_city":"ｱｲﾂﾞﾜｶﾏﾂｼ","kana_address":"ｵｵﾄﾏﾁｶﾐﾐﾖﾘﾍｲ","pref":"福島県","city":"会津若松市","address":"大戸町上三寄丙"},
{"zip_code":"9695121","kana_pref":"ﾌｸｼﾏｹﾝ","kana_city":"ｱｲﾂﾞﾜｶﾏﾂｼ","kana_address":"ｵｵﾄﾏﾁｶﾐﾐﾖﾘﾐﾅﾐﾊﾗ","pref":"福島県","city":"会津若松市","address":"大戸町上三寄南原"},
{"zip_code":"9695112","kana_pref":"ﾌｸｼﾏｹﾝ","kana_city":"ｱｲﾂﾞﾜｶﾏﾂｼ","kana_address":"ｵｵﾄﾏﾁｼﾓｱﾏﾔ","pref":"福島県","city":"会津若松市","address":"大戸町下雨屋"},
{"zip_code":"9695131","kana_pref":"ﾌｸｼﾏｹﾝ","kana_city":"ｱｲﾂﾞﾜｶﾏﾂｼ","kana_address":"ｵｵﾄﾏﾁﾀｶｶﾞﾜ","pref":"福島県","city":"会津若松市","address":"大戸町高川"},
{"zip_code":"9695113","kana_pref":"ﾌｸｼﾏｹﾝ","kana_city":"ｱｲﾂﾞﾜｶﾏﾂｼ","kana_address":"ｵｵﾄﾏﾁﾐﾔｳﾁ","pref":"福島県","city":"会津若松市","address":"大戸町宮内"},
{"zip_code":"9693461","kana_pref":"ﾌｸｼﾏｹﾝ","kana_city":"ｱｲﾂﾞﾜｶﾏﾂｼ","kana_address":"ｶﾜﾋｶﾞｼﾏﾁｱｻﾔﾏ","pref":"福島県","city":"会津若松市","address":"河東町浅山"},
{"zip_code":"9693411","kana_pref":"ﾌｸｼﾏｹﾝ","kana_city":"ｱｲﾂﾞﾜｶﾏﾂｼ","kana_address":"ｶﾜﾋｶﾞｼﾏﾁｵｵﾀﾜﾗ","pref":"福島県","city":"会津若松市","address":"河東町大田原"},
{"zip_code":"9693401","kana_pref":"ﾌｸｼﾏｹﾝ","kana_city":"ｱｲﾂﾞﾜｶﾏﾂｼ","kana_address":"ｶﾜﾋｶﾞｼﾏﾁｵｶﾀﾞ","pref":"福島県","city":"会津若松市","address":"河東町岡田"},
{"zip_code":"9693462","kana_pref":"ﾌｸｼﾏｹﾝ","kana_city":"ｱｲﾂﾞﾜｶﾏﾂｼ","kana_address":"ｶﾜﾋｶﾞｼﾏﾁｶﾈﾀﾞ","pref":"福島県","city":"会津若松市","address":"河東町金田"},
{"zip_code":"9693421","kana_pref":"ﾌｸｼﾏｹﾝ","kana_city":"ｱｲﾂﾞﾜｶﾏﾂｼ","kana_address":"ｶﾜﾋｶﾞｼﾏﾁｸﾏﾉﾄﾞｳ","pref":"福島県","city":"会津若松市","address":"河東町熊野堂"},
{"zip_code":"9693463","kana_pref":"ﾌｸｼﾏｹﾝ","kana_city":"ｱｲﾂﾞﾜｶﾏﾂｼ","kana_address":"ｶﾜﾋｶﾞｼﾏﾁｸﾗﾊｼ","pref":"福島県","city":"会津若松市","address":"河東町倉橋"},
{"zip_code":"9693464","kana_pref":"ﾌｸｼﾏｹﾝ","kana_city":"ｱｲﾂﾞﾜｶﾏﾂｼ","kana_address":"ｶﾜﾋｶﾞｼﾏﾁｺｳｷﾞｮｳﾀﾞﾝﾁ","pref":"福島県","city":"会津若松市","address":"河東町工業団地"},
{"zip_code":"9693422","kana_pref":"ﾌｸｼﾏｹﾝ","kana_city":"ｱｲﾂﾞﾜｶﾏﾂｼ","kana_address":"ｶﾜﾋｶﾞｼﾏﾁｺｳﾔ","pref":"福島県","city":"会津若松市","address":"河東町広野"},
{"zip_code":"9693481","kana_pref":"ﾌｸｼﾏｹﾝ","kana_city":"ｱｲﾂﾞﾜｶﾏﾂｼ","kana_address":"ｶﾜﾋｶﾞｼﾏﾁｺｵﾘﾔﾏ","pref":"福島県","city":"会津若松市","address":"河東町郡山"},
{"zip_code":"9693482","kana_pref":"ﾌｸｼﾏｹﾝ","kana_city":"ｱｲﾂﾞﾜｶﾏﾂｼ","kana_address":"ｶﾜﾋｶﾞｼﾏﾁﾀﾆｻﾜ","pref":"福島県","city":"会津若松市","address":"河東町谷沢"},
{"zip_code":"9693451","kana_pref":"ﾌｸｼﾏｹﾝ","kana_city":"ｱｲﾂﾞﾜｶﾏﾂｼ","kana_address":"ｶﾜﾋｶﾞｼﾏﾁﾊｯﾀ","pref":"福島県","city":"会津若松市","address":"河東町八田"},
{"zip_code":"9693431","kana_pref":"ﾌｸｼﾏｹﾝ","kana_city":"ｱｲﾂﾞﾜｶﾏﾂｼ","kana_address":"ｶﾜﾋｶﾞｼﾏﾁﾋｶﾞｼﾅｶﾞﾊﾗ","pref":"福島県","city":"会津若松市","address":"河東町東長原"},
{"zip_code":"9693471","kana_pref":"ﾌｸｼﾏｹﾝ","kana_city":"ｱｲﾂﾞﾜｶﾏﾂｼ","kana_address":"ｶﾜﾋｶﾞｼﾏﾁﾋﾛﾀ","pref":"福島県","city":"会津若松市","address":"河東町広田"},
{"zip_code":"9693402","kana_pref":"ﾌｸｼﾏｹﾝ","kana_city":"ｱｲﾂﾞﾜｶﾏﾂｼ","kana_address":"ｶﾜﾋｶﾞｼﾏﾁﾌｸｼﾏ","pref":"福島県","city":"会津若松市","address":"河東町福島"},
{"zip_code":"9693441","kana_pref":"ﾌｸｼﾏｹﾝ","kana_city":"ｱｲﾂﾞﾜｶﾏﾂｼ","kana_address":"ｶﾜﾋｶﾞｼﾏﾁﾐﾅﾐｺｳﾔ","pref":"福島県","city":"会津若松市","address":"河東町南高野"},
{"zip_code":"9693412","kana_pref":"ﾌｸｼﾏｹﾝ","kana_city":"ｱｲﾂﾞﾜｶﾏﾂｼ","kana_address":"ｶﾜﾋｶﾞｼﾏﾁﾖﾀﾞ","pref":"福島県","city":"会津若松市","address":"河東町代田"},
{"zip_code":"9696002","kana_pref":"ﾌｸｼﾏｹﾝ","kana_city":"ｱｲﾂﾞﾜｶﾏﾂｼ","kana_address":"ｷﾀｱｲﾂﾞﾏﾁｱｿｳｼﾝﾃﾞﾝ","pref":"福島県","city":"会津若松市","address":"北会津町麻生新田"},
{"zip_code":"9696008","kana_pref":"ﾌｸｼﾏｹﾝ","kana_city":"ｱｲﾂﾞﾜｶﾏﾂｼ","kana_address":"ｷﾀｱｲﾂﾞﾏﾁｵｵｼﾏ","pref":"福島県","city":"会津若松市","address":"北会津町大島"},
{"zip_code":"9696182","kana_pref":"ﾌｸｼﾏｹﾝ","kana_city":"ｱｲﾂﾞﾜｶﾏﾂｼ","kana_address":"ｷﾀｱｲﾂﾞﾏﾁｶｼﾜﾊﾞﾗ","pref":"福島県","city":"会津若松市","address":"北会津町柏原"},
{"zip_code":"9696012","kana_pref":"ﾌｸｼﾏｹﾝ","kana_city":"ｱｲﾂﾞﾜｶﾏﾂｼ","kana_address":"ｷﾀｱｲﾂﾞﾏﾁｶﾅﾔ","pref":"福島県","city":"会津若松市","address":"北会津町金屋"},
{"zip_code":"9696183","kana_pref":"ﾌｸｼﾏｹﾝ","kana_city":"ｱｲﾂﾞﾜｶﾏﾂｼ","kana_address":"ｷﾀｱｲﾂﾞﾏﾁｶﾐﾖﾈﾂﾞｶ","pref":"福島県","city":"会津若松市","address":"北会津町上米塚"},
{"zip_code":"9696007","kana_pref":"ﾌｸｼﾏｹﾝ","kana_city":"ｱｲﾂﾞﾜｶﾏﾂｼ","kana_address":"ｷﾀｱｲﾂﾞﾏﾁｷﾀｺﾞｱﾝ","pref":"福島県","city":"会津若松市","address":"北会津町北後庵"},
{"zip_code":"9696189","kana_pref":"ﾌｸｼﾏｹﾝ","kana_city":"ｱｲﾂﾞﾜｶﾏﾂｼ","kana_address":"ｷﾀｱｲﾂﾞﾏﾁｺﾏﾂ","pref":"福島県","city":"会津若松市","address":"北会津町小松"},
{"zip_code":"9696184","kana_pref":"ﾌｸｼﾏｹﾝ","kana_city":"ｱｲﾂﾞﾜｶﾏﾂｼ","kana_address":"ｷﾀｱｲﾂﾞﾏﾁｻﾝﾎﾞﾝﾏﾂ","pref":"福島県","city":"会津若松市","address":"北会津町三本松"},
{"zip_code":"9696013","kana_pref":"ﾌｸｼﾏｹﾝ","kana_city":"ｱｲﾂﾞﾜｶﾏﾂｼ","kana_address":"ｷﾀｱｲﾂﾞﾏﾁｼﾓﾉ","pref":"福島県","city":"会津若松市","address":"北会津町下野"},
{"zip_code":"9696185","kana_pref":"ﾌｸｼﾏｹﾝ","kana_city":"ｱｲﾂﾞﾜｶﾏﾂｼ","kana_address":"ｷﾀｱｲﾂﾞﾏﾁｼﾓﾖﾈﾂﾞｶ","pref":"福島県","city":"会津若松市","address":"北会津町下米塚"},
{"zip_code":"9696006","kana_pref":"ﾌｸｼﾏｹﾝ","kana_city":"ｱｲﾂﾞﾜｶﾏﾂｼ","kana_address":"ｷﾀｱｲﾂﾞﾏﾁｼﾝｻﾞｲｹ","pref":"福島県","city":"会津若松市","address":"北会津町新在家"},
{"zip_code":"9696001","kana_pref":"ﾌｸｼﾏｹﾝ","kana_city":"ｱｲﾂﾞﾜｶﾏﾂｼ","kana_address":"ｷﾀｱｲﾂﾞﾏﾁﾃﾝﾏﾝ","pref":"福島県","city":"会津若松市","address":"北会津町天満"},
{"zip_code":"9696003","kana_pref":"ﾌｸｼﾏｹﾝ","kana_city":"ｱｲﾂﾞﾜｶﾏﾂｼ","kana_address":"ｷﾀｱｲﾂﾞﾏﾁﾆｼｱｿｳ","pref":"福島県","city":"会津若松市","address":"北会津町西麻生"},
{"zip_code":"9696011","kana_pref":"ﾌｸｼﾏｹﾝ","kana_city":"ｱｲﾂﾞﾜｶﾏﾂｼ","kana_address":"ｷﾀｱｲﾂﾞﾏﾁﾆｼｺﾞｱﾝ","pref":"福島県","city":"会津若松市","address":"北会津町西後庵"},
{"zip_code":"9696188","kana_pref":"ﾌｸｼﾏｹﾝ","kana_city":"ｱｲﾂﾞﾜｶﾏﾂｼ","kana_address":"ｷﾀｱｲﾂﾞﾏﾁﾋｶﾞｼｺﾏﾂ","pref":"福島県","city":"会津若松市","address":"北会津町東小松"},
{"zip_code":"9696004","kana_pref":"ﾌｸｼﾏｹﾝ","kana_city":"ｱｲﾂﾞﾜｶﾏﾂｼ","kana_address":"ｷﾀｱｲﾂﾞﾏﾁﾌﾙｱｿｳ","pref":"福島県","city":"会津若松市","address":"北会津町古麻生"},
{"zip_code":"9696186","kana_pref":"ﾌｸｼﾏｹﾝ","kana_city":"ｱｲﾂﾞﾜｶﾏﾂｼ","kana_address":"ｷﾀｱｲﾂﾞﾏﾁﾌﾙﾀﾞﾃ","pref":"福島県","city":"会津若松市","address":"北会津町古館"},
{"zip_code":"9696005","kana_pref":"ﾌｸｼﾏｹﾝ","kana_city":"ｱｲﾂﾞﾜｶﾏﾂｼ","kana_address":"ｷﾀｱｲﾂﾞﾏﾁﾏﾂﾉ","pref":"福島県","city":"会津若松市","address":"北会津町松野"},
{"zip_code":"9696015","kana_pref":"ﾌｸｼﾏｹﾝ","kana_city":"ｱｲﾂﾞﾜｶﾏﾂｼ","kana_address":"ｷﾀｱｲﾂﾞﾏﾁﾐｽﾞｷﾉｻﾄ","pref":"福島県","city":"会津若松市","address":"北会津町水季の里"},
{"zip_code":"9696180","kana_pref":"ﾌｸｼﾏｹﾝ","kana_city":"ｱｲﾂﾞﾜｶﾏﾂｼ","kana_address":"ｷﾀｱｲﾂﾞﾏﾁﾘｮｳﾄﾞｳ","pref":"福島県","city":"会津若松市","address":"北会津町両堂"},
{"zip_code":"9690301","kana_pref":"ﾌｸｼﾏｹﾝ","kana_city":"ｼﾗｶﾜｼ","kana_address":"ﾀｲｼﾝｶﾐｼﾝｼﾞｮｳ","pref":"福島県","city":"白河市","address":"大信上新城"},
{"zip_code":"9690302","kana_pref":"ﾌｸｼﾏｹﾝ","kana_city":"ｼﾗｶﾜｼ","kana_address":"ﾀｲｼﾝｸﾏﾄﾞ","pref":"福島県","city":"白河市","address":"大信隈戸"},
{"zip_code":"9690303","kana_pref":"ﾌｸｼﾏｹﾝ","kana_city":"ｼﾗｶﾜｼ","kana_address":"ﾀｲｼﾝｼﾓｺﾔ","pref":"福島県","city":"白河市","address":"大信下小屋"},
{"zip_code":"9690304","kana_pref":"ﾌｸｼﾏｹﾝ","kana_city":"ｼﾗｶﾜｼ","kana_address":"ﾀｲｼﾝｼﾓｼﾝｼﾞｮｳ","pref":"福島県","city":"白河市","address":"大信下新城"},
{"zip_code":"9690305","kana_pref":"ﾌｸｼﾏｹﾝ","kana_city":"ｼﾗｶﾜｼ","kana_address":"ﾀｲｼﾝﾃﾞﾝｴﾝﾁｮｳﾌ","pref":"福島県","city":"白河市","address":"大信田園町府"},
{"zip_code":"9690306","kana_pref":"ﾌｸｼﾏｹﾝ","kana_city":"ｼﾗｶﾜｼ","kana_address":"ﾀｲｼﾝﾄﾖﾁ","pref":"福島県","city":"白河市","address":"大信豊地"},
{"zip_code":"9690307","kana_pref":"ﾌｸｼﾏｹﾝ","kana_city":"ｼﾗｶﾜｼ","kana_address":"ﾀｲｼﾝﾅｶｼﾝｼﾞｮｳ","pref":"福島県","city":"白河市","address":"大信中新城"},
{"zip_code":"9690308","kana_pref":"ﾌｸｼﾏｹﾝ","kana_city":"ｼﾗｶﾜｼ","kana_address":"ﾀｲｼﾝﾏｽﾐ","pref":"福島県","city":"白河市","address":"大信増見"},
{"zip_code":"9690309","kana_pref":"ﾌｸｼﾏｹﾝ","kana_city":"ｼﾗｶﾜｼ","kana_address":"ﾀｲｼﾝﾏﾁﾔ","pref":"福島県","city":"白河市","address":"大信町屋"},
{"zip_code":"9693538","kana_pref":"ﾌｸｼﾏｹﾝ","kana_city":"ｷﾀｶﾀｼ","kana_address":"ｼｵｶﾜﾏﾁｱﾏﾇﾏ","pref":"福島県","city":"喜多方市","address":"塩川町天沼"},
{"zip_code":"9693514","kana_pref":"ﾌｸｼﾏｹﾝ","kana_city":"ｷﾀｶﾀｼ","kana_address":"ｼｵｶﾜﾏﾁｱﾗﾏﾁ","pref":"福島県","city":"喜多方市","address":"塩川町新町"},
{"zip_code":"9693523","kana_pref":"ﾌｸｼﾏｹﾝ","kana_city":"ｷﾀｶﾀｼ","kana_address":"ｼｵｶﾜﾏﾁｲｼﾊﾞｼ","pref":"福島県","city":"喜多方市","address":"塩川町石橋"},
{"zip_code":"9693532","kana_pref":"ﾌｸｼﾏｹﾝ","kana_city":"ｷﾀｶﾀｼ","kana_address":"ｼｵｶﾜﾏﾁｵｵｻﾞｲｹ","pref":"福島県","city":"喜多方市","address":"塩川町大在家"},
{"zip_code":"9693536","kana_pref":"ﾌｸｼﾏｹﾝ","kana_city":"ｷﾀｶﾀｼ","kana_address":"ｼｵｶﾜﾏﾁｵｵﾀｷ","pref":"福島県","city":"喜多方市","address":"塩川町大田木"},
{"zip_code":"9693521","kana_pref":"ﾌｸｼﾏｹﾝ","kana_city":"ｷﾀｶﾀｼ","kana_address":"ｼｵｶﾜﾏﾁｵｶﾉﾏｴ","pref":"福島県","city":"喜多方市","address":"塩川町岡ノ前"},
{"zip_code":"9693535","kana_pref":"ﾌｸｼﾏｹﾝ","kana_city":"ｷﾀｶﾀｼ","kana_address":"ｼｵｶﾜﾏﾁｶｲﾁ","pref":"福島県","city":"喜多方市","address":"塩川町会知"},
{"zip_code":"9693505","kana_pref":"ﾌｸｼﾏｹﾝ","kana_city":"ｷﾀｶﾀｼ","kana_address":"ｼｵｶﾜﾏﾁｶﾅﾊｼ","pref":"福島県","city":"喜多方市","address":"塩川町金橋"},
{"zip_code":"9693532","kana_pref":"ﾌｸｼﾏｹﾝ","kana_city":"ｷﾀｶﾀｼ","kana_address":"ｼｵｶﾜﾏﾁｷｮｳﾂﾞｶ","pref":"福島県","city":"喜多方市","address":"塩川町経塚"},
{"zip_code":"9693506","kana_pref":"ﾌｸｼﾏｹﾝ","kana_city":"ｷﾀｶﾀｼ","kana_address":"ｼｵｶﾜﾏﾁｸﾎﾞ","pref":"福島県","city":"喜多方市","address":"塩川町窪"},
{"zip_code":"9693539","kana_pref":"ﾌｸｼﾏｹﾝ","kana_city":"ｷﾀｶﾀｼ","kana_address":"ｼｵｶﾜﾏﾁｹﾞﾝﾀﾞﾔｼｷ","pref":"福島県","city":"喜多方市","address":"塩川町源太屋敷"},
{"zip_code":"9693525","kana_pref":"ﾌｸｼﾏｹﾝ","kana_city":"ｷﾀｶﾀｼ","kana_address":"ｼｵｶﾜﾏﾁｺｶﾞﾈﾀﾞ","pref":"福島県","city":"喜多方市","address":"塩川町黄金田"},
{"zip_code":"9693503","kana_pref":"ﾌｸｼﾏｹﾝ","kana_city":"ｷﾀｶﾀｼ","kana_address":"ｼｵｶﾜﾏﾁｺﾞｺﾞｳ","pref":"福島県","city":"喜多方市","address":"塩川町五合"},
{"zip_code":"9693527","kana_pref":"ﾌｸｼﾏｹﾝ","kana_city":"ｷﾀｶﾀｼ","kana_address":"ｼｵｶﾜﾏﾁｺﾞﾃﾝﾊﾞ","pref":"福島県","city":"喜多方市","address":"塩川町御殿場"},
{"zip_code":"9693532","kana_pref":"ﾌｸｼﾏｹﾝ","kana_city":"ｷﾀｶﾀｼ","kana_address":"ｼｵｶﾜﾏﾁｺﾌﾈ","pref":"福島県","city":"喜多方市","address":"塩川町小府根"},
{"zip_code":"9693537","kana_pref":"ﾌｸｼﾏｹﾝ","kana_city":"ｷﾀｶﾀｼ","kana_address":"ｼｵｶﾜﾏﾁｼﾅｶﾞﾜ","pref":"福島県","city":"喜多方市","address":"塩川町四奈川"},
{"zip_code":"9693524","kana_pref":"ﾌｸｼﾏｹﾝ","kana_city":"ｷﾀｶﾀｼ","kana_address":"ｼｵｶﾜﾏﾁｼﾐｽﾞｷﾞｼ","pref":"福島県","city":"喜多方市","address":"塩川町清水岸"},
{"zip_code":"9693522","kana_pref":"ﾌｸｼﾏｹﾝ","kana_city":"ｷﾀｶﾀｼ","kana_address":"ｼｵｶﾜﾏﾁｼﾝﾁｮｳ","pref":"福島県","city":"喜多方市","address":"塩川町新丁"},
{"zip_code":"9693526","kana_pref":"ﾌｸｼﾏｹﾝ","kana_city":"ｷﾀｶﾀｼ","kana_address":"ｼｵｶﾜﾏﾁｽﾜﾁｮｳ","pref":"福島県","city":"喜多方市","address":"塩川町諏訪町"},
{"zip_code":"9693525","kana_pref":"ﾌｸｼﾏｹﾝ","kana_city":"ｷﾀｶﾀｼ","kana_address":"ｼｵｶﾜﾏﾁｽﾜﾏｴ","pref":"福島県","city":"喜多方市","address":"塩川町諏訪前"},
{"zip_code":"9693523","kana_pref":"ﾌｸｼﾏｹﾝ","kana_city":"ｷﾀｶﾀｼ","kana_address":"ｼｵｶﾜﾏﾁｿﾘﾁｮｳ","pref":"福島県","city":"喜多方市","address":"塩川町反町"},
{"zip_code":"9693532","kana_pref":"ﾌｸｼﾏｹﾝ","kana_city":"ｷﾀｶﾀｼ","kana_address":"ｼｵｶﾜﾏﾁﾀｶﾐﾁ","pref":"福島県","city":"喜多方市","address":"塩川町高道"},
{"zip_code":"9693524","kana_pref":"ﾌｸｼﾏｹﾝ","kana_city":"ｷﾀｶﾀｼ","kana_address":"ｼｵｶﾜﾏﾁﾀｹﾉﾊﾅ","pref":"福島県","city":"喜多方市","address":"塩川町竹ノ花"},
{"zip_code":"9693524","kana_pref":"ﾌｸｼﾏｹﾝ","kana_city":"ｷﾀｶﾀｼ","kana_address":"ｼｵｶﾜﾏﾁﾀﾃﾉｳﾁ","pref":"福島県","city":"喜多方市","address":"塩川町舘ノ内"},
{"zip_code":"9693534","kana_pref":"ﾌｸｼﾏｹﾝ","kana_city":"ｷﾀｶﾀｼ","kana_address":"ｼｵｶﾜﾏﾁﾄｵﾀ","pref":"福島県","city":"喜多方市","address":"塩川町遠田"},
{"zip_code":"9693502","kana_pref":"ﾌｸｼﾏｹﾝ","kana_city":"ｷﾀｶﾀｼ","kana_address":"ｼｵｶﾜﾏﾁﾄｺﾖ","pref":"福島県","city":"喜多方市","address":"塩川町常世"},
{"zip_code":"9693513","kana_pref":"ﾌｸｼﾏｹﾝ","kana_city":"ｷﾀｶﾀｼ","kana_address":"ｼｵｶﾜﾏﾁﾅｶﾏﾁ","pref":"福島県","city":"喜多方市","address":"塩川町中町"},
{"zip_code":"9693504","kana_pref":"ﾌｸｼﾏｹﾝ","kana_city":"ｷﾀｶﾀｼ","kana_address":"ｼｵｶﾜﾏﾁﾅｶﾔｻﾞﾜ","pref":"福島県","city":"喜多方市","address":"塩川町中屋沢"},
{"zip_code":"9693531","kana_pref":"ﾌｸｼﾏｹﾝ","kana_city":"ｷﾀｶﾀｼ","kana_address":"ｼｵｶﾜﾏﾁﾆｲﾀﾞﾔﾁﾞ","pref":"福島県","city":"喜多方市","address":"塩川町新井田谷地"},
{"zip_code":"9693533","kana_pref":"ﾌｸｼﾏｹﾝ","kana_city":"ｷﾀｶﾀｼ","kana_address":"ｼｵｶﾜﾏﾁﾆｴｷ","pref":"福島県","city":"喜多方市","address":"塩川町新江木"},
{"zip_code":"9693534","kana_pref":"ﾌｸｼﾏｹﾝ","kana_city":"ｷﾀｶﾀｼ","kana_address":"ｼｵｶﾜﾏﾁﾆｼﾉｼﾝﾃﾞﾝ","pref":"福島県","city":"喜多方市","address":"塩川町西ノ新田"},
{"zip_code":"9693521","kana_pref":"ﾌｸｼﾏｹﾝ","kana_city":"ｷﾀｶﾀｼ","kana_address":"ｼｵｶﾜﾏﾁﾋｶﾞｼｵｶ","pref":"福島県","city":"喜多方市","address":"塩川町東岡"},
{"zip_code":"9693512","kana_pref":"ﾌｸｼﾏｹﾝ","kana_city":"ｷﾀｶﾀｼ","kana_address":"ｼｵｶﾜﾏﾁﾋｶﾞｼｻｶｴﾏﾁ","pref":"福島県","city":"喜多方市","address":"塩川町東栄町"},
{"zip_code":"9693532","kana_pref":"ﾌｸｼﾏｹﾝ","kana_city":"ｷﾀｶﾀｼ","kana_address":"ｼｵｶﾜﾏﾁﾌｼﾞﾉｷ","pref":"福島県","city":"喜多方市","address":"塩川町藤ノ木"},
{"zip_code":"9693511","kana_pref":"ﾌｸｼﾏｹﾝ","kana_city":"ｷﾀｶﾀｼ","kana_address":"ｼｵｶﾜﾏﾁﾏﾁｷﾀ","pref":"福島県","city":"喜多方市","address":"塩川町町北"},
{"zip_code":"9693521","kana_pref":"ﾌｸｼﾏｹﾝ","kana_city":"ｷﾀｶﾀｼ","kana_address":"ｼｵｶﾜﾏﾁﾐｶﾐ","pref":"福島県","city":"喜多方市","address":"塩川町身神"},
{"zip_code":"9693501","kana_pref":"ﾌｸｼﾏｹﾝ","kana_city":"ｷﾀｶﾀｼ","kana_address":"ｼｵｶﾜﾏﾁﾐﾖｼ","pref":"福島県","city":"喜多方市","address":"塩川町三吉"},
{"zip_code":"9693539","kana_pref":"ﾌｸｼﾏｹﾝ","kana_city":"ｷﾀｶﾀｼ","kana_address":"ｼｵｶﾜﾏﾁﾖｼｵｷ","pref":"福島県","city":"喜多方市","address":"塩川町吉沖"},
{"zip_code":"9693515","kana_pref":"ﾌｸｼﾏｹﾝ","kana_city":"ｷﾀｶﾀｼ","kana_address":"ｼｵｶﾜﾏﾁﾖﾈｻﾞﾜﾁｮｳ","pref":"福島県","city":"喜多方市","address":"塩川町米沢町"},
{"zip_code":"9694303","kana_pref":"ﾌｸｼﾏｹﾝ","kana_city":"ｷﾀｶﾀｼ","kana_address":"ﾀｶｻﾄﾏﾁｱｶﾞﾂ","pref":"福島県","city":"喜多方市","address":"高郷町揚津"},
{"zip_code":"9694312","kana_pref":"ﾌｸｼﾏｹﾝ","kana_city":"ｷﾀｶﾀｼ","kana_address":"ﾀｶｻﾄﾏﾁｲｹﾉﾊﾗ","pref":"福島県","city":"喜多方市","address":"高郷町池ノ原"},
{"zip_code":"9694304","kana_pref":"ﾌｸｼﾏｹﾝ","kana_city":"ｷﾀｶﾀｼ","kana_address":"ﾀｶｻﾄﾏﾁｲﾜﾐ","pref":"福島県","city":"喜多方市","address":"高郷町磐見"},
{"zip_code":"9694316","kana_pref":"ﾌｸｼﾏｹﾝ","kana_city":"ｷﾀｶﾀｼ","kana_address":"ﾀｶｻﾄﾏﾁｵｵﾀｶﾞ","pref":"福島県","city":"喜多方市","address":"高郷町大田賀"},
{"zip_code":"9694301","kana_pref":"ﾌｸｼﾏｹﾝ","kana_city":"ｷﾀｶﾀｼ","kana_address":"ﾀｶｻﾄﾏﾁｶﾐｺﾞｳ","pref":"福島県","city":"喜多方市","address":"高郷町上郷"},
{"zip_code":"9694314","kana_pref":"ﾌｸｼﾏｹﾝ","kana_city":"ｷﾀｶﾀｼ","kana_address":"ﾀｶｻﾄﾏﾁｶﾜｲ","pref":"福島県","city":"喜多方市","address":"高郷町川井"},
{"zip_code":"9694313","kana_pref":"ﾌｸｼﾏｹﾝ","kana_city":"ｷﾀｶﾀｼ","kana_address":"ﾀｶｻﾄﾏﾁｼｵﾂﾎﾞ","pref":"福島県","city":"喜多方市","address":"高郷町塩坪"},
{"zip_code":"9694315","kana_pref":"ﾌｸｼﾏｹﾝ","kana_city":"ｷﾀｶﾀｼ","kana_address":"ﾀｶｻﾄﾏﾁﾅﾂｲ","pref":"福島県","city":"喜多方市","address":"高郷町夏井"},
{"zip_code":"9694311","kana_pref":"ﾌｸｼﾏｹﾝ","kana_city":"ｷﾀｶﾀｼ","kana_address":"ﾀｶｻﾄﾏﾁﾆｼﾊｶﾞ","pref":"福島県","city":"喜多方市","address":"高郷町西羽賀"},
{"zip_code":"9694302","kana_pref":"ﾌｸｼﾏｹﾝ","kana_city":"ｷﾀｶﾀｼ","kana_address":"ﾀｶｻﾄﾏﾁﾐﾈ","pref":"福島県","city":"喜多方市","address":"高郷町峯"},
{"zip_code":"9694107","kana_pref":"ﾌｸｼﾏｹﾝ","kana_city":"ｷﾀｶﾀｼ","kana_address":"ﾔﾏﾄﾏﾁｱｲｶﾜ","pref":"福島県","city":"喜多方市","address":"山都町相川"},
{"zip_code":"9694106","kana_pref":"ﾌｸｼﾏｹﾝ","kana_city":"ｷﾀｶﾀｼ","kana_address":"ﾔﾏﾄﾏﾁｱｻｸﾗ","pref":"福島県","city":"喜多方市","address":"山都町朝倉"},
{"zip_code":"9694147","kana_pref":"ﾌｸｼﾏｹﾝ","kana_city":"ｷﾀｶﾀｼ","kana_address":"ﾔﾏﾄﾏﾁｲｼﾎﾞﾂｺ","pref":"福島県","city":"喜多方市","address":"山都町石堀古"},
{"zip_code":"9694102","kana_pref":"ﾌｸｼﾏｹﾝ","kana_city":"ｷﾀｶﾀｼ","kana_address":"ﾔﾏﾄﾏﾁｲﾁｶﾜ","pref":"福島県","city":"喜多方市","address":"山都町一川"},
{"zip_code":"9694108","kana_pref":"ﾌｸｼﾏｹﾝ","kana_city":"ｷﾀｶﾀｼ","kana_address":"ﾔﾏﾄﾏﾁｲﾁﾉｷ","pref":"福島県","city":"喜多方市","address":"山都町一ノ木"},
{"zip_code":"9694155","kana_pref":"ﾌｸｼﾏｹﾝ","kana_city":"ｷﾀｶﾀｼ","kana_address":"ﾔﾏﾄﾏﾁｲﾘｳﾐ","pref":"福島県","city":"喜多方市","address":"山都町入海"},
{"zip_code":"9694148","kana_pref":"ﾌｸｼﾏｹﾝ","kana_city":"ｷﾀｶﾀｼ","kana_address":"ﾔﾏﾄﾏﾁｲﾜﾌﾞﾁ","pref":"福島県","city":"喜多方市","address":"山都町岩渕"},
{"zip_code":"9694113","kana_pref":"ﾌｸｼﾏｹﾝ","kana_city":"ｷﾀｶﾀｼ","kana_address":"ﾔﾏﾄﾏﾁｳｴﾉﾊﾗﾐﾁﾆｼ","pref":"福島県","city":"喜多方市","address":"山都町上ノ原道西"},
{"zip_code":"9694112","kana_pref":"ﾌｸｼﾏｹﾝ","kana_city":"ｷﾀｶﾀｼ","kana_address":"ﾔﾏﾄﾏﾁｳｴﾉﾊﾗﾐﾁﾋｶﾞｼ","pref":"福島県","city":"喜多方市","address":"山都町上ノ原道東"},
{"zip_code":"9694152","kana_pref":"ﾌｸｼﾏｹﾝ","kana_city":"ｷﾀｶﾀｼ","kana_address":"ﾔﾏﾄﾏﾁｳｴﾉﾔﾏﾀｲﾗ","pref":"福島県","city":"喜多方市","address":"山都町上ノ山平"},
{"zip_code":"9694126","kana_pref":"ﾌｸｼﾏｹﾝ","kana_city":"ｷﾀｶﾀｼ","kana_address":"ﾔﾏﾄﾏﾁｳﾏﾊﾅｼﾊﾞ","pref":"福島県","city":"喜多方市","address":"山都町馬放場"},
{"zip_code":"9694119","kana_pref":"ﾌｸｼﾏｹﾝ","kana_city":"ｷﾀｶﾀｼ","kana_address":"ﾔﾏﾄﾏﾁｴﾄﾞﾂｶ","pref":"福島県","city":"喜多方市","address":"山都町江戸塚"},
{"zip_code":"9694121","kana_pref":"ﾌｸｼﾏｹﾝ","kana_city":"ｷﾀｶﾀｼ","kana_address":"ﾔﾏﾄﾏﾁｵｵﾀ","pref":"福島県","city":"喜多方市","address":"山都町太田"},
{"zip_code":"9694167","kana_pref":"ﾌｸｼﾏｹﾝ","kana_city":"ｷﾀｶﾀｼ","kana_address":"ﾔﾏﾄﾏﾁｵｵﾊﾞﾔｼ","pref":"福島県","city":"喜多方市","address":"山都町大林"},
{"zip_code":"9694151","kana_pref":"ﾌｸｼﾏｹﾝ","kana_city":"ｷﾀｶﾀｼ","kana_address":"ﾔﾏﾄﾏﾁｵｵﾔﾏﾅｶ","pref":"福島県","city":"喜多方市","address":"山都町大山中"},
{"zip_code":"9694164","kana_pref":"ﾌｸｼﾏｹﾝ","kana_city":"ｷﾀｶﾀｼ","kana_address":"ﾔﾏﾄﾏﾁｶﾐｲｼｳﾁﾊﾞ","pref":"福島県","city":"喜多方市","address":"山都町上石打場"},
{"zip_code":"9694162","kana_pref":"ﾌｸｼﾏｹﾝ","kana_city":"ｷﾀｶﾀｼ","kana_address":"ﾔﾏﾄﾏﾁｶﾐｼﾝﾃﾞﾝ","pref":"福島県","city":"喜多方市","address":"山都町上新田"},
{"zip_code":"9694122","kana_pref":"ﾌｸｼﾏｹﾝ","kana_city":"ｷﾀｶﾀｼ","kana_address":"ﾔﾏﾄﾏﾁｷｿ","pref":"福島県","city":"喜多方市","address":"山都町木曽"},
{"zip_code":"9694139","kana_pref":"ﾌｸｼﾏｹﾝ","kana_city":"ｷﾀｶﾀｼ","kana_address":"ﾔﾏﾄﾏﾁｷﾀﾏﾂﾉﾏｴ","pref":"福島県","city":"喜多方市","address":"山都町北松ノ前"},
{"zip_code":"9694127","kana_pref":"ﾌｸｼﾏｹﾝ","kana_city":"ｷﾀｶﾀｼ","kana_address":"ﾔﾏﾄﾏﾁｸﾔﾊﾞﾅ","pref":"福島県","city":"喜多方市","address":"山都町久祢花"},
{"zip_code":"9694111","kana_pref":"ﾌｸｼﾏｹﾝ","kana_city":"ｷﾀｶﾀｼ","kana_address":"ﾔﾏﾄﾏﾁｸﾗﾉｳｼﾛ","pref":"福島県","city":"喜多方市","address":"山都町蔵ノ後"},
{"zip_code":"9694115","kana_pref":"ﾌｸｼﾏｹﾝ","kana_city":"ｷﾀｶﾀｼ","kana_address":"ﾔﾏﾄﾏﾁｺﾞｼﾞｭｳｶﾘ","pref":"福島県","city":"喜多方市","address":"山都町五十苅"},
{"zip_code":"9694103","kana_pref":"ﾌｸｼﾏｹﾝ","kana_city":"ｷﾀｶﾀｼ","kana_address":"ﾔﾏﾄﾏﾁｺﾊﾀ","pref":"福島県","city":"喜多方市","address":"山都町木幡"},
{"zip_code":"9694101","kana_pref":"ﾌｸｼﾏｹﾝ","kana_city":"ｷﾀｶﾀｼ","kana_address":"ﾔﾏﾄﾏﾁｺﾌﾅｼﾞ","pref":"福島県","city":"喜多方市","address":"山都町小舟寺"},
{"zip_code":"9694157","kana_pref":"ﾌｸｼﾏｹﾝ","kana_city":"ｷﾀｶﾀｼ","kana_address":"ﾔﾏﾄﾏﾁｺﾏﾂ","pref":"福島県","city":"喜多方市","address":"山都町小松"},
{"zip_code":"9694114","kana_pref":"ﾌｸｼﾏｹﾝ","kana_city":"ｷﾀｶﾀｼ","kana_address":"ﾔﾏﾄﾏﾁｺﾔﾏ","pref":"福島県","city":"喜多方市","address":"山都町小山"},
{"zip_code":"9694166","kana_pref":"ﾌｸｼﾏｹﾝ","kana_city":"ｷﾀｶﾀｼ","kana_address":"ﾔﾏﾄﾏﾁｻﾜｼﾞﾘ","pref":"福島県","city":"喜多方市","address":"山都町沢尻"},
{"zip_code":"9694143","kana_pref":"ﾌｸｼﾏｹﾝ","kana_city":"ｷﾀｶﾀｼ","kana_address":"ﾔﾏﾄﾏﾁｻﾜﾀ","pref":"福島県","city":"喜多方市","address":"山都町沢田"},
{"zip_code":"9694132","kana_pref":"ﾌｸｼﾏｹﾝ","kana_city":"ｷﾀｶﾀｼ","kana_address":"ﾔﾏﾄﾏﾁｻﾝﾉﾐﾔ","pref":"福島県","city":"喜多方市","address":"山都町三ノ宮"},
{"zip_code":"9694116","kana_pref":"ﾌｸｼﾏｹﾝ","kana_city":"ｷﾀｶﾀｼ","kana_address":"ﾔﾏﾄﾏﾁｼﾐｽﾞｳｴ","pref":"福島県","city":"喜多方市","address":"山都町清水上"},
{"zip_code":"9694117","kana_pref":"ﾌｸｼﾏｹﾝ","kana_city":"ｷﾀｶﾀｼ","kana_address":"ﾔﾏﾄﾏﾁｼﾐｽﾞｼﾞﾘ","pref":"福島県","city":"喜多方市","address":"山都町清水尻"},
{"zip_code":"9694163","kana_pref":"ﾌｸｼﾏｹﾝ","kana_city":"ｷﾀｶﾀｼ","kana_address":"ﾔﾏﾄﾏﾁｼﾓｲｼｳﾁﾊﾞ","pref":"福島県","city":"喜多方市","address":"山都町下石打場"},
{"zip_code":"9694153","kana_pref":"ﾌｸｼﾏｹﾝ","kana_city":"ｷﾀｶﾀｼ","kana_address":"ﾔﾏﾄﾏﾁｼﾓﾄﾉﾄ","pref":"福島県","city":"喜多方市","address":"山都町下殿戸"},
{"zip_code":"9694138","kana_pref":"ﾌｸｼﾏｹﾝ","kana_city":"ｷﾀｶﾀｼ","kana_address":"ﾔﾏﾄﾏﾁｼﾞｬｸｽﾞﾚ","pref":"福島県","city":"喜多方市","address":"山都町蛇崩"},
{"zip_code":"9694154","kana_pref":"ﾌｸｼﾏｹﾝ","kana_city":"ｷﾀｶﾀｼ","kana_address":"ﾔﾏﾄﾏﾁﾀﾃﾉﾊﾗ","pref":"福島県","city":"喜多方市","address":"山都町舘原"},
{"zip_code":"9694141","kana_pref":"ﾌｸｼﾏｹﾝ","kana_city":"ｷﾀｶﾀｼ","kana_address":"ﾔﾏﾄﾏﾁﾀﾑｶｲ","pref":"福島県","city":"喜多方市","address":"山都町田向"},
{"zip_code":"9694144","kana_pref":"ﾌｸｼﾏｹﾝ","kana_city":"ｷﾀｶﾀｼ","kana_address":"ﾔﾏﾄﾏﾁﾄﾉﾄ","pref":"福島県","city":"喜多方市","address":"山都町殿戸"},
{"zip_code":"9694161","kana_pref":"ﾌｸｼﾏｹﾝ","kana_city":"ｷﾀｶﾀｼ","kana_address":"ﾔﾏﾄﾏﾁﾅｶｲｼｳﾁﾊﾞ","pref":"福島県","city":"喜多方市","address":"山都町中石打場"},
{"zip_code":"9694123","kana_pref":"ﾌｸｼﾏｹﾝ","kana_city":"ｷﾀｶﾀｼ","kana_address":"ﾔﾏﾄﾏﾁﾅｶｼﾝﾃﾞﾝ","pref":"福島県","city":"喜多方市","address":"山都町中新田"},
{"zip_code":"9694137","kana_pref":"ﾌｸｼﾏｹﾝ","kana_city":"ｷﾀｶﾀｼ","kana_address":"ﾔﾏﾄﾏﾁﾅｶﾉ","pref":"福島県","city":"喜多方市","address":"山都町中野"},
{"zip_code":"9694142","kana_pref":"ﾌｸｼﾏｹﾝ","kana_city":"ｷﾀｶﾀｼ","kana_address":"ﾔﾏﾄﾏﾁﾅﾅｼﾞｭｳｶﾞﾘ","pref":"福島県","city":"喜多方市","address":"山都町七十苅"},
{"zip_code":"9694156","kana_pref":"ﾌｸｼﾏｹﾝ","kana_city":"ｷﾀｶﾀｼ","kana_address":"ﾔﾏﾄﾏﾁﾆｼｶﾜ","pref":"福島県","city":"喜多方市","address":"山都町西川"},
{"zip_code":"9694145","kana_pref":"ﾌｸｼﾏｹﾝ","kana_city":"ｷﾀｶﾀｼ","kana_address":"ﾔﾏﾄﾏﾁﾆｼﾊﾗ","pref":"福島県","city":"喜多方市","address":"山都町西原"},
{"zip_code":"9694124","kana_pref":"ﾌｸｼﾏｹﾝ","kana_city":"ｷﾀｶﾀｼ","kana_address":"ﾔﾏﾄﾏﾁﾊｶﾉｱﾄ","pref":"福島県","city":"喜多方市","address":"山都町墓ノ後"},
{"zip_code":"9694146","kana_pref":"ﾌｸｼﾏｹﾝ","kana_city":"ｷﾀｶﾀｼ","kana_address":"ﾔﾏﾄﾏﾁﾋﾛｺﾔｼｷ","pref":"福島県","city":"喜多方市","address":"山都町広古屋敷"},
{"zip_code":"9694135","kana_pref":"ﾌｸｼﾏｹﾝ","kana_city":"ｷﾀｶﾀｼ","kana_address":"ﾔﾏﾄﾏﾁﾋﾛﾅｶｼﾝﾃﾞﾝ","pref":"福島県","city":"喜多方市","address":"山都町広中新田"},
{"zip_code":"9694131","kana_pref":"ﾌｸｼﾏｹﾝ","kana_city":"ｷﾀｶﾀｼ","kana_address":"ﾔﾏﾄﾏﾁﾋﾛﾉ","pref":"福島県","city":"喜多方市","address":"山都町広野"},
{"zip_code":"9694133","kana_pref":"ﾌｸｼﾏｹﾝ","kana_city":"ｷﾀｶﾀｼ","kana_address":"ﾔﾏﾄﾏﾁﾋﾛﾑｸﾛﾀﾞ","pref":"福島県","city":"喜多方市","address":"山都町広葎田"},
{"zip_code":"9694118","kana_pref":"ﾌｸｼﾏｹﾝ","kana_city":"ｷﾀｶﾀｼ","kana_address":"ﾔﾏﾄﾏﾁﾌﾙﾔｼｷ","pref":"福島県","city":"喜多方市","address":"山都町古屋敷"},
{"zip_code":"9694104","kana_pref":"ﾌｸｼﾏｹﾝ","kana_city":"ｷﾀｶﾀｼ","kana_address":"ﾔﾏﾄﾏﾁﾎｳﾗｲ","pref":"福島県","city":"喜多方市","address":"山都町蓬莱"},
{"zip_code":"9694136","kana_pref":"ﾌｸｼﾏｹﾝ","kana_city":"ｷﾀｶﾀｼ","kana_address":"ﾔﾏﾄﾏﾁﾏﾁｼﾞﾘ","pref":"福島県","city":"喜多方市","address":"山都町町尻"},
{"zip_code":"9694105","kana_pref":"ﾌｸｼﾏｹﾝ","kana_city":"ｷﾀｶﾀｼ","kana_address":"ﾔﾏﾄﾏﾁﾐﾂｱｲ","pref":"福島県","city":"喜多方市","address":"山都町三津合"},
{"zip_code":"9694165","kana_pref":"ﾌｸｼﾏｹﾝ","kana_city":"ｷﾀｶﾀｼ","kana_address":"ﾔﾏﾄﾏﾁﾐﾂﾔﾏ","pref":"福島県","city":"喜多方市","address":"山都町三ツ山"},
{"zip_code":"9694134","kana_pref":"ﾌｸｼﾏｹﾝ","kana_city":"ｷﾀｶﾀｼ","kana_address":"ﾔﾏﾄﾏﾁﾑｸﾛﾀﾞ","pref":"福島県","city":"喜多方市","address":"山都町葎田"},
{"zip_code":"9694125","kana_pref":"ﾌｸｼﾏｹﾝ","kana_city":"ｷﾀｶﾀｼ","kana_address":"ﾔﾏﾄﾏﾁﾔｻﾞｴﾓﾝﾃﾞﾝ","pref":"福島県","city":"喜多方市","address":"山都町弥左エ門田"},
{"zip_code":"9694149","kana_pref":"ﾌｸｼﾏｹﾝ","kana_city":"ｷﾀｶﾀｼ","kana_address":"ﾔﾏﾄﾏﾁﾔﾁ","pref":"福島県","city":"喜多方市","address":"山都町谷地"},
{"zip_code":"9694109","kana_pref":"ﾌｸｼﾏｹﾝ","kana_city":"ｷﾀｶﾀｼ","kana_address":"ﾔﾏﾄﾏﾁﾜｾﾀﾆ","pref":"福島県","city":"喜多方市","address":"山都町早稲谷"},
{"zip_code":"9691513","kana_pref":"ﾌｸｼﾏｹﾝ","kana_city":"ﾆﾎﾝﾏﾂｼ","kana_address":"ｵｻﾞﾜ","pref":"福島県","city":"二本松市","address":"小沢"},
{"zip_code":"9691512","kana_pref":"ﾌｸｼﾏｹﾝ","kana_city":"ﾆﾎﾝﾏﾂｼ","kana_address":"ｶﾐｶﾜｻｷ","pref":"福島県","city":"二本松市","address":"上川崎"},
{"zip_code":"9691403","kana_pref":"ﾌｸｼﾏｹﾝ","kana_city":"ﾆﾎﾝﾏﾂｼ","kana_address":"ｼﾌﾞｶﾜ","pref":"福島県","city":"二本松市","address":"渋川"},
{"zip_code":"9691511","kana_pref":"ﾌｸｼﾏｹﾝ","kana_city":"ﾆﾎﾝﾏﾂｼ","kana_address":"ｼﾓｶﾜｻｷ","pref":"福島県","city":"二本松市","address":"下川崎"},
{"zip_code":"9691405","kana_pref":"ﾌｸｼﾏｹﾝ","kana_city":"ﾆﾎﾝﾏﾂｼ","kana_address":"ﾁｴｺﾉﾓﾘ","pref":"福島県","city":"二本松市","address":"智恵子の森"},
{"zip_code":"9691404","kana_pref":"ﾌｸｼﾏｹﾝ","kana_city":"ﾆﾎﾝﾏﾂｼ","kana_address":"ﾕｲ","pref":"福島県","city":"二本松市","address":"油井"},
{"zip_code":"9691401","kana_pref":"ﾌｸｼﾏｹﾝ","kana_city":"ﾆﾎﾝﾏﾂｼ","kana_address":"ﾖｼｸﾗ","pref":"福島県","city":"二本松市","address":"吉倉"},
{"zip_code":"9691402","kana_pref":"ﾌｸｼﾏｹﾝ","kana_city":"ﾆﾎﾝﾏﾂｼ","kana_address":"ﾖﾅｻﾞﾜ","pref":"福島県","city":"二本松市","address":"米沢"},
{"zip_code":"9691100","kana_pref":"ﾌｸｼﾏｹﾝ","kana_city":"ﾓﾄﾐﾔｼ","kana_address":"","pref":"福島県","city":"本宮市","address":""},
{"zip_code":"9691107","kana_pref":"ﾌｸｼﾏｹﾝ","kana_city":"ﾓﾄﾐﾔｼ","kana_address":"ｱｵﾀ","pref":"福島県","city":"本宮市","address":"青田"},
{"zip_code":"9691104","kana_pref":"ﾌｸｼﾏｹﾝ","kana_city":"ﾓﾄﾐﾔｼ","kana_address":"ｱﾗｲ","pref":"福島県","city":"本宮市","address":"荒井"},
{"zip_code":"9691201","kana_pref":"ﾌｸｼﾏｹﾝ","kana_city":"ﾓﾄﾐﾔｼ","kana_address":"ｲﾅｻﾞﾜ","pref":"福島県","city":"本宮市","address":"稲沢"},
{"zip_code":"9691106","kana_pref":"ﾌｸｼﾏｹﾝ","kana_city":"ﾓﾄﾐﾔｼ","kana_address":"ｲﾜﾈ","pref":"福島県","city":"本宮市","address":"岩根"},
{"zip_code":"9691203","kana_pref":"ﾌｸｼﾏｹﾝ","kana_city":"ﾓﾄﾐﾔｼ","kana_address":"ｼﾗｲﾜ","pref":"福島県","city":"本宮市","address":"白岩"},
{"zip_code":"9691105","kana_pref":"ﾌｸｼﾏｹﾝ","kana_city":"ﾓﾄﾐﾔｼ","kana_address":"ｾｷｼﾀ","pref":"福島県","city":"本宮市","address":"関下"},
{"zip_code":"9691101","kana_pref":"ﾌｸｼﾏｹﾝ","kana_city":"ﾓﾄﾐﾔｼ","kana_address":"ﾀｶｷﾞ","pref":"福島県","city":"本宮市","address":"高木"},
{"zip_code":"9691206","kana_pref":"ﾌｸｼﾏｹﾝ","kana_city":"ﾓﾄﾐﾔｼ","kana_address":"ﾅｶﾞﾔ","pref":"福島県","city":"本宮市","address":"長屋"},
{"zip_code":"9691103","kana_pref":"ﾌｸｼﾏｹﾝ","kana_city":"ﾓﾄﾐﾔｼ","kana_address":"ﾆｲﾀ","pref":"福島県","city":"本宮市","address":"仁井田"},
{"zip_code":"9691204","kana_pref":"ﾌｸｼﾏｹﾝ","kana_city":"ﾓﾄﾐﾔｼ","kana_address":"ﾇｶｻﾞﾜ","pref":"福島県","city":"本宮市","address":"糠沢"},
{"zip_code":"9691202","kana_pref":"ﾌｸｼﾏｹﾝ","kana_city":"ﾓﾄﾐﾔｼ","kana_address":"ﾏﾂｻﾞﾜ","pref":"福島県","city":"本宮市","address":"松沢"},
{"zip_code":"9691176","kana_pref":"ﾌｸｼﾏｹﾝ","kana_city":"ﾓﾄﾐﾔｼ","kana_address":"ﾓﾄﾐﾔｱｶｻｶ","pref":"福島県","city":"本宮市","address":"本宮赤坂"},
{"zip_code":"9691158","kana_pref":"ﾌｸｼﾏｹﾝ","kana_city":"ﾓﾄﾐﾔｼ","kana_address":"ﾓﾄﾐﾔｱﾏｶﾞ","pref":"福島県","city":"本宮市","address":"本宮天ヶ"},
{"zip_code":"9691125","kana_pref":"ﾌｸｼﾏｹﾝ","kana_city":"ﾓﾄﾐﾔｼ","kana_address":"ﾓﾄﾐﾔｱﾗﾏﾁ","pref":"福島県","city":"本宮市","address":"本宮荒町"},
{"zip_code":"9691139","kana_pref":"ﾌｸｼﾏｹﾝ","kana_city":"ﾓﾄﾐﾔｼ","kana_address":"ﾓﾄﾐﾔｲｼﾂﾞｶ","pref":"福島県","city":"本宮市","address":"本宮石塚"},
{"zip_code":"9691112","kana_pref":"ﾌｸｼﾏｹﾝ","kana_city":"ﾓﾄﾐﾔｼ","kana_address":"ﾓﾄﾐﾔｵｵｴﾉｷ","pref":"福島県","city":"本宮市","address":"本宮大榎"},
{"zip_code":"9691166","kana_pref":"ﾌｸｼﾏｹﾝ","kana_city":"ﾓﾄﾐﾔｼ","kana_address":"ﾓﾄﾐﾔｵｵﾐｳﾁ","pref":"福島県","city":"本宮市","address":"本宮近江内"},
{"zip_code":"9691144","kana_pref":"ﾌｸｼﾏｹﾝ","kana_city":"ﾓﾄﾐﾔｼ","kana_address":"ﾓﾄﾐﾔｵｵﾓﾘ","pref":"福島県","city":"本宮市","address":"本宮大森"},
{"zip_code":"9691159","kana_pref":"ﾌｸｼﾏｹﾝ","kana_city":"ﾓﾄﾐﾔｼ","kana_address":"ﾓﾄﾐﾔｵﾊﾞﾀ","pref":"福島県","city":"本宮市","address":"本宮小幡"},
{"zip_code":"9691159","kana_pref":"ﾌｸｼﾏｹﾝ","kana_city":"ﾓﾄﾐﾔｼ","kana_address":"ﾓﾄﾐﾔｵﾊﾞﾀｷﾀ","pref":"福島県","city":"本宮市","address":"本宮小籏北"},
{"zip_code":"9691161","kana_pref":"ﾌｸｼﾏｹﾝ","kana_city":"ﾓﾄﾐﾔｼ","kana_address":"ﾓﾄﾐﾔｶﾞｹｼﾀ","pref":"福島県","city":"本宮市","address":"本宮欠下"},
{"zip_code":"9691129","kana_pref":"ﾌｸｼﾏｹﾝ","kana_city":"ﾓﾄﾐﾔｼ","kana_address":"ﾓﾄﾐﾔｶｼﾞﾒﾝ","pref":"福島県","city":"本宮市","address":"本宮鍛冶免"},
{"zip_code":"9691141","kana_pref":"ﾌｸｼﾏｹﾝ","kana_city":"ﾓﾄﾐﾔｼ","kana_address":"ﾓﾄﾐﾔｶﾅﾔ","pref":"福島県","city":"本宮市","address":"本宮兼谷"},
{"zip_code":"9691142","kana_pref":"ﾌｸｼﾏｹﾝ","kana_city":"ﾓﾄﾐﾔｼ","kana_address":"ﾓﾄﾐﾔｶﾅﾔﾀﾞｲﾗ","pref":"福島県","city":"本宮市","address":"本宮兼谷平"},
{"zip_code":"9691117","kana_pref":"ﾌｸｼﾏｹﾝ","kana_city":"ﾓﾄﾐﾔｼ","kana_address":"ﾓﾄﾐﾔｶﾉｺﾀﾞ","pref":"福島県","city":"本宮市","address":"本宮鹿ノ子田"},
{"zip_code":"9691152","kana_pref":"ﾌｸｼﾏｹﾝ","kana_city":"ﾓﾄﾐﾔｼ","kana_address":"ﾓﾄﾐﾔｶﾐｾﾝｿﾞｸ","pref":"福島県","city":"本宮市","address":"本宮上千束"},
{"zip_code":"9691134","kana_pref":"ﾌｸｼﾏｹﾝ","kana_city":"ﾓﾄﾐﾔｼ","kana_address":"ﾓﾄﾐﾔｶﾐﾏﾁ","pref":"福島県","city":"本宮市","address":"本宮上町"},
{"zip_code":"9691155","kana_pref":"ﾌｸｼﾏｹﾝ","kana_city":"ﾓﾄﾐﾔｼ","kana_address":"ﾓﾄﾐﾔｶﾝｶﾈ","pref":"福島県","city":"本宮市","address":"本宮懸鉄"},
{"zip_code":"9691162","kana_pref":"ﾌｸｼﾏｹﾝ","kana_city":"ﾓﾄﾐﾔｼ","kana_address":"ﾓﾄﾐﾔｷﾀｶﾜﾊﾗﾀﾞ","pref":"福島県","city":"本宮市","address":"本宮北川原田"},
{"zip_code":"9691172","kana_pref":"ﾌｸｼﾏｹﾝ","kana_city":"ﾓﾄﾐﾔｼ","kana_address":"ﾓﾄﾐﾔｷﾀﾉｳﾁ","pref":"福島県","city":"本宮市","address":"本宮北ノ内"},
{"zip_code":"9691167","kana_pref":"ﾌｸｼﾏｹﾝ","kana_city":"ﾓﾄﾐﾔｼ","kana_address":"ﾓﾄﾐﾔｷﾀﾔﾏﾉｶﾐ","pref":"福島県","city":"本宮市","address":"本宮北山神"},
{"zip_code":"9691136","kana_pref":"ﾌｸｼﾏｹﾝ","kana_city":"ﾓﾄﾐﾔｼ","kana_address":"ﾓﾄﾐﾔｸﾅﾜ","pref":"福島県","city":"本宮市","address":"本宮九縄"},
{"zip_code":"9691169","kana_pref":"ﾌｸｼﾏｹﾝ","kana_city":"ﾓﾄﾐﾔｼ","kana_address":"ﾓﾄﾐﾔｺﾊﾗﾀﾞ","pref":"福島県","city":"本宮市","address":"本宮小原田"},
{"zip_code":"9691148","kana_pref":"ﾌｸｼﾏｹﾝ","kana_city":"ﾓﾄﾐﾔｼ","kana_address":"ﾓﾄﾐﾔｻｶｴﾀﾞ","pref":"福島県","city":"本宮市","address":"本宮栄田"},
{"zip_code":"9691111","kana_pref":"ﾌｸｼﾏｹﾝ","kana_city":"ﾓﾄﾐﾔｼ","kana_address":"ﾓﾄﾐﾔｻｸﾀ","pref":"福島県","city":"本宮市","address":"本宮作田"},
{"zip_code":"9691111","kana_pref":"ﾌｸｼﾏｹﾝ","kana_city":"ﾓﾄﾐﾔｼ","kana_address":"ﾓﾄﾐﾔｻｸﾀﾀﾞｲ","pref":"福島県","city":"本宮市","address":"本宮作田台"},
{"zip_code":"9691154","kana_pref":"ﾌｸｼﾏｹﾝ","kana_city":"ﾓﾄﾐﾔｼ","kana_address":"ﾓﾄﾐﾔｼｵﾀﾞ","pref":"福島県","city":"本宮市","address":"本宮塩田"},
{"zip_code":"9691153","kana_pref":"ﾌｸｼﾏｹﾝ","kana_city":"ﾓﾄﾐﾔｼ","kana_address":"ﾓﾄﾐﾔｼｵﾀﾞｲﾘ","pref":"福島県","city":"本宮市","address":"本宮塩田入"},
{"zip_code":"9691176","kana_pref":"ﾌｸｼﾏｹﾝ","kana_city":"ﾓﾄﾐﾔｼ","kana_address":"ﾓﾄﾐﾔｼﾞｿﾞｳﾄﾞｳ","pref":"福島県","city":"本宮市","address":"本宮地蔵堂"},
{"zip_code":"9691118","kana_pref":"ﾌｸｼﾏｹﾝ","kana_city":"ﾓﾄﾐﾔｼ","kana_address":"ﾓﾄﾐﾔｼﾓﾀﾞｲ","pref":"福島県","city":"本宮市","address":"本宮下台"},
{"zip_code":"9691132","kana_pref":"ﾌｸｼﾏｹﾝ","kana_city":"ﾓﾄﾐﾔｼ","kana_address":"ﾓﾄﾐﾔｼﾓﾏﾁ","pref":"福島県","city":"本宮市","address":"本宮下町"},
{"zip_code":"9691158","kana_pref":"ﾌｸｼﾏｹﾝ","kana_city":"ﾓﾄﾐﾔｼ","kana_address":"ﾓﾄﾐﾔｼﾞｬﾉﾊﾅ","pref":"福島県","city":"本宮市","address":"本宮蛇ノ鼻"},
{"zip_code":"9691163","kana_pref":"ﾌｸｼﾏｹﾝ","kana_city":"ﾓﾄﾐﾔｼ","kana_address":"ﾓﾄﾐﾔｼﾗｶﾜ","pref":"福島県","city":"本宮市","address":"本宮白川"},
{"zip_code":"9691156","kana_pref":"ﾌｸｼﾏｹﾝ","kana_city":"ﾓﾄﾐﾔｼ","kana_address":"ﾓﾄﾐﾔｽﾜ","pref":"福島県","city":"本宮市","address":"本宮諏訪"},
{"zip_code":"9691114","kana_pref":"ﾌｸｼﾏｹﾝ","kana_city":"ﾓﾄﾐﾔｼ","kana_address":"ﾓﾄﾐﾔｾｷﾈ","pref":"福島県","city":"本宮市","address":"本宮関根"},
{"zip_code":"9691157","kana_pref":"ﾌｸｼﾏｹﾝ","kana_city":"ﾓﾄﾐﾔｼ","kana_address":"ﾓﾄﾐﾔｾﾋﾞｳﾁ","pref":"福島県","city":"本宮市","address":"本宮瀬樋内"},
{"zip_code":"9691152","kana_pref":"ﾌｸｼﾏｹﾝ","kana_city":"ﾓﾄﾐﾔｼ","kana_address":"ﾓﾄﾐﾔｾﾝｿﾞｸ","pref":"福島県","city":"本宮市","address":"本宮千束"},
{"zip_code":"9691155","kana_pref":"ﾌｸｼﾏｹﾝ","kana_city":"ﾓﾄﾐﾔｼ","kana_address":"ﾓﾄﾐﾔｿﾘﾏﾁ","pref":"福島県","city":"本宮市","address":"本宮反町"},
{"zip_code":"9691122","kana_pref":"ﾌｸｼﾏｹﾝ","kana_city":"ﾓﾄﾐﾔｼ","kana_address":"ﾓﾄﾐﾔﾀﾞｲﾏﾁ","pref":"福島県","city":"本宮市","address":"本宮大町"},
{"zip_code":"9691175","kana_pref":"ﾌｸｼﾏｹﾝ","kana_city":"ﾓﾄﾐﾔｼ","kana_address":"ﾓﾄﾐﾔﾀｹﾉﾊﾅ","pref":"福島県","city":"本宮市","address":"本宮竹花"},
{"zip_code":"9691115","kana_pref":"ﾌｸｼﾏｹﾝ","kana_city":"ﾓﾄﾐﾔｼ","kana_address":"ﾓﾄﾐﾔﾀﾃｲｼ","pref":"福島県","city":"本宮市","address":"本宮立石"},
{"zip_code":"9691121","kana_pref":"ﾌｸｼﾏｹﾝ","kana_city":"ﾓﾄﾐﾔｼ","kana_address":"ﾓﾄﾐﾔﾀﾃﾉｺｼ","pref":"福島県","city":"本宮市","address":"本宮舘ノ越"},
{"zip_code":"9691128","kana_pref":"ﾌｸｼﾏｹﾝ","kana_city":"ﾓﾄﾐﾔｼ","kana_address":"ﾓﾄﾐﾔﾀﾃﾏﾁ","pref":"福島県","city":"本宮市","address":"本宮舘町"},
{"zip_code":"9691157","kana_pref":"ﾌｸｼﾏｹﾝ","kana_city":"ﾓﾄﾐﾔｼ","kana_address":"ﾓﾄﾐﾔﾀﾅｶ","pref":"福島県","city":"本宮市","address":"本宮田中"},
{"zip_code":"9691137","kana_pref":"ﾌｸｼﾏｹﾝ","kana_city":"ﾓﾄﾐﾔｼ","kana_address":"ﾓﾄﾐﾔﾀﾛｳﾏﾙ","pref":"福島県","city":"本宮市","address":"本宮太郎丸"},
{"zip_code":"9691151","kana_pref":"ﾌｸｼﾏｹﾝ","kana_city":"ﾓﾄﾐﾔｼ","kana_address":"ﾓﾄﾐﾔﾁﾖﾀﾞ","pref":"福島県","city":"本宮市","address":"本宮千代田"},
{"zip_code":"9691135","kana_pref":"ﾌｸｼﾏｹﾝ","kana_city":"ﾓﾄﾐﾔｼ","kana_address":"ﾓﾄﾐﾔﾂﾁﾄﾞｲ","pref":"福島県","city":"本宮市","address":"本宮土樋"},
{"zip_code":"9691127","kana_pref":"ﾌｸｼﾏｹﾝ","kana_city":"ﾓﾄﾐﾔｼ","kana_address":"ﾓﾄﾐﾔﾃｯﾎﾟｳﾏﾁ","pref":"福島県","city":"本宮市","address":"本宮鉄砲町"},
{"zip_code":"9691171","kana_pref":"ﾌｸｼﾏｹﾝ","kana_city":"ﾓﾄﾐﾔｼ","kana_address":"ﾓﾄﾐﾔﾄｲﾉｸﾁ","pref":"福島県","city":"本宮市","address":"本宮樋ノ口"},
{"zip_code":"9691167","kana_pref":"ﾌｸｼﾏｹﾝ","kana_city":"ﾓﾄﾐﾔｼ","kana_address":"ﾓﾄﾐﾔﾄﾞｳﾔｼｷ","pref":"福島県","city":"本宮市","address":"本宮道屋敷"},
{"zip_code":"9691164","kana_pref":"ﾌｸｼﾏｹﾝ","kana_city":"ﾓﾄﾐﾔｼ","kana_address":"ﾓﾄﾐﾔﾄｻｷ","pref":"福島県","city":"本宮市","address":"本宮戸崎"},
{"zip_code":"9691109","kana_pref":"ﾌｸｼﾏｹﾝ","kana_city":"ﾓﾄﾐﾔｼ","kana_address":"ﾓﾄﾐﾔﾄﾐｶﾞﾐﾈ","pref":"福島県","city":"本宮市","address":"本宮富ヶ峰"},
{"zip_code":"9691133","kana_pref":"ﾌｸｼﾏｹﾝ","kana_city":"ﾓﾄﾐﾔｼ","kana_address":"ﾓﾄﾐﾔﾅｶｼﾞｮｳ","pref":"福島県","city":"本宮市","address":"本宮中條"},
{"zip_code":"9691165","kana_pref":"ﾌｸｼﾏｹﾝ","kana_city":"ﾓﾄﾐﾔｼ","kana_address":"ﾓﾄﾐﾔﾅｶﾀﾞｲ","pref":"福島県","city":"本宮市","address":"本宮中台"},
{"zip_code":"9691173","kana_pref":"ﾌｸｼﾏｹﾝ","kana_city":"ﾓﾄﾐﾔｼ","kana_address":"ﾓﾄﾐﾔﾅｶﾉ","pref":"福島県","city":"本宮市","address":"本宮中野"},
{"zip_code":"9691173","kana_pref":"ﾌｸｼﾏｹﾝ","kana_city":"ﾓﾄﾐﾔｼ","kana_address":"ﾓﾄﾐﾔﾅｶﾉｳｼﾛ","pref":"福島県","city":"本宮市","address":"本宮中野後"},
{"zip_code":"9691124","kana_pref":"ﾌｸｼﾏｹﾝ","kana_city":"ﾓﾄﾐﾔｼ","kana_address":"ﾓﾄﾐﾔﾅｶﾏﾁ","pref":"福島県","city":"本宮市","address":"本宮仲町"},
{"zip_code":"9691175","kana_pref":"ﾌｸｼﾏｹﾝ","kana_city":"ﾓﾄﾐﾔｼ","kana_address":"ﾓﾄﾐﾔﾅｺﾞｳ","pref":"福島県","city":"本宮市","address":"本宮名郷"},
{"zip_code":"9691175","kana_pref":"ﾌｸｼﾏｹﾝ","kana_city":"ﾓﾄﾐﾔｼ","kana_address":"ﾓﾄﾐﾔﾅｺﾞｳﾜｷ","pref":"福島県","city":"本宮市","address":"本宮名郷脇"},
{"zip_code":"9691156","kana_pref":"ﾌｸｼﾏｹﾝ","kana_city":"ﾓﾄﾐﾔｼ","kana_address":"ﾓﾄﾐﾔﾅﾍﾞﾀ","pref":"福島県","city":"本宮市","address":"本宮鍋田"},
{"zip_code":"9691138","kana_pref":"ﾌｸｼﾏｹﾝ","kana_city":"ﾓﾄﾐﾔｼ","kana_address":"ﾓﾄﾐﾔﾅﾙｾ","pref":"福島県","city":"本宮市","address":"本宮鳴瀬"},
{"zip_code":"9691147","kana_pref":"ﾌｸｼﾏｹﾝ","kana_city":"ﾓﾄﾐﾔｼ","kana_address":"ﾓﾄﾐﾔﾊﾅﾏﾁ","pref":"福島県","city":"本宮市","address":"本宮花町"},
{"zip_code":"9691126","kana_pref":"ﾌｸｼﾏｹﾝ","kana_city":"ﾓﾄﾐﾔｼ","kana_address":"ﾓﾄﾐﾔﾊﾞﾊﾞ","pref":"福島県","city":"本宮市","address":"本宮馬場"},
{"zip_code":"9691149","kana_pref":"ﾌｸｼﾏｹﾝ","kana_city":"ﾓﾄﾐﾔｼ","kana_address":"ﾓﾄﾐﾔﾊﾞﾝｾｲ","pref":"福島県","city":"本宮市","address":"本宮万世"},
{"zip_code":"9691123","kana_pref":"ﾌｸｼﾏｹﾝ","kana_city":"ﾓﾄﾐﾔｼ","kana_address":"ﾓﾄﾐﾔﾋｶﾞｼﾏﾁ","pref":"福島県","city":"本宮市","address":"本宮東町"},
{"zip_code":"9691123","kana_pref":"ﾌｸｼﾏｹﾝ","kana_city":"ﾓﾄﾐﾔｼ","kana_address":"ﾓﾄﾐﾔﾋｶﾞｼﾏﾁｳﾗ","pref":"福島県","city":"本宮市","address":"本宮東町裏"},
{"zip_code":"9691168","kana_pref":"ﾌｸｼﾏｹﾝ","kana_city":"ﾓﾄﾐﾔｼ","kana_address":"ﾓﾄﾐﾔﾋﾄﾂﾔ","pref":"福島県","city":"本宮市","address":"本宮一ッ屋"},
{"zip_code":"9691155","kana_pref":"ﾌｸｼﾏｹﾝ","kana_city":"ﾓﾄﾐﾔｼ","kana_address":"ﾓﾄﾐﾔﾋﾊﾞﾘﾀ","pref":"福島県","city":"本宮市","address":"本宮雲雀田"},
{"zip_code":"9691158","kana_pref":"ﾌｸｼﾏｹﾝ","kana_city":"ﾓﾄﾐﾔｼ","kana_address":"ﾓﾄﾐﾔﾋﾗｲ","pref":"福島県","city":"本宮市","address":"本宮平井"},
{"zip_code":"9691135","kana_pref":"ﾌｸｼﾏｹﾝ","kana_city":"ﾓﾄﾐﾔｼ","kana_address":"ﾓﾄﾐﾔﾋﾙﾀ","pref":"福島県","city":"本宮市","address":"本宮蛭田"},
{"zip_code":"9691159","kana_pref":"ﾌｸｼﾏｹﾝ","kana_city":"ﾓﾄﾐﾔｼ","kana_address":"ﾓﾄﾐﾔﾋﾛﾏﾁ","pref":"福島県","city":"本宮市","address":"本宮広町"},
{"zip_code":"9691155","kana_pref":"ﾌｸｼﾏｹﾝ","kana_city":"ﾓﾄﾐﾔｼ","kana_address":"ﾓﾄﾐﾔﾌﾞﾀｲ","pref":"福島県","city":"本宮市","address":"本宮舞台"},
{"zip_code":"9691116","kana_pref":"ﾌｸｼﾏｹﾝ","kana_city":"ﾓﾄﾐﾔｼ","kana_address":"ﾓﾄﾐﾔﾍﾞﾝﾃﾝ","pref":"福島県","city":"本宮市","address":"本宮弁天"},
{"zip_code":"9691113","kana_pref":"ﾌｸｼﾏｹﾝ","kana_city":"ﾓﾄﾐﾔｼ","kana_address":"ﾓﾄﾐﾔﾎﾞｳﾔｼｷ","pref":"福島県","city":"本宮市","address":"本宮坊屋敷"},
{"zip_code":"9691108","kana_pref":"ﾌｸｼﾏｹﾝ","kana_city":"ﾓﾄﾐﾔｼ","kana_address":"ﾓﾄﾐﾔﾎｯｷﾘ","pref":"福島県","city":"本宮市","address":"本宮堀切"},
{"zip_code":"9691162","kana_pref":"ﾌｸｼﾏｹﾝ","kana_city":"ﾓﾄﾐﾔｼ","kana_address":"ﾓﾄﾐﾔﾐﾅﾐｶﾜﾊﾗﾀﾞ","pref":"福島県","city":"本宮市","address":"本宮南河原田"},
{"zip_code":"9691174","kana_pref":"ﾌｸｼﾏｹﾝ","kana_city":"ﾓﾄﾐﾔｼ","kana_address":"ﾓﾄﾐﾔﾐﾅﾐﾉｳﾁ","pref":"福島県","city":"本宮市","address":"本宮南ノ内"},
{"zip_code":"9691131","kana_pref":"ﾌｸｼﾏｹﾝ","kana_city":"ﾓﾄﾐﾔｼ","kana_address":"ﾓﾄﾐﾔﾐﾅﾐﾏﾁｳﾗ","pref":"福島県","city":"本宮市","address":"本宮南町裡"},
{"zip_code":"9691146","kana_pref":"ﾌｸｼﾏｹﾝ","kana_city":"ﾓﾄﾐﾔｼ","kana_address":"ﾓﾄﾐﾔﾐﾅﾐﾔﾏｶﾐ","pref":"福島県","city":"本宮市","address":"本宮南山神"},
{"zip_code":"9691119","kana_pref":"ﾌｸｼﾏｹﾝ","kana_city":"ﾓﾄﾐﾔｼ","kana_address":"ﾓﾄﾐﾔﾔﾅｷﾞﾉｳﾁ","pref":"福島県","city":"本宮市","address":"本宮柳ノ内"},
{"zip_code":"9691143","kana_pref":"ﾌｸｼﾏｹﾝ","kana_city":"ﾓﾄﾐﾔｼ","kana_address":"ﾓﾄﾐﾔﾔﾏﾀﾞ","pref":"福島県","city":"本宮市","address":"本宮山田"},
{"zip_code":"9691129","kana_pref":"ﾌｸｼﾏｹﾝ","kana_city":"ﾓﾄﾐﾔｼ","kana_address":"ﾓﾄﾐﾔﾔﾗｲ","pref":"福島県","city":"本宮市","address":"本宮矢来"},
{"zip_code":"9691145","kana_pref":"ﾌｸｼﾏｹﾝ","kana_city":"ﾓﾄﾐﾔｼ","kana_address":"ﾓﾄﾐﾔﾖｼｶﾞｲﾘ","pref":"福島県","city":"本宮市","address":"本宮葭ヶ入"},
{"zip_code":"9691205","kana_pref":"ﾌｸｼﾏｹﾝ","kana_city":"ﾓﾄﾐﾔｼ","kana_address":"ﾜﾀﾞ","pref":"福島県","city":"本宮市","address":"和田"},
{"zip_code":"9691600","kana_pref":"ﾌｸｼﾏｹﾝ","kana_city":"ﾀﾞﾃｸﾞﾝｺｵﾘﾏﾁ","kana_address":"","pref":"福島県","city":"伊達郡桑折町","address":""},
{"zip_code":"9691633","kana_pref":"ﾌｸｼﾏｹﾝ","kana_city":"ﾀﾞﾃｸﾞﾝｺｵﾘﾏﾁ","kana_address":"ｱｶｻｶ","pref":"福島県","city":"伊達郡桑折町","address":"赤坂"},
{"zip_code":"9691633","kana_pref":"ﾌｸｼﾏｹﾝ","kana_city":"ﾀﾞﾃｸﾞﾝｺｵﾘﾏﾁ","kana_address":"ｲﾁﾘﾀﾞﾝ","pref":"福島県","city":"伊達郡桑折町","address":"一里壇"},
{"zip_code":"9691603","kana_pref":"ﾌｸｼﾏｹﾝ","kana_city":"ﾀﾞﾃｸﾞﾝｺｵﾘﾏﾁ","kana_address":"ｳﾜﾏﾁ","pref":"福島県","city":"伊達郡桑折町","address":"上町"},
{"zip_code":"9691623","kana_pref":"ﾌｸｼﾏｹﾝ","kana_city":"ﾀﾞﾃｸﾞﾝｺｵﾘﾏﾁ","kana_address":"ｵｼｮｳﾄﾞｳ","pref":"福島県","city":"伊達郡桑折町","address":"和尚堂"},
{"zip_code":"9691634","kana_pref":"ﾌｸｼﾏｹﾝ","kana_city":"ﾀﾞﾃｸﾞﾝｺｵﾘﾏﾁ","kana_address":"ｵﾁｱｲ","pref":"福島県","city":"伊達郡桑折町","address":"落合"},
{"zip_code":"9691661","kana_pref":"ﾌｸｼﾏｹﾝ","kana_city":"ﾀﾞﾃｸﾞﾝｺｵﾘﾏﾁ","kana_address":"ｶﾐｺﾞｵﾘ","pref":"福島県","city":"伊達郡桑折町","address":"上郡"},
{"zip_code":"9691619","kana_pref":"ﾌｸｼﾏｹﾝ","kana_city":"ﾀﾞﾃｸﾞﾝｺｵﾘﾏﾁ","kana_address":"ｶﾘﾔ","pref":"福島県","city":"伊達郡桑折町","address":"仮屋"},
{"zip_code":"9691642","kana_pref":"ﾌｸｼﾏｹﾝ","kana_city":"ﾀﾞﾃｸﾞﾝｺｵﾘﾏﾁ","kana_address":"ｷﾀﾊﾝﾀﾞ","pref":"福島県","city":"伊達郡桑折町","address":"北半田"},
{"zip_code":"9691601","kana_pref":"ﾌｸｼﾏｹﾝ","kana_city":"ﾀﾞﾃｸﾞﾝｺｵﾘﾏﾁ","kana_address":"ｷﾀﾏﾁ","pref":"福島県","city":"伊達郡桑折町","address":"北町"},
{"zip_code":"9691635","kana_pref":"ﾌｸｼﾏｹﾝ","kana_city":"ﾀﾞﾃｸﾞﾝｺｵﾘﾏﾁ","kana_address":"ｷﾂﾈｻﾞｷ","pref":"福島県","city":"伊達郡桑折町","address":"狐崎"},
{"zip_code":"9691618","kana_pref":"ﾌｸｼﾏｹﾝ","kana_city":"ﾀﾞﾃｸﾞﾝｺｵﾘﾏﾁ","kana_address":"ｸﾗﾊﾞ","pref":"福島県","city":"伊達郡桑折町","address":"庫場"},
{"zip_code":"9691613","kana_pref":"ﾌｸｼﾏｹﾝ","kana_city":"ﾀﾞﾃｸﾞﾝｺｵﾘﾏﾁ","kana_address":"ｸﾜｼﾞﾏ","pref":"福島県","city":"伊達郡桑折町","address":"桑島"},
{"zip_code":"9691633","kana_pref":"ﾌｸｼﾏｹﾝ","kana_city":"ﾀﾞﾃｸﾞﾝｺｵﾘﾏﾁ","kana_address":"ｻｶｲ","pref":"福島県","city":"伊達郡桑折町","address":"界"},
{"zip_code":"9691615","kana_pref":"ﾌｸｼﾏｹﾝ","kana_city":"ﾀﾞﾃｸﾞﾝｺｵﾘﾏﾁ","kana_address":"ｻﾜ","pref":"福島県","city":"伊達郡桑折町","address":"沢"},
{"zip_code":"9691608","kana_pref":"ﾌｸｼﾏｹﾝ","kana_city":"ﾀﾞﾃｸﾞﾝｺｵﾘﾏﾁ","kana_address":"ｼﾊﾞﾂﾂﾐ","pref":"福島県","city":"伊達郡桑折町","address":"芝堤"},
{"zip_code":"9691662","kana_pref":"ﾌｸｼﾏｹﾝ","kana_city":"ﾀﾞﾃｸﾞﾝｺｵﾘﾏﾁ","kana_address":"ｼﾓｺﾞｵﾘ","pref":"福島県","city":"伊達郡桑折町","address":"下郡"},
{"zip_code":"9691631","kana_pref":"ﾌｸｼﾏｹﾝ","kana_city":"ﾀﾞﾃｸﾞﾝｺｵﾘﾏﾁ","kana_address":"ｼﾛｶﾞﾈ","pref":"福島県","city":"伊達郡桑折町","address":"白銀"},
{"zip_code":"9691628","kana_pref":"ﾌｸｼﾏｹﾝ","kana_city":"ﾀﾞﾃｸﾞﾝｺｵﾘﾏﾁ","kana_address":"ｼﾝﾏﾁ","pref":"福島県","city":"伊達郡桑折町","address":"新町"},
{"zip_code":"9691617","kana_pref":"ﾌｸｼﾏｹﾝ","kana_city":"ﾀﾞﾃｸﾞﾝｺｵﾘﾏﾁ","kana_address":"ｼﾞﾝﾔ","pref":"福島県","city":"伊達郡桑折町","address":"陣屋"},
{"zip_code":"9691625","kana_pref":"ﾌｸｼﾏｹﾝ","kana_city":"ﾀﾞﾃｸﾞﾝｺｵﾘﾏﾁ","kana_address":"ｼﾝﾖｼﾁｮｳ","pref":"福島県","city":"伊達郡桑折町","address":"新吉町"},
{"zip_code":"9691624","kana_pref":"ﾌｸｼﾏｹﾝ","kana_city":"ﾀﾞﾃｸﾞﾝｺｵﾘﾏﾁ","kana_address":"ｼﾝﾜﾁｮｳ","pref":"福島県","city":"伊達郡桑折町","address":"新和町"},
{"zip_code":"9691634","kana_pref":"ﾌｸｼﾏｹﾝ","kana_city":"ﾀﾞﾃｸﾞﾝｺｵﾘﾏﾁ","kana_address":"ｽｷﾞﾉﾏｴ","pref":"福島県","city":"伊達郡桑折町","address":"杉ノ前"},
{"zip_code":"9691634","kana_pref":"ﾌｸｼﾏｹﾝ","kana_city":"ﾀﾞﾃｸﾞﾝｺｵﾘﾏﾁ","kana_address":"ｽﾅｺﾞｻﾞﾜ","pref":"福島県","city":"伊達郡桑折町","address":"砂子沢"},
{"zip_code":"9691627","kana_pref":"ﾌｸｼﾏｹﾝ","kana_city":"ﾀﾞﾃｸﾞﾝｺｵﾘﾏﾁ","kana_address":"ｽﾜ","pref":"福島県","city":"伊達郡桑折町","address":"諏訪"},
{"zip_code":"9691605","kana_pref":"ﾌｸｼﾏｹﾝ","kana_city":"ﾀﾞﾃｸﾞﾝｺｵﾘﾏﾁ","kana_address":"ｾｷｱｲ","pref":"福島県","city":"伊達郡桑折町","address":"堰合"},
{"zip_code":"9691604","kana_pref":"ﾌｸｼﾏｹﾝ","kana_city":"ﾀﾞﾃｸﾞﾝｺｵﾘﾏﾁ","kana_address":"ｾｷｼﾀ","pref":"福島県","city":"伊達郡桑折町","address":"堰下"},
{"zip_code":"9691632","kana_pref":"ﾌｸｼﾏｹﾝ","kana_city":"ﾀﾞﾃｸﾞﾝｺｵﾘﾏﾁ","kana_address":"ﾀｳｴ","pref":"福島県","city":"伊達郡桑折町","address":"田植"},
{"zip_code":"9691616","kana_pref":"ﾌｸｼﾏｹﾝ","kana_city":"ﾀﾞﾃｸﾞﾝｺｵﾘﾏﾁ","kana_address":"ﾀﾃ","pref":"福島県","city":"伊達郡桑折町","address":"舘"},
{"zip_code":"9691663","kana_pref":"ﾌｸｼﾏｹﾝ","kana_city":"ﾀﾞﾃｸﾞﾝｺｵﾘﾏﾁ","kana_address":"ﾀﾞﾝｻﾞｷ","pref":"福島県","city":"伊達郡桑折町","address":"伊達崎"},
{"zip_code":"9691626","kana_pref":"ﾌｸｼﾏｹﾝ","kana_city":"ﾀﾞﾃｸﾞﾝｺｵﾘﾏﾁ","kana_address":"ﾃﾗｻｶ","pref":"福島県","city":"伊達郡桑折町","address":"寺坂"},
{"zip_code":"9691621","kana_pref":"ﾌｸｼﾏｹﾝ","kana_city":"ﾀﾞﾃｸﾞﾝｺｵﾘﾏﾁ","kana_address":"ﾄﾞｳｼﾞｮｳﾏｴ","pref":"福島県","city":"伊達郡桑折町","address":"道場前"},
{"zip_code":"9691652","kana_pref":"ﾌｸｼﾏｹﾝ","kana_city":"ﾀﾞﾃｸﾞﾝｺｵﾘﾏﾁ","kana_address":"ﾅﾘﾀ","pref":"福島県","city":"伊達郡桑折町","address":"成田"},
{"zip_code":"9691612","kana_pref":"ﾌｸｼﾏｹﾝ","kana_city":"ﾀﾞﾃｸﾞﾝｺｵﾘﾏﾁ","kana_address":"ﾆｼｵｵｽﾐ","pref":"福島県","city":"伊達郡桑折町","address":"西大隅"},
{"zip_code":"9691607","kana_pref":"ﾌｸｼﾏｹﾝ","kana_city":"ﾀﾞﾃｸﾞﾝｺｵﾘﾏﾁ","kana_address":"ﾆｼﾀﾞﾝ","pref":"福島県","city":"伊達郡桑折町","address":"西段"},
{"zip_code":"9691629","kana_pref":"ﾌｸｼﾏｹﾝ","kana_city":"ﾀﾞﾃｸﾞﾝｺｵﾘﾏﾁ","kana_address":"ﾆｼﾏﾁ","pref":"福島県","city":"伊達郡桑折町","address":"西町"},
{"zip_code":"9691611","kana_pref":"ﾌｸｼﾏｹﾝ","kana_city":"ﾀﾞﾃｸﾞﾝｺｵﾘﾏﾁ","kana_address":"ﾋｶﾞｼｵｵｽﾐ","pref":"福島県","city":"伊達郡桑折町","address":"東大隅"},
{"zip_code":"9691606","kana_pref":"ﾌｸｼﾏｹﾝ","kana_city":"ﾀﾞﾃｸﾞﾝｺｵﾘﾏﾁ","kana_address":"ﾋｶﾞｼﾀﾞﾝ","pref":"福島県","city":"伊達郡桑折町","address":"東段"},
{"zip_code":"9691635","kana_pref":"ﾌｸｼﾏｹﾝ","kana_city":"ﾀﾞﾃｸﾞﾝｺｵﾘﾏﾁ","kana_address":"ﾋｶﾞｼﾔｸｼ","pref":"福島県","city":"伊達郡桑折町","address":"東八串"},
{"zip_code":"9691654","kana_pref":"ﾌｸｼﾏｹﾝ","kana_city":"ﾀﾞﾃｸﾞﾝｺｵﾘﾏﾁ","kana_address":"ﾋﾗｻﾜ","pref":"福島県","city":"伊達郡桑折町","address":"平沢"},
{"zip_code":"9691602","kana_pref":"ﾌｸｼﾏｹﾝ","kana_city":"ﾀﾞﾃｸﾞﾝｺｵﾘﾏﾁ","kana_address":"ﾏﾁｳﾗ","pref":"福島県","city":"伊達郡桑折町","address":"町裏"},
{"zip_code":"9691653","kana_pref":"ﾌｸｼﾏｹﾝ","kana_city":"ﾀﾞﾃｸﾞﾝｺｵﾘﾏﾁ","kana_address":"ﾏﾂﾊﾞﾗ","pref":"福島県","city":"伊達郡桑折町","address":"松原"},
{"zip_code":"9691651","kana_pref":"ﾌｸｼﾏｹﾝ","kana_city":"ﾀﾞﾃｸﾞﾝｺｵﾘﾏﾁ","kana_address":"ﾏﾝｼｮｳｼﾞ","pref":"福島県","city":"伊達郡桑折町","address":"万正寺"},
{"zip_code":"9691641","kana_pref":"ﾌｸｼﾏｹﾝ","kana_city":"ﾀﾞﾃｸﾞﾝｺｵﾘﾏﾁ","kana_address":"ﾐﾅﾐﾊﾝﾀﾞ","pref":"福島県","city":"伊達郡桑折町","address":"南半田"},
{"zip_code":"9691622","kana_pref":"ﾌｸｼﾏｹﾝ","kana_city":"ﾀﾞﾃｸﾞﾝｺｵﾘﾏﾁ","kana_address":"ﾐﾅﾐﾏﾁ","pref":"福島県","city":"伊達郡桑折町","address":"南町"},
{"zip_code":"9691614","kana_pref":"ﾌｸｼﾏｹﾝ","kana_city":"ﾀﾞﾃｸﾞﾝｺｵﾘﾏﾁ","kana_address":"ﾓﾄﾏﾁ","pref":"福島県","city":"伊達郡桑折町","address":"本町"},
{"zip_code":"9691643","kana_pref":"ﾌｸｼﾏｹﾝ","kana_city":"ﾀﾞﾃｸﾞﾝｺｵﾘﾏﾁ","kana_address":"ﾔｼﾞ","pref":"福島県","city":"伊達郡桑折町","address":"谷地"},
{"zip_code":"9691631","kana_pref":"ﾌｸｼﾏｹﾝ","kana_city":"ﾀﾞﾃｸﾞﾝｺｵﾘﾏﾁ","kana_address":"ﾔﾌﾞｳﾁ","pref":"福島県","city":"伊達郡桑折町","address":"薮内"},
{"zip_code":"9691700","kana_pref":"ﾌｸｼﾏｹﾝ","kana_city":"ﾀﾞﾃｸﾞﾝｸﾆﾐﾏﾁ","kana_address":"","pref":"福島県","city":"伊達郡国見町","address":""},
{"zip_code":"9691701","kana_pref":"ﾌｸｼﾏｹﾝ","kana_city":"ﾀﾞﾃｸﾞﾝｸﾆﾐﾏﾁ","kana_address":"ｲｼﾓﾀﾞ","pref":"福島県","city":"伊達郡国見町","address":"石母田"},
{"zip_code":"9691782","kana_pref":"ﾌｸｼﾏｹﾝ","kana_city":"ﾀﾞﾃｸﾞﾝｸﾆﾐﾏﾁ","kana_address":"ｲｽﾞﾐﾀﾞ","pref":"福島県","city":"伊達郡国見町","address":"泉田"},
{"zip_code":"9691785","kana_pref":"ﾌｸｼﾏｹﾝ","kana_city":"ﾀﾞﾃｸﾞﾝｸﾆﾐﾏﾁ","kana_address":"ｲﾀﾊﾞｼﾐﾅﾐ","pref":"福島県","city":"伊達郡国見町","address":"板橋南"},
{"zip_code":"9691781","kana_pref":"ﾌｸｼﾏｹﾝ","kana_city":"ﾀﾞﾃｸﾞﾝｸﾆﾐﾏﾁ","kana_address":"ｳﾁﾔ","pref":"福島県","city":"伊達郡国見町","address":"内谷"},
{"zip_code":"9691713","kana_pref":"ﾌｸｼﾏｹﾝ","kana_city":"ﾀﾞﾃｸﾞﾝｸﾆﾐﾏﾁ","kana_address":"ｵｵｷﾄﾞ","pref":"福島県","city":"伊達郡国見町","address":"大木戸"},
{"zip_code":"9691711","kana_pref":"ﾌｸｼﾏｹﾝ","kana_city":"ﾀﾞﾃｸﾞﾝｸﾆﾐﾏﾁ","kana_address":"ｶｲﾀﾞ","pref":"福島県","city":"伊達郡国見町","address":"貝田"},
{"zip_code":"9691721","kana_pref":"ﾌｸｼﾏｹﾝ","kana_city":"ﾀﾞﾃｸﾞﾝｸﾆﾐﾏﾁ","kana_address":"ｶﾜｳﾁ","pref":"福島県","city":"伊達郡国見町","address":"川内"},
{"zip_code":"9691712","kana_pref":"ﾌｸｼﾏｹﾝ","kana_city":"ﾀﾞﾃｸﾞﾝｸﾆﾐﾏﾁ","kana_address":"ｺｳﾐｮｳｼﾞ","pref":"福島県","city":"伊達郡国見町","address":"光明寺"},
{"zip_code":"9691784","kana_pref":"ﾌｸｼﾏｹﾝ","kana_city":"ﾀﾞﾃｸﾞﾝｸﾆﾐﾏﾁ","kana_address":"ｺｻｶ","pref":"福島県","city":"伊達郡国見町","address":"小坂"},
{"zip_code":"9691788","kana_pref":"ﾌｸｼﾏｹﾝ","kana_city":"ﾀﾞﾃｸﾞﾝｸﾆﾐﾏﾁ","kana_address":"ｺｻｶﾐﾅﾐ","pref":"福島県","city":"伊達郡国見町","address":"小坂南"},
{"zip_code":"9691786","kana_pref":"ﾌｸｼﾏｹﾝ","kana_city":"ﾀﾞﾃｸﾞﾝｸﾆﾐﾏﾁ","kana_address":"ｼﾝｲｽﾞﾐﾀﾞ","pref":"福島県","city":"伊達郡国見町","address":"新泉田"},
{"zip_code":"9691780","kana_pref":"ﾌｸｼﾏｹﾝ","kana_city":"ﾀﾞﾃｸﾞﾝｸﾆﾐﾏﾁ","kana_address":"ｼﾝｳﾁﾔ","pref":"福島県","city":"伊達郡国見町","address":"新内谷"},
{"zip_code":"9691787","kana_pref":"ﾌｸｼﾏｹﾝ","kana_city":"ﾀﾞﾃｸﾞﾝｸﾆﾐﾏﾁ","kana_address":"ｼﾝｺｻｶ","pref":"福島県","city":"伊達郡国見町","address":"新小坂"},
{"zip_code":"9691789","kana_pref":"ﾌｸｼﾏｹﾝ","kana_city":"ﾀﾞﾃｸﾞﾝｸﾆﾐﾏﾁ","kana_address":"ｼﾝﾄｯﾄﾘ","pref":"福島県","city":"伊達郡国見町","address":"新鳥取"},
{"zip_code":"9691714","kana_pref":"ﾌｸｼﾏｹﾝ","kana_city":"ﾀﾞﾃｸﾞﾝｸﾆﾐﾏﾁ","kana_address":"ﾀｶｷﾞ","pref":"福島県","city":"伊達郡国見町","address":"高城"},
{"zip_code":"9691751","kana_pref":"ﾌｸｼﾏｹﾝ","kana_city":"ﾀﾞﾃｸﾞﾝｸﾆﾐﾏﾁ","kana_address":"ﾂｶﾉﾒ","pref":"福島県","city":"伊達郡国見町","address":"塚野目"},
{"zip_code":"9691741","kana_pref":"ﾌｸｼﾏｹﾝ","kana_city":"ﾀﾞﾃｸﾞﾝｸﾆﾐﾏﾁ","kana_address":"ﾄｸｴ","pref":"福島県","city":"伊達郡国見町","address":"徳江"},
{"zip_code":"9691783","kana_pref":"ﾌｸｼﾏｹﾝ","kana_city":"ﾀﾞﾃｸﾞﾝｸﾆﾐﾏﾁ","kana_address":"ﾄｯﾄﾘ","pref":"福島県","city":"伊達郡国見町","address":"鳥取"},
{"zip_code":"9691722","kana_pref":"ﾌｸｼﾏｹﾝ","kana_city":"ﾀﾞﾃｸﾞﾝｸﾆﾐﾏﾁ","kana_address":"ﾆｼｵｵｴﾀﾞ","pref":"福島県","city":"伊達郡国見町","address":"西大枝"},
{"zip_code":"9691761","kana_pref":"ﾌｸｼﾏｹﾝ","kana_city":"ﾀﾞﾃｸﾞﾝｸﾆﾐﾏﾁ","kana_address":"ﾌｼﾞﾀ","pref":"福島県","city":"伊達郡国見町","address":"藤田"},
{"zip_code":"9691731","kana_pref":"ﾌｸｼﾏｹﾝ","kana_city":"ﾀﾞﾃｸﾞﾝｸﾆﾐﾏﾁ","kana_address":"ﾓﾘﾔﾏ","pref":"福島県","city":"伊達郡国見町","address":"森山"},
{"zip_code":"9691771","kana_pref":"ﾌｸｼﾏｹﾝ","kana_city":"ﾀﾞﾃｸﾞﾝｸﾆﾐﾏﾁ","kana_address":"ﾔﾏｻﾞｷ","pref":"福島県","city":"伊達郡国見町","address":"山崎"},
{"zip_code":"9691300","kana_pref":"ﾌｸｼﾏｹﾝ","kana_city":"ｱﾀﾞﾁｸﾞﾝｵｵﾀﾏﾑﾗ","kana_address":"","pref":"福島県","city":"安達郡大玉村","address":""},
{"zip_code":"9691301","kana_pref":"ﾌｸｼﾏｹﾝ","kana_city":"ｱﾀﾞﾁｸﾞﾝｵｵﾀﾏﾑﾗ","kana_address":"ｵｵﾔﾏ","pref":"福島県","city":"安達郡大玉村","address":"大山"},
{"zip_code":"9691302","kana_pref":"ﾌｸｼﾏｹﾝ","kana_city":"ｱﾀﾞﾁｸﾞﾝｵｵﾀﾏﾑﾗ","kana_address":"ﾀﾏﾉｲ","pref":"福島県","city":"安達郡大玉村","address":"玉井"},
{"zip_code":"9690400","kana_pref":"ﾌｸｼﾏｹﾝ","kana_city":"ｲﾜｾｸﾞﾝｶｶﾞﾐｲｼﾏﾁ","kana_address":"","pref":"福島県","city":"岩瀬郡鏡石町","address":""},
{"zip_code":"9690404","kana_pref":"ﾌｸｼﾏｹﾝ","kana_city":"ｲﾜｾｸﾞﾝｶｶﾞﾐｲｼﾏﾁ","kana_address":"ｱｻﾋﾏﾁ","pref":"福島県","city":"岩瀬郡鏡石町","address":"旭町"},
{"zip_code":"9690402","kana_pref":"ﾌｸｼﾏｹﾝ","kana_city":"ｲﾜｾｸﾞﾝｶｶﾞﾐｲｼﾏﾁ","kana_address":"ｲｹﾉﾀﾞｲ","pref":"福島県","city":"岩瀬郡鏡石町","address":"池の台"},
{"zip_code":"9690401","kana_pref":"ﾌｸｼﾏｹﾝ","kana_city":"ｲﾜｾｸﾞﾝｶｶﾞﾐｲｼﾏﾁ","kana_address":"ｲｹﾉﾊﾗ","pref":"福島県","city":"岩瀬郡鏡石町","address":"池ノ原"},
{"zip_code":"9690401","kana_pref":"ﾌｸｼﾏｹﾝ","kana_city":"ｲﾜｾｸﾞﾝｶｶﾞﾐｲｼﾏﾁ","kana_address":"ｵｵｲｹ","pref":"福島県","city":"岩瀬郡鏡石町","address":"大池"},
{"zip_code":"9690402","kana_pref":"ﾌｸｼﾏｹﾝ","kana_city":"ｲﾜｾｸﾞﾝｶｶﾞﾐｲｼﾏﾁ","kana_address":"ｵｵﾐﾔ","pref":"福島県","city":"岩瀬郡鏡石町","address":"大宮"},
{"zip_code":"9690404","kana_pref":"ﾌｸｼﾏｹﾝ","kana_city":"ｲﾜｾｸﾞﾝｶｶﾞﾐｲｼﾏﾁ","kana_address":"ｵｵﾔﾏ","pref":"福島県","city":"岩瀬郡鏡石町","address":"大山"},
{"zip_code":"9690401","kana_pref":"ﾌｸｼﾏｹﾝ","kana_city":"ｲﾜｾｸﾞﾝｶｶﾞﾐｲｼﾏﾁ","kana_address":"ｵｶﾉｳﾁ","pref":"福島県","city":"岩瀬郡鏡石町","address":"岡ノ内"},
{"zip_code":"9690404","kana_pref":"ﾌｸｼﾏｹﾝ","kana_city":"ｲﾜｾｸﾞﾝｶｶﾞﾐｲｼﾏﾁ","kana_address":"ｵｶﾉﾀﾞｲ","pref":"福島県","city":"岩瀬郡鏡石町","address":"岡の台"},
{"zip_code":"9690401","kana_pref":"ﾌｸｼﾏｹﾝ","kana_city":"ｲﾜｾｸﾞﾝｶｶﾞﾐｲｼﾏﾁ","kana_address":"ｶｶﾞﾐﾀﾞｶｹﾞﾇﾏﾏﾁ","pref":"福島県","city":"岩瀬郡鏡石町","address":"鏡田かげ沼町"},
{"zip_code":"9690401","kana_pref":"ﾌｸｼﾏｹﾝ","kana_city":"ｲﾜｾｸﾞﾝｶｶﾞﾐｲｼﾏﾁ","kana_address":"ｶｶﾞﾐﾇﾏ","pref":"福島県","city":"岩瀬郡鏡石町","address":"鏡沼"},
{"zip_code":"9690404","kana_pref":"ﾌｸｼﾏｹﾝ","kana_city":"ｲﾜｾｸﾞﾝｶｶﾞﾐｲｼﾏﾁ","kana_address":"ｶｻｲｼ","pref":"福島県","city":"岩瀬郡鏡石町","address":"笠石"},
{"zip_code":"9690404","kana_pref":"ﾌｸｼﾏｹﾝ","kana_city":"ｲﾜｾｸﾞﾝｶｶﾞﾐｲｼﾏﾁ","kana_address":"ｶｻｲｼﾊﾗﾏﾁ","pref":"福島県","city":"岩瀬郡鏡石町","address":"笠石原町"},
{"zip_code":"9690401","kana_pref":"ﾌｸｼﾏｹﾝ","kana_city":"ｲﾜｾｸﾞﾝｶｶﾞﾐｲｼﾏﾁ","kana_address":"ｶｼﾏ","pref":"福島県","city":"岩瀬郡鏡石町","address":"鹿島"},
{"zip_code":"9690401","kana_pref":"ﾌｸｼﾏｹﾝ","kana_city":"ｲﾜｾｸﾞﾝｶｶﾞﾐｲｼﾏﾁ","kana_address":"ｶﾊﾞﾉｻﾜﾏﾁ","pref":"福島県","city":"岩瀬郡鏡石町","address":"蒲之沢町"},
{"zip_code":"9690403","kana_pref":"ﾌｸｼﾏｹﾝ","kana_city":"ｲﾜｾｸﾞﾝｶｶﾞﾐｲｼﾏﾁ","kana_address":"ｶﾘﾔﾄﾞ","pref":"福島県","city":"岩瀬郡鏡石町","address":"借宿"},
{"zip_code":"9690401","kana_pref":"ﾌｸｼﾏｹﾝ","kana_city":"ｲﾜｾｸﾞﾝｶｶﾞﾐｲｼﾏﾁ","kana_address":"ｶﾜｻｷﾏﾁ","pref":"福島県","city":"岩瀬郡鏡石町","address":"川崎町"},
{"zip_code":"9690402","kana_pref":"ﾌｸｼﾏｹﾝ","kana_city":"ｲﾜｾｸﾞﾝｶｶﾞﾐｲｼﾏﾁ","kana_address":"ｶﾜﾗ","pref":"福島県","city":"岩瀬郡鏡石町","address":"河原"},
{"zip_code":"9690402","kana_pref":"ﾌｸｼﾏｹﾝ","kana_city":"ｲﾜｾｸﾞﾝｶｶﾞﾐｲｼﾏﾁ","kana_address":"ｷﾀﾏﾁ","pref":"福島県","city":"岩瀬郡鏡石町","address":"北町"},
{"zip_code":"9690403","kana_pref":"ﾌｸｼﾏｹﾝ","kana_city":"ｲﾜｾｸﾞﾝｶｶﾞﾐｲｼﾏﾁ","kana_address":"ｷｭｳﾗｲｼ","pref":"福島県","city":"岩瀬郡鏡石町","address":"久来石"},
{"zip_code":"9690403","kana_pref":"ﾌｸｼﾏｹﾝ","kana_city":"ｲﾜｾｸﾞﾝｶｶﾞﾐｲｼﾏﾁ","kana_address":"ｷｭｳﾗｲｼﾐﾅﾐ","pref":"福島県","city":"岩瀬郡鏡石町","address":"久来石南"},
{"zip_code":"9690403","kana_pref":"ﾌｸｼﾏｹﾝ","kana_city":"ｲﾜｾｸﾞﾝｶｶﾞﾐｲｼﾏﾁ","kana_address":"ｺｸﾞﾘﾔﾏ","pref":"福島県","city":"岩瀬郡鏡石町","address":"小栗山"},
{"zip_code":"9690401","kana_pref":"ﾌｸｼﾏｹﾝ","kana_city":"ｲﾜｾｸﾞﾝｶｶﾞﾐｲｼﾏﾁ","kana_address":"ｺﾞﾄﾏｷﾏﾁ","pref":"福島県","city":"岩瀬郡鏡石町","address":"五斗蒔町"},
{"zip_code":"9690401","kana_pref":"ﾌｸｼﾏｹﾝ","kana_city":"ｲﾜｾｸﾞﾝｶｶﾞﾐｲｼﾏﾁ","kana_address":"ｻｶｲ","pref":"福島県","city":"岩瀬郡鏡石町","address":"境"},
{"zip_code":"9690403","kana_pref":"ﾌｸｼﾏｹﾝ","kana_city":"ｲﾜｾｸﾞﾝｶｶﾞﾐｲｼﾏﾁ","kana_address":"ｻｸﾗｵｶ","pref":"福島県","city":"岩瀬郡鏡石町","address":"桜岡"},
{"zip_code":"9690401","kana_pref":"ﾌｸｼﾏｹﾝ","kana_city":"ｲﾜｾｸﾞﾝｶｶﾞﾐｲｼﾏﾁ","kana_address":"ｻｸﾗﾏﾁ","pref":"福島県","city":"岩瀬郡鏡石町","address":"桜町"},
{"zip_code":"9690403","kana_pref":"ﾌｸｼﾏｹﾝ","kana_city":"ｲﾜｾｸﾞﾝｶｶﾞﾐｲｼﾏﾁ","kana_address":"ｼﾞｮｳﾉｳﾁ","pref":"福島県","city":"岩瀬郡鏡石町","address":"城ノ内"},
{"zip_code":"9690402","kana_pref":"ﾌｸｼﾏｹﾝ","kana_city":"ｲﾜｾｸﾞﾝｶｶﾞﾐｲｼﾏﾁ","kana_address":"ｼﾝﾏﾁ","pref":"福島県","city":"岩瀬郡鏡石町","address":"新町"},
{"zip_code":"9690402","kana_pref":"ﾌｸｼﾏｹﾝ","kana_city":"ｲﾜｾｸﾞﾝｶｶﾞﾐｲｼﾏﾁ","kana_address":"ｽﾜﾏﾁ","pref":"福島県","city":"岩瀬郡鏡石町","address":"諏訪町"},
{"zip_code":"9690401","kana_pref":"ﾌｸｼﾏｹﾝ","kana_city":"ｲﾜｾｸﾞﾝｶｶﾞﾐｲｼﾏﾁ","kana_address":"ﾀｶｸﾀﾞ","pref":"福島県","city":"岩瀬郡鏡石町","address":"高久田"},
{"zip_code":"9690404","kana_pref":"ﾌｸｼﾏｹﾝ","kana_city":"ｲﾜｾｸﾞﾝｶｶﾞﾐｲｼﾏﾁ","kana_address":"ﾁｭｳｵｳ","pref":"福島県","city":"岩瀬郡鏡石町","address":"中央"},
{"zip_code":"9690403","kana_pref":"ﾌｸｼﾏｹﾝ","kana_city":"ｲﾜｾｸﾞﾝｶｶﾞﾐｲｼﾏﾁ","kana_address":"ﾄﾞｳﾏｴ","pref":"福島県","city":"岩瀬郡鏡石町","address":"堂前"},
{"zip_code":"9690404","kana_pref":"ﾌｸｼﾏｹﾝ","kana_city":"ｲﾜｾｸﾞﾝｶｶﾞﾐｲｼﾏﾁ","kana_address":"ﾄﾖｻﾄ","pref":"福島県","city":"岩瀬郡鏡石町","address":"豊郷"},
{"zip_code":"9690404","kana_pref":"ﾌｸｼﾏｹﾝ","kana_city":"ｲﾜｾｸﾞﾝｶｶﾞﾐｲｼﾏﾁ","kana_address":"ﾄﾖｻﾄﾅｶ","pref":"福島県","city":"岩瀬郡鏡石町","address":"豊郷中"},
{"zip_code":"9690401","kana_pref":"ﾌｸｼﾏｹﾝ","kana_city":"ｲﾜｾｸﾞﾝｶｶﾞﾐｲｼﾏﾁ","kana_address":"ﾄﾖﾀﾞ","pref":"福島県","city":"岩瀬郡鏡石町","address":"豊田"},
{"zip_code":"9690404","kana_pref":"ﾌｸｼﾏｹﾝ","kana_city":"ｲﾜｾｸﾞﾝｶｶﾞﾐｲｼﾏﾁ","kana_address":"ﾅｶﾏﾁ","pref":"福島県","city":"岩瀬郡鏡石町","address":"中町"},
{"zip_code":"9690402","kana_pref":"ﾌｸｼﾏｹﾝ","kana_city":"ｲﾜｾｸﾞﾝｶｶﾞﾐｲｼﾏﾁ","kana_address":"ﾅﾘﾀ","pref":"福島県","city":"岩瀬郡鏡石町","address":"成田"},
{"zip_code":"9690402","kana_pref":"ﾌｸｼﾏｹﾝ","kana_city":"ｲﾜｾｸﾞﾝｶｶﾞﾐｲｼﾏﾁ","kana_address":"ﾅﾘﾀﾊﾗﾏﾁ","pref":"福島県","city":"岩瀬郡鏡石町","address":"成田原町"},
{"zip_code":"9690402","kana_pref":"ﾌｸｼﾏｹﾝ","kana_city":"ｲﾜｾｸﾞﾝｶｶﾞﾐｲｼﾏﾁ","kana_address":"ﾅﾘﾀﾋｶﾞｼ","pref":"福島県","city":"岩瀬郡鏡石町","address":"成田東"},
{"zip_code":"9690401","kana_pref":"ﾌｸｼﾏｹﾝ","kana_city":"ｲﾜｾｸﾞﾝｶｶﾞﾐｲｼﾏﾁ","kana_address":"ﾆｲﾀﾞ","pref":"福島県","city":"岩瀬郡鏡石町","address":"仁井田"},
{"zip_code":"9690404","kana_pref":"ﾌｸｼﾏｹﾝ","kana_city":"ｲﾜｾｸﾞﾝｶｶﾞﾐｲｼﾏﾁ","kana_address":"ﾊﾄﾘ","pref":"福島県","city":"岩瀬郡鏡石町","address":"羽鳥"},
{"zip_code":"9690401","kana_pref":"ﾌｸｼﾏｹﾝ","kana_city":"ｲﾜｾｸﾞﾝｶｶﾞﾐｲｼﾏﾁ","kana_address":"ﾋｶﾞｼｶｼﾏ","pref":"福島県","city":"岩瀬郡鏡石町","address":"東鹿島"},
{"zip_code":"9690402","kana_pref":"ﾌｸｼﾏｹﾝ","kana_city":"ｲﾜｾｸﾞﾝｶｶﾞﾐｲｼﾏﾁ","kana_address":"ﾋｶﾞｼｶﾜﾗ","pref":"福島県","city":"岩瀬郡鏡石町","address":"東河原"},
{"zip_code":"9690404","kana_pref":"ﾌｸｼﾏｹﾝ","kana_city":"ｲﾜｾｸﾞﾝｶｶﾞﾐｲｼﾏﾁ","kana_address":"ﾋｶﾞｼﾏﾁ","pref":"福島県","city":"岩瀬郡鏡石町","address":"東町"},
{"zip_code":"9690401","kana_pref":"ﾌｸｼﾏｹﾝ","kana_city":"ｲﾜｾｸﾞﾝｶｶﾞﾐｲｼﾏﾁ","kana_address":"ﾌｺｳﾁﾏﾁ","pref":"福島県","city":"岩瀬郡鏡石町","address":"深内町"},
{"zip_code":"9690401","kana_pref":"ﾌｸｼﾏｹﾝ","kana_city":"ｲﾜｾｸﾞﾝｶｶﾞﾐｲｼﾏﾁ","kana_address":"ﾌｼﾞﾇﾏ","pref":"福島県","city":"岩瀬郡鏡石町","address":"不時沼"},
{"zip_code":"9690404","kana_pref":"ﾌｸｼﾏｹﾝ","kana_city":"ｲﾜｾｸﾞﾝｶｶﾞﾐｲｼﾏﾁ","kana_address":"ﾎﾘｺﾞﾒ","pref":"福島県","city":"岩瀬郡鏡石町","address":"堀米"},
{"zip_code":"9690401","kana_pref":"ﾌｸｼﾏｹﾝ","kana_city":"ｲﾜｾｸﾞﾝｶｶﾞﾐｲｼﾏﾁ","kana_address":"ﾏｴﾔﾏ","pref":"福島県","city":"岩瀬郡鏡石町","address":"前山"},
{"zip_code":"9690404","kana_pref":"ﾌｸｼﾏｹﾝ","kana_city":"ｲﾜｾｸﾞﾝｶｶﾞﾐｲｼﾏﾁ","kana_address":"ﾐﾄﾞﾘﾏﾁ","pref":"福島県","city":"岩瀬郡鏡石町","address":"緑町"},
{"zip_code":"9690401","kana_pref":"ﾌｸｼﾏｹﾝ","kana_city":"ｲﾜｾｸﾞﾝｶｶﾞﾐｲｼﾏﾁ","kana_address":"ﾐﾅﾐﾀｶｸﾀﾞ","pref":"福島県","city":"岩瀬郡鏡石町","address":"南高久田"},
{"zip_code":"9690404","kana_pref":"ﾌｸｼﾏｹﾝ","kana_city":"ｲﾜｾｸﾞﾝｶｶﾞﾐｲｼﾏﾁ","kana_address":"ﾐﾅﾐﾏﾁ","pref":"福島県","city":"岩瀬郡鏡石町","address":"南町"},
{"zip_code":"9690401","kana_pref":"ﾌｸｼﾏｹﾝ","kana_city":"ｲﾜｾｸﾞﾝｶｶﾞﾐｲｼﾏﾁ","kana_address":"ﾓﾄﾏﾁ","pref":"福島県","city":"岩瀬郡鏡石町","address":"本町"},
{"zip_code":"9695300","kana_pref":"ﾌｸｼﾏｹﾝ","kana_city":"ﾐﾅﾐｱｲﾂﾞｸﾞﾝｼﾓｺﾞｳﾏﾁ","kana_address":"","pref":"福島県","city":"南会津郡下郷町","address":""},
{"zip_code":"9695333","kana_pref":"ﾌｸｼﾏｹﾝ","kana_city":"ﾐﾅﾐｱｲﾂﾞｸﾞﾝｼﾓｺﾞｳﾏﾁ","kana_address":"ｱｲｶﾜ","pref":"福島県","city":"南会津郡下郷町","address":"合川"},
{"zip_code":"9695315","kana_pref":"ﾌｸｼﾏｹﾝ","kana_city":"ﾐﾅﾐｱｲﾂﾞｸﾞﾝｼﾓｺﾞｳﾏﾁ","kana_address":"ｱﾗｲｼ","pref":"福島県","city":"南会津郡下郷町","address":"荒石"},
{"zip_code":"9695331","kana_pref":"ﾌｸｼﾏｹﾝ","kana_city":"ﾐﾅﾐｱｲﾂﾞｸﾞﾝｼﾓｺﾞｳﾏﾁ","kana_address":"ｲｸﾀ","pref":"福島県","city":"南会津郡下郷町","address":"澳田"},
{"zip_code":"9695316","kana_pref":"ﾌｸｼﾏｹﾝ","kana_city":"ﾐﾅﾐｱｲﾂﾞｸﾞﾝｼﾓｺﾞｳﾏﾁ","kana_address":"ｲｼｲ","pref":"福島県","city":"南会津郡下郷町","address":"石井"},
{"zip_code":"9695318","kana_pref":"ﾌｸｼﾏｹﾝ","kana_city":"ﾐﾅﾐｱｲﾂﾞｸﾞﾝｼﾓｺﾞｳﾏﾁ","kana_address":"ｲｿｶﾞﾐ","pref":"福島県","city":"南会津郡下郷町","address":"磯上"},
{"zip_code":"9695326","kana_pref":"ﾌｸｼﾏｹﾝ","kana_city":"ﾐﾅﾐｱｲﾂﾞｸﾞﾝｼﾓｺﾞｳﾏﾁ","kana_address":"ｴｲﾄﾐ","pref":"福島県","city":"南会津郡下郷町","address":"栄富"},
{"zip_code":"9695202","kana_pref":"ﾌｸｼﾏｹﾝ","kana_city":"ﾐﾅﾐｱｲﾂﾞｸﾞﾝｼﾓｺﾞｳﾏﾁ","kana_address":"ｴﾀﾞﾏﾂ","pref":"福島県","city":"南会津郡下郷町","address":"枝松"},
{"zip_code":"9695207","kana_pref":"ﾌｸｼﾏｹﾝ","kana_city":"ﾐﾅﾐｱｲﾂﾞｸﾞﾝｼﾓｺﾞｳﾏﾁ","kana_address":"ｵｵｳﾁ","pref":"福島県","city":"南会津郡下郷町","address":"大内"},
{"zip_code":"9695205","kana_pref":"ﾌｸｼﾏｹﾝ","kana_city":"ﾐﾅﾐｱｲﾂﾞｸﾞﾝｼﾓｺﾞｳﾏﾁ","kana_address":"ｵｵｻﾜ","pref":"福島県","city":"南会津郡下郷町","address":"大沢"},
{"zip_code":"9695334","kana_pref":"ﾌｸｼﾏｹﾝ","kana_city":"ﾐﾅﾐｱｲﾂﾞｸﾞﾝｼﾓｺﾞｳﾏﾁ","kana_address":"ｵｵﾏﾂｶﾜ","pref":"福島県","city":"南会津郡下郷町","address":"大松川"},
{"zip_code":"9695343","kana_pref":"ﾌｸｼﾏｹﾝ","kana_city":"ﾐﾅﾐｱｲﾂﾞｸﾞﾝｼﾓｺﾞｳﾏﾁ","kana_address":"ｵﾁｱｲ","pref":"福島県","city":"南会津郡下郷町","address":"落合"},
{"zip_code":"9695342","kana_pref":"ﾌｸｼﾏｹﾝ","kana_city":"ﾐﾅﾐｱｲﾂﾞｸﾞﾝｼﾓｺﾞｳﾏﾁ","kana_address":"ｵﾄｶﾈ","pref":"福島県","city":"南会津郡下郷町","address":"音金"},
{"zip_code":"9695208","kana_pref":"ﾌｸｼﾏｹﾝ","kana_city":"ﾐﾅﾐｱｲﾂﾞｸﾞﾝｼﾓｺﾞｳﾏﾁ","kana_address":"ｵﾇﾏｻﾞｷ","pref":"福島県","city":"南会津郡下郷町","address":"小沼崎"},
{"zip_code":"9695323","kana_pref":"ﾌｸｼﾏｹﾝ","kana_city":"ﾐﾅﾐｱｲﾂﾞｸﾞﾝｼﾓｺﾞｳﾏﾁ","kana_address":"ｸﾜﾄﾋﾞ","pref":"福島県","city":"南会津郡下郷町","address":"桑取火"},
{"zip_code":"9695321","kana_pref":"ﾌｸｼﾏｹﾝ","kana_city":"ﾐﾅﾐｱｲﾂﾞｸﾞﾝｼﾓｺﾞｳﾏﾁ","kana_address":"ｻﾜｸﾞﾁ","pref":"福島県","city":"南会津郡下郷町","address":"沢口"},
{"zip_code":"9695344","kana_pref":"ﾌｸｼﾏｹﾝ","kana_city":"ﾐﾅﾐｱｲﾂﾞｸﾞﾝｼﾓｺﾞｳﾏﾁ","kana_address":"ｻﾜﾀﾞ","pref":"福島県","city":"南会津郡下郷町","address":"沢田"},
{"zip_code":"9695345","kana_pref":"ﾌｸｼﾏｹﾝ","kana_city":"ﾐﾅﾐｱｲﾂﾞｸﾞﾝｼﾓｺﾞｳﾏﾁ","kana_address":"ｼｵﾉｳ","pref":"福島県","city":"南会津郡下郷町","address":"塩生"},
{"zip_code":"9695317","kana_pref":"ﾌｸｼﾏｹﾝ","kana_city":"ﾐﾅﾐｱｲﾂﾞｸﾞﾝｼﾓｺﾞｳﾏﾁ","kana_address":"ｼｹﾞﾝｷﾞｮｳ","pref":"福島県","city":"南会津郡下郷町","address":"志源行"},
{"zip_code":"9695203","kana_pref":"ﾌｸｼﾏｹﾝ","kana_city":"ﾐﾅﾐｱｲﾂﾞｸﾞﾝｼﾓｺﾞｳﾏﾁ","kana_address":"ｼﾗｲﾜ","pref":"福島県","city":"南会津郡下郷町","address":"白岩"},
{"zip_code":"9695201","kana_pref":"ﾌｸｼﾏｹﾝ","kana_city":"ﾐﾅﾐｱｲﾂﾞｸﾞﾝｼﾓｺﾞｳﾏﾁ","kana_address":"ﾀｶｼﾏ","pref":"福島県","city":"南会津郡下郷町","address":"高陦"},
{"zip_code":"9695312","kana_pref":"ﾌｸｼﾏｹﾝ","kana_city":"ﾐﾅﾐｱｲﾂﾞｸﾞﾝｼﾓｺﾞｳﾏﾁ","kana_address":"ﾄｱｶ","pref":"福島県","city":"南会津郡下郷町","address":"戸赤"},
{"zip_code":"9695311","kana_pref":"ﾌｸｼﾏｹﾝ","kana_city":"ﾐﾅﾐｱｲﾂﾞｸﾞﾝｼﾓｺﾞｳﾏﾁ","kana_address":"ﾄﾖﾅﾘ","pref":"福島県","city":"南会津郡下郷町","address":"豊成"},
{"zip_code":"9695332","kana_pref":"ﾌｸｼﾏｹﾝ","kana_city":"ﾐﾅﾐｱｲﾂﾞｸﾞﾝｼﾓｺﾞｳﾏﾁ","kana_address":"ﾅｶﾂﾏ","pref":"福島県","city":"南会津郡下郷町","address":"中妻"},
{"zip_code":"9695325","kana_pref":"ﾌｸｼﾏｹﾝ","kana_city":"ﾐﾅﾐｱｲﾂﾞｸﾞﾝｼﾓｺﾞｳﾏﾁ","kana_address":"ﾅｶﾔﾏ","pref":"福島県","city":"南会津郡下郷町","address":"中山"},
{"zip_code":"9695335","kana_pref":"ﾌｸｼﾏｹﾝ","kana_city":"ﾐﾅﾐｱｲﾂﾞｸﾞﾝｼﾓｺﾞｳﾏﾁ","kana_address":"ﾅｸﾞﾗｻﾜ","pref":"福島県","city":"南会津郡下郷町","address":"南倉沢"},
{"zip_code":"9695341","kana_pref":"ﾌｸｼﾏｹﾝ","kana_city":"ﾐﾅﾐｱｲﾂﾞｸﾞﾝｼﾓｺﾞｳﾏﾁ","kana_address":"ﾉｷﾞﾜｼﾝﾃﾞﾝ","pref":"福島県","city":"南会津郡下郷町","address":"野際新田"},
{"zip_code":"9695313","kana_pref":"ﾌｸｼﾏｹﾝ","kana_city":"ﾐﾅﾐｱｲﾂﾞｸﾞﾝｼﾓｺﾞｳﾏﾁ","kana_address":"ﾊﾗ","pref":"福島県","city":"南会津郡下郷町","address":"原"},
{"zip_code":"9695314","kana_pref":"ﾌｸｼﾏｹﾝ","kana_city":"ﾐﾅﾐｱｲﾂﾞｸﾞﾝｼﾓｺﾞｳﾏﾁ","kana_address":"ﾋｶｹﾞ","pref":"福島県","city":"南会津郡下郷町","address":"日影"},
{"zip_code":"9695204","kana_pref":"ﾌｸｼﾏｹﾝ","kana_city":"ﾐﾅﾐｱｲﾂﾞｸﾞﾝｼﾓｺﾞｳﾏﾁ","kana_address":"ﾔｺﾞｼﾏ","pref":"福島県","city":"南会津郡下郷町","address":"弥五島"},
{"zip_code":"9695324","kana_pref":"ﾌｸｼﾏｹﾝ","kana_city":"ﾐﾅﾐｱｲﾂﾞｸﾞﾝｼﾓｺﾞｳﾏﾁ","kana_address":"ﾔｽﾊﾘ","pref":"福島県","city":"南会津郡下郷町","address":"安張"},
{"zip_code":"9695206","kana_pref":"ﾌｸｼﾏｹﾝ","kana_city":"ﾐﾅﾐｱｲﾂﾞｸﾞﾝｼﾓｺﾞｳﾏﾁ","kana_address":"ﾕﾉｶﾐ","pref":"福島県","city":"南会津郡下郷町","address":"湯野上"},
{"zip_code":"9695322","kana_pref":"ﾌｸｼﾏｹﾝ","kana_city":"ﾐﾅﾐｱｲﾂﾞｸﾞﾝｼﾓｺﾞｳﾏﾁ","kana_address":"ﾘｮｳｹﾞ","pref":"福島県","city":"南会津郡下郷町","address":"領毛"},
{"zip_code":"9692701","kana_pref":"ﾌｸｼﾏｹﾝ","kana_city":"ﾔﾏｸﾞﾝｷﾀｼｵﾊﾞﾗﾑﾗ","kana_address":"ﾋﾊﾞﾗ(ｱｷﾓﾄ","pref":"福島県","city":"耶麻郡北塩原村","address":"檜原（秋元"},
{"zip_code":"9692701","kana_pref":"ﾌｸｼﾏｹﾝ","kana_city":"ﾔﾏｸﾞﾝｷﾀｼｵﾊﾞﾗﾑﾗ","kana_address":"ｱﾗｽﾅｻﾜﾔﾏ","pref":"福島県","city":"耶麻郡北塩原村","address":"荒砂沢山"},
{"zip_code":"9692701","kana_pref":"ﾌｸｼﾏｹﾝ","kana_city":"ﾔﾏｸﾞﾝｷﾀｼｵﾊﾞﾗﾑﾗ","kana_address":"ｳﾗﾊﾞﾝﾀﾞｲ","pref":"福島県","city":"耶麻郡北塩原村","address":"裏磐梯"},
{"zip_code":"9692701","kana_pref":"ﾌｸｼﾏｹﾝ","kana_city":"ﾔﾏｸﾞﾝｷﾀｼｵﾊﾞﾗﾑﾗ","kana_address":"ｵｵﾌﾞﾀﾞｲﾗ","pref":"福島県","city":"耶麻郡北塩原村","address":"大府平"},
{"zip_code":"9692701","kana_pref":"ﾌｸｼﾏｹﾝ","kana_city":"ﾔﾏｸﾞﾝｷﾀｼｵﾊﾞﾗﾑﾗ","kana_address":"ｵﾉｶﾞﾜ","pref":"福島県","city":"耶麻郡北塩原村","address":"小野川"},
{"zip_code":"9692701","kana_pref":"ﾌｸｼﾏｹﾝ","kana_city":"ﾔﾏｸﾞﾝｷﾀｼｵﾊﾞﾗﾑﾗ","kana_address":"ｵﾉｶﾞﾜﾊﾗ","pref":"福島県","city":"耶麻郡北塩原村","address":"小野川原"},
{"zip_code":"9692701","kana_pref":"ﾌｸｼﾏｹﾝ","kana_city":"ﾔﾏｸﾞﾝｷﾀｼｵﾊﾞﾗﾑﾗ","kana_address":"ｹﾝｶﾞﾐﾈ","pref":"福島県","city":"耶麻郡北塩原村","address":"剣ケ峯"},
{"zip_code":"9692701","kana_pref":"ﾌｸｼﾏｹﾝ","kana_city":"ﾔﾏｸﾞﾝｷﾀｼｵﾊﾞﾗﾑﾗ","kana_address":"ｺﾀｶﾓﾘ","pref":"福島県","city":"耶麻郡北塩原村","address":"狐鷹森"},
{"zip_code":"9692701","kana_pref":"ﾌｸｼﾏｹﾝ","kana_city":"ﾔﾏｸﾞﾝｷﾀｼｵﾊﾞﾗﾑﾗ","kana_address":"","pref":"福島県","city":"耶麻郡北塩原村","address":""},
{"zip_code":"9692701","kana_pref":"ﾌｸｼﾏｹﾝ","kana_city":"ﾔﾏｸﾞﾝｷﾀｼｵﾊﾞﾗﾑﾗ","kana_address":"ｺﾞｼｷﾇﾏ","pref":"福島県","city":"耶麻郡北塩原村","address":"五色沼"},
{"zip_code":"9692701","kana_pref":"ﾌｸｼﾏｹﾝ","kana_city":"ﾔﾏｸﾞﾝｷﾀｼｵﾊﾞﾗﾑﾗ","kana_address":"ｼﾞﾝｸﾛｳﾔﾏ","pref":"福島県","city":"耶麻郡北塩原村","address":"甚九郎山"},
{"zip_code":"9692701","kana_pref":"ﾌｸｼﾏｹﾝ","kana_city":"ﾔﾏｸﾞﾝｷﾀｼｵﾊﾞﾗﾑﾗ","kana_address":"ｿﾊﾗﾔﾏ","pref":"福島県","city":"耶麻郡北塩原村","address":"曽原山"},
{"zip_code":"9692701","kana_pref":"ﾌｸｼﾏｹﾝ","kana_city":"ﾔﾏｸﾞﾝｷﾀｼｵﾊﾞﾗﾑﾗ","kana_address":"ﾃﾗｻﾜﾔﾏ","pref":"福島県","city":"耶麻郡北塩原村","address":"寺沢山"},
{"zip_code":"9692701","kana_pref":"ﾌｸｼﾏｹﾝ","kana_city":"ﾔﾏｸﾞﾝｷﾀｼｵﾊﾞﾗﾑﾗ","kana_address":"ﾍﾋﾞﾀｲﾗﾊﾗﾔﾏ","pref":"福島県","city":"耶麻郡北塩原村","address":"蛇平原山"},
{"zip_code":"9692701","kana_pref":"ﾌｸｼﾏｹﾝ","kana_city":"ﾔﾏｸﾞﾝｷﾀｼｵﾊﾞﾗﾑﾗ","kana_address":"ﾕﾀﾞｲﾗﾔﾏ)","pref":"福島県","city":"耶麻郡北塩原村","address":"湯平山）"},
{"zip_code":"9694400","kana_pref":"ﾌｸｼﾏｹﾝ","kana_city":"ﾔﾏｸﾞﾝﾆｼｱｲﾂﾞﾏﾁ","kana_address":"","pref":"福島県","city":"耶麻郡西会津町","address":""},
{"zip_code":"9694734","kana_pref":"ﾌｸｼﾏｹﾝ","kana_city":"ﾔﾏｸﾞﾝﾆｼｱｲﾂﾞﾏﾁ","kana_address":"ｵｸｶﾞﾜｲｲｻﾄ","pref":"福島県","city":"耶麻郡西会津町","address":"奥川飯里"},
{"zip_code":"9694732","kana_pref":"ﾌｸｼﾏｹﾝ","kana_city":"ﾔﾏｸﾞﾝﾆｼｱｲﾂﾞﾏﾁ","kana_address":"ｵｸｶﾞﾜｲｲｻﾞﾜ","pref":"福島県","city":"耶麻郡西会津町","address":"奥川飯沢"},
{"zip_code":"9694731","kana_pref":"ﾌｸｼﾏｹﾝ","kana_city":"ﾔﾏｸﾞﾝﾆｼｱｲﾂﾞﾏﾁ","kana_address":"ｵｸｶﾞﾜｲｲﾈ","pref":"福島県","city":"耶麻郡西会津町","address":"奥川飯根"},
{"zip_code":"9694733","kana_pref":"ﾌｸｼﾏｹﾝ","kana_city":"ﾔﾏｸﾞﾝﾆｼｱｲﾂﾞﾏﾁ","kana_address":"ｵｸｶﾞﾜｵｵﾂﾅｷﾞ","pref":"福島県","city":"耶麻郡西会津町","address":"奥川大綱木"},
{"zip_code":"9694737","kana_pref":"ﾌｸｼﾏｹﾝ","kana_city":"ﾔﾏｸﾞﾝﾆｼｱｲﾂﾞﾏﾁ","kana_address":"ｵｸｶﾞﾜｶﾔﾈ","pref":"福島県","city":"耶麻郡西会津町","address":"奥川高陽根"},
{"zip_code":"9694735","kana_pref":"ﾌｸｼﾏｹﾝ","kana_city":"ﾔﾏｸﾞﾝﾆｼｱｲﾂﾞﾏﾁ","kana_address":"ｵｸｶﾞﾜﾄﾖｼﾏ","pref":"福島県","city":"耶麻郡西会津町","address":"奥川豊島"},
{"zip_code":"9694736","kana_pref":"ﾌｸｼﾏｹﾝ","kana_city":"ﾔﾏｸﾞﾝﾆｼｱｲﾂﾞﾏﾁ","kana_address":"ｵｸｶﾞﾜﾓﾄｼﾏ","pref":"福島県","city":"耶麻郡西会津町","address":"奥川元島"},
{"zip_code":"9694402","kana_pref":"ﾌｸｼﾏｹﾝ","kana_city":"ﾔﾏｸﾞﾝﾆｼｱｲﾂﾞﾏﾁ","kana_address":"ｵﾉﾓﾄ","pref":"福島県","city":"耶麻郡西会津町","address":"尾野本"},
{"zip_code":"9694512","kana_pref":"ﾌｸｼﾏｹﾝ","kana_city":"ﾔﾏｸﾞﾝﾆｼｱｲﾂﾞﾏﾁ","kana_address":"ｶﾐﾉｼﾞﾘ","pref":"福島県","city":"耶麻郡西会津町","address":"上野尻"},
{"zip_code":"9694405","kana_pref":"ﾌｸｼﾏｹﾝ","kana_city":"ﾔﾏｸﾞﾝﾆｼｱｲﾂﾞﾏﾁ","kana_address":"ｼﾀﾀﾆ","pref":"福島県","city":"耶麻郡西会津町","address":"下谷"},
{"zip_code":"9694515","kana_pref":"ﾌｸｼﾏｹﾝ","kana_city":"ﾔﾏｸﾞﾝﾆｼｱｲﾂﾞﾏﾁ","kana_address":"ｼﾓﾉｼﾞﾘ","pref":"福島県","city":"耶麻郡西会津町","address":"下野尻"},
{"zip_code":"9694622","kana_pref":"ﾌｸｼﾏｹﾝ","kana_city":"ﾔﾏｸﾞﾝﾆｼｱｲﾂﾞﾏﾁ","kana_address":"ｼﾝｺﾞｳｻｻｶﾞﾜ","pref":"福島県","city":"耶麻郡西会津町","address":"新郷笹川"},
{"zip_code":"9694623","kana_pref":"ﾌｸｼﾏｹﾝ","kana_city":"ﾔﾏｸﾞﾝﾆｼｱｲﾂﾞﾏﾁ","kana_address":"ｼﾝｺﾞｳﾄﾖｽ","pref":"福島県","city":"耶麻郡西会津町","address":"新郷豊洲"},
{"zip_code":"9694621","kana_pref":"ﾌｸｼﾏｹﾝ","kana_city":"ﾔﾏｸﾞﾝﾆｼｱｲﾂﾞﾏﾁ","kana_address":"ｼﾝｺﾞｳﾌｼﾞ","pref":"福島県","city":"耶麻郡西会津町","address":"新郷冨士"},
{"zip_code":"9694624","kana_pref":"ﾌｸｼﾏｹﾝ","kana_city":"ﾔﾏｸﾞﾝﾆｼｱｲﾂﾞﾏﾁ","kana_address":"ｼﾝｺﾞｳﾐｶﾜ","pref":"福島県","city":"耶麻郡西会津町","address":"新郷三河"},
{"zip_code":"9694403","kana_pref":"ﾌｸｼﾏｹﾝ","kana_city":"ﾔﾏｸﾞﾝﾆｼｱｲﾂﾞﾏﾁ","kana_address":"ﾀﾊﾞﾈﾏﾂ","pref":"福島県","city":"耶麻郡西会津町","address":"束松"},
{"zip_code":"9694401","kana_pref":"ﾌｸｼﾏｹﾝ","kana_city":"ﾔﾏｸﾞﾝﾆｼｱｲﾂﾞﾏﾁ","kana_address":"ﾄｾｼﾞﾏ","pref":"福島県","city":"耶麻郡西会津町","address":"登世島"},
{"zip_code":"9694406","kana_pref":"ﾌｸｼﾏｹﾝ","kana_city":"ﾔﾏｸﾞﾝﾆｼｱｲﾂﾞﾏﾁ","kana_address":"ﾉｻﾞﾜ","pref":"福島県","city":"耶麻郡西会津町","address":"野沢"},
{"zip_code":"9694514","kana_pref":"ﾌｸｼﾏｹﾝ","kana_city":"ﾔﾏｸﾞﾝﾆｼｱｲﾂﾞﾏﾁ","kana_address":"ﾎｳｻｶﾎｳｻｶ","pref":"福島県","city":"耶麻郡西会津町","address":"宝坂宝坂"},
{"zip_code":"9694513","kana_pref":"ﾌｸｼﾏｹﾝ","kana_city":"ﾔﾏｸﾞﾝﾆｼｱｲﾂﾞﾏﾁ","kana_address":"ﾎｳｻｶﾔｼｷ","pref":"福島県","city":"耶麻郡西会津町","address":"宝坂屋敷"},
{"zip_code":"9694404","kana_pref":"ﾌｸｼﾏｹﾝ","kana_city":"ﾔﾏｸﾞﾝﾆｼｱｲﾂﾞﾏﾁ","kana_address":"ﾑﾂｱｲ","pref":"福島県","city":"耶麻郡西会津町","address":"睦合"},
{"zip_code":"9694511","kana_pref":"ﾌｸｼﾏｹﾝ","kana_city":"ﾔﾏｸﾞﾝﾆｼｱｲﾂﾞﾏﾁ","kana_address":"ﾑﾗｵｶ","pref":"福島県","city":"耶麻郡西会津町","address":"群岡"},
{"zip_code":"9693300","kana_pref":"ﾌｸｼﾏｹﾝ","kana_city":"ﾔﾏｸﾞﾝﾊﾞﾝﾀﾞｲﾏﾁ","kana_address":"","pref":"福島県","city":"耶麻郡磐梯町","address":""},
{"zip_code":"9693303","kana_pref":"ﾌｸｼﾏｹﾝ","kana_city":"ﾔﾏｸﾞﾝﾊﾞﾝﾀﾞｲﾏﾁ","kana_address":"ｱｶｴﾀﾞ","pref":"福島県","city":"耶麻郡磐梯町","address":"赤枝"},
{"zip_code":"9693304","kana_pref":"ﾌｸｼﾏｹﾝ","kana_city":"ﾔﾏｸﾞﾝﾊﾞﾝﾀﾞｲﾏﾁ","kana_address":"ｵｵﾀﾆ","pref":"福島県","city":"耶麻郡磐梯町","address":"大谷"},
{"zip_code":"9693302","kana_pref":"ﾌｸｼﾏｹﾝ","kana_city":"ﾔﾏｸﾞﾝﾊﾞﾝﾀﾞｲﾏﾁ","kana_address":"ｻﾗｼﾅ","pref":"福島県","city":"耶麻郡磐梯町","address":"更科"},
{"zip_code":"9693301","kana_pref":"ﾌｸｼﾏｹﾝ","kana_city":"ﾔﾏｸﾞﾝﾊﾞﾝﾀﾞｲﾏﾁ","kana_address":"ﾊﾞﾝﾀﾞｲ","pref":"福島県","city":"耶麻郡磐梯町","address":"磐梯"},
{"zip_code":"9693100","kana_pref":"ﾌｸｼﾏｹﾝ","kana_city":"ﾔﾏｸﾞﾝｲﾅﾜｼﾛﾏﾁ","kana_address":"","pref":"福島県","city":"耶麻郡猪苗代町","address":""},
{"zip_code":"9693121","kana_pref":"ﾌｸｼﾏｹﾝ","kana_city":"ﾔﾏｸﾞﾝｲﾅﾜｼﾛﾏﾁ","kana_address":"ｱｼﾊﾗ","pref":"福島県","city":"耶麻郡猪苗代町","address":"芦原"},
{"zip_code":"9693122","kana_pref":"ﾌｸｼﾏｹﾝ","kana_city":"ﾔﾏｸﾞﾝｲﾅﾜｼﾛﾏﾁ","kana_address":"ｱﾗﾏﾁ","pref":"福島県","city":"耶麻郡猪苗代町","address":"新町"},
{"zip_code":"9693101","kana_pref":"ﾌｸｼﾏｹﾝ","kana_city":"ﾔﾏｸﾞﾝｲﾅﾜｼﾛﾏﾁ","kana_address":"ｲｴﾉﾏｴ","pref":"福島県","city":"耶麻郡猪苗代町","address":"家ノ前"},
{"zip_code":"9693111","kana_pref":"ﾌｸｼﾏｹﾝ","kana_city":"ﾔﾏｸﾞﾝｲﾅﾜｼﾛﾏﾁ","kana_address":"ｲｶｽﾞﾁ","pref":"福島県","city":"耶麻郡猪苗代町","address":"雷"},
{"zip_code":"9693111","kana_pref":"ﾌｸｼﾏｹﾝ","kana_city":"ﾔﾏｸﾞﾝｲﾅﾜｼﾛﾏﾁ","kana_address":"ｲｽﾞﾓﾀﾞﾝ","pref":"福島県","city":"耶麻郡猪苗代町","address":"出雲壇"},
{"zip_code":"9693111","kana_pref":"ﾌｸｼﾏｹﾝ","kana_city":"ﾔﾏｸﾞﾝｲﾅﾜｼﾛﾏﾁ","kana_address":"ｲﾀﾊﾞｼｷﾀ","pref":"福島県","city":"耶麻郡猪苗代町","address":"板橋北"},
{"zip_code":"9693131","kana_pref":"ﾌｸｼﾏｹﾝ","kana_city":"ﾔﾏｸﾞﾝｲﾅﾜｼﾛﾏﾁ","kana_address":"ｲﾏｲｽﾞﾐ","pref":"福島県","city":"耶麻郡猪苗代町","address":"今泉"},
{"zip_code":"9693141","kana_pref":"ﾌｸｼﾏｹﾝ","kana_city":"ﾔﾏｸﾞﾝｲﾅﾜｼﾛﾏﾁ","kana_address":"ｲﾜｻﾄ","pref":"福島県","city":"耶麻郡猪苗代町","address":"磐里"},
{"zip_code":"9693286","kana_pref":"ﾌｸｼﾏｹﾝ","kana_city":"ﾔﾏｸﾞﾝｲﾅﾜｼﾛﾏﾁ","kana_address":"ｲﾜﾈ","pref":"福島県","city":"耶麻郡猪苗代町","address":"磐根"},
{"zip_code":"9693102","kana_pref":"ﾌｸｼﾏｹﾝ","kana_city":"ﾔﾏｸﾞﾝｲﾅﾜｼﾛﾏﾁ","kana_address":"ｳｺﾝﾔﾏ","pref":"福島県","city":"耶麻郡猪苗代町","address":"右近山"},
{"zip_code":"9693121","kana_pref":"ﾌｸｼﾏｹﾝ","kana_city":"ﾔﾏｸﾞﾝｲﾅﾜｼﾛﾏﾁ","kana_address":"ｳﾗﾏﾁ","pref":"福島県","city":"耶麻郡猪苗代町","address":"裏町"},
{"zip_code":"9693111","kana_pref":"ﾌｸｼﾏｹﾝ","kana_city":"ﾔﾏｸﾞﾝｲﾅﾜｼﾛﾏﾁ","kana_address":"ｵｵﾀ","pref":"福島県","city":"耶麻郡猪苗代町","address":"太田"},
{"zip_code":"9693111","kana_pref":"ﾌｸｼﾏｹﾝ","kana_city":"ﾔﾏｸﾞﾝｲﾅﾜｼﾛﾏﾁ","kana_address":"ｵｵﾀﾆｼ","pref":"福島県","city":"耶麻郡猪苗代町","address":"太田西"},
{"zip_code":"9693113","kana_pref":"ﾌｸｼﾏｹﾝ","kana_city":"ﾔﾏｸﾞﾝｲﾅﾜｼﾛﾏﾁ","kana_address":"ｵｵﾐﾁﾆｼ","pref":"福島県","city":"耶麻郡猪苗代町","address":"大道西"},
{"zip_code":"9693101","kana_pref":"ﾌｸｼﾏｹﾝ","kana_city":"ﾔﾏｸﾞﾝｲﾅﾜｼﾛﾏﾁ","kana_address":"ｵｵﾔﾁ","pref":"福島県","city":"耶麻郡猪苗代町","address":"大谷地"},
{"zip_code":"9693285","kana_pref":"ﾌｸｼﾏｹﾝ","kana_city":"ﾔﾏｸﾞﾝｲﾅﾜｼﾛﾏﾁ","kana_address":"ｵｷﾅｻﾞﾜ","pref":"福島県","city":"耶麻郡猪苗代町","address":"翁沢"},
{"zip_code":"9693111","kana_pref":"ﾌｸｼﾏｹﾝ","kana_city":"ﾔﾏｸﾞﾝｲﾅﾜｼﾛﾏﾁ","kana_address":"ｵｸﾞﾛｶﾞﾜ","pref":"福島県","city":"耶麻郡猪苗代町","address":"小黒川"},
{"zip_code":"9693283","kana_pref":"ﾌｸｼﾏｹﾝ","kana_city":"ﾔﾏｸﾞﾝｲﾅﾜｼﾛﾏﾁ","kana_address":"ｵｻﾀﾞ","pref":"福島県","city":"耶麻郡猪苗代町","address":"長田"},
{"zip_code":"9693121","kana_pref":"ﾌｸｼﾏｹﾝ","kana_city":"ﾔﾏｸﾞﾝｲﾅﾜｼﾛﾏﾁ","kana_address":"ｵﾋﾃｶﾜ","pref":"福島県","city":"耶麻郡猪苗代町","address":"オヒテ川"},
{"zip_code":"9693122","kana_pref":"ﾌｸｼﾏｹﾝ","kana_city":"ﾔﾏｸﾞﾝｲﾅﾜｼﾛﾏﾁ","kana_address":"ｶｷﾀ","pref":"福島県","city":"耶麻郡猪苗代町","address":"カキ田"},
{"zip_code":"9693122","kana_pref":"ﾌｸｼﾏｹﾝ","kana_city":"ﾔﾏｸﾞﾝｲﾅﾜｼﾛﾏﾁ","kana_address":"ｶﾞｷﾞﾀ","pref":"福島県","city":"耶麻郡猪苗代町","address":"ガギ田"},
{"zip_code":"9693101","kana_pref":"ﾌｸｼﾏｹﾝ","kana_city":"ﾔﾏｸﾞﾝｲﾅﾜｼﾛﾏﾁ","kana_address":"ｶｹｱｶﾞﾘ","pref":"福島県","city":"耶麻郡猪苗代町","address":"欠上り"},
{"zip_code":"9693132","kana_pref":"ﾌｸｼﾏｹﾝ","kana_city":"ﾔﾏｸﾞﾝｲﾅﾜｼﾛﾏﾁ","kana_address":"ｶﾀﾀﾞ","pref":"福島県","city":"耶麻郡猪苗代町","address":"堅田"},
{"zip_code":"9692272","kana_pref":"ﾌｸｼﾏｹﾝ","kana_city":"ﾔﾏｸﾞﾝｲﾅﾜｼﾛﾏﾁ","kana_address":"ｶﾈﾀﾞ","pref":"福島県","city":"耶麻郡猪苗代町","address":"金田"},
{"zip_code":"9693103","kana_pref":"ﾌｸｼﾏｹﾝ","kana_city":"ﾔﾏｸﾞﾝｲﾅﾜｼﾛﾏﾁ","kana_address":"ｶﾉｻﾞｶｲ","pref":"福島県","city":"耶麻郡猪苗代町","address":"鹿野境"},
{"zip_code":"9693121","kana_pref":"ﾌｸｼﾏｹﾝ","kana_city":"ﾔﾏｸﾞﾝｲﾅﾜｼﾛﾏﾁ","kana_address":"ｶﾐｻﾞﾙﾀ","pref":"福島県","city":"耶麻郡猪苗代町","address":"上ザル田"},
{"zip_code":"9693101","kana_pref":"ﾌｸｼﾏｹﾝ","kana_city":"ﾔﾏｸﾞﾝｲﾅﾜｼﾛﾏﾁ","kana_address":"ｶﾐﾉﾔﾏ","pref":"福島県","city":"耶麻郡猪苗代町","address":"上ノ山"},
{"zip_code":"9693103","kana_pref":"ﾌｸｼﾏｹﾝ","kana_city":"ﾔﾏｸﾞﾝｲﾅﾜｼﾛﾏﾁ","kana_address":"ｶﾐﾑﾗﾏｴ","pref":"福島県","city":"耶麻郡猪苗代町","address":"上村前"},
{"zip_code":"9693103","kana_pref":"ﾌｸｼﾏｹﾝ","kana_city":"ﾔﾏｸﾞﾝｲﾅﾜｼﾛﾏﾁ","kana_address":"ｶﾐﾑﾗﾋｶﾞｼ","pref":"福島県","city":"耶麻郡猪苗代町","address":"上村東"},
{"zip_code":"9693131","kana_pref":"ﾌｸｼﾏｹﾝ","kana_city":"ﾔﾏｸﾞﾝｲﾅﾜｼﾛﾏﾁ","kana_address":"ｶﾐﾔｼｷ","pref":"福島県","city":"耶麻郡猪苗代町","address":"上屋敷"},
{"zip_code":"9692663","kana_pref":"ﾌｸｼﾏｹﾝ","kana_city":"ﾔﾏｸﾞﾝｲﾅﾜｼﾛﾏﾁ","kana_address":"ｶﾜｹﾞﾀ","pref":"福島県","city":"耶麻郡猪苗代町","address":"川桁"},
{"zip_code":"9693101","kana_pref":"ﾌｸｼﾏｹﾝ","kana_city":"ﾔﾏｸﾞﾝｲﾅﾜｼﾛﾏﾁ","kana_address":"ｷﾀﾉﾊﾔｼ","pref":"福島県","city":"耶麻郡猪苗代町","address":"北ノ林"},
{"zip_code":"9693113","kana_pref":"ﾌｸｼﾏｹﾝ","kana_city":"ﾔﾏｸﾞﾝｲﾅﾜｼﾛﾏﾁ","kana_address":"ｷﾀﾊﾝｻﾞｶ","pref":"福島県","city":"耶麻郡猪苗代町","address":"北半坂"},
{"zip_code":"9693101","kana_pref":"ﾌｸｼﾏｹﾝ","kana_city":"ﾔﾏｸﾞﾝｲﾅﾜｼﾛﾏﾁ","kana_address":"ｷﾞｮｳﾆﾝﾀﾞﾝ","pref":"福島県","city":"耶麻郡猪苗代町","address":"行人壇"},
{"zip_code":"9693103","kana_pref":"ﾌｸｼﾏｹﾝ","kana_city":"ﾔﾏｸﾞﾝｲﾅﾜｼﾛﾏﾁ","kana_address":"ｷﾘﾉｷｻﾞﾜ","pref":"福島県","city":"耶麻郡猪苗代町","address":"桐木沢"},
{"zip_code":"9693111","kana_pref":"ﾌｸｼﾏｹﾝ","kana_city":"ﾔﾏｸﾞﾝｲﾅﾜｼﾛﾏﾁ","kana_address":"ｸﾎﾞﾀ","pref":"福島県","city":"耶麻郡猪苗代町","address":"窪田"},
{"zip_code":"9693111","kana_pref":"ﾌｸｼﾏｹﾝ","kana_city":"ﾔﾏｸﾞﾝｲﾅﾜｼﾛﾏﾁ","kana_address":"ｸﾎﾞﾉｳﾁ","pref":"福島県","city":"耶麻郡猪苗代町","address":"窪ノ内"},
{"zip_code":"9693111","kana_pref":"ﾌｸｼﾏｹﾝ","kana_city":"ﾔﾏｸﾞﾝｲﾅﾜｼﾛﾏﾁ","kana_address":"ｸﾎﾞﾐﾅﾐ","pref":"福島県","city":"耶麻郡猪苗代町","address":"窪南"},
{"zip_code":"9693101","kana_pref":"ﾌｸｼﾏｹﾝ","kana_city":"ﾔﾏｸﾞﾝｲﾅﾜｼﾛﾏﾁ","kana_address":"ｸﾞﾐｻﾞﾜﾊﾗ","pref":"福島県","city":"耶麻郡猪苗代町","address":"グミ沢原"},
{"zip_code":"9692752","kana_pref":"ﾌｸｼﾏｹﾝ","kana_city":"ﾔﾏｸﾞﾝｲﾅﾜｼﾛﾏﾁ","kana_address":"ｺｶﾞｲ","pref":"福島県","city":"耶麻郡猪苗代町","address":"蚕養"},
{"zip_code":"9693123","kana_pref":"ﾌｸｼﾏｹﾝ","kana_city":"ﾔﾏｸﾞﾝｲﾅﾜｼﾛﾏﾁ","kana_address":"ｺｼﾞｮｳｱﾄ","pref":"福島県","city":"耶麻郡猪苗代町","address":"古城跡"},
{"zip_code":"9693123","kana_pref":"ﾌｸｼﾏｹﾝ","kana_city":"ﾔﾏｸﾞﾝｲﾅﾜｼﾛﾏﾁ","kana_address":"ｺｼﾞｮｳﾏﾁ","pref":"福島県","city":"耶麻郡猪苗代町","address":"古城町"},
{"zip_code":"9693111","kana_pref":"ﾌｸｼﾏｹﾝ","kana_city":"ﾔﾏｸﾞﾝｲﾅﾜｼﾛﾏﾁ","kana_address":"ｺﾞｻﾝﾀﾞﾝ","pref":"福島県","city":"耶麻郡猪苗代町","address":"御三壇"},
{"zip_code":"9693111","kana_pref":"ﾌｸｼﾏｹﾝ","kana_city":"ﾔﾏｸﾞﾝｲﾅﾜｼﾛﾏﾁ","kana_address":"ｺﾞﾋｬｸｶﾞﾘ","pref":"福島県","city":"耶麻郡猪苗代町","address":"五百苅"},
{"zip_code":"9693103","kana_pref":"ﾌｸｼﾏｹﾝ","kana_city":"ﾔﾏｸﾞﾝｲﾅﾜｼﾛﾏﾁ","kana_address":"ｺﾞﾘﾝﾊﾟﾗ","pref":"福島県","city":"耶麻郡猪苗代町","address":"五輪原"},
{"zip_code":"9693122","kana_pref":"ﾌｸｼﾏｹﾝ","kana_city":"ﾔﾏｸﾞﾝｲﾅﾜｼﾛﾏﾁ","kana_address":"ｻｶｼﾀ","pref":"福島県","city":"耶麻郡猪苗代町","address":"坂下"},
{"zip_code":"9693111","kana_pref":"ﾌｸｼﾏｹﾝ","kana_city":"ﾔﾏｸﾞﾝｲﾅﾜｼﾛﾏﾁ","kana_address":"ｻﾙﾀﾞﾝ","pref":"福島県","city":"耶麻郡猪苗代町","address":"猿壇"},
{"zip_code":"9693282","kana_pref":"ﾌｸｼﾏｹﾝ","kana_city":"ﾔﾏｸﾞﾝｲﾅﾜｼﾛﾏﾁ","kana_address":"ｻﾝｼｮｳｻﾞﾜ","pref":"福島県","city":"耶麻郡猪苗代町","address":"酸奨沢"},
{"zip_code":"9693101","kana_pref":"ﾌｸｼﾏｹﾝ","kana_city":"ﾔﾏｸﾞﾝｲﾅﾜｼﾛﾏﾁ","kana_address":"ｼﾌﾞﾀﾆ","pref":"福島県","city":"耶麻郡猪苗代町","address":"渋谷"},
{"zip_code":"9693101","kana_pref":"ﾌｸｼﾏｹﾝ","kana_city":"ﾔﾏｸﾞﾝｲﾅﾜｼﾛﾏﾁ","kana_address":"ｼﾐｽﾞ","pref":"福島県","city":"耶麻郡猪苗代町","address":"清水"},
{"zip_code":"9693101","kana_pref":"ﾌｸｼﾏｹﾝ","kana_city":"ﾔﾏｸﾞﾝｲﾅﾜｼﾛﾏﾁ","kana_address":"ｼﾐｽﾞﾊﾞﾀ","pref":"福島県","city":"耶麻郡猪苗代町","address":"清水端"},
{"zip_code":"9693131","kana_pref":"ﾌｸｼﾏｹﾝ","kana_city":"ﾔﾏｸﾞﾝｲﾅﾜｼﾛﾏﾁ","kana_address":"ｼﾓｿﾞﾉ","pref":"福島県","city":"耶麻郡猪苗代町","address":"下園"},
{"zip_code":"9693101","kana_pref":"ﾌｸｼﾏｹﾝ","kana_city":"ﾔﾏｸﾞﾝｲﾅﾜｼﾛﾏﾁ","kana_address":"ｼﾓﾍﾝｻﾞﾜ","pref":"福島県","city":"耶麻郡猪苗代町","address":"下辺沢"},
{"zip_code":"9693101","kana_pref":"ﾌｸｼﾏｹﾝ","kana_city":"ﾔﾏｸﾞﾝｲﾅﾜｼﾛﾏﾁ","kana_address":"ｼｮｳﾌﾞﾀﾞ","pref":"福島県","city":"耶麻郡猪苗代町","address":"菖蒲田"},
{"zip_code":"9693123","kana_pref":"ﾌｸｼﾏｹﾝ","kana_city":"ﾔﾏｸﾞﾝｲﾅﾜｼﾛﾏﾁ","kana_address":"ｼﾛﾐﾅﾐ","pref":"福島県","city":"耶麻郡猪苗代町","address":"城南"},
{"zip_code":"9693113","kana_pref":"ﾌｸｼﾏｹﾝ","kana_city":"ﾔﾏｸﾞﾝｲﾅﾜｼﾛﾏﾁ","kana_address":"ｼﾝﾁ","pref":"福島県","city":"耶麻郡猪苗代町","address":"新地"},
{"zip_code":"9693101","kana_pref":"ﾌｸｼﾏｹﾝ","kana_city":"ﾔﾏｸﾞﾝｲﾅﾜｼﾛﾏﾁ","kana_address":"ｼﾝﾎﾞﾘﾀﾋｶﾞｼ","pref":"福島県","city":"耶麻郡猪苗代町","address":"新堀田東"},
{"zip_code":"9693131","kana_pref":"ﾌｸｼﾏｹﾝ","kana_city":"ﾔﾏｸﾞﾝｲﾅﾜｼﾛﾏﾁ","kana_address":"ｼﾝﾎﾞﾘﾑｶｲ","pref":"福島県","city":"耶麻郡猪苗代町","address":"新堀向"},
{"zip_code":"9693101","kana_pref":"ﾌｸｼﾏｹﾝ","kana_city":"ﾔﾏｸﾞﾝｲﾅﾜｼﾛﾏﾁ","kana_address":"ｼﾝﾎﾞﾘﾆｼ","pref":"福島県","city":"耶麻郡猪苗代町","address":"新堀西"},
{"zip_code":"9693103","kana_pref":"ﾌｸｼﾏｹﾝ","kana_city":"ﾔﾏｸﾞﾝｲﾅﾜｼﾛﾏﾁ","kana_address":"ｽﾜﾏｴ","pref":"福島県","city":"耶麻郡猪苗代町","address":"諏訪前"},
{"zip_code":"9693103","kana_pref":"ﾌｸｼﾏｹﾝ","kana_city":"ﾔﾏｸﾞﾝｲﾅﾜｼﾛﾏﾁ","kana_address":"ｽﾜﾋｶﾞｼ","pref":"福島県","city":"耶麻郡猪苗代町","address":"諏訪東"},
{"zip_code":"9693103","kana_pref":"ﾌｸｼﾏｹﾝ","kana_city":"ﾔﾏｸﾞﾝｲﾅﾜｼﾛﾏﾁ","kana_address":"ｽﾜﾆｼ","pref":"福島県","city":"耶麻郡猪苗代町","address":"諏訪西"},
{"zip_code":"9692273","kana_pref":"ﾌｸｼﾏｹﾝ","kana_city":"ﾔﾏｸﾞﾝｲﾅﾜｼﾛﾏﾁ","kana_address":"ｾｷﾄ","pref":"福島県","city":"耶麻郡猪苗代町","address":"関都"},
{"zip_code":"9693101","kana_pref":"ﾌｸｼﾏｹﾝ","kana_city":"ﾔﾏｸﾞﾝｲﾅﾜｼﾛﾏﾁ","kana_address":"ｾｷﾏｳｴ","pref":"福島県","city":"耶麻郡猪苗代町","address":"堰間上"},
{"zip_code":"9693101","kana_pref":"ﾌｸｼﾏｹﾝ","kana_city":"ﾔﾏｸﾞﾝｲﾅﾜｼﾛﾏﾁ","kana_address":"ｾﾘｻﾜ","pref":"福島県","city":"耶麻郡猪苗代町","address":"芹沢"},
{"zip_code":"9693113","kana_pref":"ﾌｸｼﾏｹﾝ","kana_city":"ﾔﾏｸﾞﾝｲﾅﾜｼﾛﾏﾁ","kana_address":"ﾁｬｴﾝ","pref":"福島県","city":"耶麻郡猪苗代町","address":"茶園"},
{"zip_code":"9693133","kana_pref":"ﾌｸｼﾏｹﾝ","kana_city":"ﾔﾏｸﾞﾝｲﾅﾜｼﾛﾏﾁ","kana_address":"ﾁﾖﾀﾞ","pref":"福島県","city":"耶麻郡猪苗代町","address":"千代田"},
{"zip_code":"9693122","kana_pref":"ﾌｸｼﾏｹﾝ","kana_city":"ﾔﾏｸﾞﾝｲﾅﾜｼﾛﾏﾁ","kana_address":"ﾂｶﾀ","pref":"福島県","city":"耶麻郡猪苗代町","address":"塚田"},
{"zip_code":"9693121","kana_pref":"ﾌｸｼﾏｹﾝ","kana_city":"ﾔﾏｸﾞﾝｲﾅﾜｼﾛﾏﾁ","kana_address":"ﾂｶﾞﾈｻﾜ","pref":"福島県","city":"耶麻郡猪苗代町","address":"津金沢"},
{"zip_code":"9693101","kana_pref":"ﾌｸｼﾏｹﾝ","kana_city":"ﾔﾏｸﾞﾝｲﾅﾜｼﾛﾏﾁ","kana_address":"ﾂﾁﾕｻﾜﾔﾏ","pref":"福島県","city":"耶麻郡猪苗代町","address":"土湯沢山"},
{"zip_code":"9693112","kana_pref":"ﾌｸｼﾏｹﾝ","kana_city":"ﾔﾏｸﾞﾝｲﾅﾜｼﾛﾏﾁ","kana_address":"ﾂﾂﾐ","pref":"福島県","city":"耶麻郡猪苗代町","address":"堤"},
{"zip_code":"9693113","kana_pref":"ﾌｸｼﾏｹﾝ","kana_city":"ﾔﾏｸﾞﾝｲﾅﾜｼﾛﾏﾁ","kana_address":"ﾂﾂﾐｼﾀ","pref":"福島県","city":"耶麻郡猪苗代町","address":"堤下"},
{"zip_code":"9693113","kana_pref":"ﾌｸｼﾏｹﾝ","kana_city":"ﾔﾏｸﾞﾝｲﾅﾜｼﾛﾏﾁ","kana_address":"ﾂﾂﾐｷﾀ","pref":"福島県","city":"耶麻郡猪苗代町","address":"堤北"},
{"zip_code":"9692274","kana_pref":"ﾌｸｼﾏｹﾝ","kana_city":"ﾔﾏｸﾞﾝｲﾅﾜｼﾛﾏﾁ","kana_address":"ﾂﾎﾞﾖｳ","pref":"福島県","city":"耶麻郡猪苗代町","address":"壺楊"},
{"zip_code":"9693123","kana_pref":"ﾌｸｼﾏｹﾝ","kana_city":"ﾔﾏｸﾞﾝｲﾅﾜｼﾛﾏﾁ","kana_address":"ﾂﾙﾀ","pref":"福島県","city":"耶麻郡猪苗代町","address":"鶴田"},
{"zip_code":"9693113","kana_pref":"ﾌｸｼﾏｹﾝ","kana_city":"ﾔﾏｸﾞﾝｲﾅﾜｼﾛﾏﾁ","kana_address":"ﾂﾙﾐﾈﾆｼ","pref":"福島県","city":"耶麻郡猪苗代町","address":"鶴峰西"},
{"zip_code":"9693112","kana_pref":"ﾌｸｼﾏｹﾝ","kana_city":"ﾔﾏｸﾞﾝｲﾅﾜｼﾛﾏﾁ","kana_address":"ﾃﾗｳｼﾛ","pref":"福島県","city":"耶麻郡猪苗代町","address":"寺後"},
{"zip_code":"9693121","kana_pref":"ﾌｸｼﾏｹﾝ","kana_city":"ﾔﾏｸﾞﾝｲﾅﾜｼﾛﾏﾁ","kana_address":"ﾃﾗﾋｶﾞｼ","pref":"福島県","city":"耶麻郡猪苗代町","address":"寺東"},
{"zip_code":"9693113","kana_pref":"ﾌｸｼﾏｹﾝ","kana_city":"ﾔﾏｸﾞﾝｲﾅﾜｼﾛﾏﾁ","kana_address":"ﾄｲﾊﾞ","pref":"福島県","city":"耶麻郡猪苗代町","address":"樋場"},
{"zip_code":"9693113","kana_pref":"ﾌｸｼﾏｹﾝ","kana_city":"ﾔﾏｸﾞﾝｲﾅﾜｼﾛﾏﾁ","kana_address":"ﾄｲﾊﾞﾐﾁｼﾀ","pref":"福島県","city":"耶麻郡猪苗代町","address":"樋場道下"},
{"zip_code":"9693101","kana_pref":"ﾌｸｼﾏｹﾝ","kana_city":"ﾔﾏｸﾞﾝｲﾅﾜｼﾛﾏﾁ","kana_address":"ﾄﾞﾃﾏ","pref":"福島県","city":"耶麻郡猪苗代町","address":"土手間"},
{"zip_code":"9692271","kana_pref":"ﾌｸｼﾏｹﾝ","kana_city":"ﾔﾏｸﾞﾝｲﾅﾜｼﾛﾏﾁ","kana_address":"ﾅｶｺﾏﾂ","pref":"福島県","city":"耶麻郡猪苗代町","address":"中小松"},
{"zip_code":"9693112","kana_pref":"ﾌｸｼﾏｹﾝ","kana_city":"ﾔﾏｸﾞﾝｲﾅﾜｼﾛﾏﾁ","kana_address":"ﾅｶﾏﾁ","pref":"福島県","city":"耶麻郡猪苗代町","address":"中町"},
{"zip_code":"9693101","kana_pref":"ﾌｸｼﾏｹﾝ","kana_city":"ﾔﾏｸﾞﾝｲﾅﾜｼﾛﾏﾁ","kana_address":"ﾅｶﾐﾁﾆｼ","pref":"福島県","city":"耶麻郡猪苗代町","address":"中道西"},
{"zip_code":"9693101","kana_pref":"ﾌｸｼﾏｹﾝ","kana_city":"ﾔﾏｸﾞﾝｲﾅﾜｼﾛﾏﾁ","kana_address":"ﾅｶﾞｻｶ","pref":"福島県","city":"耶麻郡猪苗代町","address":"長坂"},
{"zip_code":"9693121","kana_pref":"ﾌｸｼﾏｹﾝ","kana_city":"ﾔﾏｸﾞﾝｲﾅﾜｼﾛﾏﾁ","kana_address":"ﾅｼﾉｷﾆｼ","pref":"福島県","city":"耶麻郡猪苗代町","address":"梨木西"},
{"zip_code":"9693113","kana_pref":"ﾌｸｼﾏｹﾝ","kana_city":"ﾔﾏｸﾞﾝｲﾅﾜｼﾛﾏﾁ","kana_address":"ﾅﾐｽｷﾞﾆｼ","pref":"福島県","city":"耶麻郡猪苗代町","address":"並杉西"},
{"zip_code":"9693131","kana_pref":"ﾌｸｼﾏｹﾝ","kana_city":"ﾔﾏｸﾞﾝｲﾅﾜｼﾛﾏﾁ","kana_address":"ﾆｼﾀﾞﾃ","pref":"福島県","city":"耶麻郡猪苗代町","address":"西舘"},
{"zip_code":"9693281","kana_pref":"ﾌｸｼﾏｹﾝ","kana_city":"ﾔﾏｸﾞﾝｲﾅﾜｼﾛﾏﾁ","kana_address":"ﾆｼﾊﾔﾏ","pref":"福島県","city":"耶麻郡猪苗代町","address":"西葉山"},
{"zip_code":"9693102","kana_pref":"ﾌｸｼﾏｹﾝ","kana_city":"ﾔﾏｸﾞﾝｲﾅﾜｼﾛﾏﾁ","kana_address":"ﾆｼﾐﾈ","pref":"福島県","city":"耶麻郡猪苗代町","address":"西峰"},
{"zip_code":"9693111","kana_pref":"ﾌｸｼﾏｹﾝ","kana_city":"ﾔﾏｸﾞﾝｲﾅﾜｼﾛﾏﾁ","kana_address":"ﾆﾁｮｳﾀﾞ","pref":"福島県","city":"耶麻郡猪苗代町","address":"二丁田"},
{"zip_code":"9693111","kana_pref":"ﾌｸｼﾏｹﾝ","kana_city":"ﾔﾏｸﾞﾝｲﾅﾜｼﾛﾏﾁ","kana_address":"ﾇﾏﾀ","pref":"福島県","city":"耶麻郡猪苗代町","address":"沼田"},
{"zip_code":"9693101","kana_pref":"ﾌｸｼﾏｹﾝ","kana_city":"ﾔﾏｸﾞﾝｲﾅﾜｼﾛﾏﾁ","kana_address":"ﾇﾏﾉｸﾗ","pref":"福島県","city":"耶麻郡猪苗代町","address":"沼ノ倉"},
{"zip_code":"9693102","kana_pref":"ﾌｸｼﾏｹﾝ","kana_city":"ﾔﾏｸﾞﾝｲﾅﾜｼﾛﾏﾁ","kana_address":"ﾈｺｲｼﾔﾏ","pref":"福島県","city":"耶麻郡猪苗代町","address":"猫石山"},
{"zip_code":"9693103","kana_pref":"ﾌｸｼﾏｹﾝ","kana_city":"ﾔﾏｸﾞﾝｲﾅﾜｼﾛﾏﾁ","kana_address":"ﾈﾂｷﾞ","pref":"福島県","city":"耶麻郡猪苗代町","address":"禰次"},
{"zip_code":"9693113","kana_pref":"ﾌｸｼﾏｹﾝ","kana_city":"ﾔﾏｸﾞﾝｲﾅﾜｼﾛﾏﾁ","kana_address":"ﾊﾆﾏﾁ","pref":"福島県","city":"耶麻郡猪苗代町","address":"土町"},
{"zip_code":"9693113","kana_pref":"ﾌｸｼﾏｹﾝ","kana_city":"ﾔﾏｸﾞﾝｲﾅﾜｼﾛﾏﾁ","kana_address":"ﾊﾆﾏﾁﾆｼｳﾗ","pref":"福島県","city":"耶麻郡猪苗代町","address":"土町西裡"},
{"zip_code":"9693113","kana_pref":"ﾌｸｼﾏｹﾝ","kana_city":"ﾔﾏｸﾞﾝｲﾅﾜｼﾛﾏﾁ","kana_address":"ﾊﾆﾏﾁﾐﾅﾐ","pref":"福島県","city":"耶麻郡猪苗代町","address":"土町南"},
{"zip_code":"9693103","kana_pref":"ﾌｸｼﾏｹﾝ","kana_city":"ﾔﾏｸﾞﾝｲﾅﾜｼﾛﾏﾁ","kana_address":"ﾊﾉｷｻﾞﾜ","pref":"福島県","city":"耶麻郡猪苗代町","address":"ハノ木沢"},
{"zip_code":"9693112","kana_pref":"ﾌｸｼﾏｹﾝ","kana_city":"ﾔﾏｸﾞﾝｲﾅﾜｼﾛﾏﾁ","kana_address":"ﾊﾞﾊﾞ","pref":"福島県","city":"耶麻郡猪苗代町","address":"馬場"},
{"zip_code":"9693103","kana_pref":"ﾌｸｼﾏｹﾝ","kana_city":"ﾔﾏｸﾞﾝｲﾅﾜｼﾛﾏﾁ","kana_address":"ﾊﾔｼｻﾞｷ","pref":"福島県","city":"耶麻郡猪苗代町","address":"林崎"},
{"zip_code":"9693102","kana_pref":"ﾌｸｼﾏｹﾝ","kana_city":"ﾔﾏｸﾞﾝｲﾅﾜｼﾛﾏﾁ","kana_address":"ﾊﾔﾏ","pref":"福島県","city":"耶麻郡猪苗代町","address":"葉山"},
{"zip_code":"9693113","kana_pref":"ﾌｸｼﾏｹﾝ","kana_city":"ﾔﾏｸﾞﾝｲﾅﾜｼﾛﾏﾁ","kana_address":"ﾊﾝｻﾞｶ","pref":"福島県","city":"耶麻郡猪苗代町","address":"半坂"},
{"zip_code":"9693111","kana_pref":"ﾌｸｼﾏｹﾝ","kana_city":"ﾔﾏｸﾞﾝｲﾅﾜｼﾛﾏﾁ","kana_address":"ﾋｶﾞｼﾏﾁｳﾗ","pref":"福島県","city":"耶麻郡猪苗代町","address":"東町裏"},
{"zip_code":"9693131","kana_pref":"ﾌｸｼﾏｹﾝ","kana_city":"ﾔﾏｸﾞﾝｲﾅﾜｼﾛﾏﾁ","kana_address":"ﾋｶﾞｼﾔﾁ","pref":"福島県","city":"耶麻郡猪苗代町","address":"東谷地"},
{"zip_code":"9693102","kana_pref":"ﾌｸｼﾏｹﾝ","kana_city":"ﾔﾏｸﾞﾝｲﾅﾜｼﾛﾏﾁ","kana_address":"ﾋﾅｸｻ","pref":"福島県","city":"耶麻郡猪苗代町","address":"雛草"},
{"zip_code":"9693101","kana_pref":"ﾌｸｼﾏｹﾝ","kana_city":"ﾔﾏｸﾞﾝｲﾅﾜｼﾛﾏﾁ","kana_address":"ﾋﾞﾜｻﾜﾊﾗ","pref":"福島県","city":"耶麻郡猪苗代町","address":"琵琶沢原"},
{"zip_code":"9693287","kana_pref":"ﾌｸｼﾏｹﾝ","kana_city":"ﾔﾏｸﾞﾝｲﾅﾜｼﾛﾏﾁ","kana_address":"ﾌﾄﾞｳ","pref":"福島県","city":"耶麻郡猪苗代町","address":"不動"},
{"zip_code":"9693112","kana_pref":"ﾌｸｼﾏｹﾝ","kana_city":"ﾔﾏｸﾞﾝｲﾅﾜｼﾛﾏﾁ","kana_address":"ﾍﾞﾝｻﾞｲﾃﾝﾆｼ","pref":"福島県","city":"耶麻郡猪苗代町","address":"弁才天西"},
{"zip_code":"9693101","kana_pref":"ﾌｸｼﾏｹﾝ","kana_city":"ﾔﾏｸﾞﾝｲﾅﾜｼﾛﾏﾁ","kana_address":"ﾍﾝｻﾞﾜ","pref":"福島県","city":"耶麻郡猪苗代町","address":"辺沢"},
{"zip_code":"9693101","kana_pref":"ﾌｸｼﾏｹﾝ","kana_city":"ﾔﾏｸﾞﾝｲﾅﾜｼﾛﾏﾁ","kana_address":"ﾎﾄﾞﾂﾞｶ","pref":"福島県","city":"耶麻郡猪苗代町","address":"程塚"},
{"zip_code":"9693103","kana_pref":"ﾌｸｼﾏｹﾝ","kana_city":"ﾔﾏｸﾞﾝｲﾅﾜｼﾛﾏﾁ","kana_address":"ﾏﾁｼﾏﾀﾞ","pref":"福島県","city":"耶麻郡猪苗代町","address":"町島田"},
{"zip_code":"9693122","kana_pref":"ﾌｸｼﾏｹﾝ","kana_city":"ﾔﾏｸﾞﾝｲﾅﾜｼﾛﾏﾁ","kana_address":"ﾏﾁｼﾞﾘ","pref":"福島県","city":"耶麻郡猪苗代町","address":"町尻"},
{"zip_code":"9693121","kana_pref":"ﾌｸｼﾏｹﾝ","kana_city":"ﾔﾏｸﾞﾝｲﾅﾜｼﾛﾏﾁ","kana_address":"ﾏﾁﾋｶﾞｼ","pref":"福島県","city":"耶麻郡猪苗代町","address":"町東"},
{"zip_code":"9693113","kana_pref":"ﾌｸｼﾏｹﾝ","kana_city":"ﾔﾏｸﾞﾝｲﾅﾜｼﾛﾏﾁ","kana_address":"ﾏﾁﾆｼ","pref":"福島県","city":"耶麻郡猪苗代町","address":"町西"},
{"zip_code":"9692661","kana_pref":"ﾌｸｼﾏｹﾝ","kana_city":"ﾔﾏｸﾞﾝｲﾅﾜｼﾛﾏﾁ","kana_address":"ﾐｻﾄ","pref":"福島県","city":"耶麻郡猪苗代町","address":"三郷"},
{"zip_code":"9693101","kana_pref":"ﾌｸｼﾏｹﾝ","kana_city":"ﾔﾏｸﾞﾝｲﾅﾜｼﾛﾏﾁ","kana_address":"ﾐﾂﾔ","pref":"福島県","city":"耶麻郡猪苗代町","address":"三ツ屋"},
{"zip_code":"9693284","kana_pref":"ﾌｸｼﾏｹﾝ","kana_city":"ﾔﾏｸﾞﾝｲﾅﾜｼﾛﾏﾁ","kana_address":"ﾐﾂﾜ","pref":"福島県","city":"耶麻郡猪苗代町","address":"三ツ和"},
{"zip_code":"9693113","kana_pref":"ﾌｸｼﾏｹﾝ","kana_city":"ﾔﾏｸﾞﾝｲﾅﾜｼﾛﾏﾁ","kana_address":"ﾐﾅﾐﾊﾝｻﾞｶ","pref":"福島県","city":"耶麻郡猪苗代町","address":"南半坂"},
{"zip_code":"9693102","kana_pref":"ﾌｸｼﾏｹﾝ","kana_city":"ﾔﾏｸﾞﾝｲﾅﾜｼﾛﾏﾁ","kana_address":"ﾐﾈ","pref":"福島県","city":"耶麻郡猪苗代町","address":"見禰"},
{"zip_code":"9693102","kana_pref":"ﾌｸｼﾏｹﾝ","kana_city":"ﾔﾏｸﾞﾝｲﾅﾜｼﾛﾏﾁ","kana_address":"ﾐﾈﾔﾏ","pref":"福島県","city":"耶麻郡猪苗代町","address":"見禰山"},
{"zip_code":"9693111","kana_pref":"ﾌｸｼﾏｹﾝ","kana_city":"ﾔﾏｸﾞﾝｲﾅﾜｼﾛﾏﾁ","kana_address":"ﾐｮｳｴﾝ","pref":"福島県","city":"耶麻郡猪苗代町","address":"明円"},
{"zip_code":"9693101","kana_pref":"ﾌｸｼﾏｹﾝ","kana_city":"ﾔﾏｸﾞﾝｲﾅﾜｼﾛﾏﾁ","kana_address":"ﾑﾗﾅｶ","pref":"福島県","city":"耶麻郡猪苗代町","address":"村中"},
{"zip_code":"9693111","kana_pref":"ﾌｸｼﾏｹﾝ","kana_city":"ﾔﾏｸﾞﾝｲﾅﾜｼﾛﾏﾁ","kana_address":"ﾑﾗﾋｶﾞｼｼﾀ","pref":"福島県","city":"耶麻郡猪苗代町","address":"村東下"},
{"zip_code":"9693111","kana_pref":"ﾌｸｼﾏｹﾝ","kana_city":"ﾔﾏｸﾞﾝｲﾅﾜｼﾛﾏﾁ","kana_address":"ﾑﾗﾋｶﾞｼ","pref":"福島県","city":"耶麻郡猪苗代町","address":"村東"},
{"zip_code":"9693131","kana_pref":"ﾌｸｼﾏｹﾝ","kana_city":"ﾔﾏｸﾞﾝｲﾅﾜｼﾛﾏﾁ","kana_address":"ﾑﾗﾐﾅﾐ","pref":"福島県","city":"耶麻郡猪苗代町","address":"村南"},
{"zip_code":"9693101","kana_pref":"ﾌｸｼﾏｹﾝ","kana_city":"ﾔﾏｸﾞﾝｲﾅﾜｼﾛﾏﾁ","kana_address":"ﾑﾗｷﾀ","pref":"福島県","city":"耶麻郡猪苗代町","address":"村北"},
{"zip_code":"9693122","kana_pref":"ﾌｸｼﾏｹﾝ","kana_city":"ﾔﾏｸﾞﾝｲﾅﾜｼﾛﾏﾁ","kana_address":"ﾓﾄﾏﾁ","pref":"福島県","city":"耶麻郡猪苗代町","address":"本町"},
{"zip_code":"9692662","kana_pref":"ﾌｸｼﾏｹﾝ","kana_city":"ﾔﾏｸﾞﾝｲﾅﾜｼﾛﾏﾁ","kana_address":"ﾔﾊﾀ","pref":"福島県","city":"耶麻郡猪苗代町","address":"八幡"},
{"zip_code":"9693101","kana_pref":"ﾌｸｼﾏｹﾝ","kana_city":"ﾔﾏｸﾞﾝｲﾅﾜｼﾛﾏﾁ","kana_address":"ﾔﾏｶﾐﾊﾗ","pref":"福島県","city":"耶麻郡猪苗代町","address":"山神原"},
{"zip_code":"9692275","kana_pref":"ﾌｸｼﾏｹﾝ","kana_city":"ﾔﾏｸﾞﾝｲﾅﾜｼﾛﾏﾁ","kana_address":"ﾔﾏｶﾞﾀ","pref":"福島県","city":"耶麻郡猪苗代町","address":"山潟"},
{"zip_code":"9693121","kana_pref":"ﾌｸｼﾏｹﾝ","kana_city":"ﾔﾏｸﾞﾝｲﾅﾜｼﾛﾏﾁ","kana_address":"ﾖｺﾏｸﾘ","pref":"福島県","city":"耶麻郡猪苗代町","address":"横まくり"},
{"zip_code":"9693121","kana_pref":"ﾌｸｼﾏｹﾝ","kana_city":"ﾔﾏｸﾞﾝｲﾅﾜｼﾛﾏﾁ","kana_address":"ﾖｺﾏｸﾘ","pref":"福島県","city":"耶麻郡猪苗代町","address":"横マクリ"},
{"zip_code":"9693141","kana_pref":"ﾌｸｼﾏｹﾝ","kana_city":"ﾔﾏｸﾞﾝｲﾅﾜｼﾛﾏﾁ","kana_address":"ﾛｯｶｸ","pref":"福島県","city":"耶麻郡猪苗代町","address":"六角"},
{"zip_code":"9692751","kana_pref":"ﾌｸｼﾏｹﾝ","kana_city":"ﾔﾏｸﾞﾝｲﾅﾜｼﾛﾏﾁ","kana_address":"ﾜｶﾐﾔ","pref":"福島県","city":"耶麻郡猪苗代町","address":"若宮"},
{"zip_code":"9693288","kana_pref":"ﾌｸｼﾏｹﾝ","kana_city":"ﾔﾏｸﾞﾝｲﾅﾜｼﾛﾏﾁ","kana_address":"ﾜﾀﾊﾞ","pref":"福島県","city":"耶麻郡猪苗代町","address":"綿場"},
{"zip_code":"9696500","kana_pref":"ﾌｸｼﾏｹﾝ","kana_city":"ｶﾜﾇﾏｸﾞﾝｱｲﾂﾞﾊﾞﾝｹﾞﾏﾁ","kana_address":"","pref":"福島県","city":"河沼郡会津坂下町","address":""},
{"zip_code":"9696517","kana_pref":"ﾌｸｼﾏｹﾝ","kana_city":"ｶﾜﾇﾏｸﾞﾝｱｲﾂﾞﾊﾞﾝｹﾞﾏﾁ","kana_address":"ｱｲｶﾜ","pref":"福島県","city":"河沼郡会津坂下町","address":"合川"},
{"zip_code":"9696511","kana_pref":"ﾌｸｼﾏｹﾝ","kana_city":"ｶﾜﾇﾏｸﾞﾝｱｲﾂﾞﾊﾞﾝｹﾞﾏﾁ","kana_address":"ｱｵｷ","pref":"福島県","city":"河沼郡会津坂下町","address":"青木"},
{"zip_code":"9696518","kana_pref":"ﾌｸｼﾏｹﾝ","kana_city":"ｶﾜﾇﾏｸﾞﾝｱｲﾂﾞﾊﾞﾝｹﾞﾏﾁ","kana_address":"ｱｵﾂﾞ","pref":"福島県","city":"河沼郡会津坂下町","address":"青津"},
{"zip_code":"9696535","kana_pref":"ﾌｸｼﾏｹﾝ","kana_city":"ｶﾜﾇﾏｸﾞﾝｱｲﾂﾞﾊﾞﾝｹﾞﾏﾁ","kana_address":"ｲｴﾉﾏｴｵﾂ","pref":"福島県","city":"河沼郡会津坂下町","address":"家ノ前乙"},
{"zip_code":"9696553","kana_pref":"ﾌｸｼﾏｹﾝ","kana_city":"ｶﾜﾇﾏｸﾞﾝｱｲﾂﾞﾊﾞﾝｹﾞﾏﾁ","kana_address":"ｲｼﾀﾞ","pref":"福島県","city":"河沼郡会津坂下町","address":"石田"},
{"zip_code":"9696563","kana_pref":"ﾌｸｼﾏｹﾝ","kana_city":"ｶﾜﾇﾏｸﾞﾝｱｲﾂﾞﾊﾞﾝｹﾞﾏﾁ","kana_address":"ｲﾁﾅｶｼﾝﾁｮｳｺｳ","pref":"福島県","city":"河沼郡会津坂下町","address":"市中新町甲"},
{"zip_code":"9696536","kana_pref":"ﾌｸｼﾏｹﾝ","kana_city":"ｶﾜﾇﾏｸﾞﾝｱｲﾂﾞﾊﾞﾝｹﾞﾏﾁ","kana_address":"ｲﾁﾅｶ1ﾊﾞﾝｺｳ","pref":"福島県","city":"河沼郡会津坂下町","address":"市中一番甲"},
{"zip_code":"9696543","kana_pref":"ﾌｸｼﾏｹﾝ","kana_city":"ｶﾜﾇﾏｸﾞﾝｱｲﾂﾞﾊﾞﾝｹﾞﾏﾁ","kana_address":"ｲﾁﾅｶ2ﾊﾞﾝｺｳ","pref":"福島県","city":"河沼郡会津坂下町","address":"市中二番甲"},
{"zip_code":"9696547","kana_pref":"ﾌｸｼﾏｹﾝ","kana_city":"ｶﾜﾇﾏｸﾞﾝｱｲﾂﾞﾊﾞﾝｹﾞﾏﾁ","kana_address":"ｲﾁﾅｶ3ﾊﾞﾝｺｳ","pref":"福島県","city":"河沼郡会津坂下町","address":"市中三番甲"},
{"zip_code":"9696557","kana_pref":"ﾌｸｼﾏｹﾝ","kana_city":"ｶﾜﾇﾏｸﾞﾝｱｲﾂﾞﾊﾞﾝｹﾞﾏﾁ","kana_address":"ｲﾁﾅｶ4ﾊﾞﾝｺｳ","pref":"福島県","city":"河沼郡会津坂下町","address":"市中四番甲"},
{"zip_code":"9696562","kana_pref":"ﾌｸｼﾏｹﾝ","kana_city":"ｶﾜﾇﾏｸﾞﾝｱｲﾂﾞﾊﾞﾝｹﾞﾏﾁ","kana_address":"ｲｯﾁｮｳﾀﾞｺｳ","pref":"福島県","city":"河沼郡会津坂下町","address":"一丁田甲"},
{"zip_code":"9696566","kana_pref":"ﾌｸｼﾏｹﾝ","kana_city":"ｶﾜﾇﾏｸﾞﾝｱｲﾂﾞﾊﾞﾝｹﾞﾏﾁ","kana_address":"ｲﾅﾘﾂﾞｶ","pref":"福島県","city":"河沼郡会津坂下町","address":"稲荷塚"},
{"zip_code":"9696537","kana_pref":"ﾌｸｼﾏｹﾝ","kana_city":"ｶﾜﾇﾏｸﾞﾝｱｲﾂﾞﾊﾞﾝｹﾞﾏﾁ","kana_address":"ｲﾇｲｵﾂ","pref":"福島県","city":"河沼郡会津坂下町","address":"戌亥乙"},
{"zip_code":"9696576","kana_pref":"ﾌｸｼﾏｹﾝ","kana_city":"ｶﾜﾇﾏｸﾞﾝｱｲﾂﾞﾊﾞﾝｹﾞﾏﾁ","kana_address":"ｳｼｶﾜ","pref":"福島県","city":"河沼郡会津坂下町","address":"牛川"},
{"zip_code":"9696503","kana_pref":"ﾌｸｼﾏｹﾝ","kana_city":"ｶﾜﾇﾏｸﾞﾝｱｲﾂﾞﾊﾞﾝｹﾞﾏﾁ","kana_address":"ｳﾅｲ","pref":"福島県","city":"河沼郡会津坂下町","address":"宇内"},
{"zip_code":"9696538","kana_pref":"ﾌｸｼﾏｹﾝ","kana_city":"ｶﾜﾇﾏｸﾞﾝｱｲﾂﾞﾊﾞﾝｹﾞﾏﾁ","kana_address":"ｳﾊﾞｶﾞｼﾀｵﾂ","pref":"福島県","city":"河沼郡会津坂下町","address":"姥ケ下乙"},
{"zip_code":"9696523","kana_pref":"ﾌｸｼﾏｹﾝ","kana_city":"ｶﾜﾇﾏｸﾞﾝｱｲﾂﾞﾊﾞﾝｹﾞﾏﾁ","kana_address":"ｴﾋﾞｻｲ","pref":"福島県","city":"河沼郡会津坂下町","address":"海老細"},
{"zip_code":"9696519","kana_pref":"ﾌｸｼﾏｹﾝ","kana_city":"ｶﾜﾇﾏｸﾞﾝｱｲﾂﾞﾊﾞﾝｹﾞﾏﾁ","kana_address":"ｵｲｹﾀﾞ","pref":"福島県","city":"河沼郡会津坂下町","address":"御池田"},
{"zip_code":"9696573","kana_pref":"ﾌｸｼﾏｹﾝ","kana_city":"ｶﾜﾇﾏｸﾞﾝｱｲﾂﾞﾊﾞﾝｹﾞﾏﾁ","kana_address":"ｵｵｵｷ","pref":"福島県","city":"河沼郡会津坂下町","address":"大沖"},
{"zip_code":"9696507","kana_pref":"ﾌｸｼﾏｹﾝ","kana_city":"ｶﾜﾇﾏｸﾞﾝｱｲﾂﾞﾊﾞﾝｹﾞﾏﾁ","kana_address":"ｵｵｶﾐ","pref":"福島県","city":"河沼郡会津坂下町","address":"大上"},
{"zip_code":"9696544","kana_pref":"ﾌｸｼﾏｹﾝ","kana_city":"ｶﾜﾇﾏｸﾞﾝｱｲﾂﾞﾊﾞﾝｹﾞﾏﾁ","kana_address":"ｵｵﾎﾘｶﾜﾆｼｺｳ","pref":"福島県","city":"河沼郡会津坂下町","address":"大堀川西甲"},
{"zip_code":"9696534","kana_pref":"ﾌｸｼﾏｹﾝ","kana_city":"ｶﾜﾇﾏｸﾞﾝｱｲﾂﾞﾊﾞﾝｹﾞﾏﾁ","kana_address":"ｵｶﾞﾜﾊﾗ","pref":"福島県","city":"河沼郡会津坂下町","address":"小川原"},
{"zip_code":"9696525","kana_pref":"ﾌｸｼﾏｹﾝ","kana_city":"ｶﾜﾇﾏｸﾞﾝｱｲﾂﾞﾊﾞﾝｹﾞﾏﾁ","kana_address":"ｶｲﾂﾞ","pref":"福島県","city":"河沼郡会津坂下町","address":"開津"},
{"zip_code":"9696581","kana_pref":"ﾌｸｼﾏｹﾝ","kana_city":"ｶﾜﾇﾏｸﾞﾝｱｲﾂﾞﾊﾞﾝｹﾞﾏﾁ","kana_address":"ｶﾀｶﾄﾞ","pref":"福島県","city":"河沼郡会津坂下町","address":"片門"},
{"zip_code":"9696575","kana_pref":"ﾌｸｼﾏｹﾝ","kana_city":"ｶﾜﾇﾏｸﾞﾝｱｲﾂﾞﾊﾞﾝｹﾞﾏﾁ","kana_address":"ｶﾂｵｵ","pref":"福島県","city":"河沼郡会津坂下町","address":"勝大"},
{"zip_code":"9696521","kana_pref":"ﾌｸｼﾏｹﾝ","kana_city":"ｶﾜﾇﾏｸﾞﾝｱｲﾂﾞﾊﾞﾝｹﾞﾏﾁ","kana_address":"ｶﾅｶﾞﾐ","pref":"福島県","city":"河沼郡会津坂下町","address":"金上"},
{"zip_code":"9696538","kana_pref":"ﾌｸｼﾏｹﾝ","kana_city":"ｶﾜﾇﾏｸﾞﾝｱｲﾂﾞﾊﾞﾝｹﾞﾏﾁ","kana_address":"ｶﾐｸﾎﾞﾐﾁｷﾀｵﾂ","pref":"福島県","city":"河沼郡会津坂下町","address":"上窪道北乙"},
{"zip_code":"9696541","kana_pref":"ﾌｸｼﾏｹﾝ","kana_city":"ｶﾜﾇﾏｸﾞﾝｱｲﾂﾞﾊﾞﾝｹﾞﾏﾁ","kana_address":"ｶﾐｼｼﾞｭﾂｺｸｺｳ","pref":"福島県","city":"河沼郡会津坂下町","address":"上四十石甲"},
{"zip_code":"9696538","kana_pref":"ﾌｸｼﾏｹﾝ","kana_city":"ｶﾜﾇﾏｸﾞﾝｱｲﾂﾞﾊﾞﾝｹﾞﾏﾁ","kana_address":"ｶﾐﾇﾏﾉｳｴﾍｲ","pref":"福島県","city":"河沼郡会津坂下町","address":"上沼ノ上丙"},
{"zip_code":"9696533","kana_pref":"ﾌｸｼﾏｹﾝ","kana_city":"ｶﾜﾇﾏｸﾞﾝｱｲﾂﾞﾊﾞﾝｹﾞﾏﾁ","kana_address":"ｶﾐﾉﾀﾞｲｵﾂ","pref":"福島県","city":"河沼郡会津坂下町","address":"上ノ台乙"},
{"zip_code":"9696534","kana_pref":"ﾌｸｼﾏｹﾝ","kana_city":"ｶﾜﾇﾏｸﾞﾝｱｲﾂﾞﾊﾞﾝｹﾞﾏﾁ","kana_address":"ｷﾀｵｶﾞﾜﾊﾗｵﾂ","pref":"福島県","city":"河沼郡会津坂下町","address":"北小川原乙"},
{"zip_code":"9696556","kana_pref":"ﾌｸｼﾏｹﾝ","kana_city":"ｶﾜﾇﾏｸﾞﾝｱｲﾂﾞﾊﾞﾝｹﾞﾏﾁ","kana_address":"ｷﾀｻｶﾐｽﾞｺｳ","pref":"福島県","city":"河沼郡会津坂下町","address":"北逆水甲"},
{"zip_code":"9696583","kana_pref":"ﾌｸｼﾏｹﾝ","kana_city":"ｶﾜﾇﾏｸﾞﾝｱｲﾂﾞﾊﾞﾝｹﾞﾏﾁ","kana_address":"ｹﾀﾉﾐﾔ","pref":"福島県","city":"河沼郡会津坂下町","address":"気多宮"},
{"zip_code":"9696542","kana_pref":"ﾌｸｼﾏｹﾝ","kana_city":"ｶﾜﾇﾏｸﾞﾝｱｲﾂﾞﾊﾞﾝｹﾞﾏﾁ","kana_address":"ｺｳﾐｮｳｼﾞﾋｶﾞｼｺｳ","pref":"福島県","city":"河沼郡会津坂下町","address":"光明寺東甲"},
{"zip_code":"9696514","kana_pref":"ﾌｸｼﾏｹﾝ","kana_city":"ｶﾜﾇﾏｸﾞﾝｱｲﾂﾞﾊﾞﾝｹﾞﾏﾁ","kana_address":"ｺﾞｶ","pref":"福島県","city":"河沼郡会津坂下町","address":"五香"},
{"zip_code":"9696545","kana_pref":"ﾌｸｼﾏｹﾝ","kana_city":"ｶﾜﾇﾏｸﾞﾝｱｲﾂﾞﾊﾞﾝｹﾞﾏﾁ","kana_address":"ｺﾞﾀﾝﾀﾞ","pref":"福島県","city":"河沼郡会津坂下町","address":"五反田"},
{"zip_code":"9696526","kana_pref":"ﾌｸｼﾏｹﾝ","kana_city":"ｶﾜﾇﾏｸﾞﾝｱｲﾂﾞﾊﾞﾝｹﾞﾏﾁ","kana_address":"ｺﾞﾉﾍｲ","pref":"福島県","city":"河沼郡会津坂下町","address":"五ノ併"},
{"zip_code":"9696556","kana_pref":"ﾌｸｼﾏｹﾝ","kana_city":"ｶﾜﾇﾏｸﾞﾝｱｲﾂﾞﾊﾞﾝｹﾞﾏﾁ","kana_address":"ｻｶﾐｽﾞ","pref":"福島県","city":"河沼郡会津坂下町","address":"逆水"},
{"zip_code":"9696586","kana_pref":"ﾌｸｼﾏｹﾝ","kana_city":"ｶﾜﾇﾏｸﾞﾝｱｲﾂﾞﾊﾞﾝｹﾞﾏﾁ","kana_address":"ｻｶﾓﾄ","pref":"福島県","city":"河沼郡会津坂下町","address":"坂本"},
{"zip_code":"9696555","kana_pref":"ﾌｸｼﾏｹﾝ","kana_city":"ｶﾜﾇﾏｸﾞﾝｱｲﾂﾞﾊﾞﾝｹﾞﾏﾁ","kana_address":"ｻﾜﾉﾒ","pref":"福島県","city":"河沼郡会津坂下町","address":"沢ノ目"},
{"zip_code":"9696541","kana_pref":"ﾌｸｼﾏｹﾝ","kana_city":"ｶﾜﾇﾏｸﾞﾝｱｲﾂﾞﾊﾞﾝｹﾞﾏﾁ","kana_address":"ｼｼﾞｭﾂｺｸ","pref":"福島県","city":"河沼郡会津坂下町","address":"四十石"},
{"zip_code":"9696531","kana_pref":"ﾌｸｼﾏｹﾝ","kana_city":"ｶﾜﾇﾏｸﾞﾝｱｲﾂﾞﾊﾞﾝｹﾞﾏﾁ","kana_address":"ｼﾞｮｳｸﾞﾁ","pref":"福島県","city":"河沼郡会津坂下町","address":"上口"},
{"zip_code":"9696528","kana_pref":"ﾌｸｼﾏｹﾝ","kana_city":"ｶﾜﾇﾏｸﾞﾝｱｲﾂﾞﾊﾞﾝｹﾞﾏﾁ","kana_address":"ｼﾝｶｲﾂﾞ","pref":"福島県","city":"河沼郡会津坂下町","address":"新開津"},
{"zip_code":"9696553","kana_pref":"ﾌｸｼﾏｹﾝ","kana_city":"ｶﾜﾇﾏｸﾞﾝｱｲﾂﾞﾊﾞﾝｹﾞﾏﾁ","kana_address":"ｾｲﾅﾝﾏﾁｳﾗｺｳ","pref":"福島県","city":"河沼郡会津坂下町","address":"西南町裏甲"},
{"zip_code":"9696565","kana_pref":"ﾌｸｼﾏｹﾝ","kana_city":"ｶﾜﾇﾏｸﾞﾝｱｲﾂﾞﾊﾞﾝｹﾞﾏﾁ","kana_address":"ｿｳﾛｸ","pref":"福島県","city":"河沼郡会津坂下町","address":"惣六"},
{"zip_code":"9696561","kana_pref":"ﾌｸｼﾏｹﾝ","kana_city":"ｶﾜﾇﾏｸﾞﾝｱｲﾂﾞﾊﾞﾝｹﾞﾏﾁ","kana_address":"ﾀﾞｲﾄﾞｳ","pref":"福島県","city":"河沼郡会津坂下町","address":"大道"},
{"zip_code":"9696533","kana_pref":"ﾌｸｼﾏｹﾝ","kana_city":"ｶﾜﾇﾏｸﾞﾝｱｲﾂﾞﾊﾞﾝｹﾞﾏﾁ","kana_address":"ﾀﾞｲﾉｼﾀ","pref":"福島県","city":"河沼郡会津坂下町","address":"台ノ下"},
{"zip_code":"9696582","kana_pref":"ﾌｸｼﾏｹﾝ","kana_city":"ｶﾜﾇﾏｸﾞﾝｱｲﾂﾞﾊﾞﾝｹﾞﾏﾁ","kana_address":"ﾀｶﾃﾗ","pref":"福島県","city":"河沼郡会津坂下町","address":"高寺"},
{"zip_code":"9696513","kana_pref":"ﾌｸｼﾏｹﾝ","kana_city":"ｶﾜﾇﾏｸﾞﾝｱｲﾂﾞﾊﾞﾝｹﾞﾏﾁ","kana_address":"ﾀﾁｶﾜ","pref":"福島県","city":"河沼郡会津坂下町","address":"立川"},
{"zip_code":"9696552","kana_pref":"ﾌｸｼﾏｹﾝ","kana_city":"ｶﾜﾇﾏｸﾞﾝｱｲﾂﾞﾊﾞﾝｹﾞﾏﾁ","kana_address":"ﾀﾃﾉｳﾁｺｳ","pref":"福島県","city":"河沼郡会津坂下町","address":"舘ノ内甲"},
{"zip_code":"9696551","kana_pref":"ﾌｸｼﾏｹﾝ","kana_city":"ｶﾜﾇﾏｸﾞﾝｱｲﾂﾞﾊﾞﾝｹﾞﾏﾁ","kana_address":"ﾀﾃﾉｼﾀ","pref":"福島県","city":"河沼郡会津坂下町","address":"舘ノ下"},
{"zip_code":"9696587","kana_pref":"ﾌｸｼﾏｹﾝ","kana_city":"ｶﾜﾇﾏｸﾞﾝｱｲﾂﾞﾊﾞﾝｹﾞﾏﾁ","kana_address":"ﾀﾊﾞﾈﾏﾂ","pref":"福島県","city":"河沼郡会津坂下町","address":"束松"},
{"zip_code":"9696548","kana_pref":"ﾌｸｼﾏｹﾝ","kana_city":"ｶﾜﾇﾏｸﾞﾝｱｲﾂﾞﾊﾞﾝｹﾞﾏﾁ","kana_address":"ﾁｬﾔﾏﾁｺｳ","pref":"福島県","city":"河沼郡会津坂下町","address":"茶屋町甲"},
{"zip_code":"9696524","kana_pref":"ﾌｸｼﾏｹﾝ","kana_city":"ｶﾜﾇﾏｸﾞﾝｱｲﾂﾞﾊﾞﾝｹﾞﾏﾁ","kana_address":"ﾂｶﾊﾗ","pref":"福島県","city":"河沼郡会津坂下町","address":"束原"},
{"zip_code":"9696502","kana_pref":"ﾌｸｼﾏｹﾝ","kana_city":"ｶﾜﾇﾏｸﾞﾝｱｲﾂﾞﾊﾞﾝｹﾞﾏﾁ","kana_address":"ﾂｼﾞﾘ","pref":"福島県","city":"河沼郡会津坂下町","address":"津尻"},
{"zip_code":"9696574","kana_pref":"ﾌｸｼﾏｹﾝ","kana_city":"ｶﾜﾇﾏｸﾞﾝｱｲﾂﾞﾊﾞﾝｹﾞﾏﾁ","kana_address":"ﾄｲｼﾏ","pref":"福島県","city":"河沼郡会津坂下町","address":"樋島"},
{"zip_code":"9696584","kana_pref":"ﾌｸｼﾏｹﾝ","kana_city":"ｶﾜﾇﾏｸﾞﾝｱｲﾂﾞﾊﾞﾝｹﾞﾏﾁ","kana_address":"ﾄｳﾃﾞﾗ","pref":"福島県","city":"河沼郡会津坂下町","address":"塔寺"},
{"zip_code":"9696544","kana_pref":"ﾌｸｼﾏｹﾝ","kana_city":"ｶﾜﾇﾏｸﾞﾝｱｲﾂﾞﾊﾞﾝｹﾞﾏﾁ","kana_address":"ﾄｳﾅﾝﾏﾁｳﾗｺｳ","pref":"福島県","city":"河沼郡会津坂下町","address":"東南町裏甲"},
{"zip_code":"9696516","kana_pref":"ﾌｸｼﾏｹﾝ","kana_city":"ｶﾜﾇﾏｸﾞﾝｱｲﾂﾞﾊﾞﾝｹﾞﾏﾁ","kana_address":"ﾅｶｲｽﾞﾐ","pref":"福島県","city":"河沼郡会津坂下町","address":"中泉"},
{"zip_code":"9696564","kana_pref":"ﾌｸｼﾏｹﾝ","kana_city":"ｶﾜﾇﾏｸﾞﾝｱｲﾂﾞﾊﾞﾝｹﾞﾏﾁ","kana_address":"ﾅｶｲﾜﾀ","pref":"福島県","city":"河沼郡会津坂下町","address":"中岩田"},
{"zip_code":"9696562","kana_pref":"ﾌｸｼﾏｹﾝ","kana_city":"ｶﾜﾇﾏｸﾞﾝｱｲﾂﾞﾊﾞﾝｹﾞﾏﾁ","kana_address":"ﾅｶｵｶｺｳ","pref":"福島県","city":"河沼郡会津坂下町","address":"中岡甲"},
{"zip_code":"9696501","kana_pref":"ﾌｸｼﾏｹﾝ","kana_city":"ｶﾜﾇﾏｸﾞﾝｱｲﾂﾞﾊﾞﾝｹﾞﾏﾁ","kana_address":"ﾅｶﾞｲ","pref":"福島県","city":"河沼郡会津坂下町","address":"長井"},
{"zip_code":"9696505","kana_pref":"ﾌｸｼﾏｹﾝ","kana_city":"ｶﾜﾇﾏｸﾞﾝｱｲﾂﾞﾊﾞﾝｹﾞﾏﾁ","kana_address":"ﾆｲﾀﾞﾃ","pref":"福島県","city":"河沼郡会津坂下町","address":"新舘"},
{"zip_code":"9696537","kana_pref":"ﾌｸｼﾏｹﾝ","kana_city":"ｶﾜﾇﾏｸﾞﾝｱｲﾂﾞﾊﾞﾝｹﾞﾏﾁ","kana_address":"ﾆｼﾉﾐﾔｵﾂ","pref":"福島県","city":"河沼郡会津坂下町","address":"西ノ宮乙"},
{"zip_code":"9696512","kana_pref":"ﾌｸｼﾏｹﾝ","kana_city":"ｶﾜﾇﾏｸﾞﾝｱｲﾂﾞﾊﾞﾝｹﾞﾏﾁ","kana_address":"ﾇﾏｺｼ","pref":"福島県","city":"河沼郡会津坂下町","address":"沼越"},
{"zip_code":"9696567","kana_pref":"ﾌｸｼﾏｹﾝ","kana_city":"ｶﾜﾇﾏｸﾞﾝｱｲﾂﾞﾊﾞﾝｹﾞﾏﾁ","kana_address":"ﾇﾏﾀｺｳ","pref":"福島県","city":"河沼郡会津坂下町","address":"沼田甲"},
{"zip_code":"9696572","kana_pref":"ﾌｸｼﾏｹﾝ","kana_city":"ｶﾜﾇﾏｸﾞﾝｱｲﾂﾞﾊﾞﾝｹﾞﾏﾁ","kana_address":"ﾊﾊﾞﾔｼ","pref":"福島県","city":"河沼郡会津坂下町","address":"羽林"},
{"zip_code":"9696534","kana_pref":"ﾌｸｼﾏｹﾝ","kana_city":"ｶﾜﾇﾏｸﾞﾝｱｲﾂﾞﾊﾞﾝｹﾞﾏﾁ","kana_address":"ﾊﾗﾐﾁﾋｶﾞｼｺｳ","pref":"福島県","city":"河沼郡会津坂下町","address":"原道東甲"},
{"zip_code":"9696532","kana_pref":"ﾌｸｼﾏｹﾝ","kana_city":"ｶﾜﾇﾏｸﾞﾝｱｲﾂﾞﾊﾞﾝｹﾞﾏﾁ","kana_address":"ﾋｶﾞｼｶﾜﾏｴﾍｲ","pref":"福島県","city":"河沼郡会津坂下町","address":"東川前丙"},
{"zip_code":"9696531","kana_pref":"ﾌｸｼﾏｹﾝ","kana_city":"ｶﾜﾇﾏｸﾞﾝｱｲﾂﾞﾊﾞﾝｹﾞﾏﾁ","kana_address":"ﾋｶﾞｼｼﾞｮｳｸﾞﾁｺｳ","pref":"福島県","city":"河沼郡会津坂下町","address":"東上口甲"},
{"zip_code":"9696535","kana_pref":"ﾌｸｼﾏｹﾝ","kana_city":"ｶﾜﾇﾏｸﾞﾝｱｲﾂﾞﾊﾞﾝｹﾞﾏﾁ","kana_address":"ﾋｶﾞｼﾔｼｷｿﾞｴｵﾂ","pref":"福島県","city":"河沼郡会津坂下町","address":"東屋敷添乙"},
{"zip_code":"9696571","kana_pref":"ﾌｸｼﾏｹﾝ","kana_city":"ｶﾜﾇﾏｸﾞﾝｱｲﾂﾞﾊﾞﾝｹﾞﾏﾁ","kana_address":"ﾋﾞｬｯｺ","pref":"福島県","city":"河沼郡会津坂下町","address":"白狐"},
{"zip_code":"9696527","kana_pref":"ﾌｸｼﾏｹﾝ","kana_city":"ｶﾜﾇﾏｸﾞﾝｱｲﾂﾞﾊﾞﾝｹﾞﾏﾁ","kana_address":"ﾌｸﾊﾗ","pref":"福島県","city":"河沼郡会津坂下町","address":"福原"},
{"zip_code":"9696515","kana_pref":"ﾌｸｼﾏｹﾝ","kana_city":"ｶﾜﾇﾏｸﾞﾝｱｲﾂﾞﾊﾞﾝｹﾞﾏﾁ","kana_address":"ﾌｸﾊﾗﾏｴ","pref":"福島県","city":"河沼郡会津坂下町","address":"福原前"},
{"zip_code":"9696585","kana_pref":"ﾌｸｼﾏｹﾝ","kana_city":"ｶﾜﾇﾏｸﾞﾝｱｲﾂﾞﾊﾞﾝｹﾞﾏﾁ","kana_address":"ﾌﾅｽｷﾞ","pref":"福島県","city":"河沼郡会津坂下町","address":"船杉"},
{"zip_code":"9696539","kana_pref":"ﾌｸｼﾏｹﾝ","kana_city":"ｶﾜﾇﾏｸﾞﾝｱｲﾂﾞﾊﾞﾝｹﾞﾏﾁ","kana_address":"ﾌﾙｲﾁｵﾂ","pref":"福島県","city":"河沼郡会津坂下町","address":"古市乙"},
{"zip_code":"9696549","kana_pref":"ﾌｸｼﾏｹﾝ","kana_city":"ｶﾜﾇﾏｸﾞﾝｱｲﾂﾞﾊﾞﾝｹﾞﾏﾁ","kana_address":"ﾌﾙﾏﾁｶﾜｼﾞﾘ","pref":"福島県","city":"河沼郡会津坂下町","address":"古町川尻"},
{"zip_code":"9696542","kana_pref":"ﾌｸｼﾏｹﾝ","kana_city":"ｶﾜﾇﾏｸﾞﾝｱｲﾂﾞﾊﾞﾝｹﾞﾏﾁ","kana_address":"ﾌﾙﾔｼｷｺｳ","pref":"福島県","city":"河沼郡会津坂下町","address":"古屋敷甲"},
{"zip_code":"9696546","kana_pref":"ﾌｸｼﾏｹﾝ","kana_city":"ｶﾜﾇﾏｸﾞﾝｱｲﾂﾞﾊﾞﾝｹﾞﾏﾁ","kana_address":"ﾏｶﾞﾘﾀﾞ","pref":"福島県","city":"河沼郡会津坂下町","address":"曲田"},
{"zip_code":"9696554","kana_pref":"ﾌｸｼﾏｹﾝ","kana_city":"ｶﾜﾇﾏｸﾞﾝｱｲﾂﾞﾊﾞﾝｹﾞﾏﾁ","kana_address":"ﾏﾂﾉﾒ","pref":"福島県","city":"河沼郡会津坂下町","address":"松ノ目"},
{"zip_code":"9696519","kana_pref":"ﾌｸｼﾏｹﾝ","kana_city":"ｶﾜﾇﾏｸﾞﾝｱｲﾂﾞﾊﾞﾝｹﾞﾏﾁ","kana_address":"ﾐﾀﾆ","pref":"福島県","city":"河沼郡会津坂下町","address":"三谷"},
{"zip_code":"9696532","kana_pref":"ﾌｸｼﾏｹﾝ","kana_city":"ｶﾜﾇﾏｸﾞﾝｱｲﾂﾞﾊﾞﾝｹﾞﾏﾁ","kana_address":"ﾐﾁｼﾀﾍｲ","pref":"福島県","city":"河沼郡会津坂下町","address":"道下丙"},
{"zip_code":"9696506","kana_pref":"ﾌｸｼﾏｹﾝ","kana_city":"ｶﾜﾇﾏｸﾞﾝｱｲﾂﾞﾊﾞﾝｹﾞﾏﾁ","kana_address":"ﾐﾐｮｳ","pref":"福島県","city":"河沼郡会津坂下町","address":"見明"},
{"zip_code":"9696522","kana_pref":"ﾌｸｼﾏｹﾝ","kana_city":"ｶﾜﾇﾏｸﾞﾝｱｲﾂﾞﾊﾞﾝｹﾞﾏﾁ","kana_address":"ﾐﾔｺ","pref":"福島県","city":"河沼郡会津坂下町","address":"宮古"},
{"zip_code":"9696504","kana_pref":"ﾌｸｼﾏｹﾝ","kana_city":"ｶﾜﾇﾏｸﾞﾝｱｲﾂﾞﾊﾞﾝｹﾞﾏﾁ","kana_address":"ﾖｳｶｻﾞﾜ","pref":"福島県","city":"河沼郡会津坂下町","address":"八日沢"},
{"zip_code":"9693500","kana_pref":"ﾌｸｼﾏｹﾝ","kana_city":"ｶﾜﾇﾏｸﾞﾝﾕｶﾞﾜﾑﾗ","kana_address":"","pref":"福島県","city":"河沼郡湯川村","address":""},
{"zip_code":"9693543","kana_pref":"ﾌｸｼﾏｹﾝ","kana_city":"ｶﾜﾇﾏｸﾞﾝﾕｶﾞﾜﾑﾗ","kana_address":"ｵｲｶﾜ","pref":"福島県","city":"河沼郡湯川村","address":"笈川"},
{"zip_code":"9693554","kana_pref":"ﾌｸｼﾏｹﾝ","kana_city":"ｶﾜﾇﾏｸﾞﾝﾕｶﾞﾜﾑﾗ","kana_address":"ｸﾏﾉﾒ","pref":"福島県","city":"河沼郡湯川村","address":"熊ノ目"},
{"zip_code":"9693545","kana_pref":"ﾌｸｼﾏｹﾝ","kana_city":"ｶﾜﾇﾏｸﾞﾝﾕｶﾞﾜﾑﾗ","kana_address":"ｻｸﾗﾏﾁ","pref":"福島県","city":"河沼郡湯川村","address":"桜町"},
{"zip_code":"9693555","kana_pref":"ﾌｸｼﾏｹﾝ","kana_city":"ｶﾜﾇﾏｸﾞﾝﾕｶﾞﾜﾑﾗ","kana_address":"ｻﾉﾒ","pref":"福島県","city":"河沼郡湯川村","address":"佐野目"},
{"zip_code":"9693544","kana_pref":"ﾌｸｼﾏｹﾝ","kana_city":"ｶﾜﾇﾏｸﾞﾝﾕｶﾞﾜﾑﾗ","kana_address":"ｼﾐｽﾞﾀﾞ","pref":"福島県","city":"河沼郡湯川村","address":"清水田"},
{"zip_code":"9693556","kana_pref":"ﾌｸｼﾏｹﾝ","kana_city":"ｶﾜﾇﾏｸﾞﾝﾕｶﾞﾜﾑﾗ","kana_address":"ｼｮｳｼﾞｮｳ","pref":"福島県","city":"河沼郡湯川村","address":"勝常"},
{"zip_code":"9693553","kana_pref":"ﾌｸｼﾏｹﾝ","kana_city":"ｶﾜﾇﾏｸﾞﾝﾕｶﾞﾜﾑﾗ","kana_address":"ﾀｶﾞﾜ","pref":"福島県","city":"河沼郡湯川村","address":"田川"},
{"zip_code":"9693551","kana_pref":"ﾌｸｼﾏｹﾝ","kana_city":"ｶﾜﾇﾏｸﾞﾝﾕｶﾞﾜﾑﾗ","kana_address":"ﾄﾞｳﾊﾞﾀｹ","pref":"福島県","city":"河沼郡湯川村","address":"堂畑"},
{"zip_code":"9693541","kana_pref":"ﾌｸｼﾏｹﾝ","kana_city":"ｶﾜﾇﾏｸﾞﾝﾕｶﾞﾜﾑﾗ","kana_address":"ﾊﾏｻｷ","pref":"福島県","city":"河沼郡湯川村","address":"浜崎"},
{"zip_code":"9693552","kana_pref":"ﾌｸｼﾏｹﾝ","kana_city":"ｶﾜﾇﾏｸﾞﾝﾕｶﾞﾜﾑﾗ","kana_address":"ﾐｶﾜ","pref":"福島県","city":"河沼郡湯川村","address":"三川"},
{"zip_code":"9693542","kana_pref":"ﾌｸｼﾏｹﾝ","kana_city":"ｶﾜﾇﾏｸﾞﾝﾕｶﾞﾜﾑﾗ","kana_address":"ﾐﾅﾄ","pref":"福島県","city":"河沼郡湯川村","address":"湊"},
{"zip_code":"9697200","kana_pref":"ﾌｸｼﾏｹﾝ","kana_city":"ｶﾜﾇﾏｸﾞﾝﾔﾅｲﾂﾞﾏﾁ","kana_address":"","pref":"福島県","city":"河沼郡柳津町","address":""},
{"zip_code":"9697206","kana_pref":"ﾌｸｼﾏｹﾝ","kana_city":"ｶﾜﾇﾏｸﾞﾝﾔﾅｲﾂﾞﾏﾁ","kana_address":"ｲｲﾀﾆ","pref":"福島県","city":"河沼郡柳津町","address":"飯谷"},
{"zip_code":"9697204","kana_pref":"ﾌｸｼﾏｹﾝ","kana_city":"ｶﾜﾇﾏｸﾞﾝﾔﾅｲﾂﾞﾏﾁ","kana_address":"ｲｸﾗﾉ","pref":"福島県","city":"河沼郡柳津町","address":"猪倉野"},
{"zip_code":"9697323","kana_pref":"ﾌｸｼﾏｹﾝ","kana_city":"ｶﾜﾇﾏｸﾞﾝﾔﾅｲﾂﾞﾏﾁ","kana_address":"ｲﾓｺﾞﾔ","pref":"福島県","city":"河沼郡柳津町","address":"芋小屋"},
{"zip_code":"9697325","kana_pref":"ﾌｸｼﾏｹﾝ","kana_city":"ｶﾜﾇﾏｸﾞﾝﾔﾅｲﾂﾞﾏﾁ","kana_address":"ｵｵﾅﾘｻﾜ","pref":"福島県","city":"河沼郡柳津町","address":"大成沢"},
{"zip_code":"9697202","kana_pref":"ﾌｸｼﾏｹﾝ","kana_city":"ｶﾜﾇﾏｸﾞﾝﾔﾅｲﾂﾞﾏﾁ","kana_address":"ｵｵﾘｭｳ","pref":"福島県","city":"河沼郡柳津町","address":"大柳"},
{"zip_code":"9697324","kana_pref":"ﾌｸｼﾏｹﾝ","kana_city":"ｶﾜﾇﾏｸﾞﾝﾔﾅｲﾂﾞﾏﾁ","kana_address":"ｶﾌﾞﾁｭｳ","pref":"福島県","city":"河沼郡柳津町","address":"胄中"},
{"zip_code":"9697203","kana_pref":"ﾌｸｼﾏｹﾝ","kana_city":"ｶﾜﾇﾏｸﾞﾝﾔﾅｲﾂﾞﾏﾁ","kana_address":"ｶﾙｲｻﾞﾜ","pref":"福島県","city":"河沼郡柳津町","address":"軽井沢"},
{"zip_code":"9697312","kana_pref":"ﾌｸｼﾏｹﾝ","kana_city":"ｶﾜﾇﾏｸﾞﾝﾔﾅｲﾂﾞﾏﾁ","kana_address":"ｸﾎﾞﾀ","pref":"福島県","city":"河沼郡柳津町","address":"久保田"},
{"zip_code":"9697322","kana_pref":"ﾌｸｼﾏｹﾝ","kana_city":"ｶﾜﾇﾏｸﾞﾝﾔﾅｲﾂﾞﾏﾁ","kana_address":"ｸﾛｻﾜ","pref":"福島県","city":"河沼郡柳津町","address":"黒沢"},
{"zip_code":"9697205","kana_pref":"ﾌｸｼﾏｹﾝ","kana_city":"ｶﾜﾇﾏｸﾞﾝﾔﾅｲﾂﾞﾏﾁ","kana_address":"ｺﾞｳﾄﾞ","pref":"福島県","city":"河沼郡柳津町","address":"郷戸"},
{"zip_code":"9697313","kana_pref":"ﾌｸｼﾏｹﾝ","kana_city":"ｶﾜﾇﾏｸﾞﾝﾔﾅｲﾂﾞﾏﾁ","kana_address":"ｺﾞｼﾞｮｳｼﾞｷ","pref":"福島県","city":"河沼郡柳津町","address":"五畳敷"},
{"zip_code":"9697207","kana_pref":"ﾌｸｼﾏｹﾝ","kana_city":"ｶﾜﾇﾏｸﾞﾝﾔﾅｲﾂﾞﾏﾁ","kana_address":"ｺﾂﾊﾞｷ","pref":"福島県","city":"河沼郡柳津町","address":"小椿"},
{"zip_code":"9697321","kana_pref":"ﾌｸｼﾏｹﾝ","kana_city":"ｶﾜﾇﾏｸﾞﾝﾔﾅｲﾂﾞﾏﾁ","kana_address":"ｽﾅｺﾊﾗ","pref":"福島県","city":"河沼郡柳津町","address":"砂子原"},
{"zip_code":"9697326","kana_pref":"ﾌｸｼﾏｹﾝ","kana_city":"ｶﾜﾇﾏｸﾞﾝﾔﾅｲﾂﾞﾏﾁ","kana_address":"ﾋﾞﾜｸﾋﾞ","pref":"福島県","city":"河沼郡柳津町","address":"琵琶首"},
{"zip_code":"9697208","kana_pref":"ﾌｸｼﾏｹﾝ","kana_city":"ｶﾜﾇﾏｸﾞﾝﾔﾅｲﾂﾞﾏﾁ","kana_address":"ﾌｼﾞ","pref":"福島県","city":"河沼郡柳津町","address":"藤"},
{"zip_code":"9697209","kana_pref":"ﾌｸｼﾏｹﾝ","kana_city":"ｶﾜﾇﾏｸﾞﾝﾔﾅｲﾂﾞﾏﾁ","kana_address":"ﾎｿﾊﾁ","pref":"福島県","city":"河沼郡柳津町","address":"細八"},
{"zip_code":"9697314","kana_pref":"ﾌｸｼﾏｹﾝ","kana_city":"ｶﾜﾇﾏｸﾞﾝﾔﾅｲﾂﾞﾏﾁ","kana_address":"ﾏｷｻﾞﾜ","pref":"福島県","city":"河沼郡柳津町","address":"牧沢"},
{"zip_code":"9697201","kana_pref":"ﾌｸｼﾏｹﾝ","kana_city":"ｶﾜﾇﾏｸﾞﾝﾔﾅｲﾂﾞﾏﾁ","kana_address":"ﾔﾅｲﾂﾞ","pref":"福島県","city":"河沼郡柳津町","address":"柳津"},
{"zip_code":"9697311","kana_pref":"ﾌｸｼﾏｹﾝ","kana_city":"ｶﾜﾇﾏｸﾞﾝﾔﾅｲﾂﾞﾏﾁ","kana_address":"ﾕﾔｷﾞｻﾜ","pref":"福島県","city":"河沼郡柳津町","address":"湯八木沢"},
{"zip_code":"9697315","kana_pref":"ﾌｸｼﾏｹﾝ","kana_city":"ｶﾜﾇﾏｸﾞﾝﾔﾅｲﾂﾞﾏﾁ","kana_address":"ﾖﾂﾔ","pref":"福島県","city":"河沼郡柳津町","address":"四つ谷"},
{"zip_code":"9697500","kana_pref":"ﾌｸｼﾏｹﾝ","kana_city":"ｵｵﾇﾏｸﾞﾝﾐｼﾏﾏﾁ","kana_address":"","pref":"福島県","city":"大沼郡三島町","address":""},
{"zip_code":"9697518","kana_pref":"ﾌｸｼﾏｹﾝ","kana_city":"ｵｵﾇﾏｸﾞﾝﾐｼﾏﾏﾁ","kana_address":"ｱｻﾏﾀ","pref":"福島県","city":"大沼郡三島町","address":"浅岐"},
{"zip_code":"9697407","kana_pref":"ﾌｸｼﾏｹﾝ","kana_city":"ｵｵﾇﾏｸﾞﾝﾐｼﾏﾏﾁ","kana_address":"ｵｵｲｼﾀﾞ","pref":"福島県","city":"大沼郡三島町","address":"大石田"},
{"zip_code":"9697517","kana_pref":"ﾌｸｼﾏｹﾝ","kana_city":"ｵｵﾇﾏｸﾞﾝﾐｼﾏﾏﾁ","kana_address":"ｵｵﾀﾆ","pref":"福島県","city":"大沼郡三島町","address":"大谷"},
{"zip_code":"9697516","kana_pref":"ﾌｸｼﾏｹﾝ","kana_city":"ｵｵﾇﾏｸﾞﾝﾐｼﾏﾏﾁ","kana_address":"ｵｵﾉﾎﾞﾘ","pref":"福島県","city":"大沼郡三島町","address":"大登"},
{"zip_code":"9697515","kana_pref":"ﾌｸｼﾏｹﾝ","kana_city":"ｵｵﾇﾏｸﾞﾝﾐｼﾏﾏﾁ","kana_address":"ｶﾜｲ","pref":"福島県","city":"大沼郡三島町","address":"川井"},
{"zip_code":"9697512","kana_pref":"ﾌｸｼﾏｹﾝ","kana_city":"ｵｵﾇﾏｸﾞﾝﾐｼﾏﾏﾁ","kana_address":"ｸﾜﾉﾊﾗ","pref":"福島県","city":"大沼郡三島町","address":"桑原"},
{"zip_code":"9697403","kana_pref":"ﾌｸｼﾏｹﾝ","kana_city":"ｵｵﾇﾏｸﾞﾝﾐｼﾏﾏﾁ","kana_address":"ｺﾔﾏ","pref":"福島県","city":"大沼郡三島町","address":"小山"},
{"zip_code":"9697404","kana_pref":"ﾌｸｼﾏｹﾝ","kana_city":"ｵｵﾇﾏｸﾞﾝﾐｼﾏﾏﾁ","kana_address":"ﾀｶｼﾐｽﾞ","pref":"福島県","city":"大沼郡三島町","address":"高清水"},
{"zip_code":"9697405","kana_pref":"ﾌｸｼﾏｹﾝ","kana_city":"ｵｵﾇﾏｸﾞﾝﾐｼﾏﾏﾁ","kana_address":"ﾀｷﾊﾞﾗ","pref":"福島県","city":"大沼郡三島町","address":"滝原"},
{"zip_code":"9697514","kana_pref":"ﾌｸｼﾏｹﾝ","kana_city":"ｵｵﾇﾏｸﾞﾝﾐｼﾏﾏﾁ","kana_address":"ﾀｷﾔ","pref":"福島県","city":"大沼郡三島町","address":"滝谷"},
{"zip_code":"9697402","kana_pref":"ﾌｸｼﾏｹﾝ","kana_city":"ｵｵﾇﾏｸﾞﾝﾐｼﾏﾏﾁ","kana_address":"ﾅｲﾘ","pref":"福島県","city":"大沼郡三島町","address":"名入"},
{"zip_code":"9697401","kana_pref":"ﾌｸｼﾏｹﾝ","kana_city":"ｵｵﾇﾏｸﾞﾝﾐｼﾏﾏﾁ","kana_address":"ﾆｼｶﾀ","pref":"福島県","city":"大沼郡三島町","address":"西方"},
{"zip_code":"9697406","kana_pref":"ﾌｸｼﾏｹﾝ","kana_city":"ｵｵﾇﾏｸﾞﾝﾐｼﾏﾏﾁ","kana_address":"ﾊﾔﾄ","pref":"福島県","city":"大沼郡三島町","address":"早戸"},
{"zip_code":"9697413","kana_pref":"ﾌｸｼﾏｹﾝ","kana_city":"ｵｵﾇﾏｸﾞﾝﾐｼﾏﾏﾁ","kana_address":"ﾋﾉﾊﾗ","pref":"福島県","city":"大沼郡三島町","address":"桧原"},
{"zip_code":"9697513","kana_pref":"ﾌｸｼﾏｹﾝ","kana_city":"ｵｵﾇﾏｸﾞﾝﾐｼﾏﾏﾁ","kana_address":"ﾋﾉﾊﾗ","pref":"福島県","city":"大沼郡三島町","address":"桧原"},
{"zip_code":"9697519","kana_pref":"ﾌｸｼﾏｹﾝ","kana_city":"ｵｵﾇﾏｸﾞﾝﾐｼﾏﾏﾁ","kana_address":"ﾏｶﾞﾀ","pref":"福島県","city":"大沼郡三島町","address":"間方"},
{"zip_code":"9697511","kana_pref":"ﾌｸｼﾏｹﾝ","kana_city":"ｵｵﾇﾏｸﾞﾝﾐｼﾏﾏﾁ","kana_address":"ﾐﾔｼﾀ","pref":"福島県","city":"大沼郡三島町","address":"宮下"},
{"zip_code":"9696200","kana_pref":"ﾌｸｼﾏｹﾝ","kana_city":"ｵｵﾇﾏｸﾞﾝｱｲﾂﾞﾐｻﾄﾏﾁ","kana_address":"","pref":"福島県","city":"大沼郡会津美里町","address":""},
{"zip_code":"9696272","kana_pref":"ﾌｸｼﾏｹﾝ","kana_city":"ｵｵﾇﾏｸﾞﾝｱｲﾂﾞﾐｻﾄﾏﾁ","kana_address":"ｱｶﾙ","pref":"福島県","city":"大沼郡会津美里町","address":"赤留"},
{"zip_code":"9696222","kana_pref":"ﾌｸｼﾏｹﾝ","kana_city":"ｵｵﾇﾏｸﾞﾝｱｲﾂﾞﾐｻﾄﾏﾁ","kana_address":"ｱｻﾋｲﾁｶﾜ","pref":"福島県","city":"大沼郡会津美里町","address":"旭市川"},
{"zip_code":"9696226","kana_pref":"ﾌｸｼﾏｹﾝ","kana_city":"ｵｵﾇﾏｸﾞﾝｱｲﾂﾞﾐｻﾄﾏﾁ","kana_address":"ｱｻﾋｽｷﾞﾊﾗ","pref":"福島県","city":"大沼郡会津美里町","address":"旭杉原"},
{"zip_code":"9696221","kana_pref":"ﾌｸｼﾏｹﾝ","kana_city":"ｵｵﾇﾏｸﾞﾝｱｲﾂﾞﾐｻﾄﾏﾁ","kana_address":"ｱｻﾋﾀﾃﾊﾀ","pref":"福島県","city":"大沼郡会津美里町","address":"旭館端"},
{"zip_code":"9696223","kana_pref":"ﾌｸｼﾏｹﾝ","kana_city":"ｵｵﾇﾏｸﾞﾝｱｲﾂﾞﾐｻﾄﾏﾁ","kana_address":"ｱｻﾋﾃﾗｲﾘ","pref":"福島県","city":"大沼郡会津美里町","address":"旭寺入"},
{"zip_code":"9696225","kana_pref":"ﾌｸｼﾏｹﾝ","kana_city":"ｵｵﾇﾏｸﾞﾝｱｲﾂﾞﾐｻﾄﾏﾁ","kana_address":"ｱｻﾋﾐﾖｾ","pref":"福島県","city":"大沼郡会津美里町","address":"旭三寄"},
{"zip_code":"9696224","kana_pref":"ﾌｸｼﾏｹﾝ","kana_city":"ｵｵﾇﾏｸﾞﾝｱｲﾂﾞﾐｻﾄﾏﾁ","kana_address":"ｱｻﾋﾑﾘｮｳ","pref":"福島県","city":"大沼郡会津美里町","address":"旭無量"},
{"zip_code":"9696351","kana_pref":"ﾌｸｼﾏｹﾝ","kana_city":"ｵｵﾇﾏｸﾞﾝｱｲﾂﾞﾐｻﾄﾏﾁ","kana_address":"ｱﾅﾀﾞ","pref":"福島県","city":"大沼郡会津美里町","address":"穴田"},
{"zip_code":"9696352","kana_pref":"ﾌｸｼﾏｹﾝ","kana_city":"ｵｵﾇﾏｸﾞﾝｱｲﾂﾞﾐｻﾄﾏﾁ","kana_address":"ｱﾅﾀﾞｵﾂ","pref":"福島県","city":"大沼郡会津美里町","address":"穴田乙"},
{"zip_code":"9696266","kana_pref":"ﾌｸｼﾏｹﾝ","kana_city":"ｵｵﾇﾏｸﾞﾝｱｲﾂﾞﾐｻﾄﾏﾁ","kana_address":"ｱﾌﾞﾗﾃﾞﾝ","pref":"福島県","city":"大沼郡会津美里町","address":"油田"},
{"zip_code":"9696171","kana_pref":"ﾌｸｼﾏｹﾝ","kana_city":"ｵｵﾇﾏｸﾞﾝｱｲﾂﾞﾐｻﾄﾏﾁ","kana_address":"ｱﾗｲ","pref":"福島県","city":"大沼郡会津美里町","address":"荒井"},
{"zip_code":"9696027","kana_pref":"ﾌｸｼﾏｹﾝ","kana_city":"ｵｵﾇﾏｸﾞﾝｱｲﾂﾞﾐｻﾄﾏﾁ","kana_address":"ｱﾗｲｺｳ","pref":"福島県","city":"大沼郡会津美里町","address":"荒井甲"},
{"zip_code":"9696161","kana_pref":"ﾌｸｼﾏｹﾝ","kana_city":"ｵｵﾇﾏｸﾞﾝｱｲﾂﾞﾐｻﾄﾏﾁ","kana_address":"ｱﾗｲﾏｴ","pref":"福島県","city":"大沼郡会津美里町","address":"荒井前"},
{"zip_code":"9696111","kana_pref":"ﾌｸｼﾏｹﾝ","kana_city":"ｵｵﾇﾏｸﾞﾝｱｲﾂﾞﾐｻﾄﾏﾁ","kana_address":"ｲｴﾆｼ","pref":"福島県","city":"大沼郡会津美里町","address":"家西"},
{"zip_code":"9696037","kana_pref":"ﾌｸｼﾏｹﾝ","kana_city":"ｵｵﾇﾏｸﾞﾝｱｲﾂﾞﾐｻﾄﾏﾁ","kana_address":"ｲｴﾆｼｺｳ","pref":"福島県","city":"大沼郡会津美里町","address":"家西甲"},
{"zip_code":"9696206","kana_pref":"ﾌｸｼﾏｹﾝ","kana_city":"ｵｵﾇﾏｸﾞﾝｱｲﾂﾞﾐｻﾄﾏﾁ","kana_address":"ｲｴﾉｼﾀ","pref":"福島県","city":"大沼郡会津美里町","address":"家ノ下"},
{"zip_code":"9696112","kana_pref":"ﾌｸｼﾏｹﾝ","kana_city":"ｵｵﾇﾏｸﾞﾝｱｲﾂﾞﾐｻﾄﾏﾁ","kana_address":"ｲｴﾋｶﾞｼｺｳ","pref":"福島県","city":"大沼郡会津美里町","address":"家東甲"},
{"zip_code":"9696151","kana_pref":"ﾌｸｼﾏｹﾝ","kana_city":"ｵｵﾇﾏｸﾞﾝｱｲﾂﾞﾐｻﾄﾏﾁ","kana_address":"ｲｼｷﾘﾊﾞﾀｹ","pref":"福島県","city":"大沼郡会津美里町","address":"石切畑"},
{"zip_code":"9696046","kana_pref":"ﾌｸｼﾏｹﾝ","kana_city":"ｵｵﾇﾏｸﾞﾝｱｲﾂﾞﾐｻﾄﾏﾁ","kana_address":"ｲｼｷﾘﾊﾞﾀｺｳ","pref":"福島県","city":"大沼郡会津美里町","address":"石切畑甲"},
{"zip_code":"9696307","kana_pref":"ﾌｸｼﾏｹﾝ","kana_city":"ｵｵﾇﾏｸﾞﾝｱｲﾂﾞﾐｻﾄﾏﾁ","kana_address":"ｲｼﾀﾞｺｳ","pref":"福島県","city":"大沼郡会津美里町","address":"石田甲"},
{"zip_code":"9696036","kana_pref":"ﾌｸｼﾏｹﾝ","kana_city":"ｵｵﾇﾏｸﾞﾝｱｲﾂﾞﾐｻﾄﾏﾁ","kana_address":"ｳｴﾉｶﾜﾗ","pref":"福島県","city":"大沼郡会津美里町","address":"上野川原"},
{"zip_code":"9696261","kana_pref":"ﾌｸｼﾏｹﾝ","kana_city":"ｵｵﾇﾏｸﾞﾝｱｲﾂﾞﾐｻﾄﾏﾁ","kana_address":"ｳﾁｶﾜﾗ","pref":"福島県","city":"大沼郡会津美里町","address":"内川原"},
{"zip_code":"9696261","kana_pref":"ﾌｸｼﾏｹﾝ","kana_city":"ｵｵﾇﾏｸﾞﾝｱｲﾂﾞﾐｻﾄﾏﾁ","kana_address":"ｳﾒﾉｷ","pref":"福島県","city":"大沼郡会津美里町","address":"梅ノ木"},
{"zip_code":"9696265","kana_pref":"ﾌｸｼﾏｹﾝ","kana_city":"ｵｵﾇﾏｸﾞﾝｱｲﾂﾞﾐｻﾄﾏﾁ","kana_address":"ｳﾙｼﾜﾗｷﾀ","pref":"福島県","city":"大沼郡会津美里町","address":"漆原北"},
{"zip_code":"9696407","kana_pref":"ﾌｸｼﾏｹﾝ","kana_city":"ｵｵﾇﾏｸﾞﾝｱｲﾂﾞﾐｻﾄﾏﾁ","kana_address":"ｳﾜﾀﾞｲﾗ","pref":"福島県","city":"大沼郡会津美里町","address":"上平"},
{"zip_code":"9696061","kana_pref":"ﾌｸｼﾏｹﾝ","kana_city":"ｵｵﾇﾏｸﾞﾝｱｲﾂﾞﾐｻﾄﾏﾁ","kana_address":"ｳﾜﾏﾁｺｳ","pref":"福島県","city":"大沼郡会津美里町","address":"上町甲"},
{"zip_code":"9696101","kana_pref":"ﾌｸｼﾏｹﾝ","kana_city":"ｵｵﾇﾏｸﾞﾝｱｲﾂﾞﾐｻﾄﾏﾁ","kana_address":"ｴｷﾏｴ","pref":"福島県","city":"大沼郡会津美里町","address":"駅前"},
{"zip_code":"9696121","kana_pref":"ﾌｸｼﾏｹﾝ","kana_city":"ｵｵﾇﾏｸﾞﾝｱｲﾂﾞﾐｻﾄﾏﾁ","kana_address":"ｴﾝﾒｲｼﾞﾏｴ","pref":"福島県","city":"大沼郡会津美里町","address":"延命寺前"},
{"zip_code":"9696306","kana_pref":"ﾌｸｼﾏｹﾝ","kana_city":"ｵｵﾇﾏｸﾞﾝｱｲﾂﾞﾐｻﾄﾏﾁ","kana_address":"ｴﾝﾒｲｼﾞﾏｴｵﾂ","pref":"福島県","city":"大沼郡会津美里町","address":"延命寺前乙"},
{"zip_code":"9696305","kana_pref":"ﾌｸｼﾏｹﾝ","kana_city":"ｵｵﾇﾏｸﾞﾝｱｲﾂﾞﾐｻﾄﾏﾁ","kana_address":"ｴﾝﾒｲｼﾞﾏｴｺｳ","pref":"福島県","city":"大沼郡会津美里町","address":"延命寺前甲"},
{"zip_code":"9696131","kana_pref":"ﾌｸｼﾏｹﾝ","kana_city":"ｵｵﾇﾏｸﾞﾝｱｲﾂﾞﾐｻﾄﾏﾁ","kana_address":"ｵｵｲｼ","pref":"福島県","city":"大沼郡会津美里町","address":"大石"},
{"zip_code":"9696057","kana_pref":"ﾌｸｼﾏｹﾝ","kana_city":"ｵｵﾇﾏｸﾞﾝｱｲﾂﾞﾐｻﾄﾏﾁ","kana_address":"ｵｵｶﾜﾊﾞﾀｺｳ","pref":"福島県","city":"大沼郡会津美里町","address":"大川端甲"},
{"zip_code":"9696141","kana_pref":"ﾌｸｼﾏｹﾝ","kana_city":"ｵｵﾇﾏｸﾞﾝｱｲﾂﾞﾐｻﾄﾏﾁ","kana_address":"ｵｵﾊﾁｺﾞｳ","pref":"福島県","city":"大沼郡会津美里町","address":"大八郷"},
{"zip_code":"9696333","kana_pref":"ﾌｸｼﾏｹﾝ","kana_city":"ｵｵﾇﾏｸﾞﾝｱｲﾂﾞﾐｻﾄﾏﾁ","kana_address":"ｵｵﾊﾁｺﾞｳｵﾂ","pref":"福島県","city":"大沼郡会津美里町","address":"大八郷乙"},
{"zip_code":"9696173","kana_pref":"ﾌｸｼﾏｹﾝ","kana_city":"ｵｵﾇﾏｸﾞﾝｱｲﾂﾞﾐｻﾄﾏﾁ","kana_address":"ｵｵﾐﾁｶﾐ","pref":"福島県","city":"大沼郡会津美里町","address":"大道上"},
{"zip_code":"9696022","kana_pref":"ﾌｸｼﾏｹﾝ","kana_city":"ｵｵﾇﾏｸﾞﾝｱｲﾂﾞﾐｻﾄﾏﾁ","kana_address":"ｵｵﾐﾁｶﾐｺｳ","pref":"福島県","city":"大沼郡会津美里町","address":"大道上甲"},
{"zip_code":"9696242","kana_pref":"ﾌｸｼﾏｹﾝ","kana_city":"ｵｵﾇﾏｸﾞﾝｱｲﾂﾞﾐｻﾄﾏﾁ","kana_address":"ｵｵﾑﾛ","pref":"福島県","city":"大沼郡会津美里町","address":"大室"},
{"zip_code":"9696254","kana_pref":"ﾌｸｼﾏｹﾝ","kana_city":"ｵｵﾇﾏｸﾞﾝｱｲﾂﾞﾐｻﾄﾏﾁ","kana_address":"ｵｷﾞｸﾎﾞ","pref":"福島県","city":"大沼郡会津美里町","address":"荻窪"},
{"zip_code":"9696343","kana_pref":"ﾌｸｼﾏｹﾝ","kana_city":"ｵｵﾇﾏｸﾞﾝｱｲﾂﾞﾐｻﾄﾏﾁ","kana_address":"ｵｷﾀ","pref":"福島県","city":"大沼郡会津美里町","address":"沖田"},
{"zip_code":"9696265","kana_pref":"ﾌｸｼﾏｹﾝ","kana_city":"ｵｵﾇﾏｸﾞﾝｱｲﾂﾞﾐｻﾄﾏﾁ","kana_address":"ｵｸﾗﾐﾅﾐ","pref":"福島県","city":"大沼郡会津美里町","address":"御蔵南"},
{"zip_code":"9696409","kana_pref":"ﾌｸｼﾏｹﾝ","kana_city":"ｵｵﾇﾏｸﾞﾝｱｲﾂﾞﾐｻﾄﾏﾁ","kana_address":"ｵｻﾞﾜ","pref":"福島県","city":"大沼郡会津美里町","address":"小沢"},
{"zip_code":"9696231","kana_pref":"ﾌｸｼﾏｹﾝ","kana_city":"ｵｵﾇﾏｸﾞﾝｱｲﾂﾞﾐｻﾄﾏﾁ","kana_address":"ｵﾏﾀｸﾎﾞ","pref":"福島県","city":"大沼郡会津美里町","address":"尾岐窪"},
{"zip_code":"9696051","kana_pref":"ﾌｸｼﾏｹﾝ","kana_city":"ｵｵﾇﾏｸﾞﾝｱｲﾂﾞﾐｻﾄﾏﾁ","kana_address":"ｵﾓｲﾎﾞﾘ","pref":"福島県","city":"大沼郡会津美里町","address":"思堀"},
{"zip_code":"9696102","kana_pref":"ﾌｸｼﾏｹﾝ","kana_city":"ｵｵﾇﾏｸﾞﾝｱｲﾂﾞﾐｻﾄﾏﾁ","kana_address":"ｵﾓｲﾎﾞﾘﾑｶｲ","pref":"福島県","city":"大沼郡会津美里町","address":"思堀向"},
{"zip_code":"9696205","kana_pref":"ﾌｸｼﾏｹﾝ","kana_city":"ｵｵﾇﾏｸﾞﾝｱｲﾂﾞﾐｻﾄﾏﾁ","kana_address":"ｵﾝﾀ","pref":"福島県","city":"大沼郡会津美里町","address":"御田"},
{"zip_code":"9696262","kana_pref":"ﾌｸｼﾏｹﾝ","kana_city":"ｵｵﾇﾏｸﾞﾝｱｲﾂﾞﾐｻﾄﾏﾁ","kana_address":"ｶｼﾏ","pref":"福島県","city":"大沼郡会津美里町","address":"鹿島"},
{"zip_code":"9696213","kana_pref":"ﾌｸｼﾏｹﾝ","kana_city":"ｵｵﾇﾏｸﾞﾝｱｲﾂﾞﾐｻﾄﾏﾁ","kana_address":"ｶﾂﾊﾗ","pref":"福島県","city":"大沼郡会津美里町","address":"勝原"},
{"zip_code":"9696103","kana_pref":"ﾌｸｼﾏｹﾝ","kana_city":"ｵｵﾇﾏｸﾞﾝｱｲﾂﾞﾐｻﾄﾏﾁ","kana_address":"ｶﾐﾑﾗｷﾀ","pref":"福島県","city":"大沼郡会津美里町","address":"上村北"},
{"zip_code":"9696104","kana_pref":"ﾌｸｼﾏｹﾝ","kana_city":"ｵｵﾇﾏｸﾞﾝｱｲﾂﾞﾐｻﾄﾏﾁ","kana_address":"ｶﾐﾑﾗﾆｼﾐﾁｶﾐ","pref":"福島県","city":"大沼郡会津美里町","address":"上村西道上"},
{"zip_code":"9696104","kana_pref":"ﾌｸｼﾏｹﾝ","kana_city":"ｵｵﾇﾏｸﾞﾝｱｲﾂﾞﾐｻﾄﾏﾁ","kana_address":"ｶﾐﾑﾗﾆｼﾐﾁｼﾀ","pref":"福島県","city":"大沼郡会津美里町","address":"上村西道下"},
{"zip_code":"9696105","kana_pref":"ﾌｸｼﾏｹﾝ","kana_city":"ｵｵﾇﾏｸﾞﾝｱｲﾂﾞﾐｻﾄﾏﾁ","kana_address":"ｶﾐﾑﾗﾋｶﾞｼ","pref":"福島県","city":"大沼郡会津美里町","address":"上村東"},
{"zip_code":"9696105","kana_pref":"ﾌｸｼﾏｹﾝ","kana_city":"ｵｵﾇﾏｸﾞﾝｱｲﾂﾞﾐｻﾄﾏﾁ","kana_address":"ｶﾐﾑﾗﾐﾅﾐ","pref":"福島県","city":"大沼郡会津美里町","address":"上村南"},
{"zip_code":"9696265","kana_pref":"ﾌｸｼﾏｹﾝ","kana_city":"ｵｵﾇﾏｸﾞﾝｱｲﾂﾞﾐｻﾄﾏﾁ","kana_address":"ｶﾜｿﾞｴ","pref":"福島県","city":"大沼郡会津美里町","address":"川添"},
{"zip_code":"9696159","kana_pref":"ﾌｸｼﾏｹﾝ","kana_city":"ｵｵﾇﾏｸﾞﾝｱｲﾂﾞﾐｻﾄﾏﾁ","kana_address":"ｶﾜﾊﾗﾁｮｳｷﾀ","pref":"福島県","city":"大沼郡会津美里町","address":"川原町北"},
{"zip_code":"9696041","kana_pref":"ﾌｸｼﾏｹﾝ","kana_city":"ｵｵﾇﾏｸﾞﾝｱｲﾂﾞﾐｻﾄﾏﾁ","kana_address":"ｶﾜﾗﾁｮｳ","pref":"福島県","city":"大沼郡会津美里町","address":"川原町"},
{"zip_code":"9696024","kana_pref":"ﾌｸｼﾏｹﾝ","kana_city":"ｵｵﾇﾏｸﾞﾝｱｲﾂﾞﾐｻﾄﾏﾁ","kana_address":"ｶﾜﾗﾁｮｳｷﾀｺｳ","pref":"福島県","city":"大沼郡会津美里町","address":"川原町北甲"},
{"zip_code":"9696152","kana_pref":"ﾌｸｼﾏｹﾝ","kana_city":"ｵｵﾇﾏｸﾞﾝｱｲﾂﾞﾐｻﾄﾏﾁ","kana_address":"ｶﾜﾗﾁｮｳｺｳ","pref":"福島県","city":"大沼郡会津美里町","address":"川原町甲"},
{"zip_code":"9696262","kana_pref":"ﾌｸｼﾏｹﾝ","kana_city":"ｵｵﾇﾏｸﾞﾝｱｲﾂﾞﾐｻﾄﾏﾁ","kana_address":"ｶﾝﾉﾝｷﾀ","pref":"福島県","city":"大沼郡会津美里町","address":"観音北"},
{"zip_code":"9696154","kana_pref":"ﾌｸｼﾏｹﾝ","kana_city":"ｵｵﾇﾏｸﾞﾝｱｲﾂﾞﾐｻﾄﾏﾁ","kana_address":"ｷﾀｳﾗ","pref":"福島県","city":"大沼郡会津美里町","address":"北浦"},
{"zip_code":"9696045","kana_pref":"ﾌｸｼﾏｹﾝ","kana_city":"ｵｵﾇﾏｸﾞﾝｱｲﾂﾞﾐｻﾄﾏﾁ","kana_address":"ｷﾀｳﾗｺｳ","pref":"福島県","city":"大沼郡会津美里町","address":"北浦甲"},
{"zip_code":"9696155","kana_pref":"ﾌｸｼﾏｹﾝ","kana_city":"ｵｵﾇﾏｸﾞﾝｱｲﾂﾞﾐｻﾄﾏﾁ","kana_address":"ｷﾀｶﾞﾜﾗ","pref":"福島県","city":"大沼郡会津美里町","address":"北川原"},
{"zip_code":"9696047","kana_pref":"ﾌｸｼﾏｹﾝ","kana_city":"ｵｵﾇﾏｸﾞﾝｱｲﾂﾞﾐｻﾄﾏﾁ","kana_address":"ｷﾀｶﾞﾜﾗｺｳ","pref":"福島県","city":"大沼郡会津美里町","address":"北川原甲"},
{"zip_code":"9696316","kana_pref":"ﾌｸｼﾏｹﾝ","kana_city":"ｵｵﾇﾏｸﾞﾝｱｲﾂﾞﾐｻﾄﾏﾁ","kana_address":"ｷﾀﾊﾗ","pref":"福島県","city":"大沼郡会津美里町","address":"北原"},
{"zip_code":"9696318","kana_pref":"ﾌｸｼﾏｹﾝ","kana_city":"ｵｵﾇﾏｸﾞﾝｱｲﾂﾞﾐｻﾄﾏﾁ","kana_address":"ｷﾀﾊﾗｵﾂ","pref":"福島県","city":"大沼郡会津美里町","address":"北原乙"},
{"zip_code":"9696317","kana_pref":"ﾌｸｼﾏｹﾝ","kana_city":"ｵｵﾇﾏｸﾞﾝｱｲﾂﾞﾐｻﾄﾏﾁ","kana_address":"ｷﾀﾊﾗｺｳ","pref":"福島県","city":"大沼郡会津美里町","address":"北原甲"},
{"zip_code":"9696342","kana_pref":"ﾌｸｼﾏｹﾝ","kana_city":"ｵｵﾇﾏｸﾞﾝｱｲﾂﾞﾐｻﾄﾏﾁ","kana_address":"ｸﾗﾀ","pref":"福島県","city":"大沼郡会津美里町","address":"倉田"},
{"zip_code":"9696113","kana_pref":"ﾌｸｼﾏｹﾝ","kana_city":"ｵｵﾇﾏｸﾞﾝｱｲﾂﾞﾐｻﾄﾏﾁ","kana_address":"ｸﾙﾏｶﾞﾜﾗ","pref":"福島県","city":"大沼郡会津美里町","address":"車川原"},
{"zip_code":"9696068","kana_pref":"ﾌｸｼﾏｹﾝ","kana_city":"ｵｵﾇﾏｸﾞﾝｱｲﾂﾞﾐｻﾄﾏﾁ","kana_address":"ｸﾙﾏｶﾞﾜﾗｺｳ","pref":"福島県","city":"大沼郡会津美里町","address":"車川原甲"},
{"zip_code":"9696052","kana_pref":"ﾌｸｼﾏｹﾝ","kana_city":"ｵｵﾇﾏｸﾞﾝｱｲﾂﾞﾐｻﾄﾏﾁ","kana_address":"ｸﾛｶﾜ","pref":"福島県","city":"大沼郡会津美里町","address":"黒川"},
{"zip_code":"9696106","kana_pref":"ﾌｸｼﾏｹﾝ","kana_city":"ｵｵﾇﾏｸﾞﾝｱｲﾂﾞﾐｻﾄﾏﾁ","kana_address":"ｸﾛｶﾜｳﾁ","pref":"福島県","city":"大沼郡会津美里町","address":"黒川内"},
{"zip_code":"9696163","kana_pref":"ﾌｸｼﾏｹﾝ","kana_city":"ｵｵﾇﾏｸﾞﾝｱｲﾂﾞﾐｻﾄﾏﾁ","kana_address":"ｸﾛｻﾜ","pref":"福島県","city":"大沼郡会津美里町","address":"黒沢"},
{"zip_code":"9696304","kana_pref":"ﾌｸｼﾏｹﾝ","kana_city":"ｵｵﾇﾏｸﾞﾝｱｲﾂﾞﾐｻﾄﾏﾁ","kana_address":"ｸﾛｻﾜｺｳ","pref":"福島県","city":"大沼郡会津美里町","address":"黒沢甲"},
{"zip_code":"9696062","kana_pref":"ﾌｸｼﾏｹﾝ","kana_city":"ｵｵﾇﾏｸﾞﾝｱｲﾂﾞﾐｻﾄﾏﾁ","kana_address":"ｺﾞﾖｳﾁ","pref":"福島県","city":"大沼郡会津美里町","address":"御用地"},
{"zip_code":"9696114","kana_pref":"ﾌｸｼﾏｹﾝ","kana_city":"ｵｵﾇﾏｸﾞﾝｱｲﾂﾞﾐｻﾄﾏﾁ","kana_address":"ｺﾞﾖｳﾁｱﾄ","pref":"福島県","city":"大沼郡会津美里町","address":"御用地跡"},
{"zip_code":"9696063","kana_pref":"ﾌｸｼﾏｹﾝ","kana_city":"ｵｵﾇﾏｸﾞﾝｱｲﾂﾞﾐｻﾄﾏﾁ","kana_address":"ｺﾞﾖｳﾁｱﾄｺｳ","pref":"福島県","city":"大沼郡会津美里町","address":"御用地跡甲"},
{"zip_code":"9696038","kana_pref":"ﾌｸｼﾏｹﾝ","kana_city":"ｵｵﾇﾏｸﾞﾝｱｲﾂﾞﾐｻﾄﾏﾁ","kana_address":"ｺﾞﾖｳﾁｺｳ","pref":"福島県","city":"大沼郡会津美里町","address":"御用地甲"},
{"zip_code":"9696023","kana_pref":"ﾌｸｼﾏｹﾝ","kana_city":"ｵｵﾇﾏｸﾞﾝｱｲﾂﾞﾐｻﾄﾏﾁ","kana_address":"ｺﾝｳｴﾓﾝﾃﾞﾝ","pref":"福島県","city":"大沼郡会津美里町","address":"近右エ門田"},
{"zip_code":"9696174","kana_pref":"ﾌｸｼﾏｹﾝ","kana_city":"ｵｵﾇﾏｸﾞﾝｱｲﾂﾞﾐｻﾄﾏﾁ","kana_address":"ｺﾞﾝｹﾞﾝﾄﾞｳ","pref":"福島県","city":"大沼郡会津美里町","address":"権現堂"},
{"zip_code":"9696025","kana_pref":"ﾌｸｼﾏｹﾝ","kana_city":"ｵｵﾇﾏｸﾞﾝｱｲﾂﾞﾐｻﾄﾏﾁ","kana_address":"ｺﾞﾝｹﾞﾝﾄﾞｳｺｳ","pref":"福島県","city":"大沼郡会津美里町","address":"権現堂甲"},
{"zip_code":"9696261","kana_pref":"ﾌｸｼﾏｹﾝ","kana_city":"ｵｵﾇﾏｸﾞﾝｱｲﾂﾞﾐｻﾄﾏﾁ","kana_address":"ｺﾞﾝｹﾞﾝﾐﾔ","pref":"福島県","city":"大沼郡会津美里町","address":"権現宮"},
{"zip_code":"9696261","kana_pref":"ﾌｸｼﾏｹﾝ","kana_city":"ｵｵﾇﾏｸﾞﾝｱｲﾂﾞﾐｻﾄﾏﾁ","kana_address":"ｺﾞﾝｹﾞﾝﾐﾔｺｳ","pref":"福島県","city":"大沼郡会津美里町","address":"権現宮甲"},
{"zip_code":"9696261","kana_pref":"ﾌｸｼﾏｹﾝ","kana_city":"ｵｵﾇﾏｸﾞﾝｱｲﾂﾞﾐｻﾄﾏﾁ","kana_address":"ｺﾞﾝｹﾞﾝﾐﾔﾐﾅﾐ","pref":"福島県","city":"大沼郡会津美里町","address":"権現宮南"},
{"zip_code":"9696261","kana_pref":"ﾌｸｼﾏｹﾝ","kana_city":"ｵｵﾇﾏｸﾞﾝｱｲﾂﾞﾐｻﾄﾏﾁ","kana_address":"ｺﾞﾝｹﾞﾝﾐﾔﾐﾅﾐｺｳ","pref":"福島県","city":"大沼郡会津美里町","address":"権現宮南甲"},
{"zip_code":"9696404","kana_pref":"ﾌｸｼﾏｹﾝ","kana_city":"ｵｵﾇﾏｸﾞﾝｱｲﾂﾞﾐｻﾄﾏﾁ","kana_address":"ｻｶｲﾉ","pref":"福島県","city":"大沼郡会津美里町","address":"境野"},
{"zip_code":"9696406","kana_pref":"ﾌｸｼﾏｹﾝ","kana_city":"ｵｵﾇﾏｸﾞﾝｱｲﾂﾞﾐｻﾄﾏﾁ","kana_address":"ｻｶｾｶﾞﾜ","pref":"福島県","city":"大沼郡会津美里町","address":"佐賀瀬川"},
{"zip_code":"9696206","kana_pref":"ﾌｸｼﾏｹﾝ","kana_city":"ｵｵﾇﾏｸﾞﾝｱｲﾂﾞﾐｻﾄﾏﾁ","kana_address":"ｻｶﾉｼﾀﾐﾁｳｴ","pref":"福島県","city":"大沼郡会津美里町","address":"坂ノ下道上"},
{"zip_code":"9696206","kana_pref":"ﾌｸｼﾏｹﾝ","kana_city":"ｵｵﾇﾏｸﾞﾝｱｲﾂﾞﾐｻﾄﾏﾁ","kana_address":"ｻｶﾉｼﾀﾐﾁｼﾀ","pref":"福島県","city":"大沼郡会津美里町","address":"坂ノ下道下"},
{"zip_code":"9696206","kana_pref":"ﾌｸｼﾏｹﾝ","kana_city":"ｵｵﾇﾏｸﾞﾝｱｲﾂﾞﾐｻﾄﾏﾁ","kana_address":"ｻｶﾉｼﾀﾐﾁｼﾀｺｳ","pref":"福島県","city":"大沼郡会津美里町","address":"坂ノ下道下甲"},
{"zip_code":"9696206","kana_pref":"ﾌｸｼﾏｹﾝ","kana_city":"ｵｵﾇﾏｸﾞﾝｱｲﾂﾞﾐｻﾄﾏﾁ","kana_address":"ｻﾌﾞｶﾜ","pref":"福島県","city":"大沼郡会津美里町","address":"佐布川"},
{"zip_code":"9696029","kana_pref":"ﾌｸｼﾏｹﾝ","kana_city":"ｵｵﾇﾏｸﾞﾝｱｲﾂﾞﾐｻﾄﾏﾁ","kana_address":"ｻﾝﾎﾞﾝﾏﾂｺｳ","pref":"福島県","city":"大沼郡会津美里町","address":"三本松甲"},
{"zip_code":"9696314","kana_pref":"ﾌｸｼﾏｹﾝ","kana_city":"ｵｵﾇﾏｸﾞﾝｱｲﾂﾞﾐｻﾄﾏﾁ","kana_address":"ｼﾐｽﾞｶﾜｺｳ","pref":"福島県","city":"大沼郡会津美里町","address":"清水川甲"},
{"zip_code":"9696311","kana_pref":"ﾌｸｼﾏｹﾝ","kana_city":"ｵｵﾇﾏｸﾞﾝｱｲﾂﾞﾐｻﾄﾏﾁ","kana_address":"ｼﾐｽﾞﾀﾞｲ","pref":"福島県","city":"大沼郡会津美里町","address":"清水台"},
{"zip_code":"9696312","kana_pref":"ﾌｸｼﾏｹﾝ","kana_city":"ｵｵﾇﾏｸﾞﾝｱｲﾂﾞﾐｻﾄﾏﾁ","kana_address":"ｼﾐｽﾞﾀﾞｲｺｳ","pref":"福島県","city":"大沼郡会津美里町","address":"清水台甲"},
{"zip_code":"9696166","kana_pref":"ﾌｸｼﾏｹﾝ","kana_city":"ｵｵﾇﾏｸﾞﾝｱｲﾂﾞﾐｻﾄﾏﾁ","kana_address":"ｼﾓｶﾞﾜﾗ","pref":"福島県","city":"大沼郡会津美里町","address":"下川原"},
{"zip_code":"9696313","kana_pref":"ﾌｸｼﾏｹﾝ","kana_city":"ｵｵﾇﾏｸﾞﾝｱｲﾂﾞﾐｻﾄﾏﾁ","kana_address":"ｼﾓｶﾜﾗｺｳ","pref":"福島県","city":"大沼郡会津美里町","address":"下川原甲"},
{"zip_code":"9696215","kana_pref":"ﾌｸｼﾏｹﾝ","kana_city":"ｵｵﾇﾏｸﾞﾝｱｲﾂﾞﾐｻﾄﾏﾁ","kana_address":"ｼﾓﾎﾘ","pref":"福島県","city":"大沼郡会津美里町","address":"下堀"},
{"zip_code":"9696256","kana_pref":"ﾌｸｼﾏｹﾝ","kana_city":"ｵｵﾇﾏｸﾞﾝｱｲﾂﾞﾐｻﾄﾏﾁ","kana_address":"ｼﾞｮｳﾄﾞﾊﾗ","pref":"福島県","city":"大沼郡会津美里町","address":"上戸原"},
{"zip_code":"9696115","kana_pref":"ﾌｸｼﾏｹﾝ","kana_city":"ｵｵﾇﾏｸﾞﾝｱｲﾂﾞﾐｻﾄﾏﾁ","kana_address":"ｼﾝﾁｮｳ","pref":"福島県","city":"大沼郡会津美里町","address":"新町"},
{"zip_code":"9696267","kana_pref":"ﾌｸｼﾏｹﾝ","kana_city":"ｵｵﾇﾏｸﾞﾝｱｲﾂﾞﾐｻﾄﾏﾁ","kana_address":"ｼﾝﾁｮｳﾆｼ","pref":"福島県","city":"大沼郡会津美里町","address":"新丁西"},
{"zip_code":"9696266","kana_pref":"ﾌｸｼﾏｹﾝ","kana_city":"ｵｵﾇﾏｸﾞﾝｱｲﾂﾞﾐｻﾄﾏﾁ","kana_address":"ｼﾝﾁｮｳﾔｼｷ","pref":"福島県","city":"大沼郡会津美里町","address":"新丁屋敷"},
{"zip_code":"9696402","kana_pref":"ﾌｸｼﾏｹﾝ","kana_city":"ｵｵﾇﾏｸﾞﾝｱｲﾂﾞﾐｻﾄﾏﾁ","kana_address":"ｼﾝﾔｼｷ","pref":"福島県","city":"大沼郡会津美里町","address":"新屋敷"},
{"zip_code":"9696107","kana_pref":"ﾌｸｼﾏｹﾝ","kana_city":"ｵｵﾇﾏｸﾞﾝｱｲﾂﾞﾐｻﾄﾏﾁ","kana_address":"ｼﾝﾖｳﾁ","pref":"福島県","city":"大沼郡会津美里町","address":"新用地"},
{"zip_code":"9696162","kana_pref":"ﾌｸｼﾏｹﾝ","kana_city":"ｵｵﾇﾏｸﾞﾝｱｲﾂﾞﾐｻﾄﾏﾁ","kana_address":"ｽｷﾞ","pref":"福島県","city":"大沼郡会津美里町","address":"杉"},
{"zip_code":"9696301","kana_pref":"ﾌｸｼﾏｹﾝ","kana_city":"ｵｵﾇﾏｸﾞﾝｱｲﾂﾞﾐｻﾄﾏﾁ","kana_address":"ｽｷﾞｺｳ","pref":"福島県","city":"大沼郡会津美里町","address":"杉甲"},
{"zip_code":"9696253","kana_pref":"ﾌｸｼﾏｹﾝ","kana_city":"ｵｵﾇﾏｸﾞﾝｱｲﾂﾞﾐｻﾄﾏﾁ","kana_address":"ｽｷﾞﾔ","pref":"福島県","city":"大沼郡会津美里町","address":"杉屋"},
{"zip_code":"9696274","kana_pref":"ﾌｸｼﾏｹﾝ","kana_city":"ｵｵﾇﾏｸﾞﾝｱｲﾂﾞﾐｻﾄﾏﾁ","kana_address":"ｽｽﾞﾒﾊﾞﾔｼ","pref":"福島県","city":"大沼郡会津美里町","address":"雀林"},
{"zip_code":"9696263","kana_pref":"ﾌｸｼﾏｹﾝ","kana_city":"ｵｵﾇﾏｸﾞﾝｱｲﾂﾞﾐｻﾄﾏﾁ","kana_address":"ｾｲﾘｭｳｼﾞｷﾀ","pref":"福島県","city":"大沼郡会津美里町","address":"清竜寺北"},
{"zip_code":"9696108","kana_pref":"ﾌｸｼﾏｹﾝ","kana_city":"ｵｵﾇﾏｸﾞﾝｱｲﾂﾞﾐｻﾄﾏﾁ","kana_address":"ｾｷｼﾀ","pref":"福島県","city":"大沼郡会津美里町","address":"堰下"},
{"zip_code":"9696033","kana_pref":"ﾌｸｼﾏｹﾝ","kana_city":"ｵｵﾇﾏｸﾞﾝｱｲﾂﾞﾐｻﾄﾏﾁ","kana_address":"ｾｷﾑｶｲ","pref":"福島県","city":"大沼郡会津美里町","address":"堰向"},
{"zip_code":"9696034","kana_pref":"ﾌｸｼﾏｹﾝ","kana_city":"ｵｵﾇﾏｸﾞﾝｱｲﾂﾞﾐｻﾄﾏﾁ","kana_address":"ｾｷﾑｶｲｺｳ","pref":"福島県","city":"大沼郡会津美里町","address":"堰向甲"},
{"zip_code":"9696116","kana_pref":"ﾌｸｼﾏｹﾝ","kana_city":"ｵｵﾇﾏｸﾞﾝｱｲﾂﾞﾐｻﾄﾏﾁ","kana_address":"ｾﾄﾏﾁ","pref":"福島県","city":"大沼郡会津美里町","address":"瀬戸町"},
{"zip_code":"9696042","kana_pref":"ﾌｸｼﾏｹﾝ","kana_city":"ｵｵﾇﾏｸﾞﾝｱｲﾂﾞﾐｻﾄﾏﾁ","kana_address":"ｾﾄﾏﾁｺｳ","pref":"福島県","city":"大沼郡会津美里町","address":"瀬戸町甲"},
{"zip_code":"9696044","kana_pref":"ﾌｸｼﾏｹﾝ","kana_city":"ｵｵﾇﾏｸﾞﾝｱｲﾂﾞﾐｻﾄﾏﾁ","kana_address":"ｾﾄﾔﾏｴ","pref":"福島県","city":"大沼郡会津美里町","address":"瀬戸屋前"},
{"zip_code":"9696156","kana_pref":"ﾌｸｼﾏｹﾝ","kana_city":"ｵｵﾇﾏｸﾞﾝｱｲﾂﾞﾐｻﾄﾏﾁ","kana_address":"ｾﾄﾔﾏｴｺｳ","pref":"福島県","city":"大沼郡会津美里町","address":"瀬戸屋前甲"},
{"zip_code":"9696055","kana_pref":"ﾌｸｼﾏｹﾝ","kana_city":"ｵｵﾇﾏｸﾞﾝｱｲﾂﾞﾐｻﾄﾏﾁ","kana_address":"ｿｳｲﾝｺｳ","pref":"福島県","city":"大沼郡会津美里町","address":"惣印甲"},
{"zip_code":"9696056","kana_pref":"ﾌｸｼﾏｹﾝ","kana_city":"ｵｵﾇﾏｸﾞﾝｱｲﾂﾞﾐｻﾄﾏﾁ","kana_address":"ｿｳｲﾝﾋｶﾞｼ","pref":"福島県","city":"大沼郡会津美里町","address":"惣印東"},
{"zip_code":"9696054","kana_pref":"ﾌｸｼﾏｹﾝ","kana_city":"ｵｵﾇﾏｸﾞﾝｱｲﾂﾞﾐｻﾄﾏﾁ","kana_address":"ｿｳｲﾝﾐﾅﾐ","pref":"福島県","city":"大沼郡会津美里町","address":"惣印南"},
{"zip_code":"9696109","kana_pref":"ﾌｸｼﾏｹﾝ","kana_city":"ｵｵﾇﾏｸﾞﾝｱｲﾂﾞﾐｻﾄﾏﾁ","kana_address":"ｿｳｴﾝﾏﾁ","pref":"福島県","city":"大沼郡会津美里町","address":"宗頤町"},
{"zip_code":"9696262","kana_pref":"ﾌｸｼﾏｹﾝ","kana_city":"ｵｵﾇﾏｸﾞﾝｱｲﾂﾞﾐｻﾄﾏﾁ","kana_address":"ｿﾄｶﾜﾗ","pref":"福島県","city":"大沼郡会津美里町","address":"外川原"},
{"zip_code":"9696262","kana_pref":"ﾌｸｼﾏｹﾝ","kana_city":"ｵｵﾇﾏｸﾞﾝｱｲﾂﾞﾐｻﾄﾏﾁ","kana_address":"ｿﾄｶﾜﾗｺｳ","pref":"福島県","city":"大沼郡会津美里町","address":"外川原甲"},
{"zip_code":"9696204","kana_pref":"ﾌｸｼﾏｹﾝ","kana_city":"ｵｵﾇﾏｸﾞﾝｱｲﾂﾞﾐｻﾄﾏﾁ","kana_address":"ﾀﾞｲﾉｼﾀ","pref":"福島県","city":"大沼郡会津美里町","address":"台ノ下"},
{"zip_code":"9696264","kana_pref":"ﾌｸｼﾏｹﾝ","kana_city":"ｵｵﾇﾏｸﾞﾝｱｲﾂﾞﾐｻﾄﾏﾁ","kana_address":"ﾀｶﾀﾞ","pref":"福島県","city":"大沼郡会津美里町","address":"高田"},
{"zip_code":"9696264","kana_pref":"ﾌｸｼﾏｹﾝ","kana_city":"ｵｵﾇﾏｸﾞﾝｱｲﾂﾞﾐｻﾄﾏﾁ","kana_address":"ﾀｶﾀﾞｵﾂ","pref":"福島県","city":"大沼郡会津美里町","address":"高田乙"},
{"zip_code":"9696264","kana_pref":"ﾌｸｼﾏｹﾝ","kana_city":"ｵｵﾇﾏｸﾞﾝｱｲﾂﾞﾐｻﾄﾏﾁ","kana_address":"ﾀｶﾀﾞｺｳ","pref":"福島県","city":"大沼郡会津美里町","address":"高田甲"},
{"zip_code":"9696206","kana_pref":"ﾌｸｼﾏｹﾝ","kana_city":"ｵｵﾇﾏｸﾞﾝｱｲﾂﾞﾐｻﾄﾏﾁ","kana_address":"ﾀｶﾀﾞﾅｶｶﾞﾜﾗﾐﾁｼﾀ","pref":"福島県","city":"大沼郡会津美里町","address":"高田中川原道下"},
{"zip_code":"9696203","kana_pref":"ﾌｸｼﾏｹﾝ","kana_city":"ｵｵﾇﾏｸﾞﾝｱｲﾂﾞﾐｻﾄﾏﾁ","kana_address":"ﾀｶﾀﾞﾏｴｶﾜﾊﾗ","pref":"福島県","city":"大沼郡会津美里町","address":"高田前川原"},
{"zip_code":"9696261","kana_pref":"ﾌｸｼﾏｹﾝ","kana_city":"ｵｵﾇﾏｸﾞﾝｱｲﾂﾞﾐｻﾄﾏﾁ","kana_address":"ﾀｶﾀﾞﾐﾁｳｴ","pref":"福島県","city":"大沼郡会津美里町","address":"高田道上"},
{"zip_code":"9696202","kana_pref":"ﾌｸｼﾏｹﾝ","kana_city":"ｵｵﾇﾏｸﾞﾝｱｲﾂﾞﾐｻﾄﾏﾁ","kana_address":"ﾀｶﾀﾞﾑﾗﾋｶﾞｼ","pref":"福島県","city":"大沼郡会津美里町","address":"高田村東"},
{"zip_code":"9696032","kana_pref":"ﾌｸｼﾏｹﾝ","kana_city":"ｵｵﾇﾏｸﾞﾝｱｲﾂﾞﾐｻﾄﾏﾁ","kana_address":"ﾀｹﾊﾗ","pref":"福島県","city":"大沼郡会津美里町","address":"竹原"},
{"zip_code":"9696411","kana_pref":"ﾌｸｼﾏｹﾝ","kana_city":"ｵｵﾇﾏｸﾞﾝｱｲﾂﾞﾐｻﾄﾏﾁ","kana_address":"ﾀﾁｲｼﾀﾞ","pref":"福島県","city":"大沼郡会津美里町","address":"立石田"},
{"zip_code":"9696266","kana_pref":"ﾌｸｼﾏｹﾝ","kana_city":"ｵｵﾇﾏｸﾞﾝｱｲﾂﾞﾐｻﾄﾏﾁ","kana_address":"ﾀﾃﾉｺｼ","pref":"福島県","city":"大沼郡会津美里町","address":"館ノ越"},
{"zip_code":"9696175","kana_pref":"ﾌｸｼﾏｹﾝ","kana_city":"ｵｵﾇﾏｸﾞﾝｱｲﾂﾞﾐｻﾄﾏﾁ","kana_address":"ﾀﾃﾉﾏﾜﾘ","pref":"福島県","city":"大沼郡会津美里町","address":"舘ノ廻"},
{"zip_code":"9696021","kana_pref":"ﾌｸｼﾏｹﾝ","kana_city":"ｵｵﾇﾏｸﾞﾝｱｲﾂﾞﾐｻﾄﾏﾁ","kana_address":"ﾀﾃﾉﾏﾜﾘｺｳ","pref":"福島県","city":"大沼郡会津美里町","address":"舘ノ廻甲"},
{"zip_code":"9696265","kana_pref":"ﾌｸｼﾏｹﾝ","kana_city":"ｵｵﾇﾏｸﾞﾝｱｲﾂﾞﾐｻﾄﾏﾁ","kana_address":"ﾀﾃﾐﾅﾐ","pref":"福島県","city":"大沼郡会津美里町","address":"館南"},
{"zip_code":"9696261","kana_pref":"ﾌｸｼﾏｹﾝ","kana_city":"ｵｵﾇﾏｸﾞﾝｱｲﾂﾞﾐｻﾄﾏﾁ","kana_address":"ﾁｼﾞﾘ","pref":"福島県","city":"大沼郡会津美里町","address":"地尻"},
{"zip_code":"9696265","kana_pref":"ﾌｸｼﾏｹﾝ","kana_city":"ｵｵﾇﾏｸﾞﾝｱｲﾂﾞﾐｻﾄﾏﾁ","kana_address":"ﾁｮｳｺｳｼﾞﾐﾅﾐ","pref":"福島県","city":"大沼郡会津美里町","address":"長光寺南"},
{"zip_code":"9696403","kana_pref":"ﾌｸｼﾏｹﾝ","kana_city":"ｵｵﾇﾏｸﾞﾝｱｲﾂﾞﾐｻﾄﾏﾁ","kana_address":"ﾂﾙﾉﾍﾞ","pref":"福島県","city":"大沼郡会津美里町","address":"鶴野辺"},
{"zip_code":"9696271","kana_pref":"ﾌｸｼﾏｹﾝ","kana_city":"ｵｵﾇﾏｸﾞﾝｱｲﾂﾞﾐｻﾄﾏﾁ","kana_address":"ﾃﾗｻｷ","pref":"福島県","city":"大沼郡会津美里町","address":"寺崎"},
{"zip_code":"9696122","kana_pref":"ﾌｸｼﾏｹﾝ","kana_city":"ｵｵﾇﾏｸﾞﾝｱｲﾂﾞﾐｻﾄﾏﾁ","kana_address":"ﾃﾗﾉﾏｴ","pref":"福島県","city":"大沼郡会津美里町","address":"寺ノ前"},
{"zip_code":"9696073","kana_pref":"ﾌｸｼﾏｹﾝ","kana_city":"ｵｵﾇﾏｸﾞﾝｱｲﾂﾞﾐｻﾄﾏﾁ","kana_address":"ﾃﾗﾉﾏｴｺｳ","pref":"福島県","city":"大沼郡会津美里町","address":"寺ノ前甲"},
{"zip_code":"9696353","kana_pref":"ﾌｸｼﾏｹﾝ","kana_city":"ｵｵﾇﾏｸﾞﾝｱｲﾂﾞﾐｻﾄﾏﾁ","kana_address":"ﾄﾞｳﾉﾏｴ","pref":"福島県","city":"大沼郡会津美里町","address":"堂ノ前"},
{"zip_code":"9696354","kana_pref":"ﾌｸｼﾏｹﾝ","kana_city":"ｵｵﾇﾏｸﾞﾝｱｲﾂﾞﾐｻﾄﾏﾁ","kana_address":"ﾄﾞｳﾉﾏｴｺｳ","pref":"福島県","city":"大沼郡会津美里町","address":"堂ノ前甲"},
{"zip_code":"9696214","kana_pref":"ﾌｸｼﾏｹﾝ","kana_city":"ｵｵﾇﾏｸﾞﾝｱｲﾂﾞﾐｻﾄﾏﾁ","kana_address":"ﾄﾐｶﾜ","pref":"福島県","city":"大沼郡会津美里町","address":"冨川"},
{"zip_code":"9696251","kana_pref":"ﾌｸｼﾏｹﾝ","kana_city":"ｵｵﾇﾏｸﾞﾝｱｲﾂﾞﾐｻﾄﾏﾁ","kana_address":"ﾅｶﾞｲﾉ","pref":"福島県","city":"大沼郡会津美里町","address":"永井野"},
{"zip_code":"9696118","kana_pref":"ﾌｸｼﾏｹﾝ","kana_city":"ｵｵﾇﾏｸﾞﾝｱｲﾂﾞﾐｻﾄﾏﾁ","kana_address":"ﾅｶﾂｶ","pref":"福島県","city":"大沼郡会津美里町","address":"仲塚"},
{"zip_code":"9696053","kana_pref":"ﾌｸｼﾏｹﾝ","kana_city":"ｵｵﾇﾏｸﾞﾝｱｲﾂﾞﾐｻﾄﾏﾁ","kana_address":"ﾅｶﾂﾞｶｺｳ","pref":"福島県","city":"大沼郡会津美里町","address":"仲塚甲"},
{"zip_code":"9696035","kana_pref":"ﾌｸｼﾏｹﾝ","kana_city":"ｵｵﾇﾏｸﾞﾝｱｲﾂﾞﾐｻﾄﾏﾁ","kana_address":"ﾅｶﾄｲ","pref":"福島県","city":"大沼郡会津美里町","address":"中樋"},
{"zip_code":"9696123","kana_pref":"ﾌｸｼﾏｹﾝ","kana_city":"ｵｵﾇﾏｸﾞﾝｱｲﾂﾞﾐｻﾄﾏﾁ","kana_address":"ﾅｶﾐﾁｼﾀ","pref":"福島県","city":"大沼郡会津美里町","address":"中道下"},
{"zip_code":"9696074","kana_pref":"ﾌｸｼﾏｹﾝ","kana_city":"ｵｵﾇﾏｸﾞﾝｱｲﾂﾞﾐｻﾄﾏﾁ","kana_address":"ﾅｶﾐﾁｼﾀｺｳ","pref":"福島県","city":"大沼郡会津美里町","address":"中道下甲"},
{"zip_code":"9696267","kana_pref":"ﾌｸｼﾏｹﾝ","kana_city":"ｵｵﾇﾏｸﾞﾝｱｲﾂﾞﾐｻﾄﾏﾁ","kana_address":"ﾆｼｳﾗ","pref":"福島県","city":"大沼郡会津美里町","address":"西裏"},
{"zip_code":"9696266","kana_pref":"ﾌｸｼﾏｹﾝ","kana_city":"ｵｵﾇﾏｸﾞﾝｱｲﾂﾞﾐｻﾄﾏﾁ","kana_address":"ﾆｼｳﾗﾔｼｷｿﾞｴ","pref":"福島県","city":"大沼郡会津美里町","address":"西裏屋敷添"},
{"zip_code":"9696244","kana_pref":"ﾌｸｼﾏｹﾝ","kana_city":"ｵｵﾇﾏｸﾞﾝｱｲﾂﾞﾐｻﾄﾏﾁ","kana_address":"ﾆｼｵ","pref":"福島県","city":"大沼郡会津美里町","address":"西尾"},
{"zip_code":"9696355","kana_pref":"ﾌｸｼﾏｹﾝ","kana_city":"ｵｵﾇﾏｸﾞﾝｱｲﾂﾞﾐｻﾄﾏﾁ","kana_address":"ﾆｼｵｷ","pref":"福島県","city":"大沼郡会津美里町","address":"西沖"},
{"zip_code":"9696245","kana_pref":"ﾌｸｼﾏｹﾝ","kana_city":"ｵｵﾇﾏｸﾞﾝｱｲﾂﾞﾐｻﾄﾏﾁ","kana_address":"ﾆｼﾓﾄ","pref":"福島県","city":"大沼郡会津美里町","address":"西本"},
{"zip_code":"9696085","kana_pref":"ﾌｸｼﾏｹﾝ","kana_city":"ｵｵﾇﾏｸﾞﾝｱｲﾂﾞﾐｻﾄﾏﾁ","kana_address":"ﾆｼﾔﾁ","pref":"福島県","city":"大沼郡会津美里町","address":"西谷地"},
{"zip_code":"9696086","kana_pref":"ﾌｸｼﾏｹﾝ","kana_city":"ｵｵﾇﾏｸﾞﾝｱｲﾂﾞﾐｻﾄﾏﾁ","kana_address":"ﾆｼﾔﾁｺｳ","pref":"福島県","city":"大沼郡会津美里町","address":"西谷地甲"},
{"zip_code":"9696408","kana_pref":"ﾌｸｼﾏｹﾝ","kana_city":"ｵｵﾇﾏｸﾞﾝｱｲﾂﾞﾐｻﾄﾏﾁ","kana_address":"ﾇﾏﾀ","pref":"福島県","city":"大沼郡会津美里町","address":"沼田"},
{"zip_code":"9696271","kana_pref":"ﾌｸｼﾏｹﾝ","kana_city":"ｵｵﾇﾏｸﾞﾝｱｲﾂﾞﾐｻﾄﾏﾁ","kana_address":"ﾇﾏﾉｳｴ","pref":"福島県","city":"大沼郡会津美里町","address":"沼ノ上"},
{"zip_code":"9696211","kana_pref":"ﾌｸｼﾏｹﾝ","kana_city":"ｵｵﾇﾏｸﾞﾝｱｲﾂﾞﾐｻﾄﾏﾁ","kana_address":"ﾊｼﾏﾙ","pref":"福島県","city":"大沼郡会津美里町","address":"橋丸"},
{"zip_code":"9696338","kana_pref":"ﾌｸｼﾏｹﾝ","kana_city":"ｵｵﾇﾏｸﾞﾝｱｲﾂﾞﾐｻﾄﾏﾁ","kana_address":"ﾊｼﾓﾄｵﾂ","pref":"福島県","city":"大沼郡会津美里町","address":"橋本乙"},
{"zip_code":"9696356","kana_pref":"ﾌｸｼﾏｹﾝ","kana_city":"ｵｵﾇﾏｸﾞﾝｱｲﾂﾞﾐｻﾄﾏﾁ","kana_address":"ﾋｴﾀﾞｵﾂ","pref":"福島県","city":"大沼郡会津美里町","address":"稗田乙"},
{"zip_code":"9696232","kana_pref":"ﾌｸｼﾏｹﾝ","kana_city":"ｵｵﾇﾏｸﾞﾝｱｲﾂﾞﾐｻﾄﾏﾁ","kana_address":"ﾋｶﾞｼｵﾏﾀ","pref":"福島県","city":"大沼郡会津美里町","address":"東尾岐"},
{"zip_code":"9696261","kana_pref":"ﾌｸｼﾏｹﾝ","kana_city":"ｵｵﾇﾏｸﾞﾝｱｲﾂﾞﾐｻﾄﾏﾁ","kana_address":"ﾋｶﾞｼｶﾜﾗ","pref":"福島県","city":"大沼郡会津美里町","address":"東川原"},
{"zip_code":"9696124","kana_pref":"ﾌｸｼﾏｹﾝ","kana_city":"ｵｵﾇﾏｸﾞﾝｱｲﾂﾞﾐｻﾄﾏﾁ","kana_address":"ﾋｶﾞｼﾔﾁ","pref":"福島県","city":"大沼郡会津美里町","address":"東谷地"},
{"zip_code":"9696077","kana_pref":"ﾌｸｼﾏｹﾝ","kana_city":"ｵｵﾇﾏｸﾞﾝｱｲﾂﾞﾐｻﾄﾏﾁ","kana_address":"ﾋｶﾞｼﾔﾁｺｳ","pref":"福島県","city":"大沼郡会津美里町","address":"東谷地甲"},
{"zip_code":"9696143","kana_pref":"ﾌｸｼﾏｹﾝ","kana_city":"ｵｵﾇﾏｸﾞﾝｱｲﾂﾞﾐｻﾄﾏﾁ","kana_address":"ﾋﾀﾞﾏ","pref":"福島県","city":"大沼郡会津美里町","address":"氷玉"},
{"zip_code":"9696176","kana_pref":"ﾌｸｼﾏｹﾝ","kana_city":"ｵｵﾇﾏｸﾞﾝｱｲﾂﾞﾐｻﾄﾏﾁ","kana_address":"ﾋﾄﾞﾛ","pref":"福島県","city":"大沼郡会津美里町","address":"旱泥"},
{"zip_code":"9696028","kana_pref":"ﾌｸｼﾏｹﾝ","kana_city":"ｵｵﾇﾏｸﾞﾝｱｲﾂﾞﾐｻﾄﾏﾁ","kana_address":"ﾋﾄﾞﾛｺｳ","pref":"福島県","city":"大沼郡会津美里町","address":"旱泥甲"},
{"zip_code":"9696078","kana_pref":"ﾌｸｼﾏｹﾝ","kana_city":"ｵｵﾇﾏｸﾞﾝｱｲﾂﾞﾐｻﾄﾏﾁ","kana_address":"ﾋﾙｶﾞｸﾎﾞ","pref":"福島県","city":"大沼郡会津美里町","address":"蛭ケ窪"},
{"zip_code":"9696031","kana_pref":"ﾌｸｼﾏｹﾝ","kana_city":"ｵｵﾇﾏｸﾞﾝｱｲﾂﾞﾐｻﾄﾏﾁ","kana_address":"ﾋﾛﾂﾞﾗ","pref":"福島県","city":"大沼郡会津美里町","address":"広面"},
{"zip_code":"9696144","kana_pref":"ﾌｸｼﾏｹﾝ","kana_city":"ｵｵﾇﾏｸﾞﾝｱｲﾂﾞﾐｻﾄﾏﾁ","kana_address":"ﾌｸｴｵｶ","pref":"福島県","city":"大沼郡会津美里町","address":"福重岡"},
{"zip_code":"9696266","kana_pref":"ﾌｸｼﾏｹﾝ","kana_city":"ｵｵﾇﾏｸﾞﾝｱｲﾂﾞﾐｻﾄﾏﾁ","kana_address":"ﾌｻｲﾁ","pref":"福島県","city":"大沼郡会津美里町","address":"布才地"},
{"zip_code":"9696212","kana_pref":"ﾌｸｼﾏｹﾝ","kana_city":"ｵｵﾇﾏｸﾞﾝｱｲﾂﾞﾐｻﾄﾏﾁ","kana_address":"ﾌｼﾞｲｴﾀﾃ","pref":"福島県","city":"大沼郡会津美里町","address":"藤家館"},
{"zip_code":"9696133","kana_pref":"ﾌｸｼﾏｹﾝ","kana_city":"ｵｵﾇﾏｸﾞﾝｱｲﾂﾞﾐｻﾄﾏﾁ","kana_address":"ﾌﾅﾊﾞ","pref":"福島県","city":"大沼郡会津美里町","address":"船場"},
{"zip_code":"9696069","kana_pref":"ﾌｸｼﾏｹﾝ","kana_city":"ｵｵﾇﾏｸﾞﾝｱｲﾂﾞﾐｻﾄﾏﾁ","kana_address":"ﾌﾅﾊﾞｺｳ","pref":"福島県","city":"大沼郡会津美里町","address":"船場甲"},
{"zip_code":"9696315","kana_pref":"ﾌｸｼﾏｹﾝ","kana_city":"ｵｵﾇﾏｸﾞﾝｱｲﾂﾞﾐｻﾄﾏﾁ","kana_address":"ﾍﾋﾞﾉﾐﾔｺｳ","pref":"福島県","city":"大沼郡会津美里町","address":"蛇ノ宮甲"},
{"zip_code":"9696262","kana_pref":"ﾌｸｼﾏｹﾝ","kana_city":"ｵｵﾇﾏｸﾞﾝｱｲﾂﾞﾐｻﾄﾏﾁ","kana_address":"ﾎｳﾄﾞｳｼﾞｷﾀ","pref":"福島県","city":"大沼郡会津美里町","address":"法憧寺北"},
{"zip_code":"9696262","kana_pref":"ﾌｸｼﾏｹﾝ","kana_city":"ｵｵﾇﾏｸﾞﾝｱｲﾂﾞﾐｻﾄﾏﾁ","kana_address":"ﾎｳﾄﾞｳｼﾞｷﾀｺｳ","pref":"福島県","city":"大沼郡会津美里町","address":"法憧寺北甲"},
{"zip_code":"9696262","kana_pref":"ﾌｸｼﾏｹﾝ","kana_city":"ｵｵﾇﾏｸﾞﾝｱｲﾂﾞﾐｻﾄﾏﾁ","kana_address":"ﾎｳﾄﾞｳｼﾞﾋｶﾞｼ","pref":"福島県","city":"大沼郡会津美里町","address":"法憧寺東"},
{"zip_code":"9696262","kana_pref":"ﾌｸｼﾏｹﾝ","kana_city":"ｵｵﾇﾏｸﾞﾝｱｲﾂﾞﾐｻﾄﾏﾁ","kana_address":"ﾎｳﾄﾞｳｼﾞﾐﾅﾐ","pref":"福島県","city":"大沼郡会津美里町","address":"法憧寺南"},
{"zip_code":"9696262","kana_pref":"ﾌｸｼﾏｹﾝ","kana_city":"ｵｵﾇﾏｸﾞﾝｱｲﾂﾞﾐｻﾄﾏﾁ","kana_address":"ﾎｳﾄﾞｳｼﾞﾐﾅﾐｺｳ","pref":"福島県","city":"大沼郡会津美里町","address":"法憧寺南甲"},
{"zip_code":"9696332","kana_pref":"ﾌｸｼﾏｹﾝ","kana_city":"ｵｵﾇﾏｸﾞﾝｱｲﾂﾞﾐｻﾄﾏﾁ","kana_address":"ﾎｳﾝｺﾞｳﾑﾗﾆｼｵﾂ","pref":"福島県","city":"大沼郡会津美里町","address":"本郷村西乙"},
{"zip_code":"9696135","kana_pref":"ﾌｸｼﾏｹﾝ","kana_city":"ｵｵﾇﾏｸﾞﾝｱｲﾂﾞﾐｻﾄﾏﾁ","kana_address":"ﾎﾏ","pref":"福島県","city":"大沼郡会津美里町","address":"穂馬"},
{"zip_code":"9696125","kana_pref":"ﾌｸｼﾏｹﾝ","kana_city":"ｵｵﾇﾏｸﾞﾝｱｲﾂﾞﾐｻﾄﾏﾁ","kana_address":"ﾎﾝｺﾞｳ","pref":"福島県","city":"大沼郡会津美里町","address":"本郷"},
{"zip_code":"9696066","kana_pref":"ﾌｸｼﾏｹﾝ","kana_city":"ｵｵﾇﾏｸﾞﾝｱｲﾂﾞﾐｻﾄﾏﾁ","kana_address":"ﾎﾝｺﾞｳｲﾘｸﾞﾁﾅｶﾐﾁｳｴｺｳ","pref":"福島県","city":"大沼郡会津美里町","address":"本郷入口中道上甲"},
{"zip_code":"9696065","kana_pref":"ﾌｸｼﾏｹﾝ","kana_city":"ｵｵﾇﾏｸﾞﾝｱｲﾂﾞﾐｻﾄﾏﾁ","kana_address":"ﾎﾝｺﾞｳｲﾘｸﾞﾁﾐﾁｳｴｺｳ","pref":"福島県","city":"大沼郡会津美里町","address":"本郷入口道上甲"},
{"zip_code":"9696117","kana_pref":"ﾌｸｼﾏｹﾝ","kana_city":"ｵｵﾇﾏｸﾞﾝｱｲﾂﾞﾐｻﾄﾏﾁ","kana_address":"ﾎﾝｺﾞｳｲﾘｸﾁﾐﾁｶﾐ","pref":"福島県","city":"大沼郡会津美里町","address":"本郷入口道上"},
{"zip_code":"9696071","kana_pref":"ﾌｸｼﾏｹﾝ","kana_city":"ｵｵﾇﾏｸﾞﾝｱｲﾂﾞﾐｻﾄﾏﾁ","kana_address":"ﾎﾝｺﾞｳｶﾐ","pref":"福島県","city":"大沼郡会津美里町","address":"本郷上"},
{"zip_code":"9696127","kana_pref":"ﾌｸｼﾏｹﾝ","kana_city":"ｵｵﾇﾏｸﾞﾝｱｲﾂﾞﾐｻﾄﾏﾁ","kana_address":"ﾎﾝｺﾞｳｶﾐｺｳ","pref":"福島県","city":"大沼郡会津美里町","address":"本郷上甲"},
{"zip_code":"9696126","kana_pref":"ﾌｸｼﾏｹﾝ","kana_city":"ｵｵﾇﾏｸﾞﾝｱｲﾂﾞﾐｻﾄﾏﾁ","kana_address":"ﾎﾝｺﾞｳｺｳ","pref":"福島県","city":"大沼郡会津美里町","address":"本郷甲"},
{"zip_code":"9696336","kana_pref":"ﾌｸｼﾏｹﾝ","kana_city":"ｵｵﾇﾏｸﾞﾝｱｲﾂﾞﾐｻﾄﾏﾁ","kana_address":"ﾎﾝｺﾞｳｾﾝｶﾞﾘ","pref":"福島県","city":"大沼郡会津美里町","address":"本郷千苅"},
{"zip_code":"9696337","kana_pref":"ﾌｸｼﾏｹﾝ","kana_city":"ｵｵﾇﾏｸﾞﾝｱｲﾂﾞﾐｻﾄﾏﾁ","kana_address":"ﾎﾝｺﾞｳｾﾝｶﾞﾘｵﾂ","pref":"福島県","city":"大沼郡会津美里町","address":"本郷千苅乙"},
{"zip_code":"9696132","kana_pref":"ﾌｸｼﾏｹﾝ","kana_city":"ｵｵﾇﾏｸﾞﾝｱｲﾂﾞﾐｻﾄﾏﾁ","kana_address":"ﾎﾝｺﾞｳﾀｶﾀﾞﾏﾁ","pref":"福島県","city":"大沼郡会津美里町","address":"本郷高田町"},
{"zip_code":"9696084","kana_pref":"ﾌｸｼﾏｹﾝ","kana_city":"ｵｵﾇﾏｸﾞﾝｱｲﾂﾞﾐｻﾄﾏﾁ","kana_address":"ﾎﾝｺﾞｳﾀｶﾀﾞﾏﾁｺｳ","pref":"福島県","city":"大沼郡会津美里町","address":"本郷高田町甲"},
{"zip_code":"9696177","kana_pref":"ﾌｸｼﾏｹﾝ","kana_city":"ｵｵﾇﾏｸﾞﾝｱｲﾂﾞﾐｻﾄﾏﾁ","kana_address":"ﾎﾝｺﾞｳﾏｴｶﾜﾊﾗ","pref":"福島県","city":"大沼郡会津美里町","address":"本郷前川原"},
{"zip_code":"9696026","kana_pref":"ﾌｸｼﾏｹﾝ","kana_city":"ｵｵﾇﾏｸﾞﾝｱｲﾂﾞﾐｻﾄﾏﾁ","kana_address":"ﾎﾝｺﾞｳﾏｴｶﾜﾊﾗｺｳ","pref":"福島県","city":"大沼郡会津美里町","address":"本郷前川原甲"},
{"zip_code":"9696164","kana_pref":"ﾌｸｼﾏｹﾝ","kana_city":"ｵｵﾇﾏｸﾞﾝｱｲﾂﾞﾐｻﾄﾏﾁ","kana_address":"ﾎﾝｺﾞｳﾐﾁｶﾐ","pref":"福島県","city":"大沼郡会津美里町","address":"本郷道上"},
{"zip_code":"9696087","kana_pref":"ﾌｸｼﾏｹﾝ","kana_city":"ｵｵﾇﾏｸﾞﾝｱｲﾂﾞﾐｻﾄﾏﾁ","kana_address":"ﾎﾝｺﾞｳﾐﾁﾆｼ","pref":"福島県","city":"大沼郡会津美里町","address":"本郷道西"},
{"zip_code":"9696129","kana_pref":"ﾌｸｼﾏｹﾝ","kana_city":"ｵｵﾇﾏｸﾞﾝｱｲﾂﾞﾐｻﾄﾏﾁ","kana_address":"ﾎﾝｺﾞｳﾐﾁﾆｼｺｳ","pref":"福島県","city":"大沼郡会津美里町","address":"本郷道西甲"},
{"zip_code":"9696075","kana_pref":"ﾌｸｼﾏｹﾝ","kana_city":"ｵｵﾇﾏｸﾞﾝｱｲﾂﾞﾐｻﾄﾏﾁ","kana_address":"ﾎﾝｺﾞｳﾐﾁﾋｶﾞｼ","pref":"福島県","city":"大沼郡会津美里町","address":"本郷道東"},
{"zip_code":"9696076","kana_pref":"ﾌｸｼﾏｹﾝ","kana_city":"ｵｵﾇﾏｸﾞﾝｱｲﾂﾞﾐｻﾄﾏﾁ","kana_address":"ﾎﾝｺﾞｳﾐﾁﾋｶﾞｼｺｳ","pref":"福島県","city":"大沼郡会津美里町","address":"本郷道東甲"},
{"zip_code":"9696172","kana_pref":"ﾌｸｼﾏｹﾝ","kana_city":"ｵｵﾇﾏｸﾞﾝｱｲﾂﾞﾐｻﾄﾏﾁ","kana_address":"ﾎﾝｺﾞｳﾑﾗﾆｼ","pref":"福島県","city":"大沼郡会津美里町","address":"本郷村西"},
{"zip_code":"9696331","kana_pref":"ﾌｸｼﾏｹﾝ","kana_city":"ｵｵﾇﾏｸﾞﾝｱｲﾂﾞﾐｻﾄﾏﾁ","kana_address":"ﾎﾝｺﾞｳﾑﾗﾆｼｺｳ","pref":"福島県","city":"大沼郡会津美里町","address":"本郷村西甲"},
{"zip_code":"9696334","kana_pref":"ﾌｸｼﾏｹﾝ","kana_city":"ｵｵﾇﾏｸﾞﾝｱｲﾂﾞﾐｻﾄﾏﾁ","kana_address":"ﾎﾝｺﾞｳﾑﾗﾋｶﾞｼｵﾂ","pref":"福島県","city":"大沼郡会津美里町","address":"本郷村東乙"},
{"zip_code":"9696252","kana_pref":"ﾌｸｼﾏｹﾝ","kana_city":"ｵｵﾇﾏｸﾞﾝｱｲﾂﾞﾐｻﾄﾏﾁ","kana_address":"ﾏﾂｷｼ","pref":"福島県","city":"大沼郡会津美里町","address":"松岸"},
{"zip_code":"9696206","kana_pref":"ﾌｸｼﾏｹﾝ","kana_city":"ｵｵﾇﾏｸﾞﾝｱｲﾂﾞﾐｻﾄﾏﾁ","kana_address":"ﾏﾂｷﾀﾞ","pref":"福島県","city":"大沼郡会津美里町","address":"松木田"},
{"zip_code":"9696255","kana_pref":"ﾌｸｼﾏｹﾝ","kana_city":"ｵｵﾇﾏｸﾞﾝｱｲﾂﾞﾐｻﾄﾏﾁ","kana_address":"ﾏﾂｻﾞﾜ","pref":"福島県","city":"大沼郡会津美里町","address":"松沢"},
{"zip_code":"9696158","kana_pref":"ﾌｸｼﾏｹﾝ","kana_city":"ｵｵﾇﾏｸﾞﾝｱｲﾂﾞﾐｻﾄﾏﾁ","kana_address":"ﾏﾂﾊﾞﾗｷﾜ","pref":"福島県","city":"大沼郡会津美里町","address":"松原際"},
{"zip_code":"9696043","kana_pref":"ﾌｸｼﾏｹﾝ","kana_city":"ｵｵﾇﾏｸﾞﾝｱｲﾂﾞﾐｻﾄﾏﾁ","kana_address":"ﾏﾂﾊﾞﾗｷﾞﾜｺｳ","pref":"福島県","city":"大沼郡会津美里町","address":"松原際甲"},
{"zip_code":"9696058","kana_pref":"ﾌｸｼﾏｹﾝ","kana_city":"ｵｵﾇﾏｸﾞﾝｱｲﾂﾞﾐｻﾄﾏﾁ","kana_address":"ﾏﾄﾊﾞｺｳ","pref":"福島県","city":"大沼郡会津美里町","address":"的場甲"},
{"zip_code":"9696128","kana_pref":"ﾌｸｼﾏｹﾝ","kana_city":"ｵｵﾇﾏｸﾞﾝｱｲﾂﾞﾐｻﾄﾏﾁ","kana_address":"ﾏﾏｶﾜ","pref":"福島県","city":"大沼郡会津美里町","address":"真々川"},
{"zip_code":"9696072","kana_pref":"ﾌｸｼﾏｹﾝ","kana_city":"ｵｵﾇﾏｸﾞﾝｱｲﾂﾞﾐｻﾄﾏﾁ","kana_address":"ﾏﾏｶﾜｺｳ","pref":"福島県","city":"大沼郡会津美里町","address":"真々川甲"},
{"zip_code":"9696323","kana_pref":"ﾌｸｼﾏｹﾝ","kana_city":"ｵｵﾇﾏｸﾞﾝｱｲﾂﾞﾐｻﾄﾏﾁ","kana_address":"ﾏﾙﾔﾏ","pref":"福島県","city":"大沼郡会津美里町","address":"丸山"},
{"zip_code":"9696324","kana_pref":"ﾌｸｼﾏｹﾝ","kana_city":"ｵｵﾇﾏｸﾞﾝｱｲﾂﾞﾐｻﾄﾏﾁ","kana_address":"ﾏﾙﾔﾏｵﾂ","pref":"福島県","city":"大沼郡会津美里町","address":"丸山乙"},
{"zip_code":"9696321","kana_pref":"ﾌｸｼﾏｹﾝ","kana_city":"ｵｵﾇﾏｸﾞﾝｱｲﾂﾞﾐｻﾄﾏﾁ","kana_address":"ﾏﾙﾔﾏｷﾀ","pref":"福島県","city":"大沼郡会津美里町","address":"丸山北"},
{"zip_code":"9696322","kana_pref":"ﾌｸｼﾏｹﾝ","kana_city":"ｵｵﾇﾏｸﾞﾝｱｲﾂﾞﾐｻﾄﾏﾁ","kana_address":"ﾏﾙﾔﾏｷﾀｺｳ","pref":"福島県","city":"大沼郡会津美里町","address":"丸山北甲"},
{"zip_code":"9696134","kana_pref":"ﾌｸｼﾏｹﾝ","kana_city":"ｵｵﾇﾏｸﾞﾝｱｲﾂﾞﾐｻﾄﾏﾁ","kana_address":"ﾐｯｶﾏﾁ","pref":"福島県","city":"大沼郡会津美里町","address":"三日町"},
{"zip_code":"9696081","kana_pref":"ﾌｸｼﾏｹﾝ","kana_city":"ｵｵﾇﾏｸﾞﾝｱｲﾂﾞﾐｻﾄﾏﾁ","kana_address":"ﾐｯｶﾏﾁｳｴ","pref":"福島県","city":"大沼郡会津美里町","address":"三日町上"},
{"zip_code":"9696082","kana_pref":"ﾌｸｼﾏｹﾝ","kana_city":"ｵｵﾇﾏｸﾞﾝｱｲﾂﾞﾐｻﾄﾏﾁ","kana_address":"ﾐｯｶﾏﾁｳｴｺｳ","pref":"福島県","city":"大沼郡会津美里町","address":"三日町上甲"},
{"zip_code":"9696079","kana_pref":"ﾌｸｼﾏｹﾝ","kana_city":"ｵｵﾇﾏｸﾞﾝｱｲﾂﾞﾐｻﾄﾏﾁ","kana_address":"ﾐｯｶﾏﾁｺｳ","pref":"福島県","city":"大沼郡会津美里町","address":"三日町甲"},
{"zip_code":"9696083","kana_pref":"ﾌｸｼﾏｹﾝ","kana_city":"ｵｵﾇﾏｸﾞﾝｱｲﾂﾞﾐｻﾄﾏﾁ","kana_address":"ﾐｯｶﾏﾁﾐﾁｳｴｺｳ","pref":"福島県","city":"大沼郡会津美里町","address":"三日町道上甲"},
{"zip_code":"9696203","kana_pref":"ﾌｸｼﾏｹﾝ","kana_city":"ｵｵﾇﾏｸﾞﾝｱｲﾂﾞﾐｻﾄﾏﾁ","kana_address":"ﾐﾄ","pref":"福島県","city":"大沼郡会津美里町","address":"水戸"},
{"zip_code":"9696243","kana_pref":"ﾌｸｼﾏｹﾝ","kana_city":"ｵｵﾇﾏｸﾞﾝｱｲﾂﾞﾐｻﾄﾏﾁ","kana_address":"ﾐﾔｶﾜ","pref":"福島県","city":"大沼郡会津美里町","address":"宮川"},
{"zip_code":"9696263","kana_pref":"ﾌｸｼﾏｹﾝ","kana_city":"ｵｵﾇﾏｸﾞﾝｱｲﾂﾞﾐｻﾄﾏﾁ","kana_address":"ﾐﾔｷﾀ","pref":"福島県","city":"大沼郡会津美里町","address":"宮北"},
{"zip_code":"9696325","kana_pref":"ﾌｸｼﾏｹﾝ","kana_city":"ｵｵﾇﾏｸﾞﾝｱｲﾂﾞﾐｻﾄﾏﾁ","kana_address":"ﾐﾔｺﾞ","pref":"福島県","city":"大沼郡会津美里町","address":"宮後"},
{"zip_code":"9696327","kana_pref":"ﾌｸｼﾏｹﾝ","kana_city":"ｵｵﾇﾏｸﾞﾝｱｲﾂﾞﾐｻﾄﾏﾁ","kana_address":"ﾐﾔｺﾞｵﾂ","pref":"福島県","city":"大沼郡会津美里町","address":"宮後乙"},
{"zip_code":"9696326","kana_pref":"ﾌｸｼﾏｹﾝ","kana_city":"ｵｵﾇﾏｸﾞﾝｱｲﾂﾞﾐｻﾄﾏﾁ","kana_address":"ﾐﾔｺﾞｺｳ","pref":"福島県","city":"大沼郡会津美里町","address":"宮後甲"},
{"zip_code":"9696207","kana_pref":"ﾌｸｼﾏｹﾝ","kana_city":"ｵｵﾇﾏｸﾞﾝｱｲﾂﾞﾐｻﾄﾏﾁ","kana_address":"ﾐﾔｻﾞﾄ","pref":"福島県","city":"大沼郡会津美里町","address":"宮里"},
{"zip_code":"9696204","kana_pref":"ﾌｸｼﾏｹﾝ","kana_city":"ｵｵﾇﾏｸﾞﾝｱｲﾂﾞﾐｻﾄﾏﾁ","kana_address":"ﾐﾔﾉｺｼ","pref":"福島県","city":"大沼郡会津美里町","address":"宮ノ腰"},
{"zip_code":"9696263","kana_pref":"ﾌｸｼﾏｹﾝ","kana_city":"ｵｵﾇﾏｸﾞﾝｱｲﾂﾞﾐｻﾄﾏﾁ","kana_address":"ﾐﾔﾊﾞﾔｼ","pref":"福島県","city":"大沼郡会津美里町","address":"宮林"},
{"zip_code":"9696263","kana_pref":"ﾌｸｼﾏｹﾝ","kana_city":"ｵｵﾇﾏｸﾞﾝｱｲﾂﾞﾐｻﾄﾏﾁ","kana_address":"ﾐﾔﾊﾞﾔｼｺｳ","pref":"福島県","city":"大沼郡会津美里町","address":"宮林甲"},
{"zip_code":"9696059","kana_pref":"ﾌｸｼﾏｹﾝ","kana_city":"ｵｵﾇﾏｸﾞﾝｱｲﾂﾞﾐｻﾄﾏﾁ","kana_address":"ﾑｲｶﾏﾁｺｳ","pref":"福島県","city":"大沼郡会津美里町","address":"六日町甲"},
{"zip_code":"9696118","kana_pref":"ﾌｸｼﾏｹﾝ","kana_city":"ｵｵﾇﾏｸﾞﾝｱｲﾂﾞﾐｻﾄﾏﾁ","kana_address":"ﾑｶｲｶﾜﾊﾗｺｳ","pref":"福島県","city":"大沼郡会津美里町","address":"向川原甲"},
{"zip_code":"9696064","kana_pref":"ﾌｸｼﾏｹﾝ","kana_city":"ｵｵﾇﾏｸﾞﾝｱｲﾂﾞﾐｻﾄﾏﾁ","kana_address":"ﾑｶｲｶﾞﾜﾗ","pref":"福島県","city":"大沼郡会津美里町","address":"向川原"},
{"zip_code":"9696142","kana_pref":"ﾌｸｼﾏｹﾝ","kana_city":"ｵｵﾇﾏｸﾞﾝｱｲﾂﾞﾐｻﾄﾏﾁ","kana_address":"ﾑﾗｶﾐ","pref":"福島県","city":"大沼郡会津美里町","address":"村上"},
{"zip_code":"9696335","kana_pref":"ﾌｸｼﾏｹﾝ","kana_city":"ｵｵﾇﾏｸﾞﾝｱｲﾂﾞﾐｻﾄﾏﾁ","kana_address":"ﾑﾗｶﾐｵﾂ","pref":"福島県","city":"大沼郡会津美里町","address":"村上乙"},
{"zip_code":"9696202","kana_pref":"ﾌｸｼﾏｹﾝ","kana_city":"ｵｵﾇﾏｸﾞﾝｱｲﾂﾞﾐｻﾄﾏﾁ","kana_address":"ﾑﾗﾏｴ","pref":"福島県","city":"大沼郡会津美里町","address":"村前"},
{"zip_code":"9696157","kana_pref":"ﾌｸｼﾏｹﾝ","kana_city":"ｵｵﾇﾏｸﾞﾝｱｲﾂﾞﾐｻﾄﾏﾁ","kana_address":"ﾓﾄﾔｼｷ","pref":"福島県","city":"大沼郡会津美里町","address":"本屋敷"},
{"zip_code":"9696263","kana_pref":"ﾌｸｼﾏｹﾝ","kana_city":"ｵｵﾇﾏｸﾞﾝｱｲﾂﾞﾐｻﾄﾏﾁ","kana_address":"ﾓﾝｼﾞｭﾆｼ","pref":"福島県","city":"大沼郡会津美里町","address":"文珠西"},
{"zip_code":"9696263","kana_pref":"ﾌｸｼﾏｹﾝ","kana_city":"ｵｵﾇﾏｸﾞﾝｱｲﾂﾞﾐｻﾄﾏﾁ","kana_address":"ﾓﾝｼﾞｭﾋｶﾞｼ","pref":"福島県","city":"大沼郡会津美里町","address":"文珠東"},
{"zip_code":"9696273","kana_pref":"ﾌｸｼﾏｹﾝ","kana_city":"ｵｵﾇﾏｸﾞﾝｱｲﾂﾞﾐｻﾄﾏﾁ","kana_address":"ﾔｷﾞｻﾜ","pref":"福島県","city":"大沼郡会津美里町","address":"八木沢"},
{"zip_code":"9696201","kana_pref":"ﾌｸｼﾏｹﾝ","kana_city":"ｵｵﾇﾏｸﾞﾝｱｲﾂﾞﾐｻﾄﾏﾁ","kana_address":"ﾔｽﾀﾞ","pref":"福島県","city":"大沼郡会津美里町","address":"安田"},
{"zip_code":"9696201","kana_pref":"ﾌｸｼﾏｹﾝ","kana_city":"ｵｵﾇﾏｸﾞﾝｱｲﾂﾞﾐｻﾄﾏﾁ","kana_address":"ﾔｽﾀﾞｵﾂ","pref":"福島県","city":"大沼郡会津美里町","address":"安田乙"},
{"zip_code":"9696268","kana_pref":"ﾌｸｼﾏｹﾝ","kana_city":"ｵｵﾇﾏｸﾞﾝｱｲﾂﾞﾐｻﾄﾏﾁ","kana_address":"ﾔﾁ","pref":"福島県","city":"大沼郡会津美里町","address":"谷地"},
{"zip_code":"9696268","kana_pref":"ﾌｸｼﾏｹﾝ","kana_city":"ｵｵﾇﾏｸﾞﾝｱｲﾂﾞﾐｻﾄﾏﾁ","kana_address":"ﾔﾁﾏｴ","pref":"福島県","city":"大沼郡会津美里町","address":"谷地前"},
{"zip_code":"9696268","kana_pref":"ﾌｸｼﾏｹﾝ","kana_city":"ｵｵﾇﾏｸﾞﾝｱｲﾂﾞﾐｻﾄﾏﾁ","kana_address":"ﾔﾅｷﾞﾀﾞｲ","pref":"福島県","city":"大沼郡会津美里町","address":"柳台"},
{"zip_code":"9696268","kana_pref":"ﾌｸｼﾏｹﾝ","kana_city":"ｵｵﾇﾏｸﾞﾝｱｲﾂﾞﾐｻﾄﾏﾁ","kana_address":"ﾔﾅｷﾞﾀﾞｲｺｳ","pref":"福島県","city":"大沼郡会津美里町","address":"柳台甲"},
{"zip_code":"9696119","kana_pref":"ﾌｸｼﾏｹﾝ","kana_city":"ｵｵﾇﾏｸﾞﾝｱｲﾂﾞﾐｻﾄﾏﾁ","kana_address":"ﾔﾅﾊﾞｶﾐ","pref":"福島県","city":"大沼郡会津美里町","address":"梁場上"},
{"zip_code":"9696067","kana_pref":"ﾌｸｼﾏｹﾝ","kana_city":"ｵｵﾇﾏｸﾞﾝｱｲﾂﾞﾐｻﾄﾏﾁ","kana_address":"ﾔﾅﾊﾞｶﾐｺｳ","pref":"福島県","city":"大沼郡会津美里町","address":"梁場上甲"},
{"zip_code":"9696303","kana_pref":"ﾌｸｼﾏｹﾝ","kana_city":"ｵｵﾇﾏｸﾞﾝｱｲﾂﾞﾐｻﾄﾏﾁ","kana_address":"ﾔﾏﾐﾁｶﾐ","pref":"福島県","city":"大沼郡会津美里町","address":"山道上"},
{"zip_code":"9696165","kana_pref":"ﾌｸｼﾏｹﾝ","kana_city":"ｵｵﾇﾏｸﾞﾝｱｲﾂﾞﾐｻﾄﾏﾁ","kana_address":"ﾔﾏﾐﾁｼﾀ","pref":"福島県","city":"大沼郡会津美里町","address":"山道下"},
{"zip_code":"9696302","kana_pref":"ﾌｸｼﾏｹﾝ","kana_city":"ｵｵﾇﾏｸﾞﾝｱｲﾂﾞﾐｻﾄﾏﾁ","kana_address":"ﾔﾏﾐﾁｼﾀｺｳ","pref":"福島県","city":"大沼郡会津美里町","address":"山道下甲"},
{"zip_code":"9696145","kana_pref":"ﾌｸｼﾏｹﾝ","kana_city":"ｵｵﾇﾏｸﾞﾝｱｲﾂﾞﾐｻﾄﾏﾁ","kana_address":"ﾔﾏﾐﾅﾐ","pref":"福島県","city":"大沼郡会津美里町","address":"山南"},
{"zip_code":"9696328","kana_pref":"ﾌｸｼﾏｹﾝ","kana_city":"ｵｵﾇﾏｸﾞﾝｱｲﾂﾞﾐｻﾄﾏﾁ","kana_address":"ﾔﾏﾐﾅﾐｵﾂ","pref":"福島県","city":"大沼郡会津美里町","address":"山南乙"},
{"zip_code":"9696146","kana_pref":"ﾌｸｼﾏｹﾝ","kana_city":"ｵｵﾇﾏｸﾞﾝｱｲﾂﾞﾐｻﾄﾏﾁ","kana_address":"ﾖｺﾎﾞﾘｼﾀ","pref":"福島県","city":"大沼郡会津美里町","address":"横堀下"},
{"zip_code":"9696341","kana_pref":"ﾌｸｼﾏｹﾝ","kana_city":"ｵｵﾇﾏｸﾞﾝｱｲﾂﾞﾐｻﾄﾏﾁ","kana_address":"ﾖｺﾎﾞﾘｼﾀｵﾂ","pref":"福島県","city":"大沼郡会津美里町","address":"横堀下乙"},
{"zip_code":"9696206","kana_pref":"ﾌｸｼﾏｹﾝ","kana_city":"ｵｵﾇﾏｸﾞﾝｱｲﾂﾞﾐｻﾄﾏﾁ","kana_address":"ﾖｼｿﾞｴ","pref":"福島県","city":"大沼郡会津美里町","address":"葭添"},
{"zip_code":"9696241","kana_pref":"ﾌｸｼﾏｹﾝ","kana_city":"ｵｵﾇﾏｸﾞﾝｱｲﾂﾞﾐｻﾄﾏﾁ","kana_address":"ﾖｼﾀﾞ","pref":"福島県","city":"大沼郡会津美里町","address":"吉田"},
{"zip_code":"9696405","kana_pref":"ﾌｸｼﾏｹﾝ","kana_city":"ｵｵﾇﾏｸﾞﾝｱｲﾂﾞﾐｻﾄﾏﾁ","kana_address":"ﾖﾈﾀ","pref":"福島県","city":"大沼郡会津美里町","address":"米田"},
{"zip_code":"9696266","kana_pref":"ﾌｸｼﾏｹﾝ","kana_city":"ｵｵﾇﾏｸﾞﾝｱｲﾂﾞﾐｻﾄﾏﾁ","kana_address":"ﾘｭｳｺｳｼﾞｷﾀ","pref":"福島県","city":"大沼郡会津美里町","address":"竜興寺北"},
{"zip_code":"9696265","kana_pref":"ﾌｸｼﾏｹﾝ","kana_city":"ｵｵﾇﾏｸﾞﾝｱｲﾂﾞﾐｻﾄﾏﾁ","kana_address":"ﾛｸｼﾞｿﾞｳ","pref":"福島県","city":"大沼郡会津美里町","address":"六地蔵"},
{"zip_code":"9696401","kana_pref":"ﾌｸｼﾏｹﾝ","kana_city":"ｵｵﾇﾏｸﾞﾝｱｲﾂﾞﾐｻﾄﾏﾁ","kana_address":"ﾜﾀﾞﾒ","pref":"福島県","city":"大沼郡会津美里町","address":"和田目"},
{"zip_code":"9690100","kana_pref":"ﾌｸｼﾏｹﾝ","kana_city":"ﾆｼｼﾗｶﾜｸﾞﾝｲｽﾞﾐｻﾞｷﾑﾗ","kana_address":"","pref":"福島県","city":"西白河郡泉崎村","address":""},
{"zip_code":"9690101","kana_pref":"ﾌｸｼﾏｹﾝ","kana_city":"ﾆｼｼﾗｶﾜｸﾞﾝｲｽﾞﾐｻﾞｷﾑﾗ","kana_address":"ｲｽﾞﾐｻﾞｷ","pref":"福島県","city":"西白河郡泉崎村","address":"泉崎"},
{"zip_code":"9690104","kana_pref":"ﾌｸｼﾏｹﾝ","kana_city":"ﾆｼｼﾗｶﾜｸﾞﾝｲｽﾞﾐｻﾞｷﾑﾗ","kana_address":"ｵｵﾀｶﾞﾜ","pref":"福島県","city":"西白河郡泉崎村","address":"太田川"},
{"zip_code":"9690103","kana_pref":"ﾌｸｼﾏｹﾝ","kana_city":"ﾆｼｼﾗｶﾜｸﾞﾝｲｽﾞﾐｻﾞｷﾑﾗ","kana_address":"ｷﾀﾋﾗﾔﾏ","pref":"福島県","city":"西白河郡泉崎村","address":"北平山"},
{"zip_code":"9690106","kana_pref":"ﾌｸｼﾏｹﾝ","kana_city":"ﾆｼｼﾗｶﾜｸﾞﾝｲｽﾞﾐｻﾞｷﾑﾗ","kana_address":"ｾｷﾜｸﾞ","pref":"福島県","city":"西白河郡泉崎村","address":"関和久"},
{"zip_code":"9690102","kana_pref":"ﾌｸｼﾏｹﾝ","kana_city":"ﾆｼｼﾗｶﾜｸﾞﾝｲｽﾞﾐｻﾞｷﾑﾗ","kana_address":"ｾｷﾜｸﾞ","pref":"福島県","city":"西白河郡泉崎村","address":"関和久"},
{"zip_code":"9690105","kana_pref":"ﾌｸｼﾏｹﾝ","kana_city":"ﾆｼｼﾗｶﾜｸﾞﾝｲｽﾞﾐｻﾞｷﾑﾗ","kana_address":"ﾌﾏｾ","pref":"福島県","city":"西白河郡泉崎村","address":"踏瀬"},
{"zip_code":"9690200","kana_pref":"ﾌｸｼﾏｹﾝ","kana_city":"ﾆｼｼﾗｶﾜｸﾞﾝﾔﾌﾞｷﾏﾁ","kana_address":"","pref":"福島県","city":"西白河郡矢吹町","address":""},
{"zip_code":"9690206","kana_pref":"ﾌｸｼﾏｹﾝ","kana_city":"ﾆｼｼﾗｶﾜｸﾞﾝﾔﾌﾞｷﾏﾁ","kana_address":"ｱｶｻﾜ","pref":"福島県","city":"西白河郡矢吹町","address":"赤沢"},
{"zip_code":"9690272","kana_pref":"ﾌｸｼﾏｹﾝ","kana_city":"ﾆｼｼﾗｶﾜｸﾞﾝﾔﾌﾞｷﾏﾁ","kana_address":"ｱｹﾎﾞﾉﾁｮｳ","pref":"福島県","city":"西白河郡矢吹町","address":"曙町"},
{"zip_code":"9690236","kana_pref":"ﾌｸｼﾏｹﾝ","kana_city":"ﾆｼｼﾗｶﾜｸﾞﾝﾔﾌﾞｷﾏﾁ","kana_address":"ｲｯﾎﾟﾝｷﾞ","pref":"福島県","city":"西白河郡矢吹町","address":"一本木"},
{"zip_code":"9690287","kana_pref":"ﾌｸｼﾏｹﾝ","kana_city":"ﾆｼｼﾗｶﾜｸﾞﾝﾔﾌﾞｷﾏﾁ","kana_address":"ｲﾄﾞｼﾞﾘ","pref":"福島県","city":"西白河郡矢吹町","address":"井戸尻"},
{"zip_code":"9690238","kana_pref":"ﾌｸｼﾏｹﾝ","kana_city":"ﾆｼｼﾗｶﾜｸﾞﾝﾔﾌﾞｷﾏﾁ","kana_address":"ｵｵｲｹ","pref":"福島県","city":"西白河郡矢吹町","address":"大池"},
{"zip_code":"9690224","kana_pref":"ﾌｸｼﾏｹﾝ","kana_city":"ﾆｼｼﾗｶﾜｸﾞﾝﾔﾌﾞｷﾏﾁ","kana_address":"ｵｵｸﾎﾞ","pref":"福島県","city":"西白河郡矢吹町","address":"大久保"},
{"zip_code":"9690201","kana_pref":"ﾌｸｼﾏｹﾝ","kana_city":"ﾆｼｼﾗｶﾜｸﾞﾝﾔﾌﾞｷﾏﾁ","kana_address":"ｵｵﾏﾁ","pref":"福島県","city":"西白河郡矢吹町","address":"大町"},
{"zip_code":"9690252","kana_pref":"ﾌｸｼﾏｹﾝ","kana_city":"ﾆｼｼﾗｶﾜｸﾞﾝﾔﾌﾞｷﾏﾁ","kana_address":"ｶﾐﾉｳﾁ","pref":"福島県","city":"西白河郡矢吹町","address":"神の内"},
{"zip_code":"9690257","kana_pref":"ﾌｸｼﾏｹﾝ","kana_city":"ﾆｼｼﾗｶﾜｸﾞﾝﾔﾌﾞｷﾏﾁ","kana_address":"ｶﾐﾉﾏｴ","pref":"福島県","city":"西白河郡矢吹町","address":"上の前"},
{"zip_code":"9690246","kana_pref":"ﾌｸｼﾏｹﾝ","kana_city":"ﾆｼｼﾗｶﾜｸﾞﾝﾔﾌﾞｷﾏﾁ","kana_address":"ｶﾐﾐﾔｻﾞｷ","pref":"福島県","city":"西白河郡矢吹町","address":"上宮崎"},
{"zip_code":"9690287","kana_pref":"ﾌｸｼﾏｹﾝ","kana_city":"ﾆｼｼﾗｶﾜｸﾞﾝﾔﾌﾞｷﾏﾁ","kana_address":"ｶﾜﾊﾗ","pref":"福島県","city":"西白河郡矢吹町","address":"川原"},
{"zip_code":"9690251","kana_pref":"ﾌｸｼﾏｹﾝ","kana_city":"ﾆｼｼﾗｶﾜｸﾞﾝﾔﾌﾞｷﾏﾁ","kana_address":"ｶﾝﾀﾋｶﾞｼ","pref":"福島県","city":"西白河郡矢吹町","address":"神田東"},
{"zip_code":"9690251","kana_pref":"ﾌｸｼﾏｹﾝ","kana_city":"ﾆｼｼﾗｶﾜｸﾞﾝﾔﾌﾞｷﾏﾁ","kana_address":"ｶﾝﾀﾆｼ","pref":"福島県","city":"西白河郡矢吹町","address":"神田西"},
{"zip_code":"9690251","kana_pref":"ﾌｸｼﾏｹﾝ","kana_city":"ﾆｼｼﾗｶﾜｸﾞﾝﾔﾌﾞｷﾏﾁ","kana_address":"ｶﾝﾀﾐﾅﾐ","pref":"福島県","city":"西白河郡矢吹町","address":"神田南"},
{"zip_code":"9690203","kana_pref":"ﾌｸｼﾏｹﾝ","kana_city":"ﾆｼｼﾗｶﾜｸﾞﾝﾔﾌﾞｷﾏﾁ","kana_address":"ｷﾀｳﾗ","pref":"福島県","city":"西白河郡矢吹町","address":"北浦"},
{"zip_code":"9690211","kana_pref":"ﾌｸｼﾏｹﾝ","kana_city":"ﾆｼｼﾗｶﾜｸﾞﾝﾔﾌﾞｷﾏﾁ","kana_address":"ｷﾀﾏﾁ","pref":"福島県","city":"西白河郡矢吹町","address":"北町"},
{"zip_code":"9690288","kana_pref":"ﾌｸｼﾏｹﾝ","kana_city":"ﾆｼｼﾗｶﾜｸﾞﾝﾔﾌﾞｷﾏﾁ","kana_address":"ｺﾊｼﾐｽﾞ","pref":"福島県","city":"西白河郡矢吹町","address":"子ハ清水"},
{"zip_code":"9690205","kana_pref":"ﾌｸｼﾏｹﾝ","kana_city":"ﾆｼｼﾗｶﾜｸﾞﾝﾔﾌﾞｷﾏﾁ","kana_address":"ｺﾞﾎﾝﾏﾂ","pref":"福島県","city":"西白河郡矢吹町","address":"五本松"},
{"zip_code":"9690271","kana_pref":"ﾌｸｼﾏｹﾝ","kana_city":"ﾆｼｼﾗｶﾜｸﾞﾝﾔﾌﾞｷﾏﾁ","kana_address":"ｺﾏﾂ","pref":"福島県","city":"西白河郡矢吹町","address":"小松"},
{"zip_code":"9690281","kana_pref":"ﾌｸｼﾏｹﾝ","kana_city":"ﾆｼｼﾗｶﾜｸﾞﾝﾔﾌﾞｷﾏﾁ","kana_address":"ｻｶｲﾁｮｳ","pref":"福島県","city":"西白河郡矢吹町","address":"境町"},
{"zip_code":"9690258","kana_pref":"ﾌｸｼﾏｹﾝ","kana_city":"ﾆｼｼﾗｶﾜｸﾞﾝﾔﾌﾞｷﾏﾁ","kana_address":"ｻﾜｼﾞﾘ","pref":"福島県","city":"西白河郡矢吹町","address":"沢尻"},
{"zip_code":"9690242","kana_pref":"ﾌｸｼﾏｹﾝ","kana_city":"ﾆｼｼﾗｶﾜｸﾞﾝﾔﾌﾞｷﾏﾁ","kana_address":"ｻﾝｼﾞｮｳﾒ","pref":"福島県","city":"西白河郡矢吹町","address":"三城目"},
{"zip_code":"9690246","kana_pref":"ﾌｸｼﾏｹﾝ","kana_city":"ﾆｼｼﾗｶﾜｸﾞﾝﾔﾌﾞｷﾏﾁ","kana_address":"ｼﾓﾐﾔｻﾞｷ","pref":"福島県","city":"西白河郡矢吹町","address":"下宮崎"},
{"zip_code":"9690266","kana_pref":"ﾌｸｼﾏｹﾝ","kana_city":"ﾆｼｼﾗｶﾜｸﾞﾝﾔﾌﾞｷﾏﾁ","kana_address":"ｼﾞｮｳｼｷﾒﾝ","pref":"福島県","city":"西白河郡矢吹町","address":"上敷面"},
{"zip_code":"9690241","kana_pref":"ﾌｸｼﾏｹﾝ","kana_city":"ﾆｼｼﾗｶﾜｸﾞﾝﾔﾌﾞｷﾏﾁ","kana_address":"ｼﾞﾝｶﾞｵｶ","pref":"福島県","city":"西白河郡矢吹町","address":"陣ケ岡"},
{"zip_code":"9690202","kana_pref":"ﾌｸｼﾏｹﾝ","kana_city":"ﾆｼｼﾗｶﾜｸﾞﾝﾔﾌﾞｷﾏﾁ","kana_address":"ｼﾝﾏﾁ","pref":"福島県","city":"西白河郡矢吹町","address":"新町"},
{"zip_code":"9690257","kana_pref":"ﾌｸｼﾏｹﾝ","kana_city":"ﾆｼｼﾗｶﾜｸﾞﾝﾔﾌﾞｷﾏﾁ","kana_address":"ｽﾐﾖｼ","pref":"福島県","city":"西白河郡矢吹町","address":"住吉"},
{"zip_code":"9690267","kana_pref":"ﾌｸｼﾏｹﾝ","kana_city":"ﾆｼｼﾗｶﾜｸﾞﾝﾔﾌﾞｷﾏﾁ","kana_address":"ｽﾜｼﾐｽﾞ","pref":"福島県","city":"西白河郡矢吹町","address":"諏訪清水"},
{"zip_code":"9690247","kana_pref":"ﾌｸｼﾏｹﾝ","kana_city":"ﾆｼｼﾗｶﾜｸﾞﾝﾔﾌﾞｷﾏﾁ","kana_address":"ｽﾜﾉﾏｴ","pref":"福島県","city":"西白河郡矢吹町","address":"諏訪の前"},
{"zip_code":"9690287","kana_pref":"ﾌｸｼﾏｹﾝ","kana_city":"ﾆｼｼﾗｶﾜｸﾞﾝﾔﾌﾞｷﾏﾁ","kana_address":"ｾｷﾉｳｴ","pref":"福島県","city":"西白河郡矢吹町","address":"堰の上"},
{"zip_code":"9690204","kana_pref":"ﾌｸｼﾏｹﾝ","kana_city":"ﾆｼｼﾗｶﾜｸﾞﾝﾔﾌﾞｷﾏﾁ","kana_address":"ｾｷﾔﾏ","pref":"福島県","city":"西白河郡矢吹町","address":"関山"},
{"zip_code":"9690212","kana_pref":"ﾌｸｼﾏｹﾝ","kana_city":"ﾆｼｼﾗｶﾜｸﾞﾝﾔﾌﾞｷﾏﾁ","kana_address":"ｾﾞﾝｺﾞｳｳﾁ","pref":"福島県","city":"西白河郡矢吹町","address":"善郷内"},
{"zip_code":"9690288","kana_pref":"ﾌｸｼﾏｹﾝ","kana_city":"ﾆｼｼﾗｶﾜｸﾞﾝﾔﾌﾞｷﾏﾁ","kana_address":"ﾀｳﾁ","pref":"福島県","city":"西白河郡矢吹町","address":"田内"},
{"zip_code":"9690284","kana_pref":"ﾌｸｼﾏｹﾝ","kana_city":"ﾆｼｼﾗｶﾜｸﾞﾝﾔﾌﾞｷﾏﾁ","kana_address":"ﾀｷﾊﾁﾏﾝ","pref":"福島県","city":"西白河郡矢吹町","address":"滝八幡"},
{"zip_code":"9690284","kana_pref":"ﾌｸｼﾏｹﾝ","kana_city":"ﾆｼｼﾗｶﾜｸﾞﾝﾔﾌﾞｷﾏﾁ","kana_address":"ﾀﾃｻﾜ","pref":"福島県","city":"西白河郡矢吹町","address":"舘沢"},
{"zip_code":"9690227","kana_pref":"ﾌｸｼﾏｹﾝ","kana_city":"ﾆｼｼﾗｶﾜｸﾞﾝﾔﾌﾞｷﾏﾁ","kana_address":"ﾀﾏﾁ","pref":"福島県","city":"西白河郡矢吹町","address":"田町"},
{"zip_code":"9690252","kana_pref":"ﾌｸｼﾏｹﾝ","kana_city":"ﾆｼｼﾗｶﾜｸﾞﾝﾔﾌﾞｷﾏﾁ","kana_address":"ﾂﾂﾐ","pref":"福島県","city":"西白河郡矢吹町","address":"堤"},
{"zip_code":"9690255","kana_pref":"ﾌｸｼﾏｹﾝ","kana_city":"ﾆｼｼﾗｶﾜｸﾞﾝﾔﾌﾞｷﾏﾁ","kana_address":"ﾃﾗｳﾁ","pref":"福島県","city":"西白河郡矢吹町","address":"寺内"},
{"zip_code":"9690255","kana_pref":"ﾌｸｼﾏｹﾝ","kana_city":"ﾆｼｼﾗｶﾜｸﾞﾝﾔﾌﾞｷﾏﾁ","kana_address":"ﾃﾗｳﾁﾋｶﾞｼ","pref":"福島県","city":"西白河郡矢吹町","address":"寺内東"},
{"zip_code":"9690255","kana_pref":"ﾌｸｼﾏｹﾝ","kana_city":"ﾆｼｼﾗｶﾜｸﾞﾝﾔﾌﾞｷﾏﾁ","kana_address":"ﾃﾗｳﾁﾆｼ","pref":"福島県","city":"西白河郡矢吹町","address":"寺内西"},
{"zip_code":"9690255","kana_pref":"ﾌｸｼﾏｹﾝ","kana_city":"ﾆｼｼﾗｶﾜｸﾞﾝﾔﾌﾞｷﾏﾁ","kana_address":"ﾃﾗｳﾁﾐﾅﾐ","pref":"福島県","city":"西白河郡矢吹町","address":"寺内南"},
{"zip_code":"9690247","kana_pref":"ﾌｸｼﾏｹﾝ","kana_city":"ﾆｼｼﾗｶﾜｸﾞﾝﾔﾌﾞｷﾏﾁ","kana_address":"ﾃﾗﾉﾏｴ","pref":"福島県","city":"西白河郡矢吹町","address":"寺の前"},
{"zip_code":"9690241","kana_pref":"ﾌｸｼﾏｹﾝ","kana_city":"ﾆｼｼﾗｶﾜｸﾞﾝﾔﾌﾞｷﾏﾁ","kana_address":"ﾃﾝｶｲ","pref":"福島県","city":"西白河郡矢吹町","address":"天開"},
{"zip_code":"9690248","kana_pref":"ﾌｸｼﾏｹﾝ","kana_city":"ﾆｼｼﾗｶﾜｸﾞﾝﾔﾌﾞｷﾏﾁ","kana_address":"ﾄｳｺﾞｳ","pref":"福島県","city":"西白河郡矢吹町","address":"東郷"},
{"zip_code":"9690243","kana_pref":"ﾌｸｼﾏｹﾝ","kana_city":"ﾆｼｼﾗｶﾜｸﾞﾝﾔﾌﾞｷﾏﾁ","kana_address":"ﾅｶｵｷ","pref":"福島県","city":"西白河郡矢吹町","address":"中沖"},
{"zip_code":"9690252","kana_pref":"ﾌｸｼﾏｹﾝ","kana_city":"ﾆｼｼﾗｶﾜｸﾞﾝﾔﾌﾞｷﾏﾁ","kana_address":"ﾅｶﾉﾒﾋｶﾞｼ","pref":"福島県","city":"西白河郡矢吹町","address":"中野目東"},
{"zip_code":"9690252","kana_pref":"ﾌｸｼﾏｹﾝ","kana_city":"ﾆｼｼﾗｶﾜｸﾞﾝﾔﾌﾞｷﾏﾁ","kana_address":"ﾅｶﾉﾒﾆｼ","pref":"福島県","city":"西白河郡矢吹町","address":"中野目西"},
{"zip_code":"9690264","kana_pref":"ﾌｸｼﾏｹﾝ","kana_city":"ﾆｼｼﾗｶﾜｸﾞﾝﾔﾌﾞｷﾏﾁ","kana_address":"ﾅｶﾊﾀ","pref":"福島県","city":"西白河郡矢吹町","address":"中畑"},
{"zip_code":"9690236","kana_pref":"ﾌｸｼﾏｹﾝ","kana_city":"ﾆｼｼﾗｶﾜｸﾞﾝﾔﾌﾞｷﾏﾁ","kana_address":"ﾅｶﾊﾀｼﾝﾃﾞﾝ","pref":"福島県","city":"西白河郡矢吹町","address":"中畑新田"},
{"zip_code":"9690265","kana_pref":"ﾌｸｼﾏｹﾝ","kana_city":"ﾆｼｼﾗｶﾜｸﾞﾝﾔﾌﾞｷﾏﾁ","kana_address":"ﾅｶﾊﾀﾐﾅﾐ","pref":"福島県","city":"西白河郡矢吹町","address":"中畑南"},
{"zip_code":"9690221","kana_pref":"ﾌｸｼﾏｹﾝ","kana_city":"ﾆｼｼﾗｶﾜｸﾞﾝﾔﾌﾞｷﾏﾁ","kana_address":"ﾅｶﾏﾁ","pref":"福島県","city":"西白河郡矢吹町","address":"中町"},
{"zip_code":"9690231","kana_pref":"ﾌｸｼﾏｹﾝ","kana_city":"ﾆｼｼﾗｶﾜｸﾞﾝﾔﾌﾞｷﾏﾁ","kana_address":"ﾅｶﾏﾙ","pref":"福島県","city":"西白河郡矢吹町","address":"中丸"},
{"zip_code":"9690256","kana_pref":"ﾌｸｼﾏｹﾝ","kana_city":"ﾆｼｼﾗｶﾜｸﾞﾝﾔﾌﾞｷﾏﾁ","kana_address":"ﾅﾍﾞｳﾁ","pref":"福島県","city":"西白河郡矢吹町","address":"鍋内"},
{"zip_code":"9690226","kana_pref":"ﾌｸｼﾏｹﾝ","kana_city":"ﾆｼｼﾗｶﾜｸﾞﾝﾔﾌﾞｷﾏﾁ","kana_address":"ﾆｼﾅｶﾞﾐﾈ","pref":"福島県","city":"西白河郡矢吹町","address":"西長峰"},
{"zip_code":"9690263","kana_pref":"ﾌｸｼﾏｹﾝ","kana_city":"ﾆｼｼﾗｶﾜｸﾞﾝﾔﾌﾞｷﾏﾁ","kana_address":"ﾈｼﾞｭｸ","pref":"福島県","city":"西白河郡矢吹町","address":"根宿"},
{"zip_code":"9690245","kana_pref":"ﾌｸｼﾏｹﾝ","kana_city":"ﾆｼｼﾗｶﾜｸﾞﾝﾔﾌﾞｷﾏﾁ","kana_address":"ﾊｸｻﾝ","pref":"福島県","city":"西白河郡矢吹町","address":"白山"},
{"zip_code":"9690222","kana_pref":"ﾌｸｼﾏｹﾝ","kana_city":"ﾆｼｼﾗｶﾜｸﾞﾝﾔﾌﾞｷﾏﾁ","kana_address":"ﾊﾁﾏﾝﾁｮｳ","pref":"福島県","city":"西白河郡矢吹町","address":"八幡町"},
{"zip_code":"9690285","kana_pref":"ﾌｸｼﾏｹﾝ","kana_city":"ﾆｼｼﾗｶﾜｸﾞﾝﾔﾌﾞｷﾏﾁ","kana_address":"ﾊﾅｻｷ","pref":"福島県","city":"西白河郡矢吹町","address":"花咲"},
{"zip_code":"9690233","kana_pref":"ﾌｸｼﾏｹﾝ","kana_city":"ﾆｼｼﾗｶﾜｸﾞﾝﾔﾌﾞｷﾏﾁ","kana_address":"ﾊﾅﾉｻﾄ","pref":"福島県","city":"西白河郡矢吹町","address":"花の里"},
{"zip_code":"9690281","kana_pref":"ﾌｸｼﾏｹﾝ","kana_city":"ﾆｼｼﾗｶﾜｸﾞﾝﾔﾌﾞｷﾏﾁ","kana_address":"ﾊﾞﾊﾞ","pref":"福島県","city":"西白河郡矢吹町","address":"馬場"},
{"zip_code":"9690243","kana_pref":"ﾌｸｼﾏｹﾝ","kana_city":"ﾆｼｼﾗｶﾜｸﾞﾝﾔﾌﾞｷﾏﾁ","kana_address":"ﾋｶﾞｼｶﾜﾊﾗ","pref":"福島県","city":"西白河郡矢吹町","address":"東川原"},
{"zip_code":"9690252","kana_pref":"ﾌｸｼﾏｹﾝ","kana_city":"ﾆｼｼﾗｶﾜｸﾞﾝﾔﾌﾞｷﾏﾁ","kana_address":"ﾋｶﾞｼﾂﾂﾐ","pref":"福島県","city":"西白河郡矢吹町","address":"東堤"},
{"zip_code":"9690225","kana_pref":"ﾌｸｼﾏｹﾝ","kana_city":"ﾆｼｼﾗｶﾜｸﾞﾝﾔﾌﾞｷﾏﾁ","kana_address":"ﾋｶﾞｼﾅｶﾞﾐﾈ","pref":"福島県","city":"西白河郡矢吹町","address":"東長峰"},
{"zip_code":"9690288","kana_pref":"ﾌｸｼﾏｹﾝ","kana_city":"ﾆｼｼﾗｶﾜｸﾞﾝﾔﾌﾞｷﾏﾁ","kana_address":"ﾋｶﾞｼﾉｳﾁ","pref":"福島県","city":"西白河郡矢吹町","address":"東の内"},
{"zip_code":"9690244","kana_pref":"ﾌｸｼﾏｹﾝ","kana_city":"ﾆｼｼﾗｶﾜｸﾞﾝﾔﾌﾞｷﾏﾁ","kana_address":"ﾌﾞｷﾞｮｳﾂﾞｶ","pref":"福島県","city":"西白河郡矢吹町","address":"奉行塚"},
{"zip_code":"9690223","kana_pref":"ﾌｸｼﾏｹﾝ","kana_city":"ﾆｼｼﾗｶﾜｸﾞﾝﾔﾌﾞｷﾏﾁ","kana_address":"ﾌﾞﾝｷｮｳﾁｮｳ","pref":"福島県","city":"西白河郡矢吹町","address":"文京町"},
{"zip_code":"9690254","kana_pref":"ﾌｸｼﾏｹﾝ","kana_city":"ﾆｼｼﾗｶﾜｸﾞﾝﾔﾌﾞｷﾏﾁ","kana_address":"ﾍｲﾊﾞﾁ","pref":"福島県","city":"西白河郡矢吹町","address":"平鉢"},
{"zip_code":"9690237","kana_pref":"ﾌｸｼﾏｹﾝ","kana_city":"ﾆｼｼﾗｶﾜｸﾞﾝﾔﾌﾞｷﾏﾁ","kana_address":"ﾎﾞﾀﾝﾀﾞｲﾗ","pref":"福島県","city":"西白河郡矢吹町","address":"牡丹平"},
{"zip_code":"9690282","kana_pref":"ﾌｸｼﾏｹﾝ","kana_city":"ﾆｼｼﾗｶﾜｸﾞﾝﾔﾌﾞｷﾏﾁ","kana_address":"ﾎﾝｺﾞｳﾁｮｳ","pref":"福島県","city":"西白河郡矢吹町","address":"本郷町"},
{"zip_code":"9690232","kana_pref":"ﾌｸｼﾏｹﾝ","kana_city":"ﾆｼｼﾗｶﾜｸﾞﾝﾔﾌﾞｷﾏﾁ","kana_address":"ﾎﾝｼﾞｮｳﾀﾞﾃ","pref":"福島県","city":"西白河郡矢吹町","address":"本城舘"},
{"zip_code":"9690257","kana_pref":"ﾌｸｼﾏｹﾝ","kana_city":"ﾆｼｼﾗｶﾜｸﾞﾝﾔﾌﾞｷﾏﾁ","kana_address":"ﾏｴｸﾎﾞ","pref":"福島県","city":"西白河郡矢吹町","address":"前久保"},
{"zip_code":"9690234","kana_pref":"ﾌｸｼﾏｹﾝ","kana_city":"ﾆｼｼﾗｶﾜｸﾞﾝﾔﾌﾞｷﾏﾁ","kana_address":"ﾏｴﾀﾞ","pref":"福島県","city":"西白河郡矢吹町","address":"前田"},
{"zip_code":"9690268","kana_pref":"ﾌｸｼﾏｹﾝ","kana_city":"ﾆｼｼﾗｶﾜｸﾞﾝﾔﾌﾞｷﾏﾁ","kana_address":"ﾏﾂｸﾗ","pref":"福島県","city":"西白河郡矢吹町","address":"松倉"},
{"zip_code":"9690262","kana_pref":"ﾌｸｼﾏｹﾝ","kana_city":"ﾆｼｼﾗｶﾜｸﾞﾝﾔﾌﾞｷﾏﾁ","kana_address":"ﾏﾂﾎﾞｳ","pref":"福島県","city":"西白河郡矢吹町","address":"松房"},
{"zip_code":"9690235","kana_pref":"ﾌｸｼﾏｹﾝ","kana_city":"ﾆｼｼﾗｶﾜｸﾞﾝﾔﾌﾞｷﾏﾁ","kana_address":"ﾏﾙﾉｳﾁ","pref":"福島県","city":"西白河郡矢吹町","address":"丸の内"},
{"zip_code":"9690283","kana_pref":"ﾌｸｼﾏｹﾝ","kana_city":"ﾆｼｼﾗｶﾜｸﾞﾝﾔﾌﾞｷﾏﾁ","kana_address":"ﾐﾅﾐﾏﾁ","pref":"福島県","city":"西白河郡矢吹町","address":"南町"},
{"zip_code":"9690253","kana_pref":"ﾌｸｼﾏｹﾝ","kana_city":"ﾆｼｼﾗｶﾜｸﾞﾝﾔﾌﾞｷﾏﾁ","kana_address":"ﾐｮｳｼﾝｶﾐ","pref":"福島県","city":"西白河郡矢吹町","address":"明新上"},
{"zip_code":"9690253","kana_pref":"ﾌｸｼﾏｹﾝ","kana_city":"ﾆｼｼﾗｶﾜｸﾞﾝﾔﾌﾞｷﾏﾁ","kana_address":"ﾐｮｳｼﾝﾅｶ","pref":"福島県","city":"西白河郡矢吹町","address":"明新中"},
{"zip_code":"9690253","kana_pref":"ﾌｸｼﾏｹﾝ","kana_city":"ﾆｼｼﾗｶﾜｸﾞﾝﾔﾌﾞｷﾏﾁ","kana_address":"ﾐｮｳｼﾝｼﾓ","pref":"福島県","city":"西白河郡矢吹町","address":"明新下"},
{"zip_code":"9690253","kana_pref":"ﾌｸｼﾏｹﾝ","kana_city":"ﾆｼｼﾗｶﾜｸﾞﾝﾔﾌﾞｷﾏﾁ","kana_address":"ﾐｮｳｼﾝﾊﾗ","pref":"福島県","city":"西白河郡矢吹町","address":"明新原"},
{"zip_code":"9690253","kana_pref":"ﾌｸｼﾏｹﾝ","kana_city":"ﾆｼｼﾗｶﾜｸﾞﾝﾔﾌﾞｷﾏﾁ","kana_address":"ﾐｮｳｼﾝﾋｶﾞｼ","pref":"福島県","city":"西白河郡矢吹町","address":"明新東"},
{"zip_code":"9690253","kana_pref":"ﾌｸｼﾏｹﾝ","kana_city":"ﾆｼｼﾗｶﾜｸﾞﾝﾔﾌﾞｷﾏﾁ","kana_address":"ﾐｮｳｼﾝﾆｼ","pref":"福島県","city":"西白河郡矢吹町","address":"明新西"},
{"zip_code":"9690213","kana_pref":"ﾌｸｼﾏｹﾝ","kana_city":"ﾆｼｼﾗｶﾜｸﾞﾝﾔﾌﾞｷﾏﾁ","kana_address":"ﾓﾄﾏﾁ","pref":"福島県","city":"西白河郡矢吹町","address":"本町"},
{"zip_code":"9690261","kana_pref":"ﾌｸｼﾏｹﾝ","kana_city":"ﾆｼｼﾗｶﾜｸﾞﾝﾔﾌﾞｷﾏﾁ","kana_address":"ﾔｻｶｴ","pref":"福島県","city":"西白河郡矢吹町","address":"弥栄"},
{"zip_code":"9690244","kana_pref":"ﾌｸｼﾏｹﾝ","kana_city":"ﾆｼｼﾗｶﾜｸﾞﾝﾔﾌﾞｷﾏﾁ","kana_address":"ﾔﾅｶ","pref":"福島県","city":"西白河郡矢吹町","address":"谷中"},
{"zip_code":"9690236","kana_pref":"ﾌｸｼﾏｹﾝ","kana_city":"ﾆｼｼﾗｶﾜｸﾞﾝﾔﾌﾞｷﾏﾁ","kana_address":"ﾔﾌﾞｷ","pref":"福島県","city":"西白河郡矢吹町","address":"矢吹"},
{"zip_code":"9690286","kana_pref":"ﾌｸｼﾏｹﾝ","kana_city":"ﾆｼｼﾗｶﾜｸﾞﾝﾔﾌﾞｷﾏﾁ","kana_address":"ﾔﾏﾄｳﾁ","pref":"福島県","city":"西白河郡矢吹町","address":"大和内"}]}