{"zip_code":[
{"zip_code":"9728301","kana_pref":"ﾌｸｼﾏｹﾝ","kana_city":"ｲﾜｷｼ","kana_address":"ｸｻｷﾀﾞｲ","pref":"福島県","city":"いわき市","address":"草木台"},
{"zip_code":"9728324","kana_pref":"ﾌｸｼﾏｹﾝ","kana_city":"ｲﾜｷｼ","kana_address":"ｻｸﾗｶﾞｵｶ","pref":"福島県","city":"いわき市","address":"桜ケ丘"},
{"zip_code":"9728313","kana_pref":"ﾌｸｼﾏｹﾝ","kana_city":"ｲﾜｷｼ","kana_address":"ｼﾞｮｳﾊﾞﾝｲﾜｶﾞｵｶﾏﾁ","pref":"福島県","city":"いわき市","address":"常磐岩ケ岡町"},
{"zip_code":"9728315","kana_pref":"ﾌｸｼﾏｹﾝ","kana_city":"ｲﾜｷｼ","kana_address":"ｼﾞｮｳﾊﾞﾝｵｻﾏｺﾞﾏﾁ","pref":"福島県","city":"いわき市","address":"常磐長孫町"},
{"zip_code":"9728322","kana_pref":"ﾌｸｼﾏｹﾝ","kana_city":"ｲﾜｷｼ","kana_address":"ｼﾞｮｳﾊﾞﾝｶﾐﾕﾅｶﾞﾔﾏﾁ","pref":"福島県","city":"いわき市","address":"常磐上湯長谷町"},
{"zip_code":"9728317","kana_pref":"ﾌｸｼﾏｹﾝ","kana_city":"ｲﾜｷｼ","kana_address":"ｼﾞｮｳﾊﾞﾝｼﾓﾕﾅｶﾞﾔﾏﾁ","pref":"福島県","city":"いわき市","address":"常磐下湯長谷町"},
{"zip_code":"9728312","kana_pref":"ﾌｸｼﾏｹﾝ","kana_city":"ｲﾜｷｼ","kana_address":"ｼﾞｮｳﾊﾞﾝｼﾓﾌﾅｵﾏﾁ","pref":"福島県","city":"いわき市","address":"常磐下船尾町"},
{"zip_code":"9728325","kana_pref":"ﾌｸｼﾏｹﾝ","kana_city":"ｲﾜｷｼ","kana_address":"ｼﾞｮｳﾊﾞﾝｼﾗﾄﾘﾏﾁ","pref":"福島県","city":"いわき市","address":"常磐白鳥町"},
{"zip_code":"9728318","kana_pref":"ﾌｸｼﾏｹﾝ","kana_city":"ｲﾜｷｼ","kana_address":"ｼﾞｮｳﾊﾞﾝｾｷﾌﾈﾏﾁ","pref":"福島県","city":"いわき市","address":"常磐関船町"},
{"zip_code":"9728316","kana_pref":"ﾌｸｼﾏｹﾝ","kana_city":"ｲﾜｷｼ","kana_address":"ｼﾞｮｳﾊﾞﾝﾆｼｺﾞｳﾏﾁ","pref":"福島県","city":"いわき市","address":"常磐西郷町"},
{"zip_code":"9728326","kana_pref":"ﾌｸｼﾏｹﾝ","kana_city":"ｲﾜｷｼ","kana_address":"ｼﾞｮｳﾊﾞﾝﾌｼﾞﾜﾗﾏﾁ","pref":"福島県","city":"いわき市","address":"常磐藤原町"},
{"zip_code":"9728314","kana_pref":"ﾌｸｼﾏｹﾝ","kana_city":"ｲﾜｷｼ","kana_address":"ｼﾞｮｳﾊﾞﾝﾏﾀﾞﾏﾏﾁ","pref":"福島県","city":"いわき市","address":"常磐馬玉町"},
{"zip_code":"9728323","kana_pref":"ﾌｸｼﾏｹﾝ","kana_city":"ｲﾜｷｼ","kana_address":"ｼﾞｮｳﾊﾞﾝﾏﾂｶﾞﾀﾞｲ","pref":"福島県","city":"いわき市","address":"常磐松が台"},
{"zip_code":"9728311","kana_pref":"ﾌｸｼﾏｹﾝ","kana_city":"ｲﾜｷｼ","kana_address":"ｼﾞｮｳﾊﾞﾝﾐｽﾞﾉﾔﾏﾁ","pref":"福島県","city":"いわき市","address":"常磐水野谷町"},
{"zip_code":"9728321","kana_pref":"ﾌｸｼﾏｹﾝ","kana_city":"ｲﾜｷｼ","kana_address":"ｼﾞｮｳﾊﾞﾝﾕﾓﾄﾏﾁ","pref":"福島県","city":"いわき市","address":"常磐湯本町"},
{"zip_code":"9728338","kana_pref":"ﾌｸｼﾏｹﾝ","kana_city":"ｲﾜｷｼ","kana_address":"ﾁｭｳﾌﾞｺｳｷﾞｮｳﾀﾞﾝﾁ","pref":"福島県","city":"いわき市","address":"中部工業団地"},
{"zip_code":"9720251","kana_pref":"ﾌｸｼﾏｹﾝ","kana_city":"ｲﾜｷｼ","kana_address":"ﾄｵﾉﾏﾁｲﾘﾄｵﾉ","pref":"福島県","city":"いわき市","address":"遠野町入遠野"},
{"zip_code":"9720253","kana_pref":"ﾌｸｼﾏｹﾝ","kana_city":"ｲﾜｷｼ","kana_address":"ﾄｵﾉﾏﾁｵｵﾀﾞｲﾗ","pref":"福島県","city":"いわき市","address":"遠野町大平"},
{"zip_code":"9720161","kana_pref":"ﾌｸｼﾏｹﾝ","kana_city":"ｲﾜｷｼ","kana_address":"ﾄｵﾉﾏﾁｶﾄｵﾉ","pref":"福島県","city":"いわき市","address":"遠野町上遠野"},
{"zip_code":"9720252","kana_pref":"ﾌｸｼﾏｹﾝ","kana_city":"ｲﾜｷｼ","kana_address":"ﾄｵﾉﾏﾁｶﾐﾈﾓﾄ","pref":"福島県","city":"いわき市","address":"遠野町上根本"},
{"zip_code":"9720162","kana_pref":"ﾌｸｼﾏｹﾝ","kana_city":"ｲﾜｷｼ","kana_address":"ﾄｵﾉﾏﾁﾀｷ","pref":"福島県","city":"いわき市","address":"遠野町滝"},
{"zip_code":"9720163","kana_pref":"ﾌｸｼﾏｹﾝ","kana_city":"ｲﾜｷｼ","kana_address":"ﾄｵﾉﾏﾁﾈｷﾞｼ","pref":"福島県","city":"いわき市","address":"遠野町根岸"},
{"zip_code":"9720164","kana_pref":"ﾌｸｼﾏｹﾝ","kana_city":"ｲﾜｷｼ","kana_address":"ﾄｵﾉﾏﾁﾐﾔﾏﾀﾞ","pref":"福島県","city":"いわき市","address":"遠野町深山田"},
{"zip_code":"9728331","kana_pref":"ﾌｸｼﾏｹﾝ","kana_city":"ｲﾜｷｼ","kana_address":"ﾜﾀﾅﾍﾞﾏﾁｲｽﾞﾐﾀﾞ","pref":"福島県","city":"いわき市","address":"渡辺町泉田"},
{"zip_code":"9728336","kana_pref":"ﾌｸｼﾏｹﾝ","kana_city":"ｲﾜｷｼ","kana_address":"ﾜﾀﾅﾍﾞﾏﾁｶﾐｶﾏﾄﾞ","pref":"福島県","city":"いわき市","address":"渡辺町上釜戸"},
{"zip_code":"9728334","kana_pref":"ﾌｸｼﾏｹﾝ","kana_city":"ｲﾜｷｼ","kana_address":"ﾜﾀﾅﾍﾞﾏﾁﾀﾅﾍﾞ","pref":"福島県","city":"いわき市","address":"渡辺町田部"},
{"zip_code":"9728337","kana_pref":"ﾌｸｼﾏｹﾝ","kana_city":"ｲﾜｷｼ","kana_address":"ﾜﾀﾅﾍﾞﾏﾁﾅｶｶﾏﾄﾞ","pref":"福島県","city":"いわき市","address":"渡辺町中釜戸"},
{"zip_code":"9728332","kana_pref":"ﾌｸｼﾏｹﾝ","kana_city":"ｲﾜｷｼ","kana_address":"ﾜﾀﾅﾍﾞﾏﾁﾋﾙﾉ","pref":"福島県","city":"いわき市","address":"渡辺町昼野"},
{"zip_code":"9728333","kana_pref":"ﾌｸｼﾏｹﾝ","kana_city":"ｲﾜｷｼ","kana_address":"ﾜﾀﾅﾍﾞﾏﾁﾎﾞﾗ","pref":"福島県","city":"いわき市","address":"渡辺町洞"},
{"zip_code":"9728335","kana_pref":"ﾌｸｼﾏｹﾝ","kana_city":"ｲﾜｷｼ","kana_address":"ﾜﾀﾅﾍﾞﾏﾁﾏﾂｺﾞﾔ","pref":"福島県","city":"いわき市","address":"渡辺町松小屋"}]}