{"zip_code":[
{"zip_code":"9738404","kana_pref":"ﾌｸｼﾏｹﾝ","kana_city":"ｲﾜｷｼ","kana_address":"ｳﾁｺﾞｳｳﾁﾏﾁ","pref":"福島県","city":"いわき市","address":"内郷内町"},
{"zip_code":"9738401","kana_pref":"ﾌｸｼﾏｹﾝ","kana_city":"ｲﾜｷｼ","kana_address":"ｳﾁｺﾞｳｵｼﾞﾏﾏﾁ","pref":"福島県","city":"いわき市","address":"内郷小島町"},
{"zip_code":"9738406","kana_pref":"ﾌｸｼﾏｹﾝ","kana_city":"ｲﾜｷｼ","kana_address":"ｳﾁｺﾞｳｺｳﾔﾏﾁ","pref":"福島県","city":"いわき市","address":"内郷高野町"},
{"zip_code":"9738405","kana_pref":"ﾌｸｼﾏｹﾝ","kana_city":"ｲﾜｷｼ","kana_address":"ｳﾁｺﾞｳｼﾗﾐｽﾞﾏﾁ","pref":"福島県","city":"いわき市","address":"内郷白水町"},
{"zip_code":"9738408","kana_pref":"ﾌｸｼﾏｹﾝ","kana_city":"ｲﾜｷｼ","kana_address":"ｳﾁｺﾞｳﾀｶｻｶﾏﾁ","pref":"福島県","city":"いわき市","address":"内郷高坂町"},
{"zip_code":"9738403","kana_pref":"ﾌｸｼﾏｹﾝ","kana_city":"ｲﾜｷｼ","kana_address":"ｳﾁｺﾞｳﾂﾂﾞﾗﾏﾁ","pref":"福島県","city":"いわき市","address":"内郷綴町"},
{"zip_code":"9738409","kana_pref":"ﾌｸｼﾏｹﾝ","kana_city":"ｲﾜｷｼ","kana_address":"ｳﾁｺﾞｳﾐﾀﾞｲｻｶｲﾏﾁ","pref":"福島県","city":"いわき市","address":"内郷御台境町"},
{"zip_code":"9738402","kana_pref":"ﾌｸｼﾏｹﾝ","kana_city":"ｲﾜｷｼ","kana_address":"ｳﾁｺﾞｳﾐﾏﾔﾏﾁ","pref":"福島県","city":"いわき市","address":"内郷御厩町"},
{"zip_code":"9738407","kana_pref":"ﾌｸｼﾏｹﾝ","kana_city":"ｲﾜｷｼ","kana_address":"ｳﾁｺﾞｳﾐﾔﾏﾁ","pref":"福島県","city":"いわき市","address":"内郷宮町"},
{"zip_code":"9738411","kana_pref":"ﾌｸｼﾏｹﾝ","kana_city":"ｲﾜｷｼ","kana_address":"ｵｼﾞﾏﾏﾁ","pref":"福島県","city":"いわき市","address":"小島町"},
{"zip_code":"9738412","kana_pref":"ﾌｸｼﾏｹﾝ","kana_city":"ｲﾜｷｼ","kana_address":"ﾍｲｾｲ","pref":"福島県","city":"いわき市","address":"平成"}]}