{"zip_code":[
{"zip_code":"9748212","kana_pref":"ﾌｸｼﾏｹﾝ","kana_city":"ｲﾜｷｼ","kana_address":"ｱｽﾞﾏﾀﾞﾏﾁ","pref":"福島県","city":"いわき市","address":"東田町"},
{"zip_code":"9748213","kana_pref":"ﾌｸｼﾏｹﾝ","kana_city":"ｲﾜｷｼ","kana_address":"ｲｼﾂﾞｶﾏﾁ","pref":"福島県","city":"いわき市","address":"石塚町"},
{"zip_code":"9748222","kana_pref":"ﾌｸｼﾏｹﾝ","kana_city":"ｲﾜｷｼ","kana_address":"ｲﾜﾏﾏﾁ","pref":"福島県","city":"いわき市","address":"岩間町"},
{"zip_code":"9748261","kana_pref":"ﾌｸｼﾏｹﾝ","kana_city":"ｲﾜｷｼ","kana_address":"ｳｴﾀﾞﾏﾁ","pref":"福島県","city":"いわき市","address":"植田町"},
{"zip_code":"9748203","kana_pref":"ﾌｸｼﾏｹﾝ","kana_city":"ｲﾜｷｼ","kana_address":"ｳｼﾛﾀﾞﾏﾁ","pref":"福島県","city":"いわき市","address":"後田町"},
{"zip_code":"9748201","kana_pref":"ﾌｸｼﾏｹﾝ","kana_city":"ｲﾜｷｼ","kana_address":"ｴﾊﾞﾀﾏﾁ","pref":"福島県","city":"いわき市","address":"江畑町"},
{"zip_code":"9748221","kana_pref":"ﾌｸｼﾏｹﾝ","kana_city":"ｲﾜｷｼ","kana_address":"ｵﾊﾞﾏﾏﾁ","pref":"福島県","city":"いわき市","address":"小浜町"},
{"zip_code":"9748211","kana_pref":"ﾌｸｼﾏｹﾝ","kana_city":"ｲﾜｷｼ","kana_address":"ｶﾈﾔﾏﾏﾁ","pref":"福島県","city":"いわき市","address":"金山町"},
{"zip_code":"9748223","kana_pref":"ﾌｸｼﾏｹﾝ","kana_city":"ｲﾜｷｼ","kana_address":"ｻﾇｶﾏﾁ","pref":"福島県","city":"いわき市","address":"佐糠町"},
{"zip_code":"9748202","kana_pref":"ﾌｸｼﾏｹﾝ","kana_city":"ｲﾜｷｼ","kana_address":"ｿｴﾉﾏﾁ","pref":"福島県","city":"いわき市","address":"添野町"},
{"zip_code":"9748204","kana_pref":"ﾌｸｼﾏｹﾝ","kana_city":"ｲﾜｷｼ","kana_address":"ﾀｶｸﾗﾏﾁ","pref":"福島県","city":"いわき市","address":"高倉町"},
{"zip_code":"9740243","kana_pref":"ﾌｸｼﾏｹﾝ","kana_city":"ｲﾜｷｼ","kana_address":"ﾀﾋﾞﾄﾏﾁｲｼｽﾞﾐ","pref":"福島県","city":"いわき市","address":"田人町石住"},
{"zip_code":"9740242","kana_pref":"ﾌｸｼﾏｹﾝ","kana_city":"ｲﾜｷｼ","kana_address":"ﾀﾋﾞﾄﾏﾁｶｲﾄﾞﾏﾘ","pref":"福島県","city":"いわき市","address":"田人町貝泊"},
{"zip_code":"9740151","kana_pref":"ﾌｸｼﾏｹﾝ","kana_city":"ｲﾜｷｼ","kana_address":"ﾀﾋﾞﾄﾏﾁｸﾛﾀﾞ","pref":"福島県","city":"いわき市","address":"田人町黒田"},
{"zip_code":"9740241","kana_pref":"ﾌｸｼﾏｹﾝ","kana_city":"ｲﾜｷｼ","kana_address":"ﾀﾋﾞﾄﾏﾁﾆﾁﾌﾞ","pref":"福島県","city":"いわき市","address":"田人町荷路夫"},
{"zip_code":"9740153","kana_pref":"ﾌｸｼﾏｹﾝ","kana_city":"ｲﾜｷｼ","kana_address":"ﾀﾋﾞﾄﾏﾁﾐﾅﾐｵｵﾀﾞｲﾗ","pref":"福島県","city":"いわき市","address":"田人町南大平"},
{"zip_code":"9740252","kana_pref":"ﾌｸｼﾏｹﾝ","kana_city":"ｲﾜｷｼ","kana_address":"ﾀﾋﾞﾄﾏﾁﾀﾋﾞｳﾄ","pref":"福島県","city":"いわき市","address":"田人町旅人"},
{"zip_code":"9740152","kana_pref":"ﾌｸｼﾏｹﾝ","kana_city":"ｲﾜｷｼ","kana_address":"ﾀﾋﾞﾄﾏﾁﾀﾋﾞｳﾄ","pref":"福島県","city":"いわき市","address":"田人町旅人"},
{"zip_code":"9748231","kana_pref":"ﾌｸｼﾏｹﾝ","kana_city":"ｲﾜｷｼ","kana_address":"ﾄﾐﾂﾏﾁ","pref":"福島県","city":"いわき市","address":"富津町"},
{"zip_code":"9748251","kana_pref":"ﾌｸｼﾏｹﾝ","kana_city":"ｲﾜｷｼ","kana_address":"ﾅｶｵｶﾏﾁ","pref":"福島県","city":"いわき市","address":"中岡町"},
{"zip_code":"9748252","kana_pref":"ﾌｸｼﾏｹﾝ","kana_city":"ｲﾜｷｼ","kana_address":"ﾆｲﾀﾞﾏﾁ","pref":"福島県","city":"いわき市","address":"仁井田町"},
{"zip_code":"9748232","kana_pref":"ﾌｸｼﾏｹﾝ","kana_city":"ｲﾜｷｼ","kana_address":"ﾆｼｷﾏﾁ","pref":"福島県","city":"いわき市","address":"錦町"},
{"zip_code":"9748233","kana_pref":"ﾌｸｼﾏｹﾝ","kana_city":"ｲﾜｷｼ","kana_address":"ﾆｼｷﾏﾁﾁｭｳｵｳ","pref":"福島県","city":"いわき市","address":"錦町中央"},
{"zip_code":"9748242","kana_pref":"ﾌｸｼﾏｹﾝ","kana_city":"ｲﾜｷｼ","kana_address":"ﾐﾅﾐﾀﾞｲ","pref":"福島県","city":"いわき市","address":"南台"},
{"zip_code":"9748241","kana_pref":"ﾌｸｼﾏｹﾝ","kana_city":"ｲﾜｷｼ","kana_address":"ﾔﾏﾀﾞﾏﾁ","pref":"福島県","city":"いわき市","address":"山田町"}]}