{"zip_code":[
{"zip_code":"9750000","kana_pref":"ﾌｸｼﾏｹﾝ","kana_city":"ﾐﾅﾐｿｳﾏｼ","kana_address":"","pref":"福島県","city":"南相馬市","address":""},
{"zip_code":"9750039","kana_pref":"ﾌｸｼﾏｹﾝ","kana_city":"ﾐﾅﾐｿｳﾏｼ","kana_address":"ﾊﾗﾏﾁｸｱｵﾊﾞﾁｮｳ","pref":"福島県","city":"南相馬市","address":"原町区青葉町"},
{"zip_code":"9750004","kana_pref":"ﾌｸｼﾏｹﾝ","kana_city":"ﾐﾅﾐｿｳﾏｼ","kana_address":"ﾊﾗﾏﾁｸｱｻﾋﾁｮｳ","pref":"福島県","city":"南相馬市","address":"原町区旭町"},
{"zip_code":"9750002","kana_pref":"ﾌｸｼﾏｹﾝ","kana_city":"ﾐﾅﾐｿｳﾏｼ","kana_address":"ﾊﾗﾏﾁｸｱｽﾞﾏﾁｮｳ","pref":"福島県","city":"南相馬市","address":"原町区東町"},
{"zip_code":"9750075","kana_pref":"ﾌｸｼﾏｹﾝ","kana_city":"ﾐﾅﾐｿｳﾏｼ","kana_address":"ﾊﾗﾏﾁｸｲｼｶﾞﾐ","pref":"福島県","city":"南相馬市","address":"原町区石神"},
{"zip_code":"9750023","kana_pref":"ﾌｸｼﾏｹﾝ","kana_city":"ﾐﾅﾐｿｳﾏｼ","kana_address":"ﾊﾗﾏﾁｸｲｽﾞﾐ","pref":"福島県","city":"南相馬市","address":"原町区泉"},
{"zip_code":"9750017","kana_pref":"ﾌｸｼﾏｹﾝ","kana_city":"ﾐﾅﾐｿｳﾏｼ","kana_address":"ﾊﾗﾏﾁｸｳｼｺﾞｴ","pref":"福島県","city":"南相馬市","address":"原町区牛越"},
{"zip_code":"9750047","kana_pref":"ﾌｸｼﾏｹﾝ","kana_city":"ﾐﾅﾐｿｳﾏｼ","kana_address":"ﾊﾗﾏﾁｸｴﾈｲ","pref":"福島県","city":"南相馬市","address":"原町区江井"},
{"zip_code":"9750078","kana_pref":"ﾌｸｼﾏｹﾝ","kana_city":"ﾐﾅﾐｿｳﾏｼ","kana_address":"ﾊﾗﾏﾁｸｵｵｶﾞｲ","pref":"福島県","city":"南相馬市","address":"原町区大谷"},
{"zip_code":"9750061","kana_pref":"ﾌｸｼﾏｹﾝ","kana_city":"ﾐﾅﾐｿｳﾏｼ","kana_address":"ﾊﾗﾏﾁｸｵｵｷﾄﾞ","pref":"福島県","city":"南相馬市","address":"原町区大木戸"},
{"zip_code":"9750079","kana_pref":"ﾌｸｼﾏｹﾝ","kana_city":"ﾐﾅﾐｿｳﾏｼ","kana_address":"ﾊﾗﾏﾁｸｵｵﾊﾗ","pref":"福島県","city":"南相馬市","address":"原町区大原"},
{"zip_code":"9750001","kana_pref":"ﾌｸｼﾏｹﾝ","kana_city":"ﾐﾅﾐｿｳﾏｼ","kana_address":"ﾊﾗﾏﾁｸｵｵﾏﾁ","pref":"福島県","city":"南相馬市","address":"原町区大町"},
{"zip_code":"9750049","kana_pref":"ﾌｸｼﾏｹﾝ","kana_city":"ﾐﾅﾐｿｳﾏｼ","kana_address":"ﾊﾗﾏﾁｸｵｵﾐｶ","pref":"福島県","city":"南相馬市","address":"原町区大甕"},
{"zip_code":"9750011","kana_pref":"ﾌｸｼﾏｹﾝ","kana_city":"ﾐﾅﾐｿｳﾏｼ","kana_address":"ﾊﾗﾏﾁｸｵｶﾞﾜﾁｮｳ","pref":"福島県","city":"南相馬市","address":"原町区小川町"},
{"zip_code":"9750055","kana_pref":"ﾌｸｼﾏｹﾝ","kana_city":"ﾐﾅﾐｿｳﾏｼ","kana_address":"ﾊﾗﾏﾁｸｵｷﾞｻｸ","pref":"福島県","city":"南相馬市","address":"原町区小木さく"},
{"zip_code":"9750064","kana_pref":"ﾌｸｼﾏｹﾝ","kana_city":"ﾐﾅﾐｿｳﾏｼ","kana_address":"ﾊﾗﾏﾁｸｵｼｶﾞﾏ","pref":"福島県","city":"南相馬市","address":"原町区押釜"},
{"zip_code":"9750036","kana_pref":"ﾌｸｼﾏｹﾝ","kana_city":"ﾐﾅﾐｿｳﾏｼ","kana_address":"ﾊﾗﾏﾁｸｶｲﾊﾞﾏ","pref":"福島県","city":"南相馬市","address":"原町区萱浜"},
{"zip_code":"9750058","kana_pref":"ﾌｸｼﾏｹﾝ","kana_city":"ﾐﾅﾐｿｳﾏｼ","kana_address":"ﾊﾗﾏﾁｸｶﾀｸﾗ","pref":"福島県","city":"南相馬市","address":"原町区片倉"},
{"zip_code":"9750021","kana_pref":"ﾌｸｼﾏｹﾝ","kana_city":"ﾐﾅﾐｿｳﾏｼ","kana_address":"ﾊﾗﾏﾁｸｶﾈｻﾞﾜ","pref":"福島県","city":"南相馬市","address":"原町区金沢"},
{"zip_code":"9750059","kana_pref":"ﾌｸｼﾏｹﾝ","kana_city":"ﾐﾅﾐｿｳﾏｼ","kana_address":"ﾊﾗﾏﾁｸｶﾐｵｵﾀ","pref":"福島県","city":"南相馬市","address":"原町区上太田"},
{"zip_code":"9750027","kana_pref":"ﾌｸｼﾏｹﾝ","kana_city":"ﾐﾅﾐｿｳﾏｼ","kana_address":"ﾊﾗﾏﾁｸｶﾐｷﾀﾀｶﾋﾗ","pref":"福島県","city":"南相馬市","address":"原町区上北高平"},
{"zip_code":"9750034","kana_pref":"ﾌｸｼﾏｹﾝ","kana_city":"ﾐﾅﾐｿｳﾏｼ","kana_address":"ﾊﾗﾏﾁｸｶﾐｼﾌﾞｻ","pref":"福島県","city":"南相馬市","address":"原町区上渋佐"},
{"zip_code":"9750026","kana_pref":"ﾌｸｼﾏｹﾝ","kana_city":"ﾐﾅﾐｿｳﾏｼ","kana_address":"ﾊﾗﾏﾁｸｶﾐﾀｶﾋﾗ","pref":"福島県","city":"南相馬市","address":"原町区上高平"},
{"zip_code":"9750013","kana_pref":"ﾌｸｼﾏｹﾝ","kana_city":"ﾐﾅﾐｿｳﾏｼ","kana_address":"ﾊﾗﾏﾁｸｶﾐﾏﾁ","pref":"福島県","city":"南相馬市","address":"原町区上町"},
{"zip_code":"9750022","kana_pref":"ﾌｸｼﾏｹﾝ","kana_city":"ﾐﾅﾐｿｳﾏｼ","kana_address":"ﾊﾗﾏﾁｸｷﾀｲｽﾞﾐ","pref":"福島県","city":"南相馬市","address":"原町区北泉"},
{"zip_code":"9750072","kana_pref":"ﾌｸｼﾏｹﾝ","kana_city":"ﾐﾅﾐｿｳﾏｼ","kana_address":"ﾊﾗﾏﾁｸｷﾀﾅｶﾞﾉ","pref":"福島県","city":"南相馬市","address":"原町区北長野"},
{"zip_code":"9750073","kana_pref":"ﾌｸｼﾏｹﾝ","kana_city":"ﾐﾅﾐｿｳﾏｼ","kana_address":"ﾊﾗﾏﾁｸｷﾀﾆｲﾀﾞ","pref":"福島県","city":"南相馬市","address":"原町区北新田"},
{"zip_code":"9750037","kana_pref":"ﾌｸｼﾏｹﾝ","kana_city":"ﾐﾅﾐｿｳﾏｼ","kana_address":"ﾊﾗﾏﾁｸｷﾀﾊﾗ","pref":"福島県","city":"南相馬市","address":"原町区北原"},
{"zip_code":"9750018","kana_pref":"ﾌｸｼﾏｹﾝ","kana_city":"ﾐﾅﾐｿｳﾏｼ","kana_address":"ﾊﾗﾏﾁｸｷﾀﾏﾁ","pref":"福島県","city":"南相馬市","address":"原町区北町"},
{"zip_code":"9750015","kana_pref":"ﾌｸｼﾏｹﾝ","kana_city":"ﾐﾅﾐｿｳﾏｼ","kana_address":"ﾊﾗﾏﾁｸｸﾆﾐﾁｮｳ","pref":"福島県","city":"南相馬市","address":"原町区国見町"},
{"zip_code":"9750045","kana_pref":"ﾌｸｼﾏｹﾝ","kana_city":"ﾐﾅﾐｿｳﾏｼ","kana_address":"ﾊﾗﾏﾁｸｺｻﾞﾜ","pref":"福島県","city":"南相馬市","address":"原町区小沢"},
{"zip_code":"9750043","kana_pref":"ﾌｸｼﾏｹﾝ","kana_city":"ﾐﾅﾐｿｳﾏｼ","kana_address":"ﾊﾗﾏﾁｸｺﾊﾞﾏ","pref":"福島県","city":"南相馬市","address":"原町区小浜"},
{"zip_code":"9750051","kana_pref":"ﾌｸｼﾏｹﾝ","kana_city":"ﾐﾅﾐｿｳﾏｼ","kana_address":"ﾊﾗﾏﾁｸｺﾞﾗｲ","pref":"福島県","city":"南相馬市","address":"原町区牛来"},
{"zip_code":"9750003","kana_pref":"ﾌｸｼﾏｹﾝ","kana_city":"ﾐﾅﾐｿｳﾏｼ","kana_address":"ﾊﾗﾏﾁｸｻｶｴﾁｮｳ","pref":"福島県","city":"南相馬市","address":"原町区栄町"},
{"zip_code":"9750032","kana_pref":"ﾌｸｼﾏｹﾝ","kana_city":"ﾐﾅﾐｿｳﾏｼ","kana_address":"ﾊﾗﾏﾁｸｻｸﾗｲﾁｮｳ","pref":"福島県","city":"南相馬市","address":"原町区桜井町"},
{"zip_code":"9750076","kana_pref":"ﾌｸｼﾏｹﾝ","kana_city":"ﾐﾅﾐｿｳﾏｼ","kana_address":"ﾊﾗﾏﾁｸｼﾀﾞｻﾞﾜ","pref":"福島県","city":"南相馬市","address":"原町区信田沢"},
{"zip_code":"9750042","kana_pref":"ﾌｸｼﾏｹﾝ","kana_city":"ﾐﾅﾐｿｳﾏｼ","kana_address":"ﾊﾗﾏﾁｸｼﾄﾞｹ","pref":"福島県","city":"南相馬市","address":"原町区雫"},
{"zip_code":"9750044","kana_pref":"ﾌｸｼﾏｹﾝ","kana_city":"ﾐﾅﾐｿｳﾏｼ","kana_address":"ﾊﾗﾏﾁｸｼﾓｴﾈｲ","pref":"福島県","city":"南相馬市","address":"原町区下江井"},
{"zip_code":"9750041","kana_pref":"ﾌｸｼﾏｹﾝ","kana_city":"ﾐﾅﾐｿｳﾏｼ","kana_address":"ﾊﾗﾏﾁｸｼﾓｵｵﾀ","pref":"福島県","city":"南相馬市","address":"原町区下太田"},
{"zip_code":"9750024","kana_pref":"ﾌｸｼﾏｹﾝ","kana_city":"ﾐﾅﾐｿｳﾏｼ","kana_address":"ﾊﾗﾏﾁｸｼﾓｷﾀﾀｶﾋﾗ","pref":"福島県","city":"南相馬市","address":"原町区下北高平"},
{"zip_code":"9750035","kana_pref":"ﾌｸｼﾏｹﾝ","kana_city":"ﾐﾅﾐｿｳﾏｼ","kana_address":"ﾊﾗﾏﾁｸｼﾓｼﾌﾞｻ","pref":"福島県","city":"南相馬市","address":"原町区下渋佐"},
{"zip_code":"9750025","kana_pref":"ﾌｸｼﾏｹﾝ","kana_city":"ﾐﾅﾐｿｳﾏｼ","kana_address":"ﾊﾗﾏﾁｸｼﾓﾀｶﾋﾗ","pref":"福島県","city":"南相馬市","address":"原町区下高平"},
{"zip_code":"9750054","kana_pref":"ﾌｸｼﾏｹﾝ","kana_city":"ﾐﾅﾐｿｳﾏｼ","kana_address":"ﾊﾗﾏﾁｸﾀｶ","pref":"福島県","city":"南相馬市","address":"原町区高"},
{"zip_code":"9750077","kana_pref":"ﾌｸｼﾏｹﾝ","kana_city":"ﾐﾅﾐｿｳﾏｼ","kana_address":"ﾊﾗﾏﾁｸﾀｶﾉｸﾗ","pref":"福島県","city":"南相馬市","address":"原町区高倉"},
{"zip_code":"9750033","kana_pref":"ﾌｸｼﾏｹﾝ","kana_city":"ﾐﾅﾐｿｳﾏｼ","kana_address":"ﾊﾗﾏﾁｸﾀｶﾐﾁｮｳ","pref":"福島県","city":"南相馬市","address":"原町区高見町"},
{"zip_code":"9750046","kana_pref":"ﾌｸｼﾏｹﾝ","kana_city":"ﾐﾅﾐｿｳﾏｼ","kana_address":"ﾊﾗﾏﾁｸﾂﾂﾐｶﾞｲ","pref":"福島県","city":"南相馬市","address":"原町区堤谷"},
{"zip_code":"9750056","kana_pref":"ﾌｸｼﾏｹﾝ","kana_city":"ﾐﾅﾐｿｳﾏｼ","kana_address":"ﾊﾗﾏﾁｸﾂﾙｶﾞｲ","pref":"福島県","city":"南相馬市","address":"原町区鶴谷"},
{"zip_code":"9750052","kana_pref":"ﾌｸｼﾏｹﾝ","kana_city":"ﾐﾅﾐｿｳﾏｼ","kana_address":"ﾊﾗﾏﾁｸﾅｶｵｵﾀ","pref":"福島県","city":"南相馬市","address":"原町区中太田"},
{"zip_code":"9750074","kana_pref":"ﾌｸｼﾏｹﾝ","kana_city":"ﾐﾅﾐｿｳﾏｼ","kana_address":"ﾊﾗﾏﾁｸﾅｶﾞﾉ","pref":"福島県","city":"南相馬市","address":"原町区長野"},
{"zip_code":"9750016","kana_pref":"ﾌｸｼﾏｹﾝ","kana_city":"ﾐﾅﾐｿｳﾏｼ","kana_address":"ﾊﾗﾏﾁｸﾅｶﾏﾁ","pref":"福島県","city":"南相馬市","address":"原町区仲町"},
{"zip_code":"9750031","kana_pref":"ﾌｸｼﾏｹﾝ","kana_city":"ﾐﾅﾐｿｳﾏｼ","kana_address":"ﾊﾗﾏﾁｸﾆｼｷﾁｮｳ","pref":"福島県","city":"南相馬市","address":"原町区錦町"},
{"zip_code":"9750014","kana_pref":"ﾌｸｼﾏｹﾝ","kana_city":"ﾐﾅﾐｿｳﾏｼ","kana_address":"ﾊﾗﾏﾁｸﾆｼﾏﾁ","pref":"福島県","city":"南相馬市","address":"原町区西町"},
{"zip_code":"9750006","kana_pref":"ﾌｸｼﾏｹﾝ","kana_city":"ﾐﾅﾐｿｳﾏｼ","kana_address":"ﾊﾗﾏﾁｸﾊｼﾓﾄﾁｮｳ","pref":"福島県","city":"南相馬市","address":"原町区橋本町"},
{"zip_code":"9750063","kana_pref":"ﾌｸｼﾏｹﾝ","kana_city":"ﾐﾅﾐｿｳﾏｼ","kana_address":"ﾊﾗﾏﾁｸﾊﾞﾊﾞ","pref":"福島県","city":"南相馬市","address":"原町区馬場"},
{"zip_code":"9750038","kana_pref":"ﾌｸｼﾏｹﾝ","kana_city":"ﾐﾅﾐｿｳﾏｼ","kana_address":"ﾊﾗﾏﾁｸﾋﾉﾃﾞﾁｮｳ","pref":"福島県","city":"南相馬市","address":"原町区日の出町"},
{"zip_code":"9750071","kana_pref":"ﾌｸｼﾏｹﾝ","kana_city":"ﾐﾅﾐｿｳﾏｼ","kana_address":"ﾊﾗﾏﾁｸﾌｺｳﾉ","pref":"福島県","city":"南相馬市","address":"原町区深野"},
{"zip_code":"9750005","kana_pref":"ﾌｸｼﾏｹﾝ","kana_city":"ﾐﾅﾐｿｳﾏｼ","kana_address":"ﾊﾗﾏﾁｸﾌﾀﾐﾁｮｳ","pref":"福島県","city":"南相馬市","address":"原町区二見町"},
{"zip_code":"9750062","kana_pref":"ﾌｸｼﾏｹﾝ","kana_city":"ﾐﾅﾐｿｳﾏｼ","kana_address":"ﾊﾗﾏﾁｸﾎﾝｼﾞﾝﾏｴ","pref":"福島県","city":"南相馬市","address":"原町区本陣前"},
{"zip_code":"9750053","kana_pref":"ﾌｸｼﾏｹﾝ","kana_city":"ﾐﾅﾐｿｳﾏｼ","kana_address":"ﾊﾗﾏﾁｸﾏｽﾀﾞ","pref":"福島県","city":"南相馬市","address":"原町区益田"},
{"zip_code":"9750012","kana_pref":"ﾌｸｼﾏｹﾝ","kana_city":"ﾐﾅﾐｿｳﾏｼ","kana_address":"ﾊﾗﾏﾁｸﾐｼﾏﾁｮｳ","pref":"福島県","city":"南相馬市","address":"原町区三島町"},
{"zip_code":"9750007","kana_pref":"ﾌｸｼﾏｹﾝ","kana_city":"ﾐﾅﾐｿｳﾏｼ","kana_address":"ﾊﾗﾏﾁｸﾐﾅﾐﾏﾁ","pref":"福島県","city":"南相馬市","address":"原町区南町"},
{"zip_code":"9750048","kana_pref":"ﾌｸｼﾏｹﾝ","kana_city":"ﾐﾅﾐｿｳﾏｼ","kana_address":"ﾊﾗﾏﾁｸﾒﾒｻﾞﾜ","pref":"福島県","city":"南相馬市","address":"原町区米々沢"},
{"zip_code":"9750008","kana_pref":"ﾌｸｼﾏｹﾝ","kana_city":"ﾐﾅﾐｿｳﾏｼ","kana_address":"ﾊﾗﾏﾁｸﾓﾄﾏﾁ","pref":"福島県","city":"南相馬市","address":"原町区本町"},
{"zip_code":"9750057","kana_pref":"ﾌｸｼﾏｹﾝ","kana_city":"ﾐﾅﾐｿｳﾏｼ","kana_address":"ﾊﾗﾏﾁｸﾔｶﾞﾜﾗ","pref":"福島県","city":"南相馬市","address":"原町区矢川原"}]}