{"zip_code":[
{"zip_code":"9760000","kana_pref":"ﾌｸｼﾏｹﾝ","kana_city":"ｿｳﾏｼ","kana_address":"","pref":"福島県","city":"相馬市","address":""},
{"zip_code":"9760152","kana_pref":"ﾌｸｼﾏｹﾝ","kana_city":"ｿｳﾏｼ","kana_address":"ｱﾜﾂﾞ","pref":"福島県","city":"相馬市","address":"粟津"},
{"zip_code":"9760006","kana_pref":"ﾌｸｼﾏｹﾝ","kana_city":"ｿｳﾏｼ","kana_address":"ｲｼｶﾞﾐ","pref":"福島県","city":"相馬市","address":"石上"},
{"zip_code":"9760025","kana_pref":"ﾌｸｼﾏｹﾝ","kana_city":"ｿｳﾏｼ","kana_address":"ｲﾜﾉｺ","pref":"福島県","city":"相馬市","address":"岩子"},
{"zip_code":"9760007","kana_pref":"ﾌｸｼﾏｹﾝ","kana_city":"ｿｳﾏｼ","kana_address":"ｵｵﾂﾎﾞ","pref":"福島県","city":"相馬市","address":"大坪"},
{"zip_code":"9760001","kana_pref":"ﾌｸｼﾏｹﾝ","kana_city":"ｿｳﾏｼ","kana_address":"ｵｵﾉﾀﾞｲ","pref":"福島県","city":"相馬市","address":"大野台"},
{"zip_code":"9760032","kana_pref":"ﾌｸｼﾏｹﾝ","kana_city":"ｿｳﾏｼ","kana_address":"ｵｵﾏｶﾞﾘ","pref":"福島県","city":"相馬市","address":"大曲"},
{"zip_code":"9760016","kana_pref":"ﾌｸｼﾏｹﾝ","kana_city":"ｿｳﾏｼ","kana_address":"ｵｷﾉｳﾁ","pref":"福島県","city":"相馬市","address":"沖ノ内"},
{"zip_code":"9760053","kana_pref":"ﾌｸｼﾏｹﾝ","kana_city":"ｿｳﾏｼ","kana_address":"ｵﾉ","pref":"福島県","city":"相馬市","address":"小野"},
{"zip_code":"9760022","kana_pref":"ﾌｸｼﾏｹﾝ","kana_city":"ｿｳﾏｼ","kana_address":"ｵﾊﾞﾏ","pref":"福島県","city":"相馬市","address":"尾浜"},
{"zip_code":"9760034","kana_pref":"ﾌｸｼﾏｹﾝ","kana_city":"ｿｳﾏｼ","kana_address":"ｶｼﾜｻﾞｷ","pref":"福島県","city":"相馬市","address":"柏崎"},
{"zip_code":"9760014","kana_pref":"ﾌｸｼﾏｹﾝ","kana_city":"ｿｳﾏｼ","kana_address":"ｷﾀｲｲﾌﾞﾁ","pref":"福島県","city":"相馬市","address":"北飯渕"},
{"zip_code":"9760012","kana_pref":"ﾌｸｼﾏｹﾝ","kana_city":"ｿｳﾏｼ","kana_address":"ｷﾀｺｲｽﾞﾐ","pref":"福島県","city":"相馬市","address":"北小泉"},
{"zip_code":"9760052","kana_pref":"ﾌｸｼﾏｹﾝ","kana_city":"ｿｳﾏｼ","kana_address":"ｸﾛｷ","pref":"福島県","city":"相馬市","address":"黒木"},
{"zip_code":"9760013","kana_pref":"ﾌｸｼﾏｹﾝ","kana_city":"ｿｳﾏｼ","kana_address":"ｺｲｽﾞﾐ","pref":"福島県","city":"相馬市","address":"小泉"},
{"zip_code":"9760005","kana_pref":"ﾌｸｼﾏｹﾝ","kana_city":"ｿｳﾏｼ","kana_address":"ｺｳﾖｳ","pref":"福島県","city":"相馬市","address":"光陽"},
{"zip_code":"9760002","kana_pref":"ﾌｸｼﾏｹﾝ","kana_city":"ｿｳﾏｼ","kana_address":"ｼｲﾉｷ","pref":"福島県","city":"相馬市","address":"椎木"},
{"zip_code":"9760154","kana_pref":"ﾌｸｼﾏｹﾝ","kana_city":"ｿｳﾏｼ","kana_address":"ﾀﾏﾉ","pref":"福島県","city":"相馬市","address":"玉野"},
{"zip_code":"9760004","kana_pref":"ﾌｸｼﾏｹﾝ","kana_city":"ｿｳﾏｼ","kana_address":"ﾁｮｳﾛｳｳﾁ","pref":"福島県","city":"相馬市","address":"長老内"},
{"zip_code":"9760003","kana_pref":"ﾌｸｼﾏｹﾝ","kana_city":"ｿｳﾏｼ","kana_address":"ﾂｶﾉﾍﾞ","pref":"福島県","city":"相馬市","address":"塚部"},
{"zip_code":"9760015","kana_pref":"ﾌｸｼﾏｹﾝ","kana_city":"ｿｳﾏｼ","kana_address":"ﾂｶﾉﾏﾁ","pref":"福島県","city":"相馬市","address":"塚ノ町"},
{"zip_code":"9760031","kana_pref":"ﾌｸｼﾏｹﾝ","kana_city":"ｿｳﾏｼ","kana_address":"ﾄﾞｳﾂﾞｷ","pref":"福島県","city":"相馬市","address":"百槻"},
{"zip_code":"9760037","kana_pref":"ﾌｸｼﾏｹﾝ","kana_city":"ｿｳﾏｼ","kana_address":"ﾅｶﾉ","pref":"福島県","city":"相馬市","address":"中野"},
{"zip_code":"9760042","kana_pref":"ﾌｸｼﾏｹﾝ","kana_city":"ｿｳﾏｼ","kana_address":"ﾅｶﾑﾗ","pref":"福島県","city":"相馬市","address":"中村"},
{"zip_code":"9760033","kana_pref":"ﾌｸｼﾏｹﾝ","kana_city":"ｿｳﾏｼ","kana_address":"ﾆｲﾀﾞ","pref":"福島県","city":"相馬市","address":"新田"},
{"zip_code":"9760011","kana_pref":"ﾌｸｼﾏｹﾝ","kana_city":"ｿｳﾏｼ","kana_address":"ﾆｲﾇﾏ","pref":"福島県","city":"相馬市","address":"新沼"},
{"zip_code":"9760041","kana_pref":"ﾌｸｼﾏｹﾝ","kana_city":"ｿｳﾏｼ","kana_address":"ﾆｼﾔﾏ","pref":"福島県","city":"相馬市","address":"西山"},
{"zip_code":"9760051","kana_pref":"ﾌｸｼﾏｹﾝ","kana_city":"ｿｳﾏｼ","kana_address":"ﾊﾂﾉ","pref":"福島県","city":"相馬市","address":"初野"},
{"zip_code":"9760036","kana_pref":"ﾌｸｼﾏｹﾝ","kana_city":"ｿｳﾏｼ","kana_address":"ﾊﾞﾊﾞﾉ","pref":"福島県","city":"相馬市","address":"馬場野"},
{"zip_code":"9760021","kana_pref":"ﾌｸｼﾏｹﾝ","kana_city":"ｿｳﾏｼ","kana_address":"ﾊﾗｶﾞﾏ","pref":"福島県","city":"相馬市","address":"原釜"},
{"zip_code":"9760153","kana_pref":"ﾌｸｼﾏｹﾝ","kana_city":"ｿｳﾏｼ","kana_address":"ﾋｶﾞｼﾀﾏﾉ","pref":"福島県","city":"相馬市","address":"東玉野"},
{"zip_code":"9760035","kana_pref":"ﾌｸｼﾏｹﾝ","kana_city":"ｿｳﾏｼ","kana_address":"ﾎﾄﾞﾀ","pref":"福島県","city":"相馬市","address":"程田"},
{"zip_code":"9760026","kana_pref":"ﾌｸｼﾏｹﾝ","kana_city":"ｿｳﾏｼ","kana_address":"ﾐﾅﾐｲｲﾌﾞﾁ","pref":"福島県","city":"相馬市","address":"南飯渕"},
{"zip_code":"9760024","kana_pref":"ﾌｸｼﾏｹﾝ","kana_city":"ｿｳﾏｼ","kana_address":"ﾓﾄﾜﾛｳ","pref":"福島県","city":"相馬市","address":"本笑"},
{"zip_code":"9760151","kana_pref":"ﾌｸｼﾏｹﾝ","kana_city":"ｿｳﾏｼ","kana_address":"ﾔﾏｶﾐ","pref":"福島県","city":"相馬市","address":"山上"},
{"zip_code":"9760023","kana_pref":"ﾌｸｼﾏｹﾝ","kana_city":"ｿｳﾏｼ","kana_address":"ﾜﾀﾞ","pref":"福島県","city":"相馬市","address":"和田"}]}