{"zip_code":[
{"zip_code":"9790338","kana_pref":"ﾌｸｼﾏｹﾝ","kana_city":"ｲﾜｷｼ","kana_address":"ｵｵﾋｻﾏﾁｵｵﾋｻ","pref":"福島県","city":"いわき市","address":"大久町大久"},
{"zip_code":"9790336","kana_pref":"ﾌｸｼﾏｹﾝ","kana_city":"ｲﾜｷｼ","kana_address":"ｵｵﾋｻﾏﾁｵﾔﾏﾀﾞ","pref":"福島県","city":"いわき市","address":"大久町小山田"},
{"zip_code":"9790337","kana_pref":"ﾌｸｼﾏｹﾝ","kana_city":"ｲﾜｷｼ","kana_address":"ｵｵﾋｻﾏﾁｺﾋｻ","pref":"福島県","city":"いわき市","address":"大久町小久"},
{"zip_code":"9793112","kana_pref":"ﾌｸｼﾏｹﾝ","kana_city":"ｲﾜｷｼ","kana_address":"ｵｶﾞﾜﾏﾁｳﾜﾀﾞｲﾗ","pref":"福島県","city":"いわき市","address":"小川町上平"},
{"zip_code":"9793124","kana_pref":"ﾌｸｼﾏｹﾝ","kana_city":"ｲﾜｷｼ","kana_address":"ｵｶﾞﾜﾏﾁｶﾐｵｶﾞﾜ","pref":"福島県","city":"いわき市","address":"小川町上小川"},
{"zip_code":"9793115","kana_pref":"ﾌｸｼﾏｹﾝ","kana_city":"ｲﾜｷｼ","kana_address":"ｵｶﾞﾜﾏﾁｼﾓｵｶﾞﾜ","pref":"福島県","city":"いわき市","address":"小川町下小川"},
{"zip_code":"9793123","kana_pref":"ﾌｸｼﾏｹﾝ","kana_city":"ｲﾜｷｼ","kana_address":"ｵｶﾞﾜﾏﾁｼｵﾀﾞ","pref":"福島県","city":"いわき市","address":"小川町塩田"},
{"zip_code":"9793111","kana_pref":"ﾌｸｼﾏｹﾝ","kana_city":"ｲﾜｷｼ","kana_address":"ｵｶﾞﾜﾏﾁｼﾊﾞﾊﾗ","pref":"福島県","city":"いわき市","address":"小川町柴原"},
{"zip_code":"9793114","kana_pref":"ﾌｸｼﾏｹﾝ","kana_city":"ｲﾜｷｼ","kana_address":"ｵｶﾞﾜﾏﾁｾｷﾊﾞ","pref":"福島県","city":"いわき市","address":"小川町関場"},
{"zip_code":"9793122","kana_pref":"ﾌｸｼﾏｹﾝ","kana_city":"ｲﾜｷｼ","kana_address":"ｵｶﾞﾜﾏﾁﾀｶﾊｷﾞ","pref":"福島県","city":"いわき市","address":"小川町高萩"},
{"zip_code":"9793121","kana_pref":"ﾌｸｼﾏｹﾝ","kana_city":"ｲﾜｷｼ","kana_address":"ｵｶﾞﾜﾏﾁﾆｼｵｶﾞﾜ","pref":"福島県","city":"いわき市","address":"小川町西小川"},
{"zip_code":"9793125","kana_pref":"ﾌｸｼﾏｹﾝ","kana_city":"ｲﾜｷｼ","kana_address":"ｵｶﾞﾜﾏﾁﾌｸｵｶ","pref":"福島県","city":"いわき市","address":"小川町福岡"},
{"zip_code":"9793113","kana_pref":"ﾌｸｼﾏｹﾝ","kana_city":"ｲﾜｷｼ","kana_address":"ｵｶﾞﾜﾏﾁﾐｼﾏ","pref":"福島県","city":"いわき市","address":"小川町三島"},
{"zip_code":"9790153","kana_pref":"ﾌｸｼﾏｹﾝ","kana_city":"ｲﾜｷｼ","kana_address":"ｶﾜﾍﾞﾏﾁ","pref":"福島県","city":"いわき市","address":"川部町"},
{"zip_code":"9793204","kana_pref":"ﾌｸｼﾏｹﾝ","kana_city":"ｲﾜｷｼ","kana_address":"ｶﾜﾏｴﾏﾁｵｼﾞﾛｲ","pref":"福島県","city":"いわき市","address":"川前町小白井"},
{"zip_code":"9793203","kana_pref":"ﾌｸｼﾏｹﾝ","kana_city":"ｲﾜｷｼ","kana_address":"ｶﾜﾏｴﾏﾁｶﾐｵｹｳﾘ","pref":"福島県","city":"いわき市","address":"川前町上桶売"},
{"zip_code":"9793202","kana_pref":"ﾌｸｼﾏｹﾝ","kana_city":"ｲﾜｷｼ","kana_address":"ｶﾜﾏｴﾏﾁｼﾓｵｹｳﾘ","pref":"福島県","city":"いわき市","address":"川前町下桶売"},
{"zip_code":"9793201","kana_pref":"ﾌｸｼﾏｹﾝ","kana_city":"ｲﾜｷｼ","kana_address":"ｶﾜﾏｴﾏﾁｶﾜﾏｴ","pref":"福島県","city":"いわき市","address":"川前町川前"},
{"zip_code":"9790151","kana_pref":"ﾌｸｼﾏｹﾝ","kana_city":"ｲﾜｷｼ","kana_address":"ｾﾄﾏﾁ","pref":"福島県","city":"いわき市","address":"瀬戸町"},
{"zip_code":"9793131","kana_pref":"ﾌｸｼﾏｹﾝ","kana_city":"ｲﾜｷｼ","kana_address":"ﾀｲﾗｱｶｲ","pref":"福島県","city":"いわき市","address":"平赤井"},
{"zip_code":"9793132","kana_pref":"ﾌｸｼﾏｹﾝ","kana_city":"ｲﾜｷｼ","kana_address":"ﾀｲﾗｱｶｲﾋﾗ","pref":"福島県","city":"いわき市","address":"平赤井比良"},
{"zip_code":"9790144","kana_pref":"ﾌｸｼﾏｹﾝ","kana_city":"ｲﾜｷｼ","kana_address":"ﾅｺｿﾏﾁ","pref":"福島県","city":"いわき市","address":"勿来町"},
{"zip_code":"9790141","kana_pref":"ﾌｸｼﾏｹﾝ","kana_city":"ｲﾜｷｼ","kana_address":"ﾅｺｿﾏﾁ","pref":"福島県","city":"いわき市","address":"勿来町"},
{"zip_code":"9790147","kana_pref":"ﾌｸｼﾏｹﾝ","kana_city":"ｲﾜｷｼ","kana_address":"ﾅｺｿﾏﾁ","pref":"福島県","city":"いわき市","address":"勿来町"},
{"zip_code":"9790142","kana_pref":"ﾌｸｼﾏｹﾝ","kana_city":"ｲﾜｷｼ","kana_address":"ﾅｺｿﾏﾁ","pref":"福島県","city":"いわき市","address":"勿来町"},
{"zip_code":"9790145","kana_pref":"ﾌｸｼﾏｹﾝ","kana_city":"ｲﾜｷｼ","kana_address":"ﾅｺｿﾏﾁ","pref":"福島県","city":"いわき市","address":"勿来町"},
{"zip_code":"9790143","kana_pref":"ﾌｸｼﾏｹﾝ","kana_city":"ｲﾜｷｼ","kana_address":"ﾅｺｿﾏﾁ","pref":"福島県","city":"いわき市","address":"勿来町"},
{"zip_code":"9790146","kana_pref":"ﾌｸｼﾏｹﾝ","kana_city":"ｲﾜｷｼ","kana_address":"ﾅｺｿﾏﾁ","pref":"福島県","city":"いわき市","address":"勿来町"},
{"zip_code":"9790154","kana_pref":"ﾌｸｼﾏｹﾝ","kana_city":"ｲﾜｷｼ","kana_address":"ﾇﾏﾍﾞﾏﾁ","pref":"福島県","city":"いわき市","address":"沼部町"},
{"zip_code":"9790332","kana_pref":"ﾌｸｼﾏｹﾝ","kana_city":"ｲﾜｷｼ","kana_address":"ﾋｻﾉﾊﾏﾏﾁｶﾈｶﾞｻﾜ","pref":"福島県","city":"いわき市","address":"久之浜町金ケ沢"},
{"zip_code":"9790331","kana_pref":"ﾌｸｼﾏｹﾝ","kana_city":"ｲﾜｷｼ","kana_address":"ﾋｻﾉﾊﾏﾏﾁｽｴﾂｷﾞ","pref":"福島県","city":"いわき市","address":"久之浜町末続"},
{"zip_code":"9790335","kana_pref":"ﾌｸｼﾏｹﾝ","kana_city":"ｲﾜｷｼ","kana_address":"ﾋｻﾉﾊﾏﾏﾁﾀﾉｱﾐ","pref":"福島県","city":"いわき市","address":"久之浜町田之網"},
{"zip_code":"9790333","kana_pref":"ﾌｸｼﾏｹﾝ","kana_city":"ｲﾜｷｼ","kana_address":"ﾋｻﾉﾊﾏﾏﾁﾋｻﾉﾊﾏ","pref":"福島県","city":"いわき市","address":"久之浜町久之浜"},
{"zip_code":"9790334","kana_pref":"ﾌｸｼﾏｹﾝ","kana_city":"ｲﾜｷｼ","kana_address":"ﾋｻﾉﾊﾏﾏﾁﾆｼ","pref":"福島県","city":"いわき市","address":"久之浜町西"},
{"zip_code":"9790155","kana_pref":"ﾌｸｼﾏｹﾝ","kana_city":"ｲﾜｷｼ","kana_address":"ﾐｻﾜﾏﾁ","pref":"福島県","city":"いわき市","address":"三沢町"},
{"zip_code":"9790152","kana_pref":"ﾌｸｼﾏｹﾝ","kana_city":"ｲﾜｷｼ","kana_address":"ﾔﾏﾀﾞﾏﾏﾁ","pref":"福島県","city":"いわき市","address":"山玉町"},
{"zip_code":"9790201","kana_pref":"ﾌｸｼﾏｹﾝ","kana_city":"ｲﾜｷｼ","kana_address":"ﾖﾂｸﾗﾏﾁ","pref":"福島県","city":"いわき市","address":"四倉町"},
{"zip_code":"9790205","kana_pref":"ﾌｸｼﾏｹﾝ","kana_city":"ｲﾜｷｼ","kana_address":"ﾖﾂｸﾗﾏﾁｵｵﾓﾘ","pref":"福島県","city":"いわき市","address":"四倉町大森"},
{"zip_code":"9790221","kana_pref":"ﾌｸｼﾏｹﾝ","kana_city":"ｲﾜｷｼ","kana_address":"ﾖﾂｸﾗﾏﾁｶﾐｵｶ","pref":"福島県","city":"いわき市","address":"四倉町上岡"},
{"zip_code":"9790202","kana_pref":"ﾌｸｼﾏｹﾝ","kana_city":"ｲﾜｷｼ","kana_address":"ﾖﾂｸﾗﾏﾁｶﾐﾆｲﾀﾞ","pref":"福島県","city":"いわき市","address":"四倉町上仁井田"},
{"zip_code":"9790203","kana_pref":"ﾌｸｼﾏｹﾝ","kana_city":"ｲﾜｷｼ","kana_address":"ﾖﾂｸﾗﾏﾁｼﾓﾆｲﾀﾞ","pref":"福島県","city":"いわき市","address":"四倉町下仁井田"},
{"zip_code":"9790226","kana_pref":"ﾌｸｼﾏｹﾝ","kana_city":"ｲﾜｷｼ","kana_address":"ﾖﾂｸﾗﾏﾁｶﾐﾔｷﾞｭｳ","pref":"福島県","city":"いわき市","address":"四倉町上柳生"},
{"zip_code":"9790225","kana_pref":"ﾌｸｼﾏｹﾝ","kana_city":"ｲﾜｷｼ","kana_address":"ﾖﾂｸﾗﾏﾁｼﾓﾔｷﾞｭｳ","pref":"福島県","city":"いわき市","address":"四倉町下柳生"},
{"zip_code":"9790206","kana_pref":"ﾌｸｼﾏｹﾝ","kana_city":"ｲﾜｷｼ","kana_address":"ﾖﾂｸﾗﾏﾁｷﾂﾈﾂﾞｶ","pref":"福島県","city":"いわき市","address":"四倉町狐塚"},
{"zip_code":"9790227","kana_pref":"ﾌｸｼﾏｹﾝ","kana_city":"ｲﾜｷｼ","kana_address":"ﾖﾂｸﾗﾏﾁｺﾏｺﾞﾒ","pref":"福島県","city":"いわき市","address":"四倉町駒込"},
{"zip_code":"9790207","kana_pref":"ﾌｸｼﾏｹﾝ","kana_city":"ｲﾜｷｼ","kana_address":"ﾖﾂｸﾗﾏﾁｼｵｷ","pref":"福島県","city":"いわき市","address":"四倉町塩木"},
{"zip_code":"9790211","kana_pref":"ﾌｸｼﾏｹﾝ","kana_city":"ｲﾜｷｼ","kana_address":"ﾖﾂｸﾗﾏﾁｼﾗｲﾜ","pref":"福島県","city":"いわき市","address":"四倉町白岩"},
{"zip_code":"9790216","kana_pref":"ﾌｸｼﾏｹﾝ","kana_city":"ｲﾜｷｼ","kana_address":"ﾖﾂｸﾗﾏﾁﾀﾏﾔﾏ","pref":"福島県","city":"いわき市","address":"四倉町玉山"},
{"zip_code":"9790212","kana_pref":"ﾌｸｼﾏｹﾝ","kana_city":"ｲﾜｷｼ","kana_address":"ﾖﾂｸﾗﾏﾁﾄﾀﾞ","pref":"福島県","city":"いわき市","address":"四倉町戸田"},
{"zip_code":"9790215","kana_pref":"ﾌｸｼﾏｹﾝ","kana_city":"ｲﾜｷｼ","kana_address":"ﾖﾂｸﾗﾏﾁﾅｶｼﾞﾏ","pref":"福島県","city":"いわき市","address":"四倉町中島"},
{"zip_code":"9790214","kana_pref":"ﾌｸｼﾏｹﾝ","kana_city":"ｲﾜｷｼ","kana_address":"ﾖﾂｸﾗﾏﾁﾅｶﾞﾄﾓ","pref":"福島県","city":"いわき市","address":"四倉町長友"},
{"zip_code":"9790213","kana_pref":"ﾌｸｼﾏｹﾝ","kana_city":"ｲﾜｷｼ","kana_address":"ﾖﾂｸﾗﾏﾁﾅｷﾞ","pref":"福島県","city":"いわき市","address":"四倉町名木"},
{"zip_code":"9790204","kana_pref":"ﾌｸｼﾏｹﾝ","kana_city":"ｲﾜｷｼ","kana_address":"ﾖﾂｸﾗﾏﾁﾎｿﾔ","pref":"福島県","city":"いわき市","address":"四倉町細谷"},
{"zip_code":"9790224","kana_pref":"ﾌｸｼﾏｹﾝ","kana_city":"ｲﾜｷｼ","kana_address":"ﾖﾂｸﾗﾏﾁﾔｸｵｳｼﾞ","pref":"福島県","city":"いわき市","address":"四倉町薬王寺"},
{"zip_code":"9790222","kana_pref":"ﾌｸｼﾏｹﾝ","kana_city":"ｲﾜｷｼ","kana_address":"ﾖﾂｸﾗﾏﾁﾔｸﾞｷ","pref":"福島県","city":"いわき市","address":"四倉町八茎"},
{"zip_code":"9790223","kana_pref":"ﾌｸｼﾏｹﾝ","kana_city":"ｲﾜｷｼ","kana_address":"ﾖﾂｸﾗﾏﾁﾔﾏﾀﾞｺﾐﾅﾄ","pref":"福島県","city":"いわき市","address":"四倉町山田小湊"},
{"zip_code":"9792521","kana_pref":"ﾌｸｼﾏｹﾝ","kana_city":"ｿｳﾏｼ","kana_address":"ｱｶｷﾞ","pref":"福島県","city":"相馬市","address":"赤木"},
{"zip_code":"9792501","kana_pref":"ﾌｸｼﾏｹﾝ","kana_city":"ｿｳﾏｼ","kana_address":"ｲｿﾍﾞ","pref":"福島県","city":"相馬市","address":"磯部"},
{"zip_code":"9792541","kana_pref":"ﾌｸｼﾏｹﾝ","kana_city":"ｿｳﾏｼ","kana_address":"ｲﾏﾀﾞ","pref":"福島県","city":"相馬市","address":"今田"},
{"zip_code":"9792511","kana_pref":"ﾌｸｼﾏｹﾝ","kana_city":"ｿｳﾏｼ","kana_address":"ｶﾊﾞﾆﾜ","pref":"福島県","city":"相馬市","address":"蒲庭"},
{"zip_code":"9792531","kana_pref":"ﾌｸｼﾏｹﾝ","kana_city":"ｿｳﾏｼ","kana_address":"ﾀﾁﾔ","pref":"福島県","city":"相馬市","address":"立谷"},
{"zip_code":"9792533","kana_pref":"ﾌｸｼﾏｹﾝ","kana_city":"ｿｳﾏｼ","kana_address":"ﾂﾎﾞﾀ","pref":"福島県","city":"相馬市","address":"坪田"},
{"zip_code":"9792532","kana_pref":"ﾌｸｼﾏｹﾝ","kana_city":"ｿｳﾏｼ","kana_address":"ﾄﾐｻﾞﾜ","pref":"福島県","city":"相馬市","address":"富沢"},
{"zip_code":"9792542","kana_pref":"ﾌｸｼﾏｹﾝ","kana_city":"ｿｳﾏｼ","kana_address":"ﾅﾘﾀ","pref":"福島県","city":"相馬市","address":"成田"},
{"zip_code":"9792522","kana_pref":"ﾌｸｼﾏｹﾝ","kana_city":"ｿｳﾏｼ","kana_address":"ﾆｯｹｼ","pref":"福島県","city":"相馬市","address":"日下石"},
{"zip_code":"9792512","kana_pref":"ﾌｸｼﾏｹﾝ","kana_city":"ｿｳﾏｼ","kana_address":"ﾕﾇｷ","pref":"福島県","city":"相馬市","address":"柚木"},
{"zip_code":"9792133","kana_pref":"ﾌｸｼﾏｹﾝ","kana_city":"ﾐﾅﾐｿｳﾏｼ","kana_address":"ｵﾀﾞｶｸｲｽﾞﾐｻﾜ","pref":"福島県","city":"南相馬市","address":"小高区泉沢"},
{"zip_code":"9792144","kana_pref":"ﾌｸｼﾏｹﾝ","kana_city":"ﾐﾅﾐｿｳﾏｼ","kana_address":"ｵﾀﾞｶｸｲﾀﾞｶﾞﾜ","pref":"福島県","city":"南相馬市","address":"小高区井田川"},
{"zip_code":"9792145","kana_pref":"ﾌｸｼﾏｹﾝ","kana_city":"ﾐﾅﾐｿｳﾏｼ","kana_address":"ｵﾀﾞｶｸｳﾗｼﾞﾘ","pref":"福島県","city":"南相馬市","address":"小高区浦尻"},
{"zip_code":"9792155","kana_pref":"ﾌｸｼﾏｹﾝ","kana_city":"ﾐﾅﾐｿｳﾏｼ","kana_address":"ｵﾀﾞｶｸｳﾜﾈｻﾞﾜ","pref":"福島県","city":"南相馬市","address":"小高区上根沢"},
{"zip_code":"9792143","kana_pref":"ﾌｸｼﾏｹﾝ","kana_city":"ﾐﾅﾐｿｳﾏｼ","kana_address":"ｵﾀﾞｶｸｴﾋﾞｻﾜ","pref":"福島県","city":"南相馬市","address":"小高区蛯沢"},
{"zip_code":"9792103","kana_pref":"ﾌｸｼﾏｹﾝ","kana_city":"ﾐﾅﾐｿｳﾏｼ","kana_address":"ｵﾀﾞｶｸｵｵｲ","pref":"福島県","city":"南相馬市","address":"小高区大井"},
{"zip_code":"9792163","kana_pref":"ﾌｸｼﾏｹﾝ","kana_city":"ﾐﾅﾐｿｳﾏｼ","kana_address":"ｵﾀﾞｶｸｵｵﾀﾜ","pref":"福島県","city":"南相馬市","address":"小高区大田和"},
{"zip_code":"9792174","kana_pref":"ﾌｸｼﾏｹﾝ","kana_city":"ﾐﾅﾐｿｳﾏｼ","kana_address":"ｵﾀﾞｶｸｵｵﾄﾐ","pref":"福島県","city":"南相馬市","address":"小高区大富"},
{"zip_code":"9792123","kana_pref":"ﾌｸｼﾏｹﾝ","kana_city":"ﾐﾅﾐｿｳﾏｼ","kana_address":"ｵﾀﾞｶｸｵｵﾏﾁ","pref":"福島県","city":"南相馬市","address":"小高区大町"},
{"zip_code":"9792134","kana_pref":"ﾌｸｼﾏｹﾝ","kana_city":"ﾐﾅﾐｿｳﾏｼ","kana_address":"ｵﾀﾞｶｸｵｶﾀﾞ","pref":"福島県","city":"南相馬市","address":"小高区岡田"},
{"zip_code":"9792102","kana_pref":"ﾌｸｼﾏｹﾝ","kana_city":"ﾐﾅﾐｿｳﾏｼ","kana_address":"ｵﾀﾞｶｸｵﾀﾞｶ","pref":"福島県","city":"南相馬市","address":"小高区小高"},
{"zip_code":"9792147","kana_pref":"ﾌｸｼﾏｹﾝ","kana_city":"ﾐﾅﾐｿｳﾏｼ","kana_address":"ｵﾀﾞｶｸｵﾅﾊﾞ","pref":"福島県","city":"南相馬市","address":"小高区女場"},
{"zip_code":"9792173","kana_pref":"ﾌｸｼﾏｹﾝ","kana_city":"ﾐﾅﾐｿｳﾏｼ","kana_address":"ｵﾀﾞｶｸｵﾔ","pref":"福島県","city":"南相馬市","address":"小高区小谷"},
{"zip_code":"9792101","kana_pref":"ﾌｸｼﾏｹﾝ","kana_city":"ﾐﾅﾐｿｳﾏｼ","kana_address":"ｵﾀﾞｶｸｶﾀｸｻ","pref":"福島県","city":"南相馬市","address":"小高区片草"},
{"zip_code":"9792165","kana_pref":"ﾌｸｼﾏｹﾝ","kana_city":"ﾐﾅﾐｿｳﾏｼ","kana_address":"ｵﾀﾞｶｸｶﾅﾔ","pref":"福島県","city":"南相馬市","address":"小高区金谷"},
{"zip_code":"9792153","kana_pref":"ﾌｸｼﾏｹﾝ","kana_city":"ﾐﾅﾐｿｳﾏｼ","kana_address":"ｵﾀﾞｶｸｶﾐｳﾗ","pref":"福島県","city":"南相馬市","address":"小高区上浦"},
{"zip_code":"9792115","kana_pref":"ﾌｸｼﾏｹﾝ","kana_city":"ﾐﾅﾐｿｳﾏｼ","kana_address":"ｵﾀﾞｶｸｶﾐﾏﾁ","pref":"福島県","city":"南相馬市","address":"小高区上町"},
{"zip_code":"9792154","kana_pref":"ﾌｸｼﾏｹﾝ","kana_city":"ﾐﾅﾐｿｳﾏｼ","kana_address":"ｵﾀﾞｶｸｶﾐﾔﾏ","pref":"福島県","city":"南相馬市","address":"小高区神山"},
{"zip_code":"9792164","kana_pref":"ﾌｸｼﾏｹﾝ","kana_city":"ﾐﾅﾐｿｳﾏｼ","kana_address":"ｵﾀﾞｶｸｶﾜﾌﾞｻ","pref":"福島県","city":"南相馬市","address":"小高区川房"},
{"zip_code":"9792171","kana_pref":"ﾌｸｼﾏｹﾝ","kana_city":"ﾐﾅﾐｿｳﾏｼ","kana_address":"ｵﾀﾞｶｸｷﾀﾊﾂﾊﾟﾗ","pref":"福島県","city":"南相馬市","address":"小高区北鳩原"},
{"zip_code":"9792156","kana_pref":"ﾌｸｼﾏｹﾝ","kana_city":"ﾐﾅﾐｿｳﾏｼ","kana_address":"ｵﾀﾞｶｸｺﾔｷﾞ","pref":"福島県","city":"南相馬市","address":"小高区小屋木"},
{"zip_code":"9792146","kana_pref":"ﾌｸｼﾏｹﾝ","kana_city":"ﾐﾅﾐｿｳﾏｼ","kana_address":"ｵﾀﾞｶｸｼﾓｳﾗ","pref":"福島県","city":"南相馬市","address":"小高区下浦"},
{"zip_code":"9792113","kana_pref":"ﾌｸｼﾏｹﾝ","kana_city":"ﾐﾅﾐｿｳﾏｼ","kana_address":"ｵﾀﾞｶｸｾｷﾊﾞ","pref":"福島県","city":"南相馬市","address":"小高区関場"},
{"zip_code":"9792112","kana_pref":"ﾌｸｼﾏｹﾝ","kana_city":"ﾐﾅﾐｿｳﾏｼ","kana_address":"ｵﾀﾞｶｸﾀﾏﾁ","pref":"福島県","city":"南相馬市","address":"小高区田町"},
{"zip_code":"9792104","kana_pref":"ﾌｸｼﾏｹﾝ","kana_city":"ﾐﾅﾐｿｳﾏｼ","kana_address":"ｵﾀﾞｶｸﾂｶﾊﾞﾗ","pref":"福島県","city":"南相馬市","address":"小高区塚原"},
{"zip_code":"9792142","kana_pref":"ﾌｸｼﾏｹﾝ","kana_city":"ﾐﾅﾐｿｳﾏｼ","kana_address":"ｵﾀﾞｶｸﾂﾉﾍﾞｳﾁ","pref":"福島県","city":"南相馬市","address":"小高区角部内"},
{"zip_code":"9792111","kana_pref":"ﾌｸｼﾏｹﾝ","kana_city":"ﾐﾅﾐｿｳﾏｼ","kana_address":"ｵﾀﾞｶｸﾅｶﾏﾁ","pref":"福島県","city":"南相馬市","address":"小高区仲町"},
{"zip_code":"9792152","kana_pref":"ﾌｸｼﾏｹﾝ","kana_city":"ﾐﾅﾐｿｳﾏｼ","kana_address":"ｵﾀﾞｶｸﾅﾒﾂﾞ","pref":"福島県","city":"南相馬市","address":"小高区行津"},
{"zip_code":"9792114","kana_pref":"ﾌｸｼﾏｹﾝ","kana_city":"ﾐﾅﾐｿｳﾏｼ","kana_address":"ｵﾀﾞｶｸﾆｼﾏﾁ","pref":"福島県","city":"南相馬市","address":"小高区西町"},
{"zip_code":"9792175","kana_pref":"ﾌｸｼﾏｹﾝ","kana_city":"ﾐﾅﾐｿｳﾏｼ","kana_address":"ｵﾀﾞｶｸﾊﾉｸﾗ","pref":"福島県","city":"南相馬市","address":"小高区羽倉"},
{"zip_code":"9792162","kana_pref":"ﾌｸｼﾏｹﾝ","kana_city":"ﾐﾅﾐｿｳﾏｼ","kana_address":"ｵﾀﾞｶｸﾊﾝｻｷ","pref":"福島県","city":"南相馬市","address":"小高区飯崎"},
{"zip_code":"9792121","kana_pref":"ﾌｸｼﾏｹﾝ","kana_city":"ﾐﾅﾐｿｳﾏｼ","kana_address":"ｵﾀﾞｶｸﾋｶﾞｼﾏﾁ","pref":"福島県","city":"南相馬市","address":"小高区東町"},
{"zip_code":"9792131","kana_pref":"ﾌｸｼﾏｹﾝ","kana_city":"ﾐﾅﾐｿｳﾏｼ","kana_address":"ｵﾀﾞｶｸﾌｸｵｶ","pref":"福島県","city":"南相馬市","address":"小高区福岡"},
{"zip_code":"9792161","kana_pref":"ﾌｸｼﾏｹﾝ","kana_city":"ﾐﾅﾐｿｳﾏｼ","kana_address":"ｵﾀﾞｶｸﾌｼﾞｷ","pref":"福島県","city":"南相馬市","address":"小高区藤木"},
{"zip_code":"9792132","kana_pref":"ﾌｸｼﾏｹﾝ","kana_city":"ﾐﾅﾐｿｳﾏｼ","kana_address":"ｵﾀﾞｶｸﾐｽﾞｶﾞｲ","pref":"福島県","city":"南相馬市","address":"小高区水谷"},
{"zip_code":"9792172","kana_pref":"ﾌｸｼﾏｹﾝ","kana_city":"ﾐﾅﾐｿｳﾏｼ","kana_address":"ｵﾀﾞｶｸﾐﾅﾐﾊﾂﾊﾟﾗ","pref":"福島県","city":"南相馬市","address":"小高区南鳩原"},
{"zip_code":"9792122","kana_pref":"ﾌｸｼﾏｹﾝ","kana_city":"ﾐﾅﾐｿｳﾏｼ","kana_address":"ｵﾀﾞｶｸﾐﾅﾐﾏﾁ","pref":"福島県","city":"南相馬市","address":"小高区南町"},
{"zip_code":"9792151","kana_pref":"ﾌｸｼﾏｹﾝ","kana_city":"ﾐﾅﾐｿｳﾏｼ","kana_address":"ｵﾀﾞｶｸﾐﾐｶﾞｲ","pref":"福島県","city":"南相馬市","address":"小高区耳谷"},
{"zip_code":"9792141","kana_pref":"ﾌｸｼﾏｹﾝ","kana_city":"ﾐﾅﾐｿｳﾏｼ","kana_address":"ｵﾀﾞｶｸﾑﾗｶﾐ","pref":"福島県","city":"南相馬市","address":"小高区村上"},
{"zip_code":"9792124","kana_pref":"ﾌｸｼﾏｹﾝ","kana_city":"ﾐﾅﾐｿｳﾏｼ","kana_address":"ｵﾀﾞｶｸﾓﾄﾏﾁ","pref":"福島県","city":"南相馬市","address":"小高区本町"},
{"zip_code":"9792157","kana_pref":"ﾌｸｼﾏｹﾝ","kana_city":"ﾐﾅﾐｿｳﾏｼ","kana_address":"ｵﾀﾞｶｸﾖｼﾅ","pref":"福島県","city":"南相馬市","address":"小高区吉名"},
{"zip_code":"9792336","kana_pref":"ﾌｸｼﾏｹﾝ","kana_city":"ﾐﾅﾐｿｳﾏｼ","kana_address":"ｶｼﾏｸｱｻﾋ","pref":"福島県","city":"南相馬市","address":"鹿島区あさひ"},
{"zip_code":"9792451","kana_pref":"ﾌｸｼﾏｹﾝ","kana_city":"ﾐﾅﾐｿｳﾏｼ","kana_address":"ｶｼﾏｸｳｷﾀ","pref":"福島県","city":"南相馬市","address":"鹿島区浮田"},
{"zip_code":"9792443","kana_pref":"ﾌｸｼﾏｹﾝ","kana_city":"ﾐﾅﾐｿｳﾏｼ","kana_address":"ｶｼﾏｸｳｼｺｳﾁ","pref":"福島県","city":"南相馬市","address":"鹿島区牛河内"},
{"zip_code":"9792331","kana_pref":"ﾌｸｼﾏｹﾝ","kana_city":"ﾐﾅﾐｿｳﾏｼ","kana_address":"ｶｼﾏｸｴﾀﾘ","pref":"福島県","city":"南相馬市","address":"鹿島区江垂"},
{"zip_code":"9792322","kana_pref":"ﾌｸｼﾏｹﾝ","kana_city":"ﾐﾅﾐｿｳﾏｼ","kana_address":"ｶｼﾏｸｵｵｳﾁ","pref":"福島県","city":"南相馬市","address":"鹿島区大内"},
{"zip_code":"9792444","kana_pref":"ﾌｸｼﾏｹﾝ","kana_city":"ﾐﾅﾐｿｳﾏｼ","kana_address":"ｶｼﾏｸｵｶﾜﾀﾞ","pref":"福島県","city":"南相馬市","address":"鹿島区岡和田"},
{"zip_code":"9792321","kana_pref":"ﾌｸｼﾏｹﾝ","kana_city":"ﾐﾅﾐｿｳﾏｼ","kana_address":"ｶｼﾏｸｵｼﾏﾀﾞ","pref":"福島県","city":"南相馬市","address":"鹿島区小島田"},
{"zip_code":"9792464","kana_pref":"ﾌｸｼﾏｹﾝ","kana_city":"ﾐﾅﾐｿｳﾏｼ","kana_address":"ｶｼﾏｸｵﾔﾏ","pref":"福島県","city":"南相馬市","address":"鹿島区御山"},
{"zip_code":"9792335","kana_pref":"ﾌｸｼﾏｹﾝ","kana_city":"ﾐﾅﾐｿｳﾏｼ","kana_address":"ｶｼﾏｸｶｼﾏ","pref":"福島県","city":"南相馬市","address":"鹿島区鹿島"},
{"zip_code":"9792462","kana_pref":"ﾌｸｼﾏｹﾝ","kana_city":"ﾐﾅﾐｿｳﾏｼ","kana_address":"ｶｼﾏｸｶﾐﾄﾁｸﾎﾞ","pref":"福島県","city":"南相馬市","address":"鹿島区上栃窪"},
{"zip_code":"9792323","kana_pref":"ﾌｸｼﾏｹﾝ","kana_city":"ﾐﾅﾐｿｳﾏｼ","kana_address":"ｶｼﾏｸｶﾗｽｻﾞｷ","pref":"福島県","city":"南相馬市","address":"鹿島区烏崎"},
{"zip_code":"9792324","kana_pref":"ﾌｸｼﾏｹﾝ","kana_city":"ﾐﾅﾐｿｳﾏｼ","kana_address":"ｶｼﾏｸｶﾜｺﾞ","pref":"福島県","city":"南相馬市","address":"鹿島区川子"},
{"zip_code":"9792311","kana_pref":"ﾌｸｼﾏｹﾝ","kana_city":"ﾐﾅﾐｿｳﾏｼ","kana_address":"ｶｼﾏｸｷﾀｴﾋﾞ","pref":"福島県","city":"南相馬市","address":"鹿島区北海老"},
{"zip_code":"9792313","kana_pref":"ﾌｸｼﾏｹﾝ","kana_city":"ﾐﾅﾐｿｳﾏｼ","kana_address":"ｶｼﾏｸｷﾀﾐｷﾞﾀ","pref":"福島県","city":"南相馬市","address":"鹿島区北右田"},
{"zip_code":"9792303","kana_pref":"ﾌｸｼﾏｹﾝ","kana_city":"ﾐﾅﾐｿｳﾏｼ","kana_address":"ｶｼﾏｸｷﾀﾔｶﾀ","pref":"福島県","city":"南相馬市","address":"鹿島区北屋形"},
{"zip_code":"9792453","kana_pref":"ﾌｸｼﾏｹﾝ","kana_city":"ﾐﾅﾐｿｳﾏｼ","kana_address":"ｶｼﾏｸｺｲｹ","pref":"福島県","city":"南相馬市","address":"鹿島区小池"},
{"zip_code":"9792452","kana_pref":"ﾌｸｼﾏｹﾝ","kana_city":"ﾐﾅﾐｿｳﾏｼ","kana_address":"ｶｼﾏｸｺﾔﾏﾀﾞ","pref":"福島県","city":"南相馬市","address":"鹿島区小山田"},
{"zip_code":"9792332","kana_pref":"ﾌｸｼﾏｹﾝ","kana_city":"ﾐﾅﾐｿｳﾏｼ","kana_address":"ｶｼﾏｸｼｵﾉｻｷ","pref":"福島県","city":"南相馬市","address":"鹿島区塩崎"},
{"zip_code":"9792454","kana_pref":"ﾌｸｼﾏｹﾝ","kana_city":"ﾐﾅﾐｿｳﾏｼ","kana_address":"ｶｼﾏｸｼﾞｻﾊﾞﾗ","pref":"福島県","city":"南相馬市","address":"鹿島区橲原"},
{"zip_code":"9792441","kana_pref":"ﾌｸｼﾏｹﾝ","kana_city":"ﾐﾅﾐｿｳﾏｼ","kana_address":"ｶｼﾏｸﾂﾉｶﾞﾜﾗ","pref":"福島県","city":"南相馬市","address":"鹿島区角川原"},
{"zip_code":"9792333","kana_pref":"ﾌｸｼﾏｹﾝ","kana_city":"ﾐﾅﾐｿｳﾏｼ","kana_address":"ｶｼﾏｸﾃﾗｳﾁ","pref":"福島県","city":"南相馬市","address":"鹿島区寺内"},
{"zip_code":"9792463","kana_pref":"ﾌｸｼﾏｹﾝ","kana_city":"ﾐﾅﾐｿｳﾏｼ","kana_address":"ｶｼﾏｸﾄﾁｸﾎﾞ","pref":"福島県","city":"南相馬市","address":"鹿島区栃窪"},
{"zip_code":"9792305","kana_pref":"ﾌｸｼﾏｹﾝ","kana_city":"ﾐﾅﾐｿｳﾏｼ","kana_address":"ｶｼﾏｸﾅｶﾞﾀ","pref":"福島県","city":"南相馬市","address":"鹿島区永田"},
{"zip_code":"9792301","kana_pref":"ﾌｸｼﾏｹﾝ","kana_city":"ﾐﾅﾐｿｳﾏｼ","kana_address":"ｶｼﾏｸﾅｶﾞﾜﾀﾘ","pref":"福島県","city":"南相馬市","address":"鹿島区永渡"},
{"zip_code":"9792334","kana_pref":"ﾌｸｼﾏｹﾝ","kana_city":"ﾐﾅﾐｿｳﾏｼ","kana_address":"ｶｼﾏｸﾆｼﾏﾁ","pref":"福島県","city":"南相馬市","address":"鹿島区西町"},
{"zip_code":"9792312","kana_pref":"ﾌｸｼﾏｹﾝ","kana_city":"ﾐﾅﾐｿｳﾏｼ","kana_address":"ｶｼﾏｸﾐﾅﾐｴﾋﾞ","pref":"福島県","city":"南相馬市","address":"鹿島区南海老"},
{"zip_code":"9792314","kana_pref":"ﾌｸｼﾏｹﾝ","kana_city":"ﾐﾅﾐｿｳﾏｼ","kana_address":"ｶｼﾏｸﾐﾅﾐﾐｷﾞﾀ","pref":"福島県","city":"南相馬市","address":"鹿島区南右田"},
{"zip_code":"9792304","kana_pref":"ﾌｸｼﾏｹﾝ","kana_city":"ﾐﾅﾐｿｳﾏｼ","kana_address":"ｶｼﾏｸﾐﾅﾐﾔｶﾀ","pref":"福島県","city":"南相馬市","address":"鹿島区南屋形"},
{"zip_code":"9792302","kana_pref":"ﾌｸｼﾏｹﾝ","kana_city":"ﾐﾅﾐｿｳﾏｼ","kana_address":"ｶｼﾏｸﾐﾅﾐﾕﾉｷ","pref":"福島県","city":"南相馬市","address":"鹿島区南柚木"},
{"zip_code":"9792461","kana_pref":"ﾌｸｼﾏｹﾝ","kana_city":"ﾐﾅﾐｿｳﾏｼ","kana_address":"ｶｼﾏｸﾔﾏｼﾀ","pref":"福島県","city":"南相馬市","address":"鹿島区山下"},
{"zip_code":"9792442","kana_pref":"ﾌｸｼﾏｹﾝ","kana_city":"ﾐﾅﾐｿｳﾏｼ","kana_address":"ｶｼﾏｸﾖｺﾃ","pref":"福島県","city":"南相馬市","address":"鹿島区横手"},
{"zip_code":"9790400","kana_pref":"ﾌｸｼﾏｹﾝ","kana_city":"ﾌﾀﾊﾞｸﾞﾝﾋﾛﾉﾏﾁ","kana_address":"","pref":"福島県","city":"双葉郡広野町","address":""},
{"zip_code":"9790404","kana_pref":"ﾌｸｼﾏｹﾝ","kana_city":"ﾌﾀﾊﾞｸﾞﾝﾋﾛﾉﾏﾁ","kana_address":"ｵﾘｷ","pref":"福島県","city":"双葉郡広野町","address":"折木"},
{"zip_code":"9790406","kana_pref":"ﾌｸｼﾏｹﾝ","kana_city":"ﾌﾀﾊﾞｸﾞﾝﾋﾛﾉﾏﾁ","kana_address":"ｶﾐｱｻﾐｶﾞﾜ","pref":"福島県","city":"双葉郡広野町","address":"上浅見川"},
{"zip_code":"9790401","kana_pref":"ﾌｸｼﾏｹﾝ","kana_city":"ﾌﾀﾊﾞｸﾞﾝﾋﾛﾉﾏﾁ","kana_address":"ｶﾐｷﾀﾊﾞ","pref":"福島県","city":"双葉郡広野町","address":"上北迫"},
{"zip_code":"9790407","kana_pref":"ﾌｸｼﾏｹﾝ","kana_city":"ﾌﾀﾊﾞｸﾞﾝﾋﾛﾉﾏﾁ","kana_address":"ｺｳﾖｳﾀﾞｲ","pref":"福島県","city":"双葉郡広野町","address":"広洋台"},
{"zip_code":"9790403","kana_pref":"ﾌｸｼﾏｹﾝ","kana_city":"ﾌﾀﾊﾞｸﾞﾝﾋﾛﾉﾏﾁ","kana_address":"ｼﾓｱｻﾐｶﾞﾜ","pref":"福島県","city":"双葉郡広野町","address":"下浅見川"},
{"zip_code":"9790402","kana_pref":"ﾌｸｼﾏｹﾝ","kana_city":"ﾌﾀﾊﾞｸﾞﾝﾋﾛﾉﾏﾁ","kana_address":"ｼﾓｷﾀﾊﾞ","pref":"福島県","city":"双葉郡広野町","address":"下北迫"},
{"zip_code":"9790408","kana_pref":"ﾌｸｼﾏｹﾝ","kana_city":"ﾌﾀﾊﾞｸﾞﾝﾋﾛﾉﾏﾁ","kana_address":"ﾁｭｳｵｳﾀﾞｲ","pref":"福島県","city":"双葉郡広野町","address":"中央台"},
{"zip_code":"9790405","kana_pref":"ﾌｸｼﾏｹﾝ","kana_city":"ﾌﾀﾊﾞｸﾞﾝﾋﾛﾉﾏﾁ","kana_address":"ﾕｳｽｼﾞ","pref":"福島県","city":"双葉郡広野町","address":"夕筋"},
{"zip_code":"9790600","kana_pref":"ﾌｸｼﾏｹﾝ","kana_city":"ﾌﾀﾊﾞｸﾞﾝﾅﾗﾊﾏﾁ","kana_address":"","pref":"福島県","city":"双葉郡楢葉町","address":""},
{"zip_code":"9790603","kana_pref":"ﾌｸｼﾏｹﾝ","kana_city":"ﾌﾀﾊﾞｸﾞﾝﾅﾗﾊﾏﾁ","kana_address":"ｲﾃﾞ","pref":"福島県","city":"双葉郡楢葉町","address":"井出"},
{"zip_code":"9790605","kana_pref":"ﾌｸｼﾏｹﾝ","kana_city":"ﾌﾀﾊﾞｸﾞﾝﾅﾗﾊﾏﾁ","kana_address":"ｵｵﾔ","pref":"福島県","city":"双葉郡楢葉町","address":"大谷"},
{"zip_code":"9790515","kana_pref":"ﾌｸｼﾏｹﾝ","kana_city":"ﾌﾀﾊﾞｸﾞﾝﾅﾗﾊﾏﾁ","kana_address":"ｶﾐｺﾊﾞﾅ","pref":"福島県","city":"双葉郡楢葉町","address":"上小塙"},
{"zip_code":"9790606","kana_pref":"ﾌｸｼﾏｹﾝ","kana_city":"ﾌﾀﾊﾞｸﾞﾝﾅﾗﾊﾏﾁ","kana_address":"ｶﾐｼｹﾞｵｶ","pref":"福島県","city":"双葉郡楢葉町","address":"上繁岡"},
{"zip_code":"9790604","kana_pref":"ﾌｸｼﾏｹﾝ","kana_city":"ﾌﾀﾊﾞｸﾞﾝﾅﾗﾊﾏﾁ","kana_address":"ｷﾀﾀﾞ","pref":"福島県","city":"双葉郡楢葉町","address":"北田"},
{"zip_code":"9790514","kana_pref":"ﾌｸｼﾏｹﾝ","kana_city":"ﾌﾀﾊﾞｸﾞﾝﾅﾗﾊﾏﾁ","kana_address":"ｼﾓｺﾊﾞﾅ","pref":"福島県","city":"双葉郡楢葉町","address":"下小塙"},
{"zip_code":"9790602","kana_pref":"ﾌｸｼﾏｹﾝ","kana_city":"ﾌﾀﾊﾞｸﾞﾝﾅﾗﾊﾏﾁ","kana_address":"ｼﾓｼｹﾞｵｶ","pref":"福島県","city":"双葉郡楢葉町","address":"下繁岡"},
{"zip_code":"9790601","kana_pref":"ﾌｸｼﾏｹﾝ","kana_city":"ﾌﾀﾊﾞｸﾞﾝﾅﾗﾊﾏﾁ","kana_address":"ﾅﾐｸﾗ","pref":"福島県","city":"双葉郡楢葉町","address":"波倉"},
{"zip_code":"9790511","kana_pref":"ﾌｸｼﾏｹﾝ","kana_city":"ﾌﾀﾊﾞｸﾞﾝﾅﾗﾊﾏﾁ","kana_address":"ﾏｴﾊﾞﾗ","pref":"福島県","city":"双葉郡楢葉町","address":"前原"},
{"zip_code":"9790513","kana_pref":"ﾌｸｼﾏｹﾝ","kana_city":"ﾌﾀﾊﾞｸﾞﾝﾅﾗﾊﾏﾁ","kana_address":"ﾔﾏﾀﾞｵｶ","pref":"福島県","city":"双葉郡楢葉町","address":"山田岡"},
{"zip_code":"9790512","kana_pref":"ﾌｸｼﾏｹﾝ","kana_city":"ﾌﾀﾊﾞｸﾞﾝﾅﾗﾊﾏﾁ","kana_address":"ﾔﾏﾀﾞﾊﾏ","pref":"福島県","city":"双葉郡楢葉町","address":"山田浜"},
{"zip_code":"9791100","kana_pref":"ﾌｸｼﾏｹﾝ","kana_city":"ﾌﾀﾊﾞｸﾞﾝﾄﾐｵｶﾏﾁ","kana_address":"","pref":"福島県","city":"双葉郡富岡町","address":""},
{"zip_code":"9791171","kana_pref":"ﾌｸｼﾏｹﾝ","kana_city":"ﾌﾀﾊﾞｸﾞﾝﾄﾐｵｶﾏﾁ","kana_address":"ｵｵｽｹﾞ","pref":"福島県","city":"双葉郡富岡町","address":"大菅"},
{"zip_code":"9791101","kana_pref":"ﾌｸｼﾏｹﾝ","kana_city":"ﾌﾀﾊﾞｸﾞﾝﾄﾐｵｶﾏﾁ","kana_address":"ｵﾗｶﾞﾊﾏ","pref":"福島県","city":"双葉郡富岡町","address":"小良ケ浜"},
{"zip_code":"9791131","kana_pref":"ﾌｸｼﾏｹﾝ","kana_city":"ﾌﾀﾊﾞｸﾞﾝﾄﾐｵｶﾏﾁ","kana_address":"ｶﾐｺｵﾘﾔﾏ","pref":"福島県","city":"双葉郡富岡町","address":"上郡山"},
{"zip_code":"9791141","kana_pref":"ﾌｸｼﾏｹﾝ","kana_city":"ﾌﾀﾊﾞｸﾞﾝﾄﾐｵｶﾏﾁ","kana_address":"ｶﾐﾃｵｶ","pref":"福島県","city":"双葉郡富岡町","address":"上手岡"},
{"zip_code":"9790622","kana_pref":"ﾌｸｼﾏｹﾝ","kana_city":"ﾌﾀﾊﾞｸﾞﾝﾄﾐｵｶﾏﾁ","kana_address":"ｹｶﾞﾔ(ﾏｴｶﾜﾊﾗ232-244ﾊﾞﾝﾁ","pref":"福島県","city":"双葉郡富岡町","address":"毛萱（前川原２３２〜２４４番地"},
{"zip_code":"9790622","kana_pref":"ﾌｸｼﾏｹﾝ","kana_city":"ﾌﾀﾊﾞｸﾞﾝﾄﾐｵｶﾏﾁ","kana_address":"311ﾊﾞﾝﾁ","pref":"福島県","city":"双葉郡富岡町","address":"３１１番地"},
{"zip_code":"9790622","kana_pref":"ﾌｸｼﾏｹﾝ","kana_city":"ﾌﾀﾊﾞｸﾞﾝﾄﾐｵｶﾏﾁ","kana_address":"312ﾊﾞﾝﾁ","pref":"福島県","city":"双葉郡富岡町","address":"３１２番地"},
{"zip_code":"9790622","kana_pref":"ﾌｸｼﾏｹﾝ","kana_city":"ﾌﾀﾊﾞｸﾞﾝﾄﾐｵｶﾏﾁ","kana_address":"337-862ﾊﾞﾝﾁ","pref":"福島県","city":"双葉郡富岡町","address":"３３７〜８６２番地"},
{"zip_code":"9790622","kana_pref":"ﾌｸｼﾏｹﾝ","kana_city":"ﾌﾀﾊﾞｸﾞﾝﾄﾐｵｶﾏﾁ","kana_address":"ﾄｳｷｮｳﾃﾞﾝﾘｮｸﾌｸｼﾏﾀﾞｲ2ｹﾞﾝｼﾘｮｸﾊﾂﾃﾞﾝｼｮｺｳﾅｲ)","pref":"福島県","city":"双葉郡富岡町","address":"〔東京電力福島第二原子力発電所構内〕）"},
{"zip_code":"9791122","kana_pref":"ﾌｸｼﾏｹﾝ","kana_city":"ﾌﾀﾊﾞｸﾞﾝﾄﾐｵｶﾏﾁ","kana_address":"ｹｶﾞﾔ","pref":"福島県","city":"双葉郡富岡町","address":"毛萱"},
{"zip_code":"9791111","kana_pref":"ﾌｸｼﾏｹﾝ","kana_city":"ﾌﾀﾊﾞｸﾞﾝﾄﾐｵｶﾏﾁ","kana_address":"ｺﾊﾞﾏ","pref":"福島県","city":"双葉郡富岡町","address":"小浜"},
{"zip_code":"9791162","kana_pref":"ﾌｸｼﾏｹﾝ","kana_city":"ﾌﾀﾊﾞｸﾞﾝﾄﾐｵｶﾏﾁ","kana_address":"ｻｸﾗ","pref":"福島県","city":"双葉郡富岡町","address":"桜"},
{"zip_code":"9791132","kana_pref":"ﾌｸｼﾏｹﾝ","kana_city":"ﾌﾀﾊﾞｸﾞﾝﾄﾐｵｶﾏﾁ","kana_address":"ｼﾓｺｵﾘﾔﾏ","pref":"福島県","city":"双葉郡富岡町","address":"下郡山"},
{"zip_code":"9791112","kana_pref":"ﾌｸｼﾏｹﾝ","kana_city":"ﾌﾀﾊﾞｸﾞﾝﾄﾐｵｶﾏﾁ","kana_address":"ﾁｭｳｵｳ","pref":"福島県","city":"双葉郡富岡町","address":"中央"},
{"zip_code":"9791121","kana_pref":"ﾌｸｼﾏｹﾝ","kana_city":"ﾌﾀﾊﾞｸﾞﾝﾄﾐｵｶﾏﾁ","kana_address":"ﾎﾄｹﾊﾏ","pref":"福島県","city":"双葉郡富岡町","address":"仏浜"},
{"zip_code":"9791151","kana_pref":"ﾌｸｼﾏｹﾝ","kana_city":"ﾌﾀﾊﾞｸﾞﾝﾄﾐｵｶﾏﾁ","kana_address":"ﾓﾄｵｶ","pref":"福島県","city":"双葉郡富岡町","address":"本岡"},
{"zip_code":"9791152","kana_pref":"ﾌｸｼﾏｹﾝ","kana_city":"ﾌﾀﾊﾞｸﾞﾝﾄﾐｵｶﾏﾁ","kana_address":"ﾓﾄﾏﾁ","pref":"福島県","city":"双葉郡富岡町","address":"本町"},
{"zip_code":"9791161","kana_pref":"ﾌｸｼﾏｹﾝ","kana_city":"ﾌﾀﾊﾞｸﾞﾝﾄﾐｵｶﾏﾁ","kana_address":"ﾖﾉﾓﾘ","pref":"福島県","city":"双葉郡富岡町","address":"夜の森"},
{"zip_code":"9791200","kana_pref":"ﾌｸｼﾏｹﾝ","kana_city":"ﾌﾀﾊﾞｸﾞﾝｶﾜｳﾁﾑﾗ","kana_address":"","pref":"福島県","city":"双葉郡川内村","address":""},
{"zip_code":"9791201","kana_pref":"ﾌｸｼﾏｹﾝ","kana_city":"ﾌﾀﾊﾞｸﾞﾝｶﾜｳﾁﾑﾗ","kana_address":"ｶﾐｶﾜｳﾁ","pref":"福島県","city":"双葉郡川内村","address":"上川内"},
{"zip_code":"9791202","kana_pref":"ﾌｸｼﾏｹﾝ","kana_city":"ﾌﾀﾊﾞｸﾞﾝｶﾜｳﾁﾑﾗ","kana_address":"ｼﾓｶﾜｳﾁ","pref":"福島県","city":"双葉郡川内村","address":"下川内"},
{"zip_code":"9791300","kana_pref":"ﾌｸｼﾏｹﾝ","kana_city":"ﾌﾀﾊﾞｸﾞﾝｵｵｸﾏﾏﾁ","kana_address":"","pref":"福島県","city":"双葉郡大熊町","address":""},
{"zip_code":"9791306","kana_pref":"ﾌｸｼﾏｹﾝ","kana_city":"ﾌﾀﾊﾞｸﾞﾝｵｵｸﾏﾏﾁ","kana_address":"ｵｵｶﾞﾜﾗ","pref":"福島県","city":"双葉郡大熊町","address":"大川原"},
{"zip_code":"9791301","kana_pref":"ﾌｸｼﾏｹﾝ","kana_city":"ﾌﾀﾊﾞｸﾞﾝｵｵｸﾏﾏﾁ","kana_address":"ｵｯﾄｻﾞﾜ","pref":"福島県","city":"双葉郡大熊町","address":"夫沢"},
{"zip_code":"9791304","kana_pref":"ﾌｸｼﾏｹﾝ","kana_city":"ﾌﾀﾊﾞｸﾞﾝｵｵｸﾏﾏﾁ","kana_address":"ｵﾗﾊﾏ","pref":"福島県","city":"双葉郡大熊町","address":"小良浜"},
{"zip_code":"9791305","kana_pref":"ﾌｸｼﾏｹﾝ","kana_city":"ﾌﾀﾊﾞｸﾞﾝｵｵｸﾏﾏﾁ","kana_address":"ｸﾏ","pref":"福島県","city":"双葉郡大熊町","address":"熊"},
{"zip_code":"9791303","kana_pref":"ﾌｸｼﾏｹﾝ","kana_city":"ﾌﾀﾊﾞｸﾞﾝｵｵｸﾏﾏﾁ","kana_address":"ｸﾏｶﾞﾜ","pref":"福島県","city":"双葉郡大熊町","address":"熊川"},
{"zip_code":"9791302","kana_pref":"ﾌｸｼﾏｹﾝ","kana_city":"ﾌﾀﾊﾞｸﾞﾝｵｵｸﾏﾏﾁ","kana_address":"ｺｲﾘﾉ","pref":"福島県","city":"双葉郡大熊町","address":"小入野"},
{"zip_code":"9791308","kana_pref":"ﾌｸｼﾏｹﾝ","kana_city":"ﾌﾀﾊﾞｸﾞﾝｵｵｸﾏﾏﾁ","kana_address":"ｼﾓﾉｶﾞﾐ","pref":"福島県","city":"双葉郡大熊町","address":"下野上"},
{"zip_code":"9791307","kana_pref":"ﾌｸｼﾏｹﾝ","kana_city":"ﾌﾀﾊﾞｸﾞﾝｵｵｸﾏﾏﾁ","kana_address":"ﾉｶﾞﾐ","pref":"福島県","city":"双葉郡大熊町","address":"野上"},
{"zip_code":"9791400","kana_pref":"ﾌｸｼﾏｹﾝ","kana_city":"ﾌﾀﾊﾞｸﾞﾝﾌﾀﾊﾞﾏﾁ","kana_address":"","pref":"福島県","city":"双葉郡双葉町","address":""},
{"zip_code":"9791433","kana_pref":"ﾌｸｼﾏｹﾝ","kana_city":"ﾌﾀﾊﾞｸﾞﾝﾌﾀﾊﾞﾏﾁ","kana_address":"ｲｼｸﾏ","pref":"福島県","city":"双葉郡双葉町","address":"石熊"},
{"zip_code":"9791442","kana_pref":"ﾌｸｼﾏｹﾝ","kana_city":"ﾌﾀﾊﾞｸﾞﾝﾌﾀﾊﾞﾏﾁ","kana_address":"ｶﾐﾊﾄﾘ","pref":"福島県","city":"双葉郡双葉町","address":"上羽鳥"},
{"zip_code":"9791463","kana_pref":"ﾌｸｼﾏｹﾝ","kana_city":"ﾌﾀﾊﾞｸﾞﾝﾌﾀﾊﾞﾏﾁ","kana_address":"ｺｳﾉｸｻ","pref":"福島県","city":"双葉郡双葉町","address":"鴻草"},
{"zip_code":"9791411","kana_pref":"ﾌｸｼﾏｹﾝ","kana_city":"ﾌﾀﾊﾞｸﾞﾝﾌﾀﾊﾞﾏﾁ","kana_address":"ｺｵﾘﾔﾏ","pref":"福島県","city":"双葉郡双葉町","address":"郡山"},
{"zip_code":"9791451","kana_pref":"ﾌｸｼﾏｹﾝ","kana_city":"ﾌﾀﾊﾞｸﾞﾝﾌﾀﾊﾞﾏﾁ","kana_address":"ｼﾌﾞｶﾜ","pref":"福島県","city":"双葉郡双葉町","address":"渋川"},
{"zip_code":"9791441","kana_pref":"ﾌｸｼﾏｹﾝ","kana_city":"ﾌﾀﾊﾞｸﾞﾝﾌﾀﾊﾞﾏﾁ","kana_address":"ｼﾓﾊﾄﾘ","pref":"福島県","city":"双葉郡双葉町","address":"下羽鳥"},
{"zip_code":"9791472","kana_pref":"ﾌｸｼﾏｹﾝ","kana_city":"ﾌﾀﾊﾞｸﾞﾝﾌﾀﾊﾞﾏﾁ","kana_address":"ｼﾝｻﾞﾝ","pref":"福島県","city":"双葉郡双葉町","address":"新山"},
{"zip_code":"9791453","kana_pref":"ﾌｸｼﾏｹﾝ","kana_city":"ﾌﾀﾊﾞｸﾞﾝﾌﾀﾊﾞﾏﾁ","kana_address":"ﾃﾗｻﾞﾜ","pref":"福島県","city":"双葉郡双葉町","address":"寺沢"},
{"zip_code":"9791462","kana_pref":"ﾌｸｼﾏｹﾝ","kana_city":"ﾌﾀﾊﾞｸﾞﾝﾌﾀﾊﾞﾏﾁ","kana_address":"ﾅｶﾀﾞ","pref":"福島県","city":"双葉郡双葉町","address":"中田"},
{"zip_code":"9791401","kana_pref":"ﾌｸｼﾏｹﾝ","kana_city":"ﾌﾀﾊﾞｸﾞﾝﾌﾀﾊﾞﾏﾁ","kana_address":"ﾅｶﾉ","pref":"福島県","city":"双葉郡双葉町","address":"中野"},
{"zip_code":"9791402","kana_pref":"ﾌｸｼﾏｹﾝ","kana_city":"ﾌﾀﾊﾞｸﾞﾝﾌﾀﾊﾞﾏﾁ","kana_address":"ﾅｶﾊﾏ","pref":"福島県","city":"双葉郡双葉町","address":"中浜"},
{"zip_code":"9791471","kana_pref":"ﾌｸｼﾏｹﾝ","kana_city":"ﾌﾀﾊﾞｸﾞﾝﾌﾀﾊﾞﾏﾁ","kana_address":"ﾅｶﾞﾂｶ","pref":"福島県","city":"双葉郡双葉町","address":"長塚"},
{"zip_code":"9791412","kana_pref":"ﾌｸｼﾏｹﾝ","kana_city":"ﾌﾀﾊﾞｸﾞﾝﾌﾀﾊﾞﾏﾁ","kana_address":"ﾎｿﾔ","pref":"福島県","city":"双葉郡双葉町","address":"細谷"},
{"zip_code":"9791421","kana_pref":"ﾌｸｼﾏｹﾝ","kana_city":"ﾌﾀﾊﾞｸﾞﾝﾌﾀﾊﾞﾏﾁ","kana_address":"ﾏｴﾀﾞ","pref":"福島県","city":"双葉郡双葉町","address":"前田"},
{"zip_code":"9791452","kana_pref":"ﾌｸｼﾏｹﾝ","kana_city":"ﾌﾀﾊﾞｸﾞﾝﾌﾀﾊﾞﾏﾁ","kana_address":"ﾏﾂｸﾗ","pref":"福島県","city":"双葉郡双葉町","address":"松倉"},
{"zip_code":"9791432","kana_pref":"ﾌｸｼﾏｹﾝ","kana_city":"ﾌﾀﾊﾞｸﾞﾝﾌﾀﾊﾞﾏﾁ","kana_address":"ﾏﾂｻﾞｸ","pref":"福島県","city":"双葉郡双葉町","address":"松迫"},
{"zip_code":"9791422","kana_pref":"ﾌｸｼﾏｹﾝ","kana_city":"ﾌﾀﾊﾞｸﾞﾝﾌﾀﾊﾞﾏﾁ","kana_address":"ﾐｽﾞｻﾜ","pref":"福島県","city":"双葉郡双葉町","address":"水沢"},
{"zip_code":"9791423","kana_pref":"ﾌｸｼﾏｹﾝ","kana_city":"ﾌﾀﾊﾞｸﾞﾝﾌﾀﾊﾞﾏﾁ","kana_address":"ﾒｻｸ","pref":"福島県","city":"双葉郡双葉町","address":"目迫"},
{"zip_code":"9791461","kana_pref":"ﾌｸｼﾏｹﾝ","kana_city":"ﾌﾀﾊﾞｸﾞﾝﾌﾀﾊﾞﾏﾁ","kana_address":"ﾓﾛﾀｹ","pref":"福島県","city":"双葉郡双葉町","address":"両竹"},
{"zip_code":"9791431","kana_pref":"ﾌｸｼﾏｹﾝ","kana_city":"ﾌﾀﾊﾞｸﾞﾝﾌﾀﾊﾞﾏﾁ","kana_address":"ﾔﾏﾀﾞ","pref":"福島県","city":"双葉郡双葉町","address":"山田"},
{"zip_code":"9791500","kana_pref":"ﾌｸｼﾏｹﾝ","kana_city":"ﾌﾀﾊﾞｸﾞﾝﾅﾐｴﾏﾁ","kana_address":"","pref":"福島県","city":"双葉郡浪江町","address":""},
{"zip_code":"9791751","kana_pref":"ﾌｸｼﾏｹﾝ","kana_city":"ﾌﾀﾊﾞｸﾞﾝﾅﾐｴﾏﾁ","kana_address":"ｱｺｳｷﾞ","pref":"福島県","city":"双葉郡浪江町","address":"赤宇木"},
{"zip_code":"9791535","kana_pref":"ﾌｸｼﾏｹﾝ","kana_city":"ﾌﾀﾊﾞｸﾞﾝﾅﾐｴﾏﾁ","kana_address":"ｲﾃﾞ","pref":"福島県","city":"双葉郡浪江町","address":"井手"},
{"zip_code":"9791522","kana_pref":"ﾌｸｼﾏｹﾝ","kana_city":"ﾌﾀﾊﾞｸﾞﾝﾅﾐｴﾏﾁ","kana_address":"ｳｹﾄﾞ","pref":"福島県","city":"双葉郡浪江町","address":"請戸"},
{"zip_code":"9791526","kana_pref":"ﾌｸｼﾏｹﾝ","kana_city":"ﾌﾀﾊﾞｸﾞﾝﾅﾐｴﾏﾁ","kana_address":"ｳｼﾜﾀ","pref":"福島県","city":"双葉郡浪江町","address":"牛渡"},
{"zip_code":"9791544","kana_pref":"ﾌｸｼﾏｹﾝ","kana_city":"ﾌﾀﾊﾞｸﾞﾝﾅﾐｴﾏﾁ","kana_address":"ｵｵﾎﾞﾘ","pref":"福島県","city":"双葉郡浪江町","address":"大堀"},
{"zip_code":"9791543","kana_pref":"ﾌｸｼﾏｹﾝ","kana_city":"ﾌﾀﾊﾞｸﾞﾝﾅﾐｴﾏﾁ","kana_address":"ｵﾉﾀﾞ","pref":"福島県","city":"双葉郡浪江町","address":"小野田"},
{"zip_code":"9791545","kana_pref":"ﾌｸｼﾏｹﾝ","kana_city":"ﾌﾀﾊﾞｸﾞﾝﾅﾐｴﾏﾁ","kana_address":"ｵﾏﾙ","pref":"福島県","city":"双葉郡浪江町","address":"小丸"},
{"zip_code":"9791536","kana_pref":"ﾌｸｼﾏｹﾝ","kana_city":"ﾌﾀﾊﾞｸﾞﾝﾅﾐｴﾏﾁ","kana_address":"ｶｸﾗ","pref":"福島県","city":"双葉郡浪江町","address":"加倉"},
{"zip_code":"9791505","kana_pref":"ﾌｸｼﾏｹﾝ","kana_city":"ﾌﾀﾊﾞｸﾞﾝﾅﾐｴﾏﾁ","kana_address":"ｶﾘﾔﾄﾞ","pref":"福島県","city":"双葉郡浪江町","address":"苅宿"},
{"zip_code":"9791531","kana_pref":"ﾌｸｼﾏｹﾝ","kana_city":"ﾌﾀﾊﾞｸﾞﾝﾅﾐｴﾏﾁ","kana_address":"ｶﾜｿﾞｴ","pref":"福島県","city":"双葉郡浪江町","address":"川添"},
{"zip_code":"9791753","kana_pref":"ﾌｸｼﾏｹﾝ","kana_city":"ﾌﾀﾊﾞｸﾞﾝﾅﾐｴﾏﾁ","kana_address":"ｶﾜﾌﾞｻ","pref":"福島県","city":"双葉郡浪江町","address":"川房"},
{"zip_code":"9791512","kana_pref":"ﾌｸｼﾏｹﾝ","kana_city":"ﾌﾀﾊﾞｸﾞﾝﾅﾐｴﾏﾁ","kana_address":"ｷﾀｷﾖﾊｼ","pref":"福島県","city":"双葉郡浪江町","address":"北幾世橋"},
{"zip_code":"9791513","kana_pref":"ﾌｸｼﾏｹﾝ","kana_city":"ﾌﾀﾊﾞｸﾞﾝﾅﾐｴﾏﾁ","kana_address":"ｷﾖﾊｼ","pref":"福島県","city":"双葉郡浪江町","address":"幾世橋"},
{"zip_code":"9791521","kana_pref":"ﾌｸｼﾏｹﾝ","kana_city":"ﾌﾀﾊﾞｸﾞﾝﾅﾐｴﾏﾁ","kana_address":"ｺﾞﾝｹﾞﾝﾄﾞｳ","pref":"福島県","city":"双葉郡浪江町","address":"権現堂"},
{"zip_code":"9791533","kana_pref":"ﾌｸｼﾏｹﾝ","kana_city":"ﾌﾀﾊﾞｸﾞﾝﾅﾐｴﾏﾁ","kana_address":"ｻｶｲ","pref":"福島県","city":"双葉郡浪江町","address":"酒井"},
{"zip_code":"9791504","kana_pref":"ﾌｸｼﾏｹﾝ","kana_city":"ﾌﾀﾊﾞｸﾞﾝﾅﾐｴﾏﾁ","kana_address":"ｻｶﾀ","pref":"福島県","city":"双葉郡浪江町","address":"酒田"},
{"zip_code":"9791756","kana_pref":"ﾌｸｼﾏｹﾝ","kana_city":"ﾌﾀﾊﾞｸﾞﾝﾅﾐｴﾏﾁ","kana_address":"ｼﾓﾂｼﾏ","pref":"福島県","city":"双葉郡浪江町","address":"下津島"},
{"zip_code":"9791542","kana_pref":"ﾌｸｼﾏｹﾝ","kana_city":"ﾌﾀﾊﾞｸﾞﾝﾅﾐｴﾏﾁ","kana_address":"ｽｴﾉﾓﾘ","pref":"福島県","city":"双葉郡浪江町","address":"末森"},
{"zip_code":"9791525","kana_pref":"ﾌｸｼﾏｹﾝ","kana_city":"ﾌﾀﾊﾞｸﾞﾝﾅﾐｴﾏﾁ","kana_address":"ﾀｶｾ","pref":"福島県","city":"双葉郡浪江町","address":"高瀬"},
{"zip_code":"9791541","kana_pref":"ﾌｸｼﾏｹﾝ","kana_city":"ﾌﾀﾊﾞｸﾞﾝﾅﾐｴﾏﾁ","kana_address":"ﾀｼﾞﾘ","pref":"福島県","city":"双葉郡浪江町","address":"田尻"},
{"zip_code":"9791501","kana_pref":"ﾌｸｼﾏｹﾝ","kana_city":"ﾌﾀﾊﾞｸﾞﾝﾅﾐｴﾏﾁ","kana_address":"ﾀﾂﾉ","pref":"福島県","city":"双葉郡浪江町","address":"立野"},
{"zip_code":"9791511","kana_pref":"ﾌｸｼﾏｹﾝ","kana_city":"ﾌﾀﾊﾞｸﾞﾝﾅﾐｴﾏﾁ","kana_address":"ﾀﾅｼｵ","pref":"福島県","city":"双葉郡浪江町","address":"棚塩"},
{"zip_code":"9791757","kana_pref":"ﾌｸｼﾏｹﾝ","kana_city":"ﾌﾀﾊﾞｸﾞﾝﾅﾐｴﾏﾁ","kana_address":"ﾂｼﾏ","pref":"福島県","city":"双葉郡浪江町","address":"津島"},
{"zip_code":"9791523","kana_pref":"ﾌｸｼﾏｹﾝ","kana_city":"ﾌﾀﾊﾞｸﾞﾝﾅﾐｴﾏﾁ","kana_address":"ﾅｶﾊﾏ","pref":"福島県","city":"双葉郡浪江町","address":"中浜"},
{"zip_code":"9791503","kana_pref":"ﾌｸｼﾏｹﾝ","kana_city":"ﾌﾀﾊﾞｸﾞﾝﾅﾐｴﾏﾁ","kana_address":"ﾆｼﾀﾞｲ","pref":"福島県","city":"双葉郡浪江町","address":"西台"},
{"zip_code":"9791755","kana_pref":"ﾌｸｼﾏｹﾝ","kana_city":"ﾌﾀﾊﾞｸﾞﾝﾅﾐｴﾏﾁ","kana_address":"ﾊﾂｹ","pref":"福島県","city":"双葉郡浪江町","address":"羽附"},
{"zip_code":"9791752","kana_pref":"ﾌｸｼﾏｹﾝ","kana_city":"ﾌﾀﾊﾞｸﾞﾝﾅﾐｴﾏﾁ","kana_address":"ﾋﾙｿﾈ","pref":"福島県","city":"双葉郡浪江町","address":"昼曽根"},
{"zip_code":"9791532","kana_pref":"ﾌｸｼﾏｹﾝ","kana_city":"ﾌﾀﾊﾞｸﾞﾝﾅﾐｴﾏﾁ","kana_address":"ﾋﾜﾀｼ","pref":"福島県","city":"双葉郡浪江町","address":"樋渡"},
{"zip_code":"9791502","kana_pref":"ﾌｸｼﾏｹﾝ","kana_city":"ﾌﾀﾊﾞｸﾞﾝﾅﾐｴﾏﾁ","kana_address":"ﾌｼﾞﾊｼ","pref":"福島県","city":"双葉郡浪江町","address":"藤橋"},
{"zip_code":"9791754","kana_pref":"ﾌｸｼﾏｹﾝ","kana_city":"ﾌﾀﾊﾞｸﾞﾝﾅﾐｴﾏﾁ","kana_address":"ﾐﾅﾐﾂｼﾏ","pref":"福島県","city":"双葉郡浪江町","address":"南津島"},
{"zip_code":"9791706","kana_pref":"ﾌｸｼﾏｹﾝ","kana_city":"ﾌﾀﾊﾞｸﾞﾝﾅﾐｴﾏﾁ","kana_address":"ﾑﾛﾊﾗ","pref":"福島県","city":"双葉郡浪江町","address":"室原"},
{"zip_code":"9791506","kana_pref":"ﾌｸｼﾏｹﾝ","kana_city":"ﾌﾀﾊﾞｸﾞﾝﾅﾐｴﾏﾁ","kana_address":"ﾑﾛﾊﾗ","pref":"福島県","city":"双葉郡浪江町","address":"室原"},
{"zip_code":"9791524","kana_pref":"ﾌｸｼﾏｹﾝ","kana_city":"ﾌﾀﾊﾞｸﾞﾝﾅﾐｴﾏﾁ","kana_address":"ﾓﾛﾀｹ","pref":"福島県","city":"双葉郡浪江町","address":"両竹"},
{"zip_code":"9791534","kana_pref":"ﾌｸｼﾏｹﾝ","kana_city":"ﾌﾀﾊﾞｸﾞﾝﾅﾐｴﾏﾁ","kana_address":"ﾔﾂﾀﾞ","pref":"福島県","city":"双葉郡浪江町","address":"谷津田"},
{"zip_code":"9791600","kana_pref":"ﾌｸｼﾏｹﾝ","kana_city":"ﾌﾀﾊﾞｸﾞﾝｶﾂﾗｵﾑﾗ","kana_address":"","pref":"福島県","city":"双葉郡葛尾村","address":""},
{"zip_code":"9791602","kana_pref":"ﾌｸｼﾏｹﾝ","kana_city":"ﾌﾀﾊﾞｸﾞﾝｶﾂﾗｵﾑﾗ","kana_address":"ｵﾁｱｲ","pref":"福島県","city":"双葉郡葛尾村","address":"落合"},
{"zip_code":"9791601","kana_pref":"ﾌｸｼﾏｹﾝ","kana_city":"ﾌﾀﾊﾞｸﾞﾝｶﾂﾗｵﾑﾗ","kana_address":"ｶﾂﾗｵ","pref":"福島県","city":"双葉郡葛尾村","address":"葛尾"},
{"zip_code":"9791604","kana_pref":"ﾌｸｼﾏｹﾝ","kana_city":"ﾌﾀﾊﾞｸﾞﾝｶﾂﾗｵﾑﾗ","kana_address":"ｶﾐﾉｶﾞﾜ","pref":"福島県","city":"双葉郡葛尾村","address":"上野川"},
{"zip_code":"9791603","kana_pref":"ﾌｸｼﾏｹﾝ","kana_city":"ﾌﾀﾊﾞｸﾞﾝｶﾂﾗｵﾑﾗ","kana_address":"ﾉｶﾞﾜ","pref":"福島県","city":"双葉郡葛尾村","address":"野川"},
{"zip_code":"9792700","kana_pref":"ﾌｸｼﾏｹﾝ","kana_city":"ｿｳﾏｸﾞﾝｼﾝﾁﾏﾁ","kana_address":"","pref":"福島県","city":"相馬郡新地町","address":""},
{"zip_code":"9792705","kana_pref":"ﾌｸｼﾏｹﾝ","kana_city":"ｿｳﾏｸﾞﾝｼﾝﾁﾏﾁ","kana_address":"ｲﾏｲｽﾞﾐ","pref":"福島県","city":"相馬郡新地町","address":"今泉"},
{"zip_code":"9792704","kana_pref":"ﾌｸｼﾏｹﾝ","kana_city":"ｿｳﾏｸﾞﾝｼﾝﾁﾏﾁ","kana_address":"ｵｵﾄﾞﾊﾏ","pref":"福島県","city":"相馬郡新地町","address":"大戸浜"},
{"zip_code":"9792703","kana_pref":"ﾌｸｼﾏｹﾝ","kana_city":"ｿｳﾏｸﾞﾝｼﾝﾁﾏﾁ","kana_address":"ｵｶﾞﾜ","pref":"福島県","city":"相馬郡新地町","address":"小川"},
{"zip_code":"9792611","kana_pref":"ﾌｸｼﾏｹﾝ","kana_city":"ｿｳﾏｸﾞﾝｼﾝﾁﾏﾁ","kana_address":"ｺﾏｶﾞﾐﾈ","pref":"福島県","city":"相馬郡新地町","address":"駒ケ嶺"},
{"zip_code":"9792706","kana_pref":"ﾌｸｼﾏｹﾝ","kana_city":"ｿｳﾏｸﾞﾝｼﾝﾁﾏﾁ","kana_address":"ｽｷﾞﾉﾒ","pref":"福島県","city":"相馬郡新地町","address":"杉目"},
{"zip_code":"9792708","kana_pref":"ﾌｸｼﾏｹﾝ","kana_city":"ｿｳﾏｸﾞﾝｼﾝﾁﾏﾁ","kana_address":"ﾌｸﾀﾞ","pref":"福島県","city":"相馬郡新地町","address":"福田"},
{"zip_code":"9792707","kana_pref":"ﾌｸｼﾏｹﾝ","kana_city":"ｿｳﾏｸﾞﾝｼﾝﾁﾏﾁ","kana_address":"ﾏﾕﾐ","pref":"福島県","city":"相馬郡新地町","address":"真弓"},
{"zip_code":"9792702","kana_pref":"ﾌｸｼﾏｹﾝ","kana_city":"ｿｳﾏｸﾞﾝｼﾝﾁﾏﾁ","kana_address":"ﾔﾁｺﾞﾔ","pref":"福島県","city":"相馬郡新地町","address":"谷地小屋"},
{"zip_code":"9792701","kana_pref":"ﾌｸｼﾏｹﾝ","kana_city":"ｿｳﾏｸﾞﾝｼﾝﾁﾏﾁ","kana_address":"ﾗﾁｷｻﾞｷ","pref":"福島県","city":"相馬郡新地町","address":"埓木崎"}]}