{"zip_code":[
{"zip_code":"9800000","kana_pref":"ﾐﾔｷﾞｹﾝ","kana_city":"ｾﾝﾀﾞｲｼｱｵﾊﾞｸ","kana_address":"","pref":"宮城県","city":"仙台市青葉区","address":""},
{"zip_code":"9800856","kana_pref":"ﾐﾔｷﾞｹﾝ","kana_city":"ｾﾝﾀﾞｲｼｱｵﾊﾞｸ","kana_address":"ｱｵﾊﾞﾔﾏ","pref":"宮城県","city":"仙台市青葉区","address":"青葉山"},
{"zip_code":"9800845","kana_pref":"ﾐﾔｷﾞｹﾝ","kana_city":"ｾﾝﾀﾞｲｼｱｵﾊﾞｸ","kana_address":"ｱﾗﾏｷ","pref":"宮城県","city":"仙台市青葉区","address":"荒巻"},
{"zip_code":"9800811","kana_pref":"ﾐﾔｷﾞｹﾝ","kana_city":"ｾﾝﾀﾞｲｼｱｵﾊﾞｸ","kana_address":"ｲﾁﾊﾞﾝﾁｮｳ","pref":"宮城県","city":"仙台市青葉区","address":"一番町"},
{"zip_code":"9800022","kana_pref":"ﾐﾔｷﾞｹﾝ","kana_city":"ｾﾝﾀﾞｲｼｱｵﾊﾞｸ","kana_address":"ｲﾂﾂﾊﾞｼ","pref":"宮城県","city":"仙台市青葉区","address":"五橋"},
{"zip_code":"9800005","kana_pref":"ﾐﾔｷﾞｹﾝ","kana_city":"ｾﾝﾀﾞｲｼｱｵﾊﾞｸ","kana_address":"ｳﾒﾀﾞﾏﾁ","pref":"宮城県","city":"仙台市青葉区","address":"梅田町"},
{"zip_code":"9800805","kana_pref":"ﾐﾔｷﾞｹﾝ","kana_city":"ｾﾝﾀﾞｲｼｱｵﾊﾞｸ","kana_address":"ｵｵﾃﾏﾁ","pref":"宮城県","city":"仙台市青葉区","address":"大手町"},
{"zip_code":"9800804","kana_pref":"ﾐﾔｷﾞｹﾝ","kana_city":"ｾﾝﾀﾞｲｼｱｵﾊﾞｸ","kana_address":"ｵｵﾏﾁ","pref":"宮城県","city":"仙台市青葉区","address":"大町"},
{"zip_code":"9800814","kana_pref":"ﾐﾔｷﾞｹﾝ","kana_city":"ｾﾝﾀﾞｲｼｱｵﾊﾞｸ","kana_address":"ｵﾀﾏﾔｼﾀ","pref":"宮城県","city":"仙台市青葉区","address":"霊屋下"},
{"zip_code":"9800003","kana_pref":"ﾐﾔｷﾞｹﾝ","kana_city":"ｾﾝﾀﾞｲｼｱｵﾊﾞｸ","kana_address":"ｵﾀﾞﾜﾗ","pref":"宮城県","city":"仙台市青葉区","address":"小田原"},
{"zip_code":"9800013","kana_pref":"ﾐﾔｷﾞｹﾝ","kana_city":"ｾﾝﾀﾞｲｼｱｵﾊﾞｸ","kana_address":"ｶｷｮｳｲﾝ","pref":"宮城県","city":"仙台市青葉区","address":"花京院"},
{"zip_code":"9800821","kana_pref":"ﾐﾔｷﾞｹﾝ","kana_city":"ｾﾝﾀﾞｲｼｱｵﾊﾞｸ","kana_address":"ｶｽｶﾞﾏﾁ","pref":"宮城県","city":"仙台市青葉区","address":"春日町"},
{"zip_code":"9800812","kana_pref":"ﾐﾔｷﾞｹﾝ","kana_city":"ｾﾝﾀﾞｲｼｱｵﾊﾞｸ","kana_address":"ｶﾀﾋﾗ","pref":"宮城県","city":"仙台市青葉区","address":"片平"},
{"zip_code":"9800815","kana_pref":"ﾐﾔｷﾞｹﾝ","kana_city":"ｾﾝﾀﾞｲｼｱｵﾊﾞｸ","kana_address":"ｶﾀﾞﾝ","pref":"宮城県","city":"仙台市青葉区","address":"花壇"},
{"zip_code":"9800011","kana_pref":"ﾐﾔｷﾞｹﾝ","kana_city":"ｾﾝﾀﾞｲｼｱｵﾊﾞｸ","kana_address":"ｶﾐｽｷﾞ","pref":"宮城県","city":"仙台市青葉区","address":"上杉"},
{"zip_code":"9800862","kana_pref":"ﾐﾔｷﾞｹﾝ","kana_city":"ｾﾝﾀﾞｲｼｱｵﾊﾞｸ","kana_address":"ｶﾜｳﾁ","pref":"宮城県","city":"仙台市青葉区","address":"川内"},
{"zip_code":"9800863","kana_pref":"ﾐﾔｷﾞｹﾝ","kana_city":"ｾﾝﾀﾞｲｼｱｵﾊﾞｸ","kana_address":"ｶﾜｳﾁｵｲﾏﾜｼ","pref":"宮城県","city":"仙台市青葉区","address":"川内追廻"},
{"zip_code":"9800867","kana_pref":"ﾐﾔｷﾞｹﾝ","kana_city":"ｾﾝﾀﾞｲｼｱｵﾊﾞｸ","kana_address":"ｶﾜｳﾁｶﾒｵｶｷﾀｳﾗﾁｮｳ","pref":"宮城県","city":"仙台市青葉区","address":"川内亀岡北裏丁"},
{"zip_code":"9800865","kana_pref":"ﾐﾔｷﾞｹﾝ","kana_city":"ｾﾝﾀﾞｲｼｱｵﾊﾞｸ","kana_address":"ｶﾜｳﾁｶﾒｵｶﾁｮｳ","pref":"宮城県","city":"仙台市青葉区","address":"川内亀岡町"},
{"zip_code":"9800852","kana_pref":"ﾐﾔｷﾞｹﾝ","kana_city":"ｾﾝﾀﾞｲｼｱｵﾊﾞｸ","kana_address":"ｶﾜｳﾁｶﾜﾏｴﾁｮｳ","pref":"宮城県","city":"仙台市青葉区","address":"川内川前丁"},
{"zip_code":"9800866","kana_pref":"ﾐﾔｷﾞｹﾝ","kana_city":"ｾﾝﾀﾞｲｼｱｵﾊﾞｸ","kana_address":"ｶﾜｳﾁｻﾝｼﾞｭｳﾆﾝﾏﾁ","pref":"宮城県","city":"仙台市青葉区","address":"川内三十人町"},
{"zip_code":"9800853","kana_pref":"ﾐﾔｷﾞｹﾝ","kana_city":"ｾﾝﾀﾞｲｼｱｵﾊﾞｸ","kana_address":"ｶﾜｳﾁﾀﾞｲｸﾏﾁ","pref":"宮城県","city":"仙台市青葉区","address":"川内大工町"},
{"zip_code":"9800854","kana_pref":"ﾐﾔｷﾞｹﾝ","kana_city":"ｾﾝﾀﾞｲｼｱｵﾊﾞｸ","kana_address":"ｶﾜｳﾁﾅｶﾉｾﾏﾁ","pref":"宮城県","city":"仙台市青葉区","address":"川内中ノ瀬町"},
{"zip_code":"9800851","kana_pref":"ﾐﾔｷﾞｹﾝ","kana_city":"ｾﾝﾀﾞｲｼｱｵﾊﾞｸ","kana_address":"ｶﾜｳﾁﾐｮｳｼﾞﾝﾖｺﾁｮｳ","pref":"宮城県","city":"仙台市青葉区","address":"川内明神横丁"},
{"zip_code":"9800861","kana_pref":"ﾐﾔｷﾞｹﾝ","kana_city":"ｾﾝﾀﾞｲｼｱｵﾊﾞｸ","kana_address":"ｶﾜｳﾁﾓﾄﾊｾｸﾗ","pref":"宮城県","city":"仙台市青葉区","address":"川内元支倉"},
{"zip_code":"9800864","kana_pref":"ﾐﾔｷﾞｹﾝ","kana_city":"ｾﾝﾀﾞｲｼｱｵﾊﾞｸ","kana_address":"ｶﾜｳﾁﾔﾏﾔｼｷ","pref":"宮城県","city":"仙台市青葉区","address":"川内山屋敷"},
{"zip_code":"9800855","kana_pref":"ﾐﾔｷﾞｹﾝ","kana_city":"ｾﾝﾀﾞｲｼｱｵﾊﾞｸ","kana_address":"ｶﾜｳﾁﾖﾄﾞﾐﾊﾞｼﾄﾞｵﾘ","pref":"宮城県","city":"仙台市青葉区","address":"川内澱橋通"},
{"zip_code":"9800023","kana_pref":"ﾐﾔｷﾞｹﾝ","kana_city":"ｾﾝﾀﾞｲｼｱｵﾊﾞｸ","kana_address":"ｷﾀﾒﾏﾁ","pref":"宮城県","city":"仙台市青葉区","address":"北目町"},
{"zip_code":"9800801","kana_pref":"ﾐﾔｷﾞｹﾝ","kana_city":"ｾﾝﾀﾞｲｼｱｵﾊﾞｸ","kana_address":"ｷﾏﾁﾄﾞｵﾘ","pref":"宮城県","city":"仙台市青葉区","address":"木町通"},
{"zip_code":"9800803","kana_pref":"ﾐﾔｷﾞｹﾝ","kana_city":"ｾﾝﾀﾞｲｼｱｵﾊﾞｸ","kana_address":"ｺｸﾌﾞﾝﾁｮｳ","pref":"宮城県","city":"仙台市青葉区","address":"国分町"},
{"zip_code":"9800813","kana_pref":"ﾐﾔｷﾞｹﾝ","kana_city":"ｾﾝﾀﾞｲｼｱｵﾊﾞｸ","kana_address":"ｺﾒｶﾞﾌｸﾛ","pref":"宮城県","city":"仙台市青葉区","address":"米ケ袋"},
{"zip_code":"9800823","kana_pref":"ﾐﾔｷﾞｹﾝ","kana_city":"ｾﾝﾀﾞｲｼｱｵﾊﾞｸ","kana_address":"ｻｸﾗｶﾞｵｶｺｳｴﾝ","pref":"宮城県","city":"仙台市青葉区","address":"桜ケ岡公園"},
{"zip_code":"9800872","kana_pref":"ﾐﾔｷﾞｹﾝ","kana_city":"ｾﾝﾀﾞｲｼｱｵﾊﾞｸ","kana_address":"ｾｲﾘｮｳﾏﾁ","pref":"宮城県","city":"仙台市青葉区","address":"星陵町"},
{"zip_code":"9800822","kana_pref":"ﾐﾔｷﾞｹﾝ","kana_city":"ｾﾝﾀﾞｲｼｱｵﾊﾞｸ","kana_address":"ﾀﾁﾏﾁ","pref":"宮城県","city":"仙台市青葉区","address":"立町"},
{"zip_code":"9800021","kana_pref":"ﾐﾔｷﾞｹﾝ","kana_city":"ｾﾝﾀﾞｲｼｱｵﾊﾞｸ","kana_address":"ﾁｭｳｵｳ","pref":"宮城県","city":"仙台市青葉区","address":"中央"},
{"zip_code":"9806190","kana_pref":"ﾐﾔｷﾞｹﾝ","kana_city":"ｾﾝﾀﾞｲｼｱｵﾊﾞｸ","kana_address":"ﾁｭｳｵｳｱｴﾙ","pref":"宮城県","city":"仙台市青葉区","address":"中央アエル"},
{"zip_code":"9806101","kana_pref":"ﾐﾔｷﾞｹﾝ","kana_city":"ｾﾝﾀﾞｲｼｱｵﾊﾞｸ","kana_address":"ﾁｭｳｵｳｱｴﾙ","pref":"宮城県","city":"仙台市青葉区","address":"中央アエル"},
{"zip_code":"9806102","kana_pref":"ﾐﾔｷﾞｹﾝ","kana_city":"ｾﾝﾀﾞｲｼｱｵﾊﾞｸ","kana_address":"ﾁｭｳｵｳｱｴﾙ","pref":"宮城県","city":"仙台市青葉区","address":"中央アエル"},
{"zip_code":"9806103","kana_pref":"ﾐﾔｷﾞｹﾝ","kana_city":"ｾﾝﾀﾞｲｼｱｵﾊﾞｸ","kana_address":"ﾁｭｳｵｳｱｴﾙ","pref":"宮城県","city":"仙台市青葉区","address":"中央アエル"},
{"zip_code":"9806104","kana_pref":"ﾐﾔｷﾞｹﾝ","kana_city":"ｾﾝﾀﾞｲｼｱｵﾊﾞｸ","kana_address":"ﾁｭｳｵｳｱｴﾙ","pref":"宮城県","city":"仙台市青葉区","address":"中央アエル"},
{"zip_code":"9806105","kana_pref":"ﾐﾔｷﾞｹﾝ","kana_city":"ｾﾝﾀﾞｲｼｱｵﾊﾞｸ","kana_address":"ﾁｭｳｵｳｱｴﾙ","pref":"宮城県","city":"仙台市青葉区","address":"中央アエル"},
{"zip_code":"9806106","kana_pref":"ﾐﾔｷﾞｹﾝ","kana_city":"ｾﾝﾀﾞｲｼｱｵﾊﾞｸ","kana_address":"ﾁｭｳｵｳｱｴﾙ","pref":"宮城県","city":"仙台市青葉区","address":"中央アエル"},
{"zip_code":"9806107","kana_pref":"ﾐﾔｷﾞｹﾝ","kana_city":"ｾﾝﾀﾞｲｼｱｵﾊﾞｸ","kana_address":"ﾁｭｳｵｳｱｴﾙ","pref":"宮城県","city":"仙台市青葉区","address":"中央アエル"},
{"zip_code":"9806108","kana_pref":"ﾐﾔｷﾞｹﾝ","kana_city":"ｾﾝﾀﾞｲｼｱｵﾊﾞｸ","kana_address":"ﾁｭｳｵｳｱｴﾙ","pref":"宮城県","city":"仙台市青葉区","address":"中央アエル"},
{"zip_code":"9806109","kana_pref":"ﾐﾔｷﾞｹﾝ","kana_city":"ｾﾝﾀﾞｲｼｱｵﾊﾞｸ","kana_address":"ﾁｭｳｵｳｱｴﾙ","pref":"宮城県","city":"仙台市青葉区","address":"中央アエル"},
{"zip_code":"9806110","kana_pref":"ﾐﾔｷﾞｹﾝ","kana_city":"ｾﾝﾀﾞｲｼｱｵﾊﾞｸ","kana_address":"ﾁｭｳｵｳｱｴﾙ","pref":"宮城県","city":"仙台市青葉区","address":"中央アエル"},
{"zip_code":"9806111","kana_pref":"ﾐﾔｷﾞｹﾝ","kana_city":"ｾﾝﾀﾞｲｼｱｵﾊﾞｸ","kana_address":"ﾁｭｳｵｳｱｴﾙ","pref":"宮城県","city":"仙台市青葉区","address":"中央アエル"},
{"zip_code":"9806112","kana_pref":"ﾐﾔｷﾞｹﾝ","kana_city":"ｾﾝﾀﾞｲｼｱｵﾊﾞｸ","kana_address":"ﾁｭｳｵｳｱｴﾙ","pref":"宮城県","city":"仙台市青葉区","address":"中央アエル"},
{"zip_code":"9806113","kana_pref":"ﾐﾔｷﾞｹﾝ","kana_city":"ｾﾝﾀﾞｲｼｱｵﾊﾞｸ","kana_address":"ﾁｭｳｵｳｱｴﾙ","pref":"宮城県","city":"仙台市青葉区","address":"中央アエル"},
{"zip_code":"9806114","kana_pref":"ﾐﾔｷﾞｹﾝ","kana_city":"ｾﾝﾀﾞｲｼｱｵﾊﾞｸ","kana_address":"ﾁｭｳｵｳｱｴﾙ","pref":"宮城県","city":"仙台市青葉区","address":"中央アエル"},
{"zip_code":"9806115","kana_pref":"ﾐﾔｷﾞｹﾝ","kana_city":"ｾﾝﾀﾞｲｼｱｵﾊﾞｸ","kana_address":"ﾁｭｳｵｳｱｴﾙ","pref":"宮城県","city":"仙台市青葉区","address":"中央アエル"},
{"zip_code":"9806116","kana_pref":"ﾐﾔｷﾞｹﾝ","kana_city":"ｾﾝﾀﾞｲｼｱｵﾊﾞｸ","kana_address":"ﾁｭｳｵｳｱｴﾙ","pref":"宮城県","city":"仙台市青葉区","address":"中央アエル"},
{"zip_code":"9806117","kana_pref":"ﾐﾔｷﾞｹﾝ","kana_city":"ｾﾝﾀﾞｲｼｱｵﾊﾞｸ","kana_address":"ﾁｭｳｵｳｱｴﾙ","pref":"宮城県","city":"仙台市青葉区","address":"中央アエル"},
{"zip_code":"9806118","kana_pref":"ﾐﾔｷﾞｹﾝ","kana_city":"ｾﾝﾀﾞｲｼｱｵﾊﾞｸ","kana_address":"ﾁｭｳｵｳｱｴﾙ","pref":"宮城県","city":"仙台市青葉区","address":"中央アエル"},
{"zip_code":"9806119","kana_pref":"ﾐﾔｷﾞｹﾝ","kana_city":"ｾﾝﾀﾞｲｼｱｵﾊﾞｸ","kana_address":"ﾁｭｳｵｳｱｴﾙ","pref":"宮城県","city":"仙台市青葉区","address":"中央アエル"},
{"zip_code":"9806120","kana_pref":"ﾐﾔｷﾞｹﾝ","kana_city":"ｾﾝﾀﾞｲｼｱｵﾊﾞｸ","kana_address":"ﾁｭｳｵｳｱｴﾙ","pref":"宮城県","city":"仙台市青葉区","address":"中央アエル"},
{"zip_code":"9806121","kana_pref":"ﾐﾔｷﾞｹﾝ","kana_city":"ｾﾝﾀﾞｲｼｱｵﾊﾞｸ","kana_address":"ﾁｭｳｵｳｱｴﾙ","pref":"宮城県","city":"仙台市青葉区","address":"中央アエル"},
{"zip_code":"9806122","kana_pref":"ﾐﾔｷﾞｹﾝ","kana_city":"ｾﾝﾀﾞｲｼｱｵﾊﾞｸ","kana_address":"ﾁｭｳｵｳｱｴﾙ","pref":"宮城県","city":"仙台市青葉区","address":"中央アエル"},
{"zip_code":"9806123","kana_pref":"ﾐﾔｷﾞｹﾝ","kana_city":"ｾﾝﾀﾞｲｼｱｵﾊﾞｸ","kana_address":"ﾁｭｳｵｳｱｴﾙ","pref":"宮城県","city":"仙台市青葉区","address":"中央アエル"},
{"zip_code":"9806124","kana_pref":"ﾐﾔｷﾞｹﾝ","kana_city":"ｾﾝﾀﾞｲｼｱｵﾊﾞｸ","kana_address":"ﾁｭｳｵｳｱｴﾙ","pref":"宮城県","city":"仙台市青葉区","address":"中央アエル"},
{"zip_code":"9806125","kana_pref":"ﾐﾔｷﾞｹﾝ","kana_city":"ｾﾝﾀﾞｲｼｱｵﾊﾞｸ","kana_address":"ﾁｭｳｵｳｱｴﾙ","pref":"宮城県","city":"仙台市青葉区","address":"中央アエル"},
{"zip_code":"9806126","kana_pref":"ﾐﾔｷﾞｹﾝ","kana_city":"ｾﾝﾀﾞｲｼｱｵﾊﾞｸ","kana_address":"ﾁｭｳｵｳｱｴﾙ","pref":"宮城県","city":"仙台市青葉区","address":"中央アエル"},
{"zip_code":"9806127","kana_pref":"ﾐﾔｷﾞｹﾝ","kana_city":"ｾﾝﾀﾞｲｼｱｵﾊﾞｸ","kana_address":"ﾁｭｳｵｳｱｴﾙ","pref":"宮城県","city":"仙台市青葉区","address":"中央アエル"},
{"zip_code":"9806128","kana_pref":"ﾐﾔｷﾞｹﾝ","kana_city":"ｾﾝﾀﾞｲｼｱｵﾊﾞｸ","kana_address":"ﾁｭｳｵｳｱｴﾙ","pref":"宮城県","city":"仙台市青葉区","address":"中央アエル"},
{"zip_code":"9806129","kana_pref":"ﾐﾔｷﾞｹﾝ","kana_city":"ｾﾝﾀﾞｲｼｱｵﾊﾞｸ","kana_address":"ﾁｭｳｵｳｱｴﾙ","pref":"宮城県","city":"仙台市青葉区","address":"中央アエル"},
{"zip_code":"9806130","kana_pref":"ﾐﾔｷﾞｹﾝ","kana_city":"ｾﾝﾀﾞｲｼｱｵﾊﾞｸ","kana_address":"ﾁｭｳｵｳｱｴﾙ","pref":"宮城県","city":"仙台市青葉区","address":"中央アエル"},
{"zip_code":"9806131","kana_pref":"ﾐﾔｷﾞｹﾝ","kana_city":"ｾﾝﾀﾞｲｼｱｵﾊﾞｸ","kana_address":"ﾁｭｳｵｳｱｴﾙ","pref":"宮城県","city":"仙台市青葉区","address":"中央アエル"},
{"zip_code":"9806090","kana_pref":"ﾐﾔｷﾞｹﾝ","kana_city":"ｾﾝﾀﾞｲｼｱｵﾊﾞｸ","kana_address":"ﾁｭｳｵｳSS30ｽﾐﾄﾓｾｲﾒｲｾﾝﾀﾞｲﾁｭｳｵｳﾋﾞﾙ","pref":"宮城県","city":"仙台市青葉区","address":"中央ＳＳ３０住友生命仙台中央ビル"},
{"zip_code":"9806001","kana_pref":"ﾐﾔｷﾞｹﾝ","kana_city":"ｾﾝﾀﾞｲｼｱｵﾊﾞｸ","kana_address":"ﾁｭｳｵｳSS30ｽﾐﾄﾓｾｲﾒｲｾﾝﾀﾞｲﾁｭｳｵｳﾋﾞﾙ","pref":"宮城県","city":"仙台市青葉区","address":"中央ＳＳ３０住友生命仙台中央ビル"},
{"zip_code":"9806002","kana_pref":"ﾐﾔｷﾞｹﾝ","kana_city":"ｾﾝﾀﾞｲｼｱｵﾊﾞｸ","kana_address":"ﾁｭｳｵｳSS30ｽﾐﾄﾓｾｲﾒｲｾﾝﾀﾞｲﾁｭｳｵｳﾋﾞﾙ","pref":"宮城県","city":"仙台市青葉区","address":"中央ＳＳ３０住友生命仙台中央ビル"},
{"zip_code":"9806003","kana_pref":"ﾐﾔｷﾞｹﾝ","kana_city":"ｾﾝﾀﾞｲｼｱｵﾊﾞｸ","kana_address":"ﾁｭｳｵｳSS30ｽﾐﾄﾓｾｲﾒｲｾﾝﾀﾞｲﾁｭｳｵｳﾋﾞﾙ","pref":"宮城県","city":"仙台市青葉区","address":"中央ＳＳ３０住友生命仙台中央ビル"},
{"zip_code":"9806004","kana_pref":"ﾐﾔｷﾞｹﾝ","kana_city":"ｾﾝﾀﾞｲｼｱｵﾊﾞｸ","kana_address":"ﾁｭｳｵｳSS30ｽﾐﾄﾓｾｲﾒｲｾﾝﾀﾞｲﾁｭｳｵｳﾋﾞﾙ","pref":"宮城県","city":"仙台市青葉区","address":"中央ＳＳ３０住友生命仙台中央ビル"},
{"zip_code":"9806005","kana_pref":"ﾐﾔｷﾞｹﾝ","kana_city":"ｾﾝﾀﾞｲｼｱｵﾊﾞｸ","kana_address":"ﾁｭｳｵｳSS30ｽﾐﾄﾓｾｲﾒｲｾﾝﾀﾞｲﾁｭｳｵｳﾋﾞﾙ","pref":"宮城県","city":"仙台市青葉区","address":"中央ＳＳ３０住友生命仙台中央ビル"},
{"zip_code":"9806006","kana_pref":"ﾐﾔｷﾞｹﾝ","kana_city":"ｾﾝﾀﾞｲｼｱｵﾊﾞｸ","kana_address":"ﾁｭｳｵｳSS30ｽﾐﾄﾓｾｲﾒｲｾﾝﾀﾞｲﾁｭｳｵｳﾋﾞﾙ","pref":"宮城県","city":"仙台市青葉区","address":"中央ＳＳ３０住友生命仙台中央ビル"},
{"zip_code":"9806007","kana_pref":"ﾐﾔｷﾞｹﾝ","kana_city":"ｾﾝﾀﾞｲｼｱｵﾊﾞｸ","kana_address":"ﾁｭｳｵｳSS30ｽﾐﾄﾓｾｲﾒｲｾﾝﾀﾞｲﾁｭｳｵｳﾋﾞﾙ","pref":"宮城県","city":"仙台市青葉区","address":"中央ＳＳ３０住友生命仙台中央ビル"},
{"zip_code":"9806008","kana_pref":"ﾐﾔｷﾞｹﾝ","kana_city":"ｾﾝﾀﾞｲｼｱｵﾊﾞｸ","kana_address":"ﾁｭｳｵｳSS30ｽﾐﾄﾓｾｲﾒｲｾﾝﾀﾞｲﾁｭｳｵｳﾋﾞﾙ","pref":"宮城県","city":"仙台市青葉区","address":"中央ＳＳ３０住友生命仙台中央ビル"},
{"zip_code":"9806009","kana_pref":"ﾐﾔｷﾞｹﾝ","kana_city":"ｾﾝﾀﾞｲｼｱｵﾊﾞｸ","kana_address":"ﾁｭｳｵｳSS30ｽﾐﾄﾓｾｲﾒｲｾﾝﾀﾞｲﾁｭｳｵｳﾋﾞﾙ","pref":"宮城県","city":"仙台市青葉区","address":"中央ＳＳ３０住友生命仙台中央ビル"},
{"zip_code":"9806010","kana_pref":"ﾐﾔｷﾞｹﾝ","kana_city":"ｾﾝﾀﾞｲｼｱｵﾊﾞｸ","kana_address":"ﾁｭｳｵｳSS30ｽﾐﾄﾓｾｲﾒｲｾﾝﾀﾞｲﾁｭｳｵｳﾋﾞﾙ","pref":"宮城県","city":"仙台市青葉区","address":"中央ＳＳ３０住友生命仙台中央ビル"},
{"zip_code":"9806011","kana_pref":"ﾐﾔｷﾞｹﾝ","kana_city":"ｾﾝﾀﾞｲｼｱｵﾊﾞｸ","kana_address":"ﾁｭｳｵｳSS30ｽﾐﾄﾓｾｲﾒｲｾﾝﾀﾞｲﾁｭｳｵｳﾋﾞﾙ","pref":"宮城県","city":"仙台市青葉区","address":"中央ＳＳ３０住友生命仙台中央ビル"},
{"zip_code":"9806012","kana_pref":"ﾐﾔｷﾞｹﾝ","kana_city":"ｾﾝﾀﾞｲｼｱｵﾊﾞｸ","kana_address":"ﾁｭｳｵｳSS30ｽﾐﾄﾓｾｲﾒｲｾﾝﾀﾞｲﾁｭｳｵｳﾋﾞﾙ","pref":"宮城県","city":"仙台市青葉区","address":"中央ＳＳ３０住友生命仙台中央ビル"},
{"zip_code":"9806013","kana_pref":"ﾐﾔｷﾞｹﾝ","kana_city":"ｾﾝﾀﾞｲｼｱｵﾊﾞｸ","kana_address":"ﾁｭｳｵｳSS30ｽﾐﾄﾓｾｲﾒｲｾﾝﾀﾞｲﾁｭｳｵｳﾋﾞﾙ","pref":"宮城県","city":"仙台市青葉区","address":"中央ＳＳ３０住友生命仙台中央ビル"},
{"zip_code":"9806014","kana_pref":"ﾐﾔｷﾞｹﾝ","kana_city":"ｾﾝﾀﾞｲｼｱｵﾊﾞｸ","kana_address":"ﾁｭｳｵｳSS30ｽﾐﾄﾓｾｲﾒｲｾﾝﾀﾞｲﾁｭｳｵｳﾋﾞﾙ","pref":"宮城県","city":"仙台市青葉区","address":"中央ＳＳ３０住友生命仙台中央ビル"},
{"zip_code":"9806015","kana_pref":"ﾐﾔｷﾞｹﾝ","kana_city":"ｾﾝﾀﾞｲｼｱｵﾊﾞｸ","kana_address":"ﾁｭｳｵｳSS30ｽﾐﾄﾓｾｲﾒｲｾﾝﾀﾞｲﾁｭｳｵｳﾋﾞﾙ","pref":"宮城県","city":"仙台市青葉区","address":"中央ＳＳ３０住友生命仙台中央ビル"},
{"zip_code":"9806016","kana_pref":"ﾐﾔｷﾞｹﾝ","kana_city":"ｾﾝﾀﾞｲｼｱｵﾊﾞｸ","kana_address":"ﾁｭｳｵｳSS30ｽﾐﾄﾓｾｲﾒｲｾﾝﾀﾞｲﾁｭｳｵｳﾋﾞﾙ","pref":"宮城県","city":"仙台市青葉区","address":"中央ＳＳ３０住友生命仙台中央ビル"},
{"zip_code":"9806017","kana_pref":"ﾐﾔｷﾞｹﾝ","kana_city":"ｾﾝﾀﾞｲｼｱｵﾊﾞｸ","kana_address":"ﾁｭｳｵｳSS30ｽﾐﾄﾓｾｲﾒｲｾﾝﾀﾞｲﾁｭｳｵｳﾋﾞﾙ","pref":"宮城県","city":"仙台市青葉区","address":"中央ＳＳ３０住友生命仙台中央ビル"},
{"zip_code":"9806018","kana_pref":"ﾐﾔｷﾞｹﾝ","kana_city":"ｾﾝﾀﾞｲｼｱｵﾊﾞｸ","kana_address":"ﾁｭｳｵｳSS30ｽﾐﾄﾓｾｲﾒｲｾﾝﾀﾞｲﾁｭｳｵｳﾋﾞﾙ","pref":"宮城県","city":"仙台市青葉区","address":"中央ＳＳ３０住友生命仙台中央ビル"},
{"zip_code":"9806019","kana_pref":"ﾐﾔｷﾞｹﾝ","kana_city":"ｾﾝﾀﾞｲｼｱｵﾊﾞｸ","kana_address":"ﾁｭｳｵｳSS30ｽﾐﾄﾓｾｲﾒｲｾﾝﾀﾞｲﾁｭｳｵｳﾋﾞﾙ","pref":"宮城県","city":"仙台市青葉区","address":"中央ＳＳ３０住友生命仙台中央ビル"},
{"zip_code":"9806020","kana_pref":"ﾐﾔｷﾞｹﾝ","kana_city":"ｾﾝﾀﾞｲｼｱｵﾊﾞｸ","kana_address":"ﾁｭｳｵｳSS30ｽﾐﾄﾓｾｲﾒｲｾﾝﾀﾞｲﾁｭｳｵｳﾋﾞﾙ","pref":"宮城県","city":"仙台市青葉区","address":"中央ＳＳ３０住友生命仙台中央ビル"},
{"zip_code":"9806021","kana_pref":"ﾐﾔｷﾞｹﾝ","kana_city":"ｾﾝﾀﾞｲｼｱｵﾊﾞｸ","kana_address":"ﾁｭｳｵｳSS30ｽﾐﾄﾓｾｲﾒｲｾﾝﾀﾞｲﾁｭｳｵｳﾋﾞﾙ","pref":"宮城県","city":"仙台市青葉区","address":"中央ＳＳ３０住友生命仙台中央ビル"},
{"zip_code":"9806022","kana_pref":"ﾐﾔｷﾞｹﾝ","kana_city":"ｾﾝﾀﾞｲｼｱｵﾊﾞｸ","kana_address":"ﾁｭｳｵｳSS30ｽﾐﾄﾓｾｲﾒｲｾﾝﾀﾞｲﾁｭｳｵｳﾋﾞﾙ","pref":"宮城県","city":"仙台市青葉区","address":"中央ＳＳ３０住友生命仙台中央ビル"},
{"zip_code":"9806023","kana_pref":"ﾐﾔｷﾞｹﾝ","kana_city":"ｾﾝﾀﾞｲｼｱｵﾊﾞｸ","kana_address":"ﾁｭｳｵｳSS30ｽﾐﾄﾓｾｲﾒｲｾﾝﾀﾞｲﾁｭｳｵｳﾋﾞﾙ","pref":"宮城県","city":"仙台市青葉区","address":"中央ＳＳ３０住友生命仙台中央ビル"},
{"zip_code":"9806024","kana_pref":"ﾐﾔｷﾞｹﾝ","kana_city":"ｾﾝﾀﾞｲｼｱｵﾊﾞｸ","kana_address":"ﾁｭｳｵｳSS30ｽﾐﾄﾓｾｲﾒｲｾﾝﾀﾞｲﾁｭｳｵｳﾋﾞﾙ","pref":"宮城県","city":"仙台市青葉区","address":"中央ＳＳ３０住友生命仙台中央ビル"},
{"zip_code":"9806025","kana_pref":"ﾐﾔｷﾞｹﾝ","kana_city":"ｾﾝﾀﾞｲｼｱｵﾊﾞｸ","kana_address":"ﾁｭｳｵｳSS30ｽﾐﾄﾓｾｲﾒｲｾﾝﾀﾞｲﾁｭｳｵｳﾋﾞﾙ","pref":"宮城県","city":"仙台市青葉区","address":"中央ＳＳ３０住友生命仙台中央ビル"},
{"zip_code":"9806026","kana_pref":"ﾐﾔｷﾞｹﾝ","kana_city":"ｾﾝﾀﾞｲｼｱｵﾊﾞｸ","kana_address":"ﾁｭｳｵｳSS30ｽﾐﾄﾓｾｲﾒｲｾﾝﾀﾞｲﾁｭｳｵｳﾋﾞﾙ","pref":"宮城県","city":"仙台市青葉区","address":"中央ＳＳ３０住友生命仙台中央ビル"},
{"zip_code":"9806027","kana_pref":"ﾐﾔｷﾞｹﾝ","kana_city":"ｾﾝﾀﾞｲｼｱｵﾊﾞｸ","kana_address":"ﾁｭｳｵｳSS30ｽﾐﾄﾓｾｲﾒｲｾﾝﾀﾞｲﾁｭｳｵｳﾋﾞﾙ","pref":"宮城県","city":"仙台市青葉区","address":"中央ＳＳ３０住友生命仙台中央ビル"},
{"zip_code":"9806028","kana_pref":"ﾐﾔｷﾞｹﾝ","kana_city":"ｾﾝﾀﾞｲｼｱｵﾊﾞｸ","kana_address":"ﾁｭｳｵｳSS30ｽﾐﾄﾓｾｲﾒｲｾﾝﾀﾞｲﾁｭｳｵｳﾋﾞﾙ","pref":"宮城県","city":"仙台市青葉区","address":"中央ＳＳ３０住友生命仙台中央ビル"},
{"zip_code":"9806029","kana_pref":"ﾐﾔｷﾞｹﾝ","kana_city":"ｾﾝﾀﾞｲｼｱｵﾊﾞｸ","kana_address":"ﾁｭｳｵｳSS30ｽﾐﾄﾓｾｲﾒｲｾﾝﾀﾞｲﾁｭｳｵｳﾋﾞﾙ","pref":"宮城県","city":"仙台市青葉区","address":"中央ＳＳ３０住友生命仙台中央ビル"},
{"zip_code":"9806030","kana_pref":"ﾐﾔｷﾞｹﾝ","kana_city":"ｾﾝﾀﾞｲｼｱｵﾊﾞｸ","kana_address":"ﾁｭｳｵｳSS30ｽﾐﾄﾓｾｲﾒｲｾﾝﾀﾞｲﾁｭｳｵｳﾋﾞﾙ","pref":"宮城県","city":"仙台市青葉区","address":"中央ＳＳ３０住友生命仙台中央ビル"},
{"zip_code":"9800065","kana_pref":"ﾐﾔｷﾞｹﾝ","kana_city":"ｾﾝﾀﾞｲｼｱｵﾊﾞｸ","kana_address":"ﾂﾁﾄｲ","pref":"宮城県","city":"仙台市青葉区","address":"土樋"},
{"zip_code":"9800874","kana_pref":"ﾐﾔｷﾞｹﾝ","kana_city":"ｾﾝﾀﾞｲｼｱｵﾊﾞｸ","kana_address":"ﾂﾉｺﾞﾛｳ","pref":"宮城県","city":"仙台市青葉区","address":"角五郎"},
{"zip_code":"9800001","kana_pref":"ﾐﾔｷﾞｹﾝ","kana_city":"ｾﾝﾀﾞｲｼｱｵﾊﾞｸ","kana_address":"ﾅｶｴ","pref":"宮城県","city":"仙台市青葉区","address":"中江"},
{"zip_code":"9800012","kana_pref":"ﾐﾔｷﾞｹﾝ","kana_city":"ｾﾝﾀﾞｲｼｱｵﾊﾞｸ","kana_address":"ﾆｼｷﾁｮｳ","pref":"宮城県","city":"仙台市青葉区","address":"錦町"},
{"zip_code":"9800824","kana_pref":"ﾐﾔｷﾞｹﾝ","kana_city":"ｾﾝﾀﾞｲｼｱｵﾊﾞｸ","kana_address":"ﾊｾｸﾗﾏﾁ","pref":"宮城県","city":"仙台市青葉区","address":"支倉町"},
{"zip_code":"9800871","kana_pref":"ﾐﾔｷﾞｹﾝ","kana_city":"ｾﾝﾀﾞｲｼｱｵﾊﾞｸ","kana_address":"ﾊﾁﾏﾝ","pref":"宮城県","city":"仙台市青葉区","address":"八幡"},
{"zip_code":"9800873","kana_pref":"ﾐﾔｷﾞｹﾝ","kana_city":"ｾﾝﾀﾞｲｼｱｵﾊﾞｸ","kana_address":"ﾋﾛｾﾏﾁ","pref":"宮城県","city":"仙台市青葉区","address":"広瀬町"},
{"zip_code":"9800002","kana_pref":"ﾐﾔｷﾞｹﾝ","kana_city":"ｾﾝﾀﾞｲｼｱｵﾊﾞｸ","kana_address":"ﾌｸｻﾞﾜﾏﾁ","pref":"宮城県","city":"仙台市青葉区","address":"福沢町"},
{"zip_code":"9800802","kana_pref":"ﾐﾔｷﾞｹﾝ","kana_city":"ｾﾝﾀﾞｲｼｱｵﾊﾞｸ","kana_address":"ﾌﾂｶﾏﾁ","pref":"宮城県","city":"仙台市青葉区","address":"二日町"},
{"zip_code":"9800014","kana_pref":"ﾐﾔｷﾞｹﾝ","kana_city":"ｾﾝﾀﾞｲｼｱｵﾊﾞｸ","kana_address":"ﾎﾝﾁｮｳ","pref":"宮城県","city":"仙台市青葉区","address":"本町"},
{"zip_code":"9800004","kana_pref":"ﾐﾔｷﾞｹﾝ","kana_city":"ｾﾝﾀﾞｲｼｱｵﾊﾞｸ","kana_address":"ﾐﾔﾏﾁ","pref":"宮城県","city":"仙台市青葉区","address":"宮町"}]}