{"zip_code":[
{"zip_code":"9810916","kana_pref":"ﾐﾔｷﾞｹﾝ","kana_city":"ｾﾝﾀﾞｲｼｱｵﾊﾞｸ","kana_address":"ｱｵﾊﾞﾏﾁ","pref":"宮城県","city":"仙台市青葉区","address":"青葉町"},
{"zip_code":"9810963","kana_pref":"ﾐﾔｷﾞｹﾝ","kana_city":"ｾﾝﾀﾞｲｼｱｵﾊﾞｸ","kana_address":"ｱｹﾎﾞﾉﾏﾁ","pref":"宮城県","city":"仙台市青葉区","address":"あけぼの町"},
{"zip_code":"9810904","kana_pref":"ﾐﾔｷﾞｹﾝ","kana_city":"ｾﾝﾀﾞｲｼｱｵﾊﾞｸ","kana_address":"ｱｻﾋｶﾞｵｶ","pref":"宮城県","city":"仙台市青葉区","address":"旭ケ丘"},
{"zip_code":"9810945","kana_pref":"ﾐﾔｷﾞｹﾝ","kana_city":"ｾﾝﾀﾞｲｼｱｵﾊﾞｸ","kana_address":"ｱﾗﾏｷ","pref":"宮城県","city":"仙台市青葉区","address":"荒巻"},
{"zip_code":"9810965","kana_pref":"ﾐﾔｷﾞｹﾝ","kana_city":"ｾﾝﾀﾞｲｼｱｵﾊﾞｸ","kana_address":"ｱﾗﾏｷｼﾝﾒｲﾏﾁ","pref":"宮城県","city":"仙台市青葉区","address":"荒巻神明町"},
{"zip_code":"9810964","kana_pref":"ﾐﾔｷﾞｹﾝ","kana_city":"ｾﾝﾀﾞｲｼｱｵﾊﾞｸ","kana_address":"ｱﾗﾏｷﾁｭｳｵｳ","pref":"宮城県","city":"仙台市青葉区","address":"荒巻中央"},
{"zip_code":"9810966","kana_pref":"ﾐﾔｷﾞｹﾝ","kana_city":"ｾﾝﾀﾞｲｼｱｵﾊﾞｸ","kana_address":"ｱﾗﾏｷﾎﾝｻﾞﾜ","pref":"宮城県","city":"仙台市青葉区","address":"荒巻本沢"},
{"zip_code":"9810942","kana_pref":"ﾐﾔｷﾞｹﾝ","kana_city":"ｾﾝﾀﾞｲｼｱｵﾊﾞｸ","kana_address":"ｶｲｶﾞﾓﾘ","pref":"宮城県","city":"仙台市青葉区","address":"貝ケ森"},
{"zip_code":"9810933","kana_pref":"ﾐﾔｷﾞｹﾝ","kana_city":"ｾﾝﾀﾞｲｼｱｵﾊﾞｸ","kana_address":"ｶｼﾜｷﾞ","pref":"宮城県","city":"仙台市青葉区","address":"柏木"},
{"zip_code":"9810954","kana_pref":"ﾐﾔｷﾞｹﾝ","kana_city":"ｾﾝﾀﾞｲｼｱｵﾊﾞｸ","kana_address":"ｶﾜﾀﾞｲﾗ","pref":"宮城県","city":"仙台市青葉区","address":"川平"},
{"zip_code":"9810941","kana_pref":"ﾐﾔｷﾞｹﾝ","kana_city":"ｾﾝﾀﾞｲｼｱｵﾊﾞｸ","kana_address":"ｷｸﾀﾏﾁ","pref":"宮城県","city":"仙台市青葉区","address":"菊田町"},
{"zip_code":"9810902","kana_pref":"ﾐﾔｷﾞｹﾝ","kana_city":"ｾﾝﾀﾞｲｼｱｵﾊﾞｸ","kana_address":"ｷﾀﾈ","pref":"宮城県","city":"仙台市青葉区","address":"北根"},
{"zip_code":"9810901","kana_pref":"ﾐﾔｷﾞｹﾝ","kana_city":"ｾﾝﾀﾞｲｼｱｵﾊﾞｸ","kana_address":"ｷﾀﾈｸﾛﾏﾂ","pref":"宮城県","city":"仙台市青葉区","address":"北根黒松"},
{"zip_code":"9810931","kana_pref":"ﾐﾔｷﾞｹﾝ","kana_city":"ｾﾝﾀﾞｲｼｱｵﾊﾞｸ","kana_address":"ｷﾀﾔﾏ","pref":"宮城県","city":"仙台市青葉区","address":"北山"},
{"zip_code":"9810932","kana_pref":"ﾐﾔｷﾞｹﾝ","kana_city":"ｾﾝﾀﾞｲｼｱｵﾊﾞｸ","kana_address":"ｷﾏﾁ","pref":"宮城県","city":"仙台市青葉区","address":"木町"},
{"zip_code":"9810943","kana_pref":"ﾐﾔｷﾞｹﾝ","kana_city":"ｾﾝﾀﾞｲｼｱｵﾊﾞｸ","kana_address":"ｸﾆﾐ","pref":"宮城県","city":"仙台市青葉区","address":"国見"},
{"zip_code":"9810905","kana_pref":"ﾐﾔｷﾞｹﾝ","kana_city":"ｾﾝﾀﾞｲｼｱｵﾊﾞｸ","kana_address":"ｺﾏﾂｼﾏ","pref":"宮城県","city":"仙台市青葉区","address":"小松島"},
{"zip_code":"9810906","kana_pref":"ﾐﾔｷﾞｹﾝ","kana_city":"ｾﾝﾀﾞｲｼｱｵﾊﾞｸ","kana_address":"ｺﾏﾂｼﾏｼﾝﾂﾂﾐ","pref":"宮城県","city":"仙台市青葉区","address":"小松島新堤"},
{"zip_code":"9810922","kana_pref":"ﾐﾔｷﾞｹﾝ","kana_city":"ｾﾝﾀﾞｲｼｱｵﾊﾞｸ","kana_address":"ｻｷﾞｶﾞﾓﾘ","pref":"宮城県","city":"仙台市青葉区","address":"鷺ケ森"},
{"zip_code":"9810961","kana_pref":"ﾐﾔｷﾞｹﾝ","kana_city":"ｾﾝﾀﾞｲｼｱｵﾊﾞｸ","kana_address":"ｻｸﾗｶﾞｵｶ","pref":"宮城県","city":"仙台市青葉区","address":"桜ケ丘"},
{"zip_code":"9810935","kana_pref":"ﾐﾔｷﾞｹﾝ","kana_city":"ｾﾝﾀﾞｲｼｱｵﾊﾞｸ","kana_address":"ｻﾝｼﾞｮｳﾏﾁ","pref":"宮城県","city":"仙台市青葉区","address":"三条町"},
{"zip_code":"9810944","kana_pref":"ﾐﾔｷﾞｹﾝ","kana_city":"ｾﾝﾀﾞｲｼｱｵﾊﾞｸ","kana_address":"ｼﾍｲﾏﾁ","pref":"宮城県","city":"仙台市青葉区","address":"子平町"},
{"zip_code":"9810913","kana_pref":"ﾐﾔｷﾞｹﾝ","kana_city":"ｾﾝﾀﾞｲｼｱｵﾊﾞｸ","kana_address":"ｼｮｳﾜﾏﾁ","pref":"宮城県","city":"仙台市青葉区","address":"昭和町"},
{"zip_code":"9810911","kana_pref":"ﾐﾔｷﾞｹﾝ","kana_city":"ｾﾝﾀﾞｲｼｱｵﾊﾞｸ","kana_address":"ﾀﾞｲﾉﾊﾗ","pref":"宮城県","city":"仙台市青葉区","address":"台原"},
{"zip_code":"9810903","kana_pref":"ﾐﾔｷﾞｹﾝ","kana_city":"ｾﾝﾀﾞｲｼｱｵﾊﾞｸ","kana_address":"ﾀﾞｲﾉﾊﾗｼﾝﾘﾝｺｳｴﾝ","pref":"宮城県","city":"仙台市青葉区","address":"台原森林公園"},
{"zip_code":"9810907","kana_pref":"ﾐﾔｷﾞｹﾝ","kana_city":"ｾﾝﾀﾞｲｼｱｵﾊﾞｸ","kana_address":"ﾀｶﾏﾂ","pref":"宮城県","city":"仙台市青葉区","address":"高松"},
{"zip_code":"9810951","kana_pref":"ﾐﾔｷﾞｹﾝ","kana_city":"ｾﾝﾀﾞｲｼｱｵﾊﾞｸ","kana_address":"ﾀｷﾐﾁ","pref":"宮城県","city":"仙台市青葉区","address":"滝道"},
{"zip_code":"9810936","kana_pref":"ﾐﾔｷﾞｹﾝ","kana_city":"ｾﾝﾀﾞｲｼｱｵﾊﾞｸ","kana_address":"ﾁﾖﾀﾞﾏﾁ","pref":"宮城県","city":"仙台市青葉区","address":"千代田町"},
{"zip_code":"9810914","kana_pref":"ﾐﾔｷﾞｹﾝ","kana_city":"ｾﾝﾀﾞｲｼｱｵﾊﾞｸ","kana_address":"ﾂﾂﾐﾄﾞｵﾘｱﾏﾐﾔﾏﾁ","pref":"宮城県","city":"仙台市青葉区","address":"堤通雨宮町"},
{"zip_code":"9810912","kana_pref":"ﾐﾔｷﾞｹﾝ","kana_city":"ｾﾝﾀﾞｲｼｱｵﾊﾞｸ","kana_address":"ﾂﾂﾐﾏﾁ","pref":"宮城県","city":"仙台市青葉区","address":"堤町"},
{"zip_code":"9810908","kana_pref":"ﾐﾔｷﾞｹﾝ","kana_city":"ｾﾝﾀﾞｲｼｱｵﾊﾞｸ","kana_address":"ﾄｳｼｮｳｸﾞｳ","pref":"宮城県","city":"仙台市青葉区","address":"東照宮"},
{"zip_code":"9810915","kana_pref":"ﾐﾔｷﾞｹﾝ","kana_city":"ｾﾝﾀﾞｲｼｱｵﾊﾞｸ","kana_address":"ﾄｵﾘﾁｮｳ","pref":"宮城県","city":"仙台市青葉区","address":"通町"},
{"zip_code":"9810952","kana_pref":"ﾐﾔｷﾞｹﾝ","kana_city":"ｾﾝﾀﾞｲｼｱｵﾊﾞｸ","kana_address":"ﾅｶﾔﾏ","pref":"宮城県","city":"仙台市青葉区","address":"中山"},
{"zip_code":"9810934","kana_pref":"ﾐﾔｷﾞｹﾝ","kana_city":"ｾﾝﾀﾞｲｼｱｵﾊﾞｸ","kana_address":"ﾆｲｻﾞｶﾏﾁ","pref":"宮城県","city":"仙台市青葉区","address":"新坂町"},
{"zip_code":"9810953","kana_pref":"ﾐﾔｷﾞｹﾝ","kana_city":"ｾﾝﾀﾞｲｼｱｵﾊﾞｸ","kana_address":"ﾆｼｶﾂﾔﾏ","pref":"宮城県","city":"仙台市青葉区","address":"西勝山"},
{"zip_code":"9810917","kana_pref":"ﾐﾔｷﾞｹﾝ","kana_city":"ｾﾝﾀﾞｲｼｱｵﾊﾞｸ","kana_address":"ﾊﾔﾏﾏﾁ","pref":"宮城県","city":"仙台市青葉区","address":"葉山町"},
{"zip_code":"9810923","kana_pref":"ﾐﾔｷﾞｹﾝ","kana_city":"ｾﾝﾀﾞｲｼｱｵﾊﾞｸ","kana_address":"ﾋｶﾞｼｶﾂﾔﾏ","pref":"宮城県","city":"仙台市青葉区","address":"東勝山"},
{"zip_code":"9810921","kana_pref":"ﾐﾔｷﾞｹﾝ","kana_city":"ｾﾝﾀﾞｲｼｱｵﾊﾞｸ","kana_address":"ﾌｼﾞﾏﾂ","pref":"宮城県","city":"仙台市青葉区","address":"藤松"},
{"zip_code":"9810924","kana_pref":"ﾐﾔｷﾞｹﾝ","kana_city":"ｾﾝﾀﾞｲｼｱｵﾊﾞｸ","kana_address":"ﾌﾀﾊﾞｶﾞｵｶ","pref":"宮城県","city":"仙台市青葉区","address":"双葉ケ丘"},
{"zip_code":"9810962","kana_pref":"ﾐﾔｷﾞｹﾝ","kana_city":"ｾﾝﾀﾞｲｼｱｵﾊﾞｸ","kana_address":"ﾐｽﾞﾉﾓﾘ","pref":"宮城県","city":"仙台市青葉区","address":"水の森"},
{"zip_code":"9810967","kana_pref":"ﾐﾔｷﾞｹﾝ","kana_city":"ｾﾝﾀﾞｲｼｱｵﾊﾞｸ","kana_address":"ﾔﾏﾃﾏﾁ","pref":"宮城県","city":"仙台市青葉区","address":"山手町"},
{"zip_code":"9811101","kana_pref":"ﾐﾔｷﾞｹﾝ","kana_city":"ｾﾝﾀﾞｲｼﾀｲﾊｸｸ","kana_address":"ｼﾛｳﾏﾙ","pref":"宮城県","city":"仙台市太白区","address":"四郎丸"},
{"zip_code":"9811104","kana_pref":"ﾐﾔｷﾞｹﾝ","kana_city":"ｾﾝﾀﾞｲｼﾀｲﾊｸｸ","kana_address":"ﾅｶﾀﾞ","pref":"宮城県","city":"仙台市太白区","address":"中田"},
{"zip_code":"9811103","kana_pref":"ﾐﾔｷﾞｹﾝ","kana_city":"ｾﾝﾀﾞｲｼﾀｲﾊｸｸ","kana_address":"ﾅｶﾀﾞﾏﾁ","pref":"宮城県","city":"仙台市太白区","address":"中田町"},
{"zip_code":"9811105","kana_pref":"ﾐﾔｷﾞｹﾝ","kana_city":"ｾﾝﾀﾞｲｼﾀｲﾊｸｸ","kana_address":"ﾆｼﾅｶﾀﾞ","pref":"宮城県","city":"仙台市太白区","address":"西中田"},
{"zip_code":"9811107","kana_pref":"ﾐﾔｷﾞｹﾝ","kana_city":"ｾﾝﾀﾞｲｼﾀｲﾊｸｸ","kana_address":"ﾋｶﾞｼﾅｶﾀﾞ","pref":"宮城県","city":"仙台市太白区","address":"東中田"},
{"zip_code":"9811102","kana_pref":"ﾐﾔｷﾞｹﾝ","kana_city":"ｾﾝﾀﾞｲｼﾀｲﾊｸｸ","kana_address":"ﾌｸﾛﾊﾞﾗ","pref":"宮城県","city":"仙台市太白区","address":"袋原"},
{"zip_code":"9811106","kana_pref":"ﾐﾔｷﾞｹﾝ","kana_city":"ｾﾝﾀﾞｲｼﾀｲﾊｸｸ","kana_address":"ﾔﾅｷﾞｳ","pref":"宮城県","city":"仙台市太白区","address":"柳生"},
{"zip_code":"9813100","kana_pref":"ﾐﾔｷﾞｹﾝ","kana_city":"ｾﾝﾀﾞｲｼｲｽﾞﾐｸ","kana_address":"","pref":"宮城県","city":"仙台市泉区","address":""},
{"zip_code":"9813115","kana_pref":"ﾐﾔｷﾞｹﾝ","kana_city":"ｾﾝﾀﾞｲｼｲｽﾞﾐｸ","kana_address":"ｱｲﾘﾝﾁｮｳ","pref":"宮城県","city":"仙台市泉区","address":"愛隣町"},
{"zip_code":"9813101","kana_pref":"ﾐﾔｷﾞｹﾝ","kana_city":"ｾﾝﾀﾞｲｼｲｽﾞﾐｸ","kana_address":"ｱｶｲｼﾐﾅﾐ","pref":"宮城県","city":"仙台市泉区","address":"明石南"},
{"zip_code":"9813206","kana_pref":"ﾐﾔｷﾞｹﾝ","kana_city":"ｾﾝﾀﾞｲｼｲｽﾞﾐｸ","kana_address":"ｱｹﾄﾞｵﾘ","pref":"宮城県","city":"仙台市泉区","address":"明通"},
{"zip_code":"9818004","kana_pref":"ﾐﾔｷﾞｹﾝ","kana_city":"ｾﾝﾀﾞｲｼｲｽﾞﾐｸ","kana_address":"ｱｻﾋｶﾞｵｶﾂﾂﾐ","pref":"宮城県","city":"仙台市泉区","address":"旭丘堤"},
{"zip_code":"9813201","kana_pref":"ﾐﾔｷﾞｹﾝ","kana_city":"ｾﾝﾀﾞｲｼｲｽﾞﾐｸ","kana_address":"ｲｽﾞﾐｶﾞｵｶ","pref":"宮城県","city":"仙台市泉区","address":"泉ケ丘"},
{"zip_code":"9813133","kana_pref":"ﾐﾔｷﾞｹﾝ","kana_city":"ｾﾝﾀﾞｲｼｲｽﾞﾐｸ","kana_address":"ｲｽﾞﾐﾁｭｳｵｳ","pref":"宮城県","city":"仙台市泉区","address":"泉中央"},
{"zip_code":"9813117","kana_pref":"ﾐﾔｷﾞｹﾝ","kana_city":"ｾﾝﾀﾞｲｼｲｽﾞﾐｸ","kana_address":"ｲﾁﾅｻﾞｶ","pref":"宮城県","city":"仙台市泉区","address":"市名坂"},
{"zip_code":"9813104","kana_pref":"ﾐﾔｷﾞｹﾝ","kana_city":"ｾﾝﾀﾞｲｼｲｽﾞﾐｸ","kana_address":"ｴｲﾜﾀﾞｲ","pref":"宮城県","city":"仙台市泉区","address":"永和台"},
{"zip_code":"9813137","kana_pref":"ﾐﾔｷﾞｹﾝ","kana_city":"ｾﾝﾀﾞｲｼｲｽﾞﾐｸ","kana_address":"ｵｵｻﾜ","pref":"宮城県","city":"仙台市泉区","address":"大沢"},
{"zip_code":"9813216","kana_pref":"ﾐﾔｷﾞｹﾝ","kana_city":"ｾﾝﾀﾞｲｼｲｽﾞﾐｸ","kana_address":"ｵｶﾞｸ","pref":"宮城県","city":"仙台市泉区","address":"小角"},
{"zip_code":"9813134","kana_pref":"ﾐﾔｷﾞｹﾝ","kana_city":"ｾﾝﾀﾞｲｼｲｽﾞﾐｸ","kana_address":"ｶﾂﾗ","pref":"宮城県","city":"仙台市泉区","address":"桂"},
{"zip_code":"9813121","kana_pref":"ﾐﾔｷﾞｹﾝ","kana_city":"ｾﾝﾀﾞｲｼｲｽﾞﾐｸ","kana_address":"ｶﾐﾔｶﾞﾘ","pref":"宮城県","city":"仙台市泉区","address":"上谷刈"},
{"zip_code":"9813122","kana_pref":"ﾐﾔｷﾞｹﾝ","kana_city":"ｾﾝﾀﾞｲｼｲｽﾞﾐｸ","kana_address":"ｶﾓ","pref":"宮城県","city":"仙台市泉区","address":"加茂"},
{"zip_code":"9813202","kana_pref":"ﾐﾔｷﾞｹﾝ","kana_city":"ｾﾝﾀﾞｲｼｲｽﾞﾐｸ","kana_address":"ｷﾀﾀｶﾓﾘ","pref":"宮城県","city":"仙台市泉区","address":"北高森"},
{"zip_code":"9813215","kana_pref":"ﾐﾔｷﾞｹﾝ","kana_city":"ｾﾝﾀﾞｲｼｲｽﾞﾐｸ","kana_address":"ｷﾀﾅｶﾔﾏ","pref":"宮城県","city":"仙台市泉区","address":"北中山"},
{"zip_code":"9818006","kana_pref":"ﾐﾔｷﾞｹﾝ","kana_city":"ｾﾝﾀﾞｲｼｲｽﾞﾐｸ","kana_address":"ｸﾛﾏﾂ","pref":"宮城県","city":"仙台市泉区","address":"黒松"},
{"zip_code":"9813102","kana_pref":"ﾐﾔｷﾞｹﾝ","kana_city":"ｾﾝﾀﾞｲｼｲｽﾞﾐｸ","kana_address":"ｺｳﾖｳﾀﾞｲ","pref":"宮城県","city":"仙台市泉区","address":"向陽台"},
{"zip_code":"9813217","kana_pref":"ﾐﾔｷﾞｹﾝ","kana_city":"ｾﾝﾀﾞｲｼｲｽﾞﾐｸ","kana_address":"ｻﾈｻﾞﾜ","pref":"宮城県","city":"仙台市泉区","address":"実沢"},
{"zip_code":"9813132","kana_pref":"ﾐﾔｷﾞｹﾝ","kana_city":"ｾﾝﾀﾞｲｼｲｽﾞﾐｸ","kana_address":"ｼｮｳｹﾞﾝ","pref":"宮城県","city":"仙台市泉区","address":"将監"},
{"zip_code":"9813136","kana_pref":"ﾐﾔｷﾞｹﾝ","kana_city":"ｾﾝﾀﾞｲｼｲｽﾞﾐｸ","kana_address":"ｼｮｳｹﾞﾝﾄﾉ","pref":"宮城県","city":"仙台市泉区","address":"将監殿"},
{"zip_code":"9813108","kana_pref":"ﾐﾔｷﾞｹﾝ","kana_city":"ｾﾝﾀﾞｲｼｲｽﾞﾐｸ","kana_address":"ｼｮｳﾘｮｳ","pref":"宮城県","city":"仙台市泉区","address":"松陵"},
{"zip_code":"9813222","kana_pref":"ﾐﾔｷﾞｹﾝ","kana_city":"ｾﾝﾀﾞｲｼｲｽﾞﾐｸ","kana_address":"ｽﾐﾖｼﾀﾞｲﾋｶﾞｼ","pref":"宮城県","city":"仙台市泉区","address":"住吉台東"},
{"zip_code":"9813223","kana_pref":"ﾐﾔｷﾞｹﾝ","kana_city":"ｾﾝﾀﾞｲｼｲｽﾞﾐｸ","kana_address":"ｽﾐﾖｼﾀﾞｲﾆｼ","pref":"宮城県","city":"仙台市泉区","address":"住吉台西"},
{"zip_code":"9813116","kana_pref":"ﾐﾔｷﾞｹﾝ","kana_city":"ｾﾝﾀﾞｲｼｲｽﾞﾐｸ","kana_address":"ﾀｶﾀﾞﾏﾁｮｳ","pref":"宮城県","city":"仙台市泉区","address":"高玉町"},
{"zip_code":"9813203","kana_pref":"ﾐﾔｷﾞｹﾝ","kana_city":"ｾﾝﾀﾞｲｼｲｽﾞﾐｸ","kana_address":"ﾀｶﾓﾘ","pref":"宮城県","city":"仙台市泉区","address":"高森"},
{"zip_code":"9813212","kana_pref":"ﾐﾔｷﾞｹﾝ","kana_city":"ｾﾝﾀﾞｲｼｲｽﾞﾐｸ","kana_address":"ﾁｮｳﾒｲｶﾞｵｶ","pref":"宮城県","city":"仙台市泉区","address":"長命ケ丘"},
{"zip_code":"9813211","kana_pref":"ﾐﾔｷﾞｹﾝ","kana_city":"ｾﾝﾀﾞｲｼｲｽﾞﾐｸ","kana_address":"ﾁｮｳﾒｲｶﾞｵｶﾋｶﾞｼ","pref":"宮城県","city":"仙台市泉区","address":"長命ケ丘東"},
{"zip_code":"9813109","kana_pref":"ﾐﾔｷﾞｹﾝ","kana_city":"ｾﾝﾀﾞｲｼｲｽﾞﾐｸ","kana_address":"ﾂﾙｶﾞｵｶ","pref":"宮城県","city":"仙台市泉区","address":"鶴が丘"},
{"zip_code":"9813204","kana_pref":"ﾐﾔｷﾞｹﾝ","kana_city":"ｾﾝﾀﾞｲｼｲｽﾞﾐｸ","kana_address":"ﾃﾗｵｶ","pref":"宮城県","city":"仙台市泉区","address":"寺岡"},
{"zip_code":"9813105","kana_pref":"ﾐﾔｷﾞｹﾝ","kana_city":"ｾﾝﾀﾞｲｼｲｽﾞﾐｸ","kana_address":"ﾃﾝｼﾞﾝｻﾞﾜ","pref":"宮城県","city":"仙台市泉区","address":"天神沢"},
{"zip_code":"9813131","kana_pref":"ﾐﾔｷﾞｹﾝ","kana_city":"ｾﾝﾀﾞｲｼｲｽﾞﾐｸ","kana_address":"ﾅﾅｷﾀ","pref":"宮城県","city":"仙台市泉区","address":"七北田"},
{"zip_code":"9818003","kana_pref":"ﾐﾔｷﾞｹﾝ","kana_city":"ｾﾝﾀﾞｲｼｲｽﾞﾐｸ","kana_address":"ﾅﾝｺｳﾀﾞｲ","pref":"宮城県","city":"仙台市泉区","address":"南光台"},
{"zip_code":"9818001","kana_pref":"ﾐﾔｷﾞｹﾝ","kana_city":"ｾﾝﾀﾞｲｼｲｽﾞﾐｸ","kana_address":"ﾅﾝｺｳﾀﾞｲﾋｶﾞｼ","pref":"宮城県","city":"仙台市泉区","address":"南光台東"},
{"zip_code":"9818002","kana_pref":"ﾐﾔｷﾞｹﾝ","kana_city":"ｾﾝﾀﾞｲｼｲｽﾞﾐｸ","kana_address":"ﾅﾝｺｳﾀﾞｲﾐﾅﾐ","pref":"宮城県","city":"仙台市泉区","address":"南光台南"},
{"zip_code":"9813224","kana_pref":"ﾐﾔｷﾞｹﾝ","kana_city":"ｾﾝﾀﾞｲｼｲｽﾞﾐｸ","kana_address":"ﾆｼﾀﾅｶ","pref":"宮城県","city":"仙台市泉区","address":"西田中"},
{"zip_code":"9818007","kana_pref":"ﾐﾔｷﾞｹﾝ","kana_city":"ｾﾝﾀﾞｲｼｲｽﾞﾐｸ","kana_address":"ﾆｼﾞﾉｵｶ","pref":"宮城県","city":"仙台市泉区","address":"虹の丘"},
{"zip_code":"9813221","kana_pref":"ﾐﾔｷﾞｹﾝ","kana_city":"ｾﾝﾀﾞｲｼｲｽﾞﾐｸ","kana_address":"ﾈﾉｼﾛｲｼ","pref":"宮城県","city":"仙台市泉区","address":"根白石"},
{"zip_code":"9813124","kana_pref":"ﾐﾔｷﾞｹﾝ","kana_city":"ｾﾝﾀﾞｲｼｲｽﾞﾐｸ","kana_address":"ﾉﾑﾗ","pref":"宮城県","city":"仙台市泉区","address":"野村"},
{"zip_code":"9818005","kana_pref":"ﾐﾔｷﾞｹﾝ","kana_city":"ｾﾝﾀﾞｲｼｲｽﾞﾐｸ","kana_address":"ﾋｶﾞｼｸﾛﾏﾂ","pref":"宮城県","city":"仙台市泉区","address":"東黒松"},
{"zip_code":"9813225","kana_pref":"ﾐﾔｷﾞｹﾝ","kana_city":"ｾﾝﾀﾞｲｼｲｽﾞﾐｸ","kana_address":"ﾌｸｵｶ","pref":"宮城県","city":"仙台市泉区","address":"福岡"},
{"zip_code":"9813123","kana_pref":"ﾐﾔｷﾞｹﾝ","kana_city":"ｾﾝﾀﾞｲｼｲｽﾞﾐｸ","kana_address":"ﾌﾙｳﾁ","pref":"宮城県","city":"仙台市泉区","address":"古内"},
{"zip_code":"9813226","kana_pref":"ﾐﾔｷﾞｹﾝ","kana_city":"ｾﾝﾀﾞｲｼｲｽﾞﾐｸ","kana_address":"ﾎｳｻﾞﾜ","pref":"宮城県","city":"仙台市泉区","address":"朴沢"},
{"zip_code":"9813106","kana_pref":"ﾐﾔｷﾞｹﾝ","kana_city":"ｾﾝﾀﾞｲｼｲｽﾞﾐｸ","kana_address":"ﾎｻｶﾁｮｳ","pref":"宮城県","city":"仙台市泉区","address":"歩坂町"},
{"zip_code":"9813107","kana_pref":"ﾐﾔｷﾞｹﾝ","kana_city":"ｾﾝﾀﾞｲｼｲｽﾞﾐｸ","kana_address":"ﾎﾝﾀﾞﾁｮｳ","pref":"宮城県","city":"仙台市泉区","address":"本田町"},
{"zip_code":"9813111","kana_pref":"ﾐﾔｷﾞｹﾝ","kana_city":"ｾﾝﾀﾞｲｼｲｽﾞﾐｸ","kana_address":"ﾏﾂﾓﾘ","pref":"宮城県","city":"仙台市泉区","address":"松森"},
{"zip_code":"9813113","kana_pref":"ﾐﾔｷﾞｹﾝ","kana_city":"ｾﾝﾀﾞｲｼｲｽﾞﾐｸ","kana_address":"ﾏﾐｻﾜ","pref":"宮城県","city":"仙台市泉区","address":"真美沢"},
{"zip_code":"9813125","kana_pref":"ﾐﾔｷﾞｹﾝ","kana_city":"ｾﾝﾀﾞｲｼｲｽﾞﾐｸ","kana_address":"ﾐｽﾞﾎﾀﾞｲ","pref":"宮城県","city":"仙台市泉区","address":"みずほ台"},
{"zip_code":"9813213","kana_pref":"ﾐﾔｷﾞｹﾝ","kana_city":"ｾﾝﾀﾞｲｼｲｽﾞﾐｸ","kana_address":"ﾐﾅﾐﾅｶﾔﾏ","pref":"宮城県","city":"仙台市泉区","address":"南中山"},
{"zip_code":"9813205","kana_pref":"ﾐﾔｷﾞｹﾝ","kana_city":"ｾﾝﾀﾞｲｼｲｽﾞﾐｸ","kana_address":"ﾑﾗｻｷﾔﾏ","pref":"宮城県","city":"仙台市泉区","address":"紫山"},
{"zip_code":"9813112","kana_pref":"ﾐﾔｷﾞｹﾝ","kana_city":"ｾﾝﾀﾞｲｼｲｽﾞﾐｸ","kana_address":"ﾔｵﾄﾒ","pref":"宮城県","city":"仙台市泉区","address":"八乙女"},
{"zip_code":"9813135","kana_pref":"ﾐﾔｷﾞｹﾝ","kana_city":"ｾﾝﾀﾞｲｼｲｽﾞﾐｸ","kana_address":"ﾔｵﾄﾒﾁｭｳｵｳ","pref":"宮城県","city":"仙台市泉区","address":"八乙女中央"},
{"zip_code":"9813214","kana_pref":"ﾐﾔｷﾞｹﾝ","kana_city":"ｾﾝﾀﾞｲｼｲｽﾞﾐｸ","kana_address":"ﾔｶﾀ","pref":"宮城県","city":"仙台市泉区","address":"館"},
{"zip_code":"9813103","kana_pref":"ﾐﾔｷﾞｹﾝ","kana_city":"ｾﾝﾀﾞｲｼｲｽﾞﾐｸ","kana_address":"ﾔﾏﾉﾃﾗ","pref":"宮城県","city":"仙台市泉区","address":"山の寺"},
{"zip_code":"9813114","kana_pref":"ﾐﾔｷﾞｹﾝ","kana_city":"ｾﾝﾀﾞｲｼｲｽﾞﾐｸ","kana_address":"ﾕｳｱｲﾁｮｳ","pref":"宮城県","city":"仙台市泉区","address":"友愛町"},
{"zip_code":"9811200","kana_pref":"ﾐﾔｷﾞｹﾝ","kana_city":"ﾅﾄﾘｼ","kana_address":"","pref":"宮城県","city":"名取市","address":""},
{"zip_code":"9811230","kana_pref":"ﾐﾔｷﾞｹﾝ","kana_city":"ﾅﾄﾘｼ","kana_address":"ｱｲﾉﾓﾘ","pref":"宮城県","city":"名取市","address":"愛の杜"},
{"zip_code":"9811225","kana_pref":"ﾐﾔｷﾞｹﾝ","kana_city":"ﾅﾄﾘｼ","kana_address":"ｲｲﾉｻﾞｶ","pref":"宮城県","city":"名取市","address":"飯野坂"},
{"zip_code":"9811226","kana_pref":"ﾐﾔｷﾞｹﾝ","kana_city":"ﾅﾄﾘｼ","kana_address":"ｳｴﾏﾂ","pref":"宮城県","city":"名取市","address":"植松"},
{"zip_code":"9811215","kana_pref":"ﾐﾔｷﾞｹﾝ","kana_city":"ﾅﾄﾘｼ","kana_address":"ｳｼﾉ","pref":"宮城県","city":"名取市","address":"牛野"},
{"zip_code":"9811232","kana_pref":"ﾐﾔｷﾞｹﾝ","kana_city":"ﾅﾄﾘｼ","kana_address":"ｵｵﾃﾏﾁ","pref":"宮城県","city":"名取市","address":"大手町"},
{"zip_code":"9811216","kana_pref":"ﾐﾔｷﾞｹﾝ","kana_city":"ﾅﾄﾘｼ","kana_address":"ｵｵﾏｶﾞﾘ","pref":"宮城県","city":"名取市","address":"大曲"},
{"zip_code":"9811233","kana_pref":"ﾐﾔｷﾞｹﾝ","kana_city":"ﾅﾄﾘｼ","kana_address":"ｵﾔﾏ","pref":"宮城県","city":"名取市","address":"小山"},
{"zip_code":"9811222","kana_pref":"ﾐﾔｷﾞｹﾝ","kana_city":"ﾅﾄﾘｼ","kana_address":"ｶﾐﾖｳﾃﾞﾝ","pref":"宮城県","city":"名取市","address":"上余田"},
{"zip_code":"9811212","kana_pref":"ﾐﾔｷﾞｹﾝ","kana_city":"ﾅﾄﾘｼ","kana_address":"ｺﾂﾞｶﾊﾗ","pref":"宮城県","city":"名取市","address":"小塚原"},
{"zip_code":"9811201","kana_pref":"ﾐﾔｷﾞｹﾝ","kana_city":"ﾅﾄﾘｼ","kana_address":"ｼﾓﾏｽﾀﾞ","pref":"宮城県","city":"名取市","address":"下増田"},
{"zip_code":"9811223","kana_pref":"ﾐﾔｷﾞｹﾝ","kana_city":"ﾅﾄﾘｼ","kana_address":"ｼﾓﾖｳﾃﾞﾝ","pref":"宮城県","city":"名取市","address":"下余田"},
{"zip_code":"9811214","kana_pref":"ﾐﾔｷﾞｹﾝ","kana_city":"ﾅﾄﾘｼ","kana_address":"ｽｷﾞｶﾞﾌｸﾛ","pref":"宮城県","city":"名取市","address":"杉ケ袋"},
{"zip_code":"9811246","kana_pref":"ﾐﾔｷﾞｹﾝ","kana_city":"ﾅﾄﾘｼ","kana_address":"ｿｳｺﾞﾀﾞｲ","pref":"宮城県","city":"名取市","address":"相互台"},
{"zip_code":"9811248","kana_pref":"ﾐﾔｷﾞｹﾝ","kana_city":"ﾅﾄﾘｼ","kana_address":"ｿｳｺﾞﾀﾞｲﾋｶﾞｼ","pref":"宮城県","city":"名取市","address":"相互台東"},
{"zip_code":"9811243","kana_pref":"ﾐﾔｷﾞｹﾝ","kana_city":"ﾅﾄﾘｼ","kana_address":"ﾀｶﾀﾞﾃｶﾜｶﾐ","pref":"宮城県","city":"名取市","address":"高舘川上"},
{"zip_code":"9811241","kana_pref":"ﾐﾔｷﾞｹﾝ","kana_city":"ﾅﾄﾘｼ","kana_address":"ﾀｶﾀﾞﾃｸﾏﾉﾄﾞｳ","pref":"宮城県","city":"名取市","address":"高舘熊野堂"},
{"zip_code":"9811242","kana_pref":"ﾐﾔｷﾞｹﾝ","kana_city":"ﾅﾄﾘｼ","kana_address":"ﾀｶﾀﾞﾃﾖｼﾀﾞ","pref":"宮城県","city":"名取市","address":"高舘吉田"},
{"zip_code":"9811211","kana_pref":"ﾐﾔｷﾞｹﾝ","kana_city":"ﾅﾄﾘｼ","kana_address":"ﾀｶﾔﾅｷﾞ","pref":"宮城県","city":"名取市","address":"高柳"},
{"zip_code":"9811221","kana_pref":"ﾐﾔｷﾞｹﾝ","kana_city":"ﾅﾄﾘｼ","kana_address":"ﾀｺｳ","pref":"宮城県","city":"名取市","address":"田高"},
{"zip_code":"9811231","kana_pref":"ﾐﾔｷﾞｹﾝ","kana_city":"ﾅﾄﾘｼ","kana_address":"ﾃｸﾗﾀﾞ","pref":"宮城県","city":"名取市","address":"手倉田"},
{"zip_code":"9811244","kana_pref":"ﾐﾔｷﾞｹﾝ","kana_city":"ﾅﾄﾘｼ","kana_address":"ﾅﾁｶﾞｵｶ","pref":"宮城県","city":"名取市","address":"那智が丘"},
{"zip_code":"9811235","kana_pref":"ﾐﾔｷﾞｹﾝ","kana_city":"ﾅﾄﾘｼ","kana_address":"ﾅﾄﾘｶﾞｵｶ","pref":"宮城県","city":"名取市","address":"名取が丘"},
{"zip_code":"9811234","kana_pref":"ﾐﾔｷﾞｹﾝ","kana_city":"ﾅﾄﾘｼ","kana_address":"ﾊｺﾂﾞｶ","pref":"宮城県","city":"名取市","address":"箱塚"},
{"zip_code":"9811224","kana_pref":"ﾐﾔｷﾞｹﾝ","kana_city":"ﾅﾄﾘｼ","kana_address":"ﾏｽﾀﾞ","pref":"宮城県","city":"名取市","address":"増田"},
{"zip_code":"9811217","kana_pref":"ﾐﾔｷﾞｹﾝ","kana_city":"ﾅﾄﾘｼ","kana_address":"ﾐﾀｿﾞﾉ","pref":"宮城県","city":"名取市","address":"美田園"},
{"zip_code":"9811247","kana_pref":"ﾐﾔｷﾞｹﾝ","kana_city":"ﾅﾄﾘｼ","kana_address":"ﾐﾄﾞﾘﾀﾞｲ","pref":"宮城県","city":"名取市","address":"みどり台"},
{"zip_code":"9811236","kana_pref":"ﾐﾔｷﾞｹﾝ","kana_city":"ﾅﾄﾘｼ","kana_address":"ﾒﾃﾞｼﾏｱｽﾞｷｼﾏ","pref":"宮城県","city":"名取市","address":"愛島小豆島"},
{"zip_code":"9811238","kana_pref":"ﾐﾔｷﾞｹﾝ","kana_city":"ﾅﾄﾘｼ","kana_address":"ﾒﾃﾞｼﾏｶｻｼﾏ","pref":"宮城県","city":"名取市","address":"愛島笠島"},
{"zip_code":"9811237","kana_pref":"ﾐﾔｷﾞｹﾝ","kana_city":"ﾅﾄﾘｼ","kana_address":"ﾒﾃﾞｼﾏｷﾀﾒ","pref":"宮城県","city":"名取市","address":"愛島北目"},
{"zip_code":"9811239","kana_pref":"ﾐﾔｷﾞｹﾝ","kana_city":"ﾅﾄﾘｼ","kana_address":"ﾒﾃﾞｼﾏｼｵﾃ","pref":"宮城県","city":"名取市","address":"愛島塩手"},
{"zip_code":"9811251","kana_pref":"ﾐﾔｷﾞｹﾝ","kana_city":"ﾅﾄﾘｼ","kana_address":"ﾒﾃﾞｼﾏﾀﾞｲ","pref":"宮城県","city":"名取市","address":"愛島台"},
{"zip_code":"9811227","kana_pref":"ﾐﾔｷﾞｹﾝ","kana_city":"ﾅﾄﾘｼ","kana_address":"ﾓﾘｾｷﾉｼﾀ","pref":"宮城県","city":"名取市","address":"杜せきのした"},
{"zip_code":"9811213","kana_pref":"ﾐﾔｷﾞｹﾝ","kana_city":"ﾅﾄﾘｼ","kana_address":"ﾕﾘｱｹﾞ","pref":"宮城県","city":"名取市","address":"閖上"},
{"zip_code":"9811245","kana_pref":"ﾐﾔｷﾞｹﾝ","kana_city":"ﾅﾄﾘｼ","kana_address":"ﾕﾘｶﾞｵｶ","pref":"宮城県","city":"名取市","address":"ゆりが丘"},
{"zip_code":"9811500","kana_pref":"ﾐﾔｷﾞｹﾝ","kana_city":"ｶｸﾀﾞｼ","kana_address":"","pref":"宮城県","city":"角田市","address":""},
{"zip_code":"9811518","kana_pref":"ﾐﾔｷﾞｹﾝ","kana_city":"ｶｸﾀﾞｼ","kana_address":"ｲﾅｵｷ","pref":"宮城県","city":"角田市","address":"稲置"},
{"zip_code":"9811521","kana_pref":"ﾐﾔｷﾞｹﾝ","kana_city":"ｶｸﾀﾞｼ","kana_address":"ｴｼﾞﾘ","pref":"宮城県","city":"角田市","address":"江尻"},
{"zip_code":"9811504","kana_pref":"ﾐﾔｷﾞｹﾝ","kana_city":"ｶｸﾀﾞｼ","kana_address":"ｴﾀﾞﾉ","pref":"宮城県","city":"角田市","address":"枝野"},
{"zip_code":"9811524","kana_pref":"ﾐﾔｷﾞｹﾝ","kana_city":"ｶｸﾀﾞｼ","kana_address":"ｵｶ","pref":"宮城県","city":"角田市","address":"岡"},
{"zip_code":"9811532","kana_pref":"ﾐﾔｷﾞｹﾝ","kana_city":"ｶｸﾀﾞｼ","kana_address":"ｵｻｶ","pref":"宮城県","city":"角田市","address":"小坂"},
{"zip_code":"9811514","kana_pref":"ﾐﾔｷﾞｹﾝ","kana_city":"ｶｸﾀﾞｼ","kana_address":"ｵﾀﾞ","pref":"宮城県","city":"角田市","address":"小田"},
{"zip_code":"9811502","kana_pref":"ﾐﾔｷﾞｹﾝ","kana_city":"ｶｸﾀﾞｼ","kana_address":"ｵﾔﾏ","pref":"宮城県","city":"角田市","address":"尾山"},
{"zip_code":"9811505","kana_pref":"ﾐﾔｷﾞｹﾝ","kana_city":"ｶｸﾀﾞｼ","kana_address":"ｶｸﾀﾞ","pref":"宮城県","city":"角田市","address":"角田"},
{"zip_code":"9811515","kana_pref":"ﾐﾔｷﾞｹﾝ","kana_city":"ｶｸﾀﾞｼ","kana_address":"ｶｻｼﾏ","pref":"宮城県","city":"角田市","address":"笠島"},
{"zip_code":"9811523","kana_pref":"ﾐﾔｷﾞｹﾝ","kana_city":"ｶｸﾀﾞｼ","kana_address":"ｶｼﾞｶ","pref":"宮城県","city":"角田市","address":"梶賀"},
{"zip_code":"9811525","kana_pref":"ﾐﾔｷﾞｹﾝ","kana_city":"ｶｸﾀﾞｼ","kana_address":"ｷﾐｶﾞﾔ","pref":"宮城県","city":"角田市","address":"君萱"},
{"zip_code":"9811517","kana_pref":"ﾐﾔｷﾞｹﾝ","kana_city":"ｶｸﾀﾞｼ","kana_address":"ｹｶﾞﾔ","pref":"宮城県","city":"角田市","address":"毛萱"},
{"zip_code":"9811534","kana_pref":"ﾐﾔｷﾞｹﾝ","kana_city":"ｶｸﾀﾞｼ","kana_address":"ｻｶﾂﾀ","pref":"宮城県","city":"角田市","address":"坂津田"},
{"zip_code":"9811522","kana_pref":"ﾐﾔｷﾞｹﾝ","kana_city":"ｶｸﾀﾞｼ","kana_address":"ｻｸﾗ","pref":"宮城県","city":"角田市","address":"佐倉"},
{"zip_code":"9811503","kana_pref":"ﾐﾔｷﾞｹﾝ","kana_city":"ｶｸﾀﾞｼ","kana_address":"ｼﾏﾀﾞ","pref":"宮城県","city":"角田市","address":"島田"},
{"zip_code":"9811526","kana_pref":"ﾐﾔｷﾞｹﾝ","kana_city":"ｶｸﾀﾞｼ","kana_address":"ｼﾞﾝｼﾞﾛｳ","pref":"宮城県","city":"角田市","address":"神次郎"},
{"zip_code":"9811516","kana_pref":"ﾐﾔｷﾞｹﾝ","kana_city":"ｶｸﾀﾞｼ","kana_address":"ﾀｶｸﾗ","pref":"宮城県","city":"角田市","address":"高倉"},
{"zip_code":"9811513","kana_pref":"ﾐﾔｷﾞｹﾝ","kana_city":"ｶｸﾀﾞｼ","kana_address":"ﾄﾖﾑﾛ","pref":"宮城県","city":"角田市","address":"豊室"},
{"zip_code":"9811531","kana_pref":"ﾐﾔｷﾞｹﾝ","kana_city":"ｶｸﾀﾞｼ","kana_address":"ﾊﾄﾊﾞﾗ","pref":"宮城県","city":"角田市","address":"鳩原"},
{"zip_code":"9811511","kana_pref":"ﾐﾔｷﾞｹﾝ","kana_city":"ｶｸﾀﾞｼ","kana_address":"ﾊﾅｼﾏ","pref":"宮城県","city":"角田市","address":"花島"},
{"zip_code":"9811533","kana_pref":"ﾐﾔｷﾞｹﾝ","kana_city":"ｶｸﾀﾞｼ","kana_address":"ﾋﾗﾇｷ","pref":"宮城県","city":"角田市","address":"平貫"},
{"zip_code":"9811501","kana_pref":"ﾐﾔｷﾞｹﾝ","kana_city":"ｶｸﾀﾞｼ","kana_address":"ﾌｼﾞﾀ","pref":"宮城県","city":"角田市","address":"藤田"},
{"zip_code":"9811512","kana_pref":"ﾐﾔｷﾞｹﾝ","kana_city":"ｶｸﾀﾞｼ","kana_address":"ﾖｺｸﾗ","pref":"宮城県","city":"角田市","address":"横倉"},
{"zip_code":"9810500","kana_pref":"ﾐﾔｷﾞｹﾝ","kana_city":"ﾋｶﾞｼﾏﾂｼﾏｼ","kana_address":"","pref":"宮城県","city":"東松島市","address":""},
{"zip_code":"9810501","kana_pref":"ﾐﾔｷﾞｹﾝ","kana_city":"ﾋｶﾞｼﾏﾂｼﾏｼ","kana_address":"ｱｶｲ","pref":"宮城県","city":"東松島市","address":"赤井"},
{"zip_code":"9810415","kana_pref":"ﾐﾔｷﾞｹﾝ","kana_city":"ﾋｶﾞｼﾏﾂｼﾏｼ","kana_address":"ｱｻｲ","pref":"宮城県","city":"東松島市","address":"浅井"},
{"zip_code":"9810301","kana_pref":"ﾐﾔｷﾞｹﾝ","kana_city":"ﾋｶﾞｼﾏﾂｼﾏｼ","kana_address":"ｳｼｱﾐ","pref":"宮城県","city":"東松島市","address":"牛網"},
{"zip_code":"9810505","kana_pref":"ﾐﾔｷﾞｹﾝ","kana_city":"ﾋｶﾞｼﾏﾂｼﾏｼ","kana_address":"ｵｵｼｵ","pref":"宮城県","city":"東松島市","address":"大塩"},
{"zip_code":"9810414","kana_pref":"ﾐﾔｷﾞｹﾝ","kana_city":"ﾋｶﾞｼﾏﾂｼﾏｼ","kana_address":"ｵｵﾂｶ","pref":"宮城県","city":"東松島市","address":"大塚"},
{"zip_code":"9810502","kana_pref":"ﾐﾔｷﾞｹﾝ","kana_city":"ﾋｶﾞｼﾏﾂｼﾏｼ","kana_address":"ｵｵﾏｶﾞﾘ","pref":"宮城県","city":"東松島市","address":"大曲"},
{"zip_code":"9810303","kana_pref":"ﾐﾔｷﾞｹﾝ","kana_city":"ﾋｶﾞｼﾏﾂｼﾏｼ","kana_address":"ｵﾉ","pref":"宮城県","city":"東松島市","address":"小野"},
{"zip_code":"9810304","kana_pref":"ﾐﾔｷﾞｹﾝ","kana_city":"ﾋｶﾞｼﾏﾂｼﾏｼ","kana_address":"ｶﾜｸﾀﾞﾘ","pref":"宮城県","city":"東松島市","address":"川下"},
{"zip_code":"9810504","kana_pref":"ﾐﾔｷﾞｹﾝ","kana_city":"ﾋｶﾞｼﾏﾂｼﾏｼ","kana_address":"ｺﾏﾂ","pref":"宮城県","city":"東松島市","address":"小松"},
{"zip_code":"9810305","kana_pref":"ﾐﾔｷﾞｹﾝ","kana_city":"ﾋｶﾞｼﾏﾂｼﾏｼ","kana_address":"ｼﾞｮｳｹﾞﾂﾂﾐ","pref":"宮城県","city":"東松島市","address":"上下堤"},
{"zip_code":"9810413","kana_pref":"ﾐﾔｷﾞｹﾝ","kana_city":"ﾋｶﾞｼﾏﾂｼﾏｼ","kana_address":"ｼﾝﾄｳﾅ","pref":"宮城県","city":"東松島市","address":"新東名"},
{"zip_code":"9810308","kana_pref":"ﾐﾔｷﾞｹﾝ","kana_city":"ﾋｶﾞｼﾏﾂｼﾏｼ","kana_address":"ﾀｶﾏﾂ","pref":"宮城県","city":"東松島市","address":"高松"},
{"zip_code":"9810306","kana_pref":"ﾐﾔｷﾞｹﾝ","kana_city":"ﾋｶﾞｼﾏﾂｼﾏｼ","kana_address":"ﾆｼﾌｸﾀﾞ","pref":"宮城県","city":"東松島市","address":"西福田"},
{"zip_code":"9810307","kana_pref":"ﾐﾔｷﾞｹﾝ","kana_city":"ﾋｶﾞｼﾏﾂｼﾏｼ","kana_address":"ﾆﾂﾀ","pref":"宮城県","city":"東松島市","address":"新田"},
{"zip_code":"9810309","kana_pref":"ﾐﾔｷﾞｹﾝ","kana_city":"ﾋｶﾞｼﾏﾂｼﾏｼ","kana_address":"ﾈｺ","pref":"宮城県","city":"東松島市","address":"根古"},
{"zip_code":"9810411","kana_pref":"ﾐﾔｷﾞｹﾝ","kana_city":"ﾋｶﾞｼﾏﾂｼﾏｼ","kana_address":"ﾉﾋﾞﾙ","pref":"宮城県","city":"東松島市","address":"野蒜"},
{"zip_code":"9810302","kana_pref":"ﾐﾔｷﾞｹﾝ","kana_city":"ﾋｶﾞｼﾏﾂｼﾏｼ","kana_address":"ﾊﾏｲﾁ","pref":"宮城県","city":"東松島市","address":"浜市"},
{"zip_code":"9810412","kana_pref":"ﾐﾔｷﾞｹﾝ","kana_city":"ﾋｶﾞｼﾏﾂｼﾏｼ","kana_address":"ﾐﾔﾄ","pref":"宮城県","city":"東松島市","address":"宮戸"},
{"zip_code":"9810503","kana_pref":"ﾐﾔｷﾞｹﾝ","kana_city":"ﾋｶﾞｼﾏﾂｼﾏｼ","kana_address":"ﾔﾓﾄ","pref":"宮城県","city":"東松島市","address":"矢本"},
{"zip_code":"9812100","kana_pref":"ﾐﾔｷﾞｹﾝ","kana_city":"ｲｸﾞｸﾞﾝﾏﾙﾓﾘﾏﾁ","kana_address":"","pref":"宮城県","city":"伊具郡丸森町","address":""},
{"zip_code":"9812114","kana_pref":"ﾐﾔｷﾞｹﾝ","kana_city":"ｲｸﾞｸﾞﾝﾏﾙﾓﾘﾏﾁ","kana_address":"ｱｶﾎﾞﾘ","pref":"宮城県","city":"伊具郡丸森町","address":"赤堀"},
{"zip_code":"9812133","kana_pref":"ﾐﾔｷﾞｹﾝ","kana_city":"ｲｸﾞｸﾞﾝﾏﾙﾓﾘﾏﾁ","kana_address":"ｱｷｼﾊﾞ","pref":"宮城県","city":"伊具郡丸森町","address":"秋柴"},
{"zip_code":"9812173","kana_pref":"ﾐﾔｷﾞｹﾝ","kana_city":"ｲｸﾞｸﾞﾝﾏﾙﾓﾘﾏﾁ","kana_address":"ｱﾏﾎﾄﾞ","pref":"宮城県","city":"伊具郡丸森町","address":"天炉"},
{"zip_code":"9812122","kana_pref":"ﾐﾔｷﾞｹﾝ","kana_city":"ｲｸﾞｸﾞﾝﾏﾙﾓﾘﾏﾁ","kana_address":"ｱﾗﾀﾞ","pref":"宮城県","city":"伊具郡丸森町","address":"荒田"},
{"zip_code":"9812187","kana_pref":"ﾐﾔｷﾞｹﾝ","kana_city":"ｲｸﾞｸﾞﾝﾏﾙﾓﾘﾏﾁ","kana_address":"ｱﾗﾔｼｷ","pref":"宮城県","city":"伊具郡丸森町","address":"荒屋敷"},
{"zip_code":"9812142","kana_pref":"ﾐﾔｷﾞｹﾝ","kana_city":"ｲｸﾞｸﾞﾝﾏﾙﾓﾘﾏﾁ","kana_address":"ｲｲｾﾝ","pref":"宮城県","city":"伊具郡丸森町","address":"飯泉"},
{"zip_code":"9812142","kana_pref":"ﾐﾔｷﾞｹﾝ","kana_city":"ｲｸﾞｸﾞﾝﾏﾙﾓﾘﾏﾁ","kana_address":"ｲｲﾂﾞｶ","pref":"宮城県","city":"伊具郡丸森町","address":"飯塚"},
{"zip_code":"9812142","kana_pref":"ﾐﾔｷﾞｹﾝ","kana_city":"ｲｸﾞｸﾞﾝﾏﾙﾓﾘﾏﾁ","kana_address":"ｲｲﾂﾞｶｼﾓ","pref":"宮城県","city":"伊具郡丸森町","address":"飯塚下"},
{"zip_code":"9812183","kana_pref":"ﾐﾔｷﾞｹﾝ","kana_city":"ｲｸﾞｸﾞﾝﾏﾙﾓﾘﾏﾁ","kana_address":"ｲｼｶﾞﾏ","pref":"宮城県","city":"伊具郡丸森町","address":"石釜"},
{"zip_code":"9812116","kana_pref":"ﾐﾔｷﾞｹﾝ","kana_city":"ｲｸﾞｸﾞﾝﾏﾙﾓﾘﾏﾁ","kana_address":"ｲｼｸﾗ","pref":"宮城県","city":"伊具郡丸森町","address":"石倉"},
{"zip_code":"9812116","kana_pref":"ﾐﾔｷﾞｹﾝ","kana_city":"ｲｸﾞｸﾞﾝﾏﾙﾓﾘﾏﾁ","kana_address":"ｲｼｸﾗﾏｴ","pref":"宮城県","city":"伊具郡丸森町","address":"石倉前"},
{"zip_code":"9812116","kana_pref":"ﾐﾔｷﾞｹﾝ","kana_city":"ｲｸﾞｸﾞﾝﾏﾙﾓﾘﾏﾁ","kana_address":"ｲｼﾊﾟ","pref":"宮城県","city":"伊具郡丸森町","address":"石羽"},
{"zip_code":"9812112","kana_pref":"ﾐﾔｷﾞｹﾝ","kana_city":"ｲｸﾞｸﾞﾝﾏﾙﾓﾘﾏﾁ","kana_address":"ｲｼﾌﾞﾁ","pref":"宮城県","city":"伊具郡丸森町","address":"石渕"},
{"zip_code":"9812114","kana_pref":"ﾐﾔｷﾞｹﾝ","kana_city":"ｲｸﾞｸﾞﾝﾏﾙﾓﾘﾏﾁ","kana_address":"ｲｽﾞﾐ","pref":"宮城県","city":"伊具郡丸森町","address":"泉"},
{"zip_code":"9812114","kana_pref":"ﾐﾔｷﾞｹﾝ","kana_city":"ｲｸﾞｸﾞﾝﾏﾙﾓﾘﾏﾁ","kana_address":"ｲｽﾞﾐｼﾀ","pref":"宮城県","city":"伊具郡丸森町","address":"泉下"},
{"zip_code":"9812141","kana_pref":"ﾐﾔｷﾞｹﾝ","kana_city":"ｲｸﾞｸﾞﾝﾏﾙﾓﾘﾏﾁ","kana_address":"ｲﾀﾔﾏ","pref":"宮城県","city":"伊具郡丸森町","address":"板山"},
{"zip_code":"9812182","kana_pref":"ﾐﾔｷﾞｹﾝ","kana_city":"ｲｸﾞｸﾞﾝﾏﾙﾓﾘﾏﾁ","kana_address":"ｲﾁｺﾞﾊﾗ","pref":"宮城県","city":"伊具郡丸森町","address":"覆盆子原"},
{"zip_code":"9812131","kana_pref":"ﾐﾔｷﾞｹﾝ","kana_city":"ｲｸﾞｸﾞﾝﾏﾙﾓﾘﾏﾁ","kana_address":"ｲﾁｮｳ","pref":"宮城県","city":"伊具郡丸森町","address":"銀杏"},
{"zip_code":"9812115","kana_pref":"ﾐﾔｷﾞｹﾝ","kana_city":"ｲｸﾞｸﾞﾝﾏﾙﾓﾘﾏﾁ","kana_address":"ｲﾅﾊﾞ","pref":"宮城県","city":"伊具郡丸森町","address":"稲場"},
{"zip_code":"9812115","kana_pref":"ﾐﾔｷﾞｹﾝ","kana_city":"ｲｸﾞｸﾞﾝﾏﾙﾓﾘﾏﾁ","kana_address":"ｲﾅﾊﾞﾋｶﾞｼ","pref":"宮城県","city":"伊具郡丸森町","address":"稲場東"},
{"zip_code":"9812132","kana_pref":"ﾐﾔｷﾞｹﾝ","kana_city":"ｲｸﾞｸﾞﾝﾏﾙﾓﾘﾏﾁ","kana_address":"ｳｼｺ","pref":"宮城県","city":"伊具郡丸森町","address":"牛子"},
{"zip_code":"9812131","kana_pref":"ﾐﾔｷﾞｹﾝ","kana_city":"ｲｸﾞｸﾞﾝﾏﾙﾓﾘﾏﾁ","kana_address":"ｳｼﾛﾔｼｷ","pref":"宮城県","city":"伊具郡丸森町","address":"後屋敷"},
{"zip_code":"9812132","kana_pref":"ﾐﾔｷﾞｹﾝ","kana_city":"ｲｸﾞｸﾞﾝﾏﾙﾓﾘﾏﾁ","kana_address":"ｳｽﾀﾞｲﾗ","pref":"宮城県","city":"伊具郡丸森町","address":"薄平"},
{"zip_code":"9812126","kana_pref":"ﾐﾔｷﾞｹﾝ","kana_city":"ｲｸﾞｸﾞﾝﾏﾙﾓﾘﾏﾁ","kana_address":"ｳﾒｷｻﾞｶ","pref":"宮城県","city":"伊具郡丸森町","address":"梅木坂"},
{"zip_code":"9812141","kana_pref":"ﾐﾔｷﾞｹﾝ","kana_city":"ｲｸﾞｸﾞﾝﾏﾙﾓﾘﾏﾁ","kana_address":"ｳﾒｷﾀﾞｲﾗ","pref":"宮城県","city":"伊具郡丸森町","address":"梅木平"},
{"zip_code":"9812156","kana_pref":"ﾐﾔｷﾞｹﾝ","kana_city":"ｲｸﾞｸﾞﾝﾏﾙﾓﾘﾏﾁ","kana_address":"ｳﾙｼﾊﾞﾗ","pref":"宮城県","city":"伊具郡丸森町","address":"うるし原"},
{"zip_code":"9812501","kana_pref":"ﾐﾔｷﾞｹﾝ","kana_city":"ｲｸﾞｸﾞﾝﾏﾙﾓﾘﾏﾁ","kana_address":"ｵｵｳﾁ","pref":"宮城県","city":"伊具郡丸森町","address":"大内"},
{"zip_code":"9812154","kana_pref":"ﾐﾔｷﾞｹﾝ","kana_city":"ｲｸﾞｸﾞﾝﾏﾙﾓﾘﾏﾁ","kana_address":"ｵｵｶﾜｸﾞﾁ","pref":"宮城県","city":"伊具郡丸森町","address":"大川口"},
{"zip_code":"9812154","kana_pref":"ﾐﾔｷﾞｹﾝ","kana_city":"ｲｸﾞｸﾞﾝﾏﾙﾓﾘﾏﾁ","kana_address":"ｵｵｶﾜｸﾞﾁﾏｴ","pref":"宮城県","city":"伊具郡丸森町","address":"大川口前"},
{"zip_code":"9812182","kana_pref":"ﾐﾔｷﾞｹﾝ","kana_city":"ｲｸﾞｸﾞﾝﾏﾙﾓﾘﾏﾁ","kana_address":"ｵｵｶﾞﾉ","pref":"宮城県","city":"伊具郡丸森町","address":"大鹿野"},
{"zip_code":"9812183","kana_pref":"ﾐﾔｷﾞｹﾝ","kana_city":"ｲｸﾞｸﾞﾝﾏﾙﾓﾘﾏﾁ","kana_address":"ｵｵﾀｶﾓﾘ","pref":"宮城県","city":"伊具郡丸森町","address":"大高森"},
{"zip_code":"9812104","kana_pref":"ﾐﾔｷﾞｹﾝ","kana_city":"ｲｸﾞｸﾞﾝﾏﾙﾓﾘﾏﾁ","kana_address":"ｵｵﾀﾞﾃ","pref":"宮城県","city":"伊具郡丸森町","address":"大舘"},
{"zip_code":"9812301","kana_pref":"ﾐﾔｷﾞｹﾝ","kana_city":"ｲｸﾞｸﾞﾝﾏﾙﾓﾘﾏﾁ","kana_address":"ｵｵﾊﾘｵｵｸﾗ","pref":"宮城県","city":"伊具郡丸森町","address":"大張大蔵"},
{"zip_code":"9812302","kana_pref":"ﾐﾔｷﾞｹﾝ","kana_city":"ｲｸﾞｸﾞﾝﾏﾙﾓﾘﾏﾁ","kana_address":"ｵｵﾊﾘｶﾜﾊﾘ","pref":"宮城県","city":"伊具郡丸森町","address":"大張川張"},
{"zip_code":"9812144","kana_pref":"ﾐﾔｷﾞｹﾝ","kana_city":"ｲｸﾞｸﾞﾝﾏﾙﾓﾘﾏﾁ","kana_address":"ｵｵﾊﾞﾀｹ","pref":"宮城県","city":"伊具郡丸森町","address":"大畑"},
{"zip_code":"9812144","kana_pref":"ﾐﾔｷﾞｹﾝ","kana_city":"ｲｸﾞｸﾞﾝﾏﾙﾓﾘﾏﾁ","kana_address":"ｵｵﾊﾞﾀｹﾏｴ","pref":"宮城県","city":"伊具郡丸森町","address":"大畑前"},
{"zip_code":"9812187","kana_pref":"ﾐﾔｷﾞｹﾝ","kana_city":"ｲｸﾞｸﾞﾝﾏﾙﾓﾘﾏﾁ","kana_address":"ｵｵﾏｷﾐﾅﾐ","pref":"宮城県","city":"伊具郡丸森町","address":"大巻南"},
{"zip_code":"9812187","kana_pref":"ﾐﾔｷﾞｹﾝ","kana_city":"ｲｸﾞｸﾞﾝﾏﾙﾓﾘﾏﾁ","kana_address":"ｵｵﾏｷｷﾀ","pref":"宮城県","city":"伊具郡丸森町","address":"大巻北"},
{"zip_code":"9812114","kana_pref":"ﾐﾔｷﾞｹﾝ","kana_city":"ｲｸﾞｸﾞﾝﾏﾙﾓﾘﾏﾁ","kana_address":"ｵｵﾒ","pref":"宮城県","city":"伊具郡丸森町","address":"大目"},
{"zip_code":"9812174","kana_pref":"ﾐﾔｷﾞｹﾝ","kana_city":"ｲｸﾞｸﾞﾝﾏﾙﾓﾘﾏﾁ","kana_address":"ｵｶﾏｷ","pref":"宮城県","city":"伊具郡丸森町","address":"岡巻"},
{"zip_code":"9812146","kana_pref":"ﾐﾔｷﾞｹﾝ","kana_city":"ｲｸﾞｸﾞﾝﾏﾙﾓﾘﾏﾁ","kana_address":"ｶｹｲﾘｶﾐ","pref":"宮城県","city":"伊具郡丸森町","address":"欠入上"},
{"zip_code":"9812146","kana_pref":"ﾐﾔｷﾞｹﾝ","kana_city":"ｲｸﾞｸﾞﾝﾏﾙﾓﾘﾏﾁ","kana_address":"ｶｹｲﾘｼﾓ","pref":"宮城県","city":"伊具郡丸森町","address":"欠入下"},
{"zip_code":"9812146","kana_pref":"ﾐﾔｷﾞｹﾝ","kana_city":"ｲｸﾞｸﾞﾝﾏﾙﾓﾘﾏﾁ","kana_address":"ｶｹｲﾘｽｹﾞ","pref":"宮城県","city":"伊具郡丸森町","address":"欠入菅"},
{"zip_code":"9812146","kana_pref":"ﾐﾔｷﾞｹﾝ","kana_city":"ｲｸﾞｸﾞﾝﾏﾙﾓﾘﾏﾁ","kana_address":"ｶｹｲﾘﾏｴﾔﾏ","pref":"宮城県","city":"伊具郡丸森町","address":"欠入前山"},
{"zip_code":"9812184","kana_pref":"ﾐﾔｷﾞｹﾝ","kana_city":"ｲｸﾞｸﾞﾝﾏﾙﾓﾘﾏﾁ","kana_address":"ｶｻﾏﾂ","pref":"宮城県","city":"伊具郡丸森町","address":"笠松"},
{"zip_code":"9812184","kana_pref":"ﾐﾔｷﾞｹﾝ","kana_city":"ｲｸﾞｸﾞﾝﾏﾙﾓﾘﾏﾁ","kana_address":"ｶｼﾜｷﾞ","pref":"宮城県","city":"伊具郡丸森町","address":"柏木"},
{"zip_code":"9812155","kana_pref":"ﾐﾔｷﾞｹﾝ","kana_city":"ｲｸﾞｸﾞﾝﾏﾙﾓﾘﾏﾁ","kana_address":"ｶﾀｷﾞｼ","pref":"宮城県","city":"伊具郡丸森町","address":"片岸"},
{"zip_code":"9812126","kana_pref":"ﾐﾔｷﾞｹﾝ","kana_city":"ｲｸﾞｸﾞﾝﾏﾙﾓﾘﾏﾁ","kana_address":"ｶﾈｶﾞｻｸ","pref":"宮城県","city":"伊具郡丸森町","address":"金ケ作"},
{"zip_code":"9812126","kana_pref":"ﾐﾔｷﾞｹﾝ","kana_city":"ｲｸﾞｸﾞﾝﾏﾙﾓﾘﾏﾁ","kana_address":"ｶﾈｶﾞｻｸﾏｴ","pref":"宮城県","city":"伊具郡丸森町","address":"金ケ作前"},
{"zip_code":"9812402","kana_pref":"ﾐﾔｷﾞｹﾝ","kana_city":"ｲｸﾞｸﾞﾝﾏﾙﾓﾘﾏﾁ","kana_address":"ｶﾈﾔﾏ","pref":"宮城県","city":"伊具郡丸森町","address":"金山"},
{"zip_code":"9812116","kana_pref":"ﾐﾔｷﾞｹﾝ","kana_city":"ｲｸﾞｸﾞﾝﾏﾙﾓﾘﾏﾁ","kana_address":"ｶﾐﾀﾞｷﾋｶﾞｼ","pref":"宮城県","city":"伊具郡丸森町","address":"上滝東"},
{"zip_code":"9812116","kana_pref":"ﾐﾔｷﾞｹﾝ","kana_city":"ｲｸﾞｸﾞﾝﾏﾙﾓﾘﾏﾁ","kana_address":"ｶﾐﾀﾞｷﾆｼ","pref":"宮城県","city":"伊具郡丸森町","address":"上滝西"},
{"zip_code":"9812183","kana_pref":"ﾐﾔｷﾞｹﾝ","kana_city":"ｲｸﾞｸﾞﾝﾏﾙﾓﾘﾏﾁ","kana_address":"ｶﾔﾓﾘ","pref":"宮城県","city":"伊具郡丸森町","address":"萱森"},
{"zip_code":"9812153","kana_pref":"ﾐﾔｷﾞｹﾝ","kana_city":"ｲｸﾞｸﾞﾝﾏﾙﾓﾘﾏﾁ","kana_address":"ｶﾘｶﾞ","pref":"宮城県","city":"伊具郡丸森町","address":"雁歌"},
{"zip_code":"9812145","kana_pref":"ﾐﾔｷﾞｹﾝ","kana_city":"ｲｸﾞｸﾞﾝﾏﾙﾓﾘﾏﾁ","kana_address":"ｶﾜﾀﾞｼﾏ","pref":"宮城県","city":"伊具郡丸森町","address":"川田島"},
{"zip_code":"9812145","kana_pref":"ﾐﾔｷﾞｹﾝ","kana_city":"ｲｸﾞｸﾞﾝﾏﾙﾓﾘﾏﾁ","kana_address":"ｶﾜﾀﾞｼﾏｽｹﾞ","pref":"宮城県","city":"伊具郡丸森町","address":"川田島菅"},
{"zip_code":"9812145","kana_pref":"ﾐﾔｷﾞｹﾝ","kana_city":"ｲｸﾞｸﾞﾝﾏﾙﾓﾘﾏﾁ","kana_address":"ｶﾜﾊﾞﾀ","pref":"宮城県","city":"伊具郡丸森町","address":"川端"},
{"zip_code":"9812187","kana_pref":"ﾐﾔｷﾞｹﾝ","kana_city":"ｲｸﾞｸﾞﾝﾏﾙﾓﾘﾏﾁ","kana_address":"ｶﾜﾊﾗﾀﾞ","pref":"宮城県","city":"伊具郡丸森町","address":"川原田"},
{"zip_code":"9812187","kana_pref":"ﾐﾔｷﾞｹﾝ","kana_city":"ｲｸﾞｸﾞﾝﾏﾙﾓﾘﾏﾁ","kana_address":"ｶﾜﾏｴ","pref":"宮城県","city":"伊具郡丸森町","address":"川前"},
{"zip_code":"9812174","kana_pref":"ﾐﾔｷﾞｹﾝ","kana_city":"ｲｸﾞｸﾞﾝﾏﾙﾓﾘﾏﾁ","kana_address":"ｷｵﾄｼ","pref":"宮城県","city":"伊具郡丸森町","address":"木落"},
{"zip_code":"9812141","kana_pref":"ﾐﾔｷﾞｹﾝ","kana_city":"ｲｸﾞｸﾞﾝﾏﾙﾓﾘﾏﾁ","kana_address":"ｷﾀｻﾞﾜ","pref":"宮城県","city":"伊具郡丸森町","address":"北沢"},
{"zip_code":"9812187","kana_pref":"ﾐﾔｷﾞｹﾝ","kana_city":"ｲｸﾞｸﾞﾝﾏﾙﾓﾘﾏﾁ","kana_address":"ｷﾀﾊﾗﾋｶﾞｼ","pref":"宮城県","city":"伊具郡丸森町","address":"北原東"},
{"zip_code":"9812187","kana_pref":"ﾐﾔｷﾞｹﾝ","kana_city":"ｲｸﾞｸﾞﾝﾏﾙﾓﾘﾏﾁ","kana_address":"ｷﾀﾊﾗﾐﾅﾐ","pref":"宮城県","city":"伊具郡丸森町","address":"北原南"},
{"zip_code":"9812114","kana_pref":"ﾐﾔｷﾞｹﾝ","kana_city":"ｲｸﾞｸﾞﾝﾏﾙﾓﾘﾏﾁ","kana_address":"ｷﾀﾏｴ","pref":"宮城県","city":"伊具郡丸森町","address":"北前"},
{"zip_code":"9812106","kana_pref":"ﾐﾔｷﾞｹﾝ","kana_city":"ｲｸﾞｸﾞﾝﾏﾙﾓﾘﾏﾁ","kana_address":"ｷﾇﾏ","pref":"宮城県","city":"伊具郡丸森町","address":"木沼"},
{"zip_code":"9812124","kana_pref":"ﾐﾔｷﾞｹﾝ","kana_city":"ｲｸﾞｸﾞﾝﾏﾙﾓﾘﾏﾁ","kana_address":"ｷﾘﾀﾃ","pref":"宮城県","city":"伊具郡丸森町","address":"切立"},
{"zip_code":"9812124","kana_pref":"ﾐﾔｷﾞｹﾝ","kana_city":"ｲｸﾞｸﾞﾝﾏﾙﾓﾘﾏﾁ","kana_address":"ｸﾇｷﾞﾂﾞｶ","pref":"宮城県","city":"伊具郡丸森町","address":"椚塚"},
{"zip_code":"9812185","kana_pref":"ﾐﾔｷﾞｹﾝ","kana_city":"ｲｸﾞｸﾞﾝﾏﾙﾓﾘﾏﾁ","kana_address":"ｸﾇｷﾞﾊﾞﾔｼ","pref":"宮城県","city":"伊具郡丸森町","address":"椚林"},
{"zip_code":"9812123","kana_pref":"ﾐﾔｷﾞｹﾝ","kana_city":"ｲｸﾞｸﾞﾝﾏﾙﾓﾘﾏﾁ","kana_address":"ｹﾞﾝﾊﾞ","pref":"宮城県","city":"伊具郡丸森町","address":"原場"},
{"zip_code":"9812303","kana_pref":"ﾐﾔｷﾞｹﾝ","kana_city":"ｲｸﾞｸﾞﾝﾏﾙﾓﾘﾏﾁ","kana_address":"ｺｳﾔ","pref":"宮城県","city":"伊具郡丸森町","address":"耕野"},
{"zip_code":"9812113","kana_pref":"ﾐﾔｷﾞｹﾝ","kana_city":"ｲｸﾞｸﾞﾝﾏﾙﾓﾘﾏﾁ","kana_address":"ｺｴﾀﾞ","pref":"宮城県","city":"伊具郡丸森町","address":"越田"},
{"zip_code":"9812143","kana_pref":"ﾐﾔｷﾞｹﾝ","kana_city":"ｲｸﾞｸﾞﾝﾏﾙﾓﾘﾏﾁ","kana_address":"ｺｸｿﾞｳｶﾐ","pref":"宮城県","city":"伊具郡丸森町","address":"虚空蔵上"},
{"zip_code":"9812143","kana_pref":"ﾐﾔｷﾞｹﾝ","kana_city":"ｲｸﾞｸﾞﾝﾏﾙﾓﾘﾏﾁ","kana_address":"ｺｸｿﾞｳﾅｶ","pref":"宮城県","city":"伊具郡丸森町","address":"虚空蔵中"},
{"zip_code":"9812143","kana_pref":"ﾐﾔｷﾞｹﾝ","kana_city":"ｲｸﾞｸﾞﾝﾏﾙﾓﾘﾏﾁ","kana_address":"ｺｸｿﾞｳｼﾓ","pref":"宮城県","city":"伊具郡丸森町","address":"虚空蔵下"},
{"zip_code":"9812174","kana_pref":"ﾐﾔｷﾞｹﾝ","kana_city":"ｲｸﾞｸﾞﾝﾏﾙﾓﾘﾏﾁ","kana_address":"ｺｸﾞﾗ","pref":"宮城県","city":"伊具郡丸森町","address":"小倉"},
{"zip_code":"9812401","kana_pref":"ﾐﾔｷﾞｹﾝ","kana_city":"ｲｸﾞｸﾞﾝﾏﾙﾓﾘﾏﾁ","kana_address":"ｺｻｲ","pref":"宮城県","city":"伊具郡丸森町","address":"小斎"},
{"zip_code":"9812156","kana_pref":"ﾐﾔｷﾞｹﾝ","kana_city":"ｲｸﾞｸﾞﾝﾏﾙﾓﾘﾏﾁ","kana_address":"ｺﾂﾞｶ","pref":"宮城県","city":"伊具郡丸森町","address":"小塚"},
{"zip_code":"9812131","kana_pref":"ﾐﾔｷﾞｹﾝ","kana_city":"ｲｸﾞｸﾞﾝﾏﾙﾓﾘﾏﾁ","kana_address":"ｺﾞﾌｸﾔ","pref":"宮城県","city":"伊具郡丸森町","address":"五福谷"},
{"zip_code":"9812186","kana_pref":"ﾐﾔｷﾞｹﾝ","kana_city":"ｲｸﾞｸﾞﾝﾏﾙﾓﾘﾏﾁ","kana_address":"ｺﾎﾞｳｷﾞﾐﾅﾐ","pref":"宮城県","city":"伊具郡丸森町","address":"小坊木南"},
{"zip_code":"9812186","kana_pref":"ﾐﾔｷﾞｹﾝ","kana_city":"ｲｸﾞｸﾞﾝﾏﾙﾓﾘﾏﾁ","kana_address":"ｺﾎﾞｳｷﾞｷﾀ","pref":"宮城県","city":"伊具郡丸森町","address":"小坊木北"},
{"zip_code":"9812141","kana_pref":"ﾐﾔｷﾞｹﾝ","kana_city":"ｲｸﾞｸﾞﾝﾏﾙﾓﾘﾏﾁ","kana_address":"ｺﾎﾞﾀ","pref":"宮城県","city":"伊具郡丸森町","address":"小保田"},
{"zip_code":"9812145","kana_pref":"ﾐﾔｷﾞｹﾝ","kana_city":"ｲｸﾞｸﾞﾝﾏﾙﾓﾘﾏﾁ","kana_address":"ｺﾞﾎﾝﾏﾂ","pref":"宮城県","city":"伊具郡丸森町","address":"五本松"},
{"zip_code":"9812181","kana_pref":"ﾐﾔｷﾞｹﾝ","kana_city":"ｲｸﾞｸﾞﾝﾏﾙﾓﾘﾏﾁ","kana_address":"ｺﾔｽ","pref":"宮城県","city":"伊具郡丸森町","address":"子安"},
{"zip_code":"9812184","kana_pref":"ﾐﾔｷﾞｹﾝ","kana_city":"ｲｸﾞｸﾞﾝﾏﾙﾓﾘﾏﾁ","kana_address":"ｻｶｼﾀ","pref":"宮城県","city":"伊具郡丸森町","address":"坂下"},
{"zip_code":"9812112","kana_pref":"ﾐﾔｷﾞｹﾝ","kana_city":"ｲｸﾞｸﾞﾝﾏﾙﾓﾘﾏﾁ","kana_address":"ｻｸﾀﾞ","pref":"宮城県","city":"伊具郡丸森町","address":"作田"},
{"zip_code":"9812116","kana_pref":"ﾐﾔｷﾞｹﾝ","kana_city":"ｲｸﾞｸﾞﾝﾏﾙﾓﾘﾏﾁ","kana_address":"ｻｸﾗﾌﾞﾁ","pref":"宮城県","city":"伊具郡丸森町","address":"桜渕"},
{"zip_code":"9812115","kana_pref":"ﾐﾔｷﾞｹﾝ","kana_city":"ｲｸﾞｸﾞﾝﾏﾙﾓﾘﾏﾁ","kana_address":"ｻﾝﾍﾞｲｳﾁ","pref":"宮城県","city":"伊具郡丸森町","address":"三瓶内"},
{"zip_code":"9812183","kana_pref":"ﾐﾔｷﾞｹﾝ","kana_city":"ｲｸﾞｸﾞﾝﾏﾙﾓﾘﾏﾁ","kana_address":"ｼｵﾉｶﾞｲ","pref":"宮城県","city":"伊具郡丸森町","address":"塩ノ貝"},
{"zip_code":"9812183","kana_pref":"ﾐﾔｷﾞｹﾝ","kana_city":"ｲｸﾞｸﾞﾝﾏﾙﾓﾘﾏﾁ","kana_address":"ｼｵﾉｶﾞｲｳｼﾛ","pref":"宮城県","city":"伊具郡丸森町","address":"塩ノ貝後"},
{"zip_code":"9812172","kana_pref":"ﾐﾔｷﾞｹﾝ","kana_city":"ｲｸﾞｸﾞﾝﾏﾙﾓﾘﾏﾁ","kana_address":"ｼｷﾌﾞﾐﾋｶﾞｼ","pref":"宮城県","city":"伊具郡丸森町","address":"敷文東"},
{"zip_code":"9812172","kana_pref":"ﾐﾔｷﾞｹﾝ","kana_city":"ｲｸﾞｸﾞﾝﾏﾙﾓﾘﾏﾁ","kana_address":"ｼｷﾌﾞﾐﾆｼ","pref":"宮城県","city":"伊具郡丸森町","address":"敷文西"},
{"zip_code":"9812131","kana_pref":"ﾐﾔｷﾞｹﾝ","kana_city":"ｲｸﾞｸﾞﾝﾏﾙﾓﾘﾏﾁ","kana_address":"ｼﾀﾝﾀﾞ","pref":"宮城県","city":"伊具郡丸森町","address":"四反田"},
{"zip_code":"9812171","kana_pref":"ﾐﾔｷﾞｹﾝ","kana_city":"ｲｸﾞｸﾞﾝﾏﾙﾓﾘﾏﾁ","kana_address":"ｼﾓﾀｷ","pref":"宮城県","city":"伊具郡丸森町","address":"下滝"},
{"zip_code":"9812171","kana_pref":"ﾐﾔｷﾞｹﾝ","kana_city":"ｲｸﾞｸﾞﾝﾏﾙﾓﾘﾏﾁ","kana_address":"ｼﾓﾀｷﾐﾅﾐ","pref":"宮城県","city":"伊具郡丸森町","address":"下滝南"},
{"zip_code":"9812131","kana_pref":"ﾐﾔｷﾞｹﾝ","kana_city":"ｲｸﾞｸﾞﾝﾏﾙﾓﾘﾏﾁ","kana_address":"ｼﾞｮｳﾁ","pref":"宮城県","city":"伊具郡丸森町","address":"上地"},
{"zip_code":"9812112","kana_pref":"ﾐﾔｷﾞｹﾝ","kana_city":"ｲｸﾞｸﾞﾝﾏﾙﾓﾘﾏﾁ","kana_address":"ｼﾞｮｳﾄｳ","pref":"宮城県","city":"伊具郡丸森町","address":"城東"},
{"zip_code":"9812117","kana_pref":"ﾐﾔｷﾞｹﾝ","kana_city":"ｲｸﾞｸﾞﾝﾏﾙﾓﾘﾏﾁ","kana_address":"ｼﾞｮｳﾘﾝﾋｶﾞｼ","pref":"宮城県","city":"伊具郡丸森町","address":"上林東"},
{"zip_code":"9812117","kana_pref":"ﾐﾔｷﾞｹﾝ","kana_city":"ｲｸﾞｸﾞﾝﾏﾙﾓﾘﾏﾁ","kana_address":"ｼﾞｮｳﾘﾝﾆｼ","pref":"宮城県","city":"伊具郡丸森町","address":"上林西"},
{"zip_code":"9812117","kana_pref":"ﾐﾔｷﾞｹﾝ","kana_city":"ｲｸﾞｸﾞﾝﾏﾙﾓﾘﾏﾁ","kana_address":"ｼﾞｮｳﾘﾝﾐﾅﾐ","pref":"宮城県","city":"伊具郡丸森町","address":"上林南"},
{"zip_code":"9812116","kana_pref":"ﾐﾔｷﾞｹﾝ","kana_city":"ｲｸﾞｸﾞﾝﾏﾙﾓﾘﾏﾁ","kana_address":"ｼﾝﾃﾞﾝﾑｶｴ","pref":"宮城県","city":"伊具郡丸森町","address":"新田向"},
{"zip_code":"9812116","kana_pref":"ﾐﾔｷﾞｹﾝ","kana_city":"ｲｸﾞｸﾞﾝﾏﾙﾓﾘﾏﾁ","kana_address":"ｼﾝﾃﾞﾝﾋｶﾞｼ","pref":"宮城県","city":"伊具郡丸森町","address":"新田東"},
{"zip_code":"9812116","kana_pref":"ﾐﾔｷﾞｹﾝ","kana_city":"ｲｸﾞｸﾞﾝﾏﾙﾓﾘﾏﾁ","kana_address":"ｼﾝﾃﾞﾝﾆｼ","pref":"宮城県","city":"伊具郡丸森町","address":"新田西"},
{"zip_code":"9812112","kana_pref":"ﾐﾔｷﾞｹﾝ","kana_city":"ｲｸﾞｸﾞﾝﾏﾙﾓﾘﾏﾁ","kana_address":"ｼﾝﾏﾁ","pref":"宮城県","city":"伊具郡丸森町","address":"新町"},
{"zip_code":"9812111","kana_pref":"ﾐﾔｷﾞｹﾝ","kana_city":"ｲｸﾞｸﾞﾝﾏﾙﾓﾘﾏﾁ","kana_address":"ｼﾝﾒｲ","pref":"宮城県","city":"伊具郡丸森町","address":"神明"},
{"zip_code":"9812111","kana_pref":"ﾐﾔｷﾞｹﾝ","kana_city":"ｲｸﾞｸﾞﾝﾏﾙﾓﾘﾏﾁ","kana_address":"ｼﾝﾒｲﾋｶﾞｼ","pref":"宮城県","city":"伊具郡丸森町","address":"神明東"},
{"zip_code":"9812111","kana_pref":"ﾐﾔｷﾞｹﾝ","kana_city":"ｲｸﾞｸﾞﾝﾏﾙﾓﾘﾏﾁ","kana_address":"ｼﾝﾒｲﾐﾅﾐ","pref":"宮城県","city":"伊具郡丸森町","address":"神明南"},
{"zip_code":"9812174","kana_pref":"ﾐﾔｷﾞｹﾝ","kana_city":"ｲｸﾞｸﾞﾝﾏﾙﾓﾘﾏﾁ","kana_address":"ｽﾅﾉｲﾘ","pref":"宮城県","city":"伊具郡丸森町","address":"砂ノ入"},
{"zip_code":"9812146","kana_pref":"ﾐﾔｷﾞｹﾝ","kana_city":"ｲｸﾞｸﾞﾝﾏﾙﾓﾘﾏﾁ","kana_address":"ｾｷﾊﾞ","pref":"宮城県","city":"伊具郡丸森町","address":"関場"},
{"zip_code":"9812151","kana_pref":"ﾐﾔｷﾞｹﾝ","kana_city":"ｲｸﾞｸﾞﾝﾏﾙﾓﾘﾏﾁ","kana_address":"ｾﾝｶﾞﾘﾊﾞ","pref":"宮城県","city":"伊具郡丸森町","address":"千刈場"},
{"zip_code":"9812187","kana_pref":"ﾐﾔｷﾞｹﾝ","kana_city":"ｲｸﾞｸﾞﾝﾏﾙﾓﾘﾏﾁ","kana_address":"ｿﾃﾞｺﾞﾛｳ","pref":"宮城県","city":"伊具郡丸森町","address":"袖五郎"},
{"zip_code":"9812183","kana_pref":"ﾐﾔｷﾞｹﾝ","kana_city":"ｲｸﾞｸﾞﾝﾏﾙﾓﾘﾏﾁ","kana_address":"ｿﾗﾔｷ","pref":"宮城県","city":"伊具郡丸森町","address":"空焼"},
{"zip_code":"9812112","kana_pref":"ﾐﾔｷﾞｹﾝ","kana_city":"ｲｸﾞｸﾞﾝﾏﾙﾓﾘﾏﾁ","kana_address":"ﾀｲﾗ","pref":"宮城県","city":"伊具郡丸森町","address":"平"},
{"zip_code":"9812166","kana_pref":"ﾐﾔｷﾞｹﾝ","kana_city":"ｲｸﾞｸﾞﾝﾏﾙﾓﾘﾏﾁ","kana_address":"ﾀｶﾊﾞﾀｹ","pref":"宮城県","city":"伊具郡丸森町","address":"高畑"},
{"zip_code":"9812116","kana_pref":"ﾐﾔｷﾞｹﾝ","kana_city":"ｲｸﾞｸﾞﾝﾏﾙﾓﾘﾏﾁ","kana_address":"ﾀｶﾏﾂ","pref":"宮城県","city":"伊具郡丸森町","address":"高松"},
{"zip_code":"9812181","kana_pref":"ﾐﾔｷﾞｹﾝ","kana_city":"ｲｸﾞｸﾞﾝﾏﾙﾓﾘﾏﾁ","kana_address":"ﾀｶﾐﾐﾅﾐ","pref":"宮城県","city":"伊具郡丸森町","address":"高見南"},
{"zip_code":"9812181","kana_pref":"ﾐﾔｷﾞｹﾝ","kana_city":"ｲｸﾞｸﾞﾝﾏﾙﾓﾘﾏﾁ","kana_address":"ﾀｶﾐｷﾀ","pref":"宮城県","city":"伊具郡丸森町","address":"高見北"},
{"zip_code":"9812185","kana_pref":"ﾐﾔｷﾞｹﾝ","kana_city":"ｲｸﾞｸﾞﾝﾏﾙﾓﾘﾏﾁ","kana_address":"ﾀｷﾉｶﾐ","pref":"宮城県","city":"伊具郡丸森町","address":"滝の上"},
{"zip_code":"9812116","kana_pref":"ﾐﾔｷﾞｹﾝ","kana_city":"ｲｸﾞｸﾞﾝﾏﾙﾓﾘﾏﾁ","kana_address":"ﾀｷﾊﾟﾗ","pref":"宮城県","city":"伊具郡丸森町","address":"滝原"},
{"zip_code":"9812142","kana_pref":"ﾐﾔｷﾞｹﾝ","kana_city":"ｲｸﾞｸﾞﾝﾏﾙﾓﾘﾏﾁ","kana_address":"ﾀｹﾔ","pref":"宮城県","city":"伊具郡丸森町","address":"竹谷"},
{"zip_code":"9812186","kana_pref":"ﾐﾔｷﾞｹﾝ","kana_city":"ｲｸﾞｸﾞﾝﾏﾙﾓﾘﾏﾁ","kana_address":"ﾀﾂｻﾞﾜﾐﾅﾐ","pref":"宮城県","city":"伊具郡丸森町","address":"立沢南"},
{"zip_code":"9812186","kana_pref":"ﾐﾔｷﾞｹﾝ","kana_city":"ｲｸﾞｸﾞﾝﾏﾙﾓﾘﾏﾁ","kana_address":"ﾀﾂｻﾞﾜｷﾀ","pref":"宮城県","city":"伊具郡丸森町","address":"立沢北"},
{"zip_code":"9812101","kana_pref":"ﾐﾔｷﾞｹﾝ","kana_city":"ｲｸﾞｸﾞﾝﾏﾙﾓﾘﾏﾁ","kana_address":"ﾀﾃﾔﾏｷﾇﾏ","pref":"宮城県","city":"伊具郡丸森町","address":"舘矢間木沼"},
{"zip_code":"9812102","kana_pref":"ﾐﾔｷﾞｹﾝ","kana_city":"ｲｸﾞｸﾞﾝﾏﾙﾓﾘﾏﾁ","kana_address":"ﾀﾃﾔﾏﾀﾃﾔﾏ","pref":"宮城県","city":"伊具郡丸森町","address":"舘矢間舘山"},
{"zip_code":"9812105","kana_pref":"ﾐﾔｷﾞｹﾝ","kana_city":"ｲｸﾞｸﾞﾝﾏﾙﾓﾘﾏﾁ","kana_address":"ﾀﾃﾔﾏﾏﾂｶｹ","pref":"宮城県","city":"伊具郡丸森町","address":"舘矢間松掛"},
{"zip_code":"9812103","kana_pref":"ﾐﾔｷﾞｹﾝ","kana_city":"ｲｸﾞｸﾞﾝﾏﾙﾓﾘﾏﾁ","kana_address":"ﾀﾃﾔﾏﾔﾏﾀﾞ","pref":"宮城県","city":"伊具郡丸森町","address":"舘矢間山田"},
{"zip_code":"9812184","kana_pref":"ﾐﾔｷﾞｹﾝ","kana_city":"ｲｸﾞｸﾞﾝﾏﾙﾓﾘﾏﾁ","kana_address":"ﾀﾉｲﾘ","pref":"宮城県","city":"伊具郡丸森町","address":"田ノ入"},
{"zip_code":"9812167","kana_pref":"ﾐﾔｷﾞｹﾝ","kana_city":"ｲｸﾞｸﾞﾝﾏﾙﾓﾘﾏﾁ","kana_address":"ﾀﾏﾁﾐﾅﾐ","pref":"宮城県","city":"伊具郡丸森町","address":"田町南"},
{"zip_code":"9812168","kana_pref":"ﾐﾔｷﾞｹﾝ","kana_city":"ｲｸﾞｸﾞﾝﾏﾙﾓﾘﾏﾁ","kana_address":"ﾀﾏﾁｷﾀ","pref":"宮城県","city":"伊具郡丸森町","address":"田町北"},
{"zip_code":"9812156","kana_pref":"ﾐﾔｷﾞｹﾝ","kana_city":"ｲｸﾞｸﾞﾝﾏﾙﾓﾘﾏﾁ","kana_address":"ﾀﾏﾇｷ","pref":"宮城県","city":"伊具郡丸森町","address":"玉貫"},
{"zip_code":"9812142","kana_pref":"ﾐﾔｷﾞｹﾝ","kana_city":"ｲｸﾞｸﾞﾝﾏﾙﾓﾘﾏﾁ","kana_address":"ﾀﾚﾏﾂ","pref":"宮城県","city":"伊具郡丸森町","address":"垂松"},
{"zip_code":"9812131","kana_pref":"ﾐﾔｷﾞｹﾝ","kana_city":"ｲｸﾞｸﾞﾝﾏﾙﾓﾘﾏﾁ","kana_address":"ﾂｶﾀﾞ","pref":"宮城県","city":"伊具郡丸森町","address":"塚田"},
{"zip_code":"9812144","kana_pref":"ﾐﾔｷﾞｹﾝ","kana_city":"ｲｸﾞｸﾞﾝﾏﾙﾓﾘﾏﾁ","kana_address":"ﾂﾁｶﾞﾓﾘ","pref":"宮城県","city":"伊具郡丸森町","address":"土ケ森"},
{"zip_code":"9812183","kana_pref":"ﾐﾔｷﾞｹﾝ","kana_city":"ｲｸﾞｸﾞﾝﾏﾙﾓﾘﾏﾁ","kana_address":"ﾂﾉｷﾘ","pref":"宮城県","city":"伊具郡丸森町","address":"角切"},
{"zip_code":"9812146","kana_pref":"ﾐﾔｷﾞｹﾝ","kana_city":"ｲｸﾞｸﾞﾝﾏﾙﾓﾘﾏﾁ","kana_address":"ﾃｶｹﾊﾞｼﾅｶ","pref":"宮城県","city":"伊具郡丸森町","address":"手掛橋中"},
{"zip_code":"9812146","kana_pref":"ﾐﾔｷﾞｹﾝ","kana_city":"ｲｸﾞｸﾞﾝﾏﾙﾓﾘﾏﾁ","kana_address":"ﾃｶｹﾊﾞｼﾋｶﾞｼ","pref":"宮城県","city":"伊具郡丸森町","address":"手掛橋東"},
{"zip_code":"9812146","kana_pref":"ﾐﾔｷﾞｹﾝ","kana_city":"ｲｸﾞｸﾞﾝﾏﾙﾓﾘﾏﾁ","kana_address":"ﾃｶｹﾊﾞｼﾆｼ","pref":"宮城県","city":"伊具郡丸森町","address":"手掛橋西"},
{"zip_code":"9812112","kana_pref":"ﾐﾔｷﾞｹﾝ","kana_city":"ｲｸﾞｸﾞﾝﾏﾙﾓﾘﾏﾁ","kana_address":"ﾃﾗｳﾁ","pref":"宮城県","city":"伊具郡丸森町","address":"寺内"},
{"zip_code":"9812112","kana_pref":"ﾐﾔｷﾞｹﾝ","kana_city":"ｲｸﾞｸﾞﾝﾏﾙﾓﾘﾏﾁ","kana_address":"ﾃﾗｳﾁﾏｴ","pref":"宮城県","city":"伊具郡丸森町","address":"寺内前"},
{"zip_code":"9812114","kana_pref":"ﾐﾔｷﾞｹﾝ","kana_city":"ｲｸﾞｸﾞﾝﾏﾙﾓﾘﾏﾁ","kana_address":"ﾃﾝﾉｳ","pref":"宮城県","city":"伊具郡丸森町","address":"天王"},
{"zip_code":"9812134","kana_pref":"ﾐﾔｷﾞｹﾝ","kana_city":"ｲｸﾞｸﾞﾝﾏﾙﾓﾘﾏﾁ","kana_address":"ﾄｳｹﾞｶﾐ","pref":"宮城県","city":"伊具郡丸森町","address":"峠上"},
{"zip_code":"9812134","kana_pref":"ﾐﾔｷﾞｹﾝ","kana_city":"ｲｸﾞｸﾞﾝﾏﾙﾓﾘﾏﾁ","kana_address":"ﾄｳｹﾞｶﾜﾌﾐｲｼ","pref":"宮城県","city":"伊具郡丸森町","address":"峠革踏石"},
{"zip_code":"9812134","kana_pref":"ﾐﾔｷﾞｹﾝ","kana_city":"ｲｸﾞｸﾞﾝﾏﾙﾓﾘﾏﾁ","kana_address":"ﾄｳｹﾞｺﾔｼﾓ","pref":"宮城県","city":"伊具郡丸森町","address":"峠小屋下"},
{"zip_code":"9812134","kana_pref":"ﾐﾔｷﾞｹﾝ","kana_city":"ｲｸﾞｸﾞﾝﾏﾙﾓﾘﾏﾁ","kana_address":"ﾄｳｹﾞｻｶｲ","pref":"宮城県","city":"伊具郡丸森町","address":"峠境"},
{"zip_code":"9812134","kana_pref":"ﾐﾔｷﾞｹﾝ","kana_city":"ｲｸﾞｸﾞﾝﾏﾙﾓﾘﾏﾁ","kana_address":"ﾄｳｹﾞｻｶｼﾀ","pref":"宮城県","city":"伊具郡丸森町","address":"峠坂下"},
{"zip_code":"9812134","kana_pref":"ﾐﾔｷﾞｹﾝ","kana_city":"ｲｸﾞｸﾞﾝﾏﾙﾓﾘﾏﾁ","kana_address":"ﾄｳｹﾞｼﾓ","pref":"宮城県","city":"伊具郡丸森町","address":"峠下"},
{"zip_code":"9812134","kana_pref":"ﾐﾔｷﾞｹﾝ","kana_city":"ｲｸﾞｸﾞﾝﾏﾙﾓﾘﾏﾁ","kana_address":"ﾄｳｹﾞﾀｷｻﾞﾜ","pref":"宮城県","city":"伊具郡丸森町","address":"峠滝沢"},
{"zip_code":"9812134","kana_pref":"ﾐﾔｷﾞｹﾝ","kana_city":"ｲｸﾞｸﾞﾝﾏﾙﾓﾘﾏﾁ","kana_address":"ﾄｳｹﾞﾉｼﾞｮｳ","pref":"宮城県","city":"伊具郡丸森町","address":"峠野上"},
{"zip_code":"9812134","kana_pref":"ﾐﾔｷﾞｹﾝ","kana_city":"ｲｸﾞｸﾞﾝﾏﾙﾓﾘﾏﾁ","kana_address":"ﾄｳｹﾞﾊｼﾓﾄ","pref":"宮城県","city":"伊具郡丸森町","address":"峠橋元"},
{"zip_code":"9812134","kana_pref":"ﾐﾔｷﾞｹﾝ","kana_city":"ｲｸﾞｸﾞﾝﾏﾙﾓﾘﾏﾁ","kana_address":"ﾄｳｹﾞﾏｴ","pref":"宮城県","city":"伊具郡丸森町","address":"峠前"},
{"zip_code":"9812134","kana_pref":"ﾐﾔｷﾞｹﾝ","kana_city":"ｲｸﾞｸﾞﾝﾏﾙﾓﾘﾏﾁ","kana_address":"ﾄｳｹﾞﾏﾜﾘﾄﾞ","pref":"宮城県","city":"伊具郡丸森町","address":"峠廻戸"},
{"zip_code":"9812134","kana_pref":"ﾐﾔｷﾞｹﾝ","kana_city":"ｲｸﾞｸﾞﾝﾏﾙﾓﾘﾏﾁ","kana_address":"ﾄｳｹﾞﾑｶｲ","pref":"宮城県","city":"伊具郡丸森町","address":"峠向"},
{"zip_code":"9812134","kana_pref":"ﾐﾔｷﾞｹﾝ","kana_city":"ｲｸﾞｸﾞﾝﾏﾙﾓﾘﾏﾁ","kana_address":"ﾄｳｹﾞﾖｺﾑｷ","pref":"宮城県","city":"伊具郡丸森町","address":"峠横向"},
{"zip_code":"9812183","kana_pref":"ﾐﾔｷﾞｹﾝ","kana_city":"ｲｸﾞｸﾞﾝﾏﾙﾓﾘﾏﾁ","kana_address":"ﾄﾘｷ","pref":"宮城県","city":"伊具郡丸森町","address":"鳥木"},
{"zip_code":"9812152","kana_pref":"ﾐﾔｷﾞｹﾝ","kana_city":"ｲｸﾞｸﾞﾝﾏﾙﾓﾘﾏﾁ","kana_address":"ﾄﾘﾔ","pref":"宮城県","city":"伊具郡丸森町","address":"鳥屋"},
{"zip_code":"9812117","kana_pref":"ﾐﾔｷﾞｹﾝ","kana_city":"ｲｸﾞｸﾞﾝﾏﾙﾓﾘﾏﾁ","kana_address":"ﾅｶｼﾞﾏ","pref":"宮城県","city":"伊具郡丸森町","address":"中島"},
{"zip_code":"9812127","kana_pref":"ﾐﾔｷﾞｹﾝ","kana_city":"ｲｸﾞｸﾞﾝﾏﾙﾓﾘﾏﾁ","kana_address":"ﾅｶﾉｳﾁ","pref":"宮城県","city":"伊具郡丸森町","address":"中ノ内"},
{"zip_code":"9812146","kana_pref":"ﾐﾔｷﾞｹﾝ","kana_city":"ｲｸﾞｸﾞﾝﾏﾙﾓﾘﾏﾁ","kana_address":"ﾅｶﾐﾁ","pref":"宮城県","city":"伊具郡丸森町","address":"中道"},
{"zip_code":"9812115","kana_pref":"ﾐﾔｷﾞｹﾝ","kana_city":"ｲｸﾞｸﾞﾝﾏﾙﾓﾘﾏﾁ","kana_address":"ﾇﾏ","pref":"宮城県","city":"伊具郡丸森町","address":"沼"},
{"zip_code":"9812163","kana_pref":"ﾐﾔｷﾞｹﾝ","kana_city":"ｲｸﾞｸﾞﾝﾏﾙﾓﾘﾏﾁ","kana_address":"ﾉｿﾞｷ","pref":"宮城県","city":"伊具郡丸森町","address":"除"},
{"zip_code":"9812161","kana_pref":"ﾐﾔｷﾞｹﾝ","kana_city":"ｲｸﾞｸﾞﾝﾏﾙﾓﾘﾏﾁ","kana_address":"ﾉｿﾞｷﾐﾅﾐ","pref":"宮城県","city":"伊具郡丸森町","address":"除南"},
{"zip_code":"9812162","kana_pref":"ﾐﾔｷﾞｹﾝ","kana_city":"ｲｸﾞｸﾞﾝﾏﾙﾓﾘﾏﾁ","kana_address":"ﾉｿﾞｷｷﾀ","pref":"宮城県","city":"伊具郡丸森町","address":"除北"},
{"zip_code":"9812117","kana_pref":"ﾐﾔｷﾞｹﾝ","kana_city":"ｲｸﾞｸﾞﾝﾏﾙﾓﾘﾏﾁ","kana_address":"ﾊﾀｹﾅｶ","pref":"宮城県","city":"伊具郡丸森町","address":"畑中"},
{"zip_code":"9812185","kana_pref":"ﾐﾔｷﾞｹﾝ","kana_city":"ｲｸﾞｸﾞﾝﾏﾙﾓﾘﾏﾁ","kana_address":"ﾊﾃﾞﾆﾜ","pref":"宮城県","city":"伊具郡丸森町","address":"羽出庭"},
{"zip_code":"9812152","kana_pref":"ﾐﾔｷﾞｹﾝ","kana_city":"ｲｸﾞｸﾞﾝﾏﾙﾓﾘﾏﾁ","kana_address":"ﾊﾅﾀﾞ","pref":"宮城県","city":"伊具郡丸森町","address":"花田"},
{"zip_code":"9812113","kana_pref":"ﾐﾔｷﾞｹﾝ","kana_city":"ｲｸﾞｸﾞﾝﾏﾙﾓﾘﾏﾁ","kana_address":"ﾊﾆｭｳ","pref":"宮城県","city":"伊具郡丸森町","address":"羽入"},
{"zip_code":"9812113","kana_pref":"ﾐﾔｷﾞｹﾝ","kana_city":"ｲｸﾞｸﾞﾝﾏﾙﾓﾘﾏﾁ","kana_address":"ﾊﾆｭｳﾏｴ","pref":"宮城県","city":"伊具郡丸森町","address":"羽入前"},
{"zip_code":"9812186","kana_pref":"ﾐﾔｷﾞｹﾝ","kana_city":"ｲｸﾞｸﾞﾝﾏﾙﾓﾘﾏﾁ","kana_address":"ﾊﾔｻｶ","pref":"宮城県","city":"伊具郡丸森町","address":"早坂"},
{"zip_code":"9812112","kana_pref":"ﾐﾔｷﾞｹﾝ","kana_city":"ｲｸﾞｸﾞﾝﾏﾙﾓﾘﾏﾁ","kana_address":"ﾊﾔﾏ","pref":"宮城県","city":"伊具郡丸森町","address":"羽山"},
{"zip_code":"9812131","kana_pref":"ﾐﾔｷﾞｹﾝ","kana_city":"ｲｸﾞｸﾞﾝﾏﾙﾓﾘﾏﾁ","kana_address":"ﾊﾞﾝｼﾞｮｳ","pref":"宮城県","city":"伊具郡丸森町","address":"坂上"},
{"zip_code":"9812185","kana_pref":"ﾐﾔｷﾞｹﾝ","kana_city":"ｲｸﾞｸﾞﾝﾏﾙﾓﾘﾏﾁ","kana_address":"ﾋｳﾁｲｼ","pref":"宮城県","city":"伊具郡丸森町","address":"火打石"},
{"zip_code":"9812156","kana_pref":"ﾐﾔｷﾞｹﾝ","kana_city":"ｲｸﾞｸﾞﾝﾏﾙﾓﾘﾏﾁ","kana_address":"ﾋｼｶﾜｳﾁ","pref":"宮城県","city":"伊具郡丸森町","address":"菱川内"},
{"zip_code":"9812201","kana_pref":"ﾐﾔｷﾞｹﾝ","kana_city":"ｲｸﾞｸﾞﾝﾏﾙﾓﾘﾏﾁ","kana_address":"ﾋｯﾎﾟ","pref":"宮城県","city":"伊具郡丸森町","address":"筆甫"},
{"zip_code":"9812187","kana_pref":"ﾐﾔｷﾞｹﾝ","kana_city":"ｲｸﾞｸﾞﾝﾏﾙﾓﾘﾏﾁ","kana_address":"ﾋﾃﾞﾘﾀﾞ","pref":"宮城県","city":"伊具郡丸森町","address":"日照田"},
{"zip_code":"9812142","kana_pref":"ﾐﾔｷﾞｹﾝ","kana_city":"ｲｸﾞｸﾞﾝﾏﾙﾓﾘﾏﾁ","kana_address":"ﾋﾅﾀ","pref":"宮城県","city":"伊具郡丸森町","address":"日向"},
{"zip_code":"9812142","kana_pref":"ﾐﾔｷﾞｹﾝ","kana_city":"ｲｸﾞｸﾞﾝﾏﾙﾓﾘﾏﾁ","kana_address":"ﾋﾅﾀｶﾐ","pref":"宮城県","city":"伊具郡丸森町","address":"日向上"},
{"zip_code":"9812112","kana_pref":"ﾐﾔｷﾞｹﾝ","kana_city":"ｲｸﾞｸﾞﾝﾏﾙﾓﾘﾏﾁ","kana_address":"ﾋﾙﾀ","pref":"宮城県","city":"伊具郡丸森町","address":"蛭田"},
{"zip_code":"9812146","kana_pref":"ﾐﾔｷﾞｹﾝ","kana_city":"ｲｸﾞｸﾞﾝﾏﾙﾓﾘﾏﾁ","kana_address":"ﾋﾛﾏﾁ","pref":"宮城県","city":"伊具郡丸森町","address":"広町"},
{"zip_code":"9812184","kana_pref":"ﾐﾔｷﾞｹﾝ","kana_city":"ｲｸﾞｸﾞﾝﾏﾙﾓﾘﾏﾁ","kana_address":"ﾌｶﾀﾞ","pref":"宮城県","city":"伊具郡丸森町","address":"深田"},
{"zip_code":"9812125","kana_pref":"ﾐﾔｷﾞｹﾝ","kana_city":"ｲｸﾞｸﾞﾝﾏﾙﾓﾘﾏﾁ","kana_address":"ﾌｶﾀﾞｶﾐ","pref":"宮城県","city":"伊具郡丸森町","address":"深田上"},
{"zip_code":"9812125","kana_pref":"ﾐﾔｷﾞｹﾝ","kana_city":"ｲｸﾞｸﾞﾝﾏﾙﾓﾘﾏﾁ","kana_address":"ﾌｶﾀﾞｼﾓ","pref":"宮城県","city":"伊具郡丸森町","address":"深田下"},
{"zip_code":"9812122","kana_pref":"ﾐﾔｷﾞｹﾝ","kana_city":"ｲｸﾞｸﾞﾝﾏﾙﾓﾘﾏﾁ","kana_address":"ﾌｸｻﾞﾜ","pref":"宮城県","city":"伊具郡丸森町","address":"福沢"},
{"zip_code":"9812122","kana_pref":"ﾐﾔｷﾞｹﾝ","kana_city":"ｲｸﾞｸﾞﾝﾏﾙﾓﾘﾏﾁ","kana_address":"ﾌｸｻﾞﾜﾏｴ","pref":"宮城県","city":"伊具郡丸森町","address":"福沢前"},
{"zip_code":"9812144","kana_pref":"ﾐﾔｷﾞｹﾝ","kana_city":"ｲｸﾞｸﾞﾝﾏﾙﾓﾘﾏﾁ","kana_address":"ﾌﾞｼｻﾞﾜ","pref":"宮城県","city":"伊具郡丸森町","address":"武士沢"},
{"zip_code":"9812112","kana_pref":"ﾐﾔｷﾞｹﾝ","kana_city":"ｲｸﾞｸﾞﾝﾏﾙﾓﾘﾏﾁ","kana_address":"ﾌﾁﾉｳｴ","pref":"宮城県","city":"伊具郡丸森町","address":"渕ノ上"},
{"zip_code":"9812116","kana_pref":"ﾐﾔｷﾞｹﾝ","kana_city":"ｲｸﾞｸﾞﾝﾏﾙﾓﾘﾏﾁ","kana_address":"ﾌﾄﾞｳ","pref":"宮城県","city":"伊具郡丸森町","address":"不動"},
{"zip_code":"9812173","kana_pref":"ﾐﾔｷﾞｹﾝ","kana_city":"ｲｸﾞｸﾞﾝﾏﾙﾓﾘﾏﾁ","kana_address":"ﾌﾅｺｼ","pref":"宮城県","city":"伊具郡丸森町","address":"船越"},
{"zip_code":"9812171","kana_pref":"ﾐﾔｷﾞｹﾝ","kana_city":"ｲｸﾞｸﾞﾝﾏﾙﾓﾘﾏﾁ","kana_address":"ﾌﾅﾊﾞ","pref":"宮城県","city":"伊具郡丸森町","address":"船場"},
{"zip_code":"9812115","kana_pref":"ﾐﾔｷﾞｹﾝ","kana_city":"ｲｸﾞｸﾞﾝﾏﾙﾓﾘﾏﾁ","kana_address":"ﾏｴｶﾜﾗ","pref":"宮城県","city":"伊具郡丸森町","address":"前河原"},
{"zip_code":"9812181","kana_pref":"ﾐﾔｷﾞｹﾝ","kana_city":"ｲｸﾞｸﾞﾝﾏﾙﾓﾘﾏﾁ","kana_address":"ﾏｶﾞｷ","pref":"宮城県","city":"伊具郡丸森町","address":"曲木"},
{"zip_code":"9812164","kana_pref":"ﾐﾔｷﾞｹﾝ","kana_city":"ｲｸﾞｸﾞﾝﾏﾙﾓﾘﾏﾁ","kana_address":"ﾏﾁﾋｶﾞｼ","pref":"宮城県","city":"伊具郡丸森町","address":"町東"},
{"zip_code":"9812165","kana_pref":"ﾐﾔｷﾞｹﾝ","kana_city":"ｲｸﾞｸﾞﾝﾏﾙﾓﾘﾏﾁ","kana_address":"ﾏﾁﾆｼ","pref":"宮城県","city":"伊具郡丸森町","address":"町西"},
{"zip_code":"9812132","kana_pref":"ﾐﾔｷﾞｹﾝ","kana_city":"ｲｸﾞｸﾞﾝﾏﾙﾓﾘﾏﾁ","kana_address":"ﾏﾌﾞﾁ","pref":"宮城県","city":"伊具郡丸森町","address":"馬渕"},
{"zip_code":"9812181","kana_pref":"ﾐﾔｷﾞｹﾝ","kana_city":"ｲｸﾞｸﾞﾝﾏﾙﾓﾘﾏﾁ","kana_address":"ﾏﾜﾘｸﾞﾗ","pref":"宮城県","city":"伊具郡丸森町","address":"廻倉"},
{"zip_code":"9812187","kana_pref":"ﾐﾔｷﾞｹﾝ","kana_city":"ｲｸﾞｸﾞﾝﾏﾙﾓﾘﾏﾁ","kana_address":"ﾐｽﾞｻﾜ","pref":"宮城県","city":"伊具郡丸森町","address":"水沢"},
{"zip_code":"9812113","kana_pref":"ﾐﾔｷﾞｹﾝ","kana_city":"ｲｸﾞｸﾞﾝﾏﾙﾓﾘﾏﾁ","kana_address":"ﾐﾔﾉﾜｷ","pref":"宮城県","city":"伊具郡丸森町","address":"宮脇"},
{"zip_code":"9812132","kana_pref":"ﾐﾔｷﾞｹﾝ","kana_city":"ｲｸﾞｸﾞﾝﾏﾙﾓﾘﾏﾁ","kana_address":"ﾑｶｴﾊﾟﾗ","pref":"宮城県","city":"伊具郡丸森町","address":"向原"},
{"zip_code":"9812184","kana_pref":"ﾐﾔｷﾞｹﾝ","kana_city":"ｲｸﾞｸﾞﾝﾏﾙﾓﾘﾏﾁ","kana_address":"ﾓﾘ","pref":"宮城県","city":"伊具郡丸森町","address":"森"},
{"zip_code":"9812112","kana_pref":"ﾐﾔｷﾞｹﾝ","kana_city":"ｲｸﾞｸﾞﾝﾏﾙﾓﾘﾏﾁ","kana_address":"ﾔｱﾗｲ","pref":"宮城県","city":"伊具郡丸森町","address":"矢洗"},
{"zip_code":"9812183","kana_pref":"ﾐﾔｷﾞｹﾝ","kana_city":"ｲｸﾞｸﾞﾝﾏﾙﾓﾘﾏﾁ","kana_address":"ﾔｼｷ","pref":"宮城県","city":"伊具郡丸森町","address":"屋敷"},
{"zip_code":"9812183","kana_pref":"ﾐﾔｷﾞｹﾝ","kana_city":"ｲｸﾞｸﾞﾝﾏﾙﾓﾘﾏﾁ","kana_address":"ﾔｼｷﾏｴ","pref":"宮城県","city":"伊具郡丸森町","address":"屋敷前"},
{"zip_code":"9812123","kana_pref":"ﾐﾔｷﾞｹﾝ","kana_city":"ｲｸﾞｸﾞﾝﾏﾙﾓﾘﾏﾁ","kana_address":"ﾔﾅｷﾞﾀﾞ","pref":"宮城県","city":"伊具郡丸森町","address":"柳田"},
{"zip_code":"9812115","kana_pref":"ﾐﾔｷﾞｹﾝ","kana_city":"ｲｸﾞｸﾞﾝﾏﾙﾓﾘﾏﾁ","kana_address":"ﾔﾏｺﾞﾔ","pref":"宮城県","city":"伊具郡丸森町","address":"山古谷"},
{"zip_code":"9812155","kana_pref":"ﾐﾔｷﾞｹﾝ","kana_city":"ｲｸﾞｸﾞﾝﾏﾙﾓﾘﾏﾁ","kana_address":"ﾔﾏｻﾞｷ","pref":"宮城県","city":"伊具郡丸森町","address":"山崎"},
{"zip_code":"9812155","kana_pref":"ﾐﾔｷﾞｹﾝ","kana_city":"ｲｸﾞｸﾞﾝﾏﾙﾓﾘﾏﾁ","kana_address":"ﾔﾏｻﾞｷﾏｴ","pref":"宮城県","city":"伊具郡丸森町","address":"山崎前"},
{"zip_code":"9812173","kana_pref":"ﾐﾔｷﾞｹﾝ","kana_city":"ｲｸﾞｸﾞﾝﾏﾙﾓﾘﾏﾁ","kana_address":"ﾔﾏﾀﾞｶﾐ","pref":"宮城県","city":"伊具郡丸森町","address":"山田上"},
{"zip_code":"9812173","kana_pref":"ﾐﾔｷﾞｹﾝ","kana_city":"ｲｸﾞｸﾞﾝﾏﾙﾓﾘﾏﾁ","kana_address":"ﾔﾏﾀﾞｼﾓ","pref":"宮城県","city":"伊具郡丸森町","address":"山田下"},
{"zip_code":"9812172","kana_pref":"ﾐﾔｷﾞｹﾝ","kana_city":"ｲｸﾞｸﾞﾝﾏﾙﾓﾘﾏﾁ","kana_address":"ﾕﾘｻﾜ","pref":"宮城県","city":"伊具郡丸森町","address":"百合沢"},
{"zip_code":"9812133","kana_pref":"ﾐﾔｷﾞｹﾝ","kana_city":"ｲｸﾞｸﾞﾝﾏﾙﾓﾘﾏﾁ","kana_address":"ﾖｴﾑｷﾞ1","pref":"宮城県","city":"伊具郡丸森町","address":"四重麦一"},
{"zip_code":"9812133","kana_pref":"ﾐﾔｷﾞｹﾝ","kana_city":"ｲｸﾞｸﾞﾝﾏﾙﾓﾘﾏﾁ","kana_address":"ﾖｴﾑｷﾞ2","pref":"宮城県","city":"伊具郡丸森町","address":"四重麦二"},
{"zip_code":"9812133","kana_pref":"ﾐﾔｷﾞｹﾝ","kana_city":"ｲｸﾞｸﾞﾝﾏﾙﾓﾘﾏﾁ","kana_address":"ﾖｴﾑｷﾞ3","pref":"宮城県","city":"伊具郡丸森町","address":"四重麦三"},
{"zip_code":"9812133","kana_pref":"ﾐﾔｷﾞｹﾝ","kana_city":"ｲｸﾞｸﾞﾝﾏﾙﾓﾘﾏﾁ","kana_address":"ﾖｴﾑｷﾞ4","pref":"宮城県","city":"伊具郡丸森町","address":"四重麦四"},
{"zip_code":"9812133","kana_pref":"ﾐﾔｷﾞｹﾝ","kana_city":"ｲｸﾞｸﾞﾝﾏﾙﾓﾘﾏﾁ","kana_address":"ﾖｴﾑｷﾞ5","pref":"宮城県","city":"伊具郡丸森町","address":"四重麦五"},
{"zip_code":"9812133","kana_pref":"ﾐﾔｷﾞｹﾝ","kana_city":"ｲｸﾞｸﾞﾝﾏﾙﾓﾘﾏﾁ","kana_address":"ﾖｴﾑｷﾞ6","pref":"宮城県","city":"伊具郡丸森町","address":"四重麦六"},
{"zip_code":"9812133","kana_pref":"ﾐﾔｷﾞｹﾝ","kana_city":"ｲｸﾞｸﾞﾝﾏﾙﾓﾘﾏﾁ","kana_address":"ﾖｴﾑｷﾞ7","pref":"宮城県","city":"伊具郡丸森町","address":"四重麦七"},
{"zip_code":"9812121","kana_pref":"ﾐﾔｷﾞｹﾝ","kana_city":"ｲｸﾞｸﾞﾝﾏﾙﾓﾘﾏﾁ","kana_address":"ﾖｼﾀﾞ","pref":"宮城県","city":"伊具郡丸森町","address":"吉田"},
{"zip_code":"9812144","kana_pref":"ﾐﾔｷﾞｹﾝ","kana_city":"ｲｸﾞｸﾞﾝﾏﾙﾓﾘﾏﾁ","kana_address":"ﾖﾅｻﾞｶ","pref":"宮城県","city":"伊具郡丸森町","address":"由縄坂"},
{"zip_code":"9812117","kana_pref":"ﾐﾔｷﾞｹﾝ","kana_city":"ｲｸﾞｸﾞﾝﾏﾙﾓﾘﾏﾁ","kana_address":"ﾜﾀﾞﾋｶﾞｼ","pref":"宮城県","city":"伊具郡丸森町","address":"和田東"},
{"zip_code":"9812117","kana_pref":"ﾐﾔｷﾞｹﾝ","kana_city":"ｲｸﾞｸﾞﾝﾏﾙﾓﾘﾏﾁ","kana_address":"ﾜﾀﾞﾆｼ","pref":"宮城県","city":"伊具郡丸森町","address":"和田西"},
{"zip_code":"9812132","kana_pref":"ﾐﾔｷﾞｹﾝ","kana_city":"ｲｸﾞｸﾞﾝﾏﾙﾓﾘﾏﾁ","kana_address":"ﾜﾗﾋﾞﾀﾞｲﾗ","pref":"宮城県","city":"伊具郡丸森町","address":"蕨平"},
{"zip_code":"9810200","kana_pref":"ﾐﾔｷﾞｹﾝ","kana_city":"ﾐﾔｷﾞｸﾞﾝﾏﾂｼﾏﾏﾁ","kana_address":"","pref":"宮城県","city":"宮城郡松島町","address":""},
{"zip_code":"9810212","kana_pref":"ﾐﾔｷﾞｹﾝ","kana_city":"ﾐﾔｷﾞｸﾞﾝﾏﾂｼﾏﾏﾁ","kana_address":"ｲｿｻﾞｷ","pref":"宮城県","city":"宮城郡松島町","address":"磯崎"},
{"zip_code":"9810202","kana_pref":"ﾐﾔｷﾞｹﾝ","kana_city":"ﾐﾔｷﾞｸﾞﾝﾏﾂｼﾏﾏﾁ","kana_address":"ｷﾀｺｲｽﾞﾐ","pref":"宮城県","city":"宮城郡松島町","address":"北小泉"},
{"zip_code":"9810214","kana_pref":"ﾐﾔｷﾞｹﾝ","kana_city":"ﾐﾔｷﾞｸﾞﾝﾏﾂｼﾏﾏﾁ","kana_address":"ｻｸﾗﾜﾀｼﾄﾞ","pref":"宮城県","city":"宮城郡松島町","address":"桜渡戸"},
{"zip_code":"9810215","kana_pref":"ﾐﾔｷﾞｹﾝ","kana_city":"ﾐﾔｷﾞｸﾞﾝﾏﾂｼﾏﾏﾁ","kana_address":"ﾀｶｷﾞ","pref":"宮城県","city":"宮城郡松島町","address":"高城"},
{"zip_code":"9810201","kana_pref":"ﾐﾔｷﾞｹﾝ","kana_city":"ﾐﾔｷﾞｸﾞﾝﾏﾂｼﾏﾏﾁ","kana_address":"ﾀｹﾔ","pref":"宮城県","city":"宮城郡松島町","address":"竹谷"},
{"zip_code":"9810211","kana_pref":"ﾐﾔｷﾞｹﾝ","kana_city":"ﾐﾔｷﾞｸﾞﾝﾏﾂｼﾏﾏﾁ","kana_address":"ﾃﾀﾙ","pref":"宮城県","city":"宮城郡松島町","address":"手樽"},
{"zip_code":"9810203","kana_pref":"ﾐﾔｷﾞｹﾝ","kana_city":"ﾐﾔｷﾞｸﾞﾝﾏﾂｼﾏﾏﾁ","kana_address":"ﾈﾏﾜﾘ","pref":"宮城県","city":"宮城郡松島町","address":"根廻"},
{"zip_code":"9810205","kana_pref":"ﾐﾔｷﾞｹﾝ","kana_city":"ﾐﾔｷﾞｸﾞﾝﾏﾂｼﾏﾏﾁ","kana_address":"ﾊﾀﾔ","pref":"宮城県","city":"宮城郡松島町","address":"幡谷"},
{"zip_code":"9810204","kana_pref":"ﾐﾔｷﾞｹﾝ","kana_city":"ﾐﾔｷﾞｸﾞﾝﾏﾂｼﾏﾏﾁ","kana_address":"ﾊﾂﾊﾞﾗ","pref":"宮城県","city":"宮城郡松島町","address":"初原"},
{"zip_code":"9810213","kana_pref":"ﾐﾔｷﾞｹﾝ","kana_city":"ﾐﾔｷﾞｸﾞﾝﾏﾂｼﾏﾏﾁ","kana_address":"ﾏﾂｼﾏ","pref":"宮城県","city":"宮城郡松島町","address":"松島"},
{"zip_code":"9810100","kana_pref":"ﾐﾔｷﾞｹﾝ","kana_city":"ﾐﾔｷﾞｸﾞﾝﾘﾌﾁｮｳ","kana_address":"","pref":"宮城県","city":"宮城郡利府町","address":""},
{"zip_code":"9810133","kana_pref":"ﾐﾔｷﾞｹﾝ","kana_city":"ﾐﾔｷﾞｸﾞﾝﾘﾌﾁｮｳ","kana_address":"ｱｵﾊﾞﾀﾞｲ","pref":"宮城県","city":"宮城郡利府町","address":"青葉台"},
{"zip_code":"9810131","kana_pref":"ﾐﾔｷﾞｹﾝ","kana_city":"ﾐﾔｷﾞｸﾞﾝﾘﾌﾁｮｳ","kana_address":"ｱｵﾔﾏ","pref":"宮城県","city":"宮城郡利府町","address":"青山"},
{"zip_code":"9810101","kana_pref":"ﾐﾔｷﾞｹﾝ","kana_city":"ﾐﾔｷﾞｸﾞﾝﾘﾌﾁｮｳ","kana_address":"ｱｶﾇﾏ","pref":"宮城県","city":"宮城郡利府町","address":"赤沼"},
{"zip_code":"9810113","kana_pref":"ﾐﾔｷﾞｹﾝ","kana_city":"ﾐﾔｷﾞｸﾞﾝﾘﾌﾁｮｳ","kana_address":"ｲｲﾄﾞｲ","pref":"宮城県","city":"宮城郡利府町","address":"飯土井"},
{"zip_code":"9810102","kana_pref":"ﾐﾔｷﾞｹﾝ","kana_city":"ﾐﾔｷﾞｸﾞﾝﾘﾌﾁｮｳ","kana_address":"ｶｽｶﾞ","pref":"宮城県","city":"宮城郡利府町","address":"春日"},
{"zip_code":"9810111","kana_pref":"ﾐﾔｷﾞｹﾝ","kana_city":"ﾐﾔｷﾞｸﾞﾝﾘﾌﾁｮｳ","kana_address":"ｶｾ","pref":"宮城県","city":"宮城郡利府町","address":"加瀬"},
{"zip_code":"9810121","kana_pref":"ﾐﾔｷﾞｹﾝ","kana_city":"ﾐﾔｷﾞｸﾞﾝﾘﾌﾁｮｳ","kana_address":"ｶﾐﾔｻﾜ","pref":"宮城県","city":"宮城郡利府町","address":"神谷沢"},
{"zip_code":"9810123","kana_pref":"ﾐﾔｷﾞｹﾝ","kana_city":"ﾐﾔｷﾞｸﾞﾝﾘﾌﾁｮｳ","kana_address":"ｻﾜｵﾄ","pref":"宮城県","city":"宮城郡利府町","address":"沢乙"},
{"zip_code":"9810124","kana_pref":"ﾐﾔｷﾞｹﾝ","kana_city":"ﾐﾔｷﾞｸﾞﾝﾘﾌﾁｮｳ","kana_address":"ｻﾜｵﾄﾋｶﾞｼ","pref":"宮城県","city":"宮城郡利府町","address":"沢乙東"},
{"zip_code":"9810134","kana_pref":"ﾐﾔｷﾞｹﾝ","kana_city":"ﾐﾔｷﾞｸﾞﾝﾘﾌﾁｮｳ","kana_address":"ｼﾗｶｼﾀﾞｲ","pref":"宮城県","city":"宮城郡利府町","address":"しらかし台"},
{"zip_code":"9810122","kana_pref":"ﾐﾔｷﾞｹﾝ","kana_city":"ﾐﾔｷﾞｸﾞﾝﾘﾌﾁｮｳ","kana_address":"ｽｶﾞﾔ","pref":"宮城県","city":"宮城郡利府町","address":"菅谷"},
{"zip_code":"9810135","kana_pref":"ﾐﾔｷﾞｹﾝ","kana_city":"ﾐﾔｷﾞｸﾞﾝﾘﾌﾁｮｳ","kana_address":"ｽｶﾞﾔﾀﾞｲ","pref":"宮城県","city":"宮城郡利府町","address":"菅谷台"},
{"zip_code":"9810104","kana_pref":"ﾐﾔｷﾞｹﾝ","kana_city":"ﾐﾔｷﾞｸﾞﾝﾘﾌﾁｮｳ","kana_address":"ﾁｭｳｵｳ","pref":"宮城県","city":"宮城郡利府町","address":"中央"},
{"zip_code":"9810132","kana_pref":"ﾐﾔｷﾞｹﾝ","kana_city":"ﾐﾔｷﾞｸﾞﾝﾘﾌﾁｮｳ","kana_address":"ﾊﾅｿﾞﾉ","pref":"宮城県","city":"宮城郡利府町","address":"花園"},
{"zip_code":"9810105","kana_pref":"ﾐﾔｷﾞｹﾝ","kana_city":"ﾐﾔｷﾞｸﾞﾝﾘﾌﾁｮｳ","kana_address":"ﾊﾔﾏ","pref":"宮城県","city":"宮城郡利府町","address":"葉山"},
{"zip_code":"9810136","kana_pref":"ﾐﾔｷﾞｹﾝ","kana_city":"ﾐﾔｷﾞｸﾞﾝﾘﾌﾁｮｳ","kana_address":"ﾐﾅﾉｵｶ","pref":"宮城県","city":"宮城郡利府町","address":"皆の丘"},
{"zip_code":"9810103","kana_pref":"ﾐﾔｷﾞｹﾝ","kana_city":"ﾐﾔｷﾞｸﾞﾝﾘﾌﾁｮｳ","kana_address":"ﾓﾘｺﾞｳ","pref":"宮城県","city":"宮城郡利府町","address":"森郷"},
{"zip_code":"9810112","kana_pref":"ﾐﾔｷﾞｹﾝ","kana_city":"ﾐﾔｷﾞｸﾞﾝﾘﾌﾁｮｳ","kana_address":"ﾘﾌ","pref":"宮城県","city":"宮城郡利府町","address":"利府"},
{"zip_code":"9813600","kana_pref":"ﾐﾔｷﾞｹﾝ","kana_city":"ｸﾛｶﾜｸﾞﾝﾀｲﾜﾁｮｳ","kana_address":"","pref":"宮城県","city":"黒川郡大和町","address":""},
{"zip_code":"9813404","kana_pref":"ﾐﾔｷﾞｹﾝ","kana_city":"ｸﾛｶﾜｸﾞﾝﾀｲﾜﾁｮｳ","kana_address":"ｵﾁｱｲｱｲｶﾜ","pref":"宮城県","city":"黒川郡大和町","address":"落合相川"},
{"zip_code":"9813401","kana_pref":"ﾐﾔｷﾞｹﾝ","kana_city":"ｸﾛｶﾜｸﾞﾝﾀｲﾜﾁｮｳ","kana_address":"ｵﾁｱｲｻﾝｶﾞｳﾁ","pref":"宮城県","city":"黒川郡大和町","address":"落合三ケ内"},
{"zip_code":"9813406","kana_pref":"ﾐﾔｷﾞｹﾝ","kana_city":"ｸﾛｶﾜｸﾞﾝﾀｲﾜﾁｮｳ","kana_address":"ｵﾁｱｲﾋﾙﾌﾞｸﾛ","pref":"宮城県","city":"黒川郡大和町","address":"落合蒜袋"},
{"zip_code":"9813403","kana_pref":"ﾐﾔｷﾞｹﾝ","kana_city":"ｸﾛｶﾜｸﾞﾝﾀｲﾜﾁｮｳ","kana_address":"ｵﾁｱｲﾋﾜﾀﾞ","pref":"宮城県","city":"黒川郡大和町","address":"落合檜和田"},
{"zip_code":"9813402","kana_pref":"ﾐﾔｷﾞｹﾝ","kana_city":"ｸﾛｶﾜｸﾞﾝﾀｲﾜﾁｮｳ","kana_address":"ｵﾁｱｲﾎｳｵﾝｼﾞ","pref":"宮城県","city":"黒川郡大和町","address":"落合報恩寺"},
{"zip_code":"9813405","kana_pref":"ﾐﾔｷﾞｹﾝ","kana_city":"ｸﾛｶﾜｸﾞﾝﾀｲﾜﾁｮｳ","kana_address":"ｵﾁｱｲﾏｲﾉ","pref":"宮城県","city":"黒川郡大和町","address":"落合舞野"},
{"zip_code":"9813407","kana_pref":"ﾐﾔｷﾞｹﾝ","kana_city":"ｸﾛｶﾜｸﾞﾝﾀｲﾜﾁｮｳ","kana_address":"ｵﾁｱｲﾏﾂｻｶ","pref":"宮城県","city":"黒川郡大和町","address":"落合松坂"},
{"zip_code":"9813623","kana_pref":"ﾐﾔｷﾞｹﾝ","kana_city":"ｸﾛｶﾜｸﾞﾝﾀｲﾜﾁｮｳ","kana_address":"ｵﾉ","pref":"宮城県","city":"黒川郡大和町","address":"小野"},
{"zip_code":"9813271","kana_pref":"ﾐﾔｷﾞｹﾝ","kana_city":"ｸﾛｶﾜｸﾞﾝﾀｲﾜﾁｮｳ","kana_address":"ｶﾞｸｴﾝ","pref":"宮城県","city":"黒川郡大和町","address":"学苑"},
{"zip_code":"9813414","kana_pref":"ﾐﾔｷﾞｹﾝ","kana_city":"ｸﾛｶﾜｸﾞﾝﾀｲﾜﾁｮｳ","kana_address":"ﾂﾙｽｵｵﾀ","pref":"宮城県","city":"黒川郡大和町","address":"鶴巣太田"},
{"zip_code":"9813411","kana_pref":"ﾐﾔｷﾞｹﾝ","kana_city":"ｸﾛｶﾜｸﾞﾝﾀｲﾜﾁｮｳ","kana_address":"ﾂﾙｽｵｵﾀﾞｲﾗ","pref":"宮城県","city":"黒川郡大和町","address":"鶴巣大平"},
{"zip_code":"9813415","kana_pref":"ﾐﾔｷﾞｹﾝ","kana_city":"ｸﾛｶﾜｸﾞﾝﾀｲﾜﾁｮｳ","kana_address":"ﾂﾙｽｵﾂﾞﾙｻﾜ","pref":"宮城県","city":"黒川郡大和町","address":"鶴巣小鶴沢"},
{"zip_code":"9813417","kana_pref":"ﾐﾔｷﾞｹﾝ","kana_city":"ｸﾛｶﾜｸﾞﾝﾀｲﾜﾁｮｳ","kana_address":"ﾂﾙｽｷﾀﾒｵｵｻｷ","pref":"宮城県","city":"黒川郡大和町","address":"鶴巣北目大崎"},
{"zip_code":"9813418","kana_pref":"ﾐﾔｷﾞｹﾝ","kana_city":"ｸﾛｶﾜｸﾞﾝﾀｲﾜﾁｮｳ","kana_address":"ﾂﾙｽｼﾓｸｻ","pref":"宮城県","city":"黒川郡大和町","address":"鶴巣下草"},
{"zip_code":"9813412","kana_pref":"ﾐﾔｷﾞｹﾝ","kana_city":"ｸﾛｶﾜｸﾞﾝﾀｲﾜﾁｮｳ","kana_address":"ﾂﾙｽﾄﾔ","pref":"宮城県","city":"黒川郡大和町","address":"鶴巣鳥屋"},
{"zip_code":"9813413","kana_pref":"ﾐﾔｷﾞｹﾝ","kana_city":"ｸﾛｶﾜｸﾞﾝﾀｲﾜﾁｮｳ","kana_address":"ﾂﾙｽﾏｸﾔﾅｷﾞ","pref":"宮城県","city":"黒川郡大和町","address":"鶴巣幕柳"},
{"zip_code":"9813416","kana_pref":"ﾐﾔｷﾞｹﾝ","kana_city":"ｸﾛｶﾜｸﾞﾝﾀｲﾜﾁｮｳ","kana_address":"ﾂﾙｽﾔﾏﾀﾞ","pref":"宮城県","city":"黒川郡大和町","address":"鶴巣山田"},
{"zip_code":"9813629","kana_pref":"ﾐﾔｷﾞｹﾝ","kana_city":"ｸﾛｶﾜｸﾞﾝﾀｲﾜﾁｮｳ","kana_address":"ﾃｸﾉﾋﾙｽﾞ","pref":"宮城県","city":"黒川郡大和町","address":"テクノヒルズ"},
{"zip_code":"9813408","kana_pref":"ﾐﾔｷﾞｹﾝ","kana_city":"ｸﾛｶﾜｸﾞﾝﾀｲﾜﾁｮｳ","kana_address":"ﾏﾂｻｶﾀﾞｲﾗ","pref":"宮城県","city":"黒川郡大和町","address":"松坂平"},
{"zip_code":"9813624","kana_pref":"ﾐﾔｷﾞｹﾝ","kana_city":"ｸﾛｶﾜｸﾞﾝﾀｲﾜﾁｮｳ","kana_address":"ﾐﾔﾄｺ","pref":"宮城県","city":"黒川郡大和町","address":"宮床"},
{"zip_code":"9813622","kana_pref":"ﾐﾔｷﾞｹﾝ","kana_city":"ｸﾛｶﾜｸﾞﾝﾀｲﾜﾁｮｳ","kana_address":"ﾓﾐｼﾞｶﾞｵｶ","pref":"宮城県","city":"黒川郡大和町","address":"もみじケ丘"},
{"zip_code":"9813628","kana_pref":"ﾐﾔｷﾞｹﾝ","kana_city":"ｸﾛｶﾜｸﾞﾝﾀｲﾜﾁｮｳ","kana_address":"ﾓﾘﾉｵｶ","pref":"宮城県","city":"黒川郡大和町","address":"杜の丘"},
{"zip_code":"9813621","kana_pref":"ﾐﾔｷﾞｹﾝ","kana_city":"ｸﾛｶﾜｸﾞﾝﾀｲﾜﾁｮｳ","kana_address":"ﾖｼｵｶ","pref":"宮城県","city":"黒川郡大和町","address":"吉岡"},
{"zip_code":"9813627","kana_pref":"ﾐﾔｷﾞｹﾝ","kana_city":"ｸﾛｶﾜｸﾞﾝﾀｲﾜﾁｮｳ","kana_address":"ﾖｼｵｶﾋｶﾞｼ","pref":"宮城県","city":"黒川郡大和町","address":"吉岡東"},
{"zip_code":"9813626","kana_pref":"ﾐﾔｷﾞｹﾝ","kana_city":"ｸﾛｶﾜｸﾞﾝﾀｲﾜﾁｮｳ","kana_address":"ﾖｼｵｶﾐﾅﾐ","pref":"宮城県","city":"黒川郡大和町","address":"吉岡南"},
{"zip_code":"9813625","kana_pref":"ﾐﾔｷﾞｹﾝ","kana_city":"ｸﾛｶﾜｸﾞﾝﾀｲﾜﾁｮｳ","kana_address":"ﾖｼﾀﾞ","pref":"宮城県","city":"黒川郡大和町","address":"吉田"},
{"zip_code":"9813409","kana_pref":"ﾐﾔｷﾞｹﾝ","kana_city":"ｸﾛｶﾜｸﾞﾝﾀｲﾜﾁｮｳ","kana_address":"ﾘｭｳﾂｳﾀﾞｲﾗ","pref":"宮城県","city":"黒川郡大和町","address":"流通平"},
{"zip_code":"9813500","kana_pref":"ﾐﾔｷﾞｹﾝ","kana_city":"ｸﾛｶﾜｸﾞﾝｵｵｻﾄﾁｮｳ","kana_address":"","pref":"宮城県","city":"黒川郡大郷町","address":""},
{"zip_code":"9813503","kana_pref":"ﾐﾔｷﾞｹﾝ","kana_city":"ｸﾛｶﾜｸﾞﾝｵｵｻﾄﾁｮｳ","kana_address":"ｲｼﾊﾞﾗ","pref":"宮城県","city":"黒川郡大郷町","address":"石原"},
{"zip_code":"9813524","kana_pref":"ﾐﾔｷﾞｹﾝ","kana_city":"ｸﾛｶﾜｸﾞﾝｵｵｻﾄﾁｮｳ","kana_address":"ｳｽﾞﾗｻｷ","pref":"宮城県","city":"黒川郡大郷町","address":"鶉崎"},
{"zip_code":"9813501","kana_pref":"ﾐﾔｷﾞｹﾝ","kana_city":"ｸﾛｶﾜｸﾞﾝｵｵｻﾄﾁｮｳ","kana_address":"ｵｵﾏﾂｻﾞﾜ","pref":"宮城県","city":"黒川郡大郷町","address":"大松沢"},
{"zip_code":"9813502","kana_pref":"ﾐﾔｷﾞｹﾝ","kana_city":"ｸﾛｶﾜｸﾞﾝｵｵｻﾄﾁｮｳ","kana_address":"ｶｽｶﾜ","pref":"宮城県","city":"黒川郡大郷町","address":"粕川"},
{"zip_code":"9813514","kana_pref":"ﾐﾔｷﾞｹﾝ","kana_city":"ｸﾛｶﾜｸﾞﾝｵｵｻﾄﾁｮｳ","kana_address":"ｶﾜｳﾁ","pref":"宮城県","city":"黒川郡大郷町","address":"川内"},
{"zip_code":"9813512","kana_pref":"ﾐﾔｷﾞｹﾝ","kana_city":"ｸﾛｶﾜｸﾞﾝｵｵｻﾄﾁｮｳ","kana_address":"ｺｽﾞﾅｲ","pref":"宮城県","city":"黒川郡大郷町","address":"不来内"},
{"zip_code":"9813523","kana_pref":"ﾐﾔｷﾞｹﾝ","kana_city":"ｸﾛｶﾜｸﾞﾝｵｵｻﾄﾁｮｳ","kana_address":"ﾂﾁﾊｼ","pref":"宮城県","city":"黒川郡大郷町","address":"土橋"},
{"zip_code":"9813521","kana_pref":"ﾐﾔｷﾞｹﾝ","kana_city":"ｸﾛｶﾜｸﾞﾝｵｵｻﾄﾁｮｳ","kana_address":"ﾅｶﾑﾗ","pref":"宮城県","city":"黒川郡大郷町","address":"中村"},
{"zip_code":"9813515","kana_pref":"ﾐﾔｷﾞｹﾝ","kana_city":"ｸﾛｶﾜｸﾞﾝｵｵｻﾄﾁｮｳ","kana_address":"ﾊﾆｭｳ","pref":"宮城県","city":"黒川郡大郷町","address":"羽生"},
{"zip_code":"9813522","kana_pref":"ﾐﾔｷﾞｹﾝ","kana_city":"ｸﾛｶﾜｸﾞﾝｵｵｻﾄﾁｮｳ","kana_address":"ﾋｶﾞｼﾅﾘﾀ","pref":"宮城県","city":"黒川郡大郷町","address":"東成田"},
{"zip_code":"9813513","kana_pref":"ﾐﾔｷﾞｹﾝ","kana_city":"ｸﾛｶﾜｸﾞﾝｵｵｻﾄﾁｮｳ","kana_address":"ﾐｱｹ","pref":"宮城県","city":"黒川郡大郷町","address":"味明"},
{"zip_code":"9813511","kana_pref":"ﾐﾔｷﾞｹﾝ","kana_city":"ｸﾛｶﾜｸﾞﾝｵｵｻﾄﾁｮｳ","kana_address":"ﾔﾏｻｷ","pref":"宮城県","city":"黒川郡大郷町","address":"山崎"},
{"zip_code":"9813300","kana_pref":"ﾐﾔｷﾞｹﾝ","kana_city":"ｸﾛｶﾜｸﾞﾝﾄﾐﾔﾏﾁ","kana_address":"","pref":"宮城県","city":"黒川郡富谷町","address":""},
{"zip_code":"9813326","kana_pref":"ﾐﾔｷﾞｹﾝ","kana_city":"ｸﾛｶﾜｸﾞﾝﾄﾐﾔﾏﾁ","kana_address":"ｱｶｲｼ","pref":"宮城県","city":"黒川郡富谷町","address":"明石"},
{"zip_code":"9813332","kana_pref":"ﾐﾔｷﾞｹﾝ","kana_city":"ｸﾛｶﾜｸﾞﾝﾄﾐﾔﾏﾁ","kana_address":"ｱｶｲｼﾀﾞｲ","pref":"宮城県","city":"黒川郡富谷町","address":"明石台"},
{"zip_code":"9813361","kana_pref":"ﾐﾔｷﾞｹﾝ","kana_city":"ｸﾛｶﾜｸﾞﾝﾄﾐﾔﾏﾁ","kana_address":"ｱｹﾉﾀﾞｲﾗ","pref":"宮城県","city":"黒川郡富谷町","address":"あけの平"},
{"zip_code":"9813325","kana_pref":"ﾐﾔｷﾞｹﾝ","kana_city":"ｸﾛｶﾜｸﾞﾝﾄﾐﾔﾏﾁ","kana_address":"ｲｼﾂﾞﾓﾘ","pref":"宮城県","city":"黒川郡富谷町","address":"石積"},
{"zip_code":"9813305","kana_pref":"ﾐﾔｷﾞｹﾝ","kana_city":"ｸﾛｶﾜｸﾞﾝﾄﾐﾔﾏﾁ","kana_address":"ｲﾁﾉｾｷ","pref":"宮城県","city":"黒川郡富谷町","address":"一ノ関"},
{"zip_code":"9813322","kana_pref":"ﾐﾔｷﾞｹﾝ","kana_city":"ｸﾛｶﾜｸﾞﾝﾄﾐﾔﾏﾁ","kana_address":"ｲﾏｲｽﾞﾐ","pref":"宮城県","city":"黒川郡富谷町","address":"今泉"},
{"zip_code":"9813323","kana_pref":"ﾐﾔｷﾞｹﾝ","kana_city":"ｸﾛｶﾜｸﾞﾝﾄﾐﾔﾏﾁ","kana_address":"ｵｵｶﾞﾒ","pref":"宮城県","city":"黒川郡富谷町","address":"大亀"},
{"zip_code":"9813329","kana_pref":"ﾐﾔｷﾞｹﾝ","kana_city":"ｸﾛｶﾜｸﾞﾝﾄﾐﾔﾏﾁ","kana_address":"ｵｵｼﾐｽﾞ","pref":"宮城県","city":"黒川郡富谷町","address":"大清水"},
{"zip_code":"9813321","kana_pref":"ﾐﾔｷﾞｹﾝ","kana_city":"ｸﾛｶﾜｸﾞﾝﾄﾐﾔﾏﾁ","kana_address":"ｵｵﾜﾗ","pref":"宮城県","city":"黒川郡富谷町","address":"大童"},
{"zip_code":"9813328","kana_pref":"ﾐﾔｷﾞｹﾝ","kana_city":"ｸﾛｶﾜｸﾞﾝﾄﾐﾔﾏﾁ","kana_address":"ｶﾐｻｸﾗｷﾞ","pref":"宮城県","city":"黒川郡富谷町","address":"上桜木"},
{"zip_code":"9813327","kana_pref":"ﾐﾔｷﾞｹﾝ","kana_city":"ｸﾛｶﾜｸﾞﾝﾄﾐﾔﾏﾁ","kana_address":"ｺｸﾀﾞ","pref":"宮城県","city":"黒川郡富谷町","address":"穀田"},
{"zip_code":"9813302","kana_pref":"ﾐﾔｷﾞｹﾝ","kana_city":"ｸﾛｶﾜｸﾞﾝﾄﾐﾔﾏﾁ","kana_address":"ｻﾝﾉｾｷ","pref":"宮城県","city":"黒川郡富谷町","address":"三ノ関"},
{"zip_code":"9813301","kana_pref":"ﾐﾔｷﾞｹﾝ","kana_city":"ｸﾛｶﾜｸﾞﾝﾄﾐﾔﾏﾁ","kana_address":"ｼﾄﾀﾞ","pref":"宮城県","city":"黒川郡富谷町","address":"志戸田"},
{"zip_code":"9813303","kana_pref":"ﾐﾔｷﾞｹﾝ","kana_city":"ｸﾛｶﾜｸﾞﾝﾄﾐﾔﾏﾁ","kana_address":"ﾀｲｼﾄﾞｳ","pref":"宮城県","city":"黒川郡富谷町","address":"太子堂"},
{"zip_code":"9813351","kana_pref":"ﾐﾔｷﾞｹﾝ","kana_city":"ｸﾛｶﾜｸﾞﾝﾄﾐﾔﾏﾁ","kana_address":"ﾀｶﾉﾓﾘ","pref":"宮城県","city":"黒川郡富谷町","address":"鷹乃杜"},
{"zip_code":"9813312","kana_pref":"ﾐﾔｷﾞｹﾝ","kana_city":"ｸﾛｶﾜｸﾞﾝﾄﾐﾔﾏﾁ","kana_address":"ﾄﾁﾉｷ","pref":"宮城県","city":"黒川郡富谷町","address":"とちの木"},
{"zip_code":"9813352","kana_pref":"ﾐﾔｷﾞｹﾝ","kana_city":"ｸﾛｶﾜｸﾞﾝﾄﾐﾔﾏﾁ","kana_address":"ﾄﾐｶﾞｵｶ","pref":"宮城県","city":"黒川郡富谷町","address":"富ケ丘"},
{"zip_code":"9813311","kana_pref":"ﾐﾔｷﾞｹﾝ","kana_city":"ｸﾛｶﾜｸﾞﾝﾄﾐﾔﾏﾁ","kana_address":"ﾄﾐﾔ","pref":"宮城県","city":"黒川郡富谷町","address":"富谷"},
{"zip_code":"9813341","kana_pref":"ﾐﾔｷﾞｹﾝ","kana_city":"ｸﾛｶﾜｸﾞﾝﾄﾐﾔﾏﾁ","kana_address":"ﾅﾘﾀ","pref":"宮城県","city":"黒川郡富谷町","address":"成田"},
{"zip_code":"9813324","kana_pref":"ﾐﾔｷﾞｹﾝ","kana_city":"ｸﾛｶﾜｸﾞﾝﾄﾐﾔﾏﾁ","kana_address":"ﾆｼﾅﾘﾀ","pref":"宮城県","city":"黒川郡富谷町","address":"西成田"},
{"zip_code":"9813306","kana_pref":"ﾐﾔｷﾞｹﾝ","kana_city":"ｸﾛｶﾜｸﾞﾝﾄﾐﾔﾏﾁ","kana_address":"ﾆﾉｾｷ","pref":"宮城県","city":"黒川郡富谷町","address":"二ノ関"},
{"zip_code":"9813331","kana_pref":"ﾐﾔｷﾞｹﾝ","kana_city":"ｸﾛｶﾜｸﾞﾝﾄﾐﾔﾏﾁ","kana_address":"ﾋｶﾞｼｺｳﾖｳﾀﾞｲ","pref":"宮城県","city":"黒川郡富谷町","address":"東向陽台"},
{"zip_code":"9813362","kana_pref":"ﾐﾔｷﾞｹﾝ","kana_city":"ｸﾛｶﾜｸﾞﾝﾄﾐﾔﾏﾁ","kana_address":"ﾋﾖｼﾀﾞｲ","pref":"宮城県","city":"黒川郡富谷町","address":"日吉台"},
{"zip_code":"9813304","kana_pref":"ﾐﾔｷﾞｹﾝ","kana_city":"ｸﾛｶﾜｸﾞﾝﾄﾐﾔﾏﾁ","kana_address":"ﾋﾖﾘﾀﾞｲ","pref":"宮城県","city":"黒川郡富谷町","address":"ひより台"},
{"zip_code":"9813363","kana_pref":"ﾐﾔｷﾞｹﾝ","kana_city":"ｸﾛｶﾜｸﾞﾝﾄﾐﾔﾏﾁ","kana_address":"ﾓﾘﾉﾊｼ","pref":"宮城県","city":"黒川郡富谷町","address":"杜乃橋"},
{"zip_code":"9813600","kana_pref":"ﾐﾔｷﾞｹﾝ","kana_city":"ｸﾛｶﾜｸﾞﾝｵｵﾋﾗﾑﾗ","kana_address":"","pref":"宮城県","city":"黒川郡大衡村","address":""},
{"zip_code":"9813601","kana_pref":"ﾐﾔｷﾞｹﾝ","kana_city":"ｸﾛｶﾜｸﾞﾝｵｵﾋﾗﾑﾗ","kana_address":"ｵｵｳﾘ","pref":"宮城県","city":"黒川郡大衡村","address":"大瓜"},
{"zip_code":"9813602","kana_pref":"ﾐﾔｷﾞｹﾝ","kana_city":"ｸﾛｶﾜｸﾞﾝｵｵﾋﾗﾑﾗ","kana_address":"ｵｵﾋﾗ","pref":"宮城県","city":"黒川郡大衡村","address":"大衡"},
{"zip_code":"9813605","kana_pref":"ﾐﾔｷﾞｹﾝ","kana_city":"ｸﾛｶﾜｸﾞﾝｵｵﾋﾗﾑﾗ","kana_address":"ｵｵﾓﾘ","pref":"宮城県","city":"黒川郡大衡村","address":"大森"},
{"zip_code":"9813603","kana_pref":"ﾐﾔｷﾞｹﾝ","kana_city":"ｸﾛｶﾜｸﾞﾝｵｵﾋﾗﾑﾗ","kana_address":"ｵｷﾉﾀﾞｲﾗ","pref":"宮城県","city":"黒川郡大衡村","address":"沖の平"},
{"zip_code":"9813607","kana_pref":"ﾐﾔｷﾞｹﾝ","kana_city":"ｸﾛｶﾜｸﾞﾝｵｵﾋﾗﾑﾗ","kana_address":"ｵｸﾀﾞ","pref":"宮城県","city":"黒川郡大衡村","address":"奥田"},
{"zip_code":"9813606","kana_pref":"ﾐﾔｷﾞｹﾝ","kana_city":"ｸﾛｶﾜｸﾞﾝｵｵﾋﾗﾑﾗ","kana_address":"ｷｷｮｳﾀﾞｲﾗ","pref":"宮城県","city":"黒川郡大衡村","address":"桔梗平"},
{"zip_code":"9813604","kana_pref":"ﾐﾔｷﾞｹﾝ","kana_city":"ｸﾛｶﾜｸﾞﾝｵｵﾋﾗﾑﾗ","kana_address":"ｺﾏﾊﾞ","pref":"宮城県","city":"黒川郡大衡村","address":"駒場"},
{"zip_code":"9813609","kana_pref":"ﾐﾔｷﾞｹﾝ","kana_city":"ｸﾛｶﾜｸﾞﾝｵｵﾋﾗﾑﾗ","kana_address":"ﾁｭｳｵｳﾀﾞｲﾗ","pref":"宮城県","city":"黒川郡大衡村","address":"中央平"},
{"zip_code":"9813611","kana_pref":"ﾐﾔｷﾞｹﾝ","kana_city":"ｸﾛｶﾜｸﾞﾝｵｵﾋﾗﾑﾗ","kana_address":"ﾄｷﾜﾀﾞｲ","pref":"宮城県","city":"黒川郡大衡村","address":"ときわ台"},
{"zip_code":"9813608","kana_pref":"ﾐﾔｷﾞｹﾝ","kana_city":"ｸﾛｶﾜｸﾞﾝｵｵﾋﾗﾑﾗ","kana_address":"ﾏﾂﾉﾀﾞｲﾗ","pref":"宮城県","city":"黒川郡大衡村","address":"松の平"},
{"zip_code":"9814100","kana_pref":"ﾐﾔｷﾞｹﾝ","kana_city":"ｶﾐｸﾞﾝｼｶﾏﾁｮｳ","kana_address":"","pref":"宮城県","city":"加美郡色麻町","address":""},
{"zip_code":"9814121","kana_pref":"ﾐﾔｷﾞｹﾝ","kana_city":"ｶﾐｸﾞﾝｼｶﾏﾁｮｳ","kana_address":"ｲﾁﾉｾｷ","pref":"宮城県","city":"加美郡色麻町","address":"一の関"},
{"zip_code":"9814141","kana_pref":"ﾐﾔｷﾞｹﾝ","kana_city":"ｶﾐｸﾞﾝｼｶﾏﾁｮｳ","kana_address":"ｵｳｼﾞｮｳｼﾞ","pref":"宮城県","city":"加美郡色麻町","address":"王城寺"},
{"zip_code":"9814101","kana_pref":"ﾐﾔｷﾞｹﾝ","kana_city":"ｶﾐｸﾞﾝｼｶﾏﾁｮｳ","kana_address":"ｷﾖﾐｽﾞ","pref":"宮城県","city":"加美郡色麻町","address":"清水"},
{"zip_code":"9814111","kana_pref":"ﾐﾔｷﾞｹﾝ","kana_city":"ｶﾐｸﾞﾝｼｶﾏﾁｮｳ","kana_address":"ｸﾛｻﾜ","pref":"宮城県","city":"加美郡色麻町","address":"黒沢"},
{"zip_code":"9814151","kana_pref":"ﾐﾔｷﾞｹﾝ","kana_city":"ｶﾐｸﾞﾝｼｶﾏﾁｮｳ","kana_address":"ｺｸﾞﾘﾔﾏ","pref":"宮城県","city":"加美郡色麻町","address":"小栗山"},
{"zip_code":"9814122","kana_pref":"ﾐﾔｷﾞｹﾝ","kana_city":"ｶﾐｸﾞﾝｼｶﾏﾁｮｳ","kana_address":"ｼｶﾏ","pref":"宮城県","city":"加美郡色麻町","address":"四竃"},
{"zip_code":"9814112","kana_pref":"ﾐﾔｷﾞｹﾝ","kana_city":"ｶﾐｸﾞﾝｼｶﾏﾁｮｳ","kana_address":"ｼﾂﾞ","pref":"宮城県","city":"加美郡色麻町","address":"志津"},
{"zip_code":"9814131","kana_pref":"ﾐﾔｷﾞｹﾝ","kana_city":"ｶﾐｸﾞﾝｼｶﾏﾁｮｳ","kana_address":"ﾀﾞｲ","pref":"宮城県","city":"加美郡色麻町","address":"大"},
{"zip_code":"9814102","kana_pref":"ﾐﾔｷﾞｹﾝ","kana_city":"ｶﾐｸﾞﾝｼｶﾏﾁｮｳ","kana_address":"ﾀｶｷﾞ","pref":"宮城県","city":"加美郡色麻町","address":"高城"},
{"zip_code":"9814103","kana_pref":"ﾐﾔｷﾞｹﾝ","kana_city":"ｶﾐｸﾞﾝｼｶﾏﾁｮｳ","kana_address":"ﾀｶﾈ","pref":"宮城県","city":"加美郡色麻町","address":"高根"},
{"zip_code":"9814104","kana_pref":"ﾐﾔｷﾞｹﾝ","kana_city":"ｶﾐｸﾞﾝｼｶﾏﾁｮｳ","kana_address":"ﾋﾗｻﾜ","pref":"宮城県","city":"加美郡色麻町","address":"平沢"},
{"zip_code":"9814105","kana_pref":"ﾐﾔｷﾞｹﾝ","kana_city":"ｶﾐｸﾞﾝｼｶﾏﾁｮｳ","kana_address":"ﾖｼﾀﾞ","pref":"宮城県","city":"加美郡色麻町","address":"吉田"},
{"zip_code":"9814200","kana_pref":"ﾐﾔｷﾞｹﾝ","kana_city":"ｶﾐｸﾞﾝｶﾐﾏﾁ","kana_address":"","pref":"宮城県","city":"加美郡加美町","address":""},
{"zip_code":"9814264","kana_pref":"ﾐﾔｷﾞｹﾝ","kana_city":"ｶﾐｸﾞﾝｶﾐﾏﾁ","kana_address":"ｱｶﾂｶ","pref":"宮城県","city":"加美郡加美町","address":"赤塚"},
{"zip_code":"9814375","kana_pref":"ﾐﾔｷﾞｹﾝ","kana_city":"ｶﾐｸﾞﾝｶﾐﾏﾁ","kana_address":"ｱｼﾞｶﾞﾌｸﾛ","pref":"宮城県","city":"加美郡加美町","address":"味ケ袋"},
{"zip_code":"9814275","kana_pref":"ﾐﾔｷﾞｹﾝ","kana_city":"ｶﾐｸﾞﾝｶﾐﾏﾁ","kana_address":"ｱﾅﾊﾀ","pref":"宮城県","city":"加美郡加美町","address":"穴畑"},
{"zip_code":"9814323","kana_pref":"ﾐﾔｷﾞｹﾝ","kana_city":"ｶﾐｸﾞﾝｶﾐﾏﾁ","kana_address":"ｲｼﾊﾗ","pref":"宮城県","city":"加美郡加美町","address":"石原"},
{"zip_code":"9814311","kana_pref":"ﾐﾔｷﾞｹﾝ","kana_city":"ｶﾐｸﾞﾝｶﾐﾏﾁ","kana_address":"ｲﾀﾊﾞｼ","pref":"宮城県","city":"加美郡加美町","address":"板橋"},
{"zip_code":"9814328","kana_pref":"ﾐﾔｷﾞｹﾝ","kana_city":"ｶﾐｸﾞﾝｶﾐﾏﾁ","kana_address":"ｲﾁﾘﾂｶ","pref":"宮城県","city":"加美郡加美町","address":"一里塚"},
{"zip_code":"9814262","kana_pref":"ﾐﾔｷﾞｹﾝ","kana_city":"ｶﾐｸﾞﾝｶﾐﾏﾁ","kana_address":"ｲｯﾎﾟﾝｽｷﾞ","pref":"宮城県","city":"加美郡加美町","address":"一本杉"},
{"zip_code":"9814274","kana_pref":"ﾐﾔｷﾞｹﾝ","kana_city":"ｶﾐｸﾞﾝｶﾐﾏﾁ","kana_address":"ｲｯﾎﾟﾝﾔﾅｷﾞ","pref":"宮城県","city":"加美郡加美町","address":"一本柳"},
{"zip_code":"9814277","kana_pref":"ﾐﾔｷﾞｹﾝ","kana_city":"ｶﾐｸﾞﾝｶﾐﾏﾁ","kana_address":"ｲｯﾎﾟﾝﾔﾅｷﾞﾐﾅﾐ","pref":"宮城県","city":"加美郡加美町","address":"一本柳南"},
{"zip_code":"9814356","kana_pref":"ﾐﾔｷﾞｹﾝ","kana_city":"ｶﾐｸﾞﾝｶﾐﾏﾁ","kana_address":"ｲﾓｻﾞﾜ","pref":"宮城県","city":"加美郡加美町","address":"芋沢"},
{"zip_code":"9814327","kana_pref":"ﾐﾔｷﾞｹﾝ","kana_city":"ｶﾐｸﾞﾝｶﾐﾏﾁ","kana_address":"ｳｴﾉﾊﾗ","pref":"宮城県","city":"加美郡加美町","address":"上野原"},
{"zip_code":"9814343","kana_pref":"ﾐﾔｷﾞｹﾝ","kana_city":"ｶﾐｸﾞﾝｶﾐﾏﾁ","kana_address":"ｳﾁﾔｼﾞ","pref":"宮城県","city":"加美郡加美町","address":"内谷地"},
{"zip_code":"9814368","kana_pref":"ﾐﾔｷﾞｹﾝ","kana_city":"ｶﾐｸﾞﾝｶﾐﾏﾁ","kana_address":"ｳﾙｼｻﾞﾜ","pref":"宮城県","city":"加美郡加美町","address":"漆沢"},
{"zip_code":"9814255","kana_pref":"ﾐﾔｷﾞｹﾝ","kana_city":"ｶﾐｸﾞﾝｶﾐﾏﾁ","kana_address":"ｵｶﾏﾁ","pref":"宮城県","city":"加美郡加美町","address":"岡町"},
{"zip_code":"9814226","kana_pref":"ﾐﾔｷﾞｹﾝ","kana_city":"ｶﾐｸﾞﾝｶﾐﾏﾁ","kana_address":"ｵｼﾄﾒ","pref":"宮城県","city":"加美郡加美町","address":"押登目"},
{"zip_code":"9814228","kana_pref":"ﾐﾔｷﾞｹﾝ","kana_city":"ｶﾐｸﾞﾝｶﾐﾏﾁ","kana_address":"ｶｼﾏｺﾞｼ","pref":"宮城県","city":"加美郡加美町","address":"鹿島越"},
{"zip_code":"9814367","kana_pref":"ﾐﾔｷﾞｹﾝ","kana_city":"ｶﾐｸﾞﾝｶﾐﾏﾁ","kana_address":"ｶﾄﾞｻﾜ","pref":"宮城県","city":"加美郡加美町","address":"門沢"},
{"zip_code":"9814355","kana_pref":"ﾐﾔｷﾞｹﾝ","kana_city":"ｶﾐｸﾞﾝｶﾐﾏﾁ","kana_address":"ｶﾉﾊﾗ","pref":"宮城県","city":"加美郡加美町","address":"鹿原"},
{"zip_code":"9814211","kana_pref":"ﾐﾔｷﾞｹﾝ","kana_city":"ｶﾐｸﾞﾝｶﾐﾏﾁ","kana_address":"ｶﾐｵｲﾉﾂﾞｶ","pref":"宮城県","city":"加美郡加美町","address":"上狼塚"},
{"zip_code":"9814273","kana_pref":"ﾐﾔｷﾞｹﾝ","kana_city":"ｶﾐｸﾞﾝｶﾐﾏﾁ","kana_address":"ｶﾐｶﾜﾗ","pref":"宮城県","city":"加美郡加美町","address":"上川原"},
{"zip_code":"9814201","kana_pref":"ﾐﾔｷﾞｹﾝ","kana_city":"ｶﾐｸﾞﾝｶﾐﾏﾁ","kana_address":"ｶﾐﾀﾀﾞｶﾞﾜ","pref":"宮城県","city":"加美郡加美町","address":"上多田川"},
{"zip_code":"9814374","kana_pref":"ﾐﾔｷﾞｹﾝ","kana_city":"ｶﾐｸﾞﾝｶﾐﾏﾁ","kana_address":"ｶﾐﾉﾒ","pref":"宮城県","city":"加美郡加美町","address":"上野目"},
{"zip_code":"9814263","kana_pref":"ﾐﾔｷﾞｹﾝ","kana_city":"ｶﾐｸﾞﾝｶﾐﾏﾁ","kana_address":"ｶﾞﾝﾊﾞﾗ","pref":"宮城県","city":"加美郡加美町","address":"雁原"},
{"zip_code":"9814402","kana_pref":"ﾐﾔｷﾞｹﾝ","kana_city":"ｶﾐｸﾞﾝｶﾐﾏﾁ","kana_address":"ｷﾀｶﾜｳﾁ","pref":"宮城県","city":"加美郡加美町","address":"北川内"},
{"zip_code":"9814322","kana_pref":"ﾐﾔｷﾞｹﾝ","kana_city":"ｶﾐｸﾞﾝｶﾐﾏﾁ","kana_address":"ｷﾀｼﾓﾊﾗ","pref":"宮城県","city":"加美郡加美町","address":"北下原"},
{"zip_code":"9814307","kana_pref":"ﾐﾔｷﾞｹﾝ","kana_city":"ｶﾐｸﾞﾝｶﾐﾏﾁ","kana_address":"ｷﾀﾀﾞ","pref":"宮城県","city":"加美郡加美町","address":"北田"},
{"zip_code":"9814331","kana_pref":"ﾐﾔｷﾞｹﾝ","kana_city":"ｶﾐｸﾞﾝｶﾐﾏﾁ","kana_address":"ｷﾀﾃﾗｼｭｸ","pref":"宮城県","city":"加美郡加美町","address":"北寺宿"},
{"zip_code":"9814326","kana_pref":"ﾐﾔｷﾞｹﾝ","kana_city":"ｶﾐｸﾞﾝｶﾐﾏﾁ","kana_address":"ｷﾀﾉｸﾁ","pref":"宮城県","city":"加美郡加美町","address":"北ノ口"},
{"zip_code":"9814324","kana_pref":"ﾐﾔｷﾞｹﾝ","kana_city":"ｶﾐｸﾞﾝｶﾐﾏﾁ","kana_address":"ｷﾀﾊﾗ","pref":"宮城県","city":"加美郡加美町","address":"北原"},
{"zip_code":"9814254","kana_pref":"ﾐﾔｷﾞｹﾝ","kana_city":"ｶﾐｸﾞﾝｶﾐﾏﾁ","kana_address":"ｷﾀﾏﾁ","pref":"宮城県","city":"加美郡加美町","address":"北町"},
{"zip_code":"9814224","kana_pref":"ﾐﾔｷﾞｹﾝ","kana_city":"ｶﾐｸﾞﾝｶﾐﾏﾁ","kana_address":"ｷｯﾌﾟｼ","pref":"宮城県","city":"加美郡加美町","address":"木伏"},
{"zip_code":"9814419","kana_pref":"ﾐﾔｷﾞｹﾝ","kana_city":"ｶﾐｸﾞﾝｶﾐﾏﾁ","kana_address":"ｷﾌﾞﾈ","pref":"宮城県","city":"加美郡加美町","address":"木舟"},
{"zip_code":"9814417","kana_pref":"ﾐﾔｷﾞｹﾝ","kana_city":"ｶﾐｸﾞﾝｶﾐﾏﾁ","kana_address":"ｷﾐｶﾞﾌｸﾛ","pref":"宮城県","city":"加美郡加美町","address":"君ケ袋"},
{"zip_code":"9814234","kana_pref":"ﾐﾔｷﾞｹﾝ","kana_city":"ｶﾐｸﾞﾝｶﾐﾏﾁ","kana_address":"ｷｭｳｶﾝ1ﾊﾞﾝ","pref":"宮城県","city":"加美郡加美町","address":"旧舘１番"},
{"zip_code":"9814235","kana_pref":"ﾐﾔｷﾞｹﾝ","kana_city":"ｶﾐｸﾞﾝｶﾐﾏﾁ","kana_address":"ｷｭｳｶﾝ2ﾊﾞﾝ","pref":"宮城県","city":"加美郡加美町","address":"旧舘２番"},
{"zip_code":"9814304","kana_pref":"ﾐﾔｷﾞｹﾝ","kana_city":"ｶﾐｸﾞﾝｶﾐﾏﾁ","kana_address":"ｸﾎﾞ","pref":"宮城県","city":"加美郡加美町","address":"久保"},
{"zip_code":"9814418","kana_pref":"ﾐﾔｷﾞｹﾝ","kana_city":"ｶﾐｸﾞﾝｶﾐﾏﾁ","kana_address":"ｺｲｽﾞﾐ","pref":"宮城県","city":"加美郡加美町","address":"小泉"},
{"zip_code":"9814362","kana_pref":"ﾐﾔｷﾞｹﾝ","kana_city":"ｶﾐｸﾞﾝｶﾐﾏﾁ","kana_address":"ｺｾﾞ","pref":"宮城県","city":"加美郡加美町","address":"小瀬"},
{"zip_code":"9814325","kana_pref":"ﾐﾔｷﾞｹﾝ","kana_city":"ｶﾐｸﾞﾝｶﾐﾏﾁ","kana_address":"ｺﾞﾋｬｸｶﾞﾘ","pref":"宮城県","city":"加美郡加美町","address":"五百刈"},
{"zip_code":"9814415","kana_pref":"ﾐﾔｷﾞｹﾝ","kana_city":"ｶﾐｸﾞﾝｶﾐﾏﾁ","kana_address":"ｺﾒｲｽﾞﾐ","pref":"宮城県","city":"加美郡加美町","address":"米泉"},
{"zip_code":"9814212","kana_pref":"ﾐﾔｷﾞｹﾝ","kana_city":"ｶﾐｸﾞﾝｶﾐﾏﾁ","kana_address":"ｼﾓｵｲﾉﾂﾞｶ","pref":"宮城県","city":"加美郡加美町","address":"下狼塚"},
{"zip_code":"9814256","kana_pref":"ﾐﾔｷﾞｹﾝ","kana_city":"ｶﾐｸﾞﾝｶﾐﾏﾁ","kana_address":"ｼﾓｶﾜﾗ","pref":"宮城県","city":"加美郡加美町","address":"下川原"},
{"zip_code":"9814345","kana_pref":"ﾐﾔｷﾞｹﾝ","kana_city":"ｶﾐｸﾞﾝｶﾐﾏﾁ","kana_address":"ｼﾓｷﾀｳﾗ","pref":"宮城県","city":"加美郡加美町","address":"下北浦"},
{"zip_code":"9814336","kana_pref":"ﾐﾔｷﾞｹﾝ","kana_city":"ｶﾐｸﾞﾝｶﾐﾏﾁ","kana_address":"ｼﾓﾀｶﾜﾊﾗ","pref":"宮城県","city":"加美郡加美町","address":"下タ川原"},
{"zip_code":"9814202","kana_pref":"ﾐﾔｷﾞｹﾝ","kana_city":"ｶﾐｸﾞﾝｶﾐﾏﾁ","kana_address":"ｼﾓﾀﾀﾞｶﾞﾜ","pref":"宮城県","city":"加美郡加美町","address":"下多田川"},
{"zip_code":"9814222","kana_pref":"ﾐﾔｷﾞｹﾝ","kana_city":"ｶﾐｸﾞﾝｶﾐﾏﾁ","kana_address":"ｼﾓﾆｲﾀﾞ","pref":"宮城県","city":"加美郡加美町","address":"下新田"},
{"zip_code":"9814302","kana_pref":"ﾐﾔｷﾞｹﾝ","kana_city":"ｶﾐｸﾞﾝｶﾐﾏﾁ","kana_address":"ｼﾓﾉﾒ","pref":"宮城県","city":"加美郡加美町","address":"下野目"},
{"zip_code":"9814321","kana_pref":"ﾐﾔｷﾞｹﾝ","kana_city":"ｶﾐｸﾞﾝｶﾐﾏﾁ","kana_address":"ｼﾓﾊﾗ","pref":"宮城県","city":"加美郡加美町","address":"下原"},
{"zip_code":"9814272","kana_pref":"ﾐﾔｷﾞｹﾝ","kana_city":"ｶﾐｸﾞﾝｶﾐﾏﾁ","kana_address":"ｼﾞｮｳ","pref":"宮城県","city":"加美郡加美町","address":"城生"},
{"zip_code":"9814227","kana_pref":"ﾐﾔｷﾞｹﾝ","kana_city":"ｶﾐｸﾞﾝｶﾐﾏﾁ","kana_address":"ｼﾝｶﾜﾗ","pref":"宮城県","city":"加美郡加美町","address":"新川原"},
{"zip_code":"9814225","kana_pref":"ﾐﾔｷﾞｹﾝ","kana_city":"ｶﾐｸﾞﾝｶﾐﾏﾁ","kana_address":"ｼﾝｷﾂﾌﾟｼ","pref":"宮城県","city":"加美郡加美町","address":"新木伏"},
{"zip_code":"9814335","kana_pref":"ﾐﾔｷﾞｹﾝ","kana_city":"ｶﾐｸﾞﾝｶﾐﾏﾁ","kana_address":"ｼﾝｺｳｼﾞ","pref":"宮城県","city":"加美郡加美町","address":"新小路"},
{"zip_code":"9814317","kana_pref":"ﾐﾔｷﾞｹﾝ","kana_city":"ｶﾐｸﾞﾝｶﾐﾏﾁ","kana_address":"ｼﾝｻﾞﾝﾆｼ","pref":"宮城県","city":"加美郡加美町","address":"神山西"},
{"zip_code":"9814223","kana_pref":"ﾐﾔｷﾞｹﾝ","kana_city":"ｶﾐｸﾞﾝｶﾐﾏﾁ","kana_address":"ｿﾞｳｼｷﾉﾒ","pref":"宮城県","city":"加美郡加美町","address":"雑式ノ目"},
{"zip_code":"9814253","kana_pref":"ﾐﾔｷﾞｹﾝ","kana_city":"ｶﾐｸﾞﾝｶﾐﾏﾁ","kana_address":"ﾀﾞｲﾓﾝ","pref":"宮城県","city":"加美郡加美町","address":"大門"},
{"zip_code":"9814363","kana_pref":"ﾐﾔｷﾞｹﾝ","kana_city":"ｶﾐｸﾞﾝｶﾐﾏﾁ","kana_address":"ﾀｷｼﾀ","pref":"宮城県","city":"加美郡加美町","address":"滝下"},
{"zip_code":"9814314","kana_pref":"ﾐﾔｷﾞｹﾝ","kana_city":"ｶﾐｸﾞﾝｶﾐﾏﾁ","kana_address":"ﾀﾅｶ","pref":"宮城県","city":"加美郡加美町","address":"田中"},
{"zip_code":"9814372","kana_pref":"ﾐﾔｷﾞｹﾝ","kana_city":"ｶﾐｸﾞﾝｶﾐﾏﾁ","kana_address":"ﾁｮｳｼﾐｽﾞ","pref":"宮城県","city":"加美郡加美町","address":"長清水"},
{"zip_code":"9814312","kana_pref":"ﾐﾔｷﾞｹﾝ","kana_city":"ｶﾐｸﾞﾝｶﾐﾏﾁ","kana_address":"ﾂｷｻﾞｷ","pref":"宮城県","city":"加美郡加美町","address":"月崎"},
{"zip_code":"9814316","kana_pref":"ﾐﾔｷﾞｹﾝ","kana_city":"ｶﾐｸﾞﾝｶﾐﾏﾁ","kana_address":"ﾂｷｻﾞｷ","pref":"宮城県","city":"加美郡加美町","address":"月崎"},
{"zip_code":"9814329","kana_pref":"ﾐﾔｷﾞｹﾝ","kana_city":"ｶﾐｸﾞﾝｶﾐﾏﾁ","kana_address":"ﾂﾙﾊﾞﾐ","pref":"宮城県","city":"加美郡加美町","address":"鶴喰"},
{"zip_code":"9814329","kana_pref":"ﾐﾔｷﾞｹﾝ","kana_city":"ｶﾐｸﾞﾝｶﾐﾏﾁ","kana_address":"ﾂﾙﾊﾞﾐ","pref":"宮城県","city":"加美郡加美町","address":"鶴羽美"},
{"zip_code":"9814353","kana_pref":"ﾐﾔｷﾞｹﾝ","kana_city":"ｶﾐｸﾞﾝｶﾐﾏﾁ","kana_address":"ﾃﾙｲ","pref":"宮城県","city":"加美郡加美町","address":"照井"},
{"zip_code":"9814306","kana_pref":"ﾐﾔｷﾞｹﾝ","kana_city":"ｶﾐｸﾞﾝｶﾐﾏﾁ","kana_address":"ﾃﾝﾉｳ","pref":"宮城県","city":"加美郡加美町","address":"天王"},
{"zip_code":"9814301","kana_pref":"ﾐﾔｷﾞｹﾝ","kana_city":"ｶﾐｸﾞﾝｶﾐﾏﾁ","kana_address":"ﾄｲﾀﾞ","pref":"宮城県","city":"加美郡加美町","address":"樋田"},
{"zip_code":"9814361","kana_pref":"ﾐﾔｷﾞｹﾝ","kana_city":"ｶﾐｸﾞﾝｶﾐﾏﾁ","kana_address":"ﾄｳﾍﾞｲﾏｴ","pref":"宮城県","city":"加美郡加美町","address":"藤兵衛前"},
{"zip_code":"9814231","kana_pref":"ﾐﾔｷﾞｹﾝ","kana_city":"ｶﾐｸﾞﾝｶﾐﾏﾁ","kana_address":"ﾄﾞｳﾒｷ1ﾊﾞﾝ","pref":"宮城県","city":"加美郡加美町","address":"百目木１番"},
{"zip_code":"9814232","kana_pref":"ﾐﾔｷﾞｹﾝ","kana_city":"ｶﾐｸﾞﾝｶﾐﾏﾁ","kana_address":"ﾄﾞｳﾒｷ2ﾊﾞﾝ","pref":"宮城県","city":"加美郡加美町","address":"百目木２番"},
{"zip_code":"9814233","kana_pref":"ﾐﾔｷﾞｹﾝ","kana_city":"ｶﾐｸﾞﾝｶﾐﾏﾁ","kana_address":"ﾄﾞｳﾒｷ3ﾊﾞﾝ","pref":"宮城県","city":"加美郡加美町","address":"百目木３番"},
{"zip_code":"9814412","kana_pref":"ﾐﾔｷﾞｹﾝ","kana_city":"ｶﾐｸﾞﾝｶﾐﾏﾁ","kana_address":"ﾄﾘｼﾏ","pref":"宮城県","city":"加美郡加美町","address":"鳥嶋"},
{"zip_code":"9814413","kana_pref":"ﾐﾔｷﾞｹﾝ","kana_city":"ｶﾐｸﾞﾝｶﾐﾏﾁ","kana_address":"ﾄﾘﾔｶﾞｻｷ","pref":"宮城県","city":"加美郡加美町","address":"鳥屋ケ崎"},
{"zip_code":"9814315","kana_pref":"ﾐﾔｷﾞｹﾝ","kana_city":"ｶﾐｸﾞﾝｶﾐﾏﾁ","kana_address":"ﾅｶｼﾞﾏ","pref":"宮城県","city":"加美郡加美町","address":"中嶋"},
{"zip_code":"9814337","kana_pref":"ﾐﾔｷﾞｹﾝ","kana_city":"ｶﾐｸﾞﾝｶﾐﾏﾁ","kana_address":"ﾅｶﾞﾀﾞﾝ","pref":"宮城県","city":"加美郡加美町","address":"長檀"},
{"zip_code":"9814333","kana_pref":"ﾐﾔｷﾞｹﾝ","kana_city":"ｶﾐｸﾞﾝｶﾐﾏﾁ","kana_address":"ﾅｶﾊﾀ","pref":"宮城県","city":"加美郡加美町","address":"中畑"},
{"zip_code":"9814341","kana_pref":"ﾐﾔｷﾞｹﾝ","kana_city":"ｶﾐｸﾞﾝｶﾐﾏﾁ","kana_address":"ﾅｶﾊﾗ","pref":"宮城県","city":"加美郡加美町","address":"中原"},
{"zip_code":"9814203","kana_pref":"ﾐﾔｷﾞｹﾝ","kana_city":"ｶﾐｸﾞﾝｶﾐﾏﾁ","kana_address":"ﾅｷﾞﾘﾔ","pref":"宮城県","city":"加美郡加美町","address":"菜切谷"},
{"zip_code":"9814252","kana_pref":"ﾐﾔｷﾞｹﾝ","kana_city":"ｶﾐｸﾞﾝｶﾐﾏﾁ","kana_address":"ﾆｼﾀﾞ","pref":"宮城県","city":"加美郡加美町","address":"西田"},
{"zip_code":"9814251","kana_pref":"ﾐﾔｷﾞｹﾝ","kana_city":"ｶﾐｸﾞﾝｶﾐﾏﾁ","kana_address":"ﾆｼﾏﾁ","pref":"宮城県","city":"加美郡加美町","address":"西町"},
{"zip_code":"9814313","kana_pref":"ﾐﾔｷﾞｹﾝ","kana_city":"ｶﾐｸﾞﾝｶﾐﾏﾁ","kana_address":"ﾆﾉﾂﾎﾞ","pref":"宮城県","city":"加美郡加美町","address":"二ノ坪"},
{"zip_code":"9814416","kana_pref":"ﾐﾔｷﾞｹﾝ","kana_city":"ｶﾐｸﾞﾝｶﾐﾏﾁ","kana_address":"ﾇﾏｶﾞﾌｸﾛ","pref":"宮城県","city":"加美郡加美町","address":"沼ケ袋"},
{"zip_code":"9814365","kana_pref":"ﾐﾔｷﾞｹﾝ","kana_city":"ｶﾐｸﾞﾝｶﾐﾏﾁ","kana_address":"ﾊｸｼﾞ","pref":"宮城県","city":"加美郡加美町","address":"伯治"},
{"zip_code":"9814352","kana_pref":"ﾐﾔｷﾞｹﾝ","kana_city":"ｶﾐｸﾞﾝｶﾐﾏﾁ","kana_address":"ﾊｯｺｸｼﾀ","pref":"宮城県","city":"加美郡加美町","address":"八石下"},
{"zip_code":"9814271","kana_pref":"ﾐﾔｷﾞｹﾝ","kana_city":"ｶﾐｸﾞﾝｶﾐﾏﾁ","kana_address":"ﾊﾊﾞ","pref":"宮城県","city":"加美郡加美町","address":"羽場"},
{"zip_code":"9814371","kana_pref":"ﾐﾔｷﾞｹﾝ","kana_city":"ｶﾐｸﾞﾝｶﾐﾏﾁ","kana_address":"ﾊﾗ","pref":"宮城県","city":"加美郡加美町","address":"原"},
{"zip_code":"9814347","kana_pref":"ﾐﾔｷﾞｹﾝ","kana_city":"ｶﾐｸﾞﾝｶﾐﾏﾁ","kana_address":"ﾊﾗﾀｶﾔｼﾞﾔｼｷ","pref":"宮城県","city":"加美郡加美町","address":"原高谷地屋敷"},
{"zip_code":"9814342","kana_pref":"ﾐﾔｷﾞｹﾝ","kana_city":"ｶﾐｸﾞﾝｶﾐﾏﾁ","kana_address":"ﾊﾗﾅｶﾊﾗｳﾗ","pref":"宮城県","city":"加美郡加美町","address":"原中原浦"},
{"zip_code":"9814373","kana_pref":"ﾐﾔｷﾞｹﾝ","kana_city":"ｶﾐｸﾞﾝｶﾐﾏﾁ","kana_address":"ﾊﾗﾏﾁ","pref":"宮城県","city":"加美郡加美町","address":"原町"},
{"zip_code":"9814344","kana_pref":"ﾐﾔｷﾞｹﾝ","kana_city":"ｶﾐｸﾞﾝｶﾐﾏﾁ","kana_address":"ﾊﾗﾐﾁﾊﾞﾀﾔｼｷ","pref":"宮城県","city":"加美郡加美町","address":"原道端屋敷"},
{"zip_code":"9814346","kana_pref":"ﾐﾔｷﾞｹﾝ","kana_city":"ｶﾐｸﾞﾝｶﾐﾏﾁ","kana_address":"ﾊﾗﾐﾅﾐｴﾊﾞﾀ","pref":"宮城県","city":"加美郡加美町","address":"原南江端"},
{"zip_code":"9814213","kana_pref":"ﾐﾔｷﾞｹﾝ","kana_city":"ｶﾐｸﾞﾝｶﾐﾏﾁ","kana_address":"ﾋﾗﾔﾅｷﾞ","pref":"宮城県","city":"加美郡加美町","address":"平柳"},
{"zip_code":"9814354","kana_pref":"ﾐﾔｷﾞｹﾝ","kana_city":"ｶﾐｸﾞﾝｶﾐﾏﾁ","kana_address":"ﾌﾓﾄﾔﾏ","pref":"宮城県","city":"加美郡加美町","address":"麓山"},
{"zip_code":"9814303","kana_pref":"ﾐﾔｷﾞｹﾝ","kana_city":"ｶﾐｸﾞﾝｶﾐﾏﾁ","kana_address":"ﾏｴﾀﾞｼﾓ","pref":"宮城県","city":"加美郡加美町","address":"前田下"},
{"zip_code":"9814414","kana_pref":"ﾐﾔｷﾞｹﾝ","kana_city":"ｶﾐｸﾞﾝｶﾐﾏﾁ","kana_address":"ﾏｺﾞｻﾜ","pref":"宮城県","city":"加美郡加美町","address":"孫沢"},
{"zip_code":"9814261","kana_pref":"ﾐﾔｷﾞｹﾝ","kana_city":"ｶﾐｸﾞﾝｶﾐﾏﾁ","kana_address":"ﾏﾁｳﾗ","pref":"宮城県","city":"加美郡加美町","address":"町裏"},
{"zip_code":"9814242","kana_pref":"ﾐﾔｷﾞｹﾝ","kana_city":"ｶﾐｸﾞﾝｶﾐﾏﾁ","kana_address":"ﾏﾁﾆｼ","pref":"宮城県","city":"加美郡加美町","address":"町西"},
{"zip_code":"9814334","kana_pref":"ﾐﾔｷﾞｹﾝ","kana_city":"ｶﾐｸﾞﾝｶﾐﾏﾁ","kana_address":"ﾏﾁﾔｼｷ","pref":"宮城県","city":"加美郡加美町","address":"町屋敷"},
{"zip_code":"9814364","kana_pref":"ﾐﾔｷﾞｹﾝ","kana_city":"ｶﾐｸﾞﾝｶﾐﾏﾁ","kana_address":"ﾏﾂﾀ","pref":"宮城県","city":"加美郡加美町","address":"松田"},
{"zip_code":"9814366","kana_pref":"ﾐﾔｷﾞｹﾝ","kana_city":"ｶﾐｸﾞﾝｶﾐﾏﾁ","kana_address":"ﾐｽﾞｲﾓ","pref":"宮城県","city":"加美郡加美町","address":"水芋"},
{"zip_code":"9814351","kana_pref":"ﾐﾔｷﾞｹﾝ","kana_city":"ｶﾐｸﾞﾝｶﾐﾏﾁ","kana_address":"ﾐﾅﾐｺｳｼﾞ","pref":"宮城県","city":"加美郡加美町","address":"南小路"},
{"zip_code":"9814332","kana_pref":"ﾐﾔｷﾞｹﾝ","kana_city":"ｶﾐｸﾞﾝｶﾐﾏﾁ","kana_address":"ﾐﾅﾐﾃﾗｼｭｸ","pref":"宮城県","city":"加美郡加美町","address":"南寺宿"},
{"zip_code":"9814241","kana_pref":"ﾐﾔｷﾞｹﾝ","kana_city":"ｶﾐｸﾞﾝｶﾐﾏﾁ","kana_address":"ﾐﾅﾐﾏﾁ","pref":"宮城県","city":"加美郡加美町","address":"南町"},
{"zip_code":"9814401","kana_pref":"ﾐﾔｷﾞｹﾝ","kana_city":"ｶﾐｸﾞﾝｶﾐﾏﾁ","kana_address":"ﾐﾔｻﾞｷ","pref":"宮城県","city":"加美郡加美町","address":"宮崎"},
{"zip_code":"9814305","kana_pref":"ﾐﾔｷﾞｹﾝ","kana_city":"ｶﾐｸﾞﾝｶﾐﾏﾁ","kana_address":"ﾐﾔﾀ","pref":"宮城県","city":"加美郡加美町","address":"宮田"},
{"zip_code":"9814276","kana_pref":"ﾐﾔｷﾞｹﾝ","kana_city":"ｶﾐｸﾞﾝｶﾐﾏﾁ","kana_address":"ﾔｷﾊｼ","pref":"宮城県","city":"加美郡加美町","address":"焼橋"},
{"zip_code":"9814229","kana_pref":"ﾐﾔｷﾞｹﾝ","kana_city":"ｶﾐｸﾞﾝｶﾐﾏﾁ","kana_address":"ﾔｸｼﾄﾞｳ","pref":"宮城県","city":"加美郡加美町","address":"薬師堂"},
{"zip_code":"9814265","kana_pref":"ﾐﾔｷﾞｹﾝ","kana_city":"ｶﾐｸﾞﾝｶﾐﾏﾁ","kana_address":"ﾔｺﾞｼ","pref":"宮城県","city":"加美郡加美町","address":"矢越"},
{"zip_code":"9814411","kana_pref":"ﾐﾔｷﾞｹﾝ","kana_city":"ｶﾐｸﾞﾝｶﾐﾏﾁ","kana_address":"ﾔﾁﾓﾘ","pref":"宮城県","city":"加美郡加美町","address":"谷地森"},
{"zip_code":"9814403","kana_pref":"ﾐﾔｷﾞｹﾝ","kana_city":"ｶﾐｸﾞﾝｶﾐﾏﾁ","kana_address":"ﾔﾅｷﾞｻﾜ","pref":"宮城県","city":"加美郡加美町","address":"柳沢"},
{"zip_code":"9814221","kana_pref":"ﾐﾔｷﾞｹﾝ","kana_city":"ｶﾐｸﾞﾝｶﾐﾏﾁ","kana_address":"ﾖｯｶｲﾁﾊﾞ","pref":"宮城県","city":"加美郡加美町","address":"四日市場"}]}