{"zip_code":[
{"zip_code":"9820261","kana_pref":"ﾐﾔｷﾞｹﾝ","kana_city":"ｾﾝﾀﾞｲｼｱｵﾊﾞｸ","kana_address":"ｵﾘﾀﾃ","pref":"宮城県","city":"仙台市青葉区","address":"折立"},
{"zip_code":"9820262","kana_pref":"ﾐﾔｷﾞｹﾝ","kana_city":"ｾﾝﾀﾞｲｼｱｵﾊﾞｸ","kana_address":"ｾｲｶｴﾝ","pref":"宮城県","city":"仙台市青葉区","address":"西花苑"},
{"zip_code":"9820263","kana_pref":"ﾐﾔｷﾞｹﾝ","kana_city":"ｾﾝﾀﾞｲｼｱｵﾊﾞｸ","kana_address":"ﾓﾆﾜ","pref":"宮城県","city":"仙台市青葉区","address":"茂庭"},
{"zip_code":"9820000","kana_pref":"ﾐﾔｷﾞｹﾝ","kana_city":"ｾﾝﾀﾞｲｼﾀｲﾊｸｸ","kana_address":"","pref":"宮城県","city":"仙台市太白区","address":""},
{"zip_code":"9820834","kana_pref":"ﾐﾔｷﾞｹﾝ","kana_city":"ｾﾝﾀﾞｲｼﾀｲﾊｸｸ","kana_address":"ｱｵﾔﾏ","pref":"宮城県","city":"仙台市太白区","address":"青山"},
{"zip_code":"9820242","kana_pref":"ﾐﾔｷﾞｹﾝ","kana_city":"ｾﾝﾀﾞｲｼﾀｲﾊｸｸ","kana_address":"ｱｷｳﾏﾁｻｶｲﾉ","pref":"宮城県","city":"仙台市太白区","address":"秋保町境野"},
{"zip_code":"9820243","kana_pref":"ﾐﾔｷﾞｹﾝ","kana_city":"ｾﾝﾀﾞｲｼﾀｲﾊｸｸ","kana_address":"ｱｷｳﾏﾁﾅｶﾞﾌｸﾛ","pref":"宮城県","city":"仙台市太白区","address":"秋保町長袋"},
{"zip_code":"9820244","kana_pref":"ﾐﾔｷﾞｹﾝ","kana_city":"ｾﾝﾀﾞｲｼﾀｲﾊｸｸ","kana_address":"ｱｷｳﾏﾁﾊﾞﾊﾞ","pref":"宮城県","city":"仙台市太白区","address":"秋保町馬場"},
{"zip_code":"9820245","kana_pref":"ﾐﾔｷﾞｹﾝ","kana_city":"ｾﾝﾀﾞｲｼﾀｲﾊｸｸ","kana_address":"ｱｷｳﾏﾁﾕﾑｶｲ","pref":"宮城県","city":"仙台市太白区","address":"秋保町湯向"},
{"zip_code":"9820241","kana_pref":"ﾐﾔｷﾞｹﾝ","kana_city":"ｾﾝﾀﾞｲｼﾀｲﾊｸｸ","kana_address":"ｱｷｳﾏﾁﾕﾓﾄ","pref":"宮城県","city":"仙台市太白区","address":"秋保町湯元"},
{"zip_code":"9820824","kana_pref":"ﾐﾔｷﾞｹﾝ","kana_city":"ｾﾝﾀﾞｲｼﾀｲﾊｸｸ","kana_address":"ｱｼﾉｸﾁ","pref":"宮城県","city":"仙台市太白区","address":"芦の口"},
{"zip_code":"9820007","kana_pref":"ﾐﾔｷﾞｹﾝ","kana_city":"ｾﾝﾀﾞｲｼﾀｲﾊｸｸ","kana_address":"ｱｽﾄﾅｶﾞﾏﾁ","pref":"宮城県","city":"仙台市太白区","address":"あすと長町"},
{"zip_code":"9820002","kana_pref":"ﾐﾔｷﾞｹﾝ","kana_city":"ｾﾝﾀﾞｲｼﾀｲﾊｸｸ","kana_address":"ｲｲﾀﾞ","pref":"宮城県","city":"仙台市太白区","address":"飯田"},
{"zip_code":"9820031","kana_pref":"ﾐﾔｷﾞｹﾝ","kana_city":"ｾﾝﾀﾞｲｼﾀｲﾊｸｸ","kana_address":"ｲｽﾞﾐｻﾞｷ","pref":"宮城県","city":"仙台市太白区","address":"泉崎"},
{"zip_code":"9820027","kana_pref":"ﾐﾔｷﾞｹﾝ","kana_city":"ｾﾝﾀﾞｲｼﾀｲﾊｸｸ","kana_address":"ｵｵﾄﾔﾏﾁ","pref":"宮城県","city":"仙台市太白区","address":"大塒町"},
{"zip_code":"9820014","kana_pref":"ﾐﾔｷﾞｹﾝ","kana_city":"ｾﾝﾀﾞｲｼﾀｲﾊｸｸ","kana_address":"ｵｵﾉﾀﾞ","pref":"宮城県","city":"仙台市太白区","address":"大野田"},
{"zip_code":"9820035","kana_pref":"ﾐﾔｷﾞｹﾝ","kana_city":"ｾﾝﾀﾞｲｼﾀｲﾊｸｸ","kana_address":"ｵｵﾔﾁ","pref":"宮城県","city":"仙台市太白区","address":"大谷地"},
{"zip_code":"9820804","kana_pref":"ﾐﾔｷﾞｹﾝ","kana_city":"ｾﾝﾀﾞｲｼﾀｲﾊｸｸ","kana_address":"ｶｷﾞﾄﾘ","pref":"宮城県","city":"仙台市太白区","address":"鈎取"},
{"zip_code":"9820805","kana_pref":"ﾐﾔｷﾞｹﾝ","kana_city":"ｾﾝﾀﾞｲｼﾀｲﾊｸｸ","kana_address":"ｶｷﾞﾄﾘﾎﾝﾁｮｳ","pref":"宮城県","city":"仙台市太白区","address":"鈎取本町"},
{"zip_code":"9820023","kana_pref":"ﾐﾔｷﾞｹﾝ","kana_city":"ｾﾝﾀﾞｲｼﾀｲﾊｸｸ","kana_address":"ｶﾉ","pref":"宮城県","city":"仙台市太白区","address":"鹿野"},
{"zip_code":"9820022","kana_pref":"ﾐﾔｷﾞｹﾝ","kana_city":"ｾﾝﾀﾞｲｼﾀｲﾊｸｸ","kana_address":"ｶﾉﾎﾝﾁｮｳ","pref":"宮城県","city":"仙台市太白区","address":"鹿野本町"},
{"zip_code":"9820812","kana_pref":"ﾐﾔｷﾞｹﾝ","kana_city":"ｾﾝﾀﾞｲｼﾀｲﾊｸｸ","kana_address":"ｶﾐﾉﾔﾏ","pref":"宮城県","city":"仙台市太白区","address":"上野山"},
{"zip_code":"9820823","kana_pref":"ﾐﾔｷﾞｹﾝ","kana_city":"ｾﾝﾀﾞｲｼﾀｲﾊｸｸ","kana_address":"ｹｲﾜﾏﾁ","pref":"宮城県","city":"仙台市太白区","address":"恵和町"},
{"zip_code":"9820842","kana_pref":"ﾐﾔｷﾞｹﾝ","kana_city":"ｾﾝﾀﾞｲｼﾀｲﾊｸｸ","kana_address":"ｺｴｼﾞ","pref":"宮城県","city":"仙台市太白区","address":"越路"},
{"zip_code":"9820003","kana_pref":"ﾐﾔｷﾞｹﾝ","kana_city":"ｾﾝﾀﾞｲｼﾀｲﾊｸｸ","kana_address":"ｺｵﾘﾔﾏ","pref":"宮城県","city":"仙台市太白区","address":"郡山"},
{"zip_code":"9820803","kana_pref":"ﾐﾔｷﾞｹﾝ","kana_city":"ｾﾝﾀﾞｲｼﾀｲﾊｸｸ","kana_address":"ｺﾝｺﾞｳｻﾜ","pref":"宮城県","city":"仙台市太白区","address":"金剛沢"},
{"zip_code":"9820835","kana_pref":"ﾐﾔｷﾞｹﾝ","kana_city":"ｾﾝﾀﾞｲｼﾀｲﾊｸｸ","kana_address":"ｻｸﾗｷﾞﾏﾁ","pref":"宮城県","city":"仙台市太白区","address":"桜木町"},
{"zip_code":"9820211","kana_pref":"ﾐﾔｷﾞｹﾝ","kana_city":"ｾﾝﾀﾞｲｼﾀｲﾊｸｸ","kana_address":"ｻﾎﾔﾏ","pref":"宮城県","city":"仙台市太白区","address":"佐保山"},
{"zip_code":"9820025","kana_pref":"ﾐﾔｷﾞｹﾝ","kana_city":"ｾﾝﾀﾞｲｼﾀｲﾊｸｸ","kana_address":"ｽﾅｵｼﾏﾁ","pref":"宮城県","city":"仙台市太白区","address":"砂押町"},
{"zip_code":"9820024","kana_pref":"ﾐﾔｷﾞｹﾝ","kana_city":"ｾﾝﾀﾞｲｼﾀｲﾊｸｸ","kana_address":"ｽﾅｵｼﾐﾅﾐﾏﾁ","pref":"宮城県","city":"仙台市太白区","address":"砂押南町"},
{"zip_code":"9820005","kana_pref":"ﾐﾔｷﾞｹﾝ","kana_city":"ｾﾝﾀﾞｲｼﾀｲﾊｸｸ","kana_address":"ｽﾜﾏﾁ","pref":"宮城県","city":"仙台市太白区","address":"諏訪町"},
{"zip_code":"9820013","kana_pref":"ﾐﾔｷﾞｹﾝ","kana_city":"ｾﾝﾀﾞｲｼﾀｲﾊｸｸ","kana_address":"ﾀｲｼﾄﾞｳ","pref":"宮城県","city":"仙台市太白区","address":"太子堂"},
{"zip_code":"9820212","kana_pref":"ﾐﾔｷﾞｹﾝ","kana_city":"ｾﾝﾀﾞｲｼﾀｲﾊｸｸ","kana_address":"ﾀｲﾊｸ","pref":"宮城県","city":"仙台市太白区","address":"太白"},
{"zip_code":"9820231","kana_pref":"ﾐﾔｷﾞｹﾝ","kana_city":"ｾﾝﾀﾞｲｼﾀｲﾊｸｸ","kana_address":"ﾂﾎﾞﾇﾏ","pref":"宮城県","city":"仙台市太白区","address":"坪沼"},
{"zip_code":"9820026","kana_pref":"ﾐﾔｷﾞｹﾝ","kana_city":"ｾﾝﾀﾞｲｼﾀｲﾊｸｸ","kana_address":"ﾄﾞﾃｳﾁ","pref":"宮城県","city":"仙台市太白区","address":"土手内"},
{"zip_code":"9820032","kana_pref":"ﾐﾔｷﾞｹﾝ","kana_city":"ｾﾝﾀﾞｲｼﾀｲﾊｸｸ","kana_address":"ﾄﾐｻﾞﾜ","pref":"宮城県","city":"仙台市太白区","address":"富沢"},
{"zip_code":"9820036","kana_pref":"ﾐﾔｷﾞｹﾝ","kana_city":"ｾﾝﾀﾞｲｼﾀｲﾊｸｸ","kana_address":"ﾄﾐｻﾞﾜﾐﾅﾐ","pref":"宮城県","city":"仙台市太白区","address":"富沢南"},
{"zip_code":"9820033","kana_pref":"ﾐﾔｷﾞｹﾝ","kana_city":"ｾﾝﾀﾞｲｼﾀｲﾊｸｸ","kana_address":"ﾄﾐﾀ","pref":"宮城県","city":"仙台市太白区","address":"富田"},
{"zip_code":"9820011","kana_pref":"ﾐﾔｷﾞｹﾝ","kana_city":"ｾﾝﾀﾞｲｼﾀｲﾊｸｸ","kana_address":"ﾅｶﾞﾏﾁ","pref":"宮城県","city":"仙台市太白区","address":"長町"},
{"zip_code":"9820837","kana_pref":"ﾐﾔｷﾞｹﾝ","kana_city":"ｾﾝﾀﾞｲｼﾀｲﾊｸｸ","kana_address":"ﾅｶﾞﾏﾁ","pref":"宮城県","city":"仙台市太白区","address":"長町"},
{"zip_code":"9820012","kana_pref":"ﾐﾔｷﾞｹﾝ","kana_city":"ｾﾝﾀﾞｲｼﾀｲﾊｸｸ","kana_address":"ﾅｶﾞﾏﾁﾐﾅﾐ","pref":"宮城県","city":"仙台市太白区","address":"長町南"},
{"zip_code":"9820847","kana_pref":"ﾐﾔｷﾞｹﾝ","kana_city":"ｾﾝﾀﾞｲｼﾀｲﾊｸｸ","kana_address":"ﾅｶﾞﾐﾈ","pref":"宮城県","city":"仙台市太白区","address":"長嶺"},
{"zip_code":"9820034","kana_pref":"ﾐﾔｷﾞｹﾝ","kana_city":"ｾﾝﾀﾞｲｼﾀｲﾊｸｸ","kana_address":"ﾆｼﾀｶﾞ","pref":"宮城県","city":"仙台市太白区","address":"西多賀"},
{"zip_code":"9820825","kana_pref":"ﾐﾔｷﾞｹﾝ","kana_city":"ｾﾝﾀﾞｲｼﾀｲﾊｸｸ","kana_address":"ﾆｼﾉﾀﾞｲﾗ","pref":"宮城県","city":"仙台市太白区","address":"西の平"},
{"zip_code":"9820221","kana_pref":"ﾐﾔｷﾞｹﾝ","kana_city":"ｾﾝﾀﾞｲｼﾀｲﾊｸｸ","kana_address":"ﾆﾎﾝﾀﾞｲﾗ","pref":"宮城県","city":"仙台市太白区","address":"日本平"},
{"zip_code":"9820844","kana_pref":"ﾐﾔｷﾞｹﾝ","kana_city":"ｾﾝﾀﾞｲｼﾀｲﾊｸｸ","kana_address":"ﾈｷﾞｼﾏﾁ","pref":"宮城県","city":"仙台市太白区","address":"根岸町"},
{"zip_code":"9820848","kana_pref":"ﾐﾔｷﾞｹﾝ","kana_city":"ｾﾝﾀﾞｲｼﾀｲﾊｸｸ","kana_address":"ﾊｷﾞｶﾞｵｶ","pref":"宮城県","city":"仙台市太白区","address":"萩ケ丘"},
{"zip_code":"9820817","kana_pref":"ﾐﾔｷﾞｹﾝ","kana_city":"ｾﾝﾀﾞｲｼﾀｲﾊｸｸ","kana_address":"ﾊｸﾞﾛﾀﾞｲ","pref":"宮城県","city":"仙台市太白区","address":"羽黒台"},
{"zip_code":"9820215","kana_pref":"ﾐﾔｷﾞｹﾝ","kana_city":"ｾﾝﾀﾞｲｼﾀｲﾊｸｸ","kana_address":"ﾊﾀﾀﾃ","pref":"宮城県","city":"仙台市太白区","address":"旗立"},
{"zip_code":"9820001","kana_pref":"ﾐﾔｷﾞｹﾝ","kana_city":"ｾﾝﾀﾞｲｼﾀｲﾊｸｸ","kana_address":"ﾊﾁﾎﾝﾏﾂ","pref":"宮城県","city":"仙台市太白区","address":"八本松"},
{"zip_code":"9820004","kana_pref":"ﾐﾔｷﾞｹﾝ","kana_city":"ｾﾝﾀﾞｲｼﾀｲﾊｸｸ","kana_address":"ﾋｶﾞｼｵｵﾉﾀﾞ","pref":"宮城県","city":"仙台市太白区","address":"東大野田"},
{"zip_code":"9820006","kana_pref":"ﾐﾔｷﾞｹﾝ","kana_city":"ｾﾝﾀﾞｲｼﾀｲﾊｸｸ","kana_address":"ﾋｶﾞｼｺｵﾘﾔﾏ","pref":"宮城県","city":"仙台市太白区","address":"東郡山"},
{"zip_code":"9820222","kana_pref":"ﾐﾔｷﾞｹﾝ","kana_city":"ｾﾝﾀﾞｲｼﾀｲﾊｸｸ","kana_address":"ﾋﾄｷﾀ","pref":"宮城県","city":"仙台市太白区","address":"人来田"},
{"zip_code":"9820811","kana_pref":"ﾐﾔｷﾞｹﾝ","kana_city":"ｾﾝﾀﾞｲｼﾀｲﾊｸｸ","kana_address":"ﾋﾖﾘﾀﾞｲ","pref":"宮城県","city":"仙台市太白区","address":"ひより台"},
{"zip_code":"9820846","kana_pref":"ﾐﾔｷﾞｹﾝ","kana_city":"ｾﾝﾀﾞｲｼﾀｲﾊｸｸ","kana_address":"ﾌﾀﾂｻﾜ","pref":"宮城県","city":"仙台市太白区","address":"二ツ沢"},
{"zip_code":"9820821","kana_pref":"ﾐﾔｷﾞｹﾝ","kana_city":"ｾﾝﾀﾞｲｼﾀｲﾊｸｸ","kana_address":"ﾏﾂｶﾞｵｶ","pref":"宮城県","city":"仙台市太白区","address":"松が丘"},
{"zip_code":"9820826","kana_pref":"ﾐﾔｷﾞｹﾝ","kana_city":"ｾﾝﾀﾞｲｼﾀｲﾊｸｸ","kana_address":"ﾐｶﾐﾈ","pref":"宮城県","city":"仙台市太白区","address":"三神峯"},
{"zip_code":"9820806","kana_pref":"ﾐﾔｷﾞｹﾝ","kana_city":"ｾﾝﾀﾞｲｼﾀｲﾊｸｸ","kana_address":"ﾐﾄﾞｳﾀﾞｲﾗ","pref":"宮城県","city":"仙台市太白区","address":"御堂平"},
{"zip_code":"9820021","kana_pref":"ﾐﾔｷﾞｹﾝ","kana_city":"ｾﾝﾀﾞｲｼﾀｲﾊｸｸ","kana_address":"ﾐﾄﾞﾘｶﾞｵｶ","pref":"宮城県","city":"仙台市太白区","address":"緑ケ丘"},
{"zip_code":"9820015","kana_pref":"ﾐﾔｷﾞｹﾝ","kana_city":"ｾﾝﾀﾞｲｼﾀｲﾊｸｸ","kana_address":"ﾐﾅﾐｵｵﾉﾀﾞ","pref":"宮城県","city":"仙台市太白区","address":"南大野田"},
{"zip_code":"9820841","kana_pref":"ﾐﾔｷﾞｹﾝ","kana_city":"ｾﾝﾀﾞｲｼﾀｲﾊｸｸ","kana_address":"ﾑｶｲﾔﾏ","pref":"宮城県","city":"仙台市太白区","address":"向山"},
{"zip_code":"9820843","kana_pref":"ﾐﾔｷﾞｹﾝ","kana_city":"ｾﾝﾀﾞｲｼﾀｲﾊｸｸ","kana_address":"ﾓｶﾞｻｷ","pref":"宮城県","city":"仙台市太白区","address":"茂ケ崎"},
{"zip_code":"9820251","kana_pref":"ﾐﾔｷﾞｹﾝ","kana_city":"ｾﾝﾀﾞｲｼﾀｲﾊｸｸ","kana_address":"ﾓﾆﾜ","pref":"宮城県","city":"仙台市太白区","address":"茂庭"},
{"zip_code":"9820252","kana_pref":"ﾐﾔｷﾞｹﾝ","kana_city":"ｾﾝﾀﾞｲｼﾀｲﾊｸｸ","kana_address":"ﾓﾆﾜﾀﾞｲ","pref":"宮城県","city":"仙台市太白区","address":"茂庭台"},
{"zip_code":"9820845","kana_pref":"ﾐﾔｷﾞｹﾝ","kana_city":"ｾﾝﾀﾞｲｼﾀｲﾊｸｸ","kana_address":"ﾓﾝｾﾞﾝﾏﾁ","pref":"宮城県","city":"仙台市太白区","address":"門前町"},
{"zip_code":"9820831","kana_pref":"ﾐﾔｷﾞｹﾝ","kana_city":"ｾﾝﾀﾞｲｼﾀｲﾊｸｸ","kana_address":"ﾔｷﾞﾔﾏｶｽﾐﾁｮｳ","pref":"宮城県","city":"仙台市太白区","address":"八木山香澄町"},
{"zip_code":"9820801","kana_pref":"ﾐﾔｷﾞｹﾝ","kana_city":"ｾﾝﾀﾞｲｼﾀｲﾊｸｸ","kana_address":"ﾔｷﾞﾔﾏﾎﾝﾁｮｳ","pref":"宮城県","city":"仙台市太白区","address":"八木山本町"},
{"zip_code":"9820836","kana_pref":"ﾐﾔｷﾞｹﾝ","kana_city":"ｾﾝﾀﾞｲｼﾀｲﾊｸｸ","kana_address":"ﾔｷﾞﾔﾏﾏﾂﾅﾐﾁｮｳ","pref":"宮城県","city":"仙台市太白区","address":"八木山松波町"},
{"zip_code":"9820832","kana_pref":"ﾐﾔｷﾞｹﾝ","kana_city":"ｾﾝﾀﾞｲｼﾀｲﾊｸｸ","kana_address":"ﾔｷﾞﾔﾏﾐﾄﾞﾘﾁｮｳ","pref":"宮城県","city":"仙台市太白区","address":"八木山緑町"},
{"zip_code":"9820833","kana_pref":"ﾐﾔｷﾞｹﾝ","kana_city":"ｾﾝﾀﾞｲｼﾀｲﾊｸｸ","kana_address":"ﾔｷﾞﾔﾏﾔﾖｲﾁｮｳ","pref":"宮城県","city":"仙台市太白区","address":"八木山弥生町"},
{"zip_code":"9820802","kana_pref":"ﾐﾔｷﾞｹﾝ","kana_city":"ｾﾝﾀﾞｲｼﾀｲﾊｸｸ","kana_address":"ﾔｷﾞﾔﾏﾋｶﾞｼ","pref":"宮城県","city":"仙台市太白区","address":"八木山東"},
{"zip_code":"9820807","kana_pref":"ﾐﾔｷﾞｹﾝ","kana_city":"ｾﾝﾀﾞｲｼﾀｲﾊｸｸ","kana_address":"ﾔｷﾞﾔﾏﾐﾅﾐ","pref":"宮城県","city":"仙台市太白区","address":"八木山南"},
{"zip_code":"9820214","kana_pref":"ﾐﾔｷﾞｹﾝ","kana_city":"ｾﾝﾀﾞｲｼﾀｲﾊｸｸ","kana_address":"ﾔﾏﾀﾞ","pref":"宮城県","city":"仙台市太白区","address":"山田"},
{"zip_code":"9820814","kana_pref":"ﾐﾔｷﾞｹﾝ","kana_city":"ｾﾝﾀﾞｲｼﾀｲﾊｸｸ","kana_address":"ﾔﾏﾀﾞ","pref":"宮城県","city":"仙台市太白区","address":"山田"},
{"zip_code":"9820815","kana_pref":"ﾐﾔｷﾞｹﾝ","kana_city":"ｾﾝﾀﾞｲｼﾀｲﾊｸｸ","kana_address":"ﾔﾏﾀﾞｳｴﾉﾀﾞｲﾁｮｳ","pref":"宮城県","city":"仙台市太白区","address":"山田上ノ台町"},
{"zip_code":"9820813","kana_pref":"ﾐﾔｷﾞｹﾝ","kana_city":"ｾﾝﾀﾞｲｼﾀｲﾊｸｸ","kana_address":"ﾔﾏﾀﾞｷﾀﾏｴﾁｮｳ","pref":"宮城県","city":"仙台市太白区","address":"山田北前町"},
{"zip_code":"9820213","kana_pref":"ﾐﾔｷﾞｹﾝ","kana_city":"ｾﾝﾀﾞｲｼﾀｲﾊｸｸ","kana_address":"ﾔﾏﾀﾞｼﾞﾕｳｶﾞｵｶ","pref":"宮城県","city":"仙台市太白区","address":"山田自由ケ丘"},
{"zip_code":"9820818","kana_pref":"ﾐﾔｷﾞｹﾝ","kana_city":"ｾﾝﾀﾞｲｼﾀｲﾊｸｸ","kana_address":"ﾔﾏﾀﾞｼﾝﾏﾁ","pref":"宮城県","city":"仙台市太白区","address":"山田新町"},
{"zip_code":"9820816","kana_pref":"ﾐﾔｷﾞｹﾝ","kana_city":"ｾﾝﾀﾞｲｼﾀｲﾊｸｸ","kana_address":"ﾔﾏﾀﾞﾎﾝﾁｮｳ","pref":"宮城県","city":"仙台市太白区","address":"山田本町"},
{"zip_code":"9820822","kana_pref":"ﾐﾔｷﾞｹﾝ","kana_city":"ｾﾝﾀﾞｲｼﾀｲﾊｸｸ","kana_address":"ﾜｶﾊﾞﾏﾁ","pref":"宮城県","city":"仙台市太白区","address":"若葉町"}]}