{"zip_code":[
{"zip_code":"9830000","kana_pref":"ﾐﾔｷﾞｹﾝ","kana_city":"ｾﾝﾀﾞｲｼﾐﾔｷﾞﾉｸ","kana_address":"","pref":"宮城県","city":"仙台市宮城野区","address":""},
{"zip_code":"9830832","kana_pref":"ﾐﾔｷﾞｹﾝ","kana_city":"ｾﾝﾀﾞｲｼﾐﾔｷﾞﾉｸ","kana_address":"ｱﾝﾖｳｼﾞ","pref":"宮城県","city":"仙台市宮城野区","address":"安養寺"},
{"zip_code":"9830047","kana_pref":"ﾐﾔｷﾞｹﾝ","kana_city":"ｾﾝﾀﾞｲｼﾐﾔｷﾞﾉｸ","kana_address":"ｲﾁｮｳﾏﾁ","pref":"宮城県","city":"仙台市宮城野区","address":"銀杏町"},
{"zip_code":"9830012","kana_pref":"ﾐﾔｷﾞｹﾝ","kana_city":"ｾﾝﾀﾞｲｼﾐﾔｷﾞﾉｸ","kana_address":"ｲﾃﾞｶ","pref":"宮城県","city":"仙台市宮城野区","address":"出花"},
{"zip_code":"9830821","kana_pref":"ﾐﾔｷﾞｹﾝ","kana_city":"ｾﾝﾀﾞｲｼﾐﾔｷﾞﾉｸ","kana_address":"ｲﾜｷﾘ","pref":"宮城県","city":"仙台市宮城野区","address":"岩切"},
{"zip_code":"9830034","kana_pref":"ﾐﾔｷﾞｹﾝ","kana_city":"ｾﾝﾀﾞｲｼﾐﾔｷﾞﾉｸ","kana_address":"ｵｳｷﾞﾏﾁ","pref":"宮城県","city":"仙台市宮城野区","address":"扇町"},
{"zip_code":"9830835","kana_pref":"ﾐﾔｷﾞｹﾝ","kana_city":"ｾﾝﾀﾞｲｼﾐﾔｷﾞﾉｸ","kana_address":"ｵｵｶｼﾞ","pref":"宮城県","city":"仙台市宮城野区","address":"大梶"},
{"zip_code":"9830003","kana_pref":"ﾐﾔｷﾞｹﾝ","kana_city":"ｾﾝﾀﾞｲｼﾐﾔｷﾞﾉｸ","kana_address":"ｵｶﾀﾞ","pref":"宮城県","city":"仙台市宮城野区","address":"岡田"},
{"zip_code":"9830004","kana_pref":"ﾐﾔｷﾞｹﾝ","kana_city":"ｾﾝﾀﾞｲｼﾐﾔｷﾞﾉｸ","kana_address":"ｵｶﾀﾞﾆｼﾏﾁ","pref":"宮城県","city":"仙台市宮城野区","address":"岡田西町"},
{"zip_code":"9830803","kana_pref":"ﾐﾔｷﾞｹﾝ","kana_city":"ｾﾝﾀﾞｲｼﾐﾔｷﾞﾉｸ","kana_address":"ｵﾀﾞﾜﾗ","pref":"宮城県","city":"仙台市宮城野区","address":"小田原"},
{"zip_code":"9830813","kana_pref":"ﾐﾔｷﾞｹﾝ","kana_city":"ｾﾝﾀﾞｲｼﾐﾔｷﾞﾉｸ","kana_address":"ｵﾀﾞﾜﾗｳｼｺﾞﾔﾁｮｳ","pref":"宮城県","city":"仙台市宮城野区","address":"小田原牛小屋丁"},
{"zip_code":"9830816","kana_pref":"ﾐﾔｷﾞｹﾝ","kana_city":"ｾﾝﾀﾞｲｼﾐﾔｷﾞﾉｸ","kana_address":"ｵﾀﾞﾜﾗｺﾝｺﾞｳｲﾝﾁｮｳ","pref":"宮城県","city":"仙台市宮城野区","address":"小田原金剛院丁"},
{"zip_code":"9830811","kana_pref":"ﾐﾔｷﾞｹﾝ","kana_city":"ｾﾝﾀﾞｲｼﾐﾔｷﾞﾉｸ","kana_address":"ｵﾀﾞﾜﾗｼﾐｽﾞﾇﾏﾄﾞｵﾘ","pref":"宮城県","city":"仙台市宮城野区","address":"小田原清水沼通"},
{"zip_code":"9830814","kana_pref":"ﾐﾔｷﾞｹﾝ","kana_city":"ｾﾝﾀﾞｲｼﾐﾔｷﾞﾉｸ","kana_address":"ｵﾀﾞﾜﾗﾀﾞｲｷﾞｮｳｲﾝﾁｮｳ","pref":"宮城県","city":"仙台市宮城野区","address":"小田原大行院丁"},
{"zip_code":"9830815","kana_pref":"ﾐﾔｷﾞｹﾝ","kana_city":"ｾﾝﾀﾞｲｼﾐﾔｷﾞﾉｸ","kana_address":"ｵﾀﾞﾜﾗﾋﾛﾁｮｳ","pref":"宮城県","city":"仙台市宮城野区","address":"小田原広丁"},
{"zip_code":"9830817","kana_pref":"ﾐﾔｷﾞｹﾝ","kana_city":"ｾﾝﾀﾞｲｼﾐﾔｷﾞﾉｸ","kana_address":"ｵﾀﾞﾜﾗﾔﾏﾓﾄﾁｮｳ","pref":"宮城県","city":"仙台市宮城野区","address":"小田原山本丁"},
{"zip_code":"9830812","kana_pref":"ﾐﾔｷﾞｹﾝ","kana_city":"ｾﾝﾀﾞｲｼﾐﾔｷﾞﾉｸ","kana_address":"ｵﾀﾞﾜﾗﾕﾐﾉﾏﾁ","pref":"宮城県","city":"仙台市宮城野区","address":"小田原弓ノ町"},
{"zip_code":"9830866","kana_pref":"ﾐﾔｷﾞｹﾝ","kana_city":"ｾﾝﾀﾞｲｼﾐﾔｷﾞﾉｸ","kana_address":"ｶｷｮｳｲﾝﾄﾞｵﾘ","pref":"宮城県","city":"仙台市宮城野区","address":"花京院通"},
{"zip_code":"9830839","kana_pref":"ﾐﾔｷﾞｹﾝ","kana_city":"ｾﾝﾀﾞｲｼﾐﾔｷﾞﾉｸ","kana_address":"ｶﾆｻﾜ","pref":"宮城県","city":"仙台市宮城野区","address":"蟹沢"},
{"zip_code":"9830002","kana_pref":"ﾐﾔｷﾞｹﾝ","kana_city":"ｾﾝﾀﾞｲｼﾐﾔｷﾞﾉｸ","kana_address":"ｶﾞﾓｳ","pref":"宮城県","city":"仙台市宮城野区","address":"蒲生"},
{"zip_code":"9830863","kana_pref":"ﾐﾔｷﾞｹﾝ","kana_city":"ｾﾝﾀﾞｲｼﾐﾔｷﾞﾉｸ","kana_address":"ｸﾙﾏﾏﾁ","pref":"宮城県","city":"仙台市宮城野区","address":"車町"},
{"zip_code":"9830031","kana_pref":"ﾐﾔｷﾞｹﾝ","kana_city":"ｾﾝﾀﾞｲｼﾐﾔｷﾞﾉｸ","kana_address":"ｺﾂﾞﾙ","pref":"宮城県","city":"仙台市宮城野区","address":"小鶴"},
{"zip_code":"9830842","kana_pref":"ﾐﾔｷﾞｹﾝ","kana_city":"ｾﾝﾀﾞｲｼﾐﾔｷﾞﾉｸ","kana_address":"ｺﾞﾘﾝ","pref":"宮城県","city":"仙台市宮城野区","address":"五輪"},
{"zip_code":"9830836","kana_pref":"ﾐﾔｷﾞｹﾝ","kana_city":"ｾﾝﾀﾞｲｼﾐﾔｷﾞﾉｸ","kana_address":"ｻｲﾜｲﾁｮｳ","pref":"宮城県","city":"仙台市宮城野区","address":"幸町"},
{"zip_code":"9830011","kana_pref":"ﾐﾔｷﾞｹﾝ","kana_city":"ｾﾝﾀﾞｲｼﾐﾔｷﾞﾉｸ","kana_address":"ｻｶｴ","pref":"宮城県","city":"仙台市宮城野区","address":"栄"},
{"zip_code":"9830845","kana_pref":"ﾐﾔｷﾞｹﾝ","kana_city":"ｾﾝﾀﾞｲｼﾐﾔｷﾞﾉｸ","kana_address":"ｼﾐｽﾞﾇﾏ","pref":"宮城県","city":"仙台市宮城野区","address":"清水沼"},
{"zip_code":"9830831","kana_pref":"ﾐﾔｷﾞｹﾝ","kana_city":"ｾﾝﾀﾞｲｼﾐﾔｷﾞﾉｸ","kana_address":"ｼﾞﾕｳｶﾞｵｶ","pref":"宮城県","city":"仙台市宮城野区","address":"自由ケ丘"},
{"zip_code":"9830006","kana_pref":"ﾐﾔｷﾞｹﾝ","kana_city":"ｾﾝﾀﾞｲｼﾐﾔｷﾞﾉｸ","kana_address":"ｼﾗﾄﾘ","pref":"宮城県","city":"仙台市宮城野区","address":"白鳥"},
{"zip_code":"9830038","kana_pref":"ﾐﾔｷﾞｹﾝ","kana_city":"ｾﾝﾀﾞｲｼﾐﾔｷﾞﾉｸ","kana_address":"ｼﾝﾃﾞﾝ","pref":"宮城県","city":"仙台市宮城野区","address":"新田"},
{"zip_code":"9830039","kana_pref":"ﾐﾔｷﾞｹﾝ","kana_city":"ｾﾝﾀﾞｲｼﾐﾔｷﾞﾉｸ","kana_address":"ｼﾝﾃﾞﾝﾋｶﾞｼ","pref":"宮城県","city":"仙台市宮城野区","address":"新田東"},
{"zip_code":"9830032","kana_pref":"ﾐﾔｷﾞｹﾝ","kana_city":"ｾﾝﾀﾞｲｼﾐﾔｷﾞﾉｸ","kana_address":"ｾﾝｺﾞｸ","pref":"宮城県","city":"仙台市宮城野区","address":"仙石"},
{"zip_code":"9830014","kana_pref":"ﾐﾔｷﾞｹﾝ","kana_city":"ｾﾝﾀﾞｲｼﾐﾔｷﾞﾉｸ","kana_address":"ﾀｶｻｺﾞ","pref":"宮城県","city":"仙台市宮城野区","address":"高砂"},
{"zip_code":"9830021","kana_pref":"ﾐﾔｷﾞｹﾝ","kana_city":"ｾﾝﾀﾞｲｼﾐﾔｷﾞﾉｸ","kana_address":"ﾀｺﾞ","pref":"宮城県","city":"仙台市宮城野区","address":"田子"},
{"zip_code":"9830851","kana_pref":"ﾐﾔｷﾞｹﾝ","kana_city":"ｾﾝﾀﾞｲｼﾐﾔｷﾞﾉｸ","kana_address":"ﾂﾂｼﾞｶﾞｵｶ","pref":"宮城県","city":"仙台市宮城野区","address":"榴ケ岡"},
{"zip_code":"9830852","kana_pref":"ﾐﾔｷﾞｹﾝ","kana_city":"ｾﾝﾀﾞｲｼﾐﾔｷﾞﾉｸ","kana_address":"ﾂﾂｼﾞｶﾞｵｶ","pref":"宮城県","city":"仙台市宮城野区","address":"榴岡"},
{"zip_code":"9830823","kana_pref":"ﾐﾔｷﾞｹﾝ","kana_city":"ｾﾝﾀﾞｲｼﾐﾔｷﾞﾉｸ","kana_address":"ﾂﾊﾞﾒｻﾜ","pref":"宮城県","city":"仙台市宮城野区","address":"燕沢"},
{"zip_code":"9830822","kana_pref":"ﾐﾔｷﾞｹﾝ","kana_city":"ｾﾝﾀﾞｲｼﾐﾔｷﾞﾉｸ","kana_address":"ﾂﾊﾞﾒｻﾜﾋｶﾞｼ","pref":"宮城県","city":"仙台市宮城野区","address":"燕沢東"},
{"zip_code":"9830824","kana_pref":"ﾐﾔｷﾞｹﾝ","kana_city":"ｾﾝﾀﾞｲｼﾐﾔｷﾞﾉｸ","kana_address":"ﾂﾙｶﾞﾔ","pref":"宮城県","city":"仙台市宮城野区","address":"鶴ケ谷"},
{"zip_code":"9830826","kana_pref":"ﾐﾔｷﾞｹﾝ","kana_city":"ｾﾝﾀﾞｲｼﾐﾔｷﾞﾉｸ","kana_address":"ﾂﾙｶﾞﾔﾋｶﾞｼ","pref":"宮城県","city":"仙台市宮城野区","address":"鶴ケ谷東"},
{"zip_code":"9830825","kana_pref":"ﾐﾔｷﾞｹﾝ","kana_city":"ｾﾝﾀﾞｲｼﾐﾔｷﾞﾉｸ","kana_address":"ﾂﾙｶﾞﾔｷﾀ","pref":"宮城県","city":"仙台市宮城野区","address":"鶴ケ谷北"},
{"zip_code":"9830024","kana_pref":"ﾐﾔｷﾞｹﾝ","kana_city":"ｾﾝﾀﾞｲｼﾐﾔｷﾞﾉｸ","kana_address":"ﾂﾙﾏｷ","pref":"宮城県","city":"仙台市宮城野区","address":"鶴巻"},
{"zip_code":"9830861","kana_pref":"ﾐﾔｷﾞｹﾝ","kana_city":"ｾﾝﾀﾞｲｼﾐﾔｷﾞﾉｸ","kana_address":"ﾃｯﾎﾟｳﾏﾁ","pref":"宮城県","city":"仙台市宮城野区","address":"鉄砲町"},
{"zip_code":"9830864","kana_pref":"ﾐﾔｷﾞｹﾝ","kana_city":"ｾﾝﾀﾞｲｼﾐﾔｷﾞﾉｸ","kana_address":"ﾅｶｹﾁｮｳ","pref":"宮城県","city":"仙台市宮城野区","address":"名掛丁"},
{"zip_code":"9830013","kana_pref":"ﾐﾔｷﾞｹﾝ","kana_city":"ｾﾝﾀﾞｲｼﾐﾔｷﾞﾉｸ","kana_address":"ﾅｶﾉ","pref":"宮城県","city":"仙台市宮城野区","address":"中野"},
{"zip_code":"9830827","kana_pref":"ﾐﾔｷﾞｹﾝ","kana_city":"ｾﾝﾀﾞｲｼﾐﾔｷﾞﾉｸ","kana_address":"ﾅﾝｸﾞｳ","pref":"宮城県","city":"仙台市宮城野区","address":"南宮"},
{"zip_code":"9830036","kana_pref":"ﾐﾔｷﾞｹﾝ","kana_city":"ｾﾝﾀﾞｲｼﾐﾔｷﾞﾉｸ","kana_address":"ﾆｶﾞﾀｹ","pref":"宮城県","city":"仙台市宮城野区","address":"苦竹"},
{"zip_code":"9830046","kana_pref":"ﾐﾔｷﾞｹﾝ","kana_city":"ｾﾝﾀﾞｲｼﾐﾔｷﾞﾉｸ","kana_address":"ﾆｼﾐﾔｷﾞﾉ","pref":"宮城県","city":"仙台市宮城野区","address":"西宮城野"},
{"zip_code":"9830862","kana_pref":"ﾐﾔｷﾞｹﾝ","kana_city":"ｾﾝﾀﾞｲｼﾐﾔｷﾞﾉｸ","kana_address":"ﾆｼﾞｭｳﾆﾝﾏﾁ","pref":"宮城県","city":"仙台市宮城野区","address":"二十人町"},
{"zip_code":"9830843","kana_pref":"ﾐﾔｷﾞｹﾝ","kana_city":"ｾﾝﾀﾞｲｼﾐﾔｷﾞﾉｸ","kana_address":"ﾆｼﾞｭｳﾆﾝﾏﾁﾄﾞｵﾘ","pref":"宮城県","city":"仙台市宮城野区","address":"二十人町通"},
{"zip_code":"9830838","kana_pref":"ﾐﾔｷﾞｹﾝ","kana_city":"ｾﾝﾀﾞｲｼﾐﾔｷﾞﾉｸ","kana_address":"ﾆﾉﾓﾘ","pref":"宮城県","city":"仙台市宮城野区","address":"二の森"},
{"zip_code":"9830043","kana_pref":"ﾐﾔｷﾞｹﾝ","kana_city":"ｾﾝﾀﾞｲｼﾐﾔｷﾞﾉｸ","kana_address":"ﾊｷﾞﾉﾏﾁ","pref":"宮城県","city":"仙台市宮城野区","address":"萩野町"},
{"zip_code":"9830841","kana_pref":"ﾐﾔｷﾞｹﾝ","kana_city":"ｾﾝﾀﾞｲｼﾐﾔｷﾞﾉｸ","kana_address":"ﾊﾗﾉﾏﾁ","pref":"宮城県","city":"仙台市宮城野区","address":"原町"},
{"zip_code":"9830036","kana_pref":"ﾐﾔｷﾞｹﾝ","kana_city":"ｾﾝﾀﾞｲｼﾐﾔｷﾞﾉｸ","kana_address":"ﾊﾗﾉﾏﾁﾆｶﾞﾀｹ","pref":"宮城県","city":"仙台市宮城野区","address":"原町苦竹"},
{"zip_code":"9830844","kana_pref":"ﾐﾔｷﾞｹﾝ","kana_city":"ｾﾝﾀﾞｲｼﾐﾔｷﾞﾉｸ","kana_address":"ﾊﾗﾉﾏﾁﾐﾅﾐﾉﾒ","pref":"宮城県","city":"仙台市宮城野区","address":"原町南目"},
{"zip_code":"9830833","kana_pref":"ﾐﾔｷﾞｹﾝ","kana_city":"ｾﾝﾀﾞｲｼﾐﾔｷﾞﾉｸ","kana_address":"ﾋｶﾞｼｾﾝﾀﾞｲ","pref":"宮城県","city":"仙台市宮城野区","address":"東仙台"},
{"zip_code":"9830042","kana_pref":"ﾐﾔｷﾞｹﾝ","kana_city":"ｾﾝﾀﾞｲｼﾐﾔｷﾞﾉｸ","kana_address":"ﾋｶﾞｼﾐﾔｷﾞﾉ","pref":"宮城県","city":"仙台市宮城野区","address":"東宮城野"},
{"zip_code":"9830853","kana_pref":"ﾐﾔｷﾞｹﾝ","kana_city":"ｾﾝﾀﾞｲｼﾐﾔｷﾞﾉｸ","kana_address":"ﾋｶﾞｼ6ﾊﾞﾝﾁｮｳ","pref":"宮城県","city":"仙台市宮城野区","address":"東六番丁"},
{"zip_code":"9830854","kana_pref":"ﾐﾔｷﾞｹﾝ","kana_city":"ｾﾝﾀﾞｲｼﾐﾔｷﾞﾉｸ","kana_address":"ﾋｶﾞｼ7ﾊﾞﾝﾁｮｳ","pref":"宮城県","city":"仙台市宮城野区","address":"東七番丁"},
{"zip_code":"9830855","kana_pref":"ﾐﾔｷﾞｹﾝ","kana_city":"ｾﾝﾀﾞｲｼﾐﾔｷﾞﾉｸ","kana_address":"ﾋｶﾞｼ8ﾊﾞﾝﾁｮｳ","pref":"宮城県","city":"仙台市宮城野区","address":"東八番丁"},
{"zip_code":"9830856","kana_pref":"ﾐﾔｷﾞｹﾝ","kana_city":"ｾﾝﾀﾞｲｼﾐﾔｷﾞﾉｸ","kana_address":"ﾋｶﾞｼ9ﾊﾞﾝﾁｮｳ","pref":"宮城県","city":"仙台市宮城野区","address":"東九番丁"},
{"zip_code":"9830857","kana_pref":"ﾐﾔｷﾞｹﾝ","kana_city":"ｾﾝﾀﾞｲｼﾐﾔｷﾞﾉｸ","kana_address":"ﾋｶﾞｼ10ﾊﾞﾝﾁｮｳ","pref":"宮城県","city":"仙台市宮城野区","address":"東十番丁"},
{"zip_code":"9830035","kana_pref":"ﾐﾔｷﾞｹﾝ","kana_city":"ｾﾝﾀﾞｲｼﾐﾔｷﾞﾉｸ","kana_address":"ﾋﾉﾃﾞﾏﾁ","pref":"宮城県","city":"仙台市宮城野区","address":"日の出町"},
{"zip_code":"9830033","kana_pref":"ﾐﾔｷﾞｹﾝ","kana_city":"ｾﾝﾀﾞｲｼﾐﾔｷﾞﾉｸ","kana_address":"ﾌｸｽﾞﾐﾏﾁ","pref":"宮城県","city":"仙台市宮城野区","address":"福住町"},
{"zip_code":"9830023","kana_pref":"ﾐﾔｷﾞｹﾝ","kana_city":"ｾﾝﾀﾞｲｼﾐﾔｷﾞﾉｸ","kana_address":"ﾌｸﾀﾞﾏﾁ","pref":"宮城県","city":"仙台市宮城野区","address":"福田町"},
{"zip_code":"9830025","kana_pref":"ﾐﾔｷﾞｹﾝ","kana_city":"ｾﾝﾀﾞｲｼﾐﾔｷﾞﾉｸ","kana_address":"ﾌｸﾀﾞﾏﾁﾐﾅﾐ","pref":"宮城県","city":"仙台市宮城野区","address":"福田町南"},
{"zip_code":"9830005","kana_pref":"ﾐﾔｷﾞｹﾝ","kana_city":"ｾﾝﾀﾞｲｼﾐﾔｷﾞﾉｸ","kana_address":"ﾌｸﾑﾛ","pref":"宮城県","city":"仙台市宮城野区","address":"福室"},
{"zip_code":"9830037","kana_pref":"ﾐﾔｷﾞｹﾝ","kana_city":"ｾﾝﾀﾞｲｼﾐﾔｷﾞﾉｸ","kana_address":"ﾍｲｾｲ","pref":"宮城県","city":"仙台市宮城野区","address":"平成"},
{"zip_code":"9830837","kana_pref":"ﾐﾔｷﾞｹﾝ","kana_city":"ｾﾝﾀﾞｲｼﾐﾔｷﾞﾉｸ","kana_address":"ﾏｽｴ","pref":"宮城県","city":"仙台市宮城野区","address":"枡江"},
{"zip_code":"9830834","kana_pref":"ﾐﾔｷﾞｹﾝ","kana_city":"ｾﾝﾀﾞｲｼﾐﾔｷﾞﾉｸ","kana_address":"ﾏﾂｵｶﾁｮｳ","pref":"宮城県","city":"仙台市宮城野区","address":"松岡町"},
{"zip_code":"9830001","kana_pref":"ﾐﾔｷﾞｹﾝ","kana_city":"ｾﾝﾀﾞｲｼﾐﾔｷﾞﾉｸ","kana_address":"ﾐﾅﾄ","pref":"宮城県","city":"仙台市宮城野区","address":"港"},
{"zip_code":"9830041","kana_pref":"ﾐﾔｷﾞｹﾝ","kana_city":"ｾﾝﾀﾞｲｼﾐﾔｷﾞﾉｸ","kana_address":"ﾐﾅﾐﾉﾒﾀﾃ","pref":"宮城県","city":"仙台市宮城野区","address":"南目館"},
{"zip_code":"9830045","kana_pref":"ﾐﾔｷﾞｹﾝ","kana_city":"ｾﾝﾀﾞｲｼﾐﾔｷﾞﾉｸ","kana_address":"ﾐﾔｷﾞﾉ","pref":"宮城県","city":"仙台市宮城野区","address":"宮城野"},
{"zip_code":"9830044","kana_pref":"ﾐﾔｷﾞｹﾝ","kana_city":"ｾﾝﾀﾞｲｼﾐﾔｷﾞﾉｸ","kana_address":"ﾐﾔﾁﾖ","pref":"宮城県","city":"仙台市宮城野区","address":"宮千代"},
{"zip_code":"9830865","kana_pref":"ﾐﾔｷﾞｹﾝ","kana_city":"ｾﾝﾀﾞｲｼﾐﾔｷﾞﾉｸ","kana_address":"ﾓﾄﾃﾗｺｳｼﾞ","pref":"宮城県","city":"仙台市宮城野区","address":"元寺小路"}]}