{"zip_code":[
{"zip_code":"9840000","kana_pref":"ﾐﾔｷﾞｹﾝ","kana_city":"ｾﾝﾀﾞｲｼﾜｶﾊﾞﾔｼｸ","kana_address":"","pref":"宮城県","city":"仙台市若林区","address":""},
{"zip_code":"9840032","kana_pref":"ﾐﾔｷﾞｹﾝ","kana_city":"ｾﾝﾀﾞｲｼﾜｶﾊﾞﾔｼｸ","kana_address":"ｱﾗｲ","pref":"宮城県","city":"仙台市若林区","address":"荒井"},
{"zip_code":"9840033","kana_pref":"ﾐﾔｷﾞｹﾝ","kana_city":"ｾﾝﾀﾞｲｼﾜｶﾊﾞﾔｼｸ","kana_address":"ｱﾗﾊﾏ","pref":"宮城県","city":"仙台市若林区","address":"荒浜"},
{"zip_code":"9840034","kana_pref":"ﾐﾔｷﾞｹﾝ","kana_city":"ｾﾝﾀﾞｲｼﾜｶﾊﾞﾔｼｸ","kana_address":"ｱﾗﾊﾏｼﾝ","pref":"宮城県","city":"仙台市若林区","address":"荒浜新"},
{"zip_code":"9840073","kana_pref":"ﾐﾔｷﾞｹﾝ","kana_city":"ｾﾝﾀﾞｲｼﾜｶﾊﾞﾔｼｸ","kana_address":"ｱﾗﾏﾁ","pref":"宮城県","city":"仙台市若林区","address":"荒町"},
{"zip_code":"9840833","kana_pref":"ﾐﾔｷﾞｹﾝ","kana_city":"ｾﾝﾀﾞｲｼﾜｶﾊﾞﾔｼｸ","kana_address":"ｲｲﾀﾞ","pref":"宮城県","city":"仙台市若林区","address":"飯田"},
{"zip_code":"9840038","kana_pref":"ﾐﾔｷﾞｹﾝ","kana_city":"ｾﾝﾀﾞｲｼﾜｶﾊﾞﾔｼｸ","kana_address":"ｲｻﾞｲ","pref":"宮城県","city":"仙台市若林区","address":"伊在"},
{"zip_code":"9840064","kana_pref":"ﾐﾔｷﾞｹﾝ","kana_city":"ｾﾝﾀﾞｲｼﾜｶﾊﾞﾔｼｸ","kana_address":"ｲｼｶﾞｷﾏﾁ","pref":"宮城県","city":"仙台市若林区","address":"石垣町"},
{"zip_code":"9840063","kana_pref":"ﾐﾔｷﾞｹﾝ","kana_city":"ｾﾝﾀﾞｲｼﾜｶﾊﾞﾔｼｸ","kana_address":"ｲｼﾅｻﾞｶ","pref":"宮城県","city":"仙台市若林区","address":"石名坂"},
{"zip_code":"9840022","kana_pref":"ﾐﾔｷﾞｹﾝ","kana_city":"ｾﾝﾀﾞｲｼﾜｶﾊﾞﾔｼｸ","kana_address":"ｲﾂﾂﾊﾞｼ","pref":"宮城県","city":"仙台市若林区","address":"五橋"},
{"zip_code":"9840828","kana_pref":"ﾐﾔｷﾞｹﾝ","kana_city":"ｾﾝﾀﾞｲｼﾜｶﾊﾞﾔｼｸ","kana_address":"ｲｯﾎﾟﾝｽｷﾞﾏﾁ","pref":"宮城県","city":"仙台市若林区","address":"一本杉町"},
{"zip_code":"9840842","kana_pref":"ﾐﾔｷﾞｹﾝ","kana_city":"ｾﾝﾀﾞｲｼﾜｶﾊﾞﾔｼｸ","kana_address":"ｲﾄﾞ","pref":"宮城県","city":"仙台市若林区","address":"井土"},
{"zip_code":"9840835","kana_pref":"ﾐﾔｷﾞｹﾝ","kana_city":"ｾﾝﾀﾞｲｼﾜｶﾊﾞﾔｼｸ","kana_address":"ｲﾏｲｽﾞﾐ","pref":"宮城県","city":"仙台市若林区","address":"今泉"},
{"zip_code":"9840054","kana_pref":"ﾐﾔｷﾞｹﾝ","kana_city":"ｾﾝﾀﾞｲｼﾜｶﾊﾞﾔｼｸ","kana_address":"ｳﾗｼﾊﾞﾀﾏﾁ","pref":"宮城県","city":"仙台市若林区","address":"裏柴田町"},
{"zip_code":"9840831","kana_pref":"ﾐﾔｷﾞｹﾝ","kana_city":"ｾﾝﾀﾞｲｼﾜｶﾊﾞﾔｼｸ","kana_address":"ｵｷﾉ","pref":"宮城県","city":"仙台市若林区","address":"沖野"},
{"zip_code":"9840055","kana_pref":"ﾐﾔｷﾞｹﾝ","kana_city":"ｾﾝﾀﾞｲｼﾜｶﾊﾞﾔｼｸ","kana_address":"ｵﾓﾃｼﾊﾞﾀﾏﾁ","pref":"宮城県","city":"仙台市若林区","address":"表柴田町"},
{"zip_code":"9840015","kana_pref":"ﾐﾔｷﾞｹﾝ","kana_city":"ｾﾝﾀﾞｲｼﾜｶﾊﾞﾔｼｸ","kana_address":"ｵﾛｼﾏﾁ","pref":"宮城県","city":"仙台市若林区","address":"卸町"},
{"zip_code":"9840002","kana_pref":"ﾐﾔｷﾞｹﾝ","kana_city":"ｾﾝﾀﾞｲｼﾜｶﾊﾞﾔｼｸ","kana_address":"ｵﾛｼﾏﾁﾋｶﾞｼ","pref":"宮城県","city":"仙台市若林区","address":"卸町東"},
{"zip_code":"9840822","kana_pref":"ﾐﾔｷﾞｹﾝ","kana_city":"ｾﾝﾀﾞｲｼﾜｶﾊﾞﾔｼｸ","kana_address":"ｶｽﾐﾁｮｳ","pref":"宮城県","city":"仙台市若林区","address":"かすみ町"},
{"zip_code":"9840035","kana_pref":"ﾐﾔｷﾞｹﾝ","kana_city":"ｾﾝﾀﾞｲｼﾜｶﾊﾞﾔｼｸ","kana_address":"ｶｽﾐﾉﾒ","pref":"宮城県","city":"仙台市若林区","address":"霞目"},
{"zip_code":"9840037","kana_pref":"ﾐﾔｷﾞｹﾝ","kana_city":"ｾﾝﾀﾞｲｼﾜｶﾊﾞﾔｼｸ","kana_address":"ｶﾊﾞﾉﾏﾁ","pref":"宮城県","city":"仙台市若林区","address":"蒲町"},
{"zip_code":"9840838","kana_pref":"ﾐﾔｷﾞｹﾝ","kana_city":"ｾﾝﾀﾞｲｼﾜｶﾊﾞﾔｼｸ","kana_address":"ｶﾐｲｲﾀﾞ","pref":"宮城県","city":"仙台市若林区","address":"上飯田"},
{"zip_code":"9840816","kana_pref":"ﾐﾔｷﾞｹﾝ","kana_city":"ｾﾝﾀﾞｲｼﾜｶﾊﾞﾔｼｸ","kana_address":"ｶﾜﾗﾏﾁ","pref":"宮城県","city":"仙台市若林区","address":"河原町"},
{"zip_code":"9840047","kana_pref":"ﾐﾔｷﾞｹﾝ","kana_city":"ｾﾝﾀﾞｲｼﾜｶﾊﾞﾔｼｸ","kana_address":"ｷﾉｼﾀ","pref":"宮城県","city":"仙台市若林区","address":"木ノ下"},
{"zip_code":"9840044","kana_pref":"ﾐﾔｷﾞｹﾝ","kana_city":"ｾﾝﾀﾞｲｼﾜｶﾊﾞﾔｼｸ","kana_address":"ｺﾞｳﾗｷﾄﾞｵﾘ","pref":"宮城県","city":"仙台市若林区","address":"椌木通"},
{"zip_code":"9840807","kana_pref":"ﾐﾔｷﾞｹﾝ","kana_city":"ｾﾝﾀﾞｲｼﾜｶﾊﾞﾔｼｸ","kana_address":"ｺｸﾁｮｳ","pref":"宮城県","city":"仙台市若林区","address":"穀町"},
{"zip_code":"9840812","kana_pref":"ﾐﾔｷﾞｹﾝ","kana_city":"ｾﾝﾀﾞｲｼﾜｶﾊﾞﾔｼｸ","kana_address":"ｺﾞｼﾞｭｳﾆﾝﾏﾁ","pref":"宮城県","city":"仙台市若林区","address":"五十人町"},
{"zip_code":"9840057","kana_pref":"ﾐﾔｷﾞｹﾝ","kana_city":"ｾﾝﾀﾞｲｼﾜｶﾊﾞﾔｼｸ","kana_address":"ｻﾝﾋﾞｬｸﾆﾝﾏﾁ","pref":"宮城県","city":"仙台市若林区","address":"三百人町"},
{"zip_code":"9840841","kana_pref":"ﾐﾔｷﾞｹﾝ","kana_city":"ｾﾝﾀﾞｲｼﾜｶﾊﾞﾔｼｸ","kana_address":"ｻﾝﾎﾞﾝﾂｶ","pref":"宮城県","city":"仙台市若林区","address":"三本塚"},
{"zip_code":"9840075","kana_pref":"ﾐﾔｷﾞｹﾝ","kana_city":"ｾﾝﾀﾞｲｼﾜｶﾊﾞﾔｼｸ","kana_address":"ｼﾐｽﾞｺｳｼﾞ","pref":"宮城県","city":"仙台市若林区","address":"清水小路"},
{"zip_code":"9840832","kana_pref":"ﾐﾔｷﾞｹﾝ","kana_city":"ｾﾝﾀﾞｲｼﾜｶﾊﾞﾔｼｸ","kana_address":"ｼﾓｲｲﾀﾞ","pref":"宮城県","city":"仙台市若林区","address":"下飯田"},
{"zip_code":"9840048","kana_pref":"ﾐﾔｷﾞｹﾝ","kana_city":"ｾﾝﾀﾞｲｼﾜｶﾊﾞﾔｼｸ","kana_address":"ｼﾗﾊｷﾞﾏﾁ","pref":"宮城県","city":"仙台市若林区","address":"白萩町"},
{"zip_code":"9840836","kana_pref":"ﾐﾔｷﾞｹﾝ","kana_city":"ｾﾝﾀﾞｲｼﾜｶﾊﾞﾔｼｸ","kana_address":"ｼﾛｳﾏﾙ","pref":"宮城県","city":"仙台市若林区","address":"四郎丸"},
{"zip_code":"9840041","kana_pref":"ﾐﾔｷﾞｹﾝ","kana_city":"ｾﾝﾀﾞｲｼﾜｶﾊﾞﾔｼｸ","kana_address":"ｼﾜﾏﾁ","pref":"宮城県","city":"仙台市若林区","address":"志波町"},
{"zip_code":"9840051","kana_pref":"ﾐﾔｷﾞｹﾝ","kana_city":"ｾﾝﾀﾞｲｼﾜｶﾊﾞﾔｼｸ","kana_address":"ｼﾝﾃﾗ","pref":"宮城県","city":"仙台市若林区","address":"新寺"},
{"zip_code":"9840803","kana_pref":"ﾐﾔｷﾞｹﾝ","kana_city":"ｾﾝﾀﾞｲｼﾜｶﾊﾞﾔｼｸ","kana_address":"ｼﾝﾕﾐﾉﾏﾁ","pref":"宮城県","city":"仙台市若林区","address":"新弓ノ町"},
{"zip_code":"9840801","kana_pref":"ﾐﾔｷﾞｹﾝ","kana_city":"ｾﾝﾀﾞｲｼﾜｶﾊﾞﾔｼｸ","kana_address":"ﾀﾀﾐﾔﾁｮｳ","pref":"宮城県","city":"仙台市若林区","address":"畳屋丁"},
{"zip_code":"9840844","kana_pref":"ﾐﾔｷﾞｹﾝ","kana_city":"ｾﾝﾀﾞｲｼﾜｶﾊﾞﾔｼｸ","kana_address":"ﾀﾅﾂｷﾞ","pref":"宮城県","city":"仙台市若林区","address":"種次"},
{"zip_code":"9840036","kana_pref":"ﾐﾔｷﾞｹﾝ","kana_city":"ｾﾝﾀﾞｲｼﾜｶﾊﾞﾔｼｸ","kana_address":"ﾁｮｳｷｼﾞｮｳ","pref":"宮城県","city":"仙台市若林区","address":"長喜城"},
{"zip_code":"9840065","kana_pref":"ﾐﾔｷﾞｹﾝ","kana_city":"ｾﾝﾀﾞｲｼﾜｶﾊﾞﾔｼｸ","kana_address":"ﾂﾁﾄｲ","pref":"宮城県","city":"仙台市若林区","address":"土樋"},
{"zip_code":"9840001","kana_pref":"ﾐﾔｷﾞｹﾝ","kana_city":"ｾﾝﾀﾞｲｼﾜｶﾊﾞﾔｼｸ","kana_address":"ﾂﾙｼﾛﾏﾁ","pref":"宮城県","city":"仙台市若林区","address":"鶴代町"},
{"zip_code":"9840817","kana_pref":"ﾐﾔｷﾞｹﾝ","kana_city":"ｾﾝﾀﾞｲｼﾜｶﾊﾞﾔｼｸ","kana_address":"ﾄﾞｳﾊﾞ","pref":"宮城県","city":"仙台市若林区","address":"堰場"},
{"zip_code":"9840823","kana_pref":"ﾐﾔｷﾞｹﾝ","kana_city":"ｾﾝﾀﾞｲｼﾜｶﾊﾞﾔｼｸ","kana_address":"ﾄｵﾐﾂﾞｶ","pref":"宮城県","city":"仙台市若林区","address":"遠見塚"},
{"zip_code":"9840824","kana_pref":"ﾐﾔｷﾞｹﾝ","kana_city":"ｾﾝﾀﾞｲｼﾜｶﾊﾞﾔｼｸ","kana_address":"ﾄｵﾐﾂﾞｶﾋｶﾞｼ","pref":"宮城県","city":"仙台市若林区","address":"遠見塚東"},
{"zip_code":"9840821","kana_pref":"ﾐﾔｷﾞｹﾝ","kana_city":"ｾﾝﾀﾞｲｼﾜｶﾊﾞﾔｼｸ","kana_address":"ﾅｶｸﾗ","pref":"宮城県","city":"仙台市若林区","address":"中倉"},
{"zip_code":"9840056","kana_pref":"ﾐﾔｷﾞｹﾝ","kana_city":"ｾﾝﾀﾞｲｼﾜｶﾊﾞﾔｼｸ","kana_address":"ﾅﾘﾀﾏﾁ","pref":"宮城県","city":"仙台市若林区","address":"成田町"},
{"zip_code":"9840046","kana_pref":"ﾐﾔｷﾞｹﾝ","kana_city":"ｾﾝﾀﾞｲｼﾜｶﾊﾞﾔｼｸ","kana_address":"ﾆｹﾝﾁｬﾔ","pref":"宮城県","city":"仙台市若林区","address":"二軒茶屋"},
{"zip_code":"9840045","kana_pref":"ﾐﾔｷﾞｹﾝ","kana_city":"ｾﾝﾀﾞｲｼﾜｶﾊﾞﾔｼｸ","kana_address":"ﾆｼｼﾝﾁｮｳ","pref":"宮城県","city":"仙台市若林区","address":"西新丁"},
{"zip_code":"9840837","kana_pref":"ﾐﾔｷﾞｹﾝ","kana_city":"ｾﾝﾀﾞｲｼﾜｶﾊﾞﾔｼｸ","kana_address":"ﾆｯﾍﾟ","pref":"宮城県","city":"仙台市若林区","address":"日辺"},
{"zip_code":"9840802","kana_pref":"ﾐﾔｷﾞｹﾝ","kana_city":"ｾﾝﾀﾞｲｼﾜｶﾊﾞﾔｼｸ","kana_address":"ﾊﾁｹﾝｺｳｼﾞ","pref":"宮城県","city":"仙台市若林区","address":"八軒小路"},
{"zip_code":"9840043","kana_pref":"ﾐﾔｷﾞｹﾝ","kana_city":"ｾﾝﾀﾞｲｼﾜｶﾊﾞﾔｼｸ","kana_address":"ﾋｶﾞｼｼﾝﾁｮｳ","pref":"宮城県","city":"仙台市若林区","address":"東新丁"},
{"zip_code":"9840074","kana_pref":"ﾐﾔｷﾞｹﾝ","kana_city":"ｾﾝﾀﾞｲｼﾜｶﾊﾞﾔｼｸ","kana_address":"ﾋｶﾞｼ7ﾊﾞﾝﾁｮｳ","pref":"宮城県","city":"仙台市若林区","address":"東七番丁"},
{"zip_code":"9840072","kana_pref":"ﾐﾔｷﾞｹﾝ","kana_city":"ｾﾝﾀﾞｲｼﾜｶﾊﾞﾔｼｸ","kana_address":"ﾋｶﾞｼ8ﾊﾞﾝﾁｮｳ","pref":"宮城県","city":"仙台市若林区","address":"東八番丁"},
{"zip_code":"9840071","kana_pref":"ﾐﾔｷﾞｹﾝ","kana_city":"ｾﾝﾀﾞｲｼﾜｶﾊﾞﾔｼｸ","kana_address":"ﾋｶﾞｼ9ﾊﾞﾝﾁｮｳ","pref":"宮城県","city":"仙台市若林区","address":"東九番丁"},
{"zip_code":"9840843","kana_pref":"ﾐﾔｷﾞｹﾝ","kana_city":"ｾﾝﾀﾞｲｼﾜｶﾊﾞﾔｼｸ","kana_address":"ﾌｼﾞﾂｶ","pref":"宮城県","city":"仙台市若林区","address":"藤塚"},
{"zip_code":"9840845","kana_pref":"ﾐﾔｷﾞｹﾝ","kana_city":"ｾﾝﾀﾞｲｼﾜｶﾊﾞﾔｼｸ","kana_address":"ﾌﾀｷ","pref":"宮城県","city":"仙台市若林区","address":"二木"},
{"zip_code":"9840806","kana_pref":"ﾐﾔｷﾞｹﾝ","kana_city":"ｾﾝﾀﾞｲｼﾜｶﾊﾞﾔｼｸ","kana_address":"ﾌﾅﾁｮｳ","pref":"宮城県","city":"仙台市若林区","address":"舟丁"},
{"zip_code":"9840825","kana_pref":"ﾐﾔｷﾞｹﾝ","kana_city":"ｾﾝﾀﾞｲｼﾜｶﾊﾞﾔｼｸ","kana_address":"ﾌﾙｼﾞﾛ","pref":"宮城県","city":"仙台市若林区","address":"古城"},
{"zip_code":"9840815","kana_pref":"ﾐﾔｷﾞｹﾝ","kana_city":"ｾﾝﾀﾞｲｼﾜｶﾊﾞﾔｼｸ","kana_address":"ﾌﾞﾝｶﾏﾁ","pref":"宮城県","city":"仙台市若林区","address":"文化町"},
{"zip_code":"9840811","kana_pref":"ﾐﾔｷﾞｹﾝ","kana_city":"ｾﾝﾀﾞｲｼﾜｶﾊﾞﾔｼｸ","kana_address":"ﾎｼｭﾝｲﾝﾏｴﾁｮｳ","pref":"宮城県","city":"仙台市若林区","address":"保春院前丁"},
{"zip_code":"9840804","kana_pref":"ﾐﾔｷﾞｹﾝ","kana_city":"ｾﾝﾀﾞｲｼﾜｶﾊﾞﾔｼｸ","kana_address":"ﾐﾅﾐｲｼｷﾘﾏﾁ","pref":"宮城県","city":"仙台市若林区","address":"南石切町"},
{"zip_code":"9840061","kana_pref":"ﾐﾔｷﾞｹﾝ","kana_city":"ｾﾝﾀﾞｲｼﾜｶﾊﾞﾔｼｸ","kana_address":"ﾐﾅﾐｶｼﾞﾏﾁ","pref":"宮城県","city":"仙台市若林区","address":"南鍛冶町"},
{"zip_code":"9840827","kana_pref":"ﾐﾔｷﾞｹﾝ","kana_city":"ｾﾝﾀﾞｲｼﾜｶﾊﾞﾔｼｸ","kana_address":"ﾐﾅﾐｺｲｽﾞﾐ","pref":"宮城県","city":"仙台市若林区","address":"南小泉"},
{"zip_code":"9840805","kana_pref":"ﾐﾔｷﾞｹﾝ","kana_city":"ｾﾝﾀﾞｲｼﾜｶﾊﾞﾔｼｸ","kana_address":"ﾐﾅﾐｻﾞｲﾓｸﾁｮｳ","pref":"宮城県","city":"仙台市若林区","address":"南材木町"},
{"zip_code":"9840814","kana_pref":"ﾐﾔｷﾞｹﾝ","kana_city":"ｾﾝﾀﾞｲｼﾜｶﾊﾞﾔｼｸ","kana_address":"ﾐﾅﾐｿﾒｼﾏﾁ","pref":"宮城県","city":"仙台市若林区","address":"南染師町"},
{"zip_code":"9840058","kana_pref":"ﾐﾔｷﾞｹﾝ","kana_city":"ｾﾝﾀﾞｲｼﾜｶﾊﾞﾔｼｸ","kana_address":"ﾓﾄﾁｬﾊﾞﾀｹ","pref":"宮城県","city":"仙台市若林区","address":"元茶畑"},
{"zip_code":"9840042","kana_pref":"ﾐﾔｷﾞｹﾝ","kana_city":"ｾﾝﾀﾞｲｼﾜｶﾊﾞﾔｼｸ","kana_address":"ﾔﾏﾄﾏﾁ","pref":"宮城県","city":"仙台市若林区","address":"大和町"},
{"zip_code":"9840062","kana_pref":"ﾐﾔｷﾞｹﾝ","kana_city":"ｾﾝﾀﾞｲｼﾜｶﾊﾞﾔｼｸ","kana_address":"ﾕﾐﾉﾏﾁ","pref":"宮城県","city":"仙台市若林区","address":"弓ノ町"},
{"zip_code":"9840052","kana_pref":"ﾐﾔｷﾞｹﾝ","kana_city":"ｾﾝﾀﾞｲｼﾜｶﾊﾞﾔｼｸ","kana_address":"ﾚﾝﾎﾞｳ","pref":"宮城県","city":"仙台市若林区","address":"連坊"},
{"zip_code":"9840053","kana_pref":"ﾐﾔｷﾞｹﾝ","kana_city":"ｾﾝﾀﾞｲｼﾜｶﾊﾞﾔｼｸ","kana_address":"ﾚﾝﾎﾞｳｺｳｼﾞ","pref":"宮城県","city":"仙台市若林区","address":"連坊小路"},
{"zip_code":"9840834","kana_pref":"ﾐﾔｷﾞｹﾝ","kana_city":"ｾﾝﾀﾞｲｼﾜｶﾊﾞﾔｼｸ","kana_address":"ﾛｸｺﾞｳ","pref":"宮城県","city":"仙台市若林区","address":"六郷"},
{"zip_code":"9840813","kana_pref":"ﾐﾔｷﾞｹﾝ","kana_city":"ｾﾝﾀﾞｲｼﾜｶﾊﾞﾔｼｸ","kana_address":"ﾛｸｼﾞｭｳﾆﾝﾏﾁ","pref":"宮城県","city":"仙台市若林区","address":"六十人町"},
{"zip_code":"9840031","kana_pref":"ﾐﾔｷﾞｹﾝ","kana_city":"ｾﾝﾀﾞｲｼﾜｶﾊﾞﾔｼｸ","kana_address":"ﾛｸﾁｮｳﾉﾒ","pref":"宮城県","city":"仙台市若林区","address":"六丁目"},
{"zip_code":"9840004","kana_pref":"ﾐﾔｷﾞｹﾝ","kana_city":"ｾﾝﾀﾞｲｼﾜｶﾊﾞﾔｼｸ","kana_address":"ﾛｸﾁｮｳﾉﾒﾋｶﾞｼﾏﾁ","pref":"宮城県","city":"仙台市若林区","address":"六丁の目東町"},
{"zip_code":"9840011","kana_pref":"ﾐﾔｷﾞｹﾝ","kana_city":"ｾﾝﾀﾞｲｼﾜｶﾊﾞﾔｼｸ","kana_address":"ﾛｸﾁｮｳﾉﾒﾆｼﾏﾁ","pref":"宮城県","city":"仙台市若林区","address":"六丁の目西町"},
{"zip_code":"9840013","kana_pref":"ﾐﾔｷﾞｹﾝ","kana_city":"ｾﾝﾀﾞｲｼﾜｶﾊﾞﾔｼｸ","kana_address":"ﾛｸﾁｮｳﾉﾒﾐﾅﾐﾏﾁ","pref":"宮城県","city":"仙台市若林区","address":"六丁の目南町"},
{"zip_code":"9840003","kana_pref":"ﾐﾔｷﾞｹﾝ","kana_city":"ｾﾝﾀﾞｲｼﾜｶﾊﾞﾔｼｸ","kana_address":"ﾛｸﾁｮｳﾉﾒｷﾀﾏﾁ","pref":"宮城県","city":"仙台市若林区","address":"六丁の目北町"},
{"zip_code":"9840012","kana_pref":"ﾐﾔｷﾞｹﾝ","kana_city":"ｾﾝﾀﾞｲｼﾜｶﾊﾞﾔｼｸ","kana_address":"ﾛｸﾁｮｳﾉﾒﾅｶﾏﾁ","pref":"宮城県","city":"仙台市若林区","address":"六丁の目中町"},
{"zip_code":"9840014","kana_pref":"ﾐﾔｷﾞｹﾝ","kana_city":"ｾﾝﾀﾞｲｼﾜｶﾊﾞﾔｼｸ","kana_address":"ﾛｸﾁｮｳﾉﾒﾓﾄﾏﾁ","pref":"宮城県","city":"仙台市若林区","address":"六丁の目元町"},
{"zip_code":"9840826","kana_pref":"ﾐﾔｷﾞｹﾝ","kana_city":"ｾﾝﾀﾞｲｼﾜｶﾊﾞﾔｼｸ","kana_address":"ﾜｶﾊﾞﾔｼ","pref":"宮城県","city":"仙台市若林区","address":"若林"}]}