{"zip_code":[
{"zip_code":"9850901","kana_pref":"ﾐﾔｷﾞｹﾝ","kana_city":"ｾﾝﾀﾞｲｼﾐﾔｷﾞﾉｸ","kana_address":"ﾐﾅﾄ","pref":"宮城県","city":"仙台市宮城野区","address":"港"},
{"zip_code":"9850000","kana_pref":"ﾐﾔｷﾞｹﾝ","kana_city":"ｼｵｶﾞﾏｼ","kana_address":"","pref":"宮城県","city":"塩竈市","address":""},
{"zip_code":"9850082","kana_pref":"ﾐﾔｷﾞｹﾝ","kana_city":"ｼｵｶﾞﾏｼ","kana_address":"ｱｵﾊﾞｶﾞｵｶ","pref":"宮城県","city":"塩竈市","address":"青葉ケ丘"},
{"zip_code":"9850055","kana_pref":"ﾐﾔｷﾞｹﾝ","kana_city":"ｼｵｶﾞﾏｼ","kana_address":"ｱｶｻｶ","pref":"宮城県","city":"塩竈市","address":"赤坂"},
{"zip_code":"9850026","kana_pref":"ﾐﾔｷﾞｹﾝ","kana_city":"ｼｵｶﾞﾏｼ","kana_address":"ｱｻﾋﾁｮｳ","pref":"宮城県","city":"塩竈市","address":"旭町"},
{"zip_code":"9850012","kana_pref":"ﾐﾔｷﾞｹﾝ","kana_city":"ｼｵｶﾞﾏｼ","kana_address":"ｱｼｸﾞﾛﾁｮｳ","pref":"宮城県","city":"塩竈市","address":"芦畔町"},
{"zip_code":"9850081","kana_pref":"ﾐﾔｷﾞｹﾝ","kana_city":"ｼｵｶﾞﾏｼ","kana_address":"ｲｼﾀﾞ","pref":"宮城県","city":"塩竈市","address":"石田"},
{"zip_code":"9850031","kana_pref":"ﾐﾔｷﾞｹﾝ","kana_city":"ｼｵｶﾞﾏｼ","kana_address":"ｲｼﾄﾞｳ","pref":"宮城県","city":"塩竈市","address":"石堂"},
{"zip_code":"9850056","kana_pref":"ﾐﾔｷﾞｹﾝ","kana_city":"ｼｵｶﾞﾏｼ","kana_address":"ｲｽﾞﾐｶﾞｵｶ","pref":"宮城県","city":"塩竈市","address":"泉ケ岡"},
{"zip_code":"9850062","kana_pref":"ﾐﾔｷﾞｹﾝ","kana_city":"ｼｵｶﾞﾏｼ","kana_address":"ｲｽﾞﾐｻﾜﾁｮｳ","pref":"宮城県","city":"塩竈市","address":"泉沢町"},
{"zip_code":"9850074","kana_pref":"ﾐﾔｷﾞｹﾝ","kana_city":"ｼｵｶﾞﾏｼ","kana_address":"ｲﾁﾓﾘﾔﾏ","pref":"宮城県","city":"塩竈市","address":"一森山"},
{"zip_code":"9850087","kana_pref":"ﾐﾔｷﾞｹﾝ","kana_city":"ｼｵｶﾞﾏｼ","kana_address":"ｲﾎﾞｲｼ","pref":"宮城県","city":"塩竈市","address":"伊保石"},
{"zip_code":"9850075","kana_pref":"ﾐﾔｷﾞｹﾝ","kana_city":"ｼｵｶﾞﾏｼ","kana_address":"ｲﾏﾐﾔﾁｮｳ","pref":"宮城県","city":"塩竈市","address":"今宮町"},
{"zip_code":"9850077","kana_pref":"ﾐﾔｷﾞｹﾝ","kana_city":"ｼｵｶﾞﾏｼ","kana_address":"ｳﾒﾉﾐﾔ","pref":"宮城県","city":"塩竈市","address":"梅の宮"},
{"zip_code":"9850191","kana_pref":"ﾐﾔｷﾞｹﾝ","kana_city":"ｼｵｶﾞﾏｼ","kana_address":"ｳﾗﾄｲｼﾊﾏ","pref":"宮城県","city":"塩竈市","address":"浦戸石浜"},
{"zip_code":"9850192","kana_pref":"ﾐﾔｷﾞｹﾝ","kana_city":"ｼｵｶﾞﾏｼ","kana_address":"ｳﾗﾄｶﾂﾗｼﾏ","pref":"宮城県","city":"塩竈市","address":"浦戸桂島"},
{"zip_code":"9850194","kana_pref":"ﾐﾔｷﾞｹﾝ","kana_city":"ｼｵｶﾞﾏｼ","kana_address":"ｳﾗﾄｻﾌﾞｻﾜ","pref":"宮城県","city":"塩竈市","address":"浦戸寒風沢"},
{"zip_code":"9850193","kana_pref":"ﾐﾔｷﾞｹﾝ","kana_city":"ｼｵｶﾞﾏｼ","kana_address":"ｳﾗﾄﾉﾉｼﾏ","pref":"宮城県","city":"塩竈市","address":"浦戸野々島"},
{"zip_code":"9850195","kana_pref":"ﾐﾔｷﾞｹﾝ","kana_city":"ｼｵｶﾞﾏｼ","kana_address":"ｳﾗﾄﾎｳｼﾞﾏ","pref":"宮城県","city":"塩竈市","address":"浦戸朴島"},
{"zip_code":"9850046","kana_pref":"ﾐﾔｷﾞｹﾝ","kana_city":"ｼｵｶﾞﾏｼ","kana_address":"ｵｵﾋﾅﾀﾁｮｳ","pref":"宮城県","city":"塩竈市","address":"大日向町"},
{"zip_code":"9850021","kana_pref":"ﾐﾔｷﾞｹﾝ","kana_city":"ｼｵｶﾞﾏｼ","kana_address":"ｵｼﾞﾏﾁｮｳ","pref":"宮城県","city":"塩竈市","address":"尾島町"},
{"zip_code":"9850002","kana_pref":"ﾐﾔｷﾞｹﾝ","kana_city":"ｼｵｶﾞﾏｼ","kana_address":"ｶｲｶﾞﾝﾄﾞｵﾘ","pref":"宮城県","city":"塩竈市","address":"海岸通"},
{"zip_code":"9850084","kana_pref":"ﾐﾔｷﾞｹﾝ","kana_city":"ｼｵｶﾞﾏｼ","kana_address":"ｶｴﾃﾞﾁｮｳ","pref":"宮城県","city":"塩竈市","address":"楓町"},
{"zip_code":"9850085","kana_pref":"ﾐﾔｷﾞｹﾝ","kana_city":"ｼｵｶﾞﾏｼ","kana_address":"ｶﾉｴﾂﾞｶ","pref":"宮城県","city":"塩竈市","address":"庚塚"},
{"zip_code":"9850003","kana_pref":"ﾐﾔｷﾞｹﾝ","kana_city":"ｼｵｶﾞﾏｼ","kana_address":"ｷﾀﾊﾏ","pref":"宮城県","city":"塩竈市","address":"北浜"},
{"zip_code":"9850013","kana_pref":"ﾐﾔｷﾞｹﾝ","kana_city":"ｼｵｶﾞﾏｼ","kana_address":"ｷﾞｭｳﾁｮｳ","pref":"宮城県","city":"塩竈市","address":"牛生町"},
{"zip_code":"9850054","kana_pref":"ﾐﾔｷﾞｹﾝ","kana_city":"ｼｵｶﾞﾏｼ","kana_address":"ｺｳﾂﾞﾏﾁ","pref":"宮城県","city":"塩竈市","address":"香津町"},
{"zip_code":"9850067","kana_pref":"ﾐﾔｷﾞｹﾝ","kana_city":"ｼｵｶﾞﾏｼ","kana_address":"ｺｳﾗｸﾁｮｳ","pref":"宮城県","city":"塩竈市","address":"後楽町"},
{"zip_code":"9850083","kana_pref":"ﾐﾔｷﾞｹﾝ","kana_city":"ｼｵｶﾞﾏｼ","kana_address":"ｺｼﾉｳﾗ","pref":"宮城県","city":"塩竈市","address":"越ノ浦"},
{"zip_code":"9850072","kana_pref":"ﾐﾔｷﾞｹﾝ","kana_city":"ｼｵｶﾞﾏｼ","kana_address":"ｺﾏﾂｻﾞｷ","pref":"宮城県","city":"塩竈市","address":"小松崎"},
{"zip_code":"9850064","kana_pref":"ﾐﾔｷﾞｹﾝ","kana_city":"ｼｵｶﾞﾏｼ","kana_address":"ｺﾞﾝｹﾞﾝﾄﾞｳ","pref":"宮城県","city":"塩竈市","address":"権現堂"},
{"zip_code":"9850025","kana_pref":"ﾐﾔｷﾞｹﾝ","kana_city":"ｼｵｶﾞﾏｼ","kana_address":"ｻｳﾗﾁｮｳ","pref":"宮城県","city":"塩竈市","address":"佐浦町"},
{"zip_code":"9850063","kana_pref":"ﾐﾔｷﾞｹﾝ","kana_city":"ｼｵｶﾞﾏｼ","kana_address":"ｻｶｴﾁｮｳ","pref":"宮城県","city":"塩竈市","address":"栄町"},
{"zip_code":"9850033","kana_pref":"ﾐﾔｷﾞｹﾝ","kana_city":"ｼｵｶﾞﾏｼ","kana_address":"ｻｸﾗｶﾞｵｶ","pref":"宮城県","city":"塩竈市","address":"桜ケ丘"},
{"zip_code":"9850061","kana_pref":"ﾐﾔｷﾞｹﾝ","kana_city":"ｼｵｶﾞﾏｼ","kana_address":"ｼﾐｽﾞｻﾜ","pref":"宮城県","city":"塩竈市","address":"清水沢"},
{"zip_code":"9850071","kana_pref":"ﾐﾔｷﾞｹﾝ","kana_city":"ｼｵｶﾞﾏｼ","kana_address":"ｼｮｳﾖｳﾀﾞｲ","pref":"宮城県","city":"塩竈市","address":"松陽台"},
{"zip_code":"9850041","kana_pref":"ﾐﾔｷﾞｹﾝ","kana_city":"ｼｵｶﾞﾏｼ","kana_address":"ｼﾗｷﾞｸﾁｮｳ","pref":"宮城県","city":"塩竈市","address":"白菊町"},
{"zip_code":"9850032","kana_pref":"ﾐﾔｷﾞｹﾝ","kana_city":"ｼｵｶﾞﾏｼ","kana_address":"ｼﾗﾊｷﾞﾁｮｳ","pref":"宮城県","city":"塩竈市","address":"白萩町"},
{"zip_code":"9850022","kana_pref":"ﾐﾔｷﾞｹﾝ","kana_city":"ｼｵｶﾞﾏｼ","kana_address":"ｼﾝﾄﾐﾁｮｳ","pref":"宮城県","city":"塩竈市","address":"新富町"},
{"zip_code":"9850001","kana_pref":"ﾐﾔｷﾞｹﾝ","kana_city":"ｼｵｶﾞﾏｼ","kana_address":"ｼﾝﾊﾏﾁｮｳ","pref":"宮城県","city":"塩竈市","address":"新浜町"},
{"zip_code":"9850005","kana_pref":"ﾐﾔｷﾞｹﾝ","kana_city":"ｼｵｶﾞﾏｼ","kana_address":"ｽｷﾞﾉｲﾘ","pref":"宮城県","city":"塩竈市","address":"杉の入"},
{"zip_code":"9850006","kana_pref":"ﾐﾔｷﾞｹﾝ","kana_city":"ｼｵｶﾞﾏｼ","kana_address":"ｽｷﾞﾉｲﾘｳﾗ","pref":"宮城県","city":"塩竈市","address":"杉の入裏"},
{"zip_code":"9850043","kana_pref":"ﾐﾔｷﾞｹﾝ","kana_city":"ｼｵｶﾞﾏｼ","kana_address":"ｿﾃﾞﾉﾀﾞﾁｮｳ","pref":"宮城県","city":"塩竈市","address":"袖野田町"},
{"zip_code":"9850042","kana_pref":"ﾐﾔｷﾞｹﾝ","kana_city":"ｼｵｶﾞﾏｼ","kana_address":"ﾀﾏｶﾞﾜ","pref":"宮城県","city":"塩竈市","address":"玉川"},
{"zip_code":"9850086","kana_pref":"ﾐﾔｷﾞｹﾝ","kana_city":"ｼｵｶﾞﾏｼ","kana_address":"ﾁｶﾞﾉﾀﾞｲ","pref":"宮城県","city":"塩竈市","address":"千賀の台"},
{"zip_code":"9850066","kana_pref":"ﾐﾔｷﾞｹﾝ","kana_city":"ｼｵｶﾞﾏｼ","kana_address":"ﾂｷﾐｶﾞｵｶ","pref":"宮城県","city":"塩竈市","address":"月見ケ丘"},
{"zip_code":"9850011","kana_pref":"ﾐﾔｷﾞｹﾝ","kana_city":"ｼｵｶﾞﾏｼ","kana_address":"ﾃｲｻﾞﾝﾄﾞｵﾘ","pref":"宮城県","city":"塩竈市","address":"貞山通"},
{"zip_code":"9850015","kana_pref":"ﾐﾔｷﾞｹﾝ","kana_city":"ｼｵｶﾞﾏｼ","kana_address":"ﾅｶﾉｼﾏ","pref":"宮城県","city":"塩竈市","address":"中の島"},
{"zip_code":"9850088","kana_pref":"ﾐﾔｷﾞｹﾝ","kana_city":"ｼｵｶﾞﾏｼ","kana_address":"ﾅｶﾞｻﾜ","pref":"宮城県","city":"塩竈市","address":"長沢"},
{"zip_code":"9850076","kana_pref":"ﾐﾔｷﾞｹﾝ","kana_city":"ｼｵｶﾞﾏｼ","kana_address":"ﾅｶﾞｻﾜﾁｮｳ","pref":"宮城県","city":"塩竈市","address":"長沢町"},
{"zip_code":"9850024","kana_pref":"ﾐﾔｷﾞｹﾝ","kana_city":"ｼｵｶﾞﾏｼ","kana_address":"ﾆｼｷﾁｮｳ","pref":"宮城県","city":"塩竈市","address":"錦町"},
{"zip_code":"9850045","kana_pref":"ﾐﾔｷﾞｹﾝ","kana_city":"ｼｵｶﾞﾏｼ","kana_address":"ﾆｼﾀﾏｶﾞﾜﾁｮｳ","pref":"宮城県","city":"塩竈市","address":"西玉川町"},
{"zip_code":"9850057","kana_pref":"ﾐﾔｷﾞｹﾝ","kana_city":"ｼｵｶﾞﾏｼ","kana_address":"ﾆｼﾏﾁ","pref":"宮城県","city":"塩竈市","address":"西町"},
{"zip_code":"9850035","kana_pref":"ﾐﾔｷﾞｹﾝ","kana_city":"ｼｵｶﾞﾏｼ","kana_address":"ﾉﾀﾞ","pref":"宮城県","city":"塩竈市","address":"野田"},
{"zip_code":"9850023","kana_pref":"ﾐﾔｷﾞｹﾝ","kana_city":"ｼｵｶﾞﾏｼ","kana_address":"ﾊﾅﾀﾞﾃﾁｮｳ","pref":"宮城県","city":"塩竈市","address":"花立町"},
{"zip_code":"9850044","kana_pref":"ﾐﾔｷﾞｹﾝ","kana_city":"ｼｵｶﾞﾏｼ","kana_address":"ﾊﾊｺｻﾞﾜﾁｮｳ","pref":"宮城県","city":"塩竈市","address":"母子沢町"},
{"zip_code":"9850036","kana_pref":"ﾐﾔｷﾞｹﾝ","kana_city":"ｼｵｶﾞﾏｼ","kana_address":"ﾋｶﾞｼﾀﾏｶﾞﾜﾁｮｳ","pref":"宮城県","city":"塩竈市","address":"東玉川町"},
{"zip_code":"9850004","kana_pref":"ﾐﾔｷﾞｹﾝ","kana_city":"ｼｵｶﾞﾏｼ","kana_address":"ﾌｼﾞｸﾗ","pref":"宮城県","city":"塩竈市","address":"藤倉"},
{"zip_code":"9850014","kana_pref":"ﾐﾔｷﾞｹﾝ","kana_city":"ｼｵｶﾞﾏｼ","kana_address":"ﾌﾅｲﾘ","pref":"宮城県","city":"塩竈市","address":"舟入"},
{"zip_code":"9850016","kana_pref":"ﾐﾔｷﾞｹﾝ","kana_city":"ｼｵｶﾞﾏｼ","kana_address":"ﾐﾅﾄﾏﾁ","pref":"宮城県","city":"塩竈市","address":"港町"},
{"zip_code":"9850034","kana_pref":"ﾐﾔｷﾞｹﾝ","kana_city":"ｼｵｶﾞﾏｼ","kana_address":"ﾐﾅﾐﾆｼｷﾁｮｳ","pref":"宮城県","city":"塩竈市","address":"南錦町"},
{"zip_code":"9850053","kana_pref":"ﾐﾔｷﾞｹﾝ","kana_city":"ｼｵｶﾞﾏｼ","kana_address":"ﾐﾅﾐﾏﾁ","pref":"宮城県","city":"塩竈市","address":"南町"},
{"zip_code":"9850073","kana_pref":"ﾐﾔｷﾞｹﾝ","kana_city":"ｼｵｶﾞﾏｼ","kana_address":"ﾐﾉｶﾞｵｶ","pref":"宮城県","city":"塩竈市","address":"みのが丘"},
{"zip_code":"9850051","kana_pref":"ﾐﾔｷﾞｹﾝ","kana_city":"ｼｵｶﾞﾏｼ","kana_address":"ﾐﾔﾏﾁ","pref":"宮城県","city":"塩竈市","address":"宮町"},
{"zip_code":"9850065","kana_pref":"ﾐﾔｷﾞｹﾝ","kana_city":"ｼｵｶﾞﾏｼ","kana_address":"ﾑｶｲｶﾞｵｶ","pref":"宮城県","city":"塩竈市","address":"向ケ丘"},
{"zip_code":"9850052","kana_pref":"ﾐﾔｷﾞｹﾝ","kana_city":"ｼｵｶﾞﾏｼ","kana_address":"ﾓﾄﾏﾁ","pref":"宮城県","city":"塩竈市","address":"本町"},
{"zip_code":"9850000","kana_pref":"ﾐﾔｷﾞｹﾝ","kana_city":"ﾀｶﾞｼﾞｮｳｼ","kana_address":"","pref":"宮城県","city":"多賀城市","address":""},
{"zip_code":"9850864","kana_pref":"ﾐﾔｷﾞｹﾝ","kana_city":"ﾀｶﾞｼﾞｮｳｼ","kana_address":"ｲﾁｶﾜ","pref":"宮城県","city":"多賀城市","address":"市川"},
{"zip_code":"9850861","kana_pref":"ﾐﾔｷﾞｹﾝ","kana_city":"ﾀｶﾞｼﾞｮｳｼ","kana_address":"ｳｷｼﾏ","pref":"宮城県","city":"多賀城市","address":"浮島"},
{"zip_code":"9850832","kana_pref":"ﾐﾔｷﾞｹﾝ","kana_city":"ﾀｶﾞｼﾞｮｳｼ","kana_address":"ｵｵｼﾛ","pref":"宮城県","city":"多賀城市","address":"大代"},
{"zip_code":"9850831","kana_pref":"ﾐﾔｷﾞｹﾝ","kana_city":"ﾀｶﾞｼﾞｮｳｼ","kana_address":"ｶｻｶﾞﾐ","pref":"宮城県","city":"多賀城市","address":"笠神"},
{"zip_code":"9850835","kana_pref":"ﾐﾔｷﾞｹﾝ","kana_city":"ﾀｶﾞｼﾞｮｳｼ","kana_address":"ｹﾞﾊﾞ","pref":"宮城県","city":"多賀城市","address":"下馬"},
{"zip_code":"9850833","kana_pref":"ﾐﾔｷﾞｹﾝ","kana_city":"ﾀｶﾞｼﾞｮｳｼ","kana_address":"ｻｶｴ","pref":"宮城県","city":"多賀城市","address":"栄"},
{"zip_code":"9850842","kana_pref":"ﾐﾔｷﾞｹﾝ","kana_city":"ﾀｶﾞｼﾞｮｳｼ","kana_address":"ｻｸﾗｷﾞ","pref":"宮城県","city":"多賀城市","address":"桜木"},
{"zip_code":"9850852","kana_pref":"ﾐﾔｷﾞｹﾝ","kana_city":"ﾀｶﾞｼﾞｮｳｼ","kana_address":"ｻﾝﾉｳ","pref":"宮城県","city":"多賀城市","address":"山王"},
{"zip_code":"9850865","kana_pref":"ﾐﾔｷﾞｹﾝ","kana_city":"ﾀｶﾞｼﾞｮｳｼ","kana_address":"ｼﾞｮｳﾅﾝ","pref":"宮城県","city":"多賀城市","address":"城南"},
{"zip_code":"9850862","kana_pref":"ﾐﾔｷﾞｹﾝ","kana_city":"ﾀｶﾞｼﾞｮｳｼ","kana_address":"ﾀｶｻｷ","pref":"宮城県","city":"多賀城市","address":"高崎"},
{"zip_code":"9850853","kana_pref":"ﾐﾔｷﾞｹﾝ","kana_city":"ﾀｶﾞｼﾞｮｳｼ","kana_address":"ﾀｶﾊｼ","pref":"宮城県","city":"多賀城市","address":"高橋"},
{"zip_code":"9850873","kana_pref":"ﾐﾔｷﾞｹﾝ","kana_city":"ﾀｶﾞｼﾞｮｳｼ","kana_address":"ﾁｭｳｵｳ","pref":"宮城県","city":"多賀城市","address":"中央"},
{"zip_code":"9850841","kana_pref":"ﾐﾔｷﾞｹﾝ","kana_city":"ﾀｶﾞｼﾞｮｳｼ","kana_address":"ﾂﾙｶﾞﾔ","pref":"宮城県","city":"多賀城市","address":"鶴ケ谷"},
{"zip_code":"9850872","kana_pref":"ﾐﾔｷﾞｹﾝ","kana_city":"ﾀｶﾞｼﾞｮｳｼ","kana_address":"ﾃﾞﾝｼﾞｮｳﾔﾏ","pref":"宮城県","city":"多賀城市","address":"伝上山"},
{"zip_code":"9850871","kana_pref":"ﾐﾔｷﾞｹﾝ","kana_city":"ﾀｶﾞｼﾞｮｳｼ","kana_address":"ﾄﾒｶﾞﾔ","pref":"宮城県","city":"多賀城市","address":"留ケ谷"},
{"zip_code":"9850851","kana_pref":"ﾐﾔｷﾞｹﾝ","kana_city":"ﾀｶﾞｼﾞｮｳｼ","kana_address":"ﾅﾝｸﾞｳ","pref":"宮城県","city":"多賀城市","address":"南宮"},
{"zip_code":"9850854","kana_pref":"ﾐﾔｷﾞｹﾝ","kana_city":"ﾀｶﾞｼﾞｮｳｼ","kana_address":"ﾆｲﾀﾞ","pref":"宮城県","city":"多賀城市","address":"新田"},
{"zip_code":"9850863","kana_pref":"ﾐﾔｷﾞｹﾝ","kana_city":"ﾀｶﾞｼﾞｮｳｼ","kana_address":"ﾋｶﾞｼﾀﾅｶ","pref":"宮城県","city":"多賀城市","address":"東田中"},
{"zip_code":"9850845","kana_pref":"ﾐﾔｷﾞｹﾝ","kana_city":"ﾀｶﾞｼﾞｮｳｼ","kana_address":"ﾏﾁﾏｴ","pref":"宮城県","city":"多賀城市","address":"町前"},
{"zip_code":"9850834","kana_pref":"ﾐﾔｷﾞｹﾝ","kana_city":"ﾀｶﾞｼﾞｮｳｼ","kana_address":"ﾏﾙﾔﾏ","pref":"宮城県","city":"多賀城市","address":"丸山"},
{"zip_code":"9850844","kana_pref":"ﾐﾔｷﾞｹﾝ","kana_city":"ﾀｶﾞｼﾞｮｳｼ","kana_address":"ﾐﾔｳﾁ","pref":"宮城県","city":"多賀城市","address":"宮内"},
{"zip_code":"9850843","kana_pref":"ﾐﾔｷﾞｹﾝ","kana_city":"ﾀｶﾞｼﾞｮｳｼ","kana_address":"ﾒｲｹﾞﾂ","pref":"宮城県","city":"多賀城市","address":"明月"},
{"zip_code":"9850874","kana_pref":"ﾐﾔｷﾞｹﾝ","kana_city":"ﾀｶﾞｼﾞｮｳｼ","kana_address":"ﾔﾜﾀ","pref":"宮城県","city":"多賀城市","address":"八幡"},
{"zip_code":"9850000","kana_pref":"ﾐﾔｷﾞｹﾝ","kana_city":"ﾐﾔｷﾞｸﾞﾝｼﾁｶﾞﾊﾏﾏﾁ","kana_address":"","pref":"宮城県","city":"宮城郡七ヶ浜町","address":""},
{"zip_code":"9850824","kana_pref":"ﾐﾔｷﾞｹﾝ","kana_city":"ﾐﾔｷﾞｸﾞﾝｼﾁｶﾞﾊﾏﾏﾁ","kana_address":"ｻｶｲﾔﾏ","pref":"宮城県","city":"宮城郡七ヶ浜町","address":"境山"},
{"zip_code":"9850821","kana_pref":"ﾐﾔｷﾞｹﾝ","kana_city":"ﾐﾔｷﾞｸﾞﾝｼﾁｶﾞﾊﾏﾏﾁ","kana_address":"ｼｵﾐﾀﾞｲ","pref":"宮城県","city":"宮城郡七ヶ浜町","address":"汐見台"},
{"zip_code":"9850822","kana_pref":"ﾐﾔｷﾞｹﾝ","kana_city":"ﾐﾔｷﾞｸﾞﾝｼﾁｶﾞﾊﾏﾏﾁ","kana_address":"ｼｵﾐﾀﾞｲﾐﾅﾐ","pref":"宮城県","city":"宮城郡七ヶ浜町","address":"汐見台南"},
{"zip_code":"9850811","kana_pref":"ﾐﾔｷﾞｹﾝ","kana_city":"ﾐﾔｷﾞｸﾞﾝｼﾁｶﾞﾊﾏﾏﾁ","kana_address":"ｼｮｳﾌﾞﾀﾊﾏ","pref":"宮城県","city":"宮城郡七ヶ浜町","address":"菖蒲田浜"},
{"zip_code":"9850804","kana_pref":"ﾐﾔｷﾞｹﾝ","kana_city":"ﾐﾔｷﾞｸﾞﾝｼﾁｶﾞﾊﾏﾏﾁ","kana_address":"ﾄｳｸﾞｳﾊﾏ","pref":"宮城県","city":"宮城郡七ヶ浜町","address":"東宮浜"},
{"zip_code":"9850823","kana_pref":"ﾐﾔｷﾞｹﾝ","kana_city":"ﾐﾔｷﾞｸﾞﾝｼﾁｶﾞﾊﾏﾏﾁ","kana_address":"ﾄｵﾔﾏ","pref":"宮城県","city":"宮城郡七ヶ浜町","address":"遠山"},
{"zip_code":"9850803","kana_pref":"ﾐﾔｷﾞｹﾝ","kana_city":"ﾐﾔｷﾞｸﾞﾝｼﾁｶﾞﾊﾏﾏﾁ","kana_address":"ﾊﾅﾌﾞﾁﾊﾏ","pref":"宮城県","city":"宮城郡七ヶ浜町","address":"花渕浜"},
{"zip_code":"9850812","kana_pref":"ﾐﾔｷﾞｹﾝ","kana_city":"ﾐﾔｷﾞｸﾞﾝｼﾁｶﾞﾊﾏﾏﾁ","kana_address":"ﾏﾂｶﾞﾊﾏ","pref":"宮城県","city":"宮城郡七ヶ浜町","address":"松ヶ浜"},
{"zip_code":"9850813","kana_pref":"ﾐﾔｷﾞｹﾝ","kana_city":"ﾐﾔｷﾞｸﾞﾝｼﾁｶﾞﾊﾏﾏﾁ","kana_address":"ﾐﾅﾄﾊﾏ","pref":"宮城県","city":"宮城郡七ヶ浜町","address":"湊浜"},
{"zip_code":"9850801","kana_pref":"ﾐﾔｷﾞｹﾝ","kana_city":"ﾐﾔｷﾞｸﾞﾝｼﾁｶﾞﾊﾏﾏﾁ","kana_address":"ﾖｶﾞｻｷﾊﾏ","pref":"宮城県","city":"宮城郡七ヶ浜町","address":"代ヶ崎浜"},
{"zip_code":"9850802","kana_pref":"ﾐﾔｷﾞｹﾝ","kana_city":"ﾐﾔｷﾞｸﾞﾝｼﾁｶﾞﾊﾏﾏﾁ","kana_address":"ﾖｼﾀﾞﾊﾏ","pref":"宮城県","city":"宮城郡七ヶ浜町","address":"吉田浜"}]}