{"zip_code":[
{"zip_code":"9860000","kana_pref":"ﾐﾔｷﾞｹﾝ","kana_city":"ｲｼﾉﾏｷｼ","kana_address":"","pref":"宮城県","city":"石巻市","address":""},
{"zip_code":"9860101","kana_pref":"ﾐﾔｷﾞｹﾝ","kana_city":"ｲｼﾉﾏｷｼ","kana_address":"ｱｲﾉﾔ","pref":"宮城県","city":"石巻市","address":"相野谷"},
{"zip_code":"9860862","kana_pref":"ﾐﾔｷﾞｹﾝ","kana_city":"ｲｼﾉﾏｷｼ","kana_address":"ｱｹﾎﾞﾉ","pref":"宮城県","city":"石巻市","address":"あけぼの"},
{"zip_code":"9860828","kana_pref":"ﾐﾔｷﾞｹﾝ","kana_city":"ｲｼﾉﾏｷｼ","kana_address":"ｱｻﾋﾁｮｳ","pref":"宮城県","city":"石巻市","address":"旭町"},
{"zip_code":"9862526","kana_pref":"ﾐﾔｷﾞｹﾝ","kana_city":"ｲｼﾉﾏｷｼ","kana_address":"ｱｼﾞﾊﾏ","pref":"宮城県","city":"石巻市","address":"網地浜"},
{"zip_code":"9862522","kana_pref":"ﾐﾔｷﾞｹﾝ","kana_city":"ｲｼﾉﾏｷｼ","kana_address":"ｱﾕｶﾜｵｵﾏﾁ","pref":"宮城県","city":"石巻市","address":"鮎川大町"},
{"zip_code":"9862523","kana_pref":"ﾐﾔｷﾞｹﾝ","kana_city":"ｲｼﾉﾏｷｼ","kana_address":"ｱﾕｶﾜﾊﾏ","pref":"宮城県","city":"石巻市","address":"鮎川浜"},
{"zip_code":"9862524","kana_pref":"ﾐﾔｷﾞｹﾝ","kana_city":"ｲｼﾉﾏｷｼ","kana_address":"ｱﾕｶﾜﾊﾏﾁｮｳ","pref":"宮城県","city":"石巻市","address":"鮎川浜丁"},
{"zip_code":"9860131","kana_pref":"ﾐﾔｷﾞｹﾝ","kana_city":"ｲｼﾉﾏｷｼ","kana_address":"ｲｲﾉ","pref":"宮城県","city":"石巻市","address":"飯野"},
{"zip_code":"9860832","kana_pref":"ﾐﾔｷﾞｹﾝ","kana_city":"ｲｼﾉﾏｷｼ","kana_address":"ｲｽﾞﾐﾁｮｳ","pref":"宮城県","city":"石巻市","address":"泉町"},
{"zip_code":"9862123","kana_pref":"ﾐﾔｷﾞｹﾝ","kana_city":"ｲｼﾉﾏｷｼ","kana_address":"ｲｾﾁｮｳ","pref":"宮城県","city":"石巻市","address":"伊勢町"},
{"zip_code":"9860826","kana_pref":"ﾐﾔｷﾞｹﾝ","kana_city":"ｲｼﾉﾏｷｼ","kana_address":"ｲｾﾝﾊﾞ","pref":"宮城県","city":"石巻市","address":"鋳銭場"},
{"zip_code":"9860003","kana_pref":"ﾐﾔｷﾞｹﾝ","kana_city":"ｲｼﾉﾏｷｼ","kana_address":"ｲﾅｲ","pref":"宮城県","city":"石巻市","address":"井内"},
{"zip_code":"9860041","kana_pref":"ﾐﾔｷﾞｹﾝ","kana_city":"ｲｼﾉﾏｷｼ","kana_address":"ｲﾊﾞﾗﾂ","pref":"宮城県","city":"石巻市","address":"伊原津"},
{"zip_code":"9862113","kana_pref":"ﾐﾔｷﾞｹﾝ","kana_city":"ｲｼﾉﾏｷｼ","kana_address":"ｳﾀﾞｶﾞﾜﾁｮｳ","pref":"宮城県","city":"石巻市","address":"宇田川町"},
{"zip_code":"9860813","kana_pref":"ﾐﾔｷﾞｹﾝ","kana_city":"ｲｼﾉﾏｷｼ","kana_address":"ｴｷﾏｴｷﾀﾄﾞｵﾘ","pref":"宮城県","city":"石巻市","address":"駅前北通り"},
{"zip_code":"9860005","kana_pref":"ﾐﾔｷﾞｹﾝ","kana_city":"ｲｼﾉﾏｷｼ","kana_address":"ｵｳﾘ","pref":"宮城県","city":"石巻市","address":"大瓜"},
{"zip_code":"9860854","kana_pref":"ﾐﾔｷﾞｹﾝ","kana_city":"ｲｼﾉﾏｷｼ","kana_address":"ｵｵｶｲﾄﾞｳｷﾀ","pref":"宮城県","city":"石巻市","address":"大街道北"},
{"zip_code":"9860859","kana_pref":"ﾐﾔｷﾞｹﾝ","kana_city":"ｲｼﾉﾏｷｼ","kana_address":"ｵｵｶｲﾄﾞｳﾆｼ","pref":"宮城県","city":"石巻市","address":"大街道西"},
{"zip_code":"9860855","kana_pref":"ﾐﾔｷﾞｹﾝ","kana_city":"ｲｼﾉﾏｷｼ","kana_address":"ｵｵｶｲﾄﾞｳﾋｶﾞｼ","pref":"宮城県","city":"石巻市","address":"大街道東"},
{"zip_code":"9860856","kana_pref":"ﾐﾔｷﾞｹﾝ","kana_city":"ｲｼﾉﾏｷｼ","kana_address":"ｵｵｶｲﾄﾞｳﾐﾅﾐ","pref":"宮城県","city":"石巻市","address":"大街道南"},
{"zip_code":"9860838","kana_pref":"ﾐﾔｷﾞｹﾝ","kana_city":"ｲｼﾉﾏｷｼ","kana_address":"ｵｵﾃﾏﾁ","pref":"宮城県","city":"石巻市","address":"大手町"},
{"zip_code":"9860805","kana_pref":"ﾐﾔｷﾞｹﾝ","kana_city":"ｲｼﾉﾏｷｼ","kana_address":"ｵｵﾊｼ","pref":"宮城県","city":"石巻市","address":"大橋"},
{"zip_code":"9862412","kana_pref":"ﾐﾔｷﾞｹﾝ","kana_city":"ｲｼﾉﾏｷｼ","kana_address":"ｵｵﾊﾗﾊﾏ","pref":"宮城県","city":"石巻市","address":"大原浜"},
{"zip_code":"9862132","kana_pref":"ﾐﾔｷﾞｹﾝ","kana_city":"ｲｼﾉﾏｷｼ","kana_address":"ｵｵﾐﾔﾁｮｳ","pref":"宮城県","city":"石巻市","address":"大宮町"},
{"zip_code":"9860121","kana_pref":"ﾐﾔｷﾞｹﾝ","kana_city":"ｲｼﾉﾏｷｼ","kana_address":"ｵｵﾓﾘ","pref":"宮城県","city":"石巻市","address":"大森"},
{"zip_code":"9862405","kana_pref":"ﾐﾔｷﾞｹﾝ","kana_city":"ｲｼﾉﾏｷｼ","kana_address":"ｵｵﾔｶﾞﾜﾊﾏ","pref":"宮城県","city":"石巻市","address":"大谷川浜"},
{"zip_code":"9861334","kana_pref":"ﾐﾔｷﾞｹﾝ","kana_city":"ｲｼﾉﾏｷｼ","kana_address":"ｵｶﾞﾂﾁｮｳｲｾﾊﾀ","pref":"宮城県","city":"石巻市","address":"雄勝町伊勢畑"},
{"zip_code":"9861311","kana_pref":"ﾐﾔｷﾞｹﾝ","kana_city":"ｲｼﾉﾏｷｼ","kana_address":"ｵｶﾞﾂﾁｮｳｵｵｽ","pref":"宮城県","city":"石巻市","address":"雄勝町大須"},
{"zip_code":"9861302","kana_pref":"ﾐﾔｷﾞｹﾝ","kana_city":"ｲｼﾉﾏｷｼ","kana_address":"ｵｶﾞﾂﾁｮｳｵｵﾊﾏ","pref":"宮城県","city":"石巻市","address":"雄勝町大浜"},
{"zip_code":"9861333","kana_pref":"ﾐﾔｷﾞｹﾝ","kana_city":"ｲｼﾉﾏｷｼ","kana_address":"ｵｶﾞﾂﾁｮｳｵｶﾞﾂ","pref":"宮城県","city":"石巻市","address":"雄勝町雄勝"},
{"zip_code":"9861332","kana_pref":"ﾐﾔｷﾞｹﾝ","kana_city":"ｲｼﾉﾏｷｼ","kana_address":"ｵｶﾞﾂﾁｮｳｵｼﾞﾏ","pref":"宮城県","city":"石巻市","address":"雄勝町小島"},
{"zip_code":"9861336","kana_pref":"ﾐﾔｷﾞｹﾝ","kana_city":"ｲｼﾉﾏｷｼ","kana_address":"ｵｶﾞﾂﾁｮｳｶﾐｵｶﾞﾂ","pref":"宮城県","city":"石巻市","address":"雄勝町上雄勝"},
{"zip_code":"9861312","kana_pref":"ﾐﾔｷﾞｹﾝ","kana_city":"ｲｼﾉﾏｷｼ","kana_address":"ｵｶﾞﾂﾁｮｳｸﾏｻﾞﾜ","pref":"宮城県","city":"石巻市","address":"雄勝町熊沢"},
{"zip_code":"9861313","kana_pref":"ﾐﾔｷﾞｹﾝ","kana_city":"ｲｼﾉﾏｷｼ","kana_address":"ｵｶﾞﾂﾁｮｳｸﾜﾊﾏ","pref":"宮城県","city":"石巻市","address":"雄勝町桑浜"},
{"zip_code":"9861335","kana_pref":"ﾐﾔｷﾞｹﾝ","kana_city":"ｲｼﾉﾏｷｼ","kana_address":"ｵｶﾞﾂﾁｮｳｼﾓｵｶﾞﾂ","pref":"宮城県","city":"石巻市","address":"雄勝町下雄勝"},
{"zip_code":"9861303","kana_pref":"ﾐﾔｷﾞｹﾝ","kana_city":"ｲｼﾉﾏｷｼ","kana_address":"ｵｶﾞﾂﾁｮｳﾀﾁﾊﾏ","pref":"宮城県","city":"石巻市","address":"雄勝町立浜"},
{"zip_code":"9861304","kana_pref":"ﾐﾔｷﾞｹﾝ","kana_city":"ｲｼﾉﾏｷｼ","kana_address":"ｵｶﾞﾂﾁｮｳﾅﾌﾞﾘ","pref":"宮城県","city":"石巻市","address":"雄勝町名振"},
{"zip_code":"9861301","kana_pref":"ﾐﾔｷﾞｹﾝ","kana_city":"ｲｼﾉﾏｷｼ","kana_address":"ｵｶﾞﾂﾁｮｳﾌﾅｺｼ","pref":"宮城県","city":"石巻市","address":"雄勝町船越"},
{"zip_code":"9861321","kana_pref":"ﾐﾔｷﾞｹﾝ","kana_city":"ｲｼﾉﾏｷｼ","kana_address":"ｵｶﾞﾂﾁｮｳﾐｽﾞﾊﾏ","pref":"宮城県","city":"石巻市","address":"雄勝町水浜"},
{"zip_code":"9861331","kana_pref":"ﾐﾔｷﾞｹﾝ","kana_city":"ｲｼﾉﾏｷｼ","kana_address":"ｵｶﾞﾂﾁｮｳﾐｮｳｼﾞﾝ","pref":"宮城県","city":"石巻市","address":"雄勝町明神"},
{"zip_code":"9861322","kana_pref":"ﾐﾔｷﾞｹﾝ","kana_city":"ｲｼﾉﾏｷｼ","kana_address":"ｵｶﾞﾂﾁｮｳﾜｹﾊﾏ","pref":"宮城県","city":"石巻市","address":"雄勝町分浜"},
{"zip_code":"9862341","kana_pref":"ﾐﾔｷﾞｹﾝ","kana_city":"ｲｼﾉﾏｷｼ","kana_address":"ｵｷﾞﾉﾊﾏ","pref":"宮城県","city":"石巻市","address":"荻浜"},
{"zip_code":"9860113","kana_pref":"ﾐﾔｷﾞｹﾝ","kana_city":"ｲｼﾉﾏｷｼ","kana_address":"ｵﾉｻｷ","pref":"宮城県","city":"石巻市","address":"尾ノ崎"},
{"zip_code":"9862355","kana_pref":"ﾐﾔｷﾞｹﾝ","kana_city":"ｲｼﾉﾏｷｼ","kana_address":"ｵﾘﾉﾊﾏ","pref":"宮城県","city":"石巻市","address":"折浜"},
{"zip_code":"9860032","kana_pref":"ﾐﾔｷﾞｹﾝ","kana_city":"ｲｼﾉﾏｷｼ","kana_address":"ｶｲｾｲ","pref":"宮城県","city":"石巻市","address":"開成"},
{"zip_code":"9860806","kana_pref":"ﾐﾔｷﾞｹﾝ","kana_city":"ｲｼﾉﾏｷｼ","kana_address":"ｶｲﾎｸ","pref":"宮城県","city":"石巻市","address":"開北"},
{"zip_code":"9860043","kana_pref":"ﾐﾔｷﾞｹﾝ","kana_city":"ｲｼﾉﾏｷｼ","kana_address":"ｶﾂﾞﾏｷﾀ","pref":"宮城県","city":"石巻市","address":"鹿妻北"},
{"zip_code":"9860013","kana_pref":"ﾐﾔｷﾞｹﾝ","kana_city":"ｲｼﾉﾏｷｼ","kana_address":"ｶﾂﾞﾏﾎﾝﾁｮｳ","pref":"宮城県","city":"石巻市","address":"鹿妻本町"},
{"zip_code":"9860042","kana_pref":"ﾐﾔｷﾞｹﾝ","kana_city":"ｲｼﾉﾏｷｼ","kana_address":"ｶﾂﾞﾏﾐﾅﾐ","pref":"宮城県","city":"石巻市","address":"鹿妻南"},
{"zip_code":"9860853","kana_pref":"ﾐﾔｷﾞｹﾝ","kana_city":"ｲｼﾉﾏｷｼ","kana_address":"ｶﾄﾞﾉﾜｷ","pref":"宮城県","city":"石巻市","address":"門脇"},
{"zip_code":"9860834","kana_pref":"ﾐﾔｷﾞｹﾝ","kana_city":"ｲｼﾉﾏｷｼ","kana_address":"ｶﾄﾞﾉﾜｷﾁｮｳ","pref":"宮城県","city":"石巻市","address":"門脇町"},
{"zip_code":"9861111","kana_pref":"ﾐﾔｷﾞｹﾝ","kana_city":"ｲｼﾉﾏｷｼ","kana_address":"ｶﾉﾏﾀ","pref":"宮城県","city":"石巻市","address":"鹿又"},
{"zip_code":"9860111","kana_pref":"ﾐﾔｷﾞｹﾝ","kana_city":"ｲｼﾉﾏｷｼ","kana_address":"ｶﾏﾔ","pref":"宮城県","city":"石巻市","address":"釜谷"},
{"zip_code":"9860024","kana_pref":"ﾐﾔｷﾞｹﾝ","kana_city":"ｲｼﾉﾏｷｼ","kana_address":"ｶﾜｸﾞﾁﾁｮｳ","pref":"宮城県","city":"石巻市","address":"川口町"},
{"zip_code":"9860204","kana_pref":"ﾐﾔｷﾞｹﾝ","kana_city":"ｲｼﾉﾏｷｼ","kana_address":"ｷﾀｶﾐﾁｮｳｵﾅｶﾞﾜ","pref":"宮城県","city":"石巻市","address":"北上町女川"},
{"zip_code":"9860201","kana_pref":"ﾐﾔｷﾞｹﾝ","kana_city":"ｲｼﾉﾏｷｼ","kana_address":"ｷﾀｶﾐﾁｮｳｼﾞｭｳｻﾝﾊﾏ","pref":"宮城県","city":"石巻市","address":"北上町十三浜"},
{"zip_code":"9860203","kana_pref":"ﾐﾔｷﾞｹﾝ","kana_city":"ｲｼﾉﾏｷｼ","kana_address":"ｷﾀｶﾐﾁｮｳﾅｶﾞｵ","pref":"宮城県","city":"石巻市","address":"北上町長尾"},
{"zip_code":"9860202","kana_pref":"ﾐﾔｷﾞｹﾝ","kana_city":"ｲｼﾉﾏｷｼ","kana_address":"ｷﾀｶﾐﾁｮｳﾊｼｳﾗ","pref":"宮城県","city":"石巻市","address":"北上町橋浦"},
{"zip_code":"9860123","kana_pref":"ﾐﾔｷﾞｹﾝ","kana_city":"ｲｼﾉﾏｷｼ","kana_address":"ｷﾀｻﾞｶｲ","pref":"宮城県","city":"石巻市","address":"北境"},
{"zip_code":"9862345","kana_pref":"ﾐﾔｷﾞｹﾝ","kana_city":"ｲｼﾉﾏｷｼ","kana_address":"ｷﾂﾈｻﾞｷﾊﾏ","pref":"宮城県","city":"石巻市","address":"狐崎浜"},
{"zip_code":"9862411","kana_pref":"ﾐﾔｷﾞｹﾝ","kana_city":"ｲｼﾉﾏｷｼ","kana_address":"ｷｭｳﾌﾞﾝﾊﾏ","pref":"宮城県","city":"石巻市","address":"給分浜"},
{"zip_code":"9862527","kana_pref":"ﾐﾔｷﾞｹﾝ","kana_city":"ｲｼﾉﾏｷｼ","kana_address":"ｸｸﾞﾅﾘﾊﾏ","pref":"宮城県","city":"石巻市","address":"十八成浜"},
{"zip_code":"9862414","kana_pref":"ﾐﾔｷﾞｹﾝ","kana_city":"ｲｼﾉﾏｷｼ","kana_address":"ｺｱﾐｸﾗﾊﾏ","pref":"宮城県","city":"石巻市","address":"小網倉浜"},
{"zip_code":"9860863","kana_pref":"ﾐﾔｷﾞｹﾝ","kana_city":"ｲｼﾉﾏｷｼ","kana_address":"ｺｳﾖｳﾁｮｳ","pref":"宮城県","city":"石巻市","address":"向陽町"},
{"zip_code":"9860825","kana_pref":"ﾐﾔｷﾞｹﾝ","kana_city":"ｲｼﾉﾏｷｼ","kana_address":"ｺｸﾁｮｳ","pref":"宮城県","city":"石巻市","address":"穀町"},
{"zip_code":"9862112","kana_pref":"ﾐﾔｷﾞｹﾝ","kana_city":"ｲｼﾉﾏｷｼ","kana_address":"ｺﾞｼｮｳﾊﾞｼ","pref":"宮城県","city":"石巻市","address":"後生橋"},
{"zip_code":"9862116","kana_pref":"ﾐﾔｷﾞｹﾝ","kana_city":"ｲｼﾉﾏｷｼ","kana_address":"ｺﾀﾞｹﾊﾏ","pref":"宮城県","city":"石巻市","address":"小竹浜"},
{"zip_code":"9862342","kana_pref":"ﾐﾔｷﾞｹﾝ","kana_city":"ｲｼﾉﾏｷｼ","kana_address":"ｺﾂﾞﾐﾊﾏ","pref":"宮城県","city":"石巻市","address":"小積浜"},
{"zip_code":"9862415","kana_pref":"ﾐﾔｷﾞｹﾝ","kana_city":"ｲｼﾉﾏｷｼ","kana_address":"ｺﾌﾞﾁﾊﾏ","pref":"宮城県","city":"石巻市","address":"小渕浜"},
{"zip_code":"9860132","kana_pref":"ﾐﾔｷﾞｹﾝ","kana_city":"ｲｼﾉﾏｷｼ","kana_address":"ｺﾌﾅｺｼ","pref":"宮城県","city":"石巻市","address":"小船越"},
{"zip_code":"9862122","kana_pref":"ﾐﾔｷﾞｹﾝ","kana_city":"ｲｼﾉﾏｷｼ","kana_address":"ｻｲﾜｲﾁｮｳ","pref":"宮城県","city":"石巻市","address":"幸町"},
{"zip_code":"9860022","kana_pref":"ﾐﾔｷﾞｹﾝ","kana_city":"ｲｼﾉﾏｷｼ","kana_address":"ｻｶﾅﾏﾁ","pref":"宮城県","city":"石巻市","address":"魚町"},
{"zip_code":"9862351","kana_pref":"ﾐﾔｷﾞｹﾝ","kana_city":"ｲｼﾉﾏｷｼ","kana_address":"ｻﾑﾗｲﾊﾏ","pref":"宮城県","city":"石巻市","address":"侍浜"},
{"zip_code":"9862403","kana_pref":"ﾐﾔｷﾞｹﾝ","kana_city":"ｲｼﾉﾏｷｼ","kana_address":"ｻﾒﾉｳﾗ","pref":"宮城県","city":"石巻市","address":"鮫浦"},
{"zip_code":"9860104","kana_pref":"ﾐﾔｷﾞｹﾝ","kana_city":"ｲｼﾉﾏｷｼ","kana_address":"ｻﾗｶﾞｲ","pref":"宮城県","city":"石巻市","address":"皿貝"},
{"zip_code":"9862102","kana_pref":"ﾐﾔｷﾞｹﾝ","kana_city":"ｲｼﾉﾏｷｼ","kana_address":"ｻﾜﾀﾞ","pref":"宮城県","city":"石巻市","address":"沢田"},
{"zip_code":"9862114","kana_pref":"ﾐﾔｷﾞｹﾝ","kana_city":"ｲｼﾉﾏｷｼ","kana_address":"ｼｵﾄﾐﾁｮｳ","pref":"宮城県","city":"石巻市","address":"塩富町"},
{"zip_code":"9860842","kana_pref":"ﾐﾔｷﾞｹﾝ","kana_city":"ｲｼﾉﾏｷｼ","kana_address":"ｼｵﾐﾁｮｳ","pref":"宮城県","city":"石巻市","address":"潮見町"},
{"zip_code":"9860844","kana_pref":"ﾐﾔｷﾞｹﾝ","kana_city":"ｲｼﾉﾏｷｼ","kana_address":"ｼｹﾞﾖｼﾁｮｳ","pref":"宮城県","city":"石巻市","address":"重吉町"},
{"zip_code":"9862413","kana_pref":"ﾐﾔｷﾞｹﾝ","kana_city":"ｲｼﾉﾏｷｼ","kana_address":"ｼﾐｽﾞﾀﾞﾊﾏ","pref":"宮城県","city":"石巻市","address":"清水田浜"},
{"zip_code":"9860871","kana_pref":"ﾐﾔｷﾞｹﾝ","kana_city":"ｲｼﾉﾏｷｼ","kana_address":"ｼﾐｽﾞﾁｮｳ","pref":"宮城県","city":"石巻市","address":"清水町"},
{"zip_code":"9860004","kana_pref":"ﾐﾔｷﾞｹﾝ","kana_city":"ｲｼﾉﾏｷｼ","kana_address":"ｼﾝｴｲ","pref":"宮城県","city":"石巻市","address":"新栄"},
{"zip_code":"9860864","kana_pref":"ﾐﾔｷﾞｹﾝ","kana_city":"ｲｼﾉﾏｷｼ","kana_address":"ｼﾝｻｶｲﾏﾁ","pref":"宮城県","city":"石巻市","address":"新境町"},
{"zip_code":"9862105","kana_pref":"ﾐﾔｷﾞｹﾝ","kana_city":"ｲｼﾉﾏｷｼ","kana_address":"ｼﾝｾｲ","pref":"宮城県","city":"石巻市","address":"新成"},
{"zip_code":"9860848","kana_pref":"ﾐﾔｷﾞｹﾝ","kana_city":"ｲｼﾉﾏｷｼ","kana_address":"ｼﾝﾀﾃ","pref":"宮城県","city":"石巻市","address":"新館"},
{"zip_code":"9860878","kana_pref":"ﾐﾔｷﾞｹﾝ","kana_city":"ｲｼﾉﾏｷｼ","kana_address":"ｼﾝﾊﾞｼ","pref":"宮城県","city":"石巻市","address":"新橋"},
{"zip_code":"9860801","kana_pref":"ﾐﾔｷﾞｹﾝ","kana_city":"ｲｼﾉﾏｷｼ","kana_address":"ｽｲﾒｲｷﾀ","pref":"宮城県","city":"石巻市","address":"水明北"},
{"zip_code":"9860802","kana_pref":"ﾐﾔｷﾞｹﾝ","kana_city":"ｲｼﾉﾏｷｼ","kana_address":"ｽｲﾒｲﾐﾅﾐ","pref":"宮城県","city":"石巻市","address":"水明南"},
{"zip_code":"9860875","kana_pref":"ﾐﾔｷﾞｹﾝ","kana_city":"ｲｼﾉﾏｷｼ","kana_address":"ｽｴﾋﾛﾁｮｳ","pref":"宮城県","city":"石巻市","address":"末広町"},
{"zip_code":"9862344","kana_pref":"ﾐﾔｷﾞｹﾝ","kana_city":"ｲｼﾉﾏｷｼ","kana_address":"ｽﾀﾞﾁ","pref":"宮城県","city":"石巻市","address":"鹿立"},
{"zip_code":"9860821","kana_pref":"ﾐﾔｷﾞｹﾝ","kana_city":"ｲｼﾉﾏｷｼ","kana_address":"ｽﾐﾖｼﾁｮｳ","pref":"宮城県","city":"石巻市","address":"住吉町"},
{"zip_code":"9860827","kana_pref":"ﾐﾔｷﾞｹﾝ","kana_city":"ｲｼﾉﾏｷｼ","kana_address":"ｾﾝｺﾞｸﾁｮｳ","pref":"宮城県","city":"石巻市","address":"千石町"},
{"zip_code":"9860026","kana_pref":"ﾐﾔｷﾞｹﾝ","kana_city":"ｲｼﾉﾏｷｼ","kana_address":"ﾀﾞｲﾓﾝﾁｮｳ","pref":"宮城県","city":"石巻市","address":"大門町"},
{"zip_code":"9860006","kana_pref":"ﾐﾔｷﾞｹﾝ","kana_city":"ｲｼﾉﾏｷｼ","kana_address":"ﾀｶｷ","pref":"宮城県","city":"石巻市","address":"高木"},
{"zip_code":"9862346","kana_pref":"ﾐﾔｷﾞｹﾝ","kana_city":"ｲｼﾉﾏｷｼ","kana_address":"ﾀｹﾉﾊﾏ","pref":"宮城県","city":"石巻市","address":"竹浜"},
{"zip_code":"9860023","kana_pref":"ﾐﾔｷﾞｹﾝ","kana_city":"ｲｼﾉﾏｷｼ","kana_address":"ﾀｼﾛﾊﾏ","pref":"宮城県","city":"石巻市","address":"田代浜"},
{"zip_code":"9860824","kana_pref":"ﾐﾔｷﾞｹﾝ","kana_city":"ｲｼﾉﾏｷｼ","kana_address":"ﾀﾁﾏﾁ","pref":"宮城県","city":"石巻市","address":"立町"},
{"zip_code":"9860872","kana_pref":"ﾐﾔｷﾞｹﾝ","kana_city":"ｲｼﾉﾏｷｼ","kana_address":"ﾀﾐﾁﾁｮｳ","pref":"宮城県","city":"石巻市","address":"田道町"},
{"zip_code":"9862104","kana_pref":"ﾐﾔｷﾞｹﾝ","kana_city":"ｲｼﾉﾏｷｼ","kana_address":"ﾀﾚﾐｽﾞﾁｮｳ","pref":"宮城県","city":"石巻市","address":"垂水町"},
{"zip_code":"9860822","kana_pref":"ﾐﾔｷﾞｹﾝ","kana_city":"ｲｼﾉﾏｷｼ","kana_address":"ﾁｭｳｵｳ","pref":"宮城県","city":"石巻市","address":"中央"},
{"zip_code":"9862352","kana_pref":"ﾐﾔｷﾞｹﾝ","kana_city":"ｲｼﾉﾏｷｼ","kana_address":"ﾂｷﾉｳﾗ","pref":"宮城県","city":"石巻市","address":"月浦"},
{"zip_code":"9860857","kana_pref":"ﾐﾔｷﾞｹﾝ","kana_city":"ｲｼﾉﾏｷｼ","kana_address":"ﾂｷﾔﾏ","pref":"宮城県","city":"石巻市","address":"築山"},
{"zip_code":"9860851","kana_pref":"ﾐﾔｷﾞｹﾝ","kana_city":"ｲｼﾉﾏｷｼ","kana_address":"ﾃｲｻﾞﾝ","pref":"宮城県","city":"石巻市","address":"貞山"},
{"zip_code":"9862401","kana_pref":"ﾐﾔｷﾞｹﾝ","kana_city":"ｲｼﾉﾏｷｼ","kana_address":"ﾄﾏﾘﾊﾏ","pref":"宮城県","city":"石巻市","address":"泊浜"},
{"zip_code":"9860847","kana_pref":"ﾐﾔｷﾞｹﾝ","kana_city":"ｲｼﾉﾏｷｼ","kana_address":"ﾅｶｳﾗ","pref":"宮城県","city":"石巻市","address":"中浦"},
{"zip_code":"9860815","kana_pref":"ﾐﾔｷﾞｹﾝ","kana_city":"ｲｼﾉﾏｷｼ","kana_address":"ﾅｶｻﾄ","pref":"宮城県","city":"石巻市","address":"中里"},
{"zip_code":"9860103","kana_pref":"ﾐﾔｷﾞｹﾝ","kana_city":"ｲｼﾉﾏｷｼ","kana_address":"ﾅｶｼﾞﾏ","pref":"宮城県","city":"石巻市","address":"中島"},
{"zip_code":"9860845","kana_pref":"ﾐﾔｷﾞｹﾝ","kana_city":"ｲｼﾉﾏｷｼ","kana_address":"ﾅｶｼﾞﾏﾁｮｳ","pref":"宮城県","city":"石巻市","address":"中島町"},
{"zip_code":"9860823","kana_pref":"ﾐﾔｷﾞｹﾝ","kana_city":"ｲｼﾉﾏｷｼ","kana_address":"ﾅｶｾﾞ","pref":"宮城県","city":"石巻市","address":"中瀬"},
{"zip_code":"9860112","kana_pref":"ﾐﾔｷﾞｹﾝ","kana_city":"ｲｼﾉﾏｷｼ","kana_address":"ﾅｶﾞﾂﾗ","pref":"宮城県","city":"石巻市","address":"長面"},
{"zip_code":"9860105","kana_pref":"ﾐﾔｷﾞｹﾝ","kana_city":"ｲｼﾉﾏｷｼ","kana_address":"ﾅｶﾉ","pref":"宮城県","city":"石巻市","address":"中野"},
{"zip_code":"9862133","kana_pref":"ﾐﾔｷﾞｹﾝ","kana_city":"ｲｼﾉﾏｷｼ","kana_address":"ﾅｶﾞﾊﾏﾁｮｳ","pref":"宮城県","city":"石巻市","address":"長浜町"},
{"zip_code":"9860849","kana_pref":"ﾐﾔｷﾞｹﾝ","kana_city":"ｲｼﾉﾏｷｼ","kana_address":"ﾅｶﾔｼｷ","pref":"宮城県","city":"石巻市","address":"中屋敷"},
{"zip_code":"9862103","kana_pref":"ﾐﾔｷﾞｹﾝ","kana_city":"ｲｼﾉﾏｷｼ","kana_address":"ﾅｶﾞﾙ","pref":"宮城県","city":"石巻市","address":"流留"},
{"zip_code":"9860102","kana_pref":"ﾐﾔｷﾞｹﾝ","kana_city":"ｲｼﾉﾏｷｼ","kana_address":"ﾅﾘﾀ","pref":"宮城県","city":"石巻市","address":"成田"},
{"zip_code":"9860836","kana_pref":"ﾐﾔｷﾞｹﾝ","kana_city":"ｲｼﾉﾏｷｼ","kana_address":"ﾅﾝｺｳﾁｮｳ","pref":"宮城県","city":"石巻市","address":"南光町"},
{"zip_code":"9862521","kana_pref":"ﾐﾔｷﾞｹﾝ","kana_city":"ｲｼﾉﾏｷｼ","kana_address":"ﾆｲﾔﾏﾊﾏ","pref":"宮城県","city":"石巻市","address":"新山浜"},
{"zip_code":"9860877","kana_pref":"ﾐﾔｷﾞｹﾝ","kana_city":"ｲｼﾉﾏｷｼ","kana_address":"ﾆｼｷﾁｮｳ","pref":"宮城県","city":"石巻市","address":"錦町"},
{"zip_code":"9860843","kana_pref":"ﾐﾔｷﾞｹﾝ","kana_city":"ｲｼﾉﾏｷｼ","kana_address":"ﾆｼﾊﾏﾁｮｳ","pref":"宮城県","city":"石巻市","address":"西浜町"},
{"zip_code":"9860876","kana_pref":"ﾐﾔｷﾞｹﾝ","kana_city":"ｲｼﾉﾏｷｼ","kana_address":"ﾆｼﾔﾏﾁｮｳ","pref":"宮城県","city":"石巻市","address":"西山町"},
{"zip_code":"9862101","kana_pref":"ﾐﾔｷﾞｹﾝ","kana_city":"ｲｼﾉﾏｷｼ","kana_address":"ﾇﾏﾂﾞ","pref":"宮城県","city":"石巻市","address":"沼津"},
{"zip_code":"9862136","kana_pref":"ﾐﾔｷﾞｹﾝ","kana_city":"ｲｼﾉﾏｷｼ","kana_address":"ﾈｷﾞｼ","pref":"宮城県","city":"石巻市","address":"根岸"},
{"zip_code":"9860831","kana_pref":"ﾐﾔｷﾞｹﾝ","kana_city":"ｲｼﾉﾏｷｼ","kana_address":"ﾊｸﾞﾛﾁｮｳ","pref":"宮城県","city":"石巻市","address":"羽黒町"},
{"zip_code":"9860016","kana_pref":"ﾐﾔｷﾞｹﾝ","kana_city":"ｲｼﾉﾏｷｼ","kana_address":"ﾊﾁﾏﾝﾁｮｳ","pref":"宮城県","city":"石巻市","address":"八幡町"},
{"zip_code":"9862354","kana_pref":"ﾐﾔｷﾞｹﾝ","kana_city":"ｲｼﾉﾏｷｼ","kana_address":"ﾊﾏｸﾞﾘﾊﾏ","pref":"宮城県","city":"石巻市","address":"蛤浜"},
{"zip_code":"9862131","kana_pref":"ﾐﾔｷﾞｹﾝ","kana_city":"ｲｼﾉﾏｷｼ","kana_address":"ﾊﾏﾏﾂﾁｮｳ","pref":"宮城県","city":"石巻市","address":"浜松町"},
{"zip_code":"9860114","kana_pref":"ﾐﾔｷﾞｹﾝ","kana_city":"ｲｼﾉﾏｷｼ","kana_address":"ﾊﾘｵｶ","pref":"宮城県","city":"石巻市","address":"針岡"},
{"zip_code":"9860812","kana_pref":"ﾐﾔｷﾞｹﾝ","kana_city":"ｲｼﾉﾏｷｼ","kana_address":"ﾋｶﾞｼﾅｶｻﾄ","pref":"宮城県","city":"石巻市","address":"東中里"},
{"zip_code":"9860122","kana_pref":"ﾐﾔｷﾞｹﾝ","kana_city":"ｲｼﾉﾏｷｼ","kana_address":"ﾋｶﾞｼﾌｸﾀﾞ","pref":"宮城県","city":"石巻市","address":"東福田"},
{"zip_code":"9860841","kana_pref":"ﾐﾔｷﾞｹﾝ","kana_city":"ｲｼﾉﾏｷｼ","kana_address":"ﾋﾊﾞﾘﾉﾁｮｳ","pref":"宮城県","city":"石巻市","address":"雲雀野町"},
{"zip_code":"9860833","kana_pref":"ﾐﾔｷﾞｹﾝ","kana_city":"ｲｼﾉﾏｷｼ","kana_address":"ﾋﾖﾘｶﾞｵｶ","pref":"宮城県","city":"石巻市","address":"日和が丘"},
{"zip_code":"9860115","kana_pref":"ﾐﾔｷﾞｹﾝ","kana_city":"ｲｼﾉﾏｷｼ","kana_address":"ﾌｸｼﾞ","pref":"宮城県","city":"石巻市","address":"福地"},
{"zip_code":"9860874","kana_pref":"ﾐﾔｷﾞｹﾝ","kana_city":"ｲｼﾉﾏｷｼ","kana_address":"ﾌﾀﾊﾞﾁｮｳ","pref":"宮城県","city":"石巻市","address":"双葉町"},
{"zip_code":"9862525","kana_pref":"ﾐﾔｷﾞｹﾝ","kana_city":"ｲｼﾉﾏｷｼ","kana_address":"ﾌﾀﾜﾀｼﾊﾏ","pref":"宮城県","city":"石巻市","address":"長渡浜"},
{"zip_code":"9862343","kana_pref":"ﾐﾔｷﾞｹﾝ","kana_city":"ｲｼﾉﾏｷｼ","kana_address":"ﾌｯｷｳﾗ","pref":"宮城県","city":"石巻市","address":"福貴浦"},
{"zip_code":"9860017","kana_pref":"ﾐﾔｷﾞｹﾝ","kana_city":"ｲｼﾉﾏｷｼ","kana_address":"ﾌﾄﾞｳﾁｮｳ","pref":"宮城県","city":"石巻市","address":"不動町"},
{"zip_code":"9860861","kana_pref":"ﾐﾔｷﾞｹﾝ","kana_city":"ｲｼﾉﾏｷｼ","kana_address":"ﾍﾋﾞﾀ","pref":"宮城県","city":"石巻市","address":"蛇田"},
{"zip_code":"9862406","kana_pref":"ﾐﾔｷﾞｹﾝ","kana_city":"ｲｼﾉﾏｷｼ","kana_address":"ﾏｴｱﾐﾊﾏ","pref":"宮城県","city":"石巻市","address":"前網浜"},
{"zip_code":"9862347","kana_pref":"ﾐﾔｷﾞｹﾝ","kana_city":"ｲｼﾉﾏｷｼ","kana_address":"ﾏｷﾉﾊﾏ","pref":"宮城県","city":"石巻市","address":"牧浜"},
{"zip_code":"9860106","kana_pref":"ﾐﾔｷﾞｹﾝ","kana_city":"ｲｼﾉﾏｷｼ","kana_address":"ﾏｸﾞﾗ","pref":"宮城県","city":"石巻市","address":"馬鞍"},
{"zip_code":"9860028","kana_pref":"ﾐﾔｷﾞｹﾝ","kana_city":"ｲｼﾉﾏｷｼ","kana_address":"ﾏﾂﾅﾐ","pref":"宮城県","city":"石巻市","address":"松並"},
{"zip_code":"9862134","kana_pref":"ﾐﾔｷﾞｹﾝ","kana_city":"ｲｼﾉﾏｷｼ","kana_address":"ﾏﾂﾊﾞﾗﾁｮｳ","pref":"宮城県","city":"石巻市","address":"松原町"},
{"zip_code":"9860002","kana_pref":"ﾐﾔｷﾞｹﾝ","kana_city":"ｲｼﾉﾏｷｼ","kana_address":"ﾏﾉ","pref":"宮城県","city":"石巻市","address":"真野"},
{"zip_code":"9860865","kana_pref":"ﾐﾔｷﾞｹﾝ","kana_city":"ｲｼﾉﾏｷｼ","kana_address":"ﾏﾙｲﾄﾞ","pref":"宮城県","city":"石巻市","address":"丸井戸"},
{"zip_code":"9862115","kana_pref":"ﾐﾔｷﾞｹﾝ","kana_city":"ｲｼﾉﾏｷｼ","kana_address":"ﾏﾝｺﾞｸﾁｮｳ","pref":"宮城県","city":"石巻市","address":"万石町"},
{"zip_code":"9860846","kana_pref":"ﾐﾔｷﾞｹﾝ","kana_city":"ｲｼﾉﾏｷｼ","kana_address":"ﾐｶﾜﾁｮｳ","pref":"宮城県","city":"石巻市","address":"三河町"},
{"zip_code":"9860803","kana_pref":"ﾐﾔｷﾞｹﾝ","kana_city":"ｲｼﾉﾏｷｼ","kana_address":"ﾐｽﾞｵｼ","pref":"宮城県","city":"石巻市","address":"水押"},
{"zip_code":"9860001","kana_pref":"ﾐﾔｷﾞｹﾝ","kana_city":"ｲｼﾉﾏｷｼ","kana_address":"ﾐｽﾞﾇﾏ","pref":"宮城県","city":"石巻市","address":"水沼"},
{"zip_code":"9860858","kana_pref":"ﾐﾔｷﾞｹﾝ","kana_city":"ｲｼﾉﾏｷｼ","kana_address":"ﾐﾂﾏﾀ","pref":"宮城県","city":"石巻市","address":"三ツ股"},
{"zip_code":"9862111","kana_pref":"ﾐﾔｷﾞｹﾝ","kana_city":"ｲｼﾉﾏｷｼ","kana_address":"ﾐﾂﾜﾁｮｳ","pref":"宮城県","city":"石巻市","address":"三和町"},
{"zip_code":"9860021","kana_pref":"ﾐﾔｷﾞｹﾝ","kana_city":"ｲｼﾉﾏｷｼ","kana_address":"ﾐﾄﾞﾘﾁｮｳ","pref":"宮城県","city":"石巻市","address":"緑町"},
{"zip_code":"9860011","kana_pref":"ﾐﾔｷﾞｹﾝ","kana_city":"ｲｼﾉﾏｷｼ","kana_address":"ﾐﾅﾄ","pref":"宮城県","city":"石巻市","address":"湊"},
{"zip_code":"9860025","kana_pref":"ﾐﾔｷﾞｹﾝ","kana_city":"ｲｼﾉﾏｷｼ","kana_address":"ﾐﾅﾄﾁｮｳ","pref":"宮城県","city":"石巻市","address":"湊町"},
{"zip_code":"9860031","kana_pref":"ﾐﾔｷﾞｹﾝ","kana_city":"ｲｼﾉﾏｷｼ","kana_address":"ﾐﾅﾐｻﾞｶｲ","pref":"宮城県","city":"石巻市","address":"南境"},
{"zip_code":"9860814","kana_pref":"ﾐﾔｷﾞｹﾝ","kana_city":"ｲｼﾉﾏｷｼ","kana_address":"ﾐﾅﾐﾅｶｻﾄ","pref":"宮城県","city":"石巻市","address":"南中里"},
{"zip_code":"9860835","kana_pref":"ﾐﾔｷﾞｹﾝ","kana_city":"ｲｼﾉﾏｷｼ","kana_address":"ﾐﾅﾐﾊﾏﾁｮｳ","pref":"宮城県","city":"石巻市","address":"南浜町"},
{"zip_code":"9860852","kana_pref":"ﾐﾔｷﾞｹﾝ","kana_city":"ｲｼﾉﾏｷｼ","kana_address":"ﾐﾅﾐﾔﾁ","pref":"宮城県","city":"石巻市","address":"南谷地"},
{"zip_code":"9860124","kana_pref":"ﾐﾔｷﾞｹﾝ","kana_city":"ｲｼﾉﾏｷｼ","kana_address":"ﾐﾉﾜﾀﾞ","pref":"宮城県","city":"石巻市","address":"三輪田"},
{"zip_code":"9860027","kana_pref":"ﾐﾔｷﾞｹﾝ","kana_city":"ｲｼﾉﾏｷｼ","kana_address":"ﾐｮｳｼﾞﾝﾁｮｳ","pref":"宮城県","city":"石巻市","address":"明神町"},
{"zip_code":"9860811","kana_pref":"ﾐﾔｷﾞｹﾝ","kana_city":"ｲｼﾉﾏｷｼ","kana_address":"ﾓﾄｸﾗ","pref":"宮城県","city":"石巻市","address":"元倉"},
{"zip_code":"9860305","kana_pref":"ﾐﾔｷﾞｹﾝ","kana_city":"ｲｼﾉﾏｷｼ","kana_address":"ﾓﾉｳﾁｮｳｳｼﾀ","pref":"宮城県","city":"石巻市","address":"桃生町牛田"},
{"zip_code":"9860311","kana_pref":"ﾐﾔｷﾞｹﾝ","kana_city":"ｲｼﾉﾏｷｼ","kana_address":"ﾓﾉｳﾁｮｳｵｵﾀ","pref":"宮城県","city":"石巻市","address":"桃生町太田"},
{"zip_code":"9860304","kana_pref":"ﾐﾔｷﾞｹﾝ","kana_city":"ｲｼﾉﾏｷｼ","kana_address":"ﾓﾉｳﾁｮｳｶｼｻﾞｷ","pref":"宮城県","city":"石巻市","address":"桃生町樫崎"},
{"zip_code":"9860323","kana_pref":"ﾐﾔｷﾞｹﾝ","kana_city":"ｲｼﾉﾏｷｼ","kana_address":"ﾓﾉｳﾁｮｳｶﾝﾄﾞﾘ","pref":"宮城県","city":"石巻市","address":"桃生町神取"},
{"zip_code":"9860322","kana_pref":"ﾐﾔｷﾞｹﾝ","kana_city":"ｲｼﾉﾏｷｼ","kana_address":"ﾓﾉｳﾁｮｳｷｭｳﾆﾝﾏﾁ","pref":"宮城県","city":"石巻市","address":"桃生町給人町"},
{"zip_code":"9860302","kana_pref":"ﾐﾔｷﾞｹﾝ","kana_city":"ｲｼﾉﾏｷｼ","kana_address":"ﾓﾉｳﾁｮｳｸﾗｿﾞﾈ","pref":"宮城県","city":"石巻市","address":"桃生町倉埣"},
{"zip_code":"9860312","kana_pref":"ﾐﾔｷﾞｹﾝ","kana_city":"ｲｼﾉﾏｷｼ","kana_address":"ﾓﾉｳﾁｮｳｼﾞｮｳﾅｲ","pref":"宮城県","city":"石巻市","address":"桃生町城内"},
{"zip_code":"9860321","kana_pref":"ﾐﾔｷﾞｹﾝ","kana_city":"ｲｼﾉﾏｷｼ","kana_address":"ﾓﾉｳﾁｮｳｼﾝﾃﾞﾝ","pref":"宮城県","city":"石巻市","address":"桃生町新田"},
{"zip_code":"9860324","kana_pref":"ﾐﾔｷﾞｹﾝ","kana_city":"ｲｼﾉﾏｷｼ","kana_address":"ﾓﾉｳﾁｮｳﾀｶｽｶ","pref":"宮城県","city":"石巻市","address":"桃生町高須賀"},
{"zip_code":"9860314","kana_pref":"ﾐﾔｷﾞｹﾝ","kana_city":"ｲｼﾉﾏｷｼ","kana_address":"ﾓﾉｳﾁｮｳﾃﾗｻｷ","pref":"宮城県","city":"石巻市","address":"桃生町寺崎"},
{"zip_code":"9860303","kana_pref":"ﾐﾔｷﾞｹﾝ","kana_city":"ｲｼﾉﾏｷｼ","kana_address":"ﾓﾉｳﾁｮｳﾅｶﾞｲ","pref":"宮城県","city":"石巻市","address":"桃生町永井"},
{"zip_code":"9860313","kana_pref":"ﾐﾔｷﾞｹﾝ","kana_city":"ｲｼﾉﾏｷｼ","kana_address":"ﾓﾉｳﾁｮｳﾅｶﾂﾔﾏ","pref":"宮城県","city":"石巻市","address":"桃生町中津山"},
{"zip_code":"9860301","kana_pref":"ﾐﾔｷﾞｹﾝ","kana_city":"ｲｼﾉﾏｷｼ","kana_address":"ﾓﾉｳﾁｮｳﾜｷﾔ","pref":"宮城県","city":"石巻市","address":"桃生町脇谷"},
{"zip_code":"9862353","kana_pref":"ﾐﾔｷﾞｹﾝ","kana_city":"ｲｼﾉﾏｷｼ","kana_address":"ﾓﾓﾉｳﾗ","pref":"宮城県","city":"石巻市","address":"桃浦"},
{"zip_code":"9862402","kana_pref":"ﾐﾔｷﾞｹﾝ","kana_city":"ｲｼﾉﾏｷｼ","kana_address":"ﾔｶﾞﾜﾊﾏ","pref":"宮城県","city":"石巻市","address":"谷川浜"},
{"zip_code":"9860873","kana_pref":"ﾐﾔｷﾞｹﾝ","kana_city":"ｲｼﾉﾏｷｼ","kana_address":"ﾔﾏｼﾀﾁｮｳ","pref":"宮城県","city":"石巻市","address":"山下町"},
{"zip_code":"9860015","kana_pref":"ﾐﾔｷﾞｹﾝ","kana_city":"ｲｼﾉﾏｷｼ","kana_address":"ﾖｼﾉﾁｮｳ","pref":"宮城県","city":"石巻市","address":"吉野町"},
{"zip_code":"9860837","kana_pref":"ﾐﾔｷﾞｹﾝ","kana_city":"ｲｼﾉﾏｷｼ","kana_address":"ﾖｼﾔﾏﾁｮｳ","pref":"宮城県","city":"石巻市","address":"宜山町"},
{"zip_code":"9862404","kana_pref":"ﾐﾔｷﾞｹﾝ","kana_city":"ｲｼﾉﾏｷｼ","kana_address":"ﾖﾘｲｿﾊﾏ","pref":"宮城県","city":"石巻市","address":"寄磯浜"},
{"zip_code":"9862135","kana_pref":"ﾐﾔｷﾞｹﾝ","kana_city":"ｲｼﾉﾏｷｼ","kana_address":"ﾜﾀﾉﾊ","pref":"宮城県","city":"石巻市","address":"渡波"},
{"zip_code":"9862121","kana_pref":"ﾐﾔｷﾞｹﾝ","kana_city":"ｲｼﾉﾏｷｼ","kana_address":"ﾜﾀﾉﾊﾁｮｳ","pref":"宮城県","city":"石巻市","address":"渡波町"},
{"zip_code":"9860401","kana_pref":"ﾐﾔｷﾞｹﾝ","kana_city":"ﾄﾒｼ","kana_address":"ﾂﾔﾏﾁｮｳﾔﾅｲﾂﾞ","pref":"宮城県","city":"登米市","address":"津山町柳津"},
{"zip_code":"9860402","kana_pref":"ﾐﾔｷﾞｹﾝ","kana_city":"ﾄﾒｼ","kana_address":"ﾂﾔﾏﾁｮｳﾖｺﾔﾏ","pref":"宮城県","city":"登米市","address":"津山町横山"},
{"zip_code":"9862200","kana_pref":"ﾐﾔｷﾞｹﾝ","kana_city":"ｵｼｶｸﾞﾝｵﾅｶﾞﾜﾁｮｳ","kana_address":"","pref":"宮城県","city":"牡鹿郡女川町","address":""},
{"zip_code":"9862251","kana_pref":"ﾐﾔｷﾞｹﾝ","kana_city":"ｵｼｶｸﾞﾝｵﾅｶﾞﾜﾁｮｳ","kana_address":"ｱｻﾋｶﾞｵｶ","pref":"宮城県","city":"牡鹿郡女川町","address":"旭が丘"},
{"zip_code":"9862222","kana_pref":"ﾐﾔｷﾞｹﾝ","kana_city":"ｵｼｶｸﾞﾝｵﾅｶﾞﾜﾁｮｳ","kana_address":"ｲｲｺﾞﾊﾏ","pref":"宮城県","city":"牡鹿郡女川町","address":"飯子浜"},
{"zip_code":"9862281","kana_pref":"ﾐﾔｷﾞｹﾝ","kana_city":"ｵｼｶｸﾞﾝｵﾅｶﾞﾜﾁｮｳ","kana_address":"ｲｼﾊﾏ","pref":"宮城県","city":"牡鹿郡女川町","address":"石浜"},
{"zip_code":"9862211","kana_pref":"ﾐﾔｷﾞｹﾝ","kana_city":"ｵｼｶｸﾞﾝｵﾅｶﾞﾜﾁｮｳ","kana_address":"ｲｽﾞｼﾏ","pref":"宮城県","city":"牡鹿郡女川町","address":"出島"},
{"zip_code":"9862231","kana_pref":"ﾐﾔｷﾞｹﾝ","kana_city":"ｵｼｶｸﾞﾝｵﾅｶﾞﾜﾁｮｳ","kana_address":"ｳﾗｼｭｸﾊﾏ","pref":"宮城県","city":"牡鹿郡女川町","address":"浦宿浜"},
{"zip_code":"9862212","kana_pref":"ﾐﾔｷﾞｹﾝ","kana_city":"ｵｼｶｸﾞﾝｵﾅｶﾞﾜﾁｮｳ","kana_address":"ｴﾉｼﾏ","pref":"宮城県","city":"牡鹿郡女川町","address":"江島"},
{"zip_code":"9862202","kana_pref":"ﾐﾔｷﾞｹﾝ","kana_city":"ｵｼｶｸﾞﾝｵﾅｶﾞﾜﾁｮｳ","kana_address":"ｵｳﾗ","pref":"宮城県","city":"牡鹿郡女川町","address":"尾浦"},
{"zip_code":"9862224","kana_pref":"ﾐﾔｷﾞｹﾝ","kana_city":"ｵｼｶｸﾞﾝｵﾅｶﾞﾜﾁｮｳ","kana_address":"ｵｵｲｼﾊﾗﾊﾏ","pref":"宮城県","city":"牡鹿郡女川町","address":"大石原浜"},
{"zip_code":"9862261","kana_pref":"ﾐﾔｷﾞｹﾝ","kana_city":"ｵｼｶｸﾞﾝｵﾅｶﾞﾜﾁｮｳ","kana_address":"ｵﾅｶﾞﾜﾊﾏ","pref":"宮城県","city":"牡鹿郡女川町","address":"女川浜"},
{"zip_code":"9862205","kana_pref":"ﾐﾔｷﾞｹﾝ","kana_city":"ｵｼｶｸﾞﾝｵﾅｶﾞﾜﾁｮｳ","kana_address":"ｵﾝﾏｴﾊﾏ","pref":"宮城県","city":"牡鹿郡女川町","address":"御前浜"},
{"zip_code":"9862204","kana_pref":"ﾐﾔｷﾞｹﾝ","kana_city":"ｵｼｶｸﾞﾝｵﾅｶﾞﾜﾁｮｳ","kana_address":"ｷﾘｶﾞｻｷ","pref":"宮城県","city":"牡鹿郡女川町","address":"桐ケ崎"},
{"zip_code":"9862241","kana_pref":"ﾐﾔｷﾞｹﾝ","kana_city":"ｵｼｶｸﾞﾝｵﾅｶﾞﾜﾁｮｳ","kana_address":"ｺｶﾞﾈﾁｮｳ","pref":"宮城県","city":"牡鹿郡女川町","address":"黄金町"},
{"zip_code":"9862245","kana_pref":"ﾐﾔｷﾞｹﾝ","kana_city":"ｵｼｶｸﾞﾝｵﾅｶﾞﾜﾁｮｳ","kana_address":"ｺﾄﾌﾞｷﾁｮｳ","pref":"宮城県","city":"牡鹿郡女川町","address":"寿町"},
{"zip_code":"9862242","kana_pref":"ﾐﾔｷﾞｹﾝ","kana_city":"ｵｼｶｸﾞﾝｵﾅｶﾞﾜﾁｮｳ","kana_address":"ｺﾉﾘﾊﾏ","pref":"宮城県","city":"牡鹿郡女川町","address":"小乗浜"},
{"zip_code":"9862244","kana_pref":"ﾐﾔｷﾞｹﾝ","kana_city":"ｵｼｶｸﾞﾝｵﾅｶﾞﾜﾁｮｳ","kana_address":"ｻｸﾗｶﾞｵｶ","pref":"宮城県","city":"牡鹿郡女川町","address":"桜ケ丘"},
{"zip_code":"9862201","kana_pref":"ﾐﾔｷﾞｹﾝ","kana_city":"ｵｼｶｸﾞﾝｵﾅｶﾞﾜﾁｮｳ","kana_address":"ｻｼﾉﾊﾏ","pref":"宮城県","city":"牡鹿郡女川町","address":"指ケ浜"},
{"zip_code":"9862271","kana_pref":"ﾐﾔｷﾞｹﾝ","kana_city":"ｵｼｶｸﾞﾝｵﾅｶﾞﾜﾁｮｳ","kana_address":"ｼﾐｽﾞﾁｮｳ","pref":"宮城県","city":"牡鹿郡女川町","address":"清水町"},
{"zip_code":"9862226","kana_pref":"ﾐﾔｷﾞｹﾝ","kana_city":"ｵｼｶｸﾞﾝｵﾅｶﾞﾜﾁｮｳ","kana_address":"ﾀｶｼﾛﾊﾏ","pref":"宮城県","city":"牡鹿郡女川町","address":"高白浜"},
{"zip_code":"9862203","kana_pref":"ﾐﾔｷﾞｹﾝ","kana_city":"ｵｼｶｸﾞﾝｵﾅｶﾞﾜﾁｮｳ","kana_address":"ﾀｹﾉｳﾗ","pref":"宮城県","city":"牡鹿郡女川町","address":"竹浦"},
{"zip_code":"9862221","kana_pref":"ﾐﾔｷﾞｹﾝ","kana_city":"ｵｼｶｸﾞﾝｵﾅｶﾞﾜﾁｮｳ","kana_address":"ﾂｶﾊﾏ","pref":"宮城県","city":"牡鹿郡女川町","address":"塚浜"},
{"zip_code":"9862223","kana_pref":"ﾐﾔｷﾞｹﾝ","kana_city":"ｵｼｶｸﾞﾝｵﾅｶﾞﾜﾁｮｳ","kana_address":"ﾉﾉﾊﾏ","pref":"宮城県","city":"牡鹿郡女川町","address":"野々浜"},
{"zip_code":"9862232","kana_pref":"ﾐﾔｷﾞｹﾝ","kana_city":"ｵｼｶｸﾞﾝｵﾅｶﾞﾜﾁｮｳ","kana_address":"ﾊﾘﾉﾊﾏ","pref":"宮城県","city":"牡鹿郡女川町","address":"針浜"},
{"zip_code":"9862282","kana_pref":"ﾐﾔｷﾞｹﾝ","kana_city":"ｵｼｶｸﾞﾝｵﾅｶﾞﾜﾁｮｳ","kana_address":"ﾐﾔｶﾞｻｷ","pref":"宮城県","city":"牡鹿郡女川町","address":"宮ケ崎"},
{"zip_code":"9862225","kana_pref":"ﾐﾔｷﾞｹﾝ","kana_city":"ｵｼｶｸﾞﾝｵﾅｶﾞﾜﾁｮｳ","kana_address":"ﾖｺｳﾗ","pref":"宮城県","city":"牡鹿郡女川町","address":"横浦"},
{"zip_code":"9862243","kana_pref":"ﾐﾔｷﾞｹﾝ","kana_city":"ｵｼｶｸﾞﾝｵﾅｶﾞﾜﾁｮｳ","kana_address":"ﾜｼﾉｶﾐﾊﾏ","pref":"宮城県","city":"牡鹿郡女川町","address":"鷲神浜"},
{"zip_code":"9860700","kana_pref":"ﾐﾔｷﾞｹﾝ","kana_city":"ﾓﾄﾖｼｸﾞﾝﾐﾅﾐｻﾝﾘｸﾁｮｳ","kana_address":"","pref":"宮城県","city":"本吉郡南三陸町","address":""},
{"zip_code":"9860782","kana_pref":"ﾐﾔｷﾞｹﾝ","kana_city":"ﾓﾄﾖｼｸﾞﾝﾐﾅﾐｻﾝﾘｸﾁｮｳ","kana_address":"ｲﾘﾔ","pref":"宮城県","city":"本吉郡南三陸町","address":"入谷"},
{"zip_code":"9860772","kana_pref":"ﾐﾔｷﾞｹﾝ","kana_city":"ﾓﾄﾖｼｸﾞﾝﾐﾅﾐｻﾝﾘｸﾁｮｳ","kana_address":"ｼﾂﾞｶﾞﾜｱｷﾒｶﾞﾜ","pref":"宮城県","city":"本吉郡南三陸町","address":"志津川秋目川"},
{"zip_code":"9860733","kana_pref":"ﾐﾔｷﾞｹﾝ","kana_city":"ﾓﾄﾖｼｸﾞﾝﾐﾅﾐｻﾝﾘｸﾁｮｳ","kana_address":"ｼﾂﾞｶﾞﾜｱｻﾋｶﾞｳﾗ","pref":"宮城県","city":"本吉郡南三陸町","address":"志津川旭ケ浦"},
{"zip_code":"9860705","kana_pref":"ﾐﾔｷﾞｹﾝ","kana_city":"ﾓﾄﾖｼｸﾞﾝﾐﾅﾐｻﾝﾘｸﾁｮｳ","kana_address":"ｼﾂﾞｶﾞﾜｱｿ","pref":"宮城県","city":"本吉郡南三陸町","address":"志津川阿曽"},
{"zip_code":"9860707","kana_pref":"ﾐﾔｷﾞｹﾝ","kana_city":"ﾓﾄﾖｼｸﾞﾝﾐﾅﾐｻﾝﾘｸﾁｮｳ","kana_address":"ｼﾂﾞｶﾞﾜｱﾗｻｶ","pref":"宮城県","city":"本吉郡南三陸町","address":"志津川荒坂"},
{"zip_code":"9860726","kana_pref":"ﾐﾔｷﾞｹﾝ","kana_city":"ﾓﾄﾖｼｸﾞﾝﾐﾅﾐｻﾝﾘｸﾁｮｳ","kana_address":"ｼﾂﾞｶﾞﾜｲｿﾉｻﾜ","pref":"宮城県","city":"本吉郡南三陸町","address":"志津川磯の沢"},
{"zip_code":"9860752","kana_pref":"ﾐﾔｷﾞｹﾝ","kana_city":"ﾓﾄﾖｼｸﾞﾝﾐﾅﾐｻﾝﾘｸﾁｮｳ","kana_address":"ｼﾂﾞｶﾞﾜｲﾂｶﾏﾁ","pref":"宮城県","city":"本吉郡南三陸町","address":"志津川五日町"},
{"zip_code":"9860709","kana_pref":"ﾐﾔｷﾞｹﾝ","kana_city":"ﾓﾄﾖｼｸﾞﾝﾐﾅﾐｻﾝﾘｸﾁｮｳ","kana_address":"ｼﾂﾞｶﾞﾜｳﾁｲﾀﾞ","pref":"宮城県","city":"本吉郡南三陸町","address":"志津川内井田"},
{"zip_code":"9860764","kana_pref":"ﾐﾔｷﾞｹﾝ","kana_city":"ﾓﾄﾖｼｸﾞﾝﾐﾅﾐｻﾝﾘｸﾁｮｳ","kana_address":"ｼﾂﾞｶﾞﾜｵｵｸﾎﾞ","pref":"宮城県","city":"本吉郡南三陸町","address":"志津川大久保"},
{"zip_code":"9860771","kana_pref":"ﾐﾔｷﾞｹﾝ","kana_city":"ﾓﾄﾖｼｸﾞﾝﾐﾅﾐｻﾝﾘｸﾁｮｳ","kana_address":"ｼﾂﾞｶﾞﾜｵｵｻﾜ","pref":"宮城県","city":"本吉郡南三陸町","address":"志津川大沢"},
{"zip_code":"9860718","kana_pref":"ﾐﾔｷﾞｹﾝ","kana_city":"ﾓﾄﾖｼｸﾞﾝﾐﾅﾐｻﾝﾘｸﾁｮｳ","kana_address":"ｼﾂﾞｶﾞﾜｵｵﾊﾞﾀｹ","pref":"宮城県","city":"本吉郡南三陸町","address":"志津川大畑"},
{"zip_code":"9860731","kana_pref":"ﾐﾔｷﾞｹﾝ","kana_city":"ﾓﾄﾖｼｸﾞﾝﾐﾅﾐｻﾝﾘｸﾁｮｳ","kana_address":"ｼﾂﾞｶﾞﾜｵｵﾓﾘ","pref":"宮城県","city":"本吉郡南三陸町","address":"志津川大森"},
{"zip_code":"9860732","kana_pref":"ﾐﾔｷﾞｹﾝ","kana_city":"ﾓﾄﾖｼｸﾞﾝﾐﾅﾐｻﾝﾘｸﾁｮｳ","kana_address":"ｼﾂﾞｶﾞﾜｵｵﾓﾘﾁｮｳ","pref":"宮城県","city":"本吉郡南三陸町","address":"志津川大森町"},
{"zip_code":"9860714","kana_pref":"ﾐﾔｷﾞｹﾝ","kana_city":"ﾓﾄﾖｼｸﾞﾝﾐﾅﾐｻﾝﾘｸﾁｮｳ","kana_address":"ｼﾂﾞｶﾞﾜｶﾊﾞﾉｻﾜ","pref":"宮城県","city":"本吉郡南三陸町","address":"志津川蒲の沢"},
{"zip_code":"9860751","kana_pref":"ﾐﾔｷﾞｹﾝ","kana_city":"ﾓﾄﾖｼｸﾞﾝﾐﾅﾐｻﾝﾘｸﾁｮｳ","kana_address":"ｼﾂﾞｶﾞﾜｶﾐﾉﾔﾏ","pref":"宮城県","city":"本吉郡南三陸町","address":"志津川上の山"},
{"zip_code":"9860777","kana_pref":"ﾐﾔｷﾞｹﾝ","kana_city":"ﾓﾄﾖｼｸﾞﾝﾐﾅﾐｻﾝﾘｸﾁｮｳ","kana_address":"ｼﾂﾞｶﾞﾜｶﾐﾎﾛｹ","pref":"宮城県","city":"本吉郡南三陸町","address":"志津川上保呂毛"},
{"zip_code":"9860712","kana_pref":"ﾐﾔｷﾞｹﾝ","kana_city":"ﾓﾄﾖｼｸﾞﾝﾐﾅﾐｻﾝﾘｸﾁｮｳ","kana_address":"ｼﾂﾞｶﾞﾜｷﾀﾉﾏﾀ","pref":"宮城県","city":"本吉郡南三陸町","address":"志津川北の又"},
{"zip_code":"9860773","kana_pref":"ﾐﾔｷﾞｹﾝ","kana_city":"ﾓﾄﾖｼｸﾞﾝﾐﾅﾐｻﾝﾘｸﾁｮｳ","kana_address":"ｼﾂﾞｶﾞﾜｸﾏﾀﾞ","pref":"宮城県","city":"本吉郡南三陸町","address":"志津川熊田"},
{"zip_code":"9860766","kana_pref":"ﾐﾔｷﾞｹﾝ","kana_city":"ﾓﾄﾖｼｸﾞﾝﾐﾅﾐｻﾝﾘｸﾁｮｳ","kana_address":"ｼﾂﾞｶﾞﾜｸﾛｻｷ","pref":"宮城県","city":"本吉郡南三陸町","address":"志津川黒崎"},
{"zip_code":"9860768","kana_pref":"ﾐﾔｷﾞｹﾝ","kana_city":"ﾓﾄﾖｼｸﾞﾝﾐﾅﾐｻﾝﾘｸﾁｮｳ","kana_address":"ｼﾂﾞｶﾞﾜｺﾞｾﾞﾝｼﾀ","pref":"宮城県","city":"本吉郡南三陸町","address":"志津川御前下"},
{"zip_code":"9860721","kana_pref":"ﾐﾔｷﾞｹﾝ","kana_city":"ﾓﾄﾖｼｸﾞﾝﾐﾅﾐｻﾝﾘｸﾁｮｳ","kana_address":"ｼﾂﾞｶﾞﾜｺﾒﾋﾛ","pref":"宮城県","city":"本吉郡南三陸町","address":"志津川米広"},
{"zip_code":"9860774","kana_pref":"ﾐﾔｷﾞｹﾝ","kana_city":"ﾓﾄﾖｼｸﾞﾝﾐﾅﾐｻﾝﾘｸﾁｮｳ","kana_address":"ｼﾂﾞｶﾞﾜｺﾓﾘ","pref":"宮城県","city":"本吉郡南三陸町","address":"志津川小森"},
{"zip_code":"9860711","kana_pref":"ﾐﾔｷﾞｹﾝ","kana_city":"ﾓﾄﾖｼｸﾞﾝﾐﾅﾐｻﾝﾘｸﾁｮｳ","kana_address":"ｼﾂﾞｶﾞﾜｺﾞﾝｹﾞﾝ","pref":"宮城県","city":"本吉郡南三陸町","address":"志津川権現"},
{"zip_code":"9860762","kana_pref":"ﾐﾔｷﾞｹﾝ","kana_city":"ﾓﾄﾖｼｸﾞﾝﾐﾅﾐｻﾝﾘｸﾁｮｳ","kana_address":"ｼﾂﾞｶﾞﾜｼｵｲﾘ","pref":"宮城県","city":"本吉郡南三陸町","address":"志津川塩入"},
{"zip_code":"9860763","kana_pref":"ﾐﾔｷﾞｹﾝ","kana_city":"ﾓﾄﾖｼｸﾞﾝﾐﾅﾐｻﾝﾘｸﾁｮｳ","kana_address":"ｼﾂﾞｶﾞﾜｼｵﾐﾁｮｳ","pref":"宮城県","city":"本吉郡南三陸町","address":"志津川汐見町"},
{"zip_code":"9860706","kana_pref":"ﾐﾔｷﾞｹﾝ","kana_city":"ﾓﾄﾖｼｸﾞﾝﾐﾅﾐｻﾝﾘｸﾁｮｳ","kana_address":"ｼﾂﾞｶﾞﾜｼｽﾞﾊﾏ","pref":"宮城県","city":"本吉郡南三陸町","address":"志津川清水浜"},
{"zip_code":"9860778","kana_pref":"ﾐﾔｷﾞｹﾝ","kana_city":"ﾓﾄﾖｼｸﾞﾝﾐﾅﾐｻﾝﾘｸﾁｮｳ","kana_address":"ｼﾂﾞｶﾞﾜｼﾓﾎﾛｹ","pref":"宮城県","city":"本吉郡南三陸町","address":"志津川下保呂毛"},
{"zip_code":"9860703","kana_pref":"ﾐﾔｷﾞｹﾝ","kana_city":"ﾓﾄﾖｼｸﾞﾝﾐﾅﾐｻﾝﾘｸﾁｮｳ","kana_address":"ｼﾂﾞｶﾞﾜｼﾞｬｵｳ","pref":"宮城県","city":"本吉郡南三陸町","address":"志津川蛇王"},
{"zip_code":"9860753","kana_pref":"ﾐﾔｷﾞｹﾝ","kana_city":"ﾓﾄﾖｼｸﾞﾝﾐﾅﾐｻﾝﾘｸﾁｮｳ","kana_address":"ｼﾂﾞｶﾞﾜｼﾞｮｳﾊﾞ","pref":"宮城県","city":"本吉郡南三陸町","address":"志津川城場"},
{"zip_code":"9860754","kana_pref":"ﾐﾔｷﾞｹﾝ","kana_city":"ﾓﾄﾖｼｸﾞﾝﾐﾅﾐｻﾝﾘｸﾁｮｳ","kana_address":"ｼﾂﾞｶﾞﾜｽｹﾂﾞｸﾘ","pref":"宮城県","city":"本吉郡南三陸町","address":"志津川助作"},
{"zip_code":"9860717","kana_pref":"ﾐﾔｷﾞｹﾝ","kana_city":"ﾓﾄﾖｼｸﾞﾝﾐﾅﾐｻﾝﾘｸﾁｮｳ","kana_address":"ｼﾂﾞｶﾞﾜｿﾃﾞﾊﾏ","pref":"宮城県","city":"本吉郡南三陸町","address":"志津川袖浜"},
{"zip_code":"9860722","kana_pref":"ﾐﾔｷﾞｹﾝ","kana_city":"ﾓﾄﾖｼｸﾞﾝﾐﾅﾐｻﾝﾘｸﾁｮｳ","kana_address":"ｼﾂﾞｶﾞﾜﾀﾞｲｼﾞｮｳﾎﾞｳ","pref":"宮城県","city":"本吉郡南三陸町","address":"志津川大上坊"},
{"zip_code":"9860776","kana_pref":"ﾐﾔｷﾞｹﾝ","kana_city":"ﾓﾄﾖｼｸﾞﾝﾐﾅﾐｻﾝﾘｸﾁｮｳ","kana_address":"ｼﾂﾞｶﾞﾜﾀｹｶﾞﾜﾗ","pref":"宮城県","city":"本吉郡南三陸町","address":"志津川竹川原"},
{"zip_code":"9860779","kana_pref":"ﾐﾔｷﾞｹﾝ","kana_city":"ﾓﾄﾖｼｸﾞﾝﾐﾅﾐｻﾝﾘｸﾁｮｳ","kana_address":"ｼﾂﾞｶﾞﾜﾀｼﾞﾘﾊﾞﾀｹ","pref":"宮城県","city":"本吉郡南三陸町","address":"志津川田尻畑"},
{"zip_code":"9860723","kana_pref":"ﾐﾔｷﾞｹﾝ","kana_city":"ﾓﾄﾖｼｸﾞﾝﾐﾅﾐｻﾝﾘｸﾁｮｳ","kana_address":"ｼﾂﾞｶﾞﾜﾀﾂｻﾜ","pref":"宮城県","city":"本吉郡南三陸町","address":"志津川立沢"},
{"zip_code":"9860728","kana_pref":"ﾐﾔｷﾞｹﾝ","kana_city":"ﾓﾄﾖｼｸﾞﾝﾐﾅﾐｻﾝﾘｸﾁｮｳ","kana_address":"ｼﾂﾞｶﾞﾜﾃﾝﾉｳｻﾝ","pref":"宮城県","city":"本吉郡南三陸町","address":"志津川天王山"},
{"zip_code":"9860729","kana_pref":"ﾐﾔｷﾞｹﾝ","kana_city":"ﾓﾄﾖｼｸﾞﾝﾐﾅﾐｻﾝﾘｸﾁｮｳ","kana_address":"ｼﾂﾞｶﾞﾜﾃﾝﾉｳﾏｴ","pref":"宮城県","city":"本吉郡南三陸町","address":"志津川天王前"},
{"zip_code":"9860741","kana_pref":"ﾐﾔｷﾞｹﾝ","kana_city":"ﾓﾄﾖｼｸﾞﾝﾐﾅﾐｻﾝﾘｸﾁｮｳ","kana_address":"ｼﾂﾞｶﾞﾜﾄｵｶﾏﾁ","pref":"宮城県","city":"本吉郡南三陸町","address":"志津川十日町"},
{"zip_code":"9860767","kana_pref":"ﾐﾔｷﾞｹﾝ","kana_city":"ﾓﾄﾖｼｸﾞﾝﾐﾅﾐｻﾝﾘｸﾁｮｳ","kana_address":"ｼﾂﾞｶﾞﾜﾅｶｾﾏﾁ","pref":"宮城県","city":"本吉郡南三陸町","address":"志津川中瀬町"},
{"zip_code":"9860727","kana_pref":"ﾐﾔｷﾞｹﾝ","kana_city":"ﾓﾄﾖｼｸﾞﾝﾐﾅﾐｻﾝﾘｸﾁｮｳ","kana_address":"ｼﾂﾞｶﾞﾜﾆｲﾀﾞ","pref":"宮城県","city":"本吉郡南三陸町","address":"志津川新井田"},
{"zip_code":"9860701","kana_pref":"ﾐﾔｷﾞｹﾝ","kana_city":"ﾓﾄﾖｼｸﾞﾝﾐﾅﾐｻﾝﾘｸﾁｮｳ","kana_address":"ｼﾂﾞｶﾞﾜﾆｼﾀﾞ","pref":"宮城県","city":"本吉郡南三陸町","address":"志津川西田"},
{"zip_code":"9860725","kana_pref":"ﾐﾔｷﾞｹﾝ","kana_city":"ﾓﾄﾖｼｸﾞﾝﾐﾅﾐｻﾝﾘｸﾁｮｳ","kana_address":"ｼﾂﾞｶﾞﾜﾇﾏﾀﾞ","pref":"宮城県","city":"本吉郡南三陸町","address":"志津川沼田"},
{"zip_code":"9860765","kana_pref":"ﾐﾔｷﾞｹﾝ","kana_city":"ﾓﾄﾖｼｸﾞﾝﾐﾅﾐｻﾝﾘｸﾁｮｳ","kana_address":"ｼﾂﾞｶﾞﾜﾊﾔｼ","pref":"宮城県","city":"本吉郡南三陸町","address":"志津川林"},
{"zip_code":"9860716","kana_pref":"ﾐﾔｷﾞｹﾝ","kana_city":"ﾓﾄﾖｼｸﾞﾝﾐﾅﾐｻﾝﾘｸﾁｮｳ","kana_address":"ｼﾂﾞｶﾞﾜﾋﾗｲｿ","pref":"宮城県","city":"本吉郡南三陸町","address":"志津川平磯"},
{"zip_code":"9860724","kana_pref":"ﾐﾔｷﾞｹﾝ","kana_city":"ﾓﾄﾖｼｸﾞﾝﾐﾅﾐｻﾝﾘｸﾁｮｳ","kana_address":"ｼﾂﾞｶﾞﾜﾋﾗｲﾀﾞ","pref":"宮城県","city":"本吉郡南三陸町","address":"志津川平井田"},
{"zip_code":"9860713","kana_pref":"ﾐﾔｷﾞｹﾝ","kana_city":"ﾓﾄﾖｼｸﾞﾝﾐﾅﾐｻﾝﾘｸﾁｮｳ","kana_address":"ｼﾂﾞｶﾞﾜﾋﾗｶﾞｲ","pref":"宮城県","city":"本吉郡南三陸町","address":"志津川平貝"},
{"zip_code":"9860715","kana_pref":"ﾐﾔｷﾞｹﾝ","kana_city":"ﾓﾄﾖｼｸﾞﾝﾐﾅﾐｻﾝﾘｸﾁｮｳ","kana_address":"ｼﾂﾞｶﾞﾜﾌｶﾀﾞ","pref":"宮城県","city":"本吉郡南三陸町","address":"志津川深田"},
{"zip_code":"9860702","kana_pref":"ﾐﾔｷﾞｹﾝ","kana_city":"ﾓﾄﾖｼｸﾞﾝﾐﾅﾐｻﾝﾘｸﾁｮｳ","kana_address":"ｼﾂﾞｶﾞﾜﾎｿｳﾗ","pref":"宮城県","city":"本吉郡南三陸町","address":"志津川細浦"},
{"zip_code":"9860708","kana_pref":"ﾐﾔｷﾞｹﾝ","kana_city":"ﾓﾄﾖｼｸﾞﾝﾐﾅﾐｻﾝﾘｸﾁｮｳ","kana_address":"ｼﾂﾞｶﾞﾜﾏﾂｲﾀﾞ","pref":"宮城県","city":"本吉郡南三陸町","address":"志津川松井田"},
{"zip_code":"9860775","kana_pref":"ﾐﾔｷﾞｹﾝ","kana_city":"ﾓﾄﾖｼｸﾞﾝﾐﾅﾐｻﾝﾘｸﾁｮｳ","kana_address":"ｼﾂﾞｶﾞﾜﾏﾜﾘﾀﾃ","pref":"宮城県","city":"本吉郡南三陸町","address":"志津川廻館"},
{"zip_code":"9860761","kana_pref":"ﾐﾔｷﾞｹﾝ","kana_city":"ﾓﾄﾖｼｸﾞﾝﾐﾅﾐｻﾝﾘｸﾁｮｳ","kana_address":"ｼﾂﾞｶﾞﾜﾏﾜﾘﾀﾃﾏｴ","pref":"宮城県","city":"本吉郡南三陸町","address":"志津川廻館前"},
{"zip_code":"9860743","kana_pref":"ﾐﾔｷﾞｹﾝ","kana_city":"ﾓﾄﾖｼｸﾞﾝﾐﾅﾐｻﾝﾘｸﾁｮｳ","kana_address":"ｼﾂﾞｶﾞﾜﾐﾅﾐﾏﾁ","pref":"宮城県","city":"本吉郡南三陸町","address":"志津川南町"},
{"zip_code":"9860742","kana_pref":"ﾐﾔｷﾞｹﾝ","kana_city":"ﾓﾄﾖｼｸﾞﾝﾐﾅﾐｻﾝﾘｸﾁｮｳ","kana_address":"ｼﾂﾞｶﾞﾜﾓﾄﾊﾏﾁｮｳ","pref":"宮城県","city":"本吉郡南三陸町","address":"志津川本浜町"},
{"zip_code":"9860704","kana_pref":"ﾐﾔｷﾞｹﾝ","kana_city":"ﾓﾄﾖｼｸﾞﾝﾐﾅﾐｻﾝﾘｸﾁｮｳ","kana_address":"ｼﾂﾞｶﾞﾜﾓﾘﾔﾏ","pref":"宮城県","city":"本吉郡南三陸町","address":"志津川森山"},
{"zip_code":"9860781","kana_pref":"ﾐﾔｷﾞｹﾝ","kana_city":"ﾓﾄﾖｼｸﾞﾝﾐﾅﾐｻﾝﾘｸﾁｮｳ","kana_address":"ﾄｸﾗ","pref":"宮城県","city":"本吉郡南三陸町","address":"戸倉"}]}