{"zip_code":[
{"zip_code":"9871103","kana_pref":"ﾐﾔｷﾞｹﾝ","kana_city":"ｲｼﾉﾏｷｼ","kana_address":"ｷﾀﾑﾗ","pref":"宮城県","city":"石巻市","address":"北村"},
{"zip_code":"9871221","kana_pref":"ﾐﾔｷﾞｹﾝ","kana_city":"ｲｼﾉﾏｷｼ","kana_address":"ｽｴ","pref":"宮城県","city":"石巻市","address":"須江"},
{"zip_code":"9871222","kana_pref":"ﾐﾔｷﾞｹﾝ","kana_city":"ｲｼﾉﾏｷｼ","kana_address":"ﾋﾛﾌﾞﾁ","pref":"宮城県","city":"石巻市","address":"広渕"},
{"zip_code":"9871101","kana_pref":"ﾐﾔｷﾞｹﾝ","kana_city":"ｲｼﾉﾏｷｼ","kana_address":"ﾏｴﾔﾁ","pref":"宮城県","city":"石巻市","address":"前谷地"},
{"zip_code":"9871102","kana_pref":"ﾐﾔｷﾞｹﾝ","kana_city":"ｲｼﾉﾏｷｼ","kana_address":"ﾜﾌﾞﾁ","pref":"宮城県","city":"石巻市","address":"和渕"},
{"zip_code":"9870500","kana_pref":"ﾐﾔｷﾞｹﾝ","kana_city":"ﾄﾒｼ","kana_address":"","pref":"宮城県","city":"登米市","address":""},
{"zip_code":"9870903","kana_pref":"ﾐﾔｷﾞｹﾝ","kana_city":"ﾄﾒｼ","kana_address":"ﾄｳﾜﾁｮｳﾆｼｷｵﾘ","pref":"宮城県","city":"登米市","address":"東和町錦織"},
{"zip_code":"9870902","kana_pref":"ﾐﾔｷﾞｹﾝ","kana_city":"ﾄﾒｼ","kana_address":"ﾄｳﾜﾁｮｳﾏｲﾔ","pref":"宮城県","city":"登米市","address":"東和町米谷"},
{"zip_code":"9870901","kana_pref":"ﾐﾔｷﾞｹﾝ","kana_city":"ﾄﾒｼ","kana_address":"ﾄｳﾜﾁｮｳﾖﾈｶﾜ","pref":"宮城県","city":"登米市","address":"東和町米川"},
{"zip_code":"9870355","kana_pref":"ﾐﾔｷﾞｹﾝ","kana_city":"ﾄﾒｼ","kana_address":"ﾄﾖｻﾄﾁｮｳｳｼﾛｻﾜﾀﾞ","pref":"宮城県","city":"登米市","address":"豊里町後沢田"},
{"zip_code":"9870377","kana_pref":"ﾐﾔｷﾞｹﾝ","kana_city":"ﾄﾒｼ","kana_address":"ﾄﾖｻﾄﾁｮｳｳﾁｲﾁﾊﾞﾝｴ","pref":"宮城県","city":"登米市","address":"豊里町内一番江"},
{"zip_code":"9870385","kana_pref":"ﾐﾔｷﾞｹﾝ","kana_city":"ﾄﾒｼ","kana_address":"ﾄﾖｻﾄﾁｮｳｳﾁﾀ","pref":"宮城県","city":"登米市","address":"豊里町内田"},
{"zip_code":"9870385","kana_pref":"ﾐﾔｷﾞｹﾝ","kana_city":"ﾄﾒｼ","kana_address":"ﾄﾖｻﾄﾁｮｳｳﾁﾊﾀ","pref":"宮城県","city":"登米市","address":"豊里町内畑"},
{"zip_code":"9870373","kana_pref":"ﾐﾔｷﾞｹﾝ","kana_city":"ﾄﾒｼ","kana_address":"ﾄﾖｻﾄﾁｮｳｳﾁﾏﾁｳﾗ","pref":"宮城県","city":"登米市","address":"豊里町内町浦"},
{"zip_code":"9870366","kana_pref":"ﾐﾔｷﾞｹﾝ","kana_city":"ﾄﾒｼ","kana_address":"ﾄﾖｻﾄﾁｮｳｳﾗｹﾝ","pref":"宮城県","city":"登米市","address":"豊里町浦軒"},
{"zip_code":"9870354","kana_pref":"ﾐﾔｷﾞｹﾝ","kana_city":"ﾄﾒｼ","kana_address":"ﾄﾖｻﾄﾁｮｳｳﾜﾇﾏﾀ","pref":"宮城県","city":"登米市","address":"豊里町上沼田"},
{"zip_code":"9870353","kana_pref":"ﾐﾔｷﾞｹﾝ","kana_city":"ﾄﾒｼ","kana_address":"ﾄﾖｻﾄﾁｮｳｴﾐｻﾜ","pref":"宮城県","city":"登米市","address":"豊里町笑沢"},
{"zip_code":"9870353","kana_pref":"ﾐﾔｷﾞｹﾝ","kana_city":"ﾄﾒｼ","kana_address":"ﾄﾖｻﾄﾁｮｳｵｵｸﾇｷﾞ","pref":"宮城県","city":"登米市","address":"豊里町大椚"},
{"zip_code":"9870341","kana_pref":"ﾐﾔｷﾞｹﾝ","kana_city":"ﾄﾒｼ","kana_address":"ﾄﾖｻﾄﾁｮｳｵｵｻﾜ","pref":"宮城県","city":"登米市","address":"豊里町大沢"},
{"zip_code":"9870341","kana_pref":"ﾐﾔｷﾞｹﾝ","kana_city":"ﾄﾒｼ","kana_address":"ﾄﾖｻﾄﾁｮｳｵｵｻﾜﾇﾏﾀ","pref":"宮城県","city":"登米市","address":"豊里町大沢沼田"},
{"zip_code":"9870341","kana_pref":"ﾐﾔｷﾞｹﾝ","kana_city":"ﾄﾒｼ","kana_address":"ﾄﾖｻﾄﾁｮｳｵｵｻﾜﾔｷﾞ","pref":"宮城県","city":"登米市","address":"豊里町大沢谷岐"},
{"zip_code":"9870371","kana_pref":"ﾐﾔｷﾞｹﾝ","kana_city":"ﾄﾒｼ","kana_address":"ﾄﾖｻﾄﾁｮｳｵｵﾏｶﾞﾘ","pref":"宮城県","city":"登米市","address":"豊里町大曲"},
{"zip_code":"9870358","kana_pref":"ﾐﾔｷﾞｹﾝ","kana_city":"ﾄﾒｼ","kana_address":"ﾄﾖｻﾄﾁｮｳｶｶﾞﾏｷ","pref":"宮城県","city":"登米市","address":"豊里町加々巻"},
{"zip_code":"9870378","kana_pref":"ﾐﾔｷﾞｹﾝ","kana_city":"ﾄﾒｼ","kana_address":"ﾄﾖｻﾄﾁｮｳｶｶﾞﾐｶﾞﾀ","pref":"宮城県","city":"登米市","address":"豊里町鏡形"},
{"zip_code":"9870357","kana_pref":"ﾐﾔｷﾞｹﾝ","kana_city":"ﾄﾒｼ","kana_address":"ﾄﾖｻﾄﾁｮｳｶﾌﾞｷ","pref":"宮城県","city":"登米市","address":"豊里町蕪木"},
{"zip_code":"9870362","kana_pref":"ﾐﾔｷﾞｹﾝ","kana_city":"ﾄﾒｼ","kana_address":"ﾄﾖｻﾄﾁｮｳｶﾐﾏﾁｳﾗ","pref":"宮城県","city":"登米市","address":"豊里町上町裏"},
{"zip_code":"9870366","kana_pref":"ﾐﾔｷﾞｹﾝ","kana_city":"ﾄﾒｼ","kana_address":"ﾄﾖｻﾄﾁｮｳｶﾐﾔｳﾗ","pref":"宮城県","city":"登米市","address":"豊里町上屋浦"},
{"zip_code":"9870382","kana_pref":"ﾐﾔｷﾞｹﾝ","kana_city":"ﾄﾒｼ","kana_address":"ﾄﾖｻﾄﾁｮｳｶﾐﾔﾁ","pref":"宮城県","city":"登米市","address":"豊里町上谷地"},
{"zip_code":"9870371","kana_pref":"ﾐﾔｷﾞｹﾝ","kana_city":"ﾄﾒｼ","kana_address":"ﾄﾖｻﾄﾁｮｳｶﾗｻｷ","pref":"宮城県","city":"登米市","address":"豊里町唐崎"},
{"zip_code":"9870367","kana_pref":"ﾐﾔｷﾞｹﾝ","kana_city":"ﾄﾒｼ","kana_address":"ﾄﾖｻﾄﾁｮｳｶﾜﾏｴ","pref":"宮城県","city":"登米市","address":"豊里町川前"},
{"zip_code":"9870373","kana_pref":"ﾐﾔｷﾞｹﾝ","kana_city":"ﾄﾒｼ","kana_address":"ﾄﾖｻﾄﾁｮｳｷﾂﾂ","pref":"宮城県","city":"登米市","address":"豊里町切津"},
{"zip_code":"9870351","kana_pref":"ﾐﾔｷﾞｹﾝ","kana_city":"ﾄﾒｼ","kana_address":"ﾄﾖｻﾄﾁｮｳｸｽﾀﾞ","pref":"宮城県","city":"登米市","address":"豊里町久寿田"},
{"zip_code":"9870351","kana_pref":"ﾐﾔｷﾞｹﾝ","kana_city":"ﾄﾒｼ","kana_address":"ﾄﾖｻﾄﾁｮｳｸｽﾀﾞﾏｴ","pref":"宮城県","city":"登米市","address":"豊里町久寿田前"},
{"zip_code":"9870379","kana_pref":"ﾐﾔｷﾞｹﾝ","kana_city":"ﾄﾒｼ","kana_address":"ﾄﾖｻﾄﾁｮｳｹﾝｻﾞｷ","pref":"宮城県","city":"登米市","address":"豊里町剣先"},
{"zip_code":"9870362","kana_pref":"ﾐﾔｷﾞｹﾝ","kana_city":"ﾄﾒｼ","kana_address":"ﾄﾖｻﾄﾁｮｳｺｸﾞﾁﾏｴ","pref":"宮城県","city":"登米市","address":"豊里町小口前"},
{"zip_code":"9870363","kana_pref":"ﾐﾔｷﾞｹﾝ","kana_city":"ﾄﾒｼ","kana_address":"ﾄﾖｻﾄﾁｮｳｺﾞﾀﾝﾀﾞ","pref":"宮城県","city":"登米市","address":"豊里町五反田"},
{"zip_code":"9870358","kana_pref":"ﾐﾔｷﾞｹﾝ","kana_city":"ﾄﾒｼ","kana_address":"ﾄﾖｻﾄﾁｮｳｺﾏｷ","pref":"宮城県","city":"登米市","address":"豊里町小巻"},
{"zip_code":"9870343","kana_pref":"ﾐﾔｷﾞｹﾝ","kana_city":"ﾄﾒｼ","kana_address":"ﾄﾖｻﾄﾁｮｳｺﾔﾁ","pref":"宮城県","city":"登米市","address":"豊里町小谷地"},
{"zip_code":"9870344","kana_pref":"ﾐﾔｷﾞｹﾝ","kana_city":"ﾄﾒｼ","kana_address":"ﾄﾖｻﾄﾁｮｳｻｶｲｻﾞﾜ","pref":"宮城県","city":"登米市","address":"豊里町境沢"},
{"zip_code":"9870344","kana_pref":"ﾐﾔｷﾞｹﾝ","kana_city":"ﾄﾒｼ","kana_address":"ﾄﾖｻﾄﾁｮｳｻﾉ","pref":"宮城県","city":"登米市","address":"豊里町佐野"},
{"zip_code":"9870343","kana_pref":"ﾐﾔｷﾞｹﾝ","kana_city":"ﾄﾒｼ","kana_address":"ﾄﾖｻﾄﾁｮｳｻﾜｼﾞﾘ","pref":"宮城県","city":"登米市","address":"豊里町沢尻"},
{"zip_code":"9870371","kana_pref":"ﾐﾔｷﾞｹﾝ","kana_city":"ﾄﾒｼ","kana_address":"ﾄﾖｻﾄﾁｮｳｼﾞｯﾁｮｳﾀﾞ","pref":"宮城県","city":"登米市","address":"豊里町十丁田"},
{"zip_code":"9870356","kana_pref":"ﾐﾔｷﾞｹﾝ","kana_city":"ﾄﾒｼ","kana_address":"ﾄﾖｻﾄﾁｮｳｼﾊﾞｼﾀ","pref":"宮城県","city":"登米市","address":"豊里町芝下"},
{"zip_code":"9870385","kana_pref":"ﾐﾔｷﾞｹﾝ","kana_city":"ﾄﾒｼ","kana_address":"ﾄﾖｻﾄﾁｮｳｼﾓｷﾞｭｳ","pref":"宮城県","city":"登米市","address":"豊里町下九"},
{"zip_code":"9870364","kana_pref":"ﾐﾔｷﾞｹﾝ","kana_city":"ﾄﾒｼ","kana_address":"ﾄﾖｻﾄﾁｮｳｼﾓｺﾔ","pref":"宮城県","city":"登米市","address":"豊里町下古屋"},
{"zip_code":"9870354","kana_pref":"ﾐﾔｷﾞｹﾝ","kana_city":"ﾄﾒｼ","kana_address":"ﾄﾖｻﾄﾁｮｳｼﾓﾇﾏﾀ","pref":"宮城県","city":"登米市","address":"豊里町下沼田"},
{"zip_code":"9870366","kana_pref":"ﾐﾔｷﾞｹﾝ","kana_city":"ﾄﾒｼ","kana_address":"ﾄﾖｻﾄﾁｮｳｼﾓﾔｳﾗ","pref":"宮城県","city":"登米市","address":"豊里町下屋浦"},
{"zip_code":"9870384","kana_pref":"ﾐﾔｷﾞｹﾝ","kana_city":"ﾄﾒｼ","kana_address":"ﾄﾖｻﾄﾁｮｳｼﾞｭｳｺﾞｶﾝ","pref":"宮城県","city":"登米市","address":"豊里町十五貫"},
{"zip_code":"9870384","kana_pref":"ﾐﾔｷﾞｹﾝ","kana_city":"ﾄﾒｼ","kana_address":"ﾄﾖｻﾄﾁｮｳｼﾞｭｳｺﾞｶﾝﾔﾁ","pref":"宮城県","city":"登米市","address":"豊里町十五貫谷地"},
{"zip_code":"9870341","kana_pref":"ﾐﾔｷﾞｹﾝ","kana_city":"ﾄﾒｼ","kana_address":"ﾄﾖｻﾄﾁｮｳｼﾞｭｳﾆｻﾜ","pref":"宮城県","city":"登米市","address":"豊里町十二沢"},
{"zip_code":"9870354","kana_pref":"ﾐﾔｷﾞｹﾝ","kana_city":"ﾄﾒｼ","kana_address":"ﾄﾖｻﾄﾁｮｳｼｮｳﾜ","pref":"宮城県","city":"登米市","address":"豊里町昭和"},
{"zip_code":"9870346","kana_pref":"ﾐﾔｷﾞｹﾝ","kana_city":"ﾄﾒｼ","kana_address":"ﾄﾖｻﾄﾁｮｳｼﾗﾄﾘﾔﾏ","pref":"宮城県","city":"登米市","address":"豊里町白鳥山"},
{"zip_code":"9870346","kana_pref":"ﾐﾔｷﾞｹﾝ","kana_city":"ﾄﾒｼ","kana_address":"ﾄﾖｻﾄﾁｮｳｼﾛﾄﾘ","pref":"宮城県","city":"登米市","address":"豊里町白鳥"},
{"zip_code":"9870346","kana_pref":"ﾐﾔｷﾞｹﾝ","kana_city":"ﾄﾒｼ","kana_address":"ﾄﾖｻﾄﾁｮｳｼﾛﾄﾘﾏｴ","pref":"宮城県","city":"登米市","address":"豊里町白鳥前"},
{"zip_code":"9870358","kana_pref":"ﾐﾔｷﾞｹﾝ","kana_city":"ﾄﾒｼ","kana_address":"ﾄﾖｻﾄﾁｮｳｼﾝｶｶﾞﾏｷ","pref":"宮城県","city":"登米市","address":"豊里町新加々巻"},
{"zip_code":"9870378","kana_pref":"ﾐﾔｷﾞｹﾝ","kana_city":"ﾄﾒｼ","kana_address":"ﾄﾖｻﾄﾁｮｳｼﾝﾃﾞﾝｶｶﾞﾐｶﾞﾀ","pref":"宮城県","city":"登米市","address":"豊里町新田鏡形"},
{"zip_code":"9870361","kana_pref":"ﾐﾔｷﾞｹﾝ","kana_city":"ﾄﾒｼ","kana_address":"ﾄﾖｻﾄﾁｮｳｼﾝﾃﾞﾝﾏﾁ","pref":"宮城県","city":"登米市","address":"豊里町新田町"},
{"zip_code":"9870381","kana_pref":"ﾐﾔｷﾞｹﾝ","kana_city":"ﾄﾒｼ","kana_address":"ﾄﾖｻﾄﾁｮｳｼﾝﾅｶﾞﾏｴ","pref":"宮城県","city":"登米市","address":"豊里町新長前"},
{"zip_code":"9870376","kana_pref":"ﾐﾔｷﾞｹﾝ","kana_city":"ﾄﾒｼ","kana_address":"ﾄﾖｻﾄﾁｮｳｼﾝﾎｿﾇﾏ","pref":"宮城県","city":"登米市","address":"豊里町新細沼"},
{"zip_code":"9870365","kana_pref":"ﾐﾔｷﾞｹﾝ","kana_city":"ﾄﾒｼ","kana_address":"ﾄﾖｻﾄﾁｮｳｼﾝﾏﾁ","pref":"宮城県","city":"登米市","address":"豊里町新町"},
{"zip_code":"9870352","kana_pref":"ﾐﾔｷﾞｹﾝ","kana_city":"ﾄﾒｼ","kana_address":"ﾄﾖｻﾄﾁｮｳｽｻｷ","pref":"宮城県","city":"登米市","address":"豊里町寿崎"},
{"zip_code":"9870377","kana_pref":"ﾐﾔｷﾞｹﾝ","kana_city":"ﾄﾒｼ","kana_address":"ﾄﾖｻﾄﾁｮｳｿﾄｲﾁﾊﾞﾝｴ","pref":"宮城県","city":"登米市","address":"豊里町外一番江"},
{"zip_code":"9870383","kana_pref":"ﾐﾔｷﾞｹﾝ","kana_city":"ﾄﾒｼ","kana_address":"ﾄﾖｻﾄﾁｮｳｿﾄｺﾞﾊﾞﾝｴ","pref":"宮城県","city":"登米市","address":"豊里町外五番江"},
{"zip_code":"9870383","kana_pref":"ﾐﾔｷﾞｹﾝ","kana_city":"ﾄﾒｼ","kana_address":"ﾄﾖｻﾄﾁｮｳｿﾄｻﾝﾊﾞﾝｴ","pref":"宮城県","city":"登米市","address":"豊里町外三番江"},
{"zip_code":"9870383","kana_pref":"ﾐﾔｷﾞｹﾝ","kana_city":"ﾄﾒｼ","kana_address":"ﾄﾖｻﾄﾁｮｳｿﾄﾅﾅﾊﾞﾝｴ","pref":"宮城県","city":"登米市","address":"豊里町外七番江"},
{"zip_code":"9870383","kana_pref":"ﾐﾔｷﾞｹﾝ","kana_city":"ﾄﾒｼ","kana_address":"ﾄﾖｻﾄﾁｮｳｿﾄﾆﾊﾞﾝｴ","pref":"宮城県","city":"登米市","address":"豊里町外二番江"},
{"zip_code":"9870383","kana_pref":"ﾐﾔｷﾞｹﾝ","kana_city":"ﾄﾒｼ","kana_address":"ﾄﾖｻﾄﾁｮｳｿﾄﾊﾁﾊﾞﾝｴ","pref":"宮城県","city":"登米市","address":"豊里町外八番江"},
{"zip_code":"9870383","kana_pref":"ﾐﾔｷﾞｹﾝ","kana_city":"ﾄﾒｼ","kana_address":"ﾄﾖｻﾄﾁｮｳｿﾄﾖﾝﾊﾞﾝｴ","pref":"宮城県","city":"登米市","address":"豊里町外四番江"},
{"zip_code":"9870383","kana_pref":"ﾐﾔｷﾞｹﾝ","kana_city":"ﾄﾒｼ","kana_address":"ﾄﾖｻﾄﾁｮｳｿﾄﾛｸﾊﾞﾝｴ","pref":"宮城県","city":"登米市","address":"豊里町外六番江"},
{"zip_code":"9870341","kana_pref":"ﾐﾔｷﾞｹﾝ","kana_city":"ﾄﾒｼ","kana_address":"ﾄﾖｻﾄﾁｮｳﾀｹﾉｻﾜ","pref":"宮城県","city":"登米市","address":"豊里町竹ノ沢"},
{"zip_code":"9870364","kana_pref":"ﾐﾔｷﾞｹﾝ","kana_city":"ﾄﾒｼ","kana_address":"ﾄﾖｻﾄﾁｮｳﾄﾞﾃｼﾀ","pref":"宮城県","city":"登米市","address":"豊里町土手下"},
{"zip_code":"9870357","kana_pref":"ﾐﾔｷﾞｹﾝ","kana_city":"ﾄﾒｼ","kana_address":"ﾄﾖｻﾄﾁｮｳﾄﾘｺﾞｴ","pref":"宮城県","city":"登米市","address":"豊里町鳥越"},
{"zip_code":"9870354","kana_pref":"ﾐﾔｷﾞｹﾝ","kana_city":"ﾄﾒｼ","kana_address":"ﾄﾖｻﾄﾁｮｳﾅｶﾇﾏﾀﾞ","pref":"宮城県","city":"登米市","address":"豊里町中沼田"},
{"zip_code":"9870358","kana_pref":"ﾐﾔｷﾞｹﾝ","kana_city":"ﾄﾒｼ","kana_address":"ﾄﾖｻﾄﾁｮｳﾅｶﾞﾈｳﾗ","pref":"宮城県","city":"登米市","address":"豊里町長根浦"},
{"zip_code":"9870381","kana_pref":"ﾐﾔｷﾞｹﾝ","kana_city":"ﾄﾒｼ","kana_address":"ﾄﾖｻﾄﾁｮｳﾅｶﾞﾏｴ","pref":"宮城県","city":"登米市","address":"豊里町長前"},
{"zip_code":"9870345","kana_pref":"ﾐﾔｷﾞｹﾝ","kana_city":"ﾄﾒｼ","kana_address":"ﾄﾖｻﾄﾁｮｳﾅｶﾔｷﾞ","pref":"宮城県","city":"登米市","address":"豊里町中谷岐"},
{"zip_code":"9870368","kana_pref":"ﾐﾔｷﾞｹﾝ","kana_city":"ﾄﾒｼ","kana_address":"ﾄﾖｻﾄﾁｮｳﾅﾅﾂﾂﾞｶ","pref":"宮城県","city":"登米市","address":"豊里町七ツ塚"},
{"zip_code":"9870372","kana_pref":"ﾐﾔｷﾞｹﾝ","kana_city":"ﾄﾒｼ","kana_address":"ﾄﾖｻﾄﾁｮｳﾆｼﾏｴﾀﾞ","pref":"宮城県","city":"登米市","address":"豊里町西前田"},
{"zip_code":"9870354","kana_pref":"ﾐﾔｷﾞｹﾝ","kana_city":"ﾄﾒｼ","kana_address":"ﾄﾖｻﾄﾁｮｳﾇﾏﾀ","pref":"宮城県","city":"登米市","address":"豊里町沼田"},
{"zip_code":"9870344","kana_pref":"ﾐﾔｷﾞｹﾝ","kana_city":"ﾄﾒｼ","kana_address":"ﾄﾖｻﾄﾁｮｳﾊｻﾏ","pref":"宮城県","city":"登米市","address":"豊里町迫"},
{"zip_code":"9870359","kana_pref":"ﾐﾔｷﾞｹﾝ","kana_city":"ﾄﾒｼ","kana_address":"ﾄﾖｻﾄﾁｮｳﾊﾂﾀﾝ","pref":"宮城県","city":"登米市","address":"豊里町八反"},
{"zip_code":"9870374","kana_pref":"ﾐﾔｷﾞｹﾝ","kana_city":"ﾄﾒｼ","kana_address":"ﾄﾖｻﾄﾁｮｳﾋｶﾞｼﾌﾀﾂﾔ","pref":"宮城県","city":"登米市","address":"豊里町東二ツ屋"},
{"zip_code":"9870362","kana_pref":"ﾐﾔｷﾞｹﾝ","kana_city":"ﾄﾒｼ","kana_address":"ﾄﾖｻﾄﾁｮｳﾋｶﾞｼﾏﾁｲｼﾀ","pref":"宮城県","city":"登米市","address":"豊里町東待井下"},
{"zip_code":"9870353","kana_pref":"ﾐﾔｷﾞｹﾝ","kana_city":"ﾄﾒｼ","kana_address":"ﾄﾖｻﾄﾁｮｳﾋﾗﾊﾞﾔｼ","pref":"宮城県","city":"登米市","address":"豊里町平林"},
{"zip_code":"9870345","kana_pref":"ﾐﾔｷﾞｹﾝ","kana_city":"ﾄﾒｼ","kana_address":"ﾄﾖｻﾄﾁｮｳﾌｸｻﾜ","pref":"宮城県","city":"登米市","address":"豊里町福沢"},
{"zip_code":"9870375","kana_pref":"ﾐﾔｷﾞｹﾝ","kana_city":"ﾄﾒｼ","kana_address":"ﾄﾖｻﾄﾁｮｳﾌﾀﾂﾔ","pref":"宮城県","city":"登米市","address":"豊里町二ツ屋"},
{"zip_code":"9870376","kana_pref":"ﾐﾔｷﾞｹﾝ","kana_city":"ﾄﾒｼ","kana_address":"ﾄﾖｻﾄﾁｮｳﾎｿﾇﾏ","pref":"宮城県","city":"登米市","address":"豊里町細沼"},
{"zip_code":"9870376","kana_pref":"ﾐﾔｷﾞｹﾝ","kana_city":"ﾄﾒｼ","kana_address":"ﾄﾖｻﾄﾁｮｳﾎｿﾇﾏﾀ","pref":"宮城県","city":"登米市","address":"豊里町細沼田"},
{"zip_code":"9870355","kana_pref":"ﾐﾔｷﾞｹﾝ","kana_city":"ﾄﾒｼ","kana_address":"ﾄﾖｻﾄﾁｮｳﾎﾃﾞ","pref":"宮城県","city":"登米市","address":"豊里町保手"},
{"zip_code":"9870364","kana_pref":"ﾐﾔｷﾞｹﾝ","kana_city":"ﾄﾒｼ","kana_address":"ﾄﾖｻﾄﾁｮｳﾎﾝﾁﾄﾞﾃｼﾀ","pref":"宮城県","city":"登米市","address":"豊里町本地土手下"},
{"zip_code":"9870359","kana_pref":"ﾐﾔｷﾞｹﾝ","kana_city":"ﾄﾒｼ","kana_address":"ﾄﾖｻﾄﾁｮｳﾎﾝﾁﾊﾂﾀﾝ","pref":"宮城県","city":"登米市","address":"豊里町本地八反"},
{"zip_code":"9870372","kana_pref":"ﾐﾔｷﾞｹﾝ","kana_city":"ﾄﾒｼ","kana_address":"ﾄﾖｻﾄﾁｮｳﾏｴﾀﾞ","pref":"宮城県","city":"登米市","address":"豊里町前田"},
{"zip_code":"9870368","kana_pref":"ﾐﾔｷﾞｹﾝ","kana_city":"ﾄﾒｼ","kana_address":"ﾄﾖｻﾄﾁｮｳﾏﾁｳﾗ","pref":"宮城県","city":"登米市","address":"豊里町町浦"},
{"zip_code":"9870373","kana_pref":"ﾐﾔｷﾞｹﾝ","kana_city":"ﾄﾒｼ","kana_address":"ﾄﾖｻﾄﾁｮｳﾐﾅﾐｷﾂﾂ","pref":"宮城県","city":"登米市","address":"豊里町南切津"},
{"zip_code":"9870368","kana_pref":"ﾐﾔｷﾞｹﾝ","kana_city":"ﾄﾒｼ","kana_address":"ﾄﾖｻﾄﾁｮｳﾐﾅﾐﾏﾁｳﾗ","pref":"宮城県","city":"登米市","address":"豊里町南町浦"},
{"zip_code":"9870356","kana_pref":"ﾐﾔｷﾞｹﾝ","kana_city":"ﾄﾒｼ","kana_address":"ﾄﾖｻﾄﾁｮｳﾓｸｻﾜ","pref":"宮城県","city":"登米市","address":"豊里町杢沢"},
{"zip_code":"9870342","kana_pref":"ﾐﾔｷﾞｹﾝ","kana_city":"ﾄﾒｼ","kana_address":"ﾄﾖｻﾄﾁｮｳﾔﾏﾈ","pref":"宮城県","city":"登米市","address":"豊里町山根"},
{"zip_code":"9870342","kana_pref":"ﾐﾔｷﾞｹﾝ","kana_city":"ﾄﾒｼ","kana_address":"ﾄﾖｻﾄﾁｮｳﾔﾏﾈﾏｴ","pref":"宮城県","city":"登米市","address":"豊里町山根前"},
{"zip_code":"9870363","kana_pref":"ﾐﾔｷﾞｹﾝ","kana_city":"ﾄﾒｼ","kana_address":"ﾄﾖｻﾄﾁｮｳﾖｺﾁｮｳ","pref":"宮城県","city":"登米市","address":"豊里町横町"},
{"zip_code":"9870701","kana_pref":"ﾐﾔｷﾞｹﾝ","kana_city":"ﾄﾒｼ","kana_address":"ﾄﾖﾏﾏﾁｺｼﾞﾏ","pref":"宮城県","city":"登米市","address":"登米町小島"},
{"zip_code":"9870702","kana_pref":"ﾐﾔｷﾞｹﾝ","kana_city":"ﾄﾒｼ","kana_address":"ﾄﾖﾏﾏﾁﾃﾗｲｹ","pref":"宮城県","city":"登米市","address":"登米町寺池"},
{"zip_code":"9870703","kana_pref":"ﾐﾔｷﾞｹﾝ","kana_city":"ﾄﾒｼ","kana_address":"ﾄﾖﾏﾏﾁﾋﾈｳｼ","pref":"宮城県","city":"登米市","address":"登米町日根牛"},
{"zip_code":"9870704","kana_pref":"ﾐﾔｷﾞｹﾝ","kana_city":"ﾄﾒｼ","kana_address":"ﾄﾖﾏﾏﾁﾋﾉﾄ","pref":"宮城県","city":"登米市","address":"登米町日野渡"},
{"zip_code":"9870611","kana_pref":"ﾐﾔｷﾞｹﾝ","kana_city":"ﾄﾒｼ","kana_address":"ﾅｶﾀﾞﾁｮｳｱｻﾐｽﾞ","pref":"宮城県","city":"登米市","address":"中田町浅水"},
{"zip_code":"9870601","kana_pref":"ﾐﾔｷﾞｹﾝ","kana_city":"ﾄﾒｼ","kana_address":"ﾅｶﾀﾞﾁｮｳｲｼﾉﾓﾘ","pref":"宮城県","city":"登米市","address":"中田町石森"},
{"zip_code":"9870602","kana_pref":"ﾐﾔｷﾞｹﾝ","kana_city":"ﾄﾒｼ","kana_address":"ﾅｶﾀﾞﾁｮｳｳﾜﾇﾏ","pref":"宮城県","city":"登米市","address":"中田町上沼"},
{"zip_code":"9870621","kana_pref":"ﾐﾔｷﾞｹﾝ","kana_city":"ﾄﾒｼ","kana_address":"ﾅｶﾀﾞﾁｮｳﾀｶﾗｴｸﾛﾇﾏ","pref":"宮城県","city":"登米市","address":"中田町宝江黒沼"},
{"zip_code":"9870622","kana_pref":"ﾐﾔｷﾞｹﾝ","kana_city":"ﾄﾒｼ","kana_address":"ﾅｶﾀﾞﾁｮｳﾀｶﾗｴﾆｲﾀﾞ","pref":"宮城県","city":"登米市","address":"中田町宝江新井田"},
{"zip_code":"9870623","kana_pref":"ﾐﾔｷﾞｹﾝ","kana_city":"ﾄﾒｼ","kana_address":"ﾅｶﾀﾞﾁｮｳﾀｶﾗｴﾓﾘ","pref":"宮城県","city":"登米市","address":"中田町宝江森"},
{"zip_code":"9870513","kana_pref":"ﾐﾔｷﾞｹﾝ","kana_city":"ﾄﾒｼ","kana_address":"ﾊｻﾏﾁｮｳｷﾀｶﾀ","pref":"宮城県","city":"登米市","address":"迫町北方"},
{"zip_code":"9870511","kana_pref":"ﾐﾔｷﾞｹﾝ","kana_city":"ﾄﾒｼ","kana_address":"ﾊｻﾏﾁｮｳｻﾇﾏ","pref":"宮城県","city":"登米市","address":"迫町佐沼"},
{"zip_code":"9870512","kana_pref":"ﾐﾔｷﾞｹﾝ","kana_city":"ﾄﾒｼ","kana_address":"ﾊｻﾏﾁｮｳﾓﾘ","pref":"宮城県","city":"登米市","address":"迫町森"},
{"zip_code":"9870432","kana_pref":"ﾐﾔｷﾞｹﾝ","kana_city":"ﾄﾒｼ","kana_address":"ﾐﾅﾐｶﾀﾏﾁｱｵｻﾞｻ","pref":"宮城県","city":"登米市","address":"南方町青笹"},
{"zip_code":"9870441","kana_pref":"ﾐﾔｷﾞｹﾝ","kana_city":"ﾄﾒｼ","kana_address":"ﾐﾅﾐｶﾀﾏﾁｱｵｼﾏﾏｴ","pref":"宮城県","city":"登米市","address":"南方町青島前"},
{"zip_code":"9870441","kana_pref":"ﾐﾔｷﾞｹﾝ","kana_city":"ﾄﾒｼ","kana_address":"ﾐﾅﾐｶﾀﾏﾁｱｵｼﾏﾏﾁｲ","pref":"宮城県","city":"登米市","address":"南方町青島待井"},
{"zip_code":"9870441","kana_pref":"ﾐﾔｷﾞｹﾝ","kana_city":"ﾄﾒｼ","kana_address":"ﾐﾅﾐｶﾀﾏﾁｱｵｼﾏﾔｼｷ","pref":"宮城県","city":"登米市","address":"南方町青島屋敷"},
{"zip_code":"9870412","kana_pref":"ﾐﾔｷﾞｹﾝ","kana_city":"ﾄﾒｼ","kana_address":"ﾐﾅﾐｶﾀﾏﾁｱｶﾞﾄ","pref":"宮城県","city":"登米市","address":"南方町上ケ戸"},
{"zip_code":"9870444","kana_pref":"ﾐﾔｷﾞｹﾝ","kana_city":"ﾄﾒｼ","kana_address":"ﾐﾅﾐｶﾀﾏﾁｱﾏｲｹ","pref":"宮城県","city":"登米市","address":"南方町尼池"},
{"zip_code":"9870411","kana_pref":"ﾐﾔｷﾞｹﾝ","kana_city":"ﾄﾒｼ","kana_address":"ﾐﾅﾐｶﾀﾏﾁｱﾏﾇﾏ","pref":"宮城県","city":"登米市","address":"南方町天沼"},
{"zip_code":"9870412","kana_pref":"ﾐﾔｷﾞｹﾝ","kana_city":"ﾄﾒｼ","kana_address":"ﾐﾅﾐｶﾀﾏﾁｲｶｽﾞﾁ","pref":"宮城県","city":"登米市","address":"南方町雷"},
{"zip_code":"9870443","kana_pref":"ﾐﾔｷﾞｹﾝ","kana_city":"ﾄﾒｼ","kana_address":"ﾐﾅﾐｶﾀﾏﾁｲﾀｶﾞｻﾜ","pref":"宮城県","city":"登米市","address":"南方町板ケ沢"},
{"zip_code":"9870402","kana_pref":"ﾐﾔｷﾞｹﾝ","kana_city":"ﾄﾒｼ","kana_address":"ﾐﾅﾐｶﾀﾏﾁｲﾀｸﾗ","pref":"宮城県","city":"登米市","address":"南方町板倉"},
{"zip_code":"9870402","kana_pref":"ﾐﾔｷﾞｹﾝ","kana_city":"ﾄﾒｼ","kana_address":"ﾐﾅﾐｶﾀﾏﾁｲﾀｸﾗｳｼﾛ","pref":"宮城県","city":"登米市","address":"南方町板倉後"},
{"zip_code":"9870443","kana_pref":"ﾐﾔｷﾞｹﾝ","kana_city":"ﾄﾒｼ","kana_address":"ﾐﾅﾐｶﾀﾏﾁｲﾁｱｼﾞ","pref":"宮城県","city":"登米市","address":"南方町一網"},
{"zip_code":"9870431","kana_pref":"ﾐﾔｷﾞｹﾝ","kana_city":"ﾄﾒｼ","kana_address":"ﾐﾅﾐｶﾀﾏﾁｲﾁﾉﾏｶﾞﾘ","pref":"宮城県","city":"登米市","address":"南方町一ノ曲"},
{"zip_code":"9870442","kana_pref":"ﾐﾔｷﾞｹﾝ","kana_city":"ﾄﾒｼ","kana_address":"ﾐﾅﾐｶﾀﾏﾁｳｼﾛﾀｶｲｼ","pref":"宮城県","city":"登米市","address":"南方町後高石"},
{"zip_code":"9870402","kana_pref":"ﾐﾔｷﾞｹﾝ","kana_city":"ﾄﾒｼ","kana_address":"ﾐﾅﾐｶﾀﾏﾁｳｼﾛﾔｼｷﾏﾁｲ","pref":"宮城県","city":"登米市","address":"南方町後屋敷待井"},
{"zip_code":"9870403","kana_pref":"ﾐﾔｷﾞｹﾝ","kana_city":"ﾄﾒｼ","kana_address":"ﾐﾅﾐｶﾀﾏﾁｳﾁﾉﾒ","pref":"宮城県","city":"登米市","address":"南方町内ノ目"},
{"zip_code":"9870414","kana_pref":"ﾐﾔｷﾞｹﾝ","kana_city":"ﾄﾒｼ","kana_address":"ﾐﾅﾐｶﾀﾏﾁｳﾁﾜﾆﾏﾙ","pref":"宮城県","city":"登米市","address":"南方町内鰐丸"},
{"zip_code":"9870432","kana_pref":"ﾐﾔｷﾞｹﾝ","kana_city":"ﾄﾒｼ","kana_address":"ﾐﾅﾐｶﾀﾏﾁｵｲﾉｶﾞｹ","pref":"宮城県","city":"登米市","address":"南方町狼掛"},
{"zip_code":"9870444","kana_pref":"ﾐﾔｷﾞｹﾝ","kana_city":"ﾄﾒｼ","kana_address":"ﾐﾅﾐｶﾀﾏﾁｵｵｶﾞﾐ","pref":"宮城県","city":"登米市","address":"南方町大上"},
{"zip_code":"9870443","kana_pref":"ﾐﾔｷﾞｹﾝ","kana_city":"ﾄﾒｼ","kana_address":"ﾐﾅﾐｶﾀﾏﾁｵｵｻﾞｶﾏｴ","pref":"宮城県","city":"登米市","address":"南方町大坂前"},
{"zip_code":"9870431","kana_pref":"ﾐﾔｷﾞｹﾝ","kana_city":"ﾄﾒｼ","kana_address":"ﾐﾅﾐｶﾀﾏﾁｵｵｿﾞﾈ","pref":"宮城県","city":"登米市","address":"南方町大埣"},
{"zip_code":"9870431","kana_pref":"ﾐﾔｷﾞｹﾝ","kana_city":"ﾄﾒｼ","kana_address":"ﾐﾅﾐｶﾀﾏﾁｵｵﾀ","pref":"宮城県","city":"登米市","address":"南方町太田"},
{"zip_code":"9870433","kana_pref":"ﾐﾔｷﾞｹﾝ","kana_city":"ﾄﾒｼ","kana_address":"ﾐﾅﾐｶﾀﾏﾁｵｵﾀﾞｲﾗ","pref":"宮城県","city":"登米市","address":"南方町大平"},
{"zip_code":"9870433","kana_pref":"ﾐﾔｷﾞｹﾝ","kana_city":"ﾄﾒｼ","kana_address":"ﾐﾅﾐｶﾀﾏﾁｵｵﾀﾞｲﾗﾏｴ","pref":"宮城県","city":"登米市","address":"南方町大平前"},
{"zip_code":"9870423","kana_pref":"ﾐﾔｷﾞｹﾝ","kana_city":"ﾄﾒｼ","kana_address":"ﾐﾅﾐｶﾀﾏﾁｵｵﾀﾞｹ","pref":"宮城県","city":"登米市","address":"南方町大嶽"},
{"zip_code":"9870423","kana_pref":"ﾐﾔｷﾞｹﾝ","kana_city":"ﾄﾒｼ","kana_address":"ﾐﾅﾐｶﾀﾏﾁｵｵﾀﾞｹﾏｴ","pref":"宮城県","city":"登米市","address":"南方町大嶽前"},
{"zip_code":"9870423","kana_pref":"ﾐﾔｷﾞｹﾝ","kana_city":"ﾄﾒｼ","kana_address":"ﾐﾅﾐｶﾀﾏﾁｵｵﾀﾞｹﾔﾏ","pref":"宮城県","city":"登米市","address":"南方町大嶽山"},
{"zip_code":"9870403","kana_pref":"ﾐﾔｷﾞｹﾝ","kana_city":"ﾄﾒｼ","kana_address":"ﾐﾅﾐｶﾀﾏﾁｵｵﾂｶ","pref":"宮城県","city":"登米市","address":"南方町王塚"},
{"zip_code":"9870443","kana_pref":"ﾐﾔｷﾞｹﾝ","kana_city":"ﾄﾒｼ","kana_address":"ﾐﾅﾐｶﾀﾏﾁｵｵﾆｼ","pref":"宮城県","city":"登米市","address":"南方町大西"},
{"zip_code":"9870421","kana_pref":"ﾐﾔｷﾞｹﾝ","kana_city":"ﾄﾒｼ","kana_address":"ﾐﾅﾐｶﾀﾏﾁｵｵﾊﾞﾀ","pref":"宮城県","city":"登米市","address":"南方町大畑"},
{"zip_code":"9870422","kana_pref":"ﾐﾔｷﾞｹﾝ","kana_city":"ﾄﾒｼ","kana_address":"ﾐﾅﾐｶﾀﾏﾁｵｵﾊﾀﾏｴ","pref":"宮城県","city":"登米市","address":"南方町大畠前"},
{"zip_code":"9870426","kana_pref":"ﾐﾔｷﾞｹﾝ","kana_city":"ﾄﾒｼ","kana_address":"ﾐﾅﾐｶﾀﾏﾁｵｵﾌﾞｸﾛ","pref":"宮城県","city":"登米市","address":"南方町大袋"},
{"zip_code":"9870426","kana_pref":"ﾐﾔｷﾞｹﾝ","kana_city":"ﾄﾒｼ","kana_address":"ﾐﾅﾐｶﾀﾏﾁｵｵﾌﾞｸﾛｳﾗ","pref":"宮城県","city":"登米市","address":"南方町大袋浦"},
{"zip_code":"9870414","kana_pref":"ﾐﾔｷﾞｹﾝ","kana_city":"ﾄﾒｼ","kana_address":"ﾐﾅﾐｶﾀﾏﾁｵｵﾑﾗ","pref":"宮城県","city":"登米市","address":"南方町大村"},
{"zip_code":"9870414","kana_pref":"ﾐﾔｷﾞｹﾝ","kana_city":"ﾄﾒｼ","kana_address":"ﾐﾅﾐｶﾀﾏﾁｵｵﾑﾗﾏｴ","pref":"宮城県","city":"登米市","address":"南方町大村前"},
{"zip_code":"9870444","kana_pref":"ﾐﾔｷﾞｹﾝ","kana_city":"ﾄﾒｼ","kana_address":"ﾐﾅﾐｶﾀﾏﾁｵｵﾓﾘﾏｴ","pref":"宮城県","city":"登米市","address":"南方町大森前"},
{"zip_code":"9870412","kana_pref":"ﾐﾔｷﾞｹﾝ","kana_city":"ﾄﾒｼ","kana_address":"ﾐﾅﾐｶﾀﾏﾁｵｵﾜｸﾄﾞ","pref":"宮城県","city":"登米市","address":"南方町大涌戸"},
{"zip_code":"9870443","kana_pref":"ﾐﾔｷﾞｹﾝ","kana_city":"ﾄﾒｼ","kana_address":"ﾐﾅﾐｶﾀﾏﾁｵﾓﾃﾏｴ","pref":"宮城県","city":"登米市","address":"南方町表前"},
{"zip_code":"9870424","kana_pref":"ﾐﾔｷﾞｹﾝ","kana_city":"ﾄﾒｼ","kana_address":"ﾐﾅﾐｶﾀﾏﾁｶｻﾞﾊﾘ","pref":"宮城県","city":"登米市","address":"南方町風張"},
{"zip_code":"9870425","kana_pref":"ﾐﾔｷﾞｹﾝ","kana_city":"ﾄﾒｼ","kana_address":"ﾐﾅﾐｶﾀﾏﾁｶｼﾞﾇﾏ","pref":"宮城県","city":"登米市","address":"南方町梶沼"},
{"zip_code":"9870425","kana_pref":"ﾐﾔｷﾞｹﾝ","kana_city":"ﾄﾒｼ","kana_address":"ﾐﾅﾐｶﾀﾏﾁｶｼﾞﾇﾏｶﾜﾏｴ","pref":"宮城県","city":"登米市","address":"南方町梶沼川前"},
{"zip_code":"9870425","kana_pref":"ﾐﾔｷﾞｹﾝ","kana_city":"ﾄﾒｼ","kana_address":"ﾐﾅﾐｶﾀﾏﾁｶｼﾞﾇﾏﾏｴ","pref":"宮城県","city":"登米市","address":"南方町梶沼前"},
{"zip_code":"9870432","kana_pref":"ﾐﾔｷﾞｹﾝ","kana_city":"ﾄﾒｼ","kana_address":"ﾐﾅﾐｶﾀﾏﾁｶﾐｸﾎﾞﾀ","pref":"宮城県","city":"登米市","address":"南方町上窪田"},
{"zip_code":"9870425","kana_pref":"ﾐﾔｷﾞｹﾝ","kana_city":"ﾄﾒｼ","kana_address":"ﾐﾅﾐｶﾀﾏﾁｶﾐﾄｵﾄｼ","pref":"宮城県","city":"登米市","address":"南方町上砥落"},
{"zip_code":"9870413","kana_pref":"ﾐﾔｷﾞｹﾝ","kana_city":"ﾄﾒｼ","kana_address":"ﾐﾅﾐｶﾀﾏﾁｶﾐﾊﾗ","pref":"宮城県","city":"登米市","address":"南方町上原"},
{"zip_code":"9870445","kana_pref":"ﾐﾔｷﾞｹﾝ","kana_city":"ﾄﾒｼ","kana_address":"ﾐﾅﾐｶﾀﾏﾁｶﾐﾋﾗｶﾞｲ","pref":"宮城県","city":"登米市","address":"南方町上平貝"},
{"zip_code":"9870423","kana_pref":"ﾐﾔｷﾞｹﾝ","kana_city":"ﾄﾒｼ","kana_address":"ﾐﾅﾐｶﾀﾏﾁｶﾗｽﾀﾞ","pref":"宮城県","city":"登米市","address":"南方町烏田"},
{"zip_code":"9870403","kana_pref":"ﾐﾔｷﾞｹﾝ","kana_city":"ﾄﾒｼ","kana_address":"ﾐﾅﾐｶﾀﾏﾁｶﾜﾂﾞﾗ","pref":"宮城県","city":"登米市","address":"南方町河面"},
{"zip_code":"9870422","kana_pref":"ﾐﾔｷﾞｹﾝ","kana_city":"ﾄﾒｼ","kana_address":"ﾐﾅﾐｶﾀﾏﾁｶﾜﾏｴ","pref":"宮城県","city":"登米市","address":"南方町川前"},
{"zip_code":"9870426","kana_pref":"ﾐﾔｷﾞｹﾝ","kana_city":"ﾄﾒｼ","kana_address":"ﾐﾅﾐｶﾀﾏﾁｸﾇｷﾞ","pref":"宮城県","city":"登米市","address":"南方町樟"},
{"zip_code":"9870426","kana_pref":"ﾐﾔｷﾞｹﾝ","kana_city":"ﾄﾒｼ","kana_address":"ﾐﾅﾐｶﾀﾏﾁｸﾇｷﾞﾄﾞﾃｿﾄ","pref":"宮城県","city":"登米市","address":"南方町樟土手外"},
{"zip_code":"9870432","kana_pref":"ﾐﾔｷﾞｹﾝ","kana_city":"ﾄﾒｼ","kana_address":"ﾐﾅﾐｶﾀﾏﾁｸﾎﾞﾀ","pref":"宮城県","city":"登米市","address":"南方町窪田"},
{"zip_code":"9870403","kana_pref":"ﾐﾔｷﾞｹﾝ","kana_city":"ﾄﾒｼ","kana_address":"ﾐﾅﾐｶﾀﾏﾁｺｳﾉｷ","pref":"宮城県","city":"登米市","address":"南方町鴻ノ木"},
{"zip_code":"9870443","kana_pref":"ﾐﾔｷﾞｹﾝ","kana_city":"ﾄﾒｼ","kana_address":"ﾐﾅﾐｶﾀﾏﾁｺｹﾉﾔﾁ","pref":"宮城県","city":"登米市","address":"南方町苔野谷地"},
{"zip_code":"9870403","kana_pref":"ﾐﾔｷﾞｹﾝ","kana_city":"ﾄﾒｼ","kana_address":"ﾐﾅﾐｶﾀﾏﾁｺﾔﾏ","pref":"宮城県","city":"登米市","address":"南方町小山"},
{"zip_code":"9870402","kana_pref":"ﾐﾔｷﾞｹﾝ","kana_city":"ﾄﾒｼ","kana_address":"ﾐﾅﾐｶﾀﾏﾁｻﾜﾀﾞ","pref":"宮城県","city":"登米市","address":"南方町沢田"},
{"zip_code":"9870402","kana_pref":"ﾐﾔｷﾞｹﾝ","kana_city":"ﾄﾒｼ","kana_address":"ﾐﾅﾐｶﾀﾏﾁｻﾜﾀﾞﾏﾁｲ","pref":"宮城県","city":"登米市","address":"南方町沢田待井"},
{"zip_code":"9870402","kana_pref":"ﾐﾔｷﾞｹﾝ","kana_city":"ﾄﾒｼ","kana_address":"ﾐﾅﾐｶﾀﾏﾁｻﾜﾀﾞﾔｼｷ","pref":"宮城県","city":"登米市","address":"南方町沢田屋敷"},
{"zip_code":"9870444","kana_pref":"ﾐﾔｷﾞｹﾝ","kana_city":"ﾄﾒｼ","kana_address":"ﾐﾅﾐｶﾀﾏﾁｻﾝﾀﾞｲﾏｴ","pref":"宮城県","city":"登米市","address":"南方町三代前"},
{"zip_code":"9870421","kana_pref":"ﾐﾔｷﾞｹﾝ","kana_city":"ﾄﾒｼ","kana_address":"ﾐﾅﾐｶﾀﾏﾁｼｺﾐ","pref":"宮城県","city":"登米市","address":"南方町仕込"},
{"zip_code":"9870444","kana_pref":"ﾐﾔｷﾞｹﾝ","kana_city":"ﾄﾒｼ","kana_address":"ﾐﾅﾐｶﾀﾏﾁｼﾓｼﾝｻﾞﾝ","pref":"宮城県","city":"登米市","address":"南方町下新山"},
{"zip_code":"9870425","kana_pref":"ﾐﾔｷﾞｹﾝ","kana_city":"ﾄﾒｼ","kana_address":"ﾐﾅﾐｶﾀﾏﾁｼﾓﾄｵﾄｼ","pref":"宮城県","city":"登米市","address":"南方町下砥落"},
{"zip_code":"9870413","kana_pref":"ﾐﾔｷﾞｹﾝ","kana_city":"ﾄﾒｼ","kana_address":"ﾐﾅﾐｶﾀﾏﾁｼﾓﾊﾗﾏｴ","pref":"宮城県","city":"登米市","address":"南方町下原前"},
{"zip_code":"9870445","kana_pref":"ﾐﾔｷﾞｹﾝ","kana_city":"ﾄﾒｼ","kana_address":"ﾐﾅﾐｶﾀﾏﾁｼﾓﾋﾗｶﾞｲ","pref":"宮城県","city":"登米市","address":"南方町下平貝"},
{"zip_code":"9870425","kana_pref":"ﾐﾔｷﾞｹﾝ","kana_city":"ﾄﾒｼ","kana_address":"ﾐﾅﾐｶﾀﾏﾁｼﾞｭｳﾆﾔﾏ","pref":"宮城県","city":"登米市","address":"南方町十二山"},
{"zip_code":"9870413","kana_pref":"ﾐﾔｷﾞｹﾝ","kana_city":"ﾄﾒｼ","kana_address":"ﾐﾅﾐｶﾀﾏﾁｼｭｸﾊﾞﾀ","pref":"宮城県","city":"登米市","address":"南方町宿畑"},
{"zip_code":"9870431","kana_pref":"ﾐﾔｷﾞｹﾝ","kana_city":"ﾄﾒｼ","kana_address":"ﾐﾅﾐｶﾀﾏﾁｼﾝｲﾁﾉﾏｶﾞﾘ","pref":"宮城県","city":"登米市","address":"南方町新一ノ曲"},
{"zip_code":"9870422","kana_pref":"ﾐﾔｷﾞｹﾝ","kana_city":"ﾄﾒｼ","kana_address":"ﾐﾅﾐｶﾀﾏﾁｼﾝｵｵﾊﾞﾀﾏｴ","pref":"宮城県","city":"登米市","address":"南方町新大畑前"},
{"zip_code":"9870404","kana_pref":"ﾐﾔｷﾞｹﾝ","kana_city":"ﾄﾒｼ","kana_address":"ﾐﾅﾐｶﾀﾏﾁｼﾝｼﾏﾏｴ","pref":"宮城県","city":"登米市","address":"南方町新島前"},
{"zip_code":"9870446","kana_pref":"ﾐﾔｷﾞｹﾝ","kana_city":"ﾄﾒｼ","kana_address":"ﾐﾅﾐｶﾀﾏﾁｼﾝﾀｶｲｼｳﾗ","pref":"宮城県","city":"登米市","address":"南方町新高石浦"},
{"zip_code":"9870422","kana_pref":"ﾐﾔｷﾞｹﾝ","kana_city":"ﾄﾒｼ","kana_address":"ﾐﾅﾐｶﾀﾏﾁｼﾝﾃﾞﾝ","pref":"宮城県","city":"登米市","address":"南方町新田"},
{"zip_code":"9870447","kana_pref":"ﾐﾔｷﾞｹﾝ","kana_city":"ﾄﾒｼ","kana_address":"ﾐﾅﾐｶﾀﾏﾁｼﾝﾅｶﾞﾈｼﾀ","pref":"宮城県","city":"登米市","address":"南方町新長根下"},
{"zip_code":"9870405","kana_pref":"ﾐﾔｷﾞｹﾝ","kana_city":"ﾄﾒｼ","kana_address":"ﾐﾅﾐｶﾀﾏﾁｼﾝﾅｶﾔﾏ","pref":"宮城県","city":"登米市","address":"南方町新中山"},
{"zip_code":"9870443","kana_pref":"ﾐﾔｷﾞｹﾝ","kana_city":"ﾄﾒｼ","kana_address":"ﾐﾅﾐｶﾀﾏﾁｼﾝﾉﾔﾁ","pref":"宮城県","city":"登米市","address":"南方町新野谷地"},
{"zip_code":"9870422","kana_pref":"ﾐﾔｷﾞｹﾝ","kana_city":"ﾄﾒｼ","kana_address":"ﾐﾅﾐｶﾀﾏﾁｾｶﾞﾜ","pref":"宮城県","city":"登米市","address":"南方町瀬川"},
{"zip_code":"9870445","kana_pref":"ﾐﾔｷﾞｹﾝ","kana_city":"ﾄﾒｼ","kana_address":"ﾐﾅﾐｶﾀﾏﾁｾﾞﾆｶﾞﾈﾀﾞﾝ","pref":"宮城県","city":"登米市","address":"南方町銭金壇"},
{"zip_code":"9870411","kana_pref":"ﾐﾔｷﾞｹﾝ","kana_city":"ﾄﾒｼ","kana_address":"ﾐﾅﾐｶﾀﾏﾁｾﾉﾌﾁ","pref":"宮城県","city":"登米市","address":"南方町瀬ノ淵"},
{"zip_code":"9870423","kana_pref":"ﾐﾔｷﾞｹﾝ","kana_city":"ﾄﾒｼ","kana_address":"ﾐﾅﾐｶﾀﾏﾁｾﾞﾝｶﾏｴ","pref":"宮城県","city":"登米市","address":"南方町ぜん荷前"},
{"zip_code":"9870423","kana_pref":"ﾐﾔｷﾞｹﾝ","kana_city":"ﾄﾒｼ","kana_address":"ﾐﾅﾐｶﾀﾏﾁｾﾞﾝｶﾔﾏ","pref":"宮城県","city":"登米市","address":"南方町ぜん荷山"},
{"zip_code":"9870443","kana_pref":"ﾐﾔｷﾞｹﾝ","kana_city":"ﾄﾒｼ","kana_address":"ﾐﾅﾐｶﾀﾏﾁｿﾄｳﾗ","pref":"宮城県","city":"登米市","address":"南方町外浦"},
{"zip_code":"9870412","kana_pref":"ﾐﾔｷﾞｹﾝ","kana_city":"ﾄﾒｼ","kana_address":"ﾐﾅﾐｶﾀﾏﾁﾀﾞｲﾓﾝ","pref":"宮城県","city":"登米市","address":"南方町大門"},
{"zip_code":"9870401","kana_pref":"ﾐﾔｷﾞｹﾝ","kana_city":"ﾄﾒｼ","kana_address":"ﾐﾅﾐｶﾀﾏﾁﾀｶｲｼ","pref":"宮城県","city":"登米市","address":"南方町高石"},
{"zip_code":"9870401","kana_pref":"ﾐﾔｷﾞｹﾝ","kana_city":"ﾄﾒｼ","kana_address":"ﾐﾅﾐｶﾀﾏﾁﾀｶｲｼｳﾗ","pref":"宮城県","city":"登米市","address":"南方町高石浦"},
{"zip_code":"9870423","kana_pref":"ﾐﾔｷﾞｹﾝ","kana_city":"ﾄﾒｼ","kana_address":"ﾐﾅﾐｶﾀﾏﾁﾀﾃ","pref":"宮城県","city":"登米市","address":"南方町館"},
{"zip_code":"9870424","kana_pref":"ﾐﾔｷﾞｹﾝ","kana_city":"ﾄﾒｼ","kana_address":"ﾐﾅﾐｶﾀﾏﾁﾀﾃｳﾗ","pref":"宮城県","city":"登米市","address":"南方町館浦"},
{"zip_code":"9870425","kana_pref":"ﾐﾔｷﾞｹﾝ","kana_city":"ﾄﾒｼ","kana_address":"ﾐﾅﾐｶﾀﾏﾁﾀﾅｶｳﾗ","pref":"宮城県","city":"登米市","address":"南方町田中浦"},
{"zip_code":"9870442","kana_pref":"ﾐﾔｷﾞｹﾝ","kana_city":"ﾄﾒｼ","kana_address":"ﾐﾅﾐｶﾀﾏﾁﾁｬｳｽﾓﾘ","pref":"宮城県","city":"登米市","address":"南方町茶臼森"},
{"zip_code":"9870442","kana_pref":"ﾐﾔｷﾞｹﾝ","kana_city":"ﾄﾒｼ","kana_address":"ﾐﾅﾐｶﾀﾏﾁﾁｬｳｽﾓﾘﾏｴ","pref":"宮城県","city":"登米市","address":"南方町茶臼森前"},
{"zip_code":"9870433","kana_pref":"ﾐﾔｷﾞｹﾝ","kana_city":"ﾄﾒｼ","kana_address":"ﾐﾅﾐｶﾀﾏﾁﾁｮｳｼﾞｬﾊﾗ","pref":"宮城県","city":"登米市","address":"南方町長者原"},
{"zip_code":"9870432","kana_pref":"ﾐﾔｷﾞｹﾝ","kana_city":"ﾄﾒｼ","kana_address":"ﾐﾅﾐｶﾀﾏﾁﾂﾂﾐﾀ","pref":"宮城県","city":"登米市","address":"南方町堤田"},
{"zip_code":"9870444","kana_pref":"ﾐﾔｷﾞｹﾝ","kana_city":"ﾄﾒｼ","kana_address":"ﾐﾅﾐｶﾀﾏﾁﾂﾉｶﾞｹﾏｴ","pref":"宮城県","city":"登米市","address":"南方町角欠前"},
{"zip_code":"9870402","kana_pref":"ﾐﾔｷﾞｹﾝ","kana_city":"ﾄﾒｼ","kana_address":"ﾐﾅﾐｶﾀﾏﾁﾂﾙｼﾛ","pref":"宮城県","city":"登米市","address":"南方町鶴代"},
{"zip_code":"9870411","kana_pref":"ﾐﾔｷﾞｹﾝ","kana_city":"ﾄﾒｼ","kana_address":"ﾐﾅﾐｶﾀﾏﾁﾃﾗﾌﾞｸﾛ","pref":"宮城県","city":"登米市","address":"南方町寺袋"},
{"zip_code":"9870412","kana_pref":"ﾐﾔｷﾞｹﾝ","kana_city":"ﾄﾒｼ","kana_address":"ﾐﾅﾐｶﾀﾏﾁﾃﾙｲ","pref":"宮城県","city":"登米市","address":"南方町照井"},
{"zip_code":"9870423","kana_pref":"ﾐﾔｷﾞｹﾝ","kana_city":"ﾄﾒｼ","kana_address":"ﾐﾅﾐｶﾀﾏﾁﾄﾞｳﾁ","pref":"宮城県","city":"登米市","address":"南方町堂地"},
{"zip_code":"9870423","kana_pref":"ﾐﾔｷﾞｹﾝ","kana_city":"ﾄﾒｼ","kana_address":"ﾐﾅﾐｶﾀﾏﾁﾄﾞｳﾁﾏｴ","pref":"宮城県","city":"登米市","address":"南方町堂地前"},
{"zip_code":"9870425","kana_pref":"ﾐﾔｷﾞｹﾝ","kana_city":"ﾄﾒｼ","kana_address":"ﾐﾅﾐｶﾀﾏﾁﾄｵﾄｼ","pref":"宮城県","city":"登米市","address":"南方町砥落"},
{"zip_code":"9870402","kana_pref":"ﾐﾔｷﾞｹﾝ","kana_city":"ﾄﾒｼ","kana_address":"ﾐﾅﾐｶﾀﾏﾁﾄﾈﾔｼｷ","pref":"宮城県","city":"登米市","address":"南方町戸根屋敷"},
{"zip_code":"9870445","kana_pref":"ﾐﾔｷﾞｹﾝ","kana_city":"ﾄﾒｼ","kana_address":"ﾐﾅﾐｶﾀﾏﾁﾅｶｽｻｷ","pref":"宮城県","city":"登米市","address":"南方町中須崎"},
{"zip_code":"9870442","kana_pref":"ﾐﾔｷﾞｹﾝ","kana_city":"ﾄﾒｼ","kana_address":"ﾐﾅﾐｶﾀﾏﾁﾅｶﾀｶｲｼ","pref":"宮城県","city":"登米市","address":"南方町中高石"},
{"zip_code":"9870443","kana_pref":"ﾐﾔｷﾞｹﾝ","kana_city":"ﾄﾒｼ","kana_address":"ﾐﾅﾐｶﾀﾏﾁﾅｶﾞﾈ","pref":"宮城県","city":"登米市","address":"南方町長根"},
{"zip_code":"9870443","kana_pref":"ﾐﾔｷﾞｹﾝ","kana_city":"ﾄﾒｼ","kana_address":"ﾐﾅﾐｶﾀﾏﾁﾅｶﾞﾈｼﾀ","pref":"宮城県","city":"登米市","address":"南方町長根下"},
{"zip_code":"9870433","kana_pref":"ﾐﾔｷﾞｹﾝ","kana_city":"ﾄﾒｼ","kana_address":"ﾐﾅﾐｶﾀﾏﾁﾅｶﾉｸﾁ","pref":"宮城県","city":"登米市","address":"南方町中ノ口"},
{"zip_code":"9870413","kana_pref":"ﾐﾔｷﾞｹﾝ","kana_city":"ﾄﾒｼ","kana_address":"ﾐﾅﾐｶﾀﾏﾁﾅｶﾊﾗ","pref":"宮城県","city":"登米市","address":"南方町中原"},
{"zip_code":"9870402","kana_pref":"ﾐﾔｷﾞｹﾝ","kana_city":"ﾄﾒｼ","kana_address":"ﾐﾅﾐｶﾀﾏﾁﾅｶﾔﾏ","pref":"宮城県","city":"登米市","address":"南方町中山"},
{"zip_code":"9870426","kana_pref":"ﾐﾔｷﾞｹﾝ","kana_city":"ﾄﾒｼ","kana_address":"ﾐﾅﾐｶﾀﾏﾁﾅﾘﾀ","pref":"宮城県","city":"登米市","address":"南方町成田"},
{"zip_code":"9870421","kana_pref":"ﾐﾔｷﾞｹﾝ","kana_city":"ﾄﾒｼ","kana_address":"ﾐﾅﾐｶﾀﾏﾁﾆｲｼﾞｭｸ","pref":"宮城県","city":"登米市","address":"南方町新井宿"},
{"zip_code":"9870401","kana_pref":"ﾐﾔｷﾞｹﾝ","kana_city":"ﾄﾒｼ","kana_address":"ﾐﾅﾐｶﾀﾏﾁﾆｼﾔﾏﾅﾘ","pref":"宮城県","city":"登米市","address":"南方町西山成"},
{"zip_code":"9870401","kana_pref":"ﾐﾔｷﾞｹﾝ","kana_city":"ﾄﾒｼ","kana_address":"ﾐﾅﾐｶﾀﾏﾁﾆｼﾔﾏﾅﾘﾏｴ","pref":"宮城県","city":"登米市","address":"南方町西山成前"},
{"zip_code":"9870433","kana_pref":"ﾐﾔｷﾞｹﾝ","kana_city":"ﾄﾒｼ","kana_address":"ﾐﾅﾐｶﾀﾏﾁﾇﾏｻｷ","pref":"宮城県","city":"登米市","address":"南方町沼崎"},
{"zip_code":"9870433","kana_pref":"ﾐﾔｷﾞｹﾝ","kana_city":"ﾄﾒｼ","kana_address":"ﾐﾅﾐｶﾀﾏﾁﾇﾏｻｷﾏｴ","pref":"宮城県","city":"登米市","address":"南方町沼崎前"},
{"zip_code":"9870425","kana_pref":"ﾐﾔｷﾞｹﾝ","kana_city":"ﾄﾒｼ","kana_address":"ﾐﾅﾐｶﾀﾏﾁﾇﾏﾑｶｲ","pref":"宮城県","city":"登米市","address":"南方町沼向"},
{"zip_code":"9870443","kana_pref":"ﾐﾔｷﾞｹﾝ","kana_city":"ﾄﾒｼ","kana_address":"ﾐﾅﾐｶﾀﾏﾁﾉﾔﾁ","pref":"宮城県","city":"登米市","address":"南方町野谷地"},
{"zip_code":"9870432","kana_pref":"ﾐﾔｷﾞｹﾝ","kana_city":"ﾄﾒｼ","kana_address":"ﾐﾅﾐｶﾀﾏﾁﾊﾀｵｶ","pref":"宮城県","city":"登米市","address":"南方町畑岡"},
{"zip_code":"9870432","kana_pref":"ﾐﾔｷﾞｹﾝ","kana_city":"ﾄﾒｼ","kana_address":"ﾐﾅﾐｶﾀﾏﾁﾊﾀｵｶｼﾀ","pref":"宮城県","city":"登米市","address":"南方町畑岡下"},
{"zip_code":"9870401","kana_pref":"ﾐﾔｷﾞｹﾝ","kana_city":"ﾄﾒｼ","kana_address":"ﾐﾅﾐｶﾀﾏﾁﾊﾁﾉﾓﾘ","pref":"宮城県","city":"登米市","address":"南方町八の森"},
{"zip_code":"9870413","kana_pref":"ﾐﾔｷﾞｹﾝ","kana_city":"ﾄﾒｼ","kana_address":"ﾐﾅﾐｶﾀﾏﾁﾊﾗ","pref":"宮城県","city":"登米市","address":"南方町原"},
{"zip_code":"9870413","kana_pref":"ﾐﾔｷﾞｹﾝ","kana_city":"ﾄﾒｼ","kana_address":"ﾐﾅﾐｶﾀﾏﾁﾊﾗｳﾗ","pref":"宮城県","city":"登米市","address":"南方町原浦"},
{"zip_code":"9870413","kana_pref":"ﾐﾔｷﾞｹﾝ","kana_city":"ﾄﾒｼ","kana_address":"ﾐﾅﾐｶﾀﾏﾁﾊﾗﾏｴ","pref":"宮城県","city":"登米市","address":"南方町原前"},
{"zip_code":"9870413","kana_pref":"ﾐﾔｷﾞｹﾝ","kana_city":"ﾄﾒｼ","kana_address":"ﾐﾅﾐｶﾀﾏﾁﾊﾗﾔｼｷ","pref":"宮城県","city":"登米市","address":"南方町原屋敷"},
{"zip_code":"9870422","kana_pref":"ﾐﾔｷﾞｹﾝ","kana_city":"ﾄﾒｼ","kana_address":"ﾐﾅﾐｶﾀﾏﾁﾋｶﾞｼｶﾜﾏｴ","pref":"宮城県","city":"登米市","address":"南方町東川前"},
{"zip_code":"9870445","kana_pref":"ﾐﾔｷﾞｹﾝ","kana_city":"ﾄﾒｼ","kana_address":"ﾐﾅﾐｶﾀﾏﾁﾋﾗｶﾞｲ","pref":"宮城県","city":"登米市","address":"南方町平貝"},
{"zip_code":"9870403","kana_pref":"ﾐﾔｷﾞｹﾝ","kana_city":"ﾄﾒｼ","kana_address":"ﾐﾅﾐｶﾀﾏﾁﾌﾀﾂﾊﾞｼ","pref":"宮城県","city":"登米市","address":"南方町二ツ橋"},
{"zip_code":"9870422","kana_pref":"ﾐﾔｷﾞｹﾝ","kana_city":"ﾄﾒｼ","kana_address":"ﾐﾅﾐｶﾀﾏﾁﾍﾋﾞﾇﾏ","pref":"宮城県","city":"登米市","address":"南方町蛇沼"},
{"zip_code":"9870424","kana_pref":"ﾐﾔｷﾞｹﾝ","kana_city":"ﾄﾒｼ","kana_address":"ﾐﾅﾐｶﾀﾏﾁﾎｿｶﾜ","pref":"宮城県","city":"登米市","address":"南方町細川"},
{"zip_code":"9870424","kana_pref":"ﾐﾔｷﾞｹﾝ","kana_city":"ﾄﾒｼ","kana_address":"ﾐﾅﾐｶﾀﾏﾁﾎｿｶﾜｳﾗ","pref":"宮城県","city":"登米市","address":"南方町細川浦"},
{"zip_code":"9870424","kana_pref":"ﾐﾔｷﾞｹﾝ","kana_city":"ﾄﾒｼ","kana_address":"ﾐﾅﾐｶﾀﾏﾁﾎｿｶﾜﾏｴ","pref":"宮城県","city":"登米市","address":"南方町細川前"},
{"zip_code":"9870423","kana_pref":"ﾐﾔｷﾞｹﾝ","kana_city":"ﾄﾒｼ","kana_address":"ﾐﾅﾐｶﾀﾏﾁﾎｯｷﾘ","pref":"宮城県","city":"登米市","address":"南方町堀切"},
{"zip_code":"9870423","kana_pref":"ﾐﾔｷﾞｹﾝ","kana_city":"ﾄﾒｼ","kana_address":"ﾐﾅﾐｶﾀﾏﾁﾎﾝｺﾞｳｵｵﾀﾞｹ","pref":"宮城県","city":"登米市","address":"南方町本郷大嶽"},
{"zip_code":"9870444","kana_pref":"ﾐﾔｷﾞｹﾝ","kana_city":"ﾄﾒｼ","kana_address":"ﾐﾅﾐｶﾀﾏﾁﾏｳﾁ","pref":"宮城県","city":"登米市","address":"南方町間内"},
{"zip_code":"9870444","kana_pref":"ﾐﾔｷﾞｹﾝ","kana_city":"ﾄﾒｼ","kana_address":"ﾐﾅﾐｶﾀﾏﾁﾏｳﾁﾏｴ","pref":"宮城県","city":"登米市","address":"南方町間内前"},
{"zip_code":"9870415","kana_pref":"ﾐﾔｷﾞｹﾝ","kana_city":"ﾄﾒｼ","kana_address":"ﾐﾅﾐｶﾀﾏﾁﾏｶﾞﾇﾏ","pref":"宮城県","city":"登米市","address":"南方町真ケ沼"},
{"zip_code":"9870402","kana_pref":"ﾐﾔｷﾞｹﾝ","kana_city":"ﾄﾒｼ","kana_address":"ﾐﾅﾐｶﾀﾏﾁﾏﾁｲ","pref":"宮城県","city":"登米市","address":"南方町待井"},
{"zip_code":"9870402","kana_pref":"ﾐﾔｷﾞｹﾝ","kana_city":"ﾄﾒｼ","kana_address":"ﾐﾅﾐｶﾀﾏﾁﾏﾂｼﾏﾔｼｷ","pref":"宮城県","city":"登米市","address":"南方町松島屋敷"},
{"zip_code":"9870414","kana_pref":"ﾐﾔｷﾞｹﾝ","kana_city":"ﾄﾒｼ","kana_address":"ﾐﾅﾐｶﾀﾏﾁﾏﾂﾊﾞ","pref":"宮城県","city":"登米市","address":"南方町松葉"},
{"zip_code":"9870414","kana_pref":"ﾐﾔｷﾞｹﾝ","kana_city":"ﾄﾒｼ","kana_address":"ﾐﾅﾐｶﾀﾏﾁﾏﾂﾊﾞｵﾓﾃ","pref":"宮城県","city":"登米市","address":"南方町松葉表"},
{"zip_code":"9870414","kana_pref":"ﾐﾔｷﾞｹﾝ","kana_city":"ﾄﾒｼ","kana_address":"ﾐﾅﾐｶﾀﾏﾁﾏﾂﾊﾞﾏｴ","pref":"宮城県","city":"登米市","address":"南方町松葉前"},
{"zip_code":"9870444","kana_pref":"ﾐﾔｷﾞｹﾝ","kana_city":"ﾄﾒｼ","kana_address":"ﾐﾅﾐｶﾀﾏﾁﾐｻﾜ","pref":"宮城県","city":"登米市","address":"南方町実沢"},
{"zip_code":"9870421","kana_pref":"ﾐﾔｷﾞｹﾝ","kana_city":"ﾄﾒｼ","kana_address":"ﾐﾅﾐｶﾀﾏﾁﾐﾅﾐｵｵﾊﾞﾀﾏｴ","pref":"宮城県","city":"登米市","address":"南方町南大畑前"},
{"zip_code":"9870424","kana_pref":"ﾐﾔｷﾞｹﾝ","kana_city":"ﾄﾒｼ","kana_address":"ﾐﾅﾐｶﾀﾏﾁﾐﾅﾐｻﾞﾜ","pref":"宮城県","city":"登米市","address":"南方町南沢"},
{"zip_code":"9870424","kana_pref":"ﾐﾔｷﾞｹﾝ","kana_city":"ﾄﾒｼ","kana_address":"ﾐﾅﾐｶﾀﾏﾁﾐﾅﾐﾎｿｶﾜ","pref":"宮城県","city":"登米市","address":"南方町南細川"},
{"zip_code":"9870403","kana_pref":"ﾐﾔｷﾞｹﾝ","kana_city":"ﾄﾒｼ","kana_address":"ﾐﾅﾐｶﾀﾏﾁﾐﾈ","pref":"宮城県","city":"登米市","address":"南方町峯"},
{"zip_code":"9870412","kana_pref":"ﾐﾔｷﾞｹﾝ","kana_city":"ﾄﾒｼ","kana_address":"ﾐﾅﾐｶﾀﾏﾁﾐﾈﾏｴ","pref":"宮城県","city":"登米市","address":"南方町峯前"},
{"zip_code":"9870422","kana_pref":"ﾐﾔｷﾞｹﾝ","kana_city":"ﾄﾒｼ","kana_address":"ﾐﾅﾐｶﾀﾏﾁﾑﾛﾀ","pref":"宮城県","city":"登米市","address":"南方町室田"},
{"zip_code":"9870403","kana_pref":"ﾐﾔｷﾞｹﾝ","kana_city":"ﾄﾒｼ","kana_address":"ﾐﾅﾐｶﾀﾏﾁﾔｸｼｼﾞﾏﾔｼｷ","pref":"宮城県","city":"登米市","address":"南方町薬師島屋敷"},
{"zip_code":"9870444","kana_pref":"ﾐﾔｷﾞｹﾝ","kana_city":"ﾄﾒｼ","kana_address":"ﾐﾅﾐｶﾀﾏﾁﾔﾅｷﾞｻﾜ","pref":"宮城県","city":"登米市","address":"南方町柳沢"},
{"zip_code":"9870444","kana_pref":"ﾐﾔｷﾞｹﾝ","kana_city":"ﾄﾒｼ","kana_address":"ﾐﾅﾐｶﾀﾏﾁﾔﾅｷﾞｻﾜﾏｴ","pref":"宮城県","city":"登米市","address":"南方町柳沢前"},
{"zip_code":"9870422","kana_pref":"ﾐﾔｷﾞｹﾝ","kana_city":"ﾄﾒｼ","kana_address":"ﾐﾅﾐｶﾀﾏﾁﾔﾏｻﾞｷ","pref":"宮城県","city":"登米市","address":"南方町山崎"},
{"zip_code":"9870401","kana_pref":"ﾐﾔｷﾞｹﾝ","kana_city":"ﾄﾒｼ","kana_address":"ﾐﾅﾐｶﾀﾏﾁﾔﾏﾅﾘ","pref":"宮城県","city":"登米市","address":"南方町山成"},
{"zip_code":"9870414","kana_pref":"ﾐﾔｷﾞｹﾝ","kana_city":"ﾄﾒｼ","kana_address":"ﾐﾅﾐｶﾀﾏﾁﾔﾏﾅﾘｳﾗ","pref":"宮城県","city":"登米市","address":"南方町山成浦"},
{"zip_code":"9870401","kana_pref":"ﾐﾔｷﾞｹﾝ","kana_city":"ﾄﾒｼ","kana_address":"ﾐﾅﾐｶﾀﾏﾁﾔﾏﾅﾘﾏｴ","pref":"宮城県","city":"登米市","address":"南方町山成前"},
{"zip_code":"9870445","kana_pref":"ﾐﾔｷﾞｹﾝ","kana_city":"ﾄﾒｼ","kana_address":"ﾐﾅﾐｶﾀﾏﾁﾖｸｻﾜ","pref":"宮城県","city":"登米市","address":"南方町翌沢"},
{"zip_code":"9870444","kana_pref":"ﾐﾔｷﾞｹﾝ","kana_city":"ﾄﾒｼ","kana_address":"ﾐﾅﾐｶﾀﾏﾁﾖｺﾀﾞｲ","pref":"宮城県","city":"登米市","address":"南方町横代"},
{"zip_code":"9870431","kana_pref":"ﾐﾔｷﾞｹﾝ","kana_city":"ﾄﾒｼ","kana_address":"ﾐﾅﾐｶﾀﾏﾁﾖｺﾏｴ","pref":"宮城県","city":"登米市","address":"南方町横前"},
{"zip_code":"9870425","kana_pref":"ﾐﾔｷﾞｹﾝ","kana_city":"ﾄﾒｼ","kana_address":"ﾐﾅﾐｶﾀﾏﾁﾖﾈﾌﾞｸﾛ","pref":"宮城県","city":"登米市","address":"南方町米袋"},
{"zip_code":"9870425","kana_pref":"ﾐﾔｷﾞｹﾝ","kana_city":"ﾄﾒｼ","kana_address":"ﾐﾅﾐｶﾀﾏﾁﾖﾈﾌﾞｸﾛｳﾗ","pref":"宮城県","city":"登米市","address":"南方町米袋浦"},
{"zip_code":"9870425","kana_pref":"ﾐﾔｷﾞｹﾝ","kana_city":"ﾄﾒｼ","kana_address":"ﾐﾅﾐｶﾀﾏﾁﾖﾈﾌﾞｸﾛﾏｴ","pref":"宮城県","city":"登米市","address":"南方町米袋前"},
{"zip_code":"9870426","kana_pref":"ﾐﾔｷﾞｹﾝ","kana_city":"ﾄﾒｼ","kana_address":"ﾐﾅﾐｶﾀﾏﾁﾜｶｻﾏｴ","pref":"宮城県","city":"登米市","address":"南方町若狭前"},
{"zip_code":"9870414","kana_pref":"ﾐﾔｷﾞｹﾝ","kana_city":"ﾄﾒｼ","kana_address":"ﾐﾅﾐｶﾀﾏﾁﾜﾆﾏﾙ","pref":"宮城県","city":"登米市","address":"南方町鰐丸"},
{"zip_code":"9870307","kana_pref":"ﾐﾔｷﾞｹﾝ","kana_city":"ﾄﾒｼ","kana_address":"ﾖﾈﾔﾏﾁｮｳｱﾀｺﾞｼﾀ","pref":"宮城県","city":"登米市","address":"米山町愛宕下"},
{"zip_code":"9870307","kana_pref":"ﾐﾔｷﾞｹﾝ","kana_city":"ﾄﾒｼ","kana_address":"ﾖﾈﾔﾏﾁｮｳｱﾀｺﾞﾏｴ","pref":"宮城県","city":"登米市","address":"米山町愛宕前"},
{"zip_code":"9870307","kana_pref":"ﾐﾔｷﾞｹﾝ","kana_city":"ﾄﾒｼ","kana_address":"ﾖﾈﾔﾏﾁｮｳｲﾇｺﾏﾂ","pref":"宮城県","city":"登米市","address":"米山町犬子松"},
{"zip_code":"9870304","kana_pref":"ﾐﾔｷﾞｹﾝ","kana_city":"ﾄﾒｼ","kana_address":"ﾖﾈﾔﾏﾁｮｳｳﾁ","pref":"宮城県","city":"登米市","address":"米山町内"},
{"zip_code":"9870305","kana_pref":"ﾐﾔｷﾞｹﾝ","kana_city":"ﾄﾒｼ","kana_address":"ﾖﾈﾔﾏﾁｮｳｶﾜﾏｴ","pref":"宮城県","city":"登米市","address":"米山町川前"},
{"zip_code":"9870308","kana_pref":"ﾐﾔｷﾞｹﾝ","kana_city":"ﾄﾒｼ","kana_address":"ﾖﾈﾔﾏﾁｮｳｺﾏﾁｲ","pref":"宮城県","city":"登米市","address":"米山町小待井"},
{"zip_code":"9870308","kana_pref":"ﾐﾔｷﾞｹﾝ","kana_city":"ﾄﾒｼ","kana_address":"ﾖﾈﾔﾏﾁｮｳｺﾏﾁｲｼﾀ","pref":"宮城県","city":"登米市","address":"米山町小待井下"},
{"zip_code":"9870311","kana_pref":"ﾐﾔｷﾞｹﾝ","kana_city":"ﾄﾒｼ","kana_address":"ﾖﾈﾔﾏﾁｮｳｻｸﾗｵｶ","pref":"宮城県","city":"登米市","address":"米山町桜岡"},
{"zip_code":"9870307","kana_pref":"ﾐﾔｷﾞｹﾝ","kana_city":"ﾄﾒｼ","kana_address":"ﾖﾈﾔﾏﾁｮｳｻﾙｶﾞｻｷ","pref":"宮城県","city":"登米市","address":"米山町猿ケ崎"},
{"zip_code":"9870306","kana_pref":"ﾐﾔｷﾞｹﾝ","kana_city":"ﾄﾒｼ","kana_address":"ﾖﾈﾔﾏﾁｮｳｼﾞｿﾞｳｶﾞﾜ","pref":"宮城県","city":"登米市","address":"米山町地蔵川"},
{"zip_code":"9870305","kana_pref":"ﾐﾔｷﾞｹﾝ","kana_city":"ﾄﾒｼ","kana_address":"ﾖﾈﾔﾏﾁｮｳｽｲﾓﾝ","pref":"宮城県","city":"登米市","address":"米山町水門"},
{"zip_code":"9870301","kana_pref":"ﾐﾔｷﾞｹﾝ","kana_city":"ﾄﾒｼ","kana_address":"ﾖﾈﾔﾏﾁｮｳｾﾞﾝﾉｳｼﾞ","pref":"宮城県","city":"登米市","address":"米山町善王寺"},
{"zip_code":"9870309","kana_pref":"ﾐﾔｷﾞｹﾝ","kana_city":"ﾄﾒｼ","kana_address":"ﾖﾈﾔﾏﾁｮｳﾀﾞﾃｼﾀ","pref":"宮城県","city":"登米市","address":"米山町舘下"},
{"zip_code":"9870309","kana_pref":"ﾐﾔｷﾞｹﾝ","kana_city":"ﾄﾒｼ","kana_address":"ﾖﾈﾔﾏﾁｮｳﾀﾞﾃﾏｴ","pref":"宮城県","city":"登米市","address":"米山町舘前"},
{"zip_code":"9870303","kana_pref":"ﾐﾔｷﾞｹﾝ","kana_city":"ﾄﾒｼ","kana_address":"ﾖﾈﾔﾏﾁｮｳﾀﾊﾞﾀﾆｼ","pref":"宮城県","city":"登米市","address":"米山町田畑西"},
{"zip_code":"9870303","kana_pref":"ﾐﾔｷﾞｹﾝ","kana_city":"ﾄﾒｼ","kana_address":"ﾖﾈﾔﾏﾁｮｳﾀﾊﾞﾀﾏｴ","pref":"宮城県","city":"登米市","address":"米山町田畑前"},
{"zip_code":"9870306","kana_pref":"ﾐﾔｷﾞｹﾝ","kana_city":"ﾄﾒｼ","kana_address":"ﾖﾈﾔﾏﾁｮｳﾄｻｶﾞﾌﾁ","pref":"宮城県","city":"登米市","address":"米山町土佐ケ渕"},
{"zip_code":"9870331","kana_pref":"ﾐﾔｷﾞｹﾝ","kana_city":"ﾄﾒｼ","kana_address":"ﾖﾈﾔﾏﾁｮｳﾅｶﾂﾔﾏ","pref":"宮城県","city":"登米市","address":"米山町中津山"},
{"zip_code":"9870304","kana_pref":"ﾐﾔｷﾞｹﾝ","kana_city":"ﾄﾒｼ","kana_address":"ﾖﾈﾔﾏﾁｮｳﾅｶﾐﾁﾋｶﾞｼ","pref":"宮城県","city":"登米市","address":"米山町中道東"},
{"zip_code":"9870304","kana_pref":"ﾐﾔｷﾞｹﾝ","kana_city":"ﾄﾒｼ","kana_address":"ﾖﾈﾔﾏﾁｮｳﾅｶﾐﾁﾏｴ","pref":"宮城県","city":"登米市","address":"米山町中道前"},
{"zip_code":"9870321","kana_pref":"ﾐﾔｷﾞｹﾝ","kana_city":"ﾄﾒｼ","kana_address":"ﾖﾈﾔﾏﾁｮｳﾆｼﾉ","pref":"宮城県","city":"登米市","address":"米山町西野"},
{"zip_code":"9870302","kana_pref":"ﾐﾔｷﾞｹﾝ","kana_city":"ﾄﾒｼ","kana_address":"ﾖﾈﾔﾏﾁｮｳﾇﾏﾀ","pref":"宮城県","city":"登米市","address":"米山町沼田"},
{"zip_code":"9870305","kana_pref":"ﾐﾔｷﾞｹﾝ","kana_city":"ﾄﾒｼ","kana_address":"ﾖﾈﾔﾏﾁｮｳﾊｯﾀﾝ","pref":"宮城県","city":"登米市","address":"米山町八反"},
{"zip_code":"9870308","kana_pref":"ﾐﾔｷﾞｹﾝ","kana_city":"ﾄﾒｼ","kana_address":"ﾖﾈﾔﾏﾁｮｳﾏﾁｲｼﾀ","pref":"宮城県","city":"登米市","address":"米山町待井下"},
{"zip_code":"9870302","kana_pref":"ﾐﾔｷﾞｹﾝ","kana_city":"ﾄﾒｼ","kana_address":"ﾖﾈﾔﾏﾁｮｳﾔｸﾞﾗﾊﾞ","pref":"宮城県","city":"登米市","address":"米山町櫓場"},
{"zip_code":"9870302","kana_pref":"ﾐﾔｷﾞｹﾝ","kana_city":"ﾄﾒｼ","kana_address":"ﾖﾈﾔﾏﾁｮｳﾔｸﾞﾗﾊﾞｼﾀ","pref":"宮城県","city":"登米市","address":"米山町櫓場下"},
{"zip_code":"9872200","kana_pref":"ﾐﾔｷﾞｹﾝ","kana_city":"ｸﾘﾊﾗｼ","kana_address":"","pref":"宮城県","city":"栗原市","address":""},
{"zip_code":"9872372","kana_pref":"ﾐﾔｷﾞｹﾝ","kana_city":"ｸﾘﾊﾗｼ","kana_address":"ｲﾁﾊｻﾏｱｵｷ","pref":"宮城県","city":"栗原市","address":"一迫青木"},
{"zip_code":"9872369","kana_pref":"ﾐﾔｷﾞｹﾝ","kana_city":"ｸﾘﾊﾗｼ","kana_address":"ｲﾁﾊｻﾏｱﾗﾏﾁ","pref":"宮城県","city":"栗原市","address":"一迫荒町"},
{"zip_code":"9872336","kana_pref":"ﾐﾔｷﾞｹﾝ","kana_city":"ｸﾘﾊﾗｼ","kana_address":"ｲﾁﾊｻﾏｱﾗﾔｼｷ","pref":"宮城県","city":"栗原市","address":"一迫荒屋敷"},
{"zip_code":"9872343","kana_pref":"ﾐﾔｷﾞｹﾝ","kana_city":"ｸﾘﾊﾗｼ","kana_address":"ｲﾁﾊｻﾏｲｯﾎﾟﾝｽｷﾞ","pref":"宮城県","city":"栗原市","address":"一迫一本杉"},
{"zip_code":"9872364","kana_pref":"ﾐﾔｷﾞｹﾝ","kana_city":"ｸﾘﾊﾗｼ","kana_address":"ｲﾁﾊｻﾏｲﾜｶﾞｻﾜ","pref":"宮城県","city":"栗原市","address":"一迫岩ケ沢"},
{"zip_code":"9872351","kana_pref":"ﾐﾔｷﾞｹﾝ","kana_city":"ｸﾘﾊﾗｼ","kana_address":"ｲﾁﾊｻﾏｳﾅﾝﾀﾞ","pref":"宮城県","city":"栗原市","address":"一迫宇南田"},
{"zip_code":"9872301","kana_pref":"ﾐﾔｷﾞｹﾝ","kana_city":"ｸﾘﾊﾗｼ","kana_address":"ｲﾁﾊｻﾏｵｵｶﾜｸﾞﾁ","pref":"宮城県","city":"栗原市","address":"一迫大川口"},
{"zip_code":"9872362","kana_pref":"ﾐﾔｷﾞｹﾝ","kana_city":"ｸﾘﾊﾗｼ","kana_address":"ｲﾁﾊｻﾏｵｵｸﾞﾘ","pref":"宮城県","city":"栗原市","address":"一迫大栗"},
{"zip_code":"9872346","kana_pref":"ﾐﾔｷﾞｹﾝ","kana_city":"ｸﾘﾊﾗｼ","kana_address":"ｲﾁﾊｻﾏｵｵｽｽﾞ","pref":"宮城県","city":"栗原市","address":"一迫大清水"},
{"zip_code":"9872348","kana_pref":"ﾐﾔｷﾞｹﾝ","kana_city":"ｸﾘﾊﾗｼ","kana_address":"ｲﾁﾊｻﾏｵｵﾋﾗｻﾜ","pref":"宮城県","city":"栗原市","address":"一迫大平沢"},
{"zip_code":"9872314","kana_pref":"ﾐﾔｷﾞｹﾝ","kana_city":"ｸﾘﾊﾗｼ","kana_address":"ｲﾁﾊｻﾏｵｶﾀﾞ","pref":"宮城県","city":"栗原市","address":"一迫岡田"},
{"zip_code":"9872313","kana_pref":"ﾐﾔｷﾞｹﾝ","kana_city":"ｸﾘﾊﾗｼ","kana_address":"ｲﾁﾊｻﾏｵｷ","pref":"宮城県","city":"栗原市","address":"一迫沖"},
{"zip_code":"9872312","kana_pref":"ﾐﾔｷﾞｹﾝ","kana_city":"ｸﾘﾊﾗｼ","kana_address":"ｲﾁﾊｻﾏｵｷｳﾗ","pref":"宮城県","city":"栗原市","address":"一迫沖浦"},
{"zip_code":"9872355","kana_pref":"ﾐﾔｷﾞｹﾝ","kana_city":"ｸﾘﾊﾗｼ","kana_address":"ｲﾁﾊｻﾏｶｼﾞﾔｼｷ","pref":"宮城県","city":"栗原市","address":"一迫鍛冶屋敷"},
{"zip_code":"9872302","kana_pref":"ﾐﾔｷﾞｹﾝ","kana_city":"ｸﾘﾊﾗｼ","kana_address":"ｲﾁﾊｻﾏｶﾀｺﾞｻﾞﾜ","pref":"宮城県","city":"栗原市","address":"一迫片子沢"},
{"zip_code":"9872367","kana_pref":"ﾐﾔｷﾞｹﾝ","kana_city":"ｸﾘﾊﾗｼ","kana_address":"ｲﾁﾊｻﾏｶﾐｵｵﾄﾞ","pref":"宮城県","city":"栗原市","address":"一迫上大土"},
{"zip_code":"9872353","kana_pref":"ﾐﾔｷﾞｹﾝ","kana_city":"ｸﾘﾊﾗｼ","kana_address":"ｲﾁﾊｻﾏｶﾐｸﾎﾞ","pref":"宮城県","city":"栗原市","address":"一迫上久保"},
{"zip_code":"9872339","kana_pref":"ﾐﾔｷﾞｹﾝ","kana_city":"ｸﾘﾊﾗｼ","kana_address":"ｲﾁﾊｻﾏｶﾐﾅｶｼﾞﾏ","pref":"宮城県","city":"栗原市","address":"一迫上中島"},
{"zip_code":"9872303","kana_pref":"ﾐﾔｷﾞｹﾝ","kana_city":"ｸﾘﾊﾗｼ","kana_address":"ｲﾁﾊｻﾏｶﾜｸﾞﾁ","pref":"宮城県","city":"栗原市","address":"一迫川口"},
{"zip_code":"9872371","kana_pref":"ﾐﾔｷﾞｹﾝ","kana_city":"ｸﾘﾊﾗｼ","kana_address":"ｲﾁﾊｻﾏｶﾜﾀﾞｲ","pref":"宮城県","city":"栗原市","address":"一迫川台"},
{"zip_code":"9872304","kana_pref":"ﾐﾔｷﾞｹﾝ","kana_city":"ｸﾘﾊﾗｼ","kana_address":"ｲﾁﾊｻﾏｷﾀｻﾞﾜ","pref":"宮城県","city":"栗原市","address":"一迫北沢"},
{"zip_code":"9872305","kana_pref":"ﾐﾔｷﾞｹﾝ","kana_city":"ｸﾘﾊﾗｼ","kana_address":"ｲﾁﾊｻﾏｷﾂﾈｻﾞｷ","pref":"宮城県","city":"栗原市","address":"一迫狐崎"},
{"zip_code":"9872317","kana_pref":"ﾐﾔｷﾞｹﾝ","kana_city":"ｸﾘﾊﾗｼ","kana_address":"ｲﾁﾊｻﾏｸﾎﾞﾀ","pref":"宮城県","city":"栗原市","address":"一迫久保田"},
{"zip_code":"9872315","kana_pref":"ﾐﾔｷﾞｹﾝ","kana_city":"ｸﾘﾊﾗｼ","kana_address":"ｲﾁﾊｻﾏｹﾝｸﾞｲﾓﾄ","pref":"宮城県","city":"栗原市","address":"一迫間杭元"},
{"zip_code":"9872316","kana_pref":"ﾐﾔｷﾞｹﾝ","kana_city":"ｸﾘﾊﾗｼ","kana_address":"ｲﾁﾊｻﾏｺｻｶﾓﾄ","pref":"宮城県","city":"栗原市","address":"一迫小坂本"},
{"zip_code":"9872325","kana_pref":"ﾐﾔｷﾞｹﾝ","kana_city":"ｸﾘﾊﾗｼ","kana_address":"ｲﾁﾊｻﾏｻｶｼﾀﾆｼ","pref":"宮城県","city":"栗原市","address":"一迫坂下西"},
{"zip_code":"9872363","kana_pref":"ﾐﾔｷﾞｹﾝ","kana_city":"ｸﾘﾊﾗｼ","kana_address":"ｲﾁﾊｻﾏｻﾉ","pref":"宮城県","city":"栗原市","address":"一迫佐野"},
{"zip_code":"9872359","kana_pref":"ﾐﾔｷﾞｹﾝ","kana_city":"ｸﾘﾊﾗｼ","kana_address":"ｲﾁﾊｻﾏｻﾉﾊﾞﾗ","pref":"宮城県","city":"栗原市","address":"一迫佐野原"},
{"zip_code":"9872342","kana_pref":"ﾐﾔｷﾞｹﾝ","kana_city":"ｸﾘﾊﾗｼ","kana_address":"ｲﾁﾊｻﾏｻﾜﾀﾞ","pref":"宮城県","city":"栗原市","address":"一迫沢田"},
{"zip_code":"9872352","kana_pref":"ﾐﾔｷﾞｹﾝ","kana_city":"ｸﾘﾊﾗｼ","kana_address":"ｲﾁﾊｻﾏｼｼｺﾞﾒ","pref":"宮城県","city":"栗原市","address":"一迫鹿込"},
{"zip_code":"9872306","kana_pref":"ﾐﾔｷﾞｹﾝ","kana_city":"ｸﾘﾊﾗｼ","kana_address":"ｲﾁﾊｻﾏｼﾏﾀｲ","pref":"宮城県","city":"栗原市","address":"一迫嶋躰"},
{"zip_code":"9872374","kana_pref":"ﾐﾔｷﾞｹﾝ","kana_city":"ｸﾘﾊﾗｼ","kana_address":"ｲﾁﾊｻﾏｼﾐｽﾞﾊﾞﾗ","pref":"宮城県","city":"栗原市","address":"一迫清水原"},
{"zip_code":"9872368","kana_pref":"ﾐﾔｷﾞｹﾝ","kana_city":"ｸﾘﾊﾗｼ","kana_address":"ｲﾁﾊｻﾏｼﾓｵｵﾄﾞ","pref":"宮城県","city":"栗原市","address":"一迫下大土"},
{"zip_code":"9872358","kana_pref":"ﾐﾔｷﾞｹﾝ","kana_city":"ｸﾘﾊﾗｼ","kana_address":"ｲﾁﾊｻﾏｼﾓｺｿﾞｳ","pref":"宮城県","city":"栗原市","address":"一迫下小僧"},
{"zip_code":"9872334","kana_pref":"ﾐﾔｷﾞｹﾝ","kana_city":"ｸﾘﾊﾗｼ","kana_address":"ｲﾁﾊｻﾏｼﾝｻﾞﾝ","pref":"宮城県","city":"栗原市","address":"一迫神山"},
{"zip_code":"9872365","kana_pref":"ﾐﾔｷﾞｹﾝ","kana_city":"ｸﾘﾊﾗｼ","kana_address":"ｲﾁﾊｻﾏｼﾝﾏｲ","pref":"宮城県","city":"栗原市","address":"一迫新米"},
{"zip_code":"9872307","kana_pref":"ﾐﾔｷﾞｹﾝ","kana_city":"ｸﾘﾊﾗｼ","kana_address":"ｲﾁﾊｻﾏｽｽﾞﾉﾒ","pref":"宮城県","city":"栗原市","address":"一迫清水目"},
{"zip_code":"9872349","kana_pref":"ﾐﾔｷﾞｹﾝ","kana_city":"ｸﾘﾊﾗｼ","kana_address":"ｲﾁﾊｻﾏﾀﾞｲｷﾞﾜ","pref":"宮城県","city":"栗原市","address":"一迫大際"},
{"zip_code":"9872335","kana_pref":"ﾐﾔｷﾞｹﾝ","kana_city":"ｸﾘﾊﾗｼ","kana_address":"ｲﾁﾊｻﾏﾀｶﾀﾞ","pref":"宮城県","city":"栗原市","address":"一迫高田"},
{"zip_code":"9872332","kana_pref":"ﾐﾔｷﾞｹﾝ","kana_city":"ｸﾘﾊﾗｼ","kana_address":"ｲﾁﾊｻﾏﾀｶﾊｼ","pref":"宮城県","city":"栗原市","address":"一迫高橋"},
{"zip_code":"9872328","kana_pref":"ﾐﾔｷﾞｹﾝ","kana_city":"ｸﾘﾊﾗｼ","kana_address":"ｲﾁﾊｻﾏﾂﾁｶﾜ","pref":"宮城県","city":"栗原市","address":"一迫土川"},
{"zip_code":"9872327","kana_pref":"ﾐﾔｷﾞｹﾝ","kana_city":"ｸﾘﾊﾗｼ","kana_address":"ｲﾁﾊｻﾏﾃﾝｼﾞﾝ","pref":"宮城県","city":"栗原市","address":"一迫天神"},
{"zip_code":"9872361","kana_pref":"ﾐﾔｷﾞｹﾝ","kana_city":"ｸﾘﾊﾗｼ","kana_address":"ｲﾁﾊｻﾏﾅｶｺｿﾞｳ","pref":"宮城県","city":"栗原市","address":"一迫中小僧"},
{"zip_code":"9872341","kana_pref":"ﾐﾔｷﾞｹﾝ","kana_city":"ｸﾘﾊﾗｼ","kana_address":"ｲﾁﾊｻﾏﾅｶﾔｼｷｳﾗ","pref":"宮城県","city":"栗原市","address":"一迫中屋敷浦"},
{"zip_code":"9872354","kana_pref":"ﾐﾔｷﾞｹﾝ","kana_city":"ｸﾘﾊﾗｼ","kana_address":"ｲﾁﾊｻﾏﾅﾗｲ","pref":"宮城県","city":"栗原市","address":"一迫西風"},
{"zip_code":"9872357","kana_pref":"ﾐﾔｷﾞｹﾝ","kana_city":"ｸﾘﾊﾗｼ","kana_address":"ｲﾁﾊｻﾏﾇﾏﾀ","pref":"宮城県","city":"栗原市","address":"一迫沼田"},
{"zip_code":"9872331","kana_pref":"ﾐﾔｷﾞｹﾝ","kana_city":"ｸﾘﾊﾗｼ","kana_address":"ｲﾁﾊｻﾏﾊｷﾞｳ","pref":"宮城県","city":"栗原市","address":"一迫萩生"},
{"zip_code":"9872338","kana_pref":"ﾐﾔｷﾞｹﾝ","kana_city":"ｸﾘﾊﾗｼ","kana_address":"ｲﾁﾊｻﾏﾋﾅﾀ","pref":"宮城県","city":"栗原市","address":"一迫日向"},
{"zip_code":"9872347","kana_pref":"ﾐﾔｷﾞｹﾝ","kana_city":"ｸﾘﾊﾗｼ","kana_address":"ｲﾁﾊｻﾏﾋﾗﾀﾞﾃ","pref":"宮城県","city":"栗原市","address":"一迫平館"},
{"zip_code":"9872373","kana_pref":"ﾐﾔｷﾞｹﾝ","kana_city":"ｸﾘﾊﾗｼ","kana_address":"ｲﾁﾊｻﾏﾌﾄﾞｳﾆｼ","pref":"宮城県","city":"栗原市","address":"一迫不動西"},
{"zip_code":"9872329","kana_pref":"ﾐﾔｷﾞｹﾝ","kana_city":"ｸﾘﾊﾗｼ","kana_address":"ｲﾁﾊｻﾏﾎｿｺﾞｴ","pref":"宮城県","city":"栗原市","address":"一迫細越"},
{"zip_code":"9872308","kana_pref":"ﾐﾔｷﾞｹﾝ","kana_city":"ｸﾘﾊﾗｼ","kana_address":"ｲﾁﾊｻﾏﾏｻｶ","pref":"宮城県","city":"栗原市","address":"一迫真坂"},
{"zip_code":"9872318","kana_pref":"ﾐﾔｷﾞｹﾝ","kana_city":"ｸﾘﾊﾗｼ","kana_address":"ｲﾁﾊｻﾏﾏﾂﾉｷ","pref":"宮城県","city":"栗原市","address":"一迫松の木"},
{"zip_code":"9872337","kana_pref":"ﾐﾔｷﾞｹﾝ","kana_city":"ｸﾘﾊﾗｼ","kana_address":"ｲﾁﾊｻﾏﾏﾂﾊﾞﾗｻﾞﾜ","pref":"宮城県","city":"栗原市","address":"一迫松原沢"},
{"zip_code":"9872311","kana_pref":"ﾐﾔｷﾞｹﾝ","kana_city":"ｸﾘﾊﾗｼ","kana_address":"ｲﾁﾊｻﾏﾐｻｷ","pref":"宮城県","city":"栗原市","address":"一迫御崎"},
{"zip_code":"9872324","kana_pref":"ﾐﾔｷﾞｹﾝ","kana_city":"ｸﾘﾊﾗｼ","kana_address":"ｲﾁﾊｻﾏﾐｼﾏ","pref":"宮城県","city":"栗原市","address":"一迫三嶋"},
{"zip_code":"9872344","kana_pref":"ﾐﾔｷﾞｹﾝ","kana_city":"ｸﾘﾊﾗｼ","kana_address":"ｲﾁﾊｻﾏﾐﾔｼﾞﾀ","pref":"宮城県","city":"栗原市","address":"一迫宮下"},
{"zip_code":"9872319","kana_pref":"ﾐﾔｷﾞｹﾝ","kana_city":"ｸﾘﾊﾗｼ","kana_address":"ｲﾁﾊｻﾏﾐﾔﾏｴ","pref":"宮城県","city":"栗原市","address":"一迫宮前"},
{"zip_code":"9872323","kana_pref":"ﾐﾔｷﾞｹﾝ","kana_city":"ｸﾘﾊﾗｼ","kana_address":"ｲﾁﾊｻﾏﾒｺﾞﾏﾁ","pref":"宮城県","city":"栗原市","address":"一迫女子町"},
{"zip_code":"9872345","kana_pref":"ﾐﾔｷﾞｹﾝ","kana_city":"ｸﾘﾊﾗｼ","kana_address":"ｲﾁﾊｻﾏﾔｼｷﾀﾞ","pref":"宮城県","city":"栗原市","address":"一迫屋敷田"},
{"zip_code":"9872309","kana_pref":"ﾐﾔｷﾞｹﾝ","kana_city":"ｸﾘﾊﾗｼ","kana_address":"ｲﾁﾊｻﾏﾔﾅｷﾞﾉﾒ","pref":"宮城県","city":"栗原市","address":"一迫柳目"},
{"zip_code":"9872326","kana_pref":"ﾐﾔｷﾞｹﾝ","kana_city":"ｸﾘﾊﾗｼ","kana_address":"ｲﾁﾊｻﾏﾔﾏｻﾞｷ","pref":"宮城県","city":"栗原市","address":"一迫山崎"},
{"zip_code":"9872356","kana_pref":"ﾐﾔｷﾞｹﾝ","kana_city":"ｸﾘﾊﾗｼ","kana_address":"ｲﾁﾊｻﾏﾔﾏｻﾜ","pref":"宮城県","city":"栗原市","address":"一迫山沢"},
{"zip_code":"9872333","kana_pref":"ﾐﾔｷﾞｹﾝ","kana_city":"ｸﾘﾊﾗｼ","kana_address":"ｲﾁﾊｻﾏﾖｳｶﾞｲ","pref":"宮城県","city":"栗原市","address":"一迫要害"},
{"zip_code":"9872321","kana_pref":"ﾐﾔｷﾞｹﾝ","kana_city":"ｸﾘﾊﾗｼ","kana_address":"ｲﾁﾊｻﾏﾖｺﾏﾁ","pref":"宮城県","city":"栗原市","address":"一迫横町"},
{"zip_code":"9872322","kana_pref":"ﾐﾔｷﾞｹﾝ","kana_city":"ｸﾘﾊﾗｼ","kana_address":"ｲﾁﾊｻﾏﾖｺﾏﾁｳﾗ","pref":"宮城県","city":"栗原市","address":"一迫横町浦"},
{"zip_code":"9872366","kana_pref":"ﾐﾔｷﾞｹﾝ","kana_city":"ｸﾘﾊﾗｼ","kana_address":"ｲﾁﾊｻﾏﾛﾝﾃﾞﾝ","pref":"宮城県","city":"栗原市","address":"一迫論田"},
{"zip_code":"9872033","kana_pref":"ﾐﾔｷﾞｹﾝ","kana_city":"ｸﾘﾊﾗｼ","kana_address":"ﾀｶｼﾐｽﾞｱｻﾞﾉ","pref":"宮城県","city":"栗原市","address":"高清水浅野"},
{"zip_code":"9872035","kana_pref":"ﾐﾔｷﾞｹﾝ","kana_city":"ｸﾘﾊﾗｼ","kana_address":"ﾀｶｼﾐｽﾞｱｻﾞﾉﾏｴ","pref":"宮城県","city":"栗原市","address":"高清水浅野前"},
{"zip_code":"9872185","kana_pref":"ﾐﾔｷﾞｹﾝ","kana_city":"ｸﾘﾊﾗｼ","kana_address":"ﾀｶｼﾐｽﾞｱﾗﾏﾁ","pref":"宮城県","city":"栗原市","address":"高清水新町"},
{"zip_code":"9872017","kana_pref":"ﾐﾔｷﾞｹﾝ","kana_city":"ｸﾘﾊﾗｼ","kana_address":"ﾀｶｼﾐｽﾞｲｼｻﾞﾜ","pref":"宮城県","city":"栗原市","address":"高清水石沢"},
{"zip_code":"9872018","kana_pref":"ﾐﾔｷﾞｹﾝ","kana_city":"ｸﾘﾊﾗｼ","kana_address":"ﾀｶｼﾐｽﾞｲｼｻﾞﾜｳﾗ","pref":"宮城県","city":"栗原市","address":"高清水石沢浦"},
{"zip_code":"9872115","kana_pref":"ﾐﾔｷﾞｹﾝ","kana_city":"ｸﾘﾊﾗｼ","kana_address":"ﾀｶｼﾐｽﾞｲｯﾎﾟﾝﾏﾂ","pref":"宮城県","city":"栗原市","address":"高清水一本松"},
{"zip_code":"9872004","kana_pref":"ﾐﾔｷﾞｹﾝ","kana_city":"ｸﾘﾊﾗｼ","kana_address":"ﾀｶｼﾐｽﾞｳﾗﾐﾅﾐｻﾜ","pref":"宮城県","city":"栗原市","address":"高清水浦南沢"},
{"zip_code":"9872014","kana_pref":"ﾐﾔｷﾞｹﾝ","kana_city":"ｸﾘﾊﾗｼ","kana_address":"ﾀｶｼﾐｽﾞｵｵｻﾜ","pref":"宮城県","city":"栗原市","address":"高清水大沢"},
{"zip_code":"9872025","kana_pref":"ﾐﾔｷﾞｹﾝ","kana_city":"ｸﾘﾊﾗｼ","kana_address":"ﾀｶｼﾐｽﾞｵｵﾆｼ","pref":"宮城県","city":"栗原市","address":"高清水大西"},
{"zip_code":"9872054","kana_pref":"ﾐﾔｷﾞｹﾝ","kana_city":"ｸﾘﾊﾗｼ","kana_address":"ﾀｶｼﾐｽﾞｵｷ","pref":"宮城県","city":"栗原市","address":"高清水沖"},
{"zip_code":"9872146","kana_pref":"ﾐﾔｷﾞｹﾝ","kana_city":"ｸﾘﾊﾗｼ","kana_address":"ﾀｶｼﾐｽﾞｵﾂﾏｷﾎﾞﾘ","pref":"宮城県","city":"栗原市","address":"高清水乙牧堀"},
{"zip_code":"9872188","kana_pref":"ﾐﾔｷﾞｹﾝ","kana_city":"ｸﾘﾊﾗｼ","kana_address":"ﾀｶｼﾐｽﾞｵﾔﾏｼﾀ","pref":"宮城県","city":"栗原市","address":"高清水小山下"},
{"zip_code":"9872024","kana_pref":"ﾐﾔｷﾞｹﾝ","kana_city":"ｸﾘﾊﾗｼ","kana_address":"ﾀｶｼﾐｽﾞｵﾔﾏﾀﾞ","pref":"宮城県","city":"栗原市","address":"高清水小山田"},
{"zip_code":"9872113","kana_pref":"ﾐﾔｷﾞｹﾝ","kana_city":"ｸﾘﾊﾗｼ","kana_address":"ﾀｶｼﾐｽﾞｵﾘｷ","pref":"宮城県","city":"栗原市","address":"高清水折木"},
{"zip_code":"9872143","kana_pref":"ﾐﾔｷﾞｹﾝ","kana_city":"ｸﾘﾊﾗｼ","kana_address":"ﾀｶｼﾐｽﾞｶｸﾏﾝｼﾞ","pref":"宮城県","city":"栗原市","address":"高清水覚満寺"},
{"zip_code":"9872111","kana_pref":"ﾐﾔｷﾞｹﾝ","kana_city":"ｸﾘﾊﾗｼ","kana_address":"ﾀｶｼﾐｽﾞｶｹﾞﾉｻﾜ","pref":"宮城県","city":"栗原市","address":"高清水影の沢"},
{"zip_code":"9872013","kana_pref":"ﾐﾔｷﾞｹﾝ","kana_city":"ｸﾘﾊﾗｼ","kana_address":"ﾀｶｼﾐｽﾞｶｹﾔｼｷ","pref":"宮城県","city":"栗原市","address":"高清水欠屋敷"},
{"zip_code":"9872173","kana_pref":"ﾐﾔｷﾞｹﾝ","kana_city":"ｸﾘﾊﾗｼ","kana_address":"ﾀｶｼﾐｽﾞｶﾂﾗﾊ","pref":"宮城県","city":"栗原市","address":"高清水桂葉"},
{"zip_code":"9872001","kana_pref":"ﾐﾔｷﾞｹﾝ","kana_city":"ｸﾘﾊﾗｼ","kana_address":"ﾀｶｼﾐｽﾞｶﾆｻﾜｼﾘ","pref":"宮城県","city":"栗原市","address":"高清水蟹沢尻"},
{"zip_code":"9872112","kana_pref":"ﾐﾔｷﾞｹﾝ","kana_city":"ｸﾘﾊﾗｼ","kana_address":"ﾀｶｼﾐｽﾞｶﾐｵﾘｷ","pref":"宮城県","city":"栗原市","address":"高清水上折木"},
{"zip_code":"9872174","kana_pref":"ﾐﾔｷﾞｹﾝ","kana_city":"ｸﾘﾊﾗｼ","kana_address":"ﾀｶｼﾐｽﾞｶﾐｶﾂﾗﾊ","pref":"宮城県","city":"栗原市","address":"高清水上桂葉"},
{"zip_code":"9872121","kana_pref":"ﾐﾔｷﾞｹﾝ","kana_city":"ｸﾘﾊﾗｼ","kana_address":"ﾀｶｼﾐｽﾞｶﾐｻﾉ","pref":"宮城県","city":"栗原市","address":"高清水上佐野"},
{"zip_code":"9872141","kana_pref":"ﾐﾔｷﾞｹﾝ","kana_city":"ｸﾘﾊﾗｼ","kana_address":"ﾀｶｼﾐｽﾞｶﾐｿﾄｻﾜﾀ","pref":"宮城県","city":"栗原市","address":"高清水上外沢田"},
{"zip_code":"9872158","kana_pref":"ﾐﾔｷﾞｹﾝ","kana_city":"ｸﾘﾊﾗｼ","kana_address":"ﾀｶｼﾐｽﾞｶﾐﾊｷﾞﾀ","pref":"宮城県","city":"栗原市","address":"高清水上萩田"},
{"zip_code":"9872155","kana_pref":"ﾐﾔｷﾞｹﾝ","kana_city":"ｸﾘﾊﾗｼ","kana_address":"ﾀｶｼﾐｽﾞｶﾔｶﾘ","pref":"宮城県","city":"栗原市","address":"高清水萱刈"},
{"zip_code":"9872147","kana_pref":"ﾐﾔｷﾞｹﾝ","kana_city":"ｸﾘﾊﾗｼ","kana_address":"ﾀｶｼﾐｽﾞｶﾝﾉﾝｻﾞﾜ","pref":"宮城県","city":"栗原市","address":"高清水観音沢"},
{"zip_code":"9872147","kana_pref":"ﾐﾔｷﾞｹﾝ","kana_city":"ｸﾘﾊﾗｼ","kana_address":"ﾀｶｼﾐｽﾞｶﾝﾉﾝﾄﾞｳ","pref":"宮城県","city":"栗原市","address":"高清水観音堂"},
{"zip_code":"9872021","kana_pref":"ﾐﾔｷﾞｹﾝ","kana_city":"ｸﾘﾊﾗｼ","kana_address":"ﾀｶｼﾐｽﾞｶﾝﾊﾟﾗ","pref":"宮城県","city":"栗原市","address":"高清水神原"},
{"zip_code":"9872141","kana_pref":"ﾐﾔｷﾞｹﾝ","kana_city":"ｸﾘﾊﾗｼ","kana_address":"ﾀｶｼﾐｽﾞｷﾀｼﾞﾝﾛｸﾊﾗ","pref":"宮城県","city":"栗原市","address":"高清水北甚六原"},
{"zip_code":"9872153","kana_pref":"ﾐﾔｷﾞｹﾝ","kana_city":"ｸﾘﾊﾗｼ","kana_address":"ﾀｶｼﾐｽﾞｷﾀﾊﾗ","pref":"宮城県","city":"栗原市","address":"高清水北原"},
{"zip_code":"9872011","kana_pref":"ﾐﾔｷﾞｹﾝ","kana_city":"ｸﾘﾊﾗｼ","kana_address":"ﾀｶｼﾐｽﾞｷｮｳﾉｻﾜ","pref":"宮城県","city":"栗原市","address":"高清水京の沢"},
{"zip_code":"9872026","kana_pref":"ﾐﾔｷﾞｹﾝ","kana_city":"ｸﾘﾊﾗｼ","kana_address":"ﾀｶｼﾐｽﾞｸﾏﾉ","pref":"宮城県","city":"栗原市","address":"高清水熊野"},
{"zip_code":"9872023","kana_pref":"ﾐﾔｷﾞｹﾝ","kana_city":"ｸﾘﾊﾗｼ","kana_address":"ﾀｶｼﾐｽﾞｸﾏﾉﾄﾞｳ","pref":"宮城県","city":"栗原市","address":"高清水熊野堂"},
{"zip_code":"9872146","kana_pref":"ﾐﾔｷﾞｹﾝ","kana_city":"ｸﾘﾊﾗｼ","kana_address":"ﾀｶｼﾐｽﾞｺｳﾏｷﾎﾞﾘ","pref":"宮城県","city":"栗原市","address":"高清水甲牧堀"},
{"zip_code":"9872175","kana_pref":"ﾐﾔｷﾞｹﾝ","kana_city":"ｸﾘﾊﾗｼ","kana_address":"ﾀｶｼﾐｽﾞｺﾞﾘﾝ","pref":"宮城県","city":"栗原市","address":"高清水五輪"},
{"zip_code":"9872133","kana_pref":"ﾐﾔｷﾞｹﾝ","kana_city":"ｸﾘﾊﾗｼ","kana_address":"ﾀｶｼﾐｽﾞｻｸﾗﾁｮｳ","pref":"宮城県","city":"栗原市","address":"高清水桜丁"},
{"zip_code":"9872055","kana_pref":"ﾐﾔｷﾞｹﾝ","kana_city":"ｸﾘﾊﾗｼ","kana_address":"ﾀｶｼﾐｽﾞｻﾂｷﾀﾞ","pref":"宮城県","city":"栗原市","address":"高清水五月田"},
{"zip_code":"9872127","kana_pref":"ﾐﾔｷﾞｹﾝ","kana_city":"ｸﾘﾊﾗｼ","kana_address":"ﾀｶｼﾐｽﾞｻﾉｻﾜﾀﾞ","pref":"宮城県","city":"栗原市","address":"高清水佐野沢田"},
{"zip_code":"9872128","kana_pref":"ﾐﾔｷﾞｹﾝ","kana_city":"ｸﾘﾊﾗｼ","kana_address":"ﾀｶｼﾐｽﾞｻﾉﾁｮｳ","pref":"宮城県","city":"栗原市","address":"高清水佐野丁"},
{"zip_code":"9872189","kana_pref":"ﾐﾔｷﾞｹﾝ","kana_city":"ｸﾘﾊﾗｼ","kana_address":"ﾀｶｼﾐｽﾞｼﾀﾏﾁ","pref":"宮城県","city":"栗原市","address":"高清水下町"},
{"zip_code":"9872114","kana_pref":"ﾐﾔｷﾞｹﾝ","kana_city":"ｸﾘﾊﾗｼ","kana_address":"ﾀｶｼﾐｽﾞｼﾓｵﾘｷ","pref":"宮城県","city":"栗原市","address":"高清水下折木"},
{"zip_code":"9872124","kana_pref":"ﾐﾔｷﾞｹﾝ","kana_city":"ｸﾘﾊﾗｼ","kana_address":"ﾀｶｼﾐｽﾞｼﾓｻﾉ","pref":"宮城県","city":"栗原市","address":"高清水下佐野"},
{"zip_code":"9872125","kana_pref":"ﾐﾔｷﾞｹﾝ","kana_city":"ｸﾘﾊﾗｼ","kana_address":"ﾀｶｼﾐｽﾞｼﾞｭｳﾆﾉｶﾐ","pref":"宮城県","city":"栗原市","address":"高清水十二の神"},
{"zip_code":"9872042","kana_pref":"ﾐﾔｷﾞｹﾝ","kana_city":"ｸﾘﾊﾗｼ","kana_address":"ﾀｶｼﾐｽﾞｼｭｸﾉｻﾜ","pref":"宮城県","city":"栗原市","address":"高清水宿の沢"},
{"zip_code":"9872163","kana_pref":"ﾐﾔｷﾞｹﾝ","kana_city":"ｸﾘﾊﾗｼ","kana_address":"ﾀｶｼﾐｽﾞｼｮｳﾌﾞｶﾞﾏﾁ","pref":"宮城県","city":"栗原市","address":"高清水勝負ケ町"},
{"zip_code":"9872177","kana_pref":"ﾐﾔｷﾞｹﾝ","kana_city":"ｸﾘﾊﾗｼ","kana_address":"ﾀｶｼﾐｽﾞｼﾝｶﾂﾗﾊ","pref":"宮城県","city":"栗原市","address":"高清水新桂葉"},
{"zip_code":"9872123","kana_pref":"ﾐﾔｷﾞｹﾝ","kana_city":"ｸﾘﾊﾗｼ","kana_address":"ﾀｶｼﾐｽﾞｼﾝｻﾉ","pref":"宮城県","city":"栗原市","address":"高清水新佐野"},
{"zip_code":"9872164","kana_pref":"ﾐﾔｷﾞｹﾝ","kana_city":"ｸﾘﾊﾗｼ","kana_address":"ﾀｶｼﾐｽﾞｼﾝｼﾝﾒｲ","pref":"宮城県","city":"栗原市","address":"高清水新神明"},
{"zip_code":"9872031","kana_pref":"ﾐﾔｷﾞｹﾝ","kana_city":"ｸﾘﾊﾗｼ","kana_address":"ﾀｶｼﾐｽﾞｼﾝﾃﾞﾝ","pref":"宮城県","city":"栗原市","address":"高清水新田"},
{"zip_code":"9872158","kana_pref":"ﾐﾔｷﾞｹﾝ","kana_city":"ｸﾘﾊﾗｼ","kana_address":"ﾀｶｼﾐｽﾞｼﾝﾅｶﾉｸｷ","pref":"宮城県","city":"栗原市","address":"高清水新中の茎"},
{"zip_code":"9872161","kana_pref":"ﾐﾔｷﾞｹﾝ","kana_city":"ｸﾘﾊﾗｼ","kana_address":"ﾀｶｼﾐｽﾞｼﾝﾒｲ","pref":"宮城県","city":"栗原市","address":"高清水神明"},
{"zip_code":"9872156","kana_pref":"ﾐﾔｷﾞｹﾝ","kana_city":"ｸﾘﾊﾗｼ","kana_address":"ﾀｶｼﾐｽﾞｾﾝｶﾞﾐ","pref":"宮城県","city":"栗原市","address":"高清水千神"},
{"zip_code":"9872184","kana_pref":"ﾐﾔｷﾞｹﾝ","kana_city":"ｸﾘﾊﾗｼ","kana_address":"ﾀｶｼﾐｽﾞｾﾞﾝｺｳｼﾞ","pref":"宮城県","city":"栗原市","address":"高清水善光寺"},
{"zip_code":"9872183","kana_pref":"ﾐﾔｷﾞｹﾝ","kana_city":"ｸﾘﾊﾗｼ","kana_address":"ﾀｶｼﾐｽﾞｿﾃﾞﾔﾏ","pref":"宮城県","city":"栗原市","address":"高清水袖山"},
{"zip_code":"9872142","kana_pref":"ﾐﾔｷﾞｹﾝ","kana_city":"ｸﾘﾊﾗｼ","kana_address":"ﾀｶｼﾐｽﾞｿﾄｻﾜﾀﾞ","pref":"宮城県","city":"栗原市","address":"高清水外沢田"},
{"zip_code":"9872127","kana_pref":"ﾐﾔｷﾞｹﾝ","kana_city":"ｸﾘﾊﾗｼ","kana_address":"ﾀｶｼﾐｽﾞﾀｲｼﾄﾞｳ","pref":"宮城県","city":"栗原市","address":"高清水太子堂"},
{"zip_code":"9872126","kana_pref":"ﾐﾔｷﾞｹﾝ","kana_city":"ｸﾘﾊﾗｼ","kana_address":"ﾀｶｼﾐｽﾞﾀﾞｲﾃﾗ","pref":"宮城県","city":"栗原市","address":"高清水大寺"},
{"zip_code":"9872144","kana_pref":"ﾐﾔｷﾞｹﾝ","kana_city":"ｸﾘﾊﾗｼ","kana_address":"ﾀｶｼﾐｽﾞﾀﾞｲﾏﾁ","pref":"宮城県","city":"栗原市","address":"高清水台町"},
{"zip_code":"9872171","kana_pref":"ﾐﾔｷﾞｹﾝ","kana_city":"ｸﾘﾊﾗｼ","kana_address":"ﾀｶｼﾐｽﾞﾁｮｳﾌｸｼﾞ","pref":"宮城県","city":"栗原市","address":"高清水長福寺"},
{"zip_code":"9872044","kana_pref":"ﾐﾔｷﾞｹﾝ","kana_city":"ｸﾘﾊﾗｼ","kana_address":"ﾀｶｼﾐｽﾞﾂﾂﾐｼﾀ","pref":"宮城県","city":"栗原市","address":"高清水堤下"},
{"zip_code":"9872162","kana_pref":"ﾐﾔｷﾞｹﾝ","kana_city":"ｸﾘﾊﾗｼ","kana_address":"ﾀｶｼﾐｽﾞﾃｲｼﾝﾒｲ","pref":"宮城県","city":"栗原市","address":"高清水丁神明"},
{"zip_code":"9872146","kana_pref":"ﾐﾔｷﾞｹﾝ","kana_city":"ｸﾘﾊﾗｼ","kana_address":"ﾀｶｼﾐｽﾞﾃｲﾏｷﾎﾞﾘ","pref":"宮城県","city":"栗原市","address":"高清水丁牧堀"},
{"zip_code":"9872043","kana_pref":"ﾐﾔｷﾞｹﾝ","kana_city":"ｸﾘﾊﾗｼ","kana_address":"ﾀｶｼﾐｽﾞﾃﾄﾞﾘ","pref":"宮城県","city":"栗原市","address":"高清水手取"},
{"zip_code":"9872152","kana_pref":"ﾐﾔｷﾞｹﾝ","kana_city":"ｸﾘﾊﾗｼ","kana_address":"ﾀｶｼﾐｽﾞﾃﾝﾉｳｻﾜ","pref":"宮城県","city":"栗原市","address":"高清水天王沢"},
{"zip_code":"9872182","kana_pref":"ﾐﾔｷﾞｹﾝ","kana_city":"ｸﾘﾊﾗｼ","kana_address":"ﾀｶｼﾐｽﾞﾅｶｻﾞﾄ","pref":"宮城県","city":"栗原市","address":"高清水中里"},
{"zip_code":"9872122","kana_pref":"ﾐﾔｷﾞｹﾝ","kana_city":"ｸﾘﾊﾗｼ","kana_address":"ﾀｶｼﾐｽﾞﾅｶｻﾉ","pref":"宮城県","city":"栗原市","address":"高清水中佐野"},
{"zip_code":"9872157","kana_pref":"ﾐﾔｷﾞｹﾝ","kana_city":"ｸﾘﾊﾗｼ","kana_address":"ﾀｶｼﾐｽﾞﾅｶﾉｸｷ","pref":"宮城県","city":"栗原市","address":"高清水中の茎"},
{"zip_code":"9872012","kana_pref":"ﾐﾔｷﾞｹﾝ","kana_city":"ｸﾘﾊﾗｼ","kana_address":"ﾀｶｼﾐｽﾞﾅｶﾉｻﾜ","pref":"宮城県","city":"栗原市","address":"高清水中の沢"},
{"zip_code":"9872186","kana_pref":"ﾐﾔｷﾞｹﾝ","kana_city":"ｸﾘﾊﾗｼ","kana_address":"ﾀｶｼﾐｽﾞﾅｶﾏﾁ","pref":"宮城県","city":"栗原市","address":"高清水中町"},
{"zip_code":"9872176","kana_pref":"ﾐﾔｷﾞｹﾝ","kana_city":"ｸﾘﾊﾗｼ","kana_address":"ﾀｶｼﾐｽﾞﾆｼｾﾞﾝｺｳｼﾞ","pref":"宮城県","city":"栗原市","address":"高清水西善光寺"},
{"zip_code":"9872045","kana_pref":"ﾐﾔｷﾞｹﾝ","kana_city":"ｸﾘﾊﾗｼ","kana_address":"ﾀｶｼﾐｽﾞﾆｼﾃﾄﾘ","pref":"宮城県","city":"栗原市","address":"高清水西手取"},
{"zip_code":"9872015","kana_pref":"ﾐﾔｷﾞｹﾝ","kana_city":"ｸﾘﾊﾗｼ","kana_address":"ﾀｶｼﾐｽﾞﾆｼﾅｶｻﾞﾄ","pref":"宮城県","city":"栗原市","address":"高清水西中里"},
{"zip_code":"9872005","kana_pref":"ﾐﾔｷﾞｹﾝ","kana_city":"ｸﾘﾊﾗｼ","kana_address":"ﾀｶｼﾐｽﾞﾇｶﾘｻﾜ","pref":"宮城県","city":"栗原市","address":"高清水忽滑沢"},
{"zip_code":"9872022","kana_pref":"ﾐﾔｷﾞｹﾝ","kana_city":"ｸﾘﾊﾗｼ","kana_address":"ﾀｶｼﾐｽﾞﾊﾗ","pref":"宮城県","city":"栗原市","address":"高清水原"},
{"zip_code":"9872151","kana_pref":"ﾐﾔｷﾞｹﾝ","kana_city":"ｸﾘﾊﾗｼ","kana_address":"ﾀｶｼﾐｽﾞﾋｶﾞｼｳﾗ","pref":"宮城県","city":"栗原市","address":"高清水東浦"},
{"zip_code":"9872181","kana_pref":"ﾐﾔｷﾞｹﾝ","kana_city":"ｸﾘﾊﾗｼ","kana_address":"ﾀｶｼﾐｽﾞﾋｶﾞｼｾﾞﾝｺｳｼﾞ","pref":"宮城県","city":"栗原市","address":"高清水東善光寺"},
{"zip_code":"9872132","kana_pref":"ﾐﾔｷﾞｹﾝ","kana_city":"ｸﾘﾊﾗｼ","kana_address":"ﾀｶｼﾐｽﾞﾋｶﾞｼﾀﾃ","pref":"宮城県","city":"栗原市","address":"高清水東館"},
{"zip_code":"9872028","kana_pref":"ﾐﾔｷﾞｹﾝ","kana_city":"ｸﾘﾊﾗｼ","kana_address":"ﾀｶｼﾐｽﾞﾋﾅﾀ","pref":"宮城県","city":"栗原市","address":"高清水日向"},
{"zip_code":"9872003","kana_pref":"ﾐﾔｷﾞｹﾝ","kana_city":"ｸﾘﾊﾗｼ","kana_address":"ﾀｶｼﾐｽﾞﾌｸﾂｶ","pref":"宮城県","city":"栗原市","address":"高清水福塚"},
{"zip_code":"9872053","kana_pref":"ﾐﾔｷﾞｹﾝ","kana_city":"ｸﾘﾊﾗｼ","kana_address":"ﾀｶｼﾐｽﾞﾌﾁｷﾞﾜ","pref":"宮城県","city":"栗原市","address":"高清水渕際"},
{"zip_code":"9872146","kana_pref":"ﾐﾔｷﾞｹﾝ","kana_city":"ｸﾘﾊﾗｼ","kana_address":"ﾀｶｼﾐｽﾞﾍｲﾏｷﾎﾞﾘ","pref":"宮城県","city":"栗原市","address":"高清水丙牧堀"},
{"zip_code":"9872159","kana_pref":"ﾐﾔｷﾞｹﾝ","kana_city":"ｸﾘﾊﾗｼ","kana_address":"ﾀｶｼﾐｽﾞﾏﾂﾉｷｻﾜﾀﾞ","pref":"宮城県","city":"栗原市","address":"高清水松の木沢田"},
{"zip_code":"9872172","kana_pref":"ﾐﾔｷﾞｹﾝ","kana_city":"ｸﾘﾊﾗｼ","kana_address":"ﾀｶｼﾐｽﾞﾏﾂﾊﾞﾗ","pref":"宮城県","city":"栗原市","address":"高清水松原"},
{"zip_code":"9872131","kana_pref":"ﾐﾔｷﾞｹﾝ","kana_city":"ｸﾘﾊﾗｼ","kana_address":"ﾀｶｼﾐｽﾞﾐｽﾞﾉﾃ","pref":"宮城県","city":"栗原市","address":"高清水水の手"},
{"zip_code":"9872036","kana_pref":"ﾐﾔｷﾞｹﾝ","kana_city":"ｸﾘﾊﾗｼ","kana_address":"ﾀｶｼﾐｽﾞﾐﾅﾐｻﾜ","pref":"宮城県","city":"栗原市","address":"高清水南沢"},
{"zip_code":"9872154","kana_pref":"ﾐﾔｷﾞｹﾝ","kana_city":"ｸﾘﾊﾗｼ","kana_address":"ﾀｶｼﾐｽﾞﾐﾅﾐﾊﾗ","pref":"宮城県","city":"栗原市","address":"高清水南原"},
{"zip_code":"9872051","kana_pref":"ﾐﾔｷﾞｹﾝ","kana_city":"ｸﾘﾊﾗｼ","kana_address":"ﾀｶｼﾐｽﾞﾐﾓﾘ","pref":"宮城県","city":"栗原市","address":"高清水三森"},
{"zip_code":"9872052","kana_pref":"ﾐﾔｷﾞｹﾝ","kana_city":"ｸﾘﾊﾗｼ","kana_address":"ﾀｶｼﾐｽﾞﾐﾔﾉﾜｷ","pref":"宮城県","city":"栗原市","address":"高清水宮脇"},
{"zip_code":"9872034","kana_pref":"ﾐﾔｷﾞｹﾝ","kana_city":"ｸﾘﾊﾗｼ","kana_address":"ﾀｶｼﾐｽﾞﾐｮｳｶﾝ","pref":"宮城県","city":"栗原市","address":"高清水明官"},
{"zip_code":"9872145","kana_pref":"ﾐﾔｷﾞｹﾝ","kana_city":"ｸﾘﾊﾗｼ","kana_address":"ﾀｶｼﾐｽﾞﾑｶｲﾉ","pref":"宮城県","city":"栗原市","address":"高清水向野"},
{"zip_code":"9872151","kana_pref":"ﾐﾔｷﾞｹﾝ","kana_city":"ｸﾘﾊﾗｼ","kana_address":"ﾀｶｼﾐｽﾞﾑｹｶﾞｴﾘ","pref":"宮城県","city":"栗原市","address":"高清水仰ケ返り"},
{"zip_code":"9872187","kana_pref":"ﾐﾔｷﾞｹﾝ","kana_city":"ｸﾘﾊﾗｼ","kana_address":"ﾀｶｼﾐｽﾞﾓﾄﾏﾁ","pref":"宮城県","city":"栗原市","address":"高清水本町"},
{"zip_code":"9872158","kana_pref":"ﾐﾔｷﾞｹﾝ","kana_city":"ｸﾘﾊﾗｼ","kana_address":"ﾀｶｼﾐｽﾞﾓﾄﾐﾁ","pref":"宮城県","city":"栗原市","address":"高清水本道"},
{"zip_code":"9872016","kana_pref":"ﾐﾔｷﾞｹﾝ","kana_city":"ｸﾘﾊﾗｼ","kana_address":"ﾀｶｼﾐｽﾞﾓﾛｸﾞﾀ","pref":"宮城県","city":"栗原市","address":"高清水茂路具多"},
{"zip_code":"9872002","kana_pref":"ﾐﾔｷﾞｹﾝ","kana_city":"ｸﾘﾊﾗｼ","kana_address":"ﾀｶｼﾐｽﾞﾔｴｶﾍﾞ","pref":"宮城県","city":"栗原市","address":"高清水八重壁"},
{"zip_code":"9872041","kana_pref":"ﾐﾔｷﾞｹﾝ","kana_city":"ｸﾘﾊﾗｼ","kana_address":"ﾀｶｼﾐｽﾞﾖｳﾉﾓﾘ","pref":"宮城県","city":"栗原市","address":"高清水要の森"},
{"zip_code":"9872032","kana_pref":"ﾐﾔｷﾞｹﾝ","kana_city":"ｸﾘﾊﾗｼ","kana_address":"ﾀｶｼﾐｽﾞﾖｺﾃ","pref":"宮城県","city":"栗原市","address":"高清水横手"},
{"zip_code":"9872116","kana_pref":"ﾐﾔｷﾞｹﾝ","kana_city":"ｸﾘﾊﾗｼ","kana_address":"ﾀｶｼﾐｽﾞﾗｲｺｳｻﾞﾜ","pref":"宮城県","city":"栗原市","address":"高清水来光沢"},
{"zip_code":"9872027","kana_pref":"ﾐﾔｷﾞｹﾝ","kana_city":"ｸﾘﾊﾗｼ","kana_address":"ﾀｶｼﾐｽﾞﾜｶﾐﾔ","pref":"宮城県","city":"栗原市","address":"高清水若宮"},
{"zip_code":"9872253","kana_pref":"ﾐﾔｷﾞｹﾝ","kana_city":"ｸﾘﾊﾗｼ","kana_address":"ﾂｷﾀﾞﾃｱｵﾉ","pref":"宮城県","city":"栗原市","address":"築館青野"},
{"zip_code":"9872231","kana_pref":"ﾐﾔｷﾞｹﾝ","kana_city":"ｸﾘﾊﾗｼ","kana_address":"ﾂｷﾀﾞﾃｱｶｻｶ","pref":"宮城県","city":"栗原市","address":"築館赤坂"},
{"zip_code":"9872245","kana_pref":"ﾐﾔｷﾞｹﾝ","kana_city":"ｸﾘﾊﾗｼ","kana_address":"ﾂｷﾀﾞﾃｱﾗﾀｻﾞﾜ","pref":"宮城県","city":"栗原市","address":"築館荒田沢"},
{"zip_code":"9872216","kana_pref":"ﾐﾔｷﾞｹﾝ","kana_city":"ｸﾘﾊﾗｼ","kana_address":"ﾂｷﾀﾞﾃｲｽﾞ","pref":"宮城県","city":"栗原市","address":"築館伊豆"},
{"zip_code":"9872271","kana_pref":"ﾐﾔｷﾞｹﾝ","kana_city":"ｸﾘﾊﾗｼ","kana_address":"ﾂｷﾀﾞﾃｲﾓｿﾞﾈ","pref":"宮城県","city":"栗原市","address":"築館芋埣"},
{"zip_code":"9872214","kana_pref":"ﾐﾔｷﾞｹﾝ","kana_city":"ｸﾘﾊﾗｼ","kana_address":"ﾂｷﾀﾞﾃｳﾁｻﾜ","pref":"宮城県","city":"栗原市","address":"築館内沢"},
{"zip_code":"9872213","kana_pref":"ﾐﾔｷﾞｹﾝ","kana_city":"ｸﾘﾊﾗｼ","kana_address":"ﾂｷﾀﾞﾃｳﾁﾐﾅﾐｻﾞﾜ","pref":"宮城県","city":"栗原市","address":"築館内南沢"},
{"zip_code":"9872225","kana_pref":"ﾐﾔｷﾞｹﾝ","kana_city":"ｸﾘﾊﾗｼ","kana_address":"ﾂｷﾀﾞﾃｵｵﾀ","pref":"宮城県","city":"栗原市","address":"築館太田"},
{"zip_code":"9872236","kana_pref":"ﾐﾔｷﾞｹﾝ","kana_city":"ｸﾘﾊﾗｼ","kana_address":"ﾂｷﾀﾞﾃｶﾆｻﾜ","pref":"宮城県","city":"栗原市","address":"築館蟹沢"},
{"zip_code":"9872246","kana_pref":"ﾐﾔｷﾞｹﾝ","kana_city":"ｸﾘﾊﾗｼ","kana_address":"ﾂｷﾀﾞﾃｶﾐﾀｶﾓﾘ","pref":"宮城県","city":"栗原市","address":"築館上高森"},
{"zip_code":"9872275","kana_pref":"ﾐﾔｷﾞｹﾝ","kana_city":"ｸﾘﾊﾗｼ","kana_address":"ﾂｷﾀﾞﾃｶﾐﾐﾔﾉ","pref":"宮城県","city":"栗原市","address":"築館上宮野"},
{"zip_code":"9872262","kana_pref":"ﾐﾔｷﾞｹﾝ","kana_city":"ｸﾘﾊﾗｼ","kana_address":"ﾂｷﾀﾞﾃｶﾗﾀｹﾊﾞﾔｼ","pref":"宮城県","city":"栗原市","address":"築館唐竹林"},
{"zip_code":"9872228","kana_pref":"ﾐﾔｷﾞｹﾝ","kana_city":"ｸﾘﾊﾗｼ","kana_address":"ﾂｷﾀﾞﾃｶﾜｿﾞｴ","pref":"宮城県","city":"栗原市","address":"築館川添"},
{"zip_code":"9872212","kana_pref":"ﾐﾔｷﾞｹﾝ","kana_city":"ｸﾘﾊﾗｼ","kana_address":"ﾂｷﾀﾞﾃｷﾄﾞ","pref":"宮城県","city":"栗原市","address":"築館木戸"},
{"zip_code":"9872261","kana_pref":"ﾐﾔｷﾞｹﾝ","kana_city":"ｸﾘﾊﾗｼ","kana_address":"ﾂｷﾀﾞﾃｷｭｳﾃﾞﾝ","pref":"宮城県","city":"栗原市","address":"築館久伝"},
{"zip_code":"9872204","kana_pref":"ﾐﾔｷﾞｹﾝ","kana_city":"ｸﾘﾊﾗｼ","kana_address":"ﾂｷﾀﾞﾃｸﾛｾ","pref":"宮城県","city":"栗原市","address":"築館黒瀬"},
{"zip_code":"9872211","kana_pref":"ﾐﾔｷﾞｹﾝ","kana_city":"ｸﾘﾊﾗｼ","kana_address":"ﾂｷﾀﾞﾃｹﾞﾝｺｳ","pref":"宮城県","city":"栗原市","address":"築館源光"},
{"zip_code":"9872273","kana_pref":"ﾐﾔｷﾞｹﾝ","kana_city":"ｸﾘﾊﾗｼ","kana_address":"ﾂｷﾀﾞﾃｺｴﾀﾞﾃ","pref":"宮城県","city":"栗原市","address":"築館左足"},
{"zip_code":"9872265","kana_pref":"ﾐﾔｷﾞｹﾝ","kana_city":"ｸﾘﾊﾗｼ","kana_address":"ﾂｷﾀﾞﾃｺﾌﾞﾁﾆｼ","pref":"宮城県","city":"栗原市","address":"築館小淵西"},
{"zip_code":"9872265","kana_pref":"ﾐﾔｷﾞｹﾝ","kana_city":"ｸﾘﾊﾗｼ","kana_address":"ﾂｷﾀﾞﾃｺﾌﾞﾁﾋｶﾞｼ","pref":"宮城県","city":"栗原市","address":"築館小淵東"},
{"zip_code":"9872265","kana_pref":"ﾐﾔｷﾞｹﾝ","kana_city":"ｸﾘﾊﾗｼ","kana_address":"ﾂｷﾀﾞﾃｻｶｲﾀﾞ","pref":"宮城県","city":"栗原市","address":"築館境田"},
{"zip_code":"9872265","kana_pref":"ﾐﾔｷﾞｹﾝ","kana_city":"ｸﾘﾊﾗｼ","kana_address":"ﾂｷﾀﾞﾃｻﾉﾊﾗ","pref":"宮城県","city":"栗原市","address":"築館佐野原"},
{"zip_code":"9872232","kana_pref":"ﾐﾔｷﾞｹﾝ","kana_city":"ｸﾘﾊﾗｼ","kana_address":"ﾂｷﾀﾞﾃｻﾜｲﾘ","pref":"宮城県","city":"栗原市","address":"築館沢入"},
{"zip_code":"9872247","kana_pref":"ﾐﾔｷﾞｹﾝ","kana_city":"ｸﾘﾊﾗｼ","kana_address":"ﾂｷﾀﾞﾃｼﾓﾀｶﾓﾘ","pref":"宮城県","city":"栗原市","address":"築館下高森"},
{"zip_code":"9872221","kana_pref":"ﾐﾔｷﾞｹﾝ","kana_city":"ｸﾘﾊﾗｼ","kana_address":"ﾂｷﾀﾞﾃｼﾓﾏﾁｲ","pref":"宮城県","city":"栗原市","address":"築館下待井"},
{"zip_code":"9872203","kana_pref":"ﾐﾔｷﾞｹﾝ","kana_city":"ｸﾘﾊﾗｼ","kana_address":"ﾂｷﾀﾞﾃｼﾓﾐﾔﾉ","pref":"宮城県","city":"栗原市","address":"築館下宮野"},
{"zip_code":"9872202","kana_pref":"ﾐﾔｷﾞｹﾝ","kana_city":"ｸﾘﾊﾗｼ","kana_address":"ﾂｷﾀﾞﾃｼﾞｮｳﾉ","pref":"宮城県","city":"栗原市","address":"築館城生野"},
{"zip_code":"9872263","kana_pref":"ﾐﾔｷﾞｹﾝ","kana_city":"ｸﾘﾊﾗｼ","kana_address":"ﾂｷﾀﾞﾃｼﾝﾃﾞﾝ","pref":"宮城県","city":"栗原市","address":"築館新田"},
{"zip_code":"9872274","kana_pref":"ﾐﾔｷﾞｹﾝ","kana_city":"ｸﾘﾊﾗｼ","kana_address":"ﾂｷﾀﾞﾃｼﾝﾅﾘﾀﾆｼ","pref":"宮城県","city":"栗原市","address":"築館新成田西"},
{"zip_code":"9872234","kana_pref":"ﾐﾔｷﾞｹﾝ","kana_city":"ｸﾘﾊﾗｼ","kana_address":"ﾂｷﾀﾞﾃｼﾝﾔﾂｻﾞﾜ","pref":"宮城県","city":"栗原市","address":"築館新八ツ沢"},
{"zip_code":"9872222","kana_pref":"ﾐﾔｷﾞｹﾝ","kana_city":"ｸﾘﾊﾗｼ","kana_address":"ﾂｷﾀﾞﾃｿﾄﾐﾅﾐｻﾞﾜ","pref":"宮城県","city":"栗原市","address":"築館外南沢"},
{"zip_code":"9872215","kana_pref":"ﾐﾔｷﾞｹﾝ","kana_city":"ｸﾘﾊﾗｼ","kana_address":"ﾂｷﾀﾞﾃﾀｶﾀﾞ","pref":"宮城県","city":"栗原市","address":"築館高田"},
{"zip_code":"9872242","kana_pref":"ﾐﾔｷﾞｹﾝ","kana_city":"ｸﾘﾊﾗｼ","kana_address":"ﾂｷﾀﾞﾃﾀﾃｻﾜ","pref":"宮城県","city":"栗原市","address":"築館館沢"},
{"zip_code":"9872241","kana_pref":"ﾐﾔｷﾞｹﾝ","kana_city":"ｸﾘﾊﾗｼ","kana_address":"ﾂｷﾀﾞﾃﾀﾃｼﾀ","pref":"宮城県","city":"栗原市","address":"築館館下"},
{"zip_code":"9872235","kana_pref":"ﾐﾔｷﾞｹﾝ","kana_city":"ｸﾘﾊﾗｼ","kana_address":"ﾂｷﾀﾞﾃﾂｷﾀﾞﾃ","pref":"宮城県","city":"栗原市","address":"築館築館"},
{"zip_code":"9872233","kana_pref":"ﾐﾔｷﾞｹﾝ","kana_city":"ｸﾘﾊﾗｼ","kana_address":"ﾂｷﾀﾞﾃﾃﾙｺｼ","pref":"宮城県","city":"栗原市","address":"築館照越"},
{"zip_code":"9872201","kana_pref":"ﾐﾔｷﾞｹﾝ","kana_city":"ｸﾘﾊﾗｼ","kana_address":"ﾂｷﾀﾞﾃﾄﾐ","pref":"宮城県","city":"栗原市","address":"築館富"},
{"zip_code":"9872272","kana_pref":"ﾐﾔｷﾞｹﾝ","kana_city":"ｸﾘﾊﾗｼ","kana_address":"ﾂｷﾀﾞﾃﾄﾒﾊﾞ","pref":"宮城県","city":"栗原市","address":"築館留場"},
{"zip_code":"9872274","kana_pref":"ﾐﾔｷﾞｹﾝ","kana_city":"ｸﾘﾊﾗｼ","kana_address":"ﾂｷﾀﾞﾃﾅﾘﾀ","pref":"宮城県","city":"栗原市","address":"築館成田"},
{"zip_code":"9872244","kana_pref":"ﾐﾔｷﾞｹﾝ","kana_city":"ｸﾘﾊﾗｼ","kana_address":"ﾂｷﾀﾞﾃﾆｼｺﾔﾏ","pref":"宮城県","city":"栗原市","address":"築館西小山"},
{"zip_code":"9872223","kana_pref":"ﾐﾔｷﾞｹﾝ","kana_city":"ｸﾘﾊﾗｼ","kana_address":"ﾂｷﾀﾞﾃﾊｷﾞｻﾜ","pref":"宮城県","city":"栗原市","address":"築館萩沢"},
{"zip_code":"9872243","kana_pref":"ﾐﾔｷﾞｹﾝ","kana_city":"ｸﾘﾊﾗｼ","kana_address":"ﾂｷﾀﾞﾃﾊｷﾞｻﾜﾋｶﾞｼ","pref":"宮城県","city":"栗原市","address":"築館萩沢東"},
{"zip_code":"9872243","kana_pref":"ﾐﾔｷﾞｹﾝ","kana_city":"ｸﾘﾊﾗｼ","kana_address":"ﾂｷﾀﾞﾃﾊｷﾞｻﾜﾐﾅﾐ","pref":"宮城県","city":"栗原市","address":"築館萩沢南"},
{"zip_code":"9872227","kana_pref":"ﾐﾔｷﾞｹﾝ","kana_city":"ｸﾘﾊﾗｼ","kana_address":"ﾂｷﾀﾞﾃﾋｶﾘﾔｼｷ","pref":"宮城県","city":"栗原市","address":"築館光屋敷"},
{"zip_code":"9872251","kana_pref":"ﾐﾔｷﾞｹﾝ","kana_city":"ｸﾘﾊﾗｼ","kana_address":"ﾂｷﾀﾞﾃﾌｼﾞｷ","pref":"宮城県","city":"栗原市","address":"築館藤木"},
{"zip_code":"9872205","kana_pref":"ﾐﾔｷﾞｹﾝ","kana_city":"ｸﾘﾊﾗｼ","kana_address":"ﾂｷﾀﾞﾃﾐﾔﾉﾁｭｳｵｳ","pref":"宮城県","city":"栗原市","address":"築館宮野中央"},
{"zip_code":"9872252","kana_pref":"ﾐﾔｷﾞｹﾝ","kana_city":"ｸﾘﾊﾗｼ","kana_address":"ﾂｷﾀﾞﾃﾔｸｼ","pref":"宮城県","city":"栗原市","address":"築館薬師"},
{"zip_code":"9872263","kana_pref":"ﾐﾔｷﾞｹﾝ","kana_city":"ｸﾘﾊﾗｼ","kana_address":"ﾂｷﾀﾞﾃﾔｸｼｶﾞｵｶ","pref":"宮城県","city":"栗原市","address":"築館薬師ケ丘"},
{"zip_code":"9872264","kana_pref":"ﾐﾔｷﾞｹﾝ","kana_city":"ｸﾘﾊﾗｼ","kana_address":"ﾂｷﾀﾞﾃﾔｸｼﾀﾞｲ","pref":"宮城県","city":"栗原市","address":"築館薬師台"},
{"zip_code":"9872226","kana_pref":"ﾐﾔｷﾞｹﾝ","kana_city":"ｸﾘﾊﾗｼ","kana_address":"ﾂｷﾀﾞﾃﾔｻﾜ","pref":"宮城県","city":"栗原市","address":"築館八沢"},
{"zip_code":"9872224","kana_pref":"ﾐﾔｷﾞｹﾝ","kana_city":"ｸﾘﾊﾗｼ","kana_address":"ﾂｷﾀﾞﾃﾖｺｽｶ","pref":"宮城県","city":"栗原市","address":"築館横須賀"},
{"zip_code":"9872512","kana_pref":"ﾐﾔｷﾞｹﾝ","kana_city":"ｸﾘﾊﾗｼ","kana_address":"ﾊﾅﾔﾏｸｻｷｻﾜ","pref":"宮城県","city":"栗原市","address":"花山草木沢"},
{"zip_code":"9872511","kana_pref":"ﾐﾔｷﾞｹﾝ","kana_city":"ｸﾘﾊﾗｼ","kana_address":"ﾊﾅﾔﾏﾎﾝｻﾜ","pref":"宮城県","city":"栗原市","address":"花山本沢"},
{"zip_code":"9871303","kana_pref":"ﾐﾔｷﾞｹﾝ","kana_city":"ｵｵｻｷｼ","kana_address":"ﾏﾂﾔﾏｶﾅﾔ","pref":"宮城県","city":"大崎市","address":"松山金谷"},
{"zip_code":"9871306","kana_pref":"ﾐﾔｷﾞｹﾝ","kana_city":"ｵｵｻｷｼ","kana_address":"ﾏﾂﾔﾏｼﾓｲﾊﾞﾉ","pref":"宮城県","city":"大崎市","address":"松山下伊場野"},
{"zip_code":"9871301","kana_pref":"ﾐﾔｷﾞｹﾝ","kana_city":"ｵｵｻｷｼ","kana_address":"ﾏﾂﾔﾏｽﾏﾔ","pref":"宮城県","city":"大崎市","address":"松山須摩屋"},
{"zip_code":"9871304","kana_pref":"ﾐﾔｷﾞｹﾝ","kana_city":"ｵｵｻｷｼ","kana_address":"ﾏﾂﾔﾏｾﾝｺﾞｸ","pref":"宮城県","city":"大崎市","address":"松山千石"},
{"zip_code":"9871305","kana_pref":"ﾐﾔｷﾞｹﾝ","kana_city":"ｵｵｻｷｼ","kana_address":"ﾏﾂﾔﾏﾂｷﾞﾊｼ","pref":"宮城県","city":"大崎市","address":"松山次橋"},
{"zip_code":"9871302","kana_pref":"ﾐﾔｷﾞｹﾝ","kana_city":"ｵｵｻｷｼ","kana_address":"ﾏﾂﾔﾏﾅｶﾞｵ","pref":"宮城県","city":"大崎市","address":"松山長尾"},
{"zip_code":"9870100","kana_pref":"ﾐﾔｷﾞｹﾝ","kana_city":"ﾄｵﾀﾞｸﾞﾝﾜｸﾔﾁｮｳ","kana_address":"","pref":"宮城県","city":"遠田郡涌谷町","address":""},
{"zip_code":"9870133","kana_pref":"ﾐﾔｷﾞｹﾝ","kana_city":"ﾄｵﾀﾞｸﾞﾝﾜｸﾔﾁｮｳ","kana_address":"ｱｶﾏﾔｼｷ","pref":"宮城県","city":"遠田郡涌谷町","address":"赤間屋敷"},
{"zip_code":"9870145","kana_pref":"ﾐﾔｷﾞｹﾝ","kana_city":"ﾄｵﾀﾞｸﾞﾝﾜｸﾔﾁｮｳ","kana_address":"ｲﾁﾐﾁ","pref":"宮城県","city":"遠田郡涌谷町","address":"市道"},
{"zip_code":"9870136","kana_pref":"ﾐﾔｷﾞｹﾝ","kana_city":"ﾄｵﾀﾞｸﾞﾝﾜｸﾔﾁｮｳ","kana_address":"ｲｯﾎﾟﾝﾔﾅｷﾞ","pref":"宮城県","city":"遠田郡涌谷町","address":"一本柳"},
{"zip_code":"9870284","kana_pref":"ﾐﾔｷﾞｹﾝ","kana_city":"ﾄｵﾀﾞｸﾞﾝﾜｸﾔﾁｮｳ","kana_address":"ｲﾉｵｶﾀﾝﾀﾞｲ","pref":"宮城県","city":"遠田郡涌谷町","address":"猪岡短台"},
{"zip_code":"9870145","kana_pref":"ﾐﾔｷﾞｹﾝ","kana_city":"ﾄｵﾀﾞｸﾞﾝﾜｸﾔﾁｮｳ","kana_address":"ｳｶﾞﾗｽ","pref":"宮城県","city":"遠田郡涌谷町","address":"烏鴉"},
{"zip_code":"9870103","kana_pref":"ﾐﾔｷﾞｹﾝ","kana_city":"ﾄｵﾀﾞｸﾞﾝﾜｸﾔﾁｮｳ","kana_address":"ｳﾗｻｸﾗﾁｮｳ","pref":"宮城県","city":"遠田郡涌谷町","address":"裏桜町"},
{"zip_code":"9870142","kana_pref":"ﾐﾔｷﾞｹﾝ","kana_city":"ﾄｵﾀﾞｸﾞﾝﾜｸﾔﾁｮｳ","kana_address":"ｳﾗﾏﾁ","pref":"宮城県","city":"遠田郡涌谷町","address":"浦町"},
{"zip_code":"9870165","kana_pref":"ﾐﾔｷﾞｹﾝ","kana_city":"ﾄｵﾀﾞｸﾞﾝﾜｸﾔﾁｮｳ","kana_address":"ｵｲﾏﾜｼﾁｮｳ","pref":"宮城県","city":"遠田郡涌谷町","address":"追廻町"},
{"zip_code":"9870282","kana_pref":"ﾐﾔｷﾞｹﾝ","kana_city":"ﾄｵﾀﾞｸﾞﾝﾜｸﾔﾁｮｳ","kana_address":"ｵｵﾀ","pref":"宮城県","city":"遠田郡涌谷町","address":"太田"},
{"zip_code":"9870144","kana_pref":"ﾐﾔｷﾞｹﾝ","kana_city":"ﾄｵﾀﾞｸﾞﾝﾜｸﾔﾁｮｳ","kana_address":"ｵｷｼﾝﾃﾞﾝ","pref":"宮城県","city":"遠田郡涌谷町","address":"沖新田"},
{"zip_code":"9870145","kana_pref":"ﾐﾔｷﾞｹﾝ","kana_city":"ﾄｵﾀﾞｸﾞﾝﾜｸﾔﾁｮｳ","kana_address":"ｵｷﾞﾚ","pref":"宮城県","city":"遠田郡涌谷町","address":"尾切"},
{"zip_code":"9870281","kana_pref":"ﾐﾔｷﾞｹﾝ","kana_city":"ﾄｵﾀﾞｸﾞﾝﾜｸﾔﾁｮｳ","kana_address":"ｵｻﾄ","pref":"宮城県","city":"遠田郡涌谷町","address":"小里"},
{"zip_code":"9870102","kana_pref":"ﾐﾔｷﾞｹﾝ","kana_city":"ﾄｵﾀﾞｸﾞﾝﾜｸﾔﾁｮｳ","kana_address":"ｵﾓﾃｻｸﾗﾁｮｳ","pref":"宮城県","city":"遠田郡涌谷町","address":"表桜町"},
{"zip_code":"9870171","kana_pref":"ﾐﾔｷﾞｹﾝ","kana_city":"ﾄｵﾀﾞｸﾞﾝﾜｸﾔﾁｮｳ","kana_address":"ｶﾐｺﾞｵﾘ","pref":"宮城県","city":"遠田郡涌谷町","address":"上郡"},
{"zip_code":"9870133","kana_pref":"ﾐﾔｷﾞｹﾝ","kana_city":"ﾄｵﾀﾞｸﾞﾝﾜｸﾔﾁｮｳ","kana_address":"ｶﾓﾝｵｷﾅ","pref":"宮城県","city":"遠田郡涌谷町","address":"掃部沖名"},
{"zip_code":"9870164","kana_pref":"ﾐﾔｷﾞｹﾝ","kana_city":"ﾄｵﾀﾞｸﾞﾝﾜｸﾔﾁｮｳ","kana_address":"ｶﾙｶﾔﾁｮｳ","pref":"宮城県","city":"遠田郡涌谷町","address":"刈萱町"},
{"zip_code":"9870161","kana_pref":"ﾐﾔｷﾞｹﾝ","kana_city":"ﾄｵﾀﾞｸﾞﾝﾜｸﾔﾁｮｳ","kana_address":"ｶﾜﾗﾏﾁ","pref":"宮城県","city":"遠田郡涌谷町","address":"川原町"},
{"zip_code":"9870134","kana_pref":"ﾐﾔｷﾞｹﾝ","kana_city":"ﾄｵﾀﾞｸﾞﾝﾜｸﾔﾁｮｳ","kana_address":"ｷﾀｺﾞﾀﾝﾀﾞ","pref":"宮城県","city":"遠田郡涌谷町","address":"北五反田"},
{"zip_code":"9870131","kana_pref":"ﾐﾔｷﾞｹﾝ","kana_city":"ﾄｵﾀﾞｸﾞﾝﾜｸﾔﾁｮｳ","kana_address":"ｷﾀﾀﾞ","pref":"宮城県","city":"遠田郡涌谷町","address":"北田"},
{"zip_code":"9870134","kana_pref":"ﾐﾔｷﾞｹﾝ","kana_city":"ﾄｵﾀﾞｸﾞﾝﾜｸﾔﾁｮｳ","kana_address":"ｸｹﾝ","pref":"宮城県","city":"遠田郡涌谷町","address":"九軒"},
{"zip_code":"9870145","kana_pref":"ﾐﾔｷﾞｹﾝ","kana_city":"ﾄｵﾀﾞｸﾞﾝﾜｸﾔﾁｮｳ","kana_address":"ｸﾗｶﾞｹ","pref":"宮城県","city":"遠田郡涌谷町","address":"鞍掛"},
{"zip_code":"9870132","kana_pref":"ﾐﾔｷﾞｹﾝ","kana_city":"ﾄｵﾀﾞｸﾞﾝﾜｸﾔﾁｮｳ","kana_address":"ｸﾗﾝﾄﾞｵｷﾅ","pref":"宮城県","city":"遠田郡涌谷町","address":"蔵人沖名"},
{"zip_code":"9870112","kana_pref":"ﾐﾔｷﾞｹﾝ","kana_city":"ﾄｵﾀﾞｸﾞﾝﾜｸﾔﾁｮｳ","kana_address":"ｸﾜﾉｷｱﾗ","pref":"宮城県","city":"遠田郡涌谷町","address":"桑木荒"},
{"zip_code":"9870145","kana_pref":"ﾐﾔｷﾞｹﾝ","kana_city":"ﾄｵﾀﾞｸﾞﾝﾜｸﾔﾁｮｳ","kana_address":"ｹｶﾂﾔﾏ","pref":"宮城県","city":"遠田郡涌谷町","address":"花勝山"},
{"zip_code":"9870147","kana_pref":"ﾐﾔｷﾞｹﾝ","kana_city":"ﾄｵﾀﾞｸﾞﾝﾜｸﾔﾁｮｳ","kana_address":"ｹﾞﾄﾞｳ","pref":"宮城県","city":"遠田郡涌谷町","address":"下道"},
{"zip_code":"9870134","kana_pref":"ﾐﾔｷﾞｹﾝ","kana_city":"ﾄｵﾀﾞｸﾞﾝﾜｸﾔﾁｮｳ","kana_address":"ｺﾞﾀﾝﾀﾞ","pref":"宮城県","city":"遠田郡涌谷町","address":"五反田"},
{"zip_code":"9870151","kana_pref":"ﾐﾔｷﾞｹﾝ","kana_city":"ﾄｵﾀﾞｸﾞﾝﾜｸﾔﾁｮｳ","kana_address":"ｺﾂﾞｶ","pref":"宮城県","city":"遠田郡涌谷町","address":"小塚"},
{"zip_code":"9870133","kana_pref":"ﾐﾔｷﾞｹﾝ","kana_city":"ﾄｵﾀﾞｸﾞﾝﾜｸﾔﾁｮｳ","kana_address":"ｺﾞﾄｳｴ","pref":"宮城県","city":"遠田郡涌谷町","address":"後藤江"},
{"zip_code":"9870135","kana_pref":"ﾐﾔｷﾞｹﾝ","kana_city":"ﾄｵﾀﾞｸﾞﾝﾜｸﾔﾁｮｳ","kana_address":"ｺﾌﾞﾀﾔﾁ","pref":"宮城県","city":"遠田郡涌谷町","address":"小蓋谷地"},
{"zip_code":"9870132","kana_pref":"ﾐﾔｷﾞｹﾝ","kana_city":"ﾄｵﾀﾞｸﾞﾝﾜｸﾔﾁｮｳ","kana_address":"ｺﾔﾁ","pref":"宮城県","city":"遠田郡涌谷町","address":"小谷地"},
{"zip_code":"9870144","kana_pref":"ﾐﾔｷﾞｹﾝ","kana_city":"ﾄｵﾀﾞｸﾞﾝﾜｸﾔﾁｮｳ","kana_address":"ｺﾔﾏｼﾀ","pref":"宮城県","city":"遠田郡涌谷町","address":"小山下"},
{"zip_code":"9870133","kana_pref":"ﾐﾔｷﾞｹﾝ","kana_city":"ﾄｵﾀﾞｸﾞﾝﾜｸﾔﾁｮｳ","kana_address":"ｺﾝｻﾞｴﾓﾝｵｷﾅ","pref":"宮城県","city":"遠田郡涌谷町","address":"今左衛門沖名"},
{"zip_code":"9870101","kana_pref":"ﾐﾔｷﾞｹﾝ","kana_city":"ﾄｵﾀﾞｸﾞﾝﾜｸﾔﾁｮｳ","kana_address":"ｻｸﾗﾁｮｳｳﾗ","pref":"宮城県","city":"遠田郡涌谷町","address":"桜町裏"},
{"zip_code":"9870134","kana_pref":"ﾐﾔｷﾞｹﾝ","kana_city":"ﾄｵﾀﾞｸﾞﾝﾜｸﾔﾁｮｳ","kana_address":"ｻﾔﾏｷﾞ","pref":"宮城県","city":"遠田郡涌谷町","address":"佐山木"},
{"zip_code":"9870148","kana_pref":"ﾐﾔｷﾞｹﾝ","kana_city":"ﾄｵﾀﾞｸﾞﾝﾜｸﾔﾁｮｳ","kana_address":"ｻﾝｹﾞﾝﾔｼｷ","pref":"宮城県","city":"遠田郡涌谷町","address":"三軒屋敷"},
{"zip_code":"9870135","kana_pref":"ﾐﾔｷﾞｹﾝ","kana_city":"ﾄｵﾀﾞｸﾞﾝﾜｸﾔﾁｮｳ","kana_address":"ｻﾝｼﾞｭｯｹﾝ","pref":"宮城県","city":"遠田郡涌谷町","address":"三十軒"},
{"zip_code":"9870113","kana_pref":"ﾐﾔｷﾞｹﾝ","kana_city":"ﾄｵﾀﾞｸﾞﾝﾜｸﾔﾁｮｳ","kana_address":"ｼﾌﾞｴ","pref":"宮城県","city":"遠田郡涌谷町","address":"渋江"},
{"zip_code":"9870134","kana_pref":"ﾐﾔｷﾞｹﾝ","kana_city":"ﾄｵﾀﾞｸﾞﾝﾜｸﾔﾁｮｳ","kana_address":"ｼﾞﾌﾞｿｸﾐﾁ","pref":"宮城県","city":"遠田郡涌谷町","address":"地不足道"},
{"zip_code":"9870172","kana_pref":"ﾐﾔｷﾞｹﾝ","kana_city":"ﾄｵﾀﾞｸﾞﾝﾜｸﾔﾁｮｳ","kana_address":"ｼﾓｺﾞｵﾘ","pref":"宮城県","city":"遠田郡涌谷町","address":"下郡"},
{"zip_code":"9870144","kana_pref":"ﾐﾔｷﾞｹﾝ","kana_city":"ﾄｵﾀﾞｸﾞﾝﾜｸﾔﾁｮｳ","kana_address":"ｼﾓｼﾝﾃﾞﾝ","pref":"宮城県","city":"遠田郡涌谷町","address":"下新田"},
{"zip_code":"9870140","kana_pref":"ﾐﾔｷﾞｹﾝ","kana_city":"ﾄｵﾀﾞｸﾞﾝﾜｸﾔﾁｮｳ","kana_address":"ｼﾝｵｷｼﾝﾃﾞﾝ","pref":"宮城県","city":"遠田郡涌谷町","address":"新沖新田"},
{"zip_code":"9870145","kana_pref":"ﾐﾔｷﾞｹﾝ","kana_city":"ﾄｵﾀﾞｸﾞﾝﾜｸﾔﾁｮｳ","kana_address":"ｼﾝｵｷﾞﾚ","pref":"宮城県","city":"遠田郡涌谷町","address":"新尾切"},
{"zip_code":"9870130","kana_pref":"ﾐﾔｷﾞｹﾝ","kana_city":"ﾄｵﾀﾞｸﾞﾝﾜｸﾔﾁｮｳ","kana_address":"ｼﾝｸｹﾝﾏｴ","pref":"宮城県","city":"遠田郡涌谷町","address":"新九軒前"},
{"zip_code":"9870149","kana_pref":"ﾐﾔｷﾞｹﾝ","kana_city":"ﾄｵﾀﾞｸﾞﾝﾜｸﾔﾁｮｳ","kana_address":"ｼﾝｺﾞﾄｳｴ","pref":"宮城県","city":"遠田郡涌谷町","address":"新後藤江"},
{"zip_code":"9870138","kana_pref":"ﾐﾔｷﾞｹﾝ","kana_city":"ﾄｵﾀﾞｸﾞﾝﾜｸﾔﾁｮｳ","kana_address":"ｼﾝｻｶｲﾎﾞﾘｼﾀ","pref":"宮城県","city":"遠田郡涌谷町","address":"新境堀下"},
{"zip_code":"9870139","kana_pref":"ﾐﾔｷﾞｹﾝ","kana_city":"ﾄｵﾀﾞｸﾞﾝﾜｸﾔﾁｮｳ","kana_address":"ｼﾝﾀﾞｲﾄﾞｺﾛﾊﾞｼ","pref":"宮城県","city":"遠田郡涌谷町","address":"新台所橋"},
{"zip_code":"9870133","kana_pref":"ﾐﾔｷﾞｹﾝ","kana_city":"ﾄｵﾀﾞｸﾞﾝﾜｸﾔﾁｮｳ","kana_address":"ｼﾝﾃﾞﾝ","pref":"宮城県","city":"遠田郡涌谷町","address":"新田"},
{"zip_code":"9870137","kana_pref":"ﾐﾔｷﾞｹﾝ","kana_city":"ﾄｵﾀﾞｸﾞﾝﾜｸﾔﾁｮｳ","kana_address":"ｼﾝﾅｶｼﾞﾏｵﾂ","pref":"宮城県","city":"遠田郡涌谷町","address":"新中島乙"},
{"zip_code":"9870145","kana_pref":"ﾐﾔｷﾞｹﾝ","kana_city":"ﾄｵﾀﾞｸﾞﾝﾜｸﾔﾁｮｳ","kana_address":"ｼﾝﾅﾋﾞﾚ","pref":"宮城県","city":"遠田郡涌谷町","address":"新名鰭"},
{"zip_code":"9870115","kana_pref":"ﾐﾔｷﾞｹﾝ","kana_city":"ﾄｵﾀﾞｸﾞﾝﾜｸﾔﾁｮｳ","kana_address":"ｼﾝﾏﾁ","pref":"宮城県","city":"遠田郡涌谷町","address":"新町"},
{"zip_code":"9870114","kana_pref":"ﾐﾔｷﾞｹﾝ","kana_city":"ﾄｵﾀﾞｸﾞﾝﾜｸﾔﾁｮｳ","kana_address":"ｼﾝﾏﾁｳﾗ","pref":"宮城県","city":"遠田郡涌谷町","address":"新町裏"},
{"zip_code":"9870144","kana_pref":"ﾐﾔｷﾞｹﾝ","kana_city":"ﾄｵﾀﾞｸﾞﾝﾜｸﾔﾁｮｳ","kana_address":"ｽﾅﾀ","pref":"宮城県","city":"遠田郡涌谷町","address":"砂田"},
{"zip_code":"9870133","kana_pref":"ﾐﾔｷﾞｹﾝ","kana_city":"ﾄｵﾀﾞｸﾞﾝﾜｸﾔﾁｮｳ","kana_address":"ｾｷﾔｵｷﾅ","pref":"宮城県","city":"遠田郡涌谷町","address":"関谷沖名"},
{"zip_code":"9870133","kana_pref":"ﾐﾔｷﾞｹﾝ","kana_city":"ﾄｵﾀﾞｸﾞﾝﾜｸﾔﾁｮｳ","kana_address":"ﾀﾞｲﾄﾞｺﾛﾊﾞｼﾐﾁｼﾀ","pref":"宮城県","city":"遠田郡涌谷町","address":"台所橋道下"},
{"zip_code":"9870133","kana_pref":"ﾐﾔｷﾞｹﾝ","kana_city":"ﾄｵﾀﾞｸﾞﾝﾜｸﾔﾁｮｳ","kana_address":"ﾀｶﾉﾊﾞｼｼﾓﾅｶｾﾞ","pref":"宮城県","city":"遠田郡涌谷町","address":"鷹野橋下中瀬"},
{"zip_code":"9870163","kana_pref":"ﾐﾔｷﾞｹﾝ","kana_city":"ﾄｵﾀﾞｸﾞﾝﾜｸﾔﾁｮｳ","kana_address":"ﾀﾂﾁｮｳ","pref":"宮城県","city":"遠田郡涌谷町","address":"立町"},
{"zip_code":"9870104","kana_pref":"ﾐﾔｷﾞｹﾝ","kana_city":"ﾄｵﾀﾞｸﾞﾝﾜｸﾔﾁｮｳ","kana_address":"ﾀﾇﾏﾁｮｳ","pref":"宮城県","city":"遠田郡涌谷町","address":"田沼町"},
{"zip_code":"9870141","kana_pref":"ﾐﾔｷﾞｹﾝ","kana_city":"ﾄｵﾀﾞｸﾞﾝﾜｸﾔﾁｮｳ","kana_address":"ﾀﾏﾁｳﾗ","pref":"宮城県","city":"遠田郡涌谷町","address":"田町裏"},
{"zip_code":"9870146","kana_pref":"ﾐﾔｷﾞｹﾝ","kana_city":"ﾄｵﾀﾞｸﾞﾝﾜｸﾔﾁｮｳ","kana_address":"ﾅｶｹﾞﾄﾞｳ","pref":"宮城県","city":"遠田郡涌谷町","address":"中下道"},
{"zip_code":"9870137","kana_pref":"ﾐﾔｷﾞｹﾝ","kana_city":"ﾄｵﾀﾞｸﾞﾝﾜｸﾔﾁｮｳ","kana_address":"ﾅｶｼﾞﾏ","pref":"宮城県","city":"遠田郡涌谷町","address":"中島"},
{"zip_code":"9870137","kana_pref":"ﾐﾔｷﾞｹﾝ","kana_city":"ﾄｵﾀﾞｸﾞﾝﾜｸﾔﾁｮｳ","kana_address":"ﾅｶｼﾞﾏｵﾂ","pref":"宮城県","city":"遠田郡涌谷町","address":"中島乙"},
{"zip_code":"9870137","kana_pref":"ﾐﾔｷﾞｹﾝ","kana_city":"ﾄｵﾀﾞｸﾞﾝﾜｸﾔﾁｮｳ","kana_address":"ﾅｶｼﾞﾏｶﾜﾏｴ","pref":"宮城県","city":"遠田郡涌谷町","address":"中島川前"},
{"zip_code":"9870137","kana_pref":"ﾐﾔｷﾞｹﾝ","kana_city":"ﾄｵﾀﾞｸﾞﾝﾜｸﾔﾁｮｳ","kana_address":"ﾅｶｼﾞﾏｺｳ","pref":"宮城県","city":"遠田郡涌谷町","address":"中島甲"},
{"zip_code":"9870143","kana_pref":"ﾐﾔｷﾞｹﾝ","kana_city":"ﾄｵﾀﾞｸﾞﾝﾜｸﾔﾁｮｳ","kana_address":"ﾅｶﾞｴﾁｮｳ","pref":"宮城県","city":"遠田郡涌谷町","address":"長柄町"},
{"zip_code":"9870145","kana_pref":"ﾐﾔｷﾞｹﾝ","kana_city":"ﾄｵﾀﾞｸﾞﾝﾜｸﾔﾁｮｳ","kana_address":"ﾅﾋﾞﾚ","pref":"宮城県","city":"遠田郡涌谷町","address":"名鰭"},
{"zip_code":"9870286","kana_pref":"ﾐﾔｷﾞｹﾝ","kana_city":"ﾄｵﾀﾞｸﾞﾝﾜｸﾔﾁｮｳ","kana_address":"ﾅﾘｻﾜ","pref":"宮城県","city":"遠田郡涌谷町","address":"成沢"},
{"zip_code":"9870134","kana_pref":"ﾐﾔｷﾞｹﾝ","kana_city":"ﾄｵﾀﾞｸﾞﾝﾜｸﾔﾁｮｳ","kana_address":"ﾆｼﾔﾁ","pref":"宮城県","city":"遠田郡涌谷町","address":"西谷地"},
{"zip_code":"9870134","kana_pref":"ﾐﾔｷﾞｹﾝ","kana_city":"ﾄｵﾀﾞｸﾞﾝﾜｸﾔﾁｮｳ","kana_address":"ﾆﾌﾞ","pref":"宮城県","city":"遠田郡涌谷町","address":"二歩"},
{"zip_code":"9870105","kana_pref":"ﾐﾔｷﾞｹﾝ","kana_city":"ﾄｵﾀﾞｸﾞﾝﾜｸﾔﾁｮｳ","kana_address":"ﾈﾘｳｼﾁｮｳ","pref":"宮城県","city":"遠田郡涌谷町","address":"練丑町"},
{"zip_code":"9870285","kana_pref":"ﾐﾔｷﾞｹﾝ","kana_city":"ﾄｵﾀﾞｸﾞﾝﾜｸﾔﾁｮｳ","kana_address":"ﾉﾉﾀﾞｹ","pref":"宮城県","city":"遠田郡涌谷町","address":"箟岳"},
{"zip_code":"9870144","kana_pref":"ﾐﾔｷﾞｹﾝ","kana_city":"ﾄｵﾀﾞｸﾞﾝﾜｸﾔﾁｮｳ","kana_address":"ﾊｯﾋﾟｬｸｶﾞﾘ","pref":"宮城県","city":"遠田郡涌谷町","address":"八百刈"},
{"zip_code":"9870144","kana_pref":"ﾐﾔｷﾞｹﾝ","kana_city":"ﾄｵﾀﾞｸﾞﾝﾜｸﾔﾁｮｳ","kana_address":"ﾊﾞﾗｼﾞﾏ","pref":"宮城県","city":"遠田郡涌谷町","address":"薔薇島"},
{"zip_code":"9870113","kana_pref":"ﾐﾔｷﾞｹﾝ","kana_city":"ﾄｵﾀﾞｸﾞﾝﾜｸﾔﾁｮｳ","kana_address":"ﾌﾙﾐﾁｼﾀﾆﾎﾝｽｷﾞ","pref":"宮城県","city":"遠田郡涌谷町","address":"古道下二本杉"},
{"zip_code":"9870162","kana_pref":"ﾐﾔｷﾞｹﾝ","kana_city":"ﾄｵﾀﾞｸﾞﾝﾜｸﾔﾁｮｳ","kana_address":"ﾓﾄﾏﾁ","pref":"宮城県","city":"遠田郡涌谷町","address":"本町"},
{"zip_code":"9870111","kana_pref":"ﾐﾔｷﾞｹﾝ","kana_city":"ﾄｵﾀﾞｸﾞﾝﾜｸﾔﾁｮｳ","kana_address":"ﾔﾅｷﾞﾁｮｳ","pref":"宮城県","city":"遠田郡涌谷町","address":"柳町"},
{"zip_code":"9870283","kana_pref":"ﾐﾔｷﾞｹﾝ","kana_city":"ﾄｵﾀﾞｸﾞﾝﾜｸﾔﾁｮｳ","kana_address":"ﾖｼｽﾞﾐ","pref":"宮城県","city":"遠田郡涌谷町","address":"吉住"},
{"zip_code":"9870134","kana_pref":"ﾐﾔｷﾞｹﾝ","kana_city":"ﾄｵﾀﾞｸﾞﾝﾜｸﾔﾁｮｳ","kana_address":"ﾗﾝﾊﾞﾔﾁ","pref":"宮城県","city":"遠田郡涌谷町","address":"蘭場谷地"},
{"zip_code":"9870106","kana_pref":"ﾐﾔｷﾞｹﾝ","kana_city":"ﾄｵﾀﾞｸﾞﾝﾜｸﾔﾁｮｳ","kana_address":"ﾛｯｹﾝﾁｮｳ","pref":"宮城県","city":"遠田郡涌谷町","address":"六軒町"},
{"zip_code":"9870107","kana_pref":"ﾐﾔｷﾞｹﾝ","kana_city":"ﾄｵﾀﾞｸﾞﾝﾜｸﾔﾁｮｳ","kana_address":"ﾛｯｹﾝﾁｮｳｳﾗ","pref":"宮城県","city":"遠田郡涌谷町","address":"六軒町裏"},
{"zip_code":"9870121","kana_pref":"ﾐﾔｷﾞｹﾝ","kana_city":"ﾄｵﾀﾞｸﾞﾝﾜｸﾔﾁｮｳ","kana_address":"ﾜｸﾔ","pref":"宮城県","city":"遠田郡涌谷町","address":"涌谷"},
{"zip_code":"9870000","kana_pref":"ﾐﾔｷﾞｹﾝ","kana_city":"ﾄｵﾀﾞｸﾞﾝﾐｻﾄﾏﾁ","kana_address":"","pref":"宮城県","city":"遠田郡美里町","address":""},
{"zip_code":"9870015","kana_pref":"ﾐﾔｷﾞｹﾝ","kana_city":"ﾄｵﾀﾞｸﾞﾝﾐｻﾄﾏﾁ","kana_address":"ｱｵｳ","pref":"宮城県","city":"遠田郡美里町","address":"青生"},
{"zip_code":"9870056","kana_pref":"ﾐﾔｷﾞｹﾝ","kana_city":"ﾄｵﾀﾞｸﾞﾝﾐｻﾄﾏﾁ","kana_address":"ｲｯﾎﾟﾝﾔﾅｷﾞ","pref":"宮城県","city":"遠田郡美里町","address":"一本柳"},
{"zip_code":"9870004","kana_pref":"ﾐﾔｷﾞｹﾝ","kana_city":"ﾄｵﾀﾞｸﾞﾝﾐｻﾄﾏﾁ","kana_address":"ｳｼｶｲ","pref":"宮城県","city":"遠田郡美里町","address":"牛飼"},
{"zip_code":"9870045","kana_pref":"ﾐﾔｷﾞｹﾝ","kana_city":"ﾄｵﾀﾞｸﾞﾝﾐｻﾄﾏﾁ","kana_address":"ｳﾁﾔｸﾃﾞﾝ","pref":"宮城県","city":"遠田郡美里町","address":"内役田"},
{"zip_code":"9870038","kana_pref":"ﾐﾔｷﾞｹﾝ","kana_city":"ﾄｵﾀﾞｸﾞﾝﾐｻﾄﾏﾁ","kana_address":"ｴｷﾋｶﾞｼ","pref":"宮城県","city":"遠田郡美里町","address":"駅東"},
{"zip_code":"9870022","kana_pref":"ﾐﾔｷﾞｹﾝ","kana_city":"ﾄｵﾀﾞｸﾞﾝﾐｻﾄﾏﾁ","kana_address":"ｵｷﾞｿﾞﾈ","pref":"宮城県","city":"遠田郡美里町","address":"荻埣"},
{"zip_code":"9870032","kana_pref":"ﾐﾔｷﾞｹﾝ","kana_city":"ﾄｵﾀﾞｸﾞﾝﾐｻﾄﾏﾁ","kana_address":"ｶﾞｸﾃﾞﾝ","pref":"宮城県","city":"遠田郡美里町","address":"学田"},
{"zip_code":"9870065","kana_pref":"ﾐﾔｷﾞｹﾝ","kana_city":"ﾄｵﾀﾞｸﾞﾝﾐｻﾄﾏﾁ","kana_address":"ｶﾝﾄﾞｳ","pref":"宮城県","city":"遠田郡美里町","address":"勘堂"},
{"zip_code":"9870005","kana_pref":"ﾐﾔｷﾞｹﾝ","kana_city":"ﾄｵﾀﾞｸﾞﾝﾐｻﾄﾏﾁ","kana_address":"ｷﾀｳﾗ","pref":"宮城県","city":"遠田郡美里町","address":"北浦"},
{"zip_code":"9870069","kana_pref":"ﾐﾔｷﾞｹﾝ","kana_city":"ﾄｵﾀﾞｸﾞﾝﾐｻﾄﾏﾁ","kana_address":"ｷﾀﾊﾗ","pref":"宮城県","city":"遠田郡美里町","address":"北原"},
{"zip_code":"9870057","kana_pref":"ﾐﾔｷﾞｹﾝ","kana_city":"ﾄｵﾀﾞｸﾞﾝﾐｻﾄﾏﾁ","kana_address":"ｷﾂﾈﾔﾏ","pref":"宮城県","city":"遠田郡美里町","address":"狐山"},
{"zip_code":"9870034","kana_pref":"ﾐﾔｷﾞｹﾝ","kana_city":"ﾄｵﾀﾞｸﾞﾝﾐｻﾄﾏﾁ","kana_address":"ｹｼｮｳｻﾞｶ","pref":"宮城県","city":"遠田郡美里町","address":"化粧坂"},
{"zip_code":"9870063","kana_pref":"ﾐﾔｷﾞｹﾝ","kana_city":"ﾄｵﾀﾞｸﾞﾝﾐｻﾄﾏﾁ","kana_address":"ｺﾇﾏ","pref":"宮城県","city":"遠田郡美里町","address":"小沼"},
{"zip_code":"9870064","kana_pref":"ﾐﾔｷﾞｹﾝ","kana_city":"ﾄｵﾀﾞｸﾞﾝﾐｻﾄﾏﾁ","kana_address":"ｺﾇﾏｿﾞｲ","pref":"宮城県","city":"遠田郡美里町","address":"小沼添"},
{"zip_code":"9870033","kana_pref":"ﾐﾔｷﾞｹﾝ","kana_city":"ﾄｵﾀﾞｸﾞﾝﾐｻﾄﾏﾁ","kana_address":"ｺﾏﾁｲ","pref":"宮城県","city":"遠田郡美里町","address":"小町井"},
{"zip_code":"9870036","kana_pref":"ﾐﾔｷﾞｹﾝ","kana_city":"ﾄｵﾀﾞｸﾞﾝﾐｻﾄﾏﾁ","kana_address":"ｻｲﾉｶﾐ","pref":"宮城県","city":"遠田郡美里町","address":"妻の神"},
{"zip_code":"9870011","kana_pref":"ﾐﾔｷﾞｹﾝ","kana_city":"ﾄｵﾀﾞｸﾞﾝﾐｻﾄﾏﾁ","kana_address":"ｻｸﾗｷﾞﾁｮｳ","pref":"宮城県","city":"遠田郡美里町","address":"桜木町"},
{"zip_code":"9870058","kana_pref":"ﾐﾔｷﾞｹﾝ","kana_city":"ﾄｵﾀﾞｸﾞﾝﾐｻﾄﾏﾁ","kana_address":"ｼｵｶﾞﾏ","pref":"宮城県","city":"遠田郡美里町","address":"塩釜"},
{"zip_code":"9870059","kana_pref":"ﾐﾔｷﾞｹﾝ","kana_city":"ﾄｵﾀﾞｸﾞﾝﾐｻﾄﾏﾁ","kana_address":"ｼｵｶﾞﾏｿﾞｴ","pref":"宮城県","city":"遠田郡美里町","address":"塩釜添"},
{"zip_code":"9870014","kana_pref":"ﾐﾔｷﾞｹﾝ","kana_city":"ﾄｵﾀﾞｸﾞﾝﾐｻﾄﾏﾁ","kana_address":"ｼｶﾞﾁｮｳ","pref":"宮城県","city":"遠田郡美里町","address":"志賀町"},
{"zip_code":"9870035","kana_pref":"ﾐﾔｷﾞｹﾝ","kana_city":"ﾄｵﾀﾞｸﾞﾝﾐｻﾄﾏﾁ","kana_address":"ｼｶﾞﾃﾞﾝ","pref":"宮城県","city":"遠田郡美里町","address":"志賀殿"},
{"zip_code":"9870061","kana_pref":"ﾐﾔｷﾞｹﾝ","kana_city":"ﾄｵﾀﾞｸﾞﾝﾐｻﾄﾏﾁ","kana_address":"ｼﾓｻｶｲ","pref":"宮城県","city":"遠田郡美里町","address":"下境"},
{"zip_code":"9870053","kana_pref":"ﾐﾔｷﾞｹﾝ","kana_city":"ﾄｵﾀﾞｸﾞﾝﾐｻﾄﾏﾁ","kana_address":"ｼｭｸﾉﾏｴ","pref":"宮城県","city":"遠田郡美里町","address":"叔廼前"},
{"zip_code":"9870051","kana_pref":"ﾐﾔｷﾞｹﾝ","kana_city":"ﾄｵﾀﾞｸﾞﾝﾐｻﾄﾏﾁ","kana_address":"ｼﾞｮｳｲｴ","pref":"宮城県","city":"遠田郡美里町","address":"上意江"},
{"zip_code":"9870055","kana_pref":"ﾐﾔｷﾞｹﾝ","kana_city":"ﾄｵﾀﾞｸﾞﾝﾐｻﾄﾏﾁ","kana_address":"ｼﾝｲｯﾎﾟﾝﾔﾅｷﾞ","pref":"宮城県","city":"遠田郡美里町","address":"新一本柳"},
{"zip_code":"9870043","kana_pref":"ﾐﾔｷﾞｹﾝ","kana_city":"ﾄｵﾀﾞｸﾞﾝﾐｻﾄﾏﾁ","kana_address":"ｼﾝｻｲﾉｶﾐ","pref":"宮城県","city":"遠田郡美里町","address":"新妻の神"},
{"zip_code":"9870068","kana_pref":"ﾐﾔｷﾞｹﾝ","kana_city":"ﾄｵﾀﾞｸﾞﾝﾐｻﾄﾏﾁ","kana_address":"ｼﾝﾀﾞｲﾄﾞｺﾛ","pref":"宮城県","city":"遠田郡美里町","address":"新大所"},
{"zip_code":"9870037","kana_pref":"ﾐﾔｷﾞｹﾝ","kana_city":"ﾄｵﾀﾞｸﾞﾝﾐｻﾄﾏﾁ","kana_address":"ｼﾝﾌｼﾞｶﾞｻｷ","pref":"宮城県","city":"遠田郡美里町","address":"新藤ケ崎"},
{"zip_code":"9870052","kana_pref":"ﾐﾔｷﾞｹﾝ","kana_city":"ﾄｵﾀﾞｸﾞﾝﾐｻﾄﾏﾁ","kana_address":"ｽﾅｺﾞﾀﾞ","pref":"宮城県","city":"遠田郡美里町","address":"砂子田"},
{"zip_code":"9870006","kana_pref":"ﾐﾔｷﾞｹﾝ","kana_city":"ﾄｵﾀﾞｸﾞﾝﾐｻﾄﾏﾁ","kana_address":"ｾｷﾈ","pref":"宮城県","city":"遠田郡美里町","address":"関根"},
{"zip_code":"9870013","kana_pref":"ﾐﾔｷﾞｹﾝ","kana_city":"ﾄｵﾀﾞｸﾞﾝﾐｻﾄﾏﾁ","kana_address":"ｿﾔﾏ","pref":"宮城県","city":"遠田郡美里町","address":"素山"},
{"zip_code":"9870012","kana_pref":"ﾐﾔｷﾞｹﾝ","kana_city":"ﾄｵﾀﾞｸﾞﾝﾐｻﾄﾏﾁ","kana_address":"ｿﾔﾏﾁｮｳ","pref":"宮城県","city":"遠田郡美里町","address":"素山町"},
{"zip_code":"9870067","kana_pref":"ﾐﾔｷﾞｹﾝ","kana_city":"ﾄｵﾀﾞｸﾞﾝﾐｻﾄﾏﾁ","kana_address":"ﾀﾞｲﾄﾞｺﾛ","pref":"宮城県","city":"遠田郡美里町","address":"大所"},
{"zip_code":"9870031","kana_pref":"ﾐﾔｷﾞｹﾝ","kana_city":"ﾄｵﾀﾞｸﾞﾝﾐｻﾄﾏﾁ","kana_address":"ﾀｶﾀﾞ","pref":"宮城県","city":"遠田郡美里町","address":"高田"},
{"zip_code":"9870054","kana_pref":"ﾐﾔｷﾞｹﾝ","kana_city":"ﾄｵﾀﾞｸﾞﾝﾐｻﾄﾏﾁ","kana_address":"ﾄｳﾉｺｼ","pref":"宮城県","city":"遠田郡美里町","address":"塔の越"},
{"zip_code":"9870024","kana_pref":"ﾐﾔｷﾞｹﾝ","kana_city":"ﾄｵﾀﾞｸﾞﾝﾐｻﾄﾏﾁ","kana_address":"ﾅｶｿﾞﾈ","pref":"宮城県","city":"遠田郡美里町","address":"中埣"},
{"zip_code":"9870025","kana_pref":"ﾐﾔｷﾞｹﾝ","kana_city":"ﾄｵﾀﾞｸﾞﾝﾐｻﾄﾏﾁ","kana_address":"ﾅｶﾀｶｷﾞ","pref":"宮城県","city":"遠田郡美里町","address":"中高城"},
{"zip_code":"9870024","kana_pref":"ﾐﾔｷﾞｹﾝ","kana_city":"ﾄｵﾀﾞｸﾞﾝﾐｻﾄﾏﾁ","kana_address":"ﾅﾘﾀ","pref":"宮城県","city":"遠田郡美里町","address":"成田"},
{"zip_code":"9870044","kana_pref":"ﾐﾔｷﾞｹﾝ","kana_city":"ﾄｵﾀﾞｸﾞﾝﾐｻﾄﾏﾁ","kana_address":"ﾆｼﾀﾞﾃ","pref":"宮城県","city":"遠田郡美里町","address":"西舘"},
{"zip_code":"9870021","kana_pref":"ﾐﾔｷﾞｹﾝ","kana_city":"ﾄｵﾀﾞｸﾞﾝﾐｻﾄﾏﾁ","kana_address":"ﾋﾗﾊﾞﾘ","pref":"宮城県","city":"遠田郡美里町","address":"平針"},
{"zip_code":"9870001","kana_pref":"ﾐﾔｷﾞｹﾝ","kana_city":"ﾄｵﾀﾞｸﾞﾝﾐｻﾄﾏﾁ","kana_address":"ﾌｼﾞｶﾞｻｷ","pref":"宮城県","city":"遠田郡美里町","address":"藤ケ崎"},
{"zip_code":"9870002","kana_pref":"ﾐﾔｷﾞｹﾝ","kana_city":"ﾄｵﾀﾞｸﾞﾝﾐｻﾄﾏﾁ","kana_address":"ﾌｼﾞｶﾞｻｷﾁｮｳ","pref":"宮城県","city":"遠田郡美里町","address":"藤ケ崎町"},
{"zip_code":"9870066","kana_pref":"ﾐﾔｷﾞｹﾝ","kana_city":"ﾄｵﾀﾞｸﾞﾝﾐｻﾄﾏﾁ","kana_address":"ﾌﾀﾂﾀﾞﾝ","pref":"宮城県","city":"遠田郡美里町","address":"二ツ壇"},
{"zip_code":"9870062","kana_pref":"ﾐﾔｷﾞｹﾝ","kana_city":"ﾄｵﾀﾞｸﾞﾝﾐｻﾄﾏﾁ","kana_address":"ﾏﾁｲ","pref":"宮城県","city":"遠田郡美里町","address":"待井"},
{"zip_code":"9870003","kana_pref":"ﾐﾔｷﾞｹﾝ","kana_city":"ﾄｵﾀﾞｸﾞﾝﾐｻﾄﾏﾁ","kana_address":"ﾐﾅﾐｺｺﾞﾀ","pref":"宮城県","city":"遠田郡美里町","address":"南小牛田"},
{"zip_code":"9870026","kana_pref":"ﾐﾔｷﾞｹﾝ","kana_city":"ﾄｵﾀﾞｸﾞﾝﾐｻﾄﾏﾁ","kana_address":"ﾐﾅﾐﾀｶｷﾞ","pref":"宮城県","city":"遠田郡美里町","address":"南高城"},
{"zip_code":"9870041","kana_pref":"ﾐﾔｷﾞｹﾝ","kana_city":"ﾄｵﾀﾞｸﾞﾝﾐｻﾄﾏﾁ","kana_address":"ﾐﾈﾔﾏ","pref":"宮城県","city":"遠田郡美里町","address":"峯山"},
{"zip_code":"9870042","kana_pref":"ﾐﾔｷﾞｹﾝ","kana_city":"ﾄｵﾀﾞｸﾞﾝﾐｻﾄﾏﾁ","kana_address":"ﾐﾈﾔﾏｳﾗ","pref":"宮城県","city":"遠田郡美里町","address":"峯山浦"},
{"zip_code":"9870046","kana_pref":"ﾐﾔｷﾞｹﾝ","kana_city":"ﾄｵﾀﾞｸﾞﾝﾐｻﾄﾏﾁ","kana_address":"ﾔｸﾃﾞﾝ","pref":"宮城県","city":"遠田郡美里町","address":"役田"}]}