{"zip_code":[
{"zip_code":"9880000","kana_pref":"ﾐﾔｷﾞｹﾝ","kana_city":"ｹｾﾝﾇﾏｼ","kana_address":"","pref":"宮城県","city":"気仙沼市","address":""},
{"zip_code":"9880182","kana_pref":"ﾐﾔｷﾞｹﾝ","kana_city":"ｹｾﾝﾇﾏｼ","kana_address":"ｱｶｲﾜｲｼｶﾌﾞﾄ","pref":"宮城県","city":"気仙沼市","address":"赤岩石兜"},
{"zip_code":"9880105","kana_pref":"ﾐﾔｷﾞｹﾝ","kana_city":"ｹｾﾝﾇﾏｼ","kana_address":"ｱｶｲﾜｵｲﾉﾏﾂ","pref":"宮城県","city":"気仙沼市","address":"赤岩老松"},
{"zip_code":"9880172","kana_pref":"ﾐﾔｷﾞｹﾝ","kana_city":"ｹｾﾝﾇﾏｼ","kana_address":"ｱｶｲﾜｵｵｲｼｸﾗ","pref":"宮城県","city":"気仙沼市","address":"赤岩大石倉"},
{"zip_code":"9880174","kana_pref":"ﾐﾔｷﾞｹﾝ","kana_city":"ｹｾﾝﾇﾏｼ","kana_address":"ｱｶｲﾜｵｵﾀｷ","pref":"宮城県","city":"気仙沼市","address":"赤岩大滝"},
{"zip_code":"9880185","kana_pref":"ﾐﾔｷﾞｹﾝ","kana_city":"ｹｾﾝﾇﾏｼ","kana_address":"ｱｶｲﾜｵﾀﾞ","pref":"宮城県","city":"気仙沼市","address":"赤岩小田"},
{"zip_code":"9880166","kana_pref":"ﾐﾔｷﾞｹﾝ","kana_city":"ｹｾﾝﾇﾏｼ","kana_address":"ｱｶｲﾜｶﾐﾊﾀﾞ","pref":"宮城県","city":"気仙沼市","address":"赤岩上羽田"},
{"zip_code":"9880104","kana_pref":"ﾐﾔｷﾞｹﾝ","kana_city":"ｹｾﾝﾇﾏｼ","kana_address":"ｱｶｲﾜｺﾞﾀﾞﾝﾀﾗ","pref":"宮城県","city":"気仙沼市","address":"赤岩五駄鱈"},
{"zip_code":"9880164","kana_pref":"ﾐﾔｷﾞｹﾝ","kana_city":"ｹｾﾝﾇﾏｼ","kana_address":"ｱｶｲﾜｼｼﾞｭｳﾆ","pref":"宮城県","city":"気仙沼市","address":"赤岩四十二"},
{"zip_code":"9880181","kana_pref":"ﾐﾔｷﾞｹﾝ","kana_city":"ｹｾﾝﾇﾏｼ","kana_address":"ｱｶｲﾜｽｷﾞﾉｻﾜ","pref":"宮城県","city":"気仙沼市","address":"赤岩杉ノ沢"},
{"zip_code":"9880161","kana_pref":"ﾐﾔｷﾞｹﾝ","kana_city":"ｹｾﾝﾇﾏｼ","kana_address":"ｱｶｲﾜﾀｶﾏｴﾀﾞ","pref":"宮城県","city":"気仙沼市","address":"赤岩高前田"},
{"zip_code":"9880101","kana_pref":"ﾐﾔｷﾞｹﾝ","kana_city":"ｹｾﾝﾇﾏｼ","kana_address":"ｱｶｲﾜﾀﾃｼﾀ","pref":"宮城県","city":"気仙沼市","address":"赤岩舘下"},
{"zip_code":"9880102","kana_pref":"ﾐﾔｷﾞｹﾝ","kana_city":"ｹｾﾝﾇﾏｼ","kana_address":"ｱｶｲﾜﾀﾃﾓﾘ","pref":"宮城県","city":"気仙沼市","address":"赤岩舘森"},
{"zip_code":"9880183","kana_pref":"ﾐﾔｷﾞｹﾝ","kana_city":"ｹｾﾝﾇﾏｼ","kana_address":"ｱｶｲﾜﾄﾞﾛﾉｷ","pref":"宮城県","city":"気仙沼市","address":"赤岩泥ノ木"},
{"zip_code":"9880173","kana_pref":"ﾐﾔｷﾞｹﾝ","kana_city":"ｹｾﾝﾇﾏｼ","kana_address":"ｱｶｲﾜﾅｶﾞｼﾊﾞ","pref":"宮城県","city":"気仙沼市","address":"赤岩長柴"},
{"zip_code":"9880167","kana_pref":"ﾐﾔｷﾞｹﾝ","kana_city":"ｹｾﾝﾇﾏｼ","kana_address":"ｱｶｲﾜﾊﾀﾞ","pref":"宮城県","city":"気仙沼市","address":"赤岩羽田"},
{"zip_code":"9880184","kana_pref":"ﾐﾔｷﾞｹﾝ","kana_city":"ｹｾﾝﾇﾏｼ","kana_address":"ｱｶｲﾜﾋﾗｶﾞｲ","pref":"宮城県","city":"気仙沼市","address":"赤岩平貝"},
{"zip_code":"9880162","kana_pref":"ﾐﾔｷﾞｹﾝ","kana_city":"ｹｾﾝﾇﾏｼ","kana_address":"ｱｶｲﾜﾏｴﾀﾞ","pref":"宮城県","city":"気仙沼市","address":"赤岩前田"},
{"zip_code":"9880171","kana_pref":"ﾐﾔｷﾞｹﾝ","kana_city":"ｹｾﾝﾇﾏｼ","kana_address":"ｱｶｲﾜﾏｷｻﾜ","pref":"宮城県","city":"気仙沼市","address":"赤岩牧沢"},
{"zip_code":"9880168","kana_pref":"ﾐﾔｷﾞｹﾝ","kana_city":"ｹｾﾝﾇﾏｼ","kana_address":"ｱｶｲﾜﾐｽﾞﾅｼ","pref":"宮城県","city":"気仙沼市","address":"赤岩水梨子"},
{"zip_code":"9880103","kana_pref":"ﾐﾔｷﾞｹﾝ","kana_city":"ｹｾﾝﾇﾏｼ","kana_address":"ｱｶｲﾜﾐﾅﾄ","pref":"宮城県","city":"気仙沼市","address":"赤岩港"},
{"zip_code":"9880163","kana_pref":"ﾐﾔｷﾞｹﾝ","kana_city":"ｹｾﾝﾇﾏｼ","kana_address":"ｱｶｲﾜﾑｶｴﾏｴﾀﾞ","pref":"宮城県","city":"気仙沼市","address":"赤岩迎前田"},
{"zip_code":"9880165","kana_pref":"ﾐﾔｷﾞｹﾝ","kana_city":"ｹｾﾝﾇﾏｼ","kana_address":"ｱｶｲﾜﾓﾉﾐ","pref":"宮城県","city":"気仙沼市","address":"赤岩物見"},
{"zip_code":"9880075","kana_pref":"ﾐﾔｷﾞｹﾝ","kana_city":"ｹｾﾝﾇﾏｼ","kana_address":"ｱｶｻｶ","pref":"宮城県","city":"気仙沼市","address":"赤坂"},
{"zip_code":"9880062","kana_pref":"ﾐﾔｷﾞｹﾝ","kana_city":"ｹｾﾝﾇﾏｼ","kana_address":"ｱｹﾄﾞ","pref":"宮城県","city":"気仙沼市","address":"明戸"},
{"zip_code":"9880623","kana_pref":"ﾐﾔｷﾞｹﾝ","kana_city":"ｹｾﾝﾇﾏｼ","kana_address":"ｱｻﾈ","pref":"宮城県","city":"気仙沼市","address":"浅根"},
{"zip_code":"9880034","kana_pref":"ﾐﾔｷﾞｹﾝ","kana_city":"ｹｾﾝﾇﾏｼ","kana_address":"ｱｻﾋﾁｮｳ","pref":"宮城県","city":"気仙沼市","address":"朝日町"},
{"zip_code":"9880847","kana_pref":"ﾐﾔｷﾞｹﾝ","kana_city":"ｹｾﾝﾇﾏｼ","kana_address":"ｱﾖｲﾂﾞｷ","pref":"宮城県","city":"気仙沼市","address":"阿霄月"},
{"zip_code":"9880071","kana_pref":"ﾐﾔｷﾞｹﾝ","kana_city":"ｹｾﾝﾇﾏｼ","kana_address":"ｱﾗﾏﾁ","pref":"宮城県","city":"気仙沼市","address":"新町"},
{"zip_code":"9880606","kana_pref":"ﾐﾔｷﾞｹﾝ","kana_city":"ｹｾﾝﾇﾏｼ","kana_address":"ｲｿｸｻ","pref":"宮城県","city":"気仙沼市","address":"磯草"},
{"zip_code":"9880854","kana_pref":"ﾐﾔｷﾞｹﾝ","kana_city":"ｹｾﾝﾇﾏｼ","kana_address":"ｲｿｻﾞﾜ","pref":"宮城県","city":"気仙沼市","address":"磯沢"},
{"zip_code":"9880032","kana_pref":"ﾐﾔｷﾞｹﾝ","kana_city":"ｹｾﾝﾇﾏｼ","kana_address":"ｲｯｹｲｼﾞﾏ","pref":"宮城県","city":"気仙沼市","address":"一景島"},
{"zip_code":"9880083","kana_pref":"ﾐﾔｷﾞｹﾝ","kana_city":"ｹｾﾝﾇﾏｼ","kana_address":"ｲﾘｻﾜ","pref":"宮城県","city":"気仙沼市","address":"入沢"},
{"zip_code":"9880061","kana_pref":"ﾐﾔｷﾞｹﾝ","kana_city":"ｹｾﾝﾇﾏｼ","kana_address":"ｲﾜｶﾞｻｷ","pref":"宮城県","city":"気仙沼市","address":"岩ケ崎"},
{"zip_code":"9880201","kana_pref":"ﾐﾔｷﾞｹﾝ","kana_city":"ｹｾﾝﾇﾏｼ","kana_address":"ｲﾜﾂｷｾﾝｶﾞﾝﾀﾞ","pref":"宮城県","city":"気仙沼市","address":"岩月千岩田"},
{"zip_code":"9880207","kana_pref":"ﾐﾔｷﾞｹﾝ","kana_city":"ｹｾﾝﾇﾏｼ","kana_address":"ｲﾜﾂｷﾀｶﾗｶﾞｻﾜ","pref":"宮城県","city":"気仙沼市","address":"岩月宝ケ沢"},
{"zip_code":"9880202","kana_pref":"ﾐﾔｷﾞｹﾝ","kana_city":"ｹｾﾝﾇﾏｼ","kana_address":"ｲﾜﾂｷﾀﾞｲﾉｻﾜ","pref":"宮城県","city":"気仙沼市","address":"岩月台ノ沢"},
{"zip_code":"9880206","kana_pref":"ﾐﾔｷﾞｹﾝ","kana_city":"ｹｾﾝﾇﾏｼ","kana_address":"ｲﾜﾂｷﾃﾗｻﾜ","pref":"宮城県","city":"気仙沼市","address":"岩月寺沢"},
{"zip_code":"9880204","kana_pref":"ﾐﾔｷﾞｹﾝ","kana_city":"ｹｾﾝﾇﾏｼ","kana_address":"ｲﾜﾂｷﾅｶﾞﾀﾞｲﾗ","pref":"宮城県","city":"気仙沼市","address":"岩月長平"},
{"zip_code":"9880205","kana_pref":"ﾐﾔｷﾞｹﾝ","kana_city":"ｹｾﾝﾇﾏｼ","kana_address":"ｲﾜﾂｷﾎｳｷｻﾜ","pref":"宮城県","city":"気仙沼市","address":"岩月箒沢"},
{"zip_code":"9880203","kana_pref":"ﾐﾔｷﾞｹﾝ","kana_city":"ｹｾﾝﾇﾏｼ","kana_address":"ｲﾜﾂｷﾎｼﾔ","pref":"宮城県","city":"気仙沼市","address":"岩月星谷"},
{"zip_code":"9880037","kana_pref":"ﾐﾔｷﾞｹﾝ","kana_city":"ｹｾﾝﾇﾏｼ","kana_address":"ｳｵｲﾁﾊﾞﾏｴ","pref":"宮城県","city":"気仙沼市","address":"魚市場前"},
{"zip_code":"9880008","kana_pref":"ﾐﾔｷﾞｹﾝ","kana_city":"ｹｾﾝﾇﾏｼ","kana_address":"ｳｵﾊﾏﾁｮｳ","pref":"宮城県","city":"気仙沼市","address":"魚浜町"},
{"zip_code":"9880065","kana_pref":"ﾐﾔｷﾞｹﾝ","kana_city":"ｹｾﾝﾇﾏｼ","kana_address":"ｳｼﾛｸｼﾞｮｳ","pref":"宮城県","city":"気仙沼市","address":"後九条"},
{"zip_code":"9880866","kana_pref":"ﾐﾔｷﾞｹﾝ","kana_city":"ｹｾﾝﾇﾏｼ","kana_address":"ｳﾁﾏﾂｶﾜ","pref":"宮城県","city":"気仙沼市","address":"内松川"},
{"zip_code":"9880605","kana_pref":"ﾐﾔｷﾞｹﾝ","kana_city":"ｹｾﾝﾇﾏｼ","kana_address":"ｳﾗﾉﾊﾏ","pref":"宮城県","city":"気仙沼市","address":"浦の浜"},
{"zip_code":"9880812","kana_pref":"ﾐﾔｷﾞｹﾝ","kana_city":"ｹｾﾝﾇﾏｼ","kana_address":"ｵｵｲﾜｲﾔﾏ","pref":"宮城県","city":"気仙沼市","address":"大岩井山"},
{"zip_code":"9880814","kana_pref":"ﾐﾔｷﾞｹﾝ","kana_city":"ｹｾﾝﾇﾏｼ","kana_address":"ｵｵｳﾗ","pref":"宮城県","city":"気仙沼市","address":"大浦"},
{"zip_code":"9880082","kana_pref":"ﾐﾔｷﾞｹﾝ","kana_city":"ｹｾﾝﾇﾏｼ","kana_address":"ｵｵﾀ","pref":"宮城県","city":"気仙沼市","address":"太田"},
{"zip_code":"9880812","kana_pref":"ﾐﾔｷﾞｹﾝ","kana_city":"ｹｾﾝﾇﾏｼ","kana_address":"ｵｵﾄｳｹﾞﾔﾏ","pref":"宮城県","city":"気仙沼市","address":"大峠山"},
{"zip_code":"9880602","kana_pref":"ﾐﾔｷﾞｹﾝ","kana_city":"ｹｾﾝﾇﾏｼ","kana_address":"ｵｵﾊﾂﾀﾞｲﾗ","pref":"宮城県","city":"気仙沼市","address":"大初平"},
{"zip_code":"9880821","kana_pref":"ﾐﾔｷﾞｹﾝ","kana_city":"ｹｾﾝﾇﾏｼ","kana_address":"ｵｵﾊﾞﾔｼ","pref":"宮城県","city":"気仙沼市","address":"大林"},
{"zip_code":"9880612","kana_pref":"ﾐﾔｷﾞｹﾝ","kana_city":"ｹｾﾝﾇﾏｼ","kana_address":"ｵｵﾑｶｲ","pref":"宮城県","city":"気仙沼市","address":"大向"},
{"zip_code":"9880843","kana_pref":"ﾐﾔｷﾞｹﾝ","kana_city":"ｹｾﾝﾇﾏｼ","kana_address":"ｵﾁｱｲ","pref":"宮城県","city":"気仙沼市","address":"落合"},
{"zip_code":"9880862","kana_pref":"ﾐﾔｷﾞｹﾝ","kana_city":"ｹｾﾝﾇﾏｼ","kana_address":"ｶｸｼﾞ","pref":"宮城県","city":"気仙沼市","address":"角地"},
{"zip_code":"9880014","kana_pref":"ﾐﾔｷﾞｹﾝ","kana_city":"ｹｾﾝﾇﾏｼ","kana_address":"ｶｼｻﾞｷ","pref":"宮城県","city":"気仙沼市","address":"柏崎"},
{"zip_code":"9880837","kana_pref":"ﾐﾔｷﾞｹﾝ","kana_city":"ｹｾﾝﾇﾏｼ","kana_address":"ｶﾉｸﾗ","pref":"宮城県","city":"気仙沼市","address":"鹿ノ倉"},
{"zip_code":"9880056","kana_pref":"ﾐﾔｷﾞｹﾝ","kana_city":"ｹｾﾝﾇﾏｼ","kana_address":"ｶﾐﾀﾅｶ","pref":"宮城県","city":"気仙沼市","address":"上田中"},
{"zip_code":"9880803","kana_pref":"ﾐﾔｷﾞｹﾝ","kana_city":"ｹｾﾝﾇﾏｼ","kana_address":"ｶﾐﾋｶﾞｼｶﾞﾜ","pref":"宮城県","city":"気仙沼市","address":"上東側"},
{"zip_code":"9880806","kana_pref":"ﾐﾔｷﾞｹﾝ","kana_city":"ｹｾﾝﾇﾏｼ","kana_address":"ｶﾐﾆｼｶﾞﾜ","pref":"宮城県","city":"気仙沼市","address":"上西側"},
{"zip_code":"9880801","kana_pref":"ﾐﾔｷﾞｹﾝ","kana_city":"ｹｾﾝﾇﾏｼ","kana_address":"ｶﾐﾋｶﾞｼｶﾞﾜﾈ","pref":"宮城県","city":"気仙沼市","address":"上東側根"},
{"zip_code":"9880044","kana_pref":"ﾐﾔｷﾞｹﾝ","kana_city":"ｹｾﾝﾇﾏｼ","kana_address":"ｶﾐﾔﾏ","pref":"宮城県","city":"気仙沼市","address":"神山"},
{"zip_code":"9880607","kana_pref":"ﾐﾔｷﾞｹﾝ","kana_city":"ｹｾﾝﾇﾏｼ","kana_address":"ｶﾒﾔﾏ","pref":"宮城県","city":"気仙沼市","address":"亀山"},
{"zip_code":"9880533","kana_pref":"ﾐﾔｷﾞｹﾝ","kana_city":"ｹｾﾝﾇﾏｼ","kana_address":"ｶﾗｸﾜﾁｮｳｱｹﾄﾞ","pref":"宮城県","city":"気仙沼市","address":"唐桑町明戸"},
{"zip_code":"9880503","kana_pref":"ﾐﾔｷﾞｹﾝ","kana_city":"ｹｾﾝﾇﾏｼ","kana_address":"ｶﾗｸﾜﾁｮｳｱﾗﾔﾏｴ","pref":"宮城県","city":"気仙沼市","address":"唐桑町荒谷前"},
{"zip_code":"9880532","kana_pref":"ﾐﾔｷﾞｹﾝ","kana_city":"ｹｾﾝﾇﾏｼ","kana_address":"ｶﾗｸﾜﾁｮｳｲｼﾊﾏ","pref":"宮城県","city":"気仙沼市","address":"唐桑町石浜"},
{"zip_code":"9880512","kana_pref":"ﾐﾔｷﾞｹﾝ","kana_city":"ｹｾﾝﾇﾏｼ","kana_address":"ｶﾗｸﾜﾁｮｳｲﾜｲｻﾜ","pref":"宮城県","city":"気仙沼市","address":"唐桑町岩井沢"},
{"zip_code":"9880581","kana_pref":"ﾐﾔｷﾞｹﾝ","kana_city":"ｹｾﾝﾇﾏｼ","kana_address":"ｶﾗｸﾜﾁｮｳｳﾗ","pref":"宮城県","city":"気仙沼市","address":"唐桑町浦"},
{"zip_code":"9880521","kana_pref":"ﾐﾔｷﾞｹﾝ","kana_city":"ｹｾﾝﾇﾏｼ","kana_address":"ｶﾗｸﾜﾁｮｳｵｵﾊﾀ","pref":"宮城県","city":"気仙沼市","address":"唐桑町大畑"},
{"zip_code":"9880544","kana_pref":"ﾐﾔｷﾞｹﾝ","kana_city":"ｹｾﾝﾇﾏｼ","kana_address":"ｶﾗｸﾜﾁｮｳｶｹﾊﾏ","pref":"宮城県","city":"気仙沼市","address":"唐桑町欠浜"},
{"zip_code":"9880501","kana_pref":"ﾐﾔｷﾞｹﾝ","kana_city":"ｹｾﾝﾇﾏｼ","kana_address":"ｶﾗｸﾜﾁｮｳｶﾏｲｼｼﾀ","pref":"宮城県","city":"気仙沼市","address":"唐桑町釜石下"},
{"zip_code":"9880522","kana_pref":"ﾐﾔｷﾞｹﾝ","kana_city":"ｹｾﾝﾇﾏｼ","kana_address":"ｶﾗｸﾜﾁｮｳｶﾐｶﾜﾗ","pref":"宮城県","city":"気仙沼市","address":"唐桑町上川原"},
{"zip_code":"9880562","kana_pref":"ﾐﾔｷﾞｹﾝ","kana_city":"ｹｾﾝﾇﾏｼ","kana_address":"ｶﾗｸﾜﾁｮｳｶﾐｺｻﾊﾞ","pref":"宮城県","city":"気仙沼市","address":"唐桑町上小鯖"},
{"zip_code":"9880572","kana_pref":"ﾐﾔｷﾞｹﾝ","kana_city":"ｹｾﾝﾇﾏｼ","kana_address":"ｶﾗｸﾜﾁｮｳｶﾐｼﾋﾞﾀﾁ","pref":"宮城県","city":"気仙沼市","address":"唐桑町上鮪立"},
{"zip_code":"9880553","kana_pref":"ﾐﾔｷﾞｹﾝ","kana_city":"ｹｾﾝﾇﾏｼ","kana_address":"ｶﾗｸﾜﾁｮｳｶﾝﾉｸﾗ","pref":"宮城県","city":"気仙沼市","address":"唐桑町神の倉"},
{"zip_code":"9880541","kana_pref":"ﾐﾔｷﾞｹﾝ","kana_city":"ｹｾﾝﾇﾏｼ","kana_address":"ｶﾗｸﾜﾁｮｳｷﾀﾅｶ","pref":"宮城県","city":"気仙沼市","address":"唐桑町北中"},
{"zip_code":"9880561","kana_pref":"ﾐﾔｷﾞｹﾝ","kana_city":"ｹｾﾝﾇﾏｼ","kana_address":"ｶﾗｸﾜﾁｮｳｺｻﾊﾞ","pref":"宮城県","city":"気仙沼市","address":"唐桑町小鯖"},
{"zip_code":"9880514","kana_pref":"ﾐﾔｷﾞｹﾝ","kana_city":"ｹｾﾝﾇﾏｼ","kana_address":"ｶﾗｸﾜﾁｮｳｺﾀﾞ","pref":"宮城県","city":"気仙沼市","address":"唐桑町小田"},
{"zip_code":"9880543","kana_pref":"ﾐﾔｷﾞｹﾝ","kana_city":"ｹｾﾝﾇﾏｼ","kana_address":"ｶﾗｸﾜﾁｮｳｺﾅｶﾞﾈ","pref":"宮城県","city":"気仙沼市","address":"唐桑町小長根"},
{"zip_code":"9880523","kana_pref":"ﾐﾔｷﾞｹﾝ","kana_city":"ｹｾﾝﾇﾏｼ","kana_address":"ｶﾗｸﾜﾁｮｳｻｶｲ","pref":"宮城県","city":"気仙沼市","address":"唐桑町境"},
{"zip_code":"9880554","kana_pref":"ﾐﾔｷﾞｹﾝ","kana_city":"ｹｾﾝﾇﾏｼ","kana_address":"ｶﾗｸﾜﾁｮｳｻｷﾊﾏ","pref":"宮城県","city":"気仙沼市","address":"唐桑町崎浜"},
{"zip_code":"9880571","kana_pref":"ﾐﾔｷﾞｹﾝ","kana_city":"ｹｾﾝﾇﾏｼ","kana_address":"ｶﾗｸﾜﾁｮｳｼﾋﾞﾀﾁ","pref":"宮城県","city":"気仙沼市","address":"唐桑町鮪立"},
{"zip_code":"9880534","kana_pref":"ﾐﾔｷﾞｹﾝ","kana_city":"ｹｾﾝﾇﾏｼ","kana_address":"ｶﾗｸﾜﾁｮｳｼｭｸｳﾗ","pref":"宮城県","city":"気仙沼市","address":"唐桑町宿浦"},
{"zip_code":"9880502","kana_pref":"ﾐﾔｷﾞｹﾝ","kana_city":"ｹｾﾝﾇﾏｼ","kana_address":"ｶﾗｸﾜﾁｮｳﾀﾞｲﾉｼﾀ","pref":"宮城県","city":"気仙沼市","address":"唐桑町台の下"},
{"zip_code":"9880531","kana_pref":"ﾐﾔｷﾞｹﾝ","kana_city":"ｹｾﾝﾇﾏｼ","kana_address":"ｶﾗｸﾜﾁｮｳﾀｶｲｼﾊﾏ","pref":"宮城県","city":"気仙沼市","address":"唐桑町高石浜"},
{"zip_code":"9880504","kana_pref":"ﾐﾔｷﾞｹﾝ","kana_city":"ｹｾﾝﾇﾏｼ","kana_address":"ｶﾗｸﾜﾁｮｳﾀｹﾉｿﾃﾞ","pref":"宮城県","city":"気仙沼市","address":"唐桑町竹の袖"},
{"zip_code":"9880524","kana_pref":"ﾐﾔｷﾞｹﾝ","kana_city":"ｹｾﾝﾇﾏｼ","kana_address":"ｶﾗｸﾜﾁｮｳﾀﾀﾞｺｼ","pref":"宮城県","city":"気仙沼市","address":"唐桑町只越"},
{"zip_code":"9880526","kana_pref":"ﾐﾔｷﾞｹﾝ","kana_city":"ｹｾﾝﾇﾏｼ","kana_address":"ｶﾗｸﾜﾁｮｳﾀﾀﾞｺｼ","pref":"宮城県","city":"気仙沼市","address":"唐桑町唯越"},
{"zip_code":"9880511","kana_pref":"ﾐﾔｷﾞｹﾝ","kana_city":"ｹｾﾝﾇﾏｼ","kana_address":"ｶﾗｸﾜﾁｮｳﾀﾃ","pref":"宮城県","city":"気仙沼市","address":"唐桑町舘"},
{"zip_code":"9880552","kana_pref":"ﾐﾔｷﾞｹﾝ","kana_city":"ｹｾﾝﾇﾏｼ","kana_address":"ｶﾗｸﾜﾁｮｳﾂﾓﾄ","pref":"宮城県","city":"気仙沼市","address":"唐桑町津本"},
{"zip_code":"9880506","kana_pref":"ﾐﾔｷﾞｹﾝ","kana_city":"ｹｾﾝﾇﾏｼ","kana_address":"ｶﾗｸﾜﾁｮｳﾃﾞﾔﾏ","pref":"宮城県","city":"気仙沼市","address":"唐桑町出山"},
{"zip_code":"9880525","kana_pref":"ﾐﾔｷﾞｹﾝ","kana_city":"ｹｾﾝﾇﾏｼ","kana_address":"ｶﾗｸﾜﾁｮｳﾄﾞｳｶｸ","pref":"宮城県","city":"気仙沼市","address":"唐桑町堂角"},
{"zip_code":"9880542","kana_pref":"ﾐﾔｷﾞｹﾝ","kana_city":"ｹｾﾝﾇﾏｼ","kana_address":"ｶﾗｸﾜﾁｮｳﾅｶ","pref":"宮城県","city":"気仙沼市","address":"唐桑町中"},
{"zip_code":"9880563","kana_pref":"ﾐﾔｷﾞｹﾝ","kana_city":"ｹｾﾝﾇﾏｼ","kana_address":"ｶﾗｸﾜﾁｮｳﾅｶｲ","pref":"宮城県","city":"気仙沼市","address":"唐桑町中井"},
{"zip_code":"9880927","kana_pref":"ﾐﾔｷﾞｹﾝ","kana_city":"ｹｾﾝﾇﾏｼ","kana_address":"ｶﾗｸﾜﾁｮｳﾆｼﾓｳﾈ","pref":"宮城県","city":"気仙沼市","address":"唐桑町西舞根"},
{"zip_code":"9880527","kana_pref":"ﾐﾔｷﾞｹﾝ","kana_city":"ｹｾﾝﾇﾏｼ","kana_address":"ｶﾗｸﾜﾁｮｳﾆｼﾓｳﾈ","pref":"宮城県","city":"気仙沼市","address":"唐桑町西舞根"},
{"zip_code":"9880513","kana_pref":"ﾐﾔｷﾞｹﾝ","kana_city":"ｹｾﾝﾇﾏｼ","kana_address":"ｶﾗｸﾜﾁｮｳﾉｾｶｷﾞ","pref":"宮城県","city":"気仙沼市","address":"唐桑町載鈎"},
{"zip_code":"9880535","kana_pref":"ﾐﾔｷﾞｹﾝ","kana_city":"ｹｾﾝﾇﾏｼ","kana_address":"ｶﾗｸﾜﾁｮｳﾊﾞﾊﾞ","pref":"宮城県","city":"気仙沼市","address":"唐桑町馬場"},
{"zip_code":"9880582","kana_pref":"ﾐﾔｷﾞｹﾝ","kana_city":"ｹｾﾝﾇﾏｼ","kana_address":"ｶﾗｸﾜﾁｮｳﾋｶﾞｼﾓｳﾈ","pref":"宮城県","city":"気仙沼市","address":"唐桑町東舞根"},
{"zip_code":"9880551","kana_pref":"ﾐﾔｷﾞｹﾝ","kana_city":"ｹｾﾝﾇﾏｼ","kana_address":"ｶﾗｸﾜﾁｮｳﾏﾂﾊﾞﾀｹ","pref":"宮城県","city":"気仙沼市","address":"唐桑町松圃"},
{"zip_code":"9880505","kana_pref":"ﾐﾔｷﾞｹﾝ","kana_city":"ｹｾﾝﾇﾏｼ","kana_address":"ｶﾗｸﾜﾁｮｳﾐﾅﾄ","pref":"宮城県","city":"気仙沼市","address":"唐桑町港"},
{"zip_code":"9880834","kana_pref":"ﾐﾔｷﾞｹﾝ","kana_city":"ｹｾﾝﾇﾏｼ","kana_address":"ｶﾜｶﾐ","pref":"宮城県","city":"気仙沼市","address":"川上"},
{"zip_code":"9880033","kana_pref":"ﾐﾔｷﾞｹﾝ","kana_city":"ｹｾﾝﾇﾏｼ","kana_address":"ｶﾜｸﾞﾁﾁｮｳ","pref":"宮城県","city":"気仙沼市","address":"川口町"},
{"zip_code":"9880846","kana_pref":"ﾐﾔｷﾞｹﾝ","kana_city":"ｹｾﾝﾇﾏｼ","kana_address":"ｶﾜｻｷｼﾞﾘ","pref":"宮城県","city":"気仙沼市","address":"川崎尻"},
{"zip_code":"9880041","kana_pref":"ﾐﾔｷﾞｹﾝ","kana_city":"ｹｾﾝﾇﾏｼ","kana_address":"ｶﾜﾊﾞﾀ","pref":"宮城県","city":"気仙沼市","address":"川畑"},
{"zip_code":"9880824","kana_pref":"ﾐﾔｷﾞｹﾝ","kana_city":"ｹｾﾝﾇﾏｼ","kana_address":"ｶﾜﾗｻﾞｷ","pref":"宮城県","city":"気仙沼市","address":"川原崎"},
{"zip_code":"9880022","kana_pref":"ﾐﾔｷﾞｹﾝ","kana_city":"ｹｾﾝﾇﾏｼ","kana_address":"ｶﾜﾗﾀﾞ","pref":"宮城県","city":"気仙沼市","address":"河原田"},
{"zip_code":"9880831","kana_pref":"ﾐﾔｷﾞｹﾝ","kana_city":"ｹｾﾝﾇﾏｼ","kana_address":"ｶﾝﾅﾘｻﾜ","pref":"宮城県","city":"気仙沼市","address":"金成沢"},
{"zip_code":"9880822","kana_pref":"ﾐﾔｷﾞｹﾝ","kana_city":"ｹｾﾝﾇﾏｼ","kana_address":"ｷﾘﾄﾞｵｼ","pref":"宮城県","city":"気仙沼市","address":"切通"},
{"zip_code":"9880064","kana_pref":"ﾐﾔｷﾞｹﾝ","kana_city":"ｹｾﾝﾇﾏｼ","kana_address":"ｸｼﾞｮｳ","pref":"宮城県","city":"気仙沼市","address":"九条"},
{"zip_code":"9880842","kana_pref":"ﾐﾔｷﾞｹﾝ","kana_city":"ｹｾﾝﾇﾏｼ","kana_address":"ｸﾎﾞ","pref":"宮城県","city":"気仙沼市","address":"久保"},
{"zip_code":"9880081","kana_pref":"ﾐﾔｷﾞｹﾝ","kana_city":"ｹｾﾝﾇﾏｼ","kana_address":"ｸﾗｿｺ","pref":"宮城県","city":"気仙沼市","address":"蔵底"},
{"zip_code":"9880868","kana_pref":"ﾐﾔｷﾞｹﾝ","kana_city":"ｹｾﾝﾇﾏｼ","kana_address":"ｸﾛｲｼﾔﾏ","pref":"宮城県","city":"気仙沼市","address":"黒石山"},
{"zip_code":"9880863","kana_pref":"ﾐﾔｷﾞｹﾝ","kana_city":"ｹｾﾝﾇﾏｼ","kana_address":"ｸﾛｻﾜ","pref":"宮城県","city":"気仙沼市","address":"黒沢"},
{"zip_code":"9880072","kana_pref":"ﾐﾔｷﾞｹﾝ","kana_city":"ｹｾﾝﾇﾏｼ","kana_address":"ｹｼｮｳｻﾞｶ","pref":"宮城県","city":"気仙沼市","address":"化粧坂"},
{"zip_code":"9880836","kana_pref":"ﾐﾔｷﾞｹﾝ","kana_city":"ｹｾﾝﾇﾏｼ","kana_address":"ｺｱｼ","pref":"宮城県","city":"気仙沼市","address":"小芦"},
{"zip_code":"9880815","kana_pref":"ﾐﾔｷﾞｹﾝ","kana_city":"ｹｾﾝﾇﾏｼ","kana_address":"ｺｺﾞｼｵ","pref":"宮城県","city":"気仙沼市","address":"小々汐"},
{"zip_code":"9880832","kana_pref":"ﾐﾔｷﾞｹﾝ","kana_city":"ｹｾﾝﾇﾏｼ","kana_address":"ｺﾌﾞﾂｷ","pref":"宮城県","city":"気仙沼市","address":"瘻槻"},
{"zip_code":"9880633","kana_pref":"ﾐﾔｷﾞｹﾝ","kana_city":"ｹｾﾝﾇﾏｼ","kana_address":"ｺﾏｶﾞﾀ","pref":"宮城県","city":"気仙沼市","address":"駒形"},
{"zip_code":"9880054","kana_pref":"ﾐﾔｷﾞｹﾝ","kana_city":"ｹｾﾝﾇﾏｼ","kana_address":"ｺﾏﾊﾞ","pref":"宮城県","city":"気仙沼市","address":"駒場"},
{"zip_code":"9880214","kana_pref":"ﾐﾔｷﾞｹﾝ","kana_city":"ｹｾﾝﾇﾏｼ","kana_address":"ｻｲﾁｱﾗｻﾜ","pref":"宮城県","city":"気仙沼市","address":"最知荒沢"},
{"zip_code":"9880211","kana_pref":"ﾐﾔｷﾞｹﾝ","kana_city":"ｹｾﾝﾇﾏｼ","kana_address":"ｻｲﾁｶﾜﾗ","pref":"宮城県","city":"気仙沼市","address":"最知川原"},
{"zip_code":"9880215","kana_pref":"ﾐﾔｷﾞｹﾝ","kana_city":"ｹｾﾝﾇﾏｼ","kana_address":"ｻｲﾁｷﾀｻｲﾁ","pref":"宮城県","city":"気仙沼市","address":"最知北最知"},
{"zip_code":"9880213","kana_pref":"ﾐﾔｷﾞｹﾝ","kana_city":"ｹｾﾝﾇﾏｼ","kana_address":"ｻｲﾁﾐﾅﾐｻｲﾁ","pref":"宮城県","city":"気仙沼市","address":"最知南最知"},
{"zip_code":"9880212","kana_pref":"ﾐﾔｷﾞｹﾝ","kana_city":"ｹｾﾝﾇﾏｼ","kana_address":"ｻｲﾁﾓﾘｱｲ","pref":"宮城県","city":"気仙沼市","address":"最知森合"},
{"zip_code":"9880026","kana_pref":"ﾐﾔｷﾞｹﾝ","kana_city":"ｹｾﾝﾇﾏｼ","kana_address":"ｻｲﾜｲﾁｮｳ","pref":"宮城県","city":"気仙沼市","address":"幸町"},
{"zip_code":"9880012","kana_pref":"ﾐﾔｷﾞｹﾝ","kana_city":"ｹｾﾝﾇﾏｼ","kana_address":"ｻｶｴﾁｮｳ","pref":"宮城県","city":"気仙沼市","address":"栄町"},
{"zip_code":"9880013","kana_pref":"ﾐﾔｷﾞｹﾝ","kana_city":"ｹｾﾝﾇﾏｼ","kana_address":"ｻｶﾅﾏﾁ","pref":"宮城県","city":"気仙沼市","address":"魚町"},
{"zip_code":"9880073","kana_pref":"ﾐﾔｷﾞｹﾝ","kana_city":"ｹｾﾝﾇﾏｼ","kana_address":"ｻｻｶﾞｼﾞﾝ","pref":"宮城県","city":"気仙沼市","address":"笹が陣"},
{"zip_code":"9880016","kana_pref":"ﾐﾔｷﾞｹﾝ","kana_city":"ｹｾﾝﾇﾏｼ","kana_address":"ｻﾜﾀﾞ","pref":"宮城県","city":"気仙沼市","address":"沢田"},
{"zip_code":"9880818","kana_pref":"ﾐﾔｷﾞｹﾝ","kana_city":"ｹｾﾝﾇﾏｼ","kana_address":"ｻﾝﾉﾊﾏ","pref":"宮城県","city":"気仙沼市","address":"三ノ浜"},
{"zip_code":"9880031","kana_pref":"ﾐﾔｷﾞｹﾝ","kana_city":"ｹｾﾝﾇﾏｼ","kana_address":"ｼｵﾐﾁｮｳ","pref":"宮城県","city":"気仙沼市","address":"潮見町"},
{"zip_code":"9880063","kana_pref":"ﾐﾔｷﾞｹﾝ","kana_city":"ｹｾﾝﾇﾏｼ","kana_address":"ｼﾀﾝﾀﾞ","pref":"宮城県","city":"気仙沼市","address":"四反田"},
{"zip_code":"9880828","kana_pref":"ﾐﾔｷﾞｹﾝ","kana_city":"ｹｾﾝﾇﾏｼ","kana_address":"ｼﾓｼﾝﾃﾞﾝ","pref":"宮城県","city":"気仙沼市","address":"下新田"},
{"zip_code":"9880851","kana_pref":"ﾐﾔｷﾞｹﾝ","kana_city":"ｹｾﾝﾇﾏｼ","kana_address":"ｼﾓﾔﾂｾ","pref":"宮城県","city":"気仙沼市","address":"下八瀬"},
{"zip_code":"9880051","kana_pref":"ﾐﾔｷﾞｹﾝ","kana_city":"ｹｾﾝﾇﾏｼ","kana_address":"ｼﾞｮｳﾗｸ","pref":"宮城県","city":"気仙沼市","address":"常楽"},
{"zip_code":"9880807","kana_pref":"ﾐﾔｷﾞｹﾝ","kana_city":"ｹｾﾝﾇﾏｼ","kana_address":"ｼﾗｲｼ","pref":"宮城県","city":"気仙沼市","address":"白石"},
{"zip_code":"9880868","kana_pref":"ﾐﾔｷﾞｹﾝ","kana_city":"ｹｾﾝﾇﾏｼ","kana_address":"ｼﾝｾｷﾈ","pref":"宮城県","city":"気仙沼市","address":"新関根"},
{"zip_code":"9880867","kana_pref":"ﾐﾔｷﾞｹﾝ","kana_city":"ｹｾﾝﾇﾏｼ","kana_address":"ｼﾝﾀﾞｲ","pref":"宮城県","city":"気仙沼市","address":"新台"},
{"zip_code":"9880829","kana_pref":"ﾐﾔｷﾞｹﾝ","kana_city":"ｹｾﾝﾇﾏｼ","kana_address":"ｼﾝﾃﾞﾝ","pref":"宮城県","city":"気仙沼市","address":"新田"},
{"zip_code":"9880005","kana_pref":"ﾐﾔｷﾞｹﾝ","kana_city":"ｹｾﾝﾇﾏｼ","kana_address":"ｼﾝﾊﾏﾁｮｳ","pref":"宮城県","city":"気仙沼市","address":"新浜町"},
{"zip_code":"9880011","kana_pref":"ﾐﾔｷﾞｹﾝ","kana_city":"ｹｾﾝﾇﾏｼ","kana_address":"ｼﾞﾝﾔﾏ","pref":"宮城県","city":"気仙沼市","address":"陣山"},
{"zip_code":"9880865","kana_pref":"ﾐﾔｷﾞｹﾝ","kana_city":"ｹｾﾝﾇﾏｼ","kana_address":"ｼﾝﾜｾﾔ","pref":"宮城県","city":"気仙沼市","address":"新早稲谷"},
{"zip_code":"9880868","kana_pref":"ﾐﾔｷﾞｹﾝ","kana_city":"ｹｾﾝﾇﾏｼ","kana_address":"ｾｷﾈ","pref":"宮城県","city":"気仙沼市","address":"関根"},
{"zip_code":"9880844","kana_pref":"ﾐﾔｷﾞｹﾝ","kana_city":"ｹｾﾝﾇﾏｼ","kana_address":"ｿﾞｳｶﾞﾊﾅ","pref":"宮城県","city":"気仙沼市","address":"象ケ鼻"},
{"zip_code":"9880603","kana_pref":"ﾐﾔｷﾞｹﾝ","kana_city":"ｹｾﾝﾇﾏｼ","kana_address":"ｿﾄﾊﾞﾀｹ","pref":"宮城県","city":"気仙沼市","address":"外畑"},
{"zip_code":"9880601","kana_pref":"ﾐﾔｷﾞｹﾝ","kana_city":"ｹｾﾝﾇﾏｼ","kana_address":"ｿﾄﾊﾏ","pref":"宮城県","city":"気仙沼市","address":"外浜"},
{"zip_code":"9880055","kana_pref":"ﾐﾔｷﾞｹﾝ","kana_city":"ｹｾﾝﾇﾏｼ","kana_address":"ｿﾘﾏﾂ","pref":"宮城県","city":"気仙沼市","address":"反松"},
{"zip_code":"9880867","kana_pref":"ﾐﾔｷﾞｹﾝ","kana_city":"ｹｾﾝﾇﾏｼ","kana_address":"ﾀﾞｲ","pref":"宮城県","city":"気仙沼市","address":"台"},
{"zip_code":"9880613","kana_pref":"ﾐﾔｷﾞｹﾝ","kana_city":"ｹｾﾝﾇﾏｼ","kana_address":"ﾀｶｲ","pref":"宮城県","city":"気仙沼市","address":"高井"},
{"zip_code":"9880802","kana_pref":"ﾐﾔｷﾞｹﾝ","kana_city":"ｹｾﾝﾇﾏｼ","kana_address":"ﾀｶﾊﾝｷﾞｮｳﾔﾏ","pref":"宮城県","city":"気仙沼市","address":"高判形山"},
{"zip_code":"9880087","kana_pref":"ﾐﾔｷﾞｹﾝ","kana_city":"ｹｾﾝﾇﾏｼ","kana_address":"ﾀｷﾉｲﾘ","pref":"宮城県","city":"気仙沼市","address":"滝の入"},
{"zip_code":"9880611","kana_pref":"ﾐﾔｷﾞｹﾝ","kana_city":"ｹｾﾝﾇﾏｼ","kana_address":"ﾀｼﾞﾘ","pref":"宮城県","city":"気仙沼市","address":"田尻"},
{"zip_code":"9880825","kana_pref":"ﾐﾔｷﾞｹﾝ","kana_city":"ｹｾﾝﾇﾏｼ","kana_address":"ﾀｼﾞﾘｻﾞﾜ","pref":"宮城県","city":"気仙沼市","address":"田尻沢"},
{"zip_code":"9880076","kana_pref":"ﾐﾔｷﾞｹﾝ","kana_city":"ｹｾﾝﾇﾏｼ","kana_address":"ﾀﾃﾔﾏ","pref":"宮城県","city":"気仙沼市","address":"舘山"},
{"zip_code":"9880052","kana_pref":"ﾐﾔｷﾞｹﾝ","kana_city":"ｹｾﾝﾇﾏｼ","kana_address":"ﾀﾅｶ","pref":"宮城県","city":"気仙沼市","address":"田中"},
{"zip_code":"9880058","kana_pref":"ﾐﾔｷﾞｹﾝ","kana_city":"ｹｾﾝﾇﾏｼ","kana_address":"ﾀﾅｶｵｷ","pref":"宮城県","city":"気仙沼市","address":"田中沖"},
{"zip_code":"9880053","kana_pref":"ﾐﾔｷﾞｹﾝ","kana_city":"ｹｾﾝﾇﾏｼ","kana_address":"ﾀﾅｶﾏｴ","pref":"宮城県","city":"気仙沼市","address":"田中前"},
{"zip_code":"9880045","kana_pref":"ﾐﾔｷﾞｹﾝ","kana_city":"ｹｾﾝﾇﾏｼ","kana_address":"ﾀﾔ","pref":"宮城県","city":"気仙沼市","address":"田谷"},
{"zip_code":"9880046","kana_pref":"ﾐﾔｷﾞｹﾝ","kana_city":"ｹｾﾝﾇﾏｼ","kana_address":"ﾀﾔﾏｴ","pref":"宮城県","city":"気仙沼市","address":"田谷前"},
{"zip_code":"9880864","kana_pref":"ﾐﾔｷﾞｹﾝ","kana_city":"ｹｾﾝﾇﾏｼ","kana_address":"ﾂｶｻﾞﾜ","pref":"宮城県","city":"気仙沼市","address":"塚沢"},
{"zip_code":"9880826","kana_pref":"ﾐﾔｷﾞｹﾝ","kana_city":"ｹｾﾝﾇﾏｼ","kana_address":"ﾄﾞｳﾒｷ","pref":"宮城県","city":"気仙沼市","address":"百目木"},
{"zip_code":"9880057","kana_pref":"ﾐﾔｷﾞｹﾝ","kana_city":"ｹｾﾝﾇﾏｼ","kana_address":"ﾄｺﾛｻﾞﾜ","pref":"宮城県","city":"気仙沼市","address":"所沢"},
{"zip_code":"9880025","kana_pref":"ﾐﾔｷﾞｹﾝ","kana_city":"ｹｾﾝﾇﾏｼ","kana_address":"ﾅｲﾉﾜｷ","pref":"宮城県","city":"気仙沼市","address":"内ノ脇"},
{"zip_code":"9880237","kana_pref":"ﾐﾔｷﾞｹﾝ","kana_city":"ｹｾﾝﾇﾏｼ","kana_address":"ﾅｶﾞｲｿｱｶｶﾞｲ","pref":"宮城県","city":"気仙沼市","address":"長磯赤貝"},
{"zip_code":"9880226","kana_pref":"ﾐﾔｷﾞｹﾝ","kana_city":"ｹｾﾝﾇﾏｼ","kana_address":"ﾅｶﾞｲｿｳｼﾛｻﾞﾜ","pref":"宮城県","city":"気仙沼市","address":"長磯後沢"},
{"zip_code":"9880225","kana_pref":"ﾐﾔｷﾞｹﾝ","kana_city":"ｹｾﾝﾇﾏｼ","kana_address":"ﾅｶﾞｲｿｵｵｸﾎﾞ","pref":"宮城県","city":"気仙沼市","address":"長磯大窪"},
{"zip_code":"9880221","kana_pref":"ﾐﾔｷﾞｹﾝ","kana_city":"ｹｾﾝﾇﾏｼ","kana_address":"ﾅｶﾞｲｿｼﾁﾊﾝｻﾞﾜ","pref":"宮城県","city":"気仙沼市","address":"長磯七半沢"},
{"zip_code":"9880232","kana_pref":"ﾐﾔｷﾞｹﾝ","kana_city":"ｹｾﾝﾇﾏｼ","kana_address":"ﾅｶﾞｲｿｼﾓﾊﾞﾗ","pref":"宮城県","city":"気仙沼市","address":"長磯下原"},
{"zip_code":"9880223","kana_pref":"ﾐﾔｷﾞｹﾝ","kana_city":"ｹｾﾝﾇﾏｼ","kana_address":"ﾅｶﾞｲｿﾄﾘｺｻﾞﾜ","pref":"宮城県","city":"気仙沼市","address":"長磯鳥子沢"},
{"zip_code":"9880238","kana_pref":"ﾐﾔｷﾞｹﾝ","kana_city":"ｹｾﾝﾇﾏｼ","kana_address":"ﾅｶﾞｲｿﾅｶﾊﾗ","pref":"宮城県","city":"気仙沼市","address":"長磯中原"},
{"zip_code":"9880236","kana_pref":"ﾐﾔｷﾞｹﾝ","kana_city":"ｹｾﾝﾇﾏｼ","kana_address":"ﾅｶﾞｲｿﾆﾎﾝﾏﾂ","pref":"宮城県","city":"気仙沼市","address":"長磯二本松"},
{"zip_code":"9880231","kana_pref":"ﾐﾔｷﾞｹﾝ","kana_city":"ｹｾﾝﾇﾏｼ","kana_address":"ﾅｶﾞｲｿﾊﾏ","pref":"宮城県","city":"気仙沼市","address":"長磯浜"},
{"zip_code":"9880233","kana_pref":"ﾐﾔｷﾞｹﾝ","kana_city":"ｹｾﾝﾇﾏｼ","kana_address":"ﾅｶﾞｲｿﾊﾗ","pref":"宮城県","city":"気仙沼市","address":"長磯原"},
{"zip_code":"9880234","kana_pref":"ﾐﾔｷﾞｹﾝ","kana_city":"ｹｾﾝﾇﾏｼ","kana_address":"ﾅｶﾞｲｿﾊﾗﾉｻﾜ","pref":"宮城県","city":"気仙沼市","address":"長磯原ノ沢"},
{"zip_code":"9880222","kana_pref":"ﾐﾔｷﾞｹﾝ","kana_city":"ｹｾﾝﾇﾏｼ","kana_address":"ﾅｶﾞｲｿﾌﾅﾊﾗ","pref":"宮城県","city":"気仙沼市","address":"長磯船原"},
{"zip_code":"9880224","kana_pref":"ﾐﾔｷﾞｹﾝ","kana_city":"ｹｾﾝﾇﾏｼ","kana_address":"ﾅｶﾞｲｿﾏｴﾊﾞﾔｼ","pref":"宮城県","city":"気仙沼市","address":"長磯前林"},
{"zip_code":"9880235","kana_pref":"ﾐﾔｷﾞｹﾝ","kana_city":"ｹｾﾝﾇﾏｼ","kana_address":"ﾅｶﾞｲｿﾏｷﾞﾄﾞｵﾘ","pref":"宮城県","city":"気仙沼市","address":"長磯牧通"},
{"zip_code":"9880227","kana_pref":"ﾐﾔｷﾞｹﾝ","kana_city":"ｹｾﾝﾇﾏｼ","kana_address":"ﾅｶﾞｲｿﾓﾘ","pref":"宮城県","city":"気仙沼市","address":"長磯森"},
{"zip_code":"9880835","kana_pref":"ﾐﾔｷﾞｹﾝ","kana_city":"ｹｾﾝﾇﾏｼ","kana_address":"ﾅｶﾞｲﾜﾏ","pref":"宮城県","city":"気仙沼市","address":"長岩間"},
{"zip_code":"9880621","kana_pref":"ﾐﾔｷﾞｹﾝ","kana_city":"ｹｾﾝﾇﾏｼ","kana_address":"ﾅｶﾞｻｷ","pref":"宮城県","city":"気仙沼市","address":"長崎"},
{"zip_code":"9880024","kana_pref":"ﾐﾔｷﾞｹﾝ","kana_city":"ｹｾﾝﾇﾏｼ","kana_address":"ﾅｶﾏﾁ","pref":"宮城県","city":"気仙沼市","address":"仲町"},
{"zip_code":"9880007","kana_pref":"ﾐﾔｷﾞｹﾝ","kana_city":"ｹｾﾝﾇﾏｼ","kana_address":"ﾅｶﾐﾅﾄﾁｮｳ","pref":"宮城県","city":"気仙沼市","address":"中みなと町"},
{"zip_code":"9880622","kana_pref":"ﾐﾔｷﾞｹﾝ","kana_city":"ｹｾﾝﾇﾏｼ","kana_address":"ﾅｶﾔﾏ","pref":"宮城県","city":"気仙沼市","address":"中山"},
{"zip_code":"9880855","kana_pref":"ﾐﾔｷﾞｹﾝ","kana_city":"ｹｾﾝﾇﾏｼ","kana_address":"ﾅｷﾞｻﾜ","pref":"宮城県","city":"気仙沼市","address":"名木沢"},
{"zip_code":"9880813","kana_pref":"ﾐﾔｷﾞｹﾝ","kana_city":"ｹｾﾝﾇﾏｼ","kana_address":"ﾅﾐｲﾀ","pref":"宮城県","city":"気仙沼市","address":"浪板"},
{"zip_code":"9880043","kana_pref":"ﾐﾔｷﾞｹﾝ","kana_city":"ｹｾﾝﾇﾏｼ","kana_address":"ﾅﾝｺﾞｳ","pref":"宮城県","city":"気仙沼市","address":"南郷"},
{"zip_code":"9880002","kana_pref":"ﾐﾔｷﾞｹﾝ","kana_city":"ｹｾﾝﾇﾏｼ","kana_address":"ﾆｼｷﾁｮｳ","pref":"宮城県","city":"気仙沼市","address":"錦町"},
{"zip_code":"9880805","kana_pref":"ﾐﾔｷﾞｹﾝ","kana_city":"ｹｾﾝﾇﾏｼ","kana_address":"ﾆｼﾅｶｻｲ","pref":"宮城県","city":"気仙沼市","address":"西中才"},
{"zip_code":"9880817","kana_pref":"ﾐﾔｷﾞｹﾝ","kana_city":"ｹｾﾝﾇﾏｼ","kana_address":"ﾆｼﾊﾁﾏﾝﾁｮｳ","pref":"宮城県","city":"気仙沼市","address":"西八幡町"},
{"zip_code":"9880817","kana_pref":"ﾐﾔｷﾞｹﾝ","kana_city":"ｹｾﾝﾇﾏｼ","kana_address":"ﾆｼﾊﾁﾏﾝﾏｴ","pref":"宮城県","city":"気仙沼市","address":"西八幡前"},
{"zip_code":"9880006","kana_pref":"ﾐﾔｷﾞｹﾝ","kana_city":"ｹｾﾝﾇﾏｼ","kana_address":"ﾆｼﾐﾅﾄﾁｮｳ","pref":"宮城県","city":"気仙沼市","address":"西みなと町"},
{"zip_code":"9880816","kana_pref":"ﾐﾔｷﾞｹﾝ","kana_city":"ｹｾﾝﾇﾏｼ","kana_address":"ﾆﾉﾊﾏ","pref":"宮城県","city":"気仙沼市","address":"二ノ浜"},
{"zip_code":"9880241","kana_pref":"ﾐﾔｷﾞｹﾝ","kana_city":"ｹｾﾝﾇﾏｼ","kana_address":"ﾊｼﾞｶﾐｲﾜｲｻｷ","pref":"宮城県","city":"気仙沼市","address":"波路上岩井崎"},
{"zip_code":"9880252","kana_pref":"ﾐﾔｷﾞｹﾝ","kana_city":"ｹｾﾝﾇﾏｼ","kana_address":"ﾊｼﾞｶﾐｳｼﾛﾊﾞﾗ","pref":"宮城県","city":"気仙沼市","address":"波路上後原"},
{"zip_code":"9880251","kana_pref":"ﾐﾔｷﾞｹﾝ","kana_city":"ｹｾﾝﾇﾏｼ","kana_address":"ﾊｼﾞｶﾐｳﾁﾀﾞ","pref":"宮城県","city":"気仙沼市","address":"波路上内田"},
{"zip_code":"9880247","kana_pref":"ﾐﾔｷﾞｹﾝ","kana_city":"ｹｾﾝﾇﾏｼ","kana_address":"ﾊｼﾞｶﾐｳﾁﾇﾏ","pref":"宮城県","city":"気仙沼市","address":"波路上内沼"},
{"zip_code":"9880242","kana_pref":"ﾐﾔｷﾞｹﾝ","kana_city":"ｹｾﾝﾇﾏｼ","kana_address":"ﾊｼﾞｶﾐｻｷﾉ","pref":"宮城県","city":"気仙沼市","address":"波路上崎野"},
{"zip_code":"9880245","kana_pref":"ﾐﾔｷﾞｹﾝ","kana_city":"ｹｾﾝﾇﾏｼ","kana_address":"ﾊｼﾞｶﾐｽｷﾞﾉｼﾀ","pref":"宮城県","city":"気仙沼市","address":"波路上杉ノ下"},
{"zip_code":"9880246","kana_pref":"ﾐﾔｷﾞｹﾝ","kana_city":"ｹｾﾝﾇﾏｼ","kana_address":"ﾊｼﾞｶﾐｾﾑｶｲ","pref":"宮城県","city":"気仙沼市","address":"波路上瀬向"},
{"zip_code":"9880254","kana_pref":"ﾐﾔｷﾞｹﾝ","kana_city":"ｹｾﾝﾇﾏｼ","kana_address":"ﾊｼﾞｶﾐﾉﾀﾞ","pref":"宮城県","city":"気仙沼市","address":"波路上野田"},
{"zip_code":"9880253","kana_pref":"ﾐﾔｷﾞｹﾝ","kana_city":"ｹｾﾝﾇﾏｼ","kana_address":"ﾊｼﾞｶﾐﾊﾗ","pref":"宮城県","city":"気仙沼市","address":"波路上原"},
{"zip_code":"9880243","kana_pref":"ﾐﾔｷﾞｹﾝ","kana_city":"ｹｾﾝﾇﾏｼ","kana_address":"ﾊｼﾞｶﾐﾏｷﾞ","pref":"宮城県","city":"気仙沼市","address":"波路上牧"},
{"zip_code":"9880255","kana_pref":"ﾐﾔｷﾞｹﾝ","kana_city":"ｹｾﾝﾇﾏｼ","kana_address":"ﾊｼﾞｶﾐﾑｶｲﾀﾞ","pref":"宮城県","city":"気仙沼市","address":"波路上向田"},
{"zip_code":"9880256","kana_pref":"ﾐﾔｷﾞｹﾝ","kana_city":"ｹｾﾝﾇﾏｼ","kana_address":"ﾊｼﾞｶﾐﾑｶｲﾊﾞﾗ","pref":"宮城県","city":"気仙沼市","address":"波路上向原"},
{"zip_code":"9880244","kana_pref":"ﾐﾔｷﾞｹﾝ","kana_city":"ｹｾﾝﾇﾏｼ","kana_address":"ﾊｼﾞｶﾐｱｹﾄﾞ","pref":"宮城県","city":"気仙沼市","address":"波路上明戸"},
{"zip_code":"9880004","kana_pref":"ﾐﾔｷﾞｹﾝ","kana_city":"ｹｾﾝﾇﾏｼ","kana_address":"ﾊﾏﾁｮｳ","pref":"宮城県","city":"気仙沼市","address":"浜町"},
{"zip_code":"9880015","kana_pref":"ﾐﾔｷﾞｹﾝ","kana_city":"ｹｾﾝﾇﾏｼ","kana_address":"ﾊﾏﾐﾔﾏ","pref":"宮城県","city":"気仙沼市","address":"浜見山"},
{"zip_code":"9880066","kana_pref":"ﾐﾔｷﾞｹﾝ","kana_city":"ｹｾﾝﾇﾏｼ","kana_address":"ﾋｶﾞｼｼﾝｼﾞｮｳ","pref":"宮城県","city":"気仙沼市","address":"東新城"},
{"zip_code":"9880804","kana_pref":"ﾐﾔｷﾞｹﾝ","kana_city":"ｹｾﾝﾇﾏｼ","kana_address":"ﾋｶﾞｼﾅｶｻｲ","pref":"宮城県","city":"気仙沼市","address":"東中才"},
{"zip_code":"9880811","kana_pref":"ﾐﾔｷﾞｹﾝ","kana_city":"ｹｾﾝﾇﾏｼ","kana_address":"ﾋｶﾞｼﾊﾁﾏﾝﾏｴ","pref":"宮城県","city":"気仙沼市","address":"東八幡前"},
{"zip_code":"9880001","kana_pref":"ﾐﾔｷﾞｹﾝ","kana_city":"ｹｾﾝﾇﾏｼ","kana_address":"ﾋｶﾞｼﾐﾅﾄﾁｮｳ","pref":"宮城県","city":"気仙沼市","address":"東みなと町"},
{"zip_code":"9880802","kana_pref":"ﾐﾔｷﾞｹﾝ","kana_city":"ｹｾﾝﾇﾏｼ","kana_address":"ﾋﾉｸﾁ","pref":"宮城県","city":"気仙沼市","address":"日ノ口"},
{"zip_code":"9880086","kana_pref":"ﾐﾔｷﾞｹﾝ","kana_city":"ｹｾﾝﾇﾏｼ","kana_address":"ﾌｸﾐﾁｮｳ","pref":"宮城県","city":"気仙沼市","address":"福美町"},
{"zip_code":"9880077","kana_pref":"ﾐﾔｷﾞｹﾝ","kana_city":"ｹｾﾝﾇﾏｼ","kana_address":"ﾌﾙﾏﾁ","pref":"宮城県","city":"気仙沼市","address":"古町"},
{"zip_code":"9880036","kana_pref":"ﾐﾔｷﾞｹﾝ","kana_city":"ｹｾﾝﾇﾏｼ","kana_address":"ﾍﾞﾝﾃﾝﾁｮｳ","pref":"宮城県","city":"気仙沼市","address":"弁天町"},
{"zip_code":"9880861","kana_pref":"ﾐﾔｷﾞｹﾝ","kana_city":"ｹｾﾝﾇﾏｼ","kana_address":"ﾎｿｵ","pref":"宮城県","city":"気仙沼市","address":"細尾"},
{"zip_code":"9880042","kana_pref":"ﾐﾔｷﾞｹﾝ","kana_city":"ｹｾﾝﾇﾏｼ","kana_address":"ﾎﾝｺﾞｳ","pref":"宮城県","city":"気仙沼市","address":"本郷"},
{"zip_code":"9880845","kana_pref":"ﾐﾔｷﾞｹﾝ","kana_city":"ｹｾﾝﾇﾏｼ","kana_address":"ﾏｴｷﾞ","pref":"宮城県","city":"気仙沼市","address":"前木"},
{"zip_code":"9880852","kana_pref":"ﾐﾔｷﾞｹﾝ","kana_city":"ｹｾﾝﾇﾏｼ","kana_address":"ﾏﾂｶﾜ","pref":"宮城県","city":"気仙沼市","address":"松川"},
{"zip_code":"9880853","kana_pref":"ﾐﾔｷﾞｹﾝ","kana_city":"ｹｾﾝﾇﾏｼ","kana_address":"ﾏﾂｶﾜﾏｴ","pref":"宮城県","city":"気仙沼市","address":"松川前"},
{"zip_code":"9880114","kana_pref":"ﾐﾔｷﾞｹﾝ","kana_city":"ｹｾﾝﾇﾏｼ","kana_address":"ﾏﾂｻﾞｷｳﾗﾀﾞ","pref":"宮城県","city":"気仙沼市","address":"松崎浦田"},
{"zip_code":"9880155","kana_pref":"ﾐﾔｷﾞｹﾝ","kana_city":"ｹｾﾝﾇﾏｼ","kana_address":"ﾏﾂｻﾞｷｵｵｶﾔ","pref":"宮城県","city":"気仙沼市","address":"松崎大萱"},
{"zip_code":"9880131","kana_pref":"ﾐﾔｷﾞｹﾝ","kana_city":"ｹｾﾝﾇﾏｼ","kana_address":"ﾏﾂｻﾞｷｵｻｷ","pref":"宮城県","city":"気仙沼市","address":"松崎尾崎"},
{"zip_code":"9880153","kana_pref":"ﾐﾔｷﾞｹﾝ","kana_city":"ｹｾﾝﾇﾏｼ","kana_address":"ﾏﾂｻﾞｷｵﾓｾ","pref":"宮城県","city":"気仙沼市","address":"松崎面瀬"},
{"zip_code":"9880113","kana_pref":"ﾐﾔｷﾞｹﾝ","kana_city":"ｹｾﾝﾇﾏｼ","kana_address":"ﾏﾂｻﾞｷｶﾀﾊﾏ","pref":"宮城県","city":"気仙沼市","address":"松崎片浜"},
{"zip_code":"9880134","kana_pref":"ﾐﾔｷﾞｹﾝ","kana_city":"ｹｾﾝﾇﾏｼ","kana_address":"ﾏﾂｻﾞｷｶﾐｱｶﾀﾞ","pref":"宮城県","city":"気仙沼市","address":"松崎上赤田"},
{"zip_code":"9880157","kana_pref":"ﾐﾔｷﾞｹﾝ","kana_city":"ｹｾﾝﾇﾏｼ","kana_address":"ﾏﾂｻﾞｷｶﾐｶﾈﾄﾘ","pref":"宮城県","city":"気仙沼市","address":"松崎上金取"},
{"zip_code":"9880121","kana_pref":"ﾐﾔｷﾞｹﾝ","kana_city":"ｹｾﾝﾇﾏｼ","kana_address":"ﾏﾂｻﾞｷｶﾔ","pref":"宮城県","city":"気仙沼市","address":"松崎萱"},
{"zip_code":"9880111","kana_pref":"ﾐﾔｷﾞｹﾝ","kana_city":"ｹｾﾝﾇﾏｼ","kana_address":"ﾏﾂｻﾞｷｷﾀｻﾜ","pref":"宮城県","city":"気仙沼市","address":"松崎北沢"},
{"zip_code":"9880122","kana_pref":"ﾐﾔｷﾞｹﾝ","kana_city":"ｹｾﾝﾇﾏｼ","kana_address":"ﾏﾂｻﾞｷｺﾞﾀﾞﾝﾀﾗ","pref":"宮城県","city":"気仙沼市","address":"松崎五駄鱈"},
{"zip_code":"9880143","kana_pref":"ﾐﾔｷﾞｹﾝ","kana_city":"ｹｾﾝﾇﾏｼ","kana_address":"ﾏﾂｻﾞｷｼﾞｼｮｳ","pref":"宮城県","city":"気仙沼市","address":"松崎地生"},
{"zip_code":"9880133","kana_pref":"ﾐﾔｷﾞｹﾝ","kana_city":"ｹｾﾝﾇﾏｼ","kana_address":"ﾏﾂｻﾞｷｼﾓｱｶﾀﾞ","pref":"宮城県","city":"気仙沼市","address":"松崎下赤田"},
{"zip_code":"9880156","kana_pref":"ﾐﾔｷﾞｹﾝ","kana_city":"ｹｾﾝﾇﾏｼ","kana_address":"ﾏﾂｻﾞｷｼﾓｶﾈﾄﾘ","pref":"宮城県","city":"気仙沼市","address":"松崎下金取"},
{"zip_code":"9880152","kana_pref":"ﾐﾔｷﾞｹﾝ","kana_city":"ｹｾﾝﾇﾏｼ","kana_address":"ﾏﾂｻﾞｷｿﾄｶﾞｻﾜ","pref":"宮城県","city":"気仙沼市","address":"松崎外ケ沢"},
{"zip_code":"9880124","kana_pref":"ﾐﾔｷﾞｹﾝ","kana_city":"ｹｾﾝﾇﾏｼ","kana_address":"ﾏﾂｻﾞｷﾀｶﾔ","pref":"宮城県","city":"気仙沼市","address":"松崎高谷"},
{"zip_code":"9880151","kana_pref":"ﾐﾔｷﾞｹﾝ","kana_city":"ｹｾﾝﾇﾏｼ","kana_address":"ﾏﾂｻﾞｷﾀﾃｲｼ","pref":"宮城県","city":"気仙沼市","address":"松崎立石"},
{"zip_code":"9880144","kana_pref":"ﾐﾔｷﾞｹﾝ","kana_city":"ｹｾﾝﾇﾏｼ","kana_address":"ﾏﾂｻﾞｷﾂﾙﾏｷ","pref":"宮城県","city":"気仙沼市","address":"松崎鶴巻"},
{"zip_code":"9880123","kana_pref":"ﾐﾔｷﾞｹﾝ","kana_city":"ｹｾﾝﾇﾏｼ","kana_address":"ﾏﾂｻﾞｷﾅｶｾﾞ","pref":"宮城県","city":"気仙沼市","address":"松崎中瀬"},
{"zip_code":"9880154","kana_pref":"ﾐﾔｷﾞｹﾝ","kana_city":"ｹｾﾝﾇﾏｼ","kana_address":"ﾏﾂｻﾞｷﾈｺﾌﾞﾁ","pref":"宮城県","city":"気仙沼市","address":"松崎猫渕"},
{"zip_code":"9880132","kana_pref":"ﾐﾔｷﾞｹﾝ","kana_city":"ｹｾﾝﾇﾏｼ","kana_address":"ﾏﾂｻﾞｷﾊﾞﾊﾞ","pref":"宮城県","city":"気仙沼市","address":"松崎馬場"},
{"zip_code":"9880112","kana_pref":"ﾐﾔｷﾞｹﾝ","kana_city":"ｹｾﾝﾇﾏｼ","kana_address":"ﾏﾂｻﾞｷﾏｴﾊﾏ","pref":"宮城県","city":"気仙沼市","address":"松崎前浜"},
{"zip_code":"9880142","kana_pref":"ﾐﾔｷﾞｹﾝ","kana_city":"ｹｾﾝﾇﾏｼ","kana_address":"ﾏﾂｻﾞｷﾏﾙﾓﾘ","pref":"宮城県","city":"気仙沼市","address":"松崎丸森"},
{"zip_code":"9880141","kana_pref":"ﾐﾔｷﾞｹﾝ","kana_city":"ｹｾﾝﾇﾏｼ","kana_address":"ﾏﾂｻﾞｷﾔﾅｷﾞｻﾜ","pref":"宮城県","city":"気仙沼市","address":"松崎柳沢"},
{"zip_code":"9880604","kana_pref":"ﾐﾔｷﾞｹﾝ","kana_city":"ｹｾﾝﾇﾏｼ","kana_address":"ﾏﾜﾘﾀﾞﾃ","pref":"宮城県","city":"気仙沼市","address":"廻舘"},
{"zip_code":"9880631","kana_pref":"ﾐﾔｷﾞｹﾝ","kana_city":"ｹｾﾝﾇﾏｼ","kana_address":"ﾐｻｸﾊﾏ","pref":"宮城県","city":"気仙沼市","address":"三作浜"},
{"zip_code":"9880085","kana_pref":"ﾐﾔｷﾞｹﾝ","kana_city":"ｹｾﾝﾇﾏｼ","kana_address":"ﾐｯｶﾏﾁ","pref":"宮城県","city":"気仙沼市","address":"三日町"},
{"zip_code":"9880021","kana_pref":"ﾐﾔｷﾞｹﾝ","kana_city":"ｹｾﾝﾇﾏｼ","kana_address":"ﾐﾅﾄﾏﾁ","pref":"宮城県","city":"気仙沼市","address":"港町"},
{"zip_code":"9880023","kana_pref":"ﾐﾔｷﾞｹﾝ","kana_city":"ｹｾﾝﾇﾏｼ","kana_address":"ﾐﾅﾐｶﾞｵｶ","pref":"宮城県","city":"気仙沼市","address":"南が丘"},
{"zip_code":"9880017","kana_pref":"ﾐﾔｷﾞｹﾝ","kana_city":"ｹｾﾝﾇﾏｼ","kana_address":"ﾐﾅﾐﾏﾁ","pref":"宮城県","city":"気仙沼市","address":"南町"},
{"zip_code":"9880018","kana_pref":"ﾐﾔｷﾞｹﾝ","kana_city":"ｹｾﾝﾇﾏｼ","kana_address":"ﾐﾅﾐﾏﾁｶｲｶﾞﾝ","pref":"宮城県","city":"気仙沼市","address":"南町海岸"},
{"zip_code":"9880823","kana_pref":"ﾐﾔｷﾞｹﾝ","kana_city":"ｹｾﾝﾇﾏｼ","kana_address":"ﾐｮｳｶﾞｻﾜ","pref":"宮城県","city":"気仙沼市","address":"茗荷沢"},
{"zip_code":"9880003","kana_pref":"ﾐﾔｷﾞｹﾝ","kana_city":"ｹｾﾝﾇﾏｼ","kana_address":"ﾓﾄﾊﾏﾁｮｳ","pref":"宮城県","city":"気仙沼市","address":"本浜町"},
{"zip_code":"9880074","kana_pref":"ﾐﾔｷﾞｹﾝ","kana_city":"ｹｾﾝﾇﾏｼ","kana_address":"ﾓﾄﾏﾁ","pref":"宮城県","city":"気仙沼市","address":"本町"},
{"zip_code":"9880284","kana_pref":"ﾐﾔｷﾞｹﾝ","kana_city":"ｹｾﾝﾇﾏｼ","kana_address":"ﾓﾄﾖｼﾁｮｳｱｶｳｼ","pref":"宮城県","city":"気仙沼市","address":"本吉町赤牛"},
{"zip_code":"9880277","kana_pref":"ﾐﾔｷﾞｹﾝ","kana_city":"ｹｾﾝﾇﾏｼ","kana_address":"ﾓﾄﾖｼﾁｮｳｱﾏｶﾞｻﾜ","pref":"宮城県","city":"気仙沼市","address":"本吉町天ヶ沢"},
{"zip_code":"9880268","kana_pref":"ﾐﾔｷﾞｹﾝ","kana_city":"ｹｾﾝﾇﾏｼ","kana_address":"ﾓﾄﾖｼﾁｮｳｲｼｶﾜﾗ","pref":"宮城県","city":"気仙沼市","address":"本吉町石川原"},
{"zip_code":"9880339","kana_pref":"ﾐﾔｷﾞｹﾝ","kana_city":"ｹｾﾝﾇﾏｼ","kana_address":"ﾓﾄﾖｼﾁｮｳｲｽﾞﾐ","pref":"宮城県","city":"気仙沼市","address":"本吉町泉"},
{"zip_code":"9880336","kana_pref":"ﾐﾔｷﾞｹﾝ","kana_city":"ｹｾﾝﾇﾏｼ","kana_address":"ﾓﾄﾖｼﾁｮｳｲｽﾞﾐｻﾜ","pref":"宮城県","city":"気仙沼市","address":"本吉町泉沢"},
{"zip_code":"9880347","kana_pref":"ﾐﾔｷﾞｹﾝ","kana_city":"ｹｾﾝﾇﾏｼ","kana_address":"ﾓﾄﾖｼﾁｮｳｲﾉﾊﾅ","pref":"宮城県","city":"気仙沼市","address":"本吉町猪の鼻"},
{"zip_code":"9880261","kana_pref":"ﾐﾔｷﾞｹﾝ","kana_city":"ｹｾﾝﾇﾏｼ","kana_address":"ﾓﾄﾖｼﾁｮｳｳｼﾛﾀﾞ","pref":"宮城県","city":"気仙沼市","address":"本吉町後田"},
{"zip_code":"9880324","kana_pref":"ﾐﾔｷﾞｹﾝ","kana_city":"ｹｾﾝﾇﾏｼ","kana_address":"ﾓﾄﾖｼﾁｮｳｳﾄｳ","pref":"宮城県","city":"気仙沼市","address":"本吉町歌生"},
{"zip_code":"9880313","kana_pref":"ﾐﾔｷﾞｹﾝ","kana_city":"ｹｾﾝﾇﾏｼ","kana_address":"ﾓﾄﾖｼﾁｮｳｳﾅｻﾞﾜ","pref":"宮城県","city":"気仙沼市","address":"本吉町卯名沢"},
{"zip_code":"9880371","kana_pref":"ﾐﾔｷﾞｹﾝ","kana_city":"ｹｾﾝﾇﾏｼ","kana_address":"ﾓﾄﾖｼﾁｮｳｳﾙｼﾊﾞﾗ","pref":"宮城県","city":"気仙沼市","address":"本吉町漆原"},
{"zip_code":"9880301","kana_pref":"ﾐﾔｷﾞｹﾝ","kana_city":"ｹｾﾝﾇﾏｼ","kana_address":"ﾓﾄﾖｼﾁｮｳｵｲﾉｽ","pref":"宮城県","city":"気仙沼市","address":"本吉町狼の巣"},
{"zip_code":"9880306","kana_pref":"ﾐﾔｷﾞｹﾝ","kana_city":"ｹｾﾝﾇﾏｼ","kana_address":"ﾓﾄﾖｼﾁｮｳｵｵｸﾇｷﾞ","pref":"宮城県","city":"気仙沼市","address":"本吉町大椚"},
{"zip_code":"9880304","kana_pref":"ﾐﾔｷﾞｹﾝ","kana_city":"ｹｾﾝﾇﾏｼ","kana_address":"ﾓﾄﾖｼﾁｮｳｵｵｻﾜ","pref":"宮城県","city":"気仙沼市","address":"本吉町大沢"},
{"zip_code":"9880356","kana_pref":"ﾐﾔｷﾞｹﾝ","kana_city":"ｹｾﾝﾇﾏｼ","kana_address":"ﾓﾄﾖｼﾁｮｳｵｵｼﾊﾞ","pref":"宮城県","city":"気仙沼市","address":"本吉町大柴"},
{"zip_code":"9880358","kana_pref":"ﾐﾔｷﾞｹﾝ","kana_city":"ｹｾﾝﾇﾏｼ","kana_address":"ﾓﾄﾖｼﾁｮｳｵｵﾋｶﾞｼ","pref":"宮城県","city":"気仙沼市","address":"本吉町大東"},
{"zip_code":"9880287","kana_pref":"ﾐﾔｷﾞｹﾝ","kana_city":"ｹｾﾝﾇﾏｼ","kana_address":"ﾓﾄﾖｼﾁｮｳｵｵﾎﾞｳｷ","pref":"宮城県","city":"気仙沼市","address":"本吉町大朴木"},
{"zip_code":"9880283","kana_pref":"ﾐﾔｷﾞｹﾝ","kana_city":"ｹｾﾝﾇﾏｼ","kana_address":"ﾓﾄﾖｼﾁｮｳｵｵﾓﾘ","pref":"宮城県","city":"気仙沼市","address":"本吉町大森"},
{"zip_code":"9880272","kana_pref":"ﾐﾔｷﾞｹﾝ","kana_city":"ｹｾﾝﾇﾏｼ","kana_address":"ﾓﾄﾖｼﾁｮｳｵｵﾔ","pref":"宮城県","city":"気仙沼市","address":"本吉町大谷"},
{"zip_code":"9880262","kana_pref":"ﾐﾔｷﾞｹﾝ","kana_city":"ｹｾﾝﾇﾏｼ","kana_address":"ﾓﾄﾖｼﾁｮｳｵｷﾉﾀﾞ","pref":"宮城県","city":"気仙沼市","address":"本吉町沖の田"},
{"zip_code":"9880372","kana_pref":"ﾐﾔｷﾞｹﾝ","kana_city":"ｹｾﾝﾇﾏｼ","kana_address":"ﾓﾄﾖｼﾁｮｳｵﾃﾞﾝ","pref":"宮城県","city":"気仙沼市","address":"本吉町尾田"},
{"zip_code":"9880311","kana_pref":"ﾐﾔｷﾞｹﾝ","kana_city":"ｹｾﾝﾇﾏｼ","kana_address":"ﾓﾄﾖｼﾁｮｳｶｻﾞｺｼ","pref":"宮城県","city":"気仙沼市","address":"本吉町風越"},
{"zip_code":"9880354","kana_pref":"ﾐﾔｷﾞｹﾝ","kana_city":"ｹｾﾝﾇﾏｼ","kana_address":"ﾓﾄﾖｼﾁｮｳｶﾉｺ","pref":"宮城県","city":"気仙沼市","address":"本吉町鹿の子"},
{"zip_code":"9880388","kana_pref":"ﾐﾔｷﾞｹﾝ","kana_city":"ｹｾﾝﾇﾏｼ","kana_address":"ﾓﾄﾖｼﾁｮｳｶﾐｶﾜｳﾁ","pref":"宮城県","city":"気仙沼市","address":"本吉町上川内"},
{"zip_code":"9880373","kana_pref":"ﾐﾔｷﾞｹﾝ","kana_city":"ｹｾﾝﾇﾏｼ","kana_address":"ﾓﾄﾖｼﾁｮｳｶﾘｮｳ","pref":"宮城県","city":"気仙沼市","address":"本吉町狩猟"},
{"zip_code":"9880317","kana_pref":"ﾐﾔｷﾞｹﾝ","kana_city":"ｹｾﾝﾇﾏｼ","kana_address":"ﾓﾄﾖｼﾁｮｳｷﾀｱｹﾄﾞ","pref":"宮城県","city":"気仙沼市","address":"本吉町北明戸"},
{"zip_code":"9880275","kana_pref":"ﾐﾔｷﾞｹﾝ","kana_city":"ｹｾﾝﾇﾏｼ","kana_address":"ﾓﾄﾖｼﾁｮｳｸﾀﾞﾏﾙ","pref":"宮城県","city":"気仙沼市","address":"本吉町九多丸"},
{"zip_code":"9880265","kana_pref":"ﾐﾔｷﾞｹﾝ","kana_city":"ｹｾﾝﾇﾏｼ","kana_address":"ﾓﾄﾖｼﾁｮｳｸﾎﾞ","pref":"宮城県","city":"気仙沼市","address":"本吉町窪"},
{"zip_code":"9880325","kana_pref":"ﾐﾔｷﾞｹﾝ","kana_city":"ｹｾﾝﾇﾏｼ","kana_address":"ﾓﾄﾖｼﾁｮｳｸﾗｳﾁ","pref":"宮城県","city":"気仙沼市","address":"本吉町蔵内"},
{"zip_code":"9880323","kana_pref":"ﾐﾔｷﾞｹﾝ","kana_city":"ｹｾﾝﾇﾏｼ","kana_address":"ﾓﾄﾖｼﾁｮｳｹｻｲｿ","pref":"宮城県","city":"気仙沼市","address":"本吉町今朝磯"},
{"zip_code":"9880303","kana_pref":"ﾐﾔｷﾞｹﾝ","kana_city":"ｹｾﾝﾇﾏｼ","kana_address":"ﾓﾄﾖｼﾁｮｳｺｳﾄﾞ","pref":"宮城県","city":"気仙沼市","address":"本吉町幸土"},
{"zip_code":"9880351","kana_pref":"ﾐﾔｷﾞｹﾝ","kana_city":"ｹｾﾝﾇﾏｼ","kana_address":"ﾓﾄﾖｼﾁｮｳｺﾞｵｳﾉｻﾜ","pref":"宮城県","city":"気仙沼市","address":"本吉町午王野沢"},
{"zip_code":"9880285","kana_pref":"ﾐﾔｷﾞｹﾝ","kana_city":"ｹｾﾝﾇﾏｼ","kana_address":"ﾓﾄﾖｼﾁｮｳｺｶﾞﾈｻﾜ","pref":"宮城県","city":"気仙沼市","address":"本吉町小金沢"},
{"zip_code":"9880364","kana_pref":"ﾐﾔｷﾞｹﾝ","kana_city":"ｹｾﾝﾇﾏｼ","kana_address":"ﾓﾄﾖｼﾁｮｳｺｶﾞﾈﾔﾏ","pref":"宮城県","city":"気仙沼市","address":"本吉町小金山"},
{"zip_code":"9880321","kana_pref":"ﾐﾔｷﾞｹﾝ","kana_city":"ｹｾﾝﾇﾏｼ","kana_address":"ﾓﾄﾖｼﾁｮｳｺﾊﾞﾏ","pref":"宮城県","city":"気仙沼市","address":"本吉町小浜"},
{"zip_code":"9880348","kana_pref":"ﾐﾔｷﾞｹﾝ","kana_city":"ｹｾﾝﾇﾏｼ","kana_address":"ﾓﾄﾖｼﾁｮｳｺﾐﾈｻﾞｷ","pref":"宮城県","city":"気仙沼市","address":"本吉町小峰崎"},
{"zip_code":"9880279","kana_pref":"ﾐﾔｷﾞｹﾝ","kana_city":"ｹｾﾝﾇﾏｼ","kana_address":"ﾓﾄﾖｼﾁｮｳｻﾙｳﾁ","pref":"宮城県","city":"気仙沼市","address":"本吉町猿内"},
{"zip_code":"9880261","kana_pref":"ﾐﾔｷﾞｹﾝ","kana_city":"ｹｾﾝﾇﾏｼ","kana_address":"ﾓﾄﾖｼﾁｮｳｼﾞｷﾃﾞﾝ","pref":"宮城県","city":"気仙沼市","address":"本吉町直伝"},
{"zip_code":"9880353","kana_pref":"ﾐﾔｷﾞｹﾝ","kana_city":"ｹｾﾝﾇﾏｼ","kana_address":"ﾓﾄﾖｼﾁｮｳｼﾉﾌﾞ","pref":"宮城県","city":"気仙沼市","address":"本吉町信夫"},
{"zip_code":"9880385","kana_pref":"ﾐﾔｷﾞｹﾝ","kana_city":"ｹｾﾝﾇﾏｼ","kana_address":"ﾓﾄﾖｼﾁｮｳｼﾓｶﾜｳﾁ","pref":"宮城県","city":"気仙沼市","address":"本吉町下川内"},
{"zip_code":"9880332","kana_pref":"ﾐﾔｷﾞｹﾝ","kana_city":"ｹｾﾝﾇﾏｼ","kana_address":"ﾓﾄﾖｼﾁｮｳｼﾓｼﾞｭｸ","pref":"宮城県","city":"気仙沼市","address":"本吉町下宿"},
{"zip_code":"9880361","kana_pref":"ﾐﾔｷﾞｹﾝ","kana_city":"ｹｾﾝﾇﾏｼ","kana_address":"ﾓﾄﾖｼﾁｮｳｼﾓﾖｳｶﾞｲ","pref":"宮城県","city":"気仙沼市","address":"本吉町下要害"},
{"zip_code":"9880269","kana_pref":"ﾐﾔｷﾞｹﾝ","kana_city":"ｹｾﾝﾇﾏｼ","kana_address":"ﾓﾄﾖｼﾁｮｳｼｮｳﾌﾞｻﾞﾜ","pref":"宮城県","city":"気仙沼市","address":"本吉町菖蒲沢"},
{"zip_code":"9880316","kana_pref":"ﾐﾔｷﾞｹﾝ","kana_city":"ｹｾﾝﾇﾏｼ","kana_address":"ﾓﾄﾖｼﾁｮｳｼﾝｷﾀｱｹﾄﾞ","pref":"宮城県","city":"気仙沼市","address":"本吉町新北明戸"},
{"zip_code":"9880315","kana_pref":"ﾐﾔｷﾞｹﾝ","kana_city":"ｹｾﾝﾇﾏｼ","kana_address":"ﾓﾄﾖｼﾁｮｳｼﾝﾊﾀﾉｻﾜ","pref":"宮城県","city":"気仙沼市","address":"本吉町新圃の沢"},
{"zip_code":"9880337","kana_pref":"ﾐﾔｷﾞｹﾝ","kana_city":"ｹｾﾝﾇﾏｼ","kana_address":"ﾓﾄﾖｼﾁｮｳｼﾝﾐﾅﾐｱｹﾄﾞ","pref":"宮城県","city":"気仙沼市","address":"本吉町新南明戸"},
{"zip_code":"9880328","kana_pref":"ﾐﾔｷﾞｹﾝ","kana_city":"ｹｾﾝﾇﾏｼ","kana_address":"ﾓﾄﾖｼﾁｮｳｽｹﾞﾉｻﾜ","pref":"宮城県","city":"気仙沼市","address":"本吉町菅の沢"},
{"zip_code":"9880334","kana_pref":"ﾐﾔｷﾞｹﾝ","kana_city":"ｹｾﾝﾇﾏｼ","kana_address":"ﾓﾄﾖｼﾁｮｳｿﾃﾞｵ","pref":"宮城県","city":"気仙沼市","address":"本吉町外尾"},
{"zip_code":"9880352","kana_pref":"ﾐﾔｷﾞｹﾝ","kana_city":"ｹｾﾝﾇﾏｼ","kana_address":"ﾓﾄﾖｼﾁｮｳﾀｲﾗｸﾇｷﾞ","pref":"宮城県","city":"気仙沼市","address":"本吉町平椚"},
{"zip_code":"9880286","kana_pref":"ﾐﾔｷﾞｹﾝ","kana_city":"ｹｾﾝﾇﾏｼ","kana_address":"ﾓﾄﾖｼﾁｮｳﾀｶ","pref":"宮城県","city":"気仙沼市","address":"本吉町高"},
{"zip_code":"9880384","kana_pref":"ﾐﾔｷﾞｹﾝ","kana_city":"ｹｾﾝﾇﾏｼ","kana_address":"ﾓﾄﾖｼﾁｮｳﾀｶｵｶ","pref":"宮城県","city":"気仙沼市","address":"本吉町高岡"},
{"zip_code":"9880278","kana_pref":"ﾐﾔｷﾞｹﾝ","kana_city":"ｹｾﾝﾇﾏｼ","kana_address":"ﾓﾄﾖｼﾁｮｳﾀｶｾｶﾞﾓﾘ","pref":"宮城県","city":"気仙沼市","address":"本吉町高瀬ヶ森"},
{"zip_code":"9880355","kana_pref":"ﾐﾔｷﾞｹﾝ","kana_city":"ｹｾﾝﾇﾏｼ","kana_address":"ﾓﾄﾖｼﾁｮｳﾀｷｻﾜ","pref":"宮城県","city":"気仙沼市","address":"本吉町滝沢"},
{"zip_code":"9880274","kana_pref":"ﾐﾔｷﾞｹﾝ","kana_city":"ｹｾﾝﾇﾏｼ","kana_address":"ﾓﾄﾖｼﾁｮｳﾀｷﾈ","pref":"宮城県","city":"気仙沼市","address":"本吉町滝根"},
{"zip_code":"9880346","kana_pref":"ﾐﾔｷﾞｹﾝ","kana_city":"ｹｾﾝﾇﾏｼ","kana_address":"ﾓﾄﾖｼﾁｮｳﾀｹﾉｼﾀ","pref":"宮城県","city":"気仙沼市","address":"本吉町岳の下"},
{"zip_code":"9880345","kana_pref":"ﾐﾔｷﾞｹﾝ","kana_city":"ｹｾﾝﾇﾏｼ","kana_address":"ﾓﾄﾖｼﾁｮｳﾀﾃｼﾀ","pref":"宮城県","city":"気仙沼市","address":"本吉町舘下"},
{"zip_code":"9880277","kana_pref":"ﾐﾔｷﾞｹﾝ","kana_city":"ｹｾﾝﾇﾏｼ","kana_address":"ﾓﾄﾖｼﾁｮｳﾀﾉｻﾜ","pref":"宮城県","city":"気仙沼市","address":"本吉町田の沢"},
{"zip_code":"9880261","kana_pref":"ﾐﾔｷﾞｹﾝ","kana_city":"ｹｾﾝﾇﾏｼ","kana_address":"ﾓﾄﾖｼﾁｮｳﾂﾁﾄﾞｲｼﾀ","pref":"宮城県","city":"気仙沼市","address":"本吉町土樋下"},
{"zip_code":"9880374","kana_pref":"ﾐﾔｷﾞｹﾝ","kana_city":"ｹｾﾝﾇﾏｼ","kana_address":"ﾓﾄﾖｼﾁｮｳﾂﾉｶﾞﾗ","pref":"宮城県","city":"気仙沼市","address":"本吉町角柄"},
{"zip_code":"9880382","kana_pref":"ﾐﾔｷﾞｹﾝ","kana_city":"ｹｾﾝﾇﾏｼ","kana_address":"ﾓﾄﾖｼﾁｮｳﾂﾔｱｹﾄﾞ","pref":"宮城県","city":"気仙沼市","address":"本吉町津谷明戸"},
{"zip_code":"9880341","kana_pref":"ﾐﾔｷﾞｹﾝ","kana_city":"ｹｾﾝﾇﾏｼ","kana_address":"ﾓﾄﾖｼﾁｮｳﾂﾔｻｸﾗｺﾞ","pref":"宮城県","city":"気仙沼市","address":"本吉町津谷桜子"},
{"zip_code":"9880381","kana_pref":"ﾐﾔｷﾞｹﾝ","kana_city":"ｹｾﾝﾇﾏｼ","kana_address":"ﾓﾄﾖｼﾁｮｳﾂﾔｼﾝｱｹﾄﾞ","pref":"宮城県","city":"気仙沼市","address":"本吉町津谷新明戸"},
{"zip_code":"9880307","kana_pref":"ﾐﾔｷﾞｹﾝ","kana_city":"ｹｾﾝﾇﾏｼ","kana_address":"ﾓﾄﾖｼﾁｮｳﾂﾔﾀﾃｵｶ","pref":"宮城県","city":"気仙沼市","address":"本吉町津谷舘岡"},
{"zip_code":"9880305","kana_pref":"ﾐﾔｷﾞｹﾝ","kana_city":"ｹｾﾝﾇﾏｼ","kana_address":"ﾓﾄﾖｼﾁｮｳﾂﾔﾅｶﾞﾈ","pref":"宮城県","city":"気仙沼市","address":"本吉町津谷長根"},
{"zip_code":"9880309","kana_pref":"ﾐﾔｷﾞｹﾝ","kana_city":"ｹｾﾝﾇﾏｼ","kana_address":"ﾓﾄﾖｼﾁｮｳﾂﾔﾏﾂｵ","pref":"宮城県","city":"気仙沼市","address":"本吉町津谷松尾"},
{"zip_code":"9880308","kana_pref":"ﾐﾔｷﾞｹﾝ","kana_city":"ｹｾﾝﾇﾏｼ","kana_address":"ﾓﾄﾖｼﾁｮｳﾂﾔﾏﾂｵｶ","pref":"宮城県","city":"気仙沼市","address":"本吉町津谷松岡"},
{"zip_code":"9880266","kana_pref":"ﾐﾔｷﾞｹﾝ","kana_city":"ｹｾﾝﾇﾏｼ","kana_address":"ﾓﾄﾖｼﾁｮｳﾃﾗｶﾞｲ","pref":"宮城県","city":"気仙沼市","address":"本吉町寺谷"},
{"zip_code":"9880267","kana_pref":"ﾐﾔｷﾞｹﾝ","kana_city":"ｹｾﾝﾇﾏｼ","kana_address":"ﾓﾄﾖｼﾁｮｳﾃﾗｻﾜ","pref":"宮城県","city":"気仙沼市","address":"本吉町寺沢"},
{"zip_code":"9880362","kana_pref":"ﾐﾔｷﾞｹﾝ","kana_city":"ｹｾﾝﾇﾏｼ","kana_address":"ﾓﾄﾖｼﾁｮｳﾃﾗﾖｳｶﾞｲ","pref":"宮城県","city":"気仙沼市","address":"本吉町寺要害"},
{"zip_code":"9880269","kana_pref":"ﾐﾔｷﾞｹﾝ","kana_city":"ｹｾﾝﾇﾏｼ","kana_address":"ﾓﾄﾖｼﾁｮｳﾄﾞｳﾒｷ","pref":"宮城県","city":"気仙沼市","address":"本吉町道貫"},
{"zip_code":"9880318","kana_pref":"ﾐﾔｷﾞｹﾝ","kana_city":"ｹｾﾝﾇﾏｼ","kana_address":"ﾓﾄﾖｼﾁｮｳﾄﾖﾏｻﾞﾜ","pref":"宮城県","city":"気仙沼市","address":"本吉町登米沢"},
{"zip_code":"9880387","kana_pref":"ﾐﾔｷﾞｹﾝ","kana_city":"ｹｾﾝﾇﾏｼ","kana_address":"ﾓﾄﾖｼﾁｮｳﾅｶｶﾜｳﾁ","pref":"宮城県","city":"気仙沼市","address":"本吉町中川内"},
{"zip_code":"9880327","kana_pref":"ﾐﾔｷﾞｹﾝ","kana_city":"ｹｾﾝﾇﾏｼ","kana_address":"ﾓﾄﾖｼﾁｮｳﾅｶﾞｸﾎﾞ","pref":"宮城県","city":"気仙沼市","address":"本吉町長窪"},
{"zip_code":"9880375","kana_pref":"ﾐﾔｷﾞｹﾝ","kana_city":"ｹｾﾝﾇﾏｼ","kana_address":"ﾓﾄﾖｼﾁｮｳﾅｶｻﾞﾜ","pref":"宮城県","city":"気仙沼市","address":"本吉町中沢"},
{"zip_code":"9880331","kana_pref":"ﾐﾔｷﾞｹﾝ","kana_city":"ｹｾﾝﾇﾏｼ","kana_address":"ﾓﾄﾖｼﾁｮｳﾅｶｼﾞﾏ","pref":"宮城県","city":"気仙沼市","address":"本吉町中島"},
{"zip_code":"9880357","kana_pref":"ﾐﾔｷﾞｹﾝ","kana_city":"ｹｾﾝﾇﾏｼ","kana_address":"ﾓﾄﾖｼﾁｮｳﾅｶﾀﾞｲﾗ","pref":"宮城県","city":"気仙沼市","address":"本吉町中平"},
{"zip_code":"9880264","kana_pref":"ﾐﾔｷﾞｹﾝ","kana_city":"ｹｾﾝﾇﾏｼ","kana_address":"ﾓﾄﾖｼﾁｮｳﾅｶﾞﾈ","pref":"宮城県","city":"気仙沼市","address":"本吉町長根"},
{"zip_code":"9880267","kana_pref":"ﾐﾔｷﾞｹﾝ","kana_city":"ｹｾﾝﾇﾏｼ","kana_address":"ﾓﾄﾖｼﾁｮｳﾅｶﾞﾊﾀｹ","pref":"宮城県","city":"気仙沼市","address":"本吉町長畑"},
{"zip_code":"9880386","kana_pref":"ﾐﾔｷﾞｹﾝ","kana_city":"ｹｾﾝﾇﾏｼ","kana_address":"ﾓﾄﾖｼﾁｮｳﾆｼｶﾜｳﾁ","pref":"宮城県","city":"気仙沼市","address":"本吉町西川内"},
{"zip_code":"9880322","kana_pref":"ﾐﾔｷﾞｹﾝ","kana_city":"ｹｾﾝﾇﾏｼ","kana_address":"ﾓﾄﾖｼﾁｮｳﾆｼﾞｭｳｲﾁﾊﾏ","pref":"宮城県","city":"気仙沼市","address":"本吉町二十一浜"},
{"zip_code":"9880342","kana_pref":"ﾐﾔｷﾞｹﾝ","kana_city":"ｹｾﾝﾇﾏｼ","kana_address":"ﾓﾄﾖｼﾁｮｳﾇｻｶｹ","pref":"宮城県","city":"気仙沼市","address":"本吉町幣掛"},
{"zip_code":"9880271","kana_pref":"ﾐﾔｷﾞｹﾝ","kana_city":"ｹｾﾝﾇﾏｼ","kana_address":"ﾓﾄﾖｼﾁｮｳﾉﾉｼﾀ","pref":"宮城県","city":"気仙沼市","address":"本吉町野々下"},
{"zip_code":"9880314","kana_pref":"ﾐﾔｷﾞｹﾝ","kana_city":"ｹｾﾝﾇﾏｼ","kana_address":"ﾓﾄﾖｼﾁｮｳﾊﾀﾉｻﾜ","pref":"宮城県","city":"気仙沼市","address":"本吉町圃の沢"},
{"zip_code":"9880302","kana_pref":"ﾐﾔｷﾞｹﾝ","kana_city":"ｹｾﾝﾇﾏｼ","kana_address":"ﾓﾄﾖｼﾁｮｳﾊﾔｼﾉｻﾜ","pref":"宮城県","city":"気仙沼市","address":"本吉町林の沢"},
{"zip_code":"9880389","kana_pref":"ﾐﾔｷﾞｹﾝ","kana_city":"ｹｾﾝﾇﾏｼ","kana_address":"ﾓﾄﾖｼﾁｮｳﾋｶﾞｼｶﾜｳﾁ","pref":"宮城県","city":"気仙沼市","address":"本吉町東川内"},
{"zip_code":"9880276","kana_pref":"ﾐﾔｷﾞｹﾝ","kana_city":"ｹｾﾝﾇﾏｼ","kana_address":"ﾓﾄﾖｼﾁｮｳﾋｶﾄﾞ","pref":"宮城県","city":"気仙沼市","address":"本吉町日門"},
{"zip_code":"9880333","kana_pref":"ﾐﾔｷﾞｹﾝ","kana_city":"ｹｾﾝﾇﾏｼ","kana_address":"ﾓﾄﾖｼﾁｮｳﾋﾗｶﾞｲ","pref":"宮城県","city":"気仙沼市","address":"本吉町平貝"},
{"zip_code":"9880363","kana_pref":"ﾐﾔｷﾞｹﾝ","kana_city":"ｹｾﾝﾇﾏｼ","kana_address":"ﾓﾄﾖｼﾁｮｳﾌｶﾊｷﾞ","pref":"宮城県","city":"気仙沼市","address":"本吉町深萩"},
{"zip_code":"9880281","kana_pref":"ﾐﾔｷﾞｹﾝ","kana_city":"ｹｾﾝﾇﾏｼ","kana_address":"ﾓﾄﾖｼﾁｮｳﾌﾁｭｳ","pref":"宮城県","city":"気仙沼市","address":"本吉町府中"},
{"zip_code":"9880383","kana_pref":"ﾐﾔｷﾞｹﾝ","kana_city":"ｹｾﾝﾇﾏｼ","kana_address":"ﾓﾄﾖｼﾁｮｳﾎﾞｳﾉｸﾗ","pref":"宮城県","city":"気仙沼市","address":"本吉町坊の倉"},
{"zip_code":"9880263","kana_pref":"ﾐﾔｷﾞｹﾝ","kana_city":"ｹｾﾝﾇﾏｼ","kana_address":"ﾓﾄﾖｼﾁｮｳﾎﾗｻﾜ","pref":"宮城県","city":"気仙沼市","address":"本吉町洞沢"},
{"zip_code":"9880282","kana_pref":"ﾐﾔｷﾞｹﾝ","kana_city":"ｹｾﾝﾇﾏｼ","kana_address":"ﾓﾄﾖｼﾁｮｳﾏｴﾊﾏ","pref":"宮城県","city":"気仙沼市","address":"本吉町前浜"},
{"zip_code":"9880365","kana_pref":"ﾐﾔｷﾞｹﾝ","kana_city":"ｹｾﾝﾇﾏｼ","kana_address":"ﾓﾄﾖｼﾁｮｳﾏｺﾞﾒﾏﾁ","pref":"宮城県","city":"気仙沼市","address":"本吉町馬籠町"},
{"zip_code":"9880366","kana_pref":"ﾐﾔｷﾞｹﾝ","kana_city":"ｹｾﾝﾇﾏｼ","kana_address":"ﾓﾄﾖｼﾁｮｳﾏｺﾞﾒﾏﾁｶﾞｼﾗ","pref":"宮城県","city":"気仙沼市","address":"本吉町馬籠町頭"},
{"zip_code":"9880343","kana_pref":"ﾐﾔｷﾞｹﾝ","kana_city":"ｹｾﾝﾇﾏｼ","kana_address":"ﾓﾄﾖｼﾁｮｳﾏﾂｶﾞｻﾜ","pref":"宮城県","city":"気仙沼市","address":"本吉町松ヶ沢"},
{"zip_code":"9880273","kana_pref":"ﾐﾔｷﾞｹﾝ","kana_city":"ｹｾﾝﾇﾏｼ","kana_address":"ﾓﾄﾖｼﾁｮｳﾐｼﾏ","pref":"宮城県","city":"気仙沼市","address":"本吉町三島"},
{"zip_code":"9880312","kana_pref":"ﾐﾔｷﾞｹﾝ","kana_city":"ｹｾﾝﾇﾏｼ","kana_address":"ﾓﾄﾖｼﾁｮｳﾐﾁｿﾄ","pref":"宮城県","city":"気仙沼市","address":"本吉町道外"},
{"zip_code":"9880338","kana_pref":"ﾐﾔｷﾞｹﾝ","kana_city":"ｹｾﾝﾇﾏｼ","kana_address":"ﾓﾄﾖｼﾁｮｳﾐﾅﾐｱｹﾄﾞ","pref":"宮城県","city":"気仙沼市","address":"本吉町南明戸"},
{"zip_code":"9880344","kana_pref":"ﾐﾔｷﾞｹﾝ","kana_city":"ｹｾﾝﾇﾏｼ","kana_address":"ﾓﾄﾖｼﾁｮｳﾐﾔｳﾁ","pref":"宮城県","city":"気仙沼市","address":"本吉町宮内"},
{"zip_code":"9880367","kana_pref":"ﾐﾔｷﾞｹﾝ","kana_city":"ｹｾﾝﾇﾏｼ","kana_address":"ﾓﾄﾖｼﾁｮｳﾑｶｲﾊﾞﾀ","pref":"宮城県","city":"気仙沼市","address":"本吉町向畑"},
{"zip_code":"9880283","kana_pref":"ﾐﾔｷﾞｹﾝ","kana_city":"ｹｾﾝﾇﾏｼ","kana_address":"ﾓﾄﾖｼﾁｮｳﾔﾁ","pref":"宮城県","city":"気仙沼市","address":"本吉町谷地"},
{"zip_code":"9880326","kana_pref":"ﾐﾔｷﾞｹﾝ","kana_city":"ｹｾﾝﾇﾏｼ","kana_address":"ﾓﾄﾖｼﾁｮｳﾔﾅｷﾞｻﾜ","pref":"宮城県","city":"気仙沼市","address":"本吉町柳沢"},
{"zip_code":"9880278","kana_pref":"ﾐﾔｷﾞｹﾝ","kana_city":"ｹｾﾝﾇﾏｼ","kana_address":"ﾓﾄﾖｼﾁｮｳﾔﾏﾔ","pref":"宮城県","city":"気仙沼市","address":"本吉町山谷"},
{"zip_code":"9880359","kana_pref":"ﾐﾔｷﾞｹﾝ","kana_city":"ｹｾﾝﾇﾏｼ","kana_address":"ﾓﾄﾖｼﾁｮｳﾜﾉ","pref":"宮城県","city":"気仙沼市","address":"本吉町上野"},
{"zip_code":"9880335","kana_pref":"ﾐﾔｷﾞｹﾝ","kana_city":"ｹｾﾝﾇﾏｼ","kana_address":"ﾓﾄﾖｼﾁｮｳﾜﾗﾋﾞﾉ","pref":"宮城県","city":"気仙沼市","address":"本吉町蕨野"},
{"zip_code":"9880169","kana_pref":"ﾐﾔｷﾞｹﾝ","kana_city":"ｹｾﾝﾇﾏｼ","kana_address":"ﾓﾉｸﾗﾔﾏ","pref":"宮城県","city":"気仙沼市","address":"物倉山"},
{"zip_code":"9880841","kana_pref":"ﾐﾔｷﾞｹﾝ","kana_city":"ｹｾﾝﾇﾏｼ","kana_address":"ﾔﾅｷﾞｻﾞﾜ","pref":"宮城県","city":"気仙沼市","address":"柳沢"},
{"zip_code":"9880634","kana_pref":"ﾐﾔｷﾞｹﾝ","kana_city":"ｹｾﾝﾇﾏｼ","kana_address":"ﾖｳｶﾞｲ","pref":"宮城県","city":"気仙沼市","address":"要害"},
{"zip_code":"9880084","kana_pref":"ﾐﾔｷﾞｹﾝ","kana_city":"ｹｾﾝﾇﾏｼ","kana_address":"ﾖｳｶﾏﾁ","pref":"宮城県","city":"気仙沼市","address":"八日町"},
{"zip_code":"9880632","kana_pref":"ﾐﾔｷﾞｹﾝ","kana_city":"ｹｾﾝﾇﾏｼ","kana_address":"ﾖｺﾇﾏ","pref":"宮城県","city":"気仙沼市","address":"横沼"},
{"zip_code":"9880863","kana_pref":"ﾐﾔｷﾞｹﾝ","kana_city":"ｹｾﾝﾇﾏｼ","kana_address":"ﾖｼﾉｸﾁ","pref":"宮城県","city":"気仙沼市","address":"芳ノ口"},
{"zip_code":"9880865","kana_pref":"ﾐﾔｷﾞｹﾝ","kana_city":"ｹｾﾝﾇﾏｼ","kana_address":"ﾜｾﾔ","pref":"宮城県","city":"気仙沼市","address":"早稲谷"},
{"zip_code":"9880833","kana_pref":"ﾐﾔｷﾞｹﾝ","kana_city":"ｹｾﾝﾇﾏｼ","kana_address":"ﾜﾀﾄﾞ","pref":"宮城県","city":"気仙沼市","address":"渡戸"},
{"zip_code":"9880827","kana_pref":"ﾐﾔｷﾞｹﾝ","kana_city":"ｹｾﾝﾇﾏｼ","kana_address":"ﾜﾉ","pref":"宮城県","city":"気仙沼市","address":"和野"},
{"zip_code":"9880453","kana_pref":"ﾐﾔｷﾞｹﾝ","kana_city":"ﾓﾄﾖｼｸﾞﾝﾐﾅﾐｻﾝﾘｸﾁｮｳ","kana_address":"ｳﾀﾂｲｻﾄﾏｴ","pref":"宮城県","city":"本吉郡南三陸町","address":"歌津伊里前"},
{"zip_code":"9880471","kana_pref":"ﾐﾔｷﾞｹﾝ","kana_city":"ﾓﾄﾖｼｸﾞﾝﾐﾅﾐｻﾝﾘｸﾁｮｳ","kana_address":"ｳﾀﾂｲｼｽﾞﾐ","pref":"宮城県","city":"本吉郡南三陸町","address":"歌津石泉"},
{"zip_code":"9880426","kana_pref":"ﾐﾔｷﾞｹﾝ","kana_city":"ﾓﾄﾖｼｸﾞﾝﾐﾅﾐｻﾝﾘｸﾁｮｳ","kana_address":"ｳﾀﾂｲｼﾊﾏ","pref":"宮城県","city":"本吉郡南三陸町","address":"歌津石浜"},
{"zip_code":"9880446","kana_pref":"ﾐﾔｷﾞｹﾝ","kana_city":"ﾓﾄﾖｼｸﾞﾝﾐﾅﾐｻﾝﾘｸﾁｮｳ","kana_address":"ｳﾀﾂｲﾀﾊﾞｼ","pref":"宮城県","city":"本吉郡南三陸町","address":"歌津板橋"},
{"zip_code":"9880434","kana_pref":"ﾐﾔｷﾞｹﾝ","kana_city":"ﾓﾄﾖｼｸﾞﾝﾐﾅﾐｻﾝﾘｸﾁｮｳ","kana_address":"ｳﾀﾂｵｵｲｿ","pref":"宮城県","city":"本吉郡南三陸町","address":"歌津大磯"},
{"zip_code":"9880448","kana_pref":"ﾐﾔｷﾞｹﾝ","kana_city":"ﾓﾄﾖｼｸﾞﾝﾐﾅﾐｻﾝﾘｸﾁｮｳ","kana_address":"ｳﾀﾂｵｵﾇﾏ","pref":"宮城県","city":"本吉郡南三陸町","address":"歌津大沼"},
{"zip_code":"9880463","kana_pref":"ﾐﾔｷﾞｹﾝ","kana_city":"ﾓﾄﾖｼｸﾞﾝﾐﾅﾐｻﾝﾘｸﾁｮｳ","kana_address":"ｳﾀﾂｵｵﾓﾘ","pref":"宮城県","city":"本吉郡南三陸町","address":"歌津大森"},
{"zip_code":"9880443","kana_pref":"ﾐﾔｷﾞｹﾝ","kana_city":"ﾓﾄﾖｼｸﾞﾝﾐﾅﾐｻﾝﾘｸﾁｮｳ","kana_address":"ｳﾀﾂｵｻｷ","pref":"宮城県","city":"本吉郡南三陸町","address":"歌津尾崎"},
{"zip_code":"9880476","kana_pref":"ﾐﾔｷﾞｹﾝ","kana_city":"ﾓﾄﾖｼｸﾞﾝﾐﾅﾐｻﾝﾘｸﾁｮｳ","kana_address":"ｳﾀﾂｶﾐｻﾜ","pref":"宮城県","city":"本吉郡南三陸町","address":"歌津上沢"},
{"zip_code":"9880413","kana_pref":"ﾐﾔｷﾞｹﾝ","kana_city":"ﾓﾄﾖｼｸﾞﾝﾐﾅﾐｻﾝﾘｸﾁｮｳ","kana_address":"ｳﾀﾂｶﾐﾉﾔﾏ","pref":"宮城県","city":"本吉郡南三陸町","address":"歌津上の山"},
{"zip_code":"9880425","kana_pref":"ﾐﾔｷﾞｹﾝ","kana_city":"ﾓﾄﾖｼｸﾞﾝﾐﾅﾐｻﾝﾘｸﾁｮｳ","kana_address":"ｳﾀﾂｶﾐﾔﾏ","pref":"宮城県","city":"本吉郡南三陸町","address":"歌津神山"},
{"zip_code":"9880456","kana_pref":"ﾐﾔｷﾞｹﾝ","kana_city":"ﾓﾄﾖｼｸﾞﾝﾐﾅﾐｻﾝﾘｸﾁｮｳ","kana_address":"ｳﾀﾂｶﾜｳﾁ","pref":"宮城県","city":"本吉郡南三陸町","address":"歌津川内"},
{"zip_code":"9880424","kana_pref":"ﾐﾔｷﾞｹﾝ","kana_city":"ﾓﾄﾖｼｸﾞﾝﾐﾅﾐｻﾝﾘｸﾁｮｳ","kana_address":"ｳﾀﾂｷﾀﾉｻﾜ","pref":"宮城県","city":"本吉郡南三陸町","address":"歌津北の沢"},
{"zip_code":"9880405","kana_pref":"ﾐﾔｷﾞｹﾝ","kana_city":"ﾓﾄﾖｼｸﾞﾝﾐﾅﾐｻﾝﾘｸﾁｮｳ","kana_address":"ｳﾀﾂｸｻｷｻﾞﾜ","pref":"宮城県","city":"本吉郡南三陸町","address":"歌津草木沢"},
{"zip_code":"9880451","kana_pref":"ﾐﾔｷﾞｹﾝ","kana_city":"ﾓﾄﾖｼｸﾞﾝﾐﾅﾐｻﾝﾘｸﾁｮｳ","kana_address":"ｳﾀﾂｸﾀﾞﾉﾊﾏ","pref":"宮城県","city":"本吉郡南三陸町","address":"歌津管の浜"},
{"zip_code":"9880436","kana_pref":"ﾐﾔｷﾞｹﾝ","kana_city":"ﾓﾄﾖｼｸﾞﾝﾐﾅﾐｻﾝﾘｸﾁｮｳ","kana_address":"ｳﾀﾂｺﾅｶﾞｼﾊﾞ","pref":"宮城県","city":"本吉郡南三陸町","address":"歌津小長柴"},
{"zip_code":"9880435","kana_pref":"ﾐﾔｷﾞｹﾝ","kana_city":"ﾓﾄﾖｼｸﾞﾝﾐﾅﾐｻﾝﾘｸﾁｮｳ","kana_address":"ｳﾀﾂｺﾇﾏ","pref":"宮城県","city":"本吉郡南三陸町","address":"歌津小沼"},
{"zip_code":"9880467","kana_pref":"ﾐﾔｷﾞｹﾝ","kana_city":"ﾓﾄﾖｼｸﾞﾝﾐﾅﾐｻﾝﾘｸﾁｮｳ","kana_address":"ｳﾀﾂｻﾗｶﾞｲ","pref":"宮城県","city":"本吉郡南三陸町","address":"歌津皿貝"},
{"zip_code":"9880475","kana_pref":"ﾐﾔｷﾞｹﾝ","kana_city":"ﾓﾄﾖｼｸﾞﾝﾐﾅﾐｻﾝﾘｸﾁｮｳ","kana_address":"ｳﾀﾂｼﾗﾔﾏ","pref":"宮城県","city":"本吉郡南三陸町","address":"歌津白山"},
{"zip_code":"9880462","kana_pref":"ﾐﾔｷﾞｹﾝ","kana_city":"ﾓﾄﾖｼｸﾞﾝﾐﾅﾐｻﾝﾘｸﾁｮｳ","kana_address":"ｳﾀﾂｽﾅﾊﾏ","pref":"宮城県","city":"本吉郡南三陸町","address":"歌津砂浜"},
{"zip_code":"9880474","kana_pref":"ﾐﾔｷﾞｹﾝ","kana_city":"ﾓﾄﾖｼｸﾞﾝﾐﾅﾐｻﾝﾘｸﾁｮｳ","kana_address":"ｳﾀﾂﾀｵﾓﾃ","pref":"宮城県","city":"本吉郡南三陸町","address":"歌津田表"},
{"zip_code":"9880445","kana_pref":"ﾐﾔｷﾞｹﾝ","kana_city":"ﾓﾄﾖｼｸﾞﾝﾐﾅﾐｻﾝﾘｸﾁｮｳ","kana_address":"ｳﾀﾂﾀﾃﾊﾏ","pref":"宮城県","city":"本吉郡南三陸町","address":"歌津館浜"},
{"zip_code":"9880415","kana_pref":"ﾐﾔｷﾞｹﾝ","kana_city":"ﾓﾄﾖｼｸﾞﾝﾐﾅﾐｻﾝﾘｸﾁｮｳ","kana_address":"ｳﾀﾂﾀﾉｳﾗ","pref":"宮城県","city":"本吉郡南三陸町","address":"歌津田の浦"},
{"zip_code":"9880441","kana_pref":"ﾐﾔｷﾞｹﾝ","kana_city":"ﾓﾄﾖｼｸﾞﾝﾐﾅﾐｻﾝﾘｸﾁｮｳ","kana_address":"ｳﾀﾂﾀﾉｶﾞｼﾗ","pref":"宮城県","city":"本吉郡南三陸町","address":"歌津田の頭"},
{"zip_code":"9880411","kana_pref":"ﾐﾔｷﾞｹﾝ","kana_city":"ﾓﾄﾖｼｸﾞﾝﾐﾅﾐｻﾝﾘｸﾁｮｳ","kana_address":"ｳﾀﾂﾀﾓｶﾞﾜ","pref":"宮城県","city":"本吉郡南三陸町","address":"歌津田茂川"},
{"zip_code":"9880444","kana_pref":"ﾐﾔｷﾞｹﾝ","kana_city":"ﾓﾄﾖｼｸﾞﾝﾐﾅﾐｻﾝﾘｸﾁｮｳ","kana_address":"ｳﾀﾂﾄﾏﾘﾊﾏ","pref":"宮城県","city":"本吉郡南三陸町","address":"歌津泊浜"},
{"zip_code":"9880473","kana_pref":"ﾐﾔｷﾞｹﾝ","kana_city":"ﾓﾄﾖｼｸﾞﾝﾐﾅﾐｻﾝﾘｸﾁｮｳ","kana_address":"ｳﾀﾂﾅｶｻﾞｲ","pref":"宮城県","city":"本吉郡南三陸町","address":"歌津中在"},
{"zip_code":"9880414","kana_pref":"ﾐﾔｷﾞｹﾝ","kana_city":"ﾓﾄﾖｼｸﾞﾝﾐﾅﾐｻﾝﾘｸﾁｮｳ","kana_address":"ｳﾀﾂﾅｶﾞｻﾜ","pref":"宮城県","city":"本吉郡南三陸町","address":"歌津長沢"},
{"zip_code":"9880447","kana_pref":"ﾐﾔｷﾞｹﾝ","kana_city":"ﾓﾄﾖｼｸﾞﾝﾐﾅﾐｻﾝﾘｸﾁｮｳ","kana_address":"ｳﾀﾂﾅｶﾞｼﾊﾞ","pref":"宮城県","city":"本吉郡南三陸町","address":"歌津長柴"},
{"zip_code":"9880406","kana_pref":"ﾐﾔｷﾞｹﾝ","kana_city":"ﾓﾄﾖｼｸﾞﾝﾐﾅﾐｻﾝﾘｸﾁｮｳ","kana_address":"ｳﾀﾂﾅｶﾉ","pref":"宮城県","city":"本吉郡南三陸町","address":"歌津中野"},
{"zip_code":"9880403","kana_pref":"ﾐﾔｷﾞｹﾝ","kana_city":"ﾓﾄﾖｼｸﾞﾝﾐﾅﾐｻﾝﾘｸﾁｮｳ","kana_address":"ｳﾀﾂﾅｶﾞﾊ","pref":"宮城県","city":"本吉郡南三陸町","address":"歌津長羽"},
{"zip_code":"9880432","kana_pref":"ﾐﾔｷﾞｹﾝ","kana_city":"ﾓﾄﾖｼｸﾞﾝﾐﾅﾐｻﾝﾘｸﾁｮｳ","kana_address":"ｳﾀﾂﾅｶﾔﾏ","pref":"宮城県","city":"本吉郡南三陸町","address":"歌津中山"},
{"zip_code":"9880431","kana_pref":"ﾐﾔｷﾞｹﾝ","kana_city":"ﾓﾄﾖｼｸﾞﾝﾐﾅﾐｻﾝﾘｸﾁｮｳ","kana_address":"ｳﾀﾂﾅﾀﾘ","pref":"宮城県","city":"本吉郡南三陸町","address":"歌津名足"},
{"zip_code":"9880401","kana_pref":"ﾐﾔｷﾞｹﾝ","kana_city":"ﾓﾄﾖｼｸﾞﾝﾐﾅﾐｻﾝﾘｸﾁｮｳ","kana_address":"ｳﾀﾂﾅﾐｲﾀ","pref":"宮城県","city":"本吉郡南三陸町","address":"歌津浪板"},
{"zip_code":"9880465","kana_pref":"ﾐﾔｷﾞｹﾝ","kana_city":"ﾓﾄﾖｼｸﾞﾝﾐﾅﾐｻﾝﾘｸﾁｮｳ","kana_address":"ｳﾀﾂﾆﾗﾉﾊﾏ","pref":"宮城県","city":"本吉郡南三陸町","address":"歌津韮の浜"},
{"zip_code":"9880433","kana_pref":"ﾐﾔｷﾞｹﾝ","kana_city":"ﾓﾄﾖｼｸﾞﾝﾐﾅﾐｻﾝﾘｸﾁｮｳ","kana_address":"ｳﾀﾂﾊﾞﾊﾞ","pref":"宮城県","city":"本吉郡南三陸町","address":"歌津馬場"},
{"zip_code":"9880477","kana_pref":"ﾐﾔｷﾞｹﾝ","kana_city":"ﾓﾄﾖｼｸﾞﾝﾐﾅﾐｻﾝﾘｸﾁｮｳ","kana_address":"ｳﾀﾂﾊﾗｲｶﾜ","pref":"宮城県","city":"本吉郡南三陸町","address":"歌津払川"},
{"zip_code":"9880442","kana_pref":"ﾐﾔｷﾞｹﾝ","kana_city":"ﾓﾄﾖｼｸﾞﾝﾐﾅﾐｻﾝﾘｸﾁｮｳ","kana_address":"ｳﾀﾂﾊﾞﾝﾄﾞｺﾛ","pref":"宮城県","city":"本吉郡南三陸町","address":"歌津番所"},
{"zip_code":"9880478","kana_pref":"ﾐﾔｷﾞｹﾝ","kana_city":"ﾓﾄﾖｼｸﾞﾝﾐﾅﾐｻﾝﾘｸﾁｮｳ","kana_address":"ｳﾀﾂﾋﾉｸﾁ","pref":"宮城県","city":"本吉郡南三陸町","address":"歌津樋の口"},
{"zip_code":"9880421","kana_pref":"ﾐﾔｷﾞｹﾝ","kana_city":"ﾓﾄﾖｼｸﾞﾝﾐﾅﾐｻﾝﾘｸﾁｮｳ","kana_address":"ｳﾀﾂﾋﾗﾀﾞﾅ","pref":"宮城県","city":"本吉郡南三陸町","address":"歌津平棚"},
{"zip_code":"9880466","kana_pref":"ﾐﾔｷﾞｹﾝ","kana_city":"ﾓﾄﾖｼｸﾞﾝﾐﾅﾐｻﾝﾘｸﾁｮｳ","kana_address":"ｳﾀﾂﾋﾗﾏﾂ","pref":"宮城県","city":"本吉郡南三陸町","address":"歌津平松"},
{"zip_code":"9880404","kana_pref":"ﾐﾔｷﾞｹﾝ","kana_city":"ﾓﾄﾖｼｸﾞﾝﾐﾅﾐｻﾝﾘｸﾁｮｳ","kana_address":"ｳﾀﾂﾏｷﾀ","pref":"宮城県","city":"本吉郡南三陸町","address":"歌津牧田"},
{"zip_code":"9880423","kana_pref":"ﾐﾔｷﾞｹﾝ","kana_city":"ﾓﾄﾖｼｸﾞﾝﾐﾅﾐｻﾝﾘｸﾁｮｳ","kana_address":"ｳﾀﾂﾏｽｻﾞﾜ","pref":"宮城県","city":"本吉郡南三陸町","address":"歌津枡沢"},
{"zip_code":"9880452","kana_pref":"ﾐﾔｷﾞｹﾝ","kana_city":"ﾓﾄﾖｼｸﾞﾝﾐﾅﾐｻﾝﾘｸﾁｮｳ","kana_address":"ｳﾀﾂﾏﾁﾑｶｲ","pref":"宮城県","city":"本吉郡南三陸町","address":"歌津町向"},
{"zip_code":"9880422","kana_pref":"ﾐﾔｷﾞｹﾝ","kana_city":"ﾓﾄﾖｼｸﾞﾝﾐﾅﾐｻﾝﾘｸﾁｮｳ","kana_address":"ｳﾀﾂﾏﾂﾉｻｷ","pref":"宮城県","city":"本吉郡南三陸町","address":"歌津松の崎"},
{"zip_code":"9880402","kana_pref":"ﾐﾔｷﾞｹﾝ","kana_city":"ﾓﾄﾖｼｸﾞﾝﾐﾅﾐｻﾝﾘｸﾁｮｳ","kana_address":"ｳﾀﾂﾐﾅﾄ","pref":"宮城県","city":"本吉郡南三陸町","address":"歌津港"},
{"zip_code":"9880412","kana_pref":"ﾐﾔｷﾞｹﾝ","kana_city":"ﾓﾄﾖｼｸﾞﾝﾐﾅﾐｻﾝﾘｸﾁｮｳ","kana_address":"ｳﾀﾂﾐﾅﾐﾉｻﾜ","pref":"宮城県","city":"本吉郡南三陸町","address":"歌津南の沢"},
{"zip_code":"9880454","kana_pref":"ﾐﾔｷﾞｹﾝ","kana_city":"ﾓﾄﾖｼｸﾞﾝﾐﾅﾐｻﾝﾘｸﾁｮｳ","kana_address":"ｳﾀﾂﾐﾈﾊﾀ","pref":"宮城県","city":"本吉郡南三陸町","address":"歌津峰畑"},
{"zip_code":"9880472","kana_pref":"ﾐﾔｷﾞｹﾝ","kana_city":"ﾓﾄﾖｼｸﾞﾝﾐﾅﾐｻﾝﾘｸﾁｮｳ","kana_address":"ｳﾀﾂﾐﾔｶﾀ","pref":"宮城県","city":"本吉郡南三陸町","address":"歌津宮方"},
{"zip_code":"9880464","kana_pref":"ﾐﾔｷﾞｹﾝ","kana_city":"ﾓﾄﾖｼｸﾞﾝﾐﾅﾐｻﾝﾘｸﾁｮｳ","kana_address":"ｳﾀﾂﾓﾘﾊﾀ","pref":"宮城県","city":"本吉郡南三陸町","address":"歌津森畑"},
{"zip_code":"9880455","kana_pref":"ﾐﾔｷﾞｹﾝ","kana_city":"ﾓﾄﾖｼｸﾞﾝﾐﾅﾐｻﾝﾘｸﾁｮｳ","kana_address":"ｳﾀﾂﾖｼﾉｻﾜ","pref":"宮城県","city":"本吉郡南三陸町","address":"歌津吉野沢"},
{"zip_code":"9880461","kana_pref":"ﾐﾔｷﾞｹﾝ","kana_city":"ﾓﾄﾖｼｸﾞﾝﾐﾅﾐｻﾝﾘｸﾁｮｳ","kana_address":"ｳﾀﾂﾖﾘｷ","pref":"宮城県","city":"本吉郡南三陸町","address":"歌津寄木"}]}