{"zip_code":[
{"zip_code":"9900000","kana_pref":"ﾔﾏｶﾞﾀｹﾝ","kana_city":"ﾔﾏｶﾞﾀｼ","kana_address":"","pref":"山形県","city":"山形市","address":""},
{"zip_code":"9900055","kana_pref":"ﾔﾏｶﾞﾀｹﾝ","kana_city":"ﾔﾏｶﾞﾀｼ","kana_address":"ｱｲｵｲﾁｮｳ","pref":"山形県","city":"山形市","address":"相生町"},
{"zip_code":"9902435","kana_pref":"ﾔﾏｶﾞﾀｹﾝ","kana_city":"ﾔﾏｶﾞﾀｼ","kana_address":"ｱｵﾀ","pref":"山形県","city":"山形市","address":"青田"},
{"zip_code":"9902324","kana_pref":"ﾔﾏｶﾞﾀｹﾝ","kana_city":"ﾔﾏｶﾞﾀｼ","kana_address":"ｱｵﾀﾐﾅﾐ","pref":"山形県","city":"山形市","address":"青田南"},
{"zip_code":"9902222","kana_pref":"ﾔﾏｶﾞﾀｹﾝ","kana_city":"ﾔﾏｶﾞﾀｼ","kana_address":"ｱｵﾉ","pref":"山形県","city":"山形市","address":"青野"},
{"zip_code":"9902214","kana_pref":"ﾔﾏｶﾞﾀｹﾝ","kana_city":"ﾔﾏｶﾞﾀｼ","kana_address":"ｱｵﾔｷﾞ","pref":"山形県","city":"山形市","address":"青柳"},
{"zip_code":"9902353","kana_pref":"ﾔﾏｶﾞﾀｹﾝ","kana_city":"ﾔﾏｶﾞﾀｼ","kana_address":"ｱｶｼﾄﾞｳ","pref":"山形県","city":"山形市","address":"明石堂"},
{"zip_code":"9902481","kana_pref":"ﾔﾏｶﾞﾀｹﾝ","kana_city":"ﾔﾏｶﾞﾀｼ","kana_address":"ｱｶﾈｶﾞｵｶ","pref":"山形県","city":"山形市","address":"あかねケ丘"},
{"zip_code":"9902162","kana_pref":"ﾔﾏｶﾞﾀｹﾝ","kana_city":"ﾔﾏｶﾞﾀｼ","kana_address":"ｱｹﾎﾞﾉ","pref":"山形県","city":"山形市","address":"あけぼの"},
{"zip_code":"9900025","kana_pref":"ﾔﾏｶﾞﾀｹﾝ","kana_city":"ﾔﾏｶﾞﾀｼ","kana_address":"ｱｺﾔﾁｮｳ","pref":"山形県","city":"山形市","address":"あこや町"},
{"zip_code":"9902434","kana_pref":"ﾔﾏｶﾞﾀｹﾝ","kana_city":"ﾔﾏｶﾞﾀｼ","kana_address":"ｱｻﾋｶﾞｵｶ","pref":"山形県","city":"山形市","address":"旭が丘"},
{"zip_code":"9900024","kana_pref":"ﾔﾏｶﾞﾀｹﾝ","kana_city":"ﾔﾏｶﾞﾀｼ","kana_address":"ｱｻﾋﾏﾁ","pref":"山形県","city":"山形市","address":"あさひ町"},
{"zip_code":"9902491","kana_pref":"ﾔﾏｶﾞﾀｹﾝ","kana_city":"ﾔﾏｶﾞﾀｼ","kana_address":"ｱｽﾞﾏﾁｮｳ","pref":"山形県","city":"山形市","address":"あずま町"},
{"zip_code":"9902432","kana_pref":"ﾔﾏｶﾞﾀｹﾝ","kana_city":"ﾔﾏｶﾞﾀｼ","kana_address":"ｱﾗﾀﾃﾁｮｳ","pref":"山形県","city":"山形市","address":"荒楯町"},
{"zip_code":"9902476","kana_pref":"ﾔﾏｶﾞﾀｹﾝ","kana_city":"ﾔﾏｶﾞﾀｼ","kana_address":"ｲｲｻﾞﾜ","pref":"山形県","city":"山形市","address":"飯沢"},
{"zip_code":"9902332","kana_pref":"ﾔﾏｶﾞﾀｹﾝ","kana_city":"ﾔﾏｶﾞﾀｼ","kana_address":"ｲｲﾀﾞ","pref":"山形県","city":"山形市","address":"飯田"},
{"zip_code":"9902331","kana_pref":"ﾔﾏｶﾞﾀｹﾝ","kana_city":"ﾔﾏｶﾞﾀｼ","kana_address":"ｲｲﾀﾞﾆｼ","pref":"山形県","city":"山形市","address":"飯田西"},
{"zip_code":"9900841","kana_pref":"ﾔﾏｶﾞﾀｹﾝ","kana_city":"ﾔﾏｶﾞﾀｼ","kana_address":"ｲｲﾂﾞｶｸﾞﾁ","pref":"山形県","city":"山形市","address":"飯塚口"},
{"zip_code":"9900845","kana_pref":"ﾔﾏｶﾞﾀｹﾝ","kana_city":"ﾔﾏｶﾞﾀｼ","kana_address":"ｲｲﾂﾞｶﾏﾁ","pref":"山形県","city":"山形市","address":"飯塚町"},
{"zip_code":"9900842","kana_pref":"ﾔﾏｶﾞﾀｹﾝ","kana_city":"ﾔﾏｶﾞﾀｼ","kana_address":"ｲｼｾﾞｷ","pref":"山形県","city":"山形市","address":"石関"},
{"zip_code":"9900061","kana_pref":"ﾔﾏｶﾞﾀｹﾝ","kana_city":"ﾔﾏｶﾞﾀｼ","kana_address":"ｲｽｽﾞ","pref":"山形県","city":"山形市","address":"五十鈴"},
{"zip_code":"9900068","kana_pref":"ﾔﾏｶﾞﾀｹﾝ","kana_city":"ﾔﾏｶﾞﾀｼ","kana_address":"ｲｽﾞﾐﾁｮｳ","pref":"山形県","city":"山形市","address":"泉町"},
{"zip_code":"9900829","kana_pref":"ﾔﾏｶﾞﾀｹﾝ","kana_city":"ﾔﾏｶﾞﾀｼ","kana_address":"ｲﾂｶﾏﾁ","pref":"山形県","city":"山形市","address":"五日町"},
{"zip_code":"9900817","kana_pref":"ﾔﾏｶﾞﾀｹﾝ","kana_city":"ﾔﾏｶﾞﾀｼ","kana_address":"ｲﾏﾂﾞｶ","pref":"山形県","city":"山形市","address":"今塚"},
{"zip_code":"9902351","kana_pref":"ﾔﾏｶﾞﾀｹﾝ","kana_city":"ﾔﾏｶﾞﾀｼ","kana_address":"ｲﾓﾉﾏﾁ","pref":"山形県","city":"山形市","address":"鋳物町"},
{"zip_code":"9902403","kana_pref":"ﾔﾏｶﾞﾀｹﾝ","kana_city":"ﾔﾏｶﾞﾀｼ","kana_address":"ｲﾜﾅﾐ","pref":"山形県","city":"山形市","address":"岩波"},
{"zip_code":"9900066","kana_pref":"ﾔﾏｶﾞﾀｹﾝ","kana_city":"ﾔﾏｶﾞﾀｼ","kana_address":"ｲﾝﾔｸﾏﾁ","pref":"山形県","city":"山形市","address":"印役町"},
{"zip_code":"9900877","kana_pref":"ﾔﾏｶﾞﾀｹﾝ","kana_city":"ﾔﾏｶﾞﾀｼ","kana_address":"ｳﾁｵﾓﾃ","pref":"山形県","city":"山形市","address":"内表"},
{"zip_code":"9900878","kana_pref":"ﾔﾏｶﾞﾀｹﾝ","kana_city":"ﾔﾏｶﾞﾀｼ","kana_address":"ｳﾁｵﾓﾃﾋｶﾞｼ","pref":"山形県","city":"山形市","address":"内表東"},
{"zip_code":"9900874","kana_pref":"ﾔﾏｶﾞﾀｹﾝ","kana_city":"ﾔﾏｶﾞﾀｼ","kana_address":"ｳﾒﾉｷﾏｴ","pref":"山形県","city":"山形市","address":"梅野木前"},
{"zip_code":"9902161","kana_pref":"ﾔﾏｶﾞﾀｹﾝ","kana_city":"ﾔﾏｶﾞﾀｼ","kana_address":"ｳﾙｼﾔﾏ","pref":"山形県","city":"山形市","address":"漆山"},
{"zip_code":"9902483","kana_pref":"ﾔﾏｶﾞﾀｹﾝ","kana_city":"ﾔﾏｶﾞﾀｼ","kana_address":"ｳﾜﾏﾁ","pref":"山形県","city":"山形市","address":"上町"},
{"zip_code":"9900861","kana_pref":"ﾔﾏｶﾞﾀｹﾝ","kana_city":"ﾔﾏｶﾞﾀｼ","kana_address":"ｴﾏﾀ","pref":"山形県","city":"山形市","address":"江俣"},
{"zip_code":"9900052","kana_pref":"ﾔﾏｶﾞﾀｹﾝ","kana_city":"ﾔﾏｶﾞﾀｼ","kana_address":"ｴﾝﾉｳｼﾞﾏﾁ","pref":"山形県","city":"山形市","address":"円応寺町"},
{"zip_code":"9900046","kana_pref":"ﾔﾏｶﾞﾀｹﾝ","kana_city":"ﾔﾏｶﾞﾀｼ","kana_address":"ｵｵﾃﾏﾁ","pref":"山形県","city":"山形市","address":"大手町"},
{"zip_code":"9902344","kana_pref":"ﾔﾏｶﾞﾀｹﾝ","kana_city":"ﾔﾏｶﾞﾀｼ","kana_address":"ｵｵﾐﾁﾊﾞﾀ","pref":"山形県","city":"山形市","address":"大道端"},
{"zip_code":"9902231","kana_pref":"ﾔﾏｶﾞﾀｹﾝ","kana_city":"ﾔﾏｶﾞﾀｼ","kana_address":"ｵｵﾓﾘ","pref":"山形県","city":"山形市","address":"大森"},
{"zip_code":"9900818","kana_pref":"ﾔﾏｶﾞﾀｹﾝ","kana_city":"ﾔﾏｶﾞﾀｼ","kana_address":"ｵｷﾏﾁ","pref":"山形県","city":"山形市","address":"沖町"},
{"zip_code":"9902402","kana_pref":"ﾔﾏｶﾞﾀｹﾝ","kana_city":"ﾔﾏｶﾞﾀｼ","kana_address":"ｵﾀﾞﾁ","pref":"山形県","city":"山形市","address":"小立"},
{"zip_code":"9900075","kana_pref":"ﾔﾏｶﾞﾀｹﾝ","kana_city":"ﾔﾏｶﾞﾀｼ","kana_address":"ｵﾁｱｲﾏﾁ","pref":"山形県","city":"山形市","address":"落合町"},
{"zip_code":"9902365","kana_pref":"ﾔﾏｶﾞﾀｹﾝ","kana_city":"ﾔﾏｶﾞﾀｼ","kana_address":"ｵﾃｻｸ","pref":"山形県","city":"山形市","address":"御手作"},
{"zip_code":"9902307","kana_pref":"ﾔﾏｶﾞﾀｹﾝ","kana_city":"ﾔﾏｶﾞﾀｼ","kana_address":"ｵﾓﾃｻﾞｵｳ","pref":"山形県","city":"山形市","address":"表蔵王"},
{"zip_code":"9902484","kana_pref":"ﾔﾏｶﾞﾀｹﾝ","kana_city":"ﾔﾏｶﾞﾀｼ","kana_address":"ｶｺﾞﾀ","pref":"山形県","city":"山形市","address":"篭田"},
{"zip_code":"9902221","kana_pref":"ﾔﾏｶﾞﾀｹﾝ","kana_city":"ﾔﾏｶﾞﾀｼ","kana_address":"ｶｻﾞﾏ","pref":"山形県","city":"山形市","address":"風間"},
{"zip_code":"9902341","kana_pref":"ﾔﾏｶﾞﾀｹﾝ","kana_city":"ﾔﾏｶﾞﾀｼ","kana_address":"ｶｼﾜｸﾞﾗ","pref":"山形県","city":"山形市","address":"柏倉"},
{"zip_code":"9900826","kana_pref":"ﾔﾏｶﾞﾀｹﾝ","kana_city":"ﾔﾏｶﾞﾀｼ","kana_address":"ｶｼﾞｮｳﾏﾁ","pref":"山形県","city":"山形市","address":"霞城町"},
{"zip_code":"9900833","kana_pref":"ﾔﾏｶﾞﾀｹﾝ","kana_city":"ﾔﾏｶﾞﾀｼ","kana_address":"ｶｽｶﾞﾁｮｳ","pref":"山形県","city":"山形市","address":"春日町"},
{"zip_code":"9900039","kana_pref":"ﾔﾏｶﾞﾀｹﾝ","kana_city":"ﾔﾏｶﾞﾀｼ","kana_address":"ｶｽﾐﾁｮｳ","pref":"山形県","city":"山形市","address":"香澄町"},
{"zip_code":"9902316","kana_pref":"ﾔﾏｶﾞﾀｹﾝ","kana_city":"ﾔﾏｶﾞﾀｼ","kana_address":"ｶﾀﾔﾁ","pref":"山形県","city":"山形市","address":"片谷地"},
{"zip_code":"9900856","kana_pref":"ﾔﾏｶﾞﾀｹﾝ","kana_city":"ﾔﾏｶﾞﾀｼ","kana_address":"ｶﾅｲｼﾀﾞ","pref":"山形県","city":"山形市","address":"金石田"},
{"zip_code":"9900851","kana_pref":"ﾔﾏｶﾞﾀｹﾝ","kana_city":"ﾔﾏｶﾞﾀｼ","kana_address":"ｶﾐｸﾇｷﾞｻﾞﾜ","pref":"山形県","city":"山形市","address":"上椹沢"},
{"zip_code":"9902421","kana_pref":"ﾔﾏｶﾞﾀｹﾝ","kana_city":"ﾔﾏｶﾞﾀｼ","kana_address":"ｶﾐｻｸﾗﾀﾞ","pref":"山形県","city":"山形市","address":"上桜田"},
{"zip_code":"9902384","kana_pref":"ﾔﾏｶﾞﾀｹﾝ","kana_city":"ﾔﾏｶﾞﾀｼ","kana_address":"ｶﾐｿﾘﾀﾞ","pref":"山形県","city":"山形市","address":"上反田"},
{"zip_code":"9902241","kana_pref":"ﾔﾏｶﾞﾀｹﾝ","kana_city":"ﾔﾏｶﾞﾀｼ","kana_address":"ｶﾐﾋｶﾞｼﾔﾏ","pref":"山形県","city":"山形市","address":"上東山"},
{"zip_code":"9900017","kana_pref":"ﾔﾏｶﾞﾀｹﾝ","kana_city":"ﾔﾏｶﾞﾀｼ","kana_address":"ｶﾐﾎｳｻﾞﾜ","pref":"山形県","city":"山形市","address":"上宝沢"},
{"zip_code":"9902212","kana_pref":"ﾔﾏｶﾞﾀｹﾝ","kana_city":"ﾔﾏｶﾞﾀｼ","kana_address":"ｶﾐﾔﾅｷﾞ","pref":"山形県","city":"山形市","address":"上柳"},
{"zip_code":"9900004","kana_pref":"ﾔﾏｶﾞﾀｹﾝ","kana_city":"ﾔﾏｶﾞﾀｼ","kana_address":"ｶﾐﾔﾝﾍﾞﾏﾁ","pref":"山形県","city":"山形市","address":"上山家町"},
{"zip_code":"9902406","kana_pref":"ﾔﾏｶﾞﾀｹﾝ","kana_city":"ﾔﾏｶﾞﾀｼ","kana_address":"ｶﾝﾉｳ","pref":"山形県","city":"山形市","address":"神尾"},
{"zip_code":"9900875","kana_pref":"ﾔﾏｶﾞﾀｹﾝ","kana_city":"ﾔﾏｶﾞﾀｼ","kana_address":"ｷﾀｴﾏﾀ","pref":"山形県","city":"山形市","address":"北江俣"},
{"zip_code":"9900896","kana_pref":"ﾔﾏｶﾞﾀｹﾝ","kana_city":"ﾔﾏｶﾞﾀｼ","kana_address":"ｷﾀﾀﾞ","pref":"山形県","city":"山形市","address":"北田"},
{"zip_code":"9900821","kana_pref":"ﾔﾏｶﾞﾀｹﾝ","kana_city":"ﾔﾏｶﾞﾀｼ","kana_address":"ｷﾀﾏﾁ","pref":"山形県","city":"山形市","address":"北町"},
{"zip_code":"9900822","kana_pref":"ﾔﾏｶﾞﾀｹﾝ","kana_city":"ﾔﾏｶﾞﾀｼ","kana_address":"ｷﾀﾔﾏｶﾞﾀ","pref":"山形県","city":"山形市","address":"北山形"},
{"zip_code":"9900044","kana_pref":"ﾔﾏｶﾞﾀｹﾝ","kana_city":"ﾔﾏｶﾞﾀｼ","kana_address":"ｷﾉﾐﾁｮｳ","pref":"山形県","city":"山形市","address":"木の実町"},
{"zip_code":"9902475","kana_pref":"ﾔﾏｶﾞﾀｹﾝ","kana_city":"ﾔﾏｶﾞﾀｼ","kana_address":"ｷﾉﾒﾀﾞ","pref":"山形県","city":"山形市","address":"木ノ目田"},
{"zip_code":"9900876","kana_pref":"ﾔﾏｶﾞﾀｹﾝ","kana_city":"ﾔﾏｶﾞﾀｼ","kana_address":"ｷﾞｮｳｻｲ","pref":"山形県","city":"山形市","address":"行才"},
{"zip_code":"9900834","kana_pref":"ﾔﾏｶﾞﾀｹﾝ","kana_city":"ﾔﾏｶﾞﾀｼ","kana_address":"ｷﾖｽﾞﾐﾏﾁ","pref":"山形県","city":"山形市","address":"清住町"},
{"zip_code":"9902233","kana_pref":"ﾔﾏｶﾞﾀｹﾝ","kana_city":"ﾔﾏｶﾞﾀｼ","kana_address":"ｷﾘﾊﾀ","pref":"山形県","city":"山形市","address":"切畑"},
{"zip_code":"9902482","kana_pref":"ﾔﾏｶﾞﾀｹﾝ","kana_city":"ﾔﾏｶﾞﾀｼ","kana_address":"ｸﾎﾞﾀ","pref":"山形県","city":"山形市","address":"久保田"},
{"zip_code":"9902311","kana_pref":"ﾔﾏｶﾞﾀｹﾝ","kana_city":"ﾔﾏｶﾞﾀｼ","kana_address":"ｸﾛｻﾜ","pref":"山形県","city":"山形市","address":"黒沢"},
{"zip_code":"9900863","kana_pref":"ﾔﾏｶﾞﾀｹﾝ","kana_city":"ﾔﾏｶﾞﾀｼ","kana_address":"ｺｳﾅﾝ","pref":"山形県","city":"山形市","address":"江南"},
{"zip_code":"9900852","kana_pref":"ﾔﾏｶﾞﾀｹﾝ","kana_city":"ﾔﾏｶﾞﾀｼ","kana_address":"ｺｶﾞﾈ","pref":"山形県","city":"山形市","address":"黄金"},
{"zip_code":"9900032","kana_pref":"ﾔﾏｶﾞﾀｹﾝ","kana_city":"ﾔﾏｶﾞﾀｼ","kana_address":"ｺｼｮｳﾏﾁ","pref":"山形県","city":"山形市","address":"小姓町"},
{"zip_code":"9900021","kana_pref":"ﾔﾏｶﾞﾀｹﾝ","kana_city":"ﾔﾏｶﾞﾀｼ","kana_address":"ｺｼﾞﾗｶﾜﾏﾁ","pref":"山形県","city":"山形市","address":"小白川町"},
{"zip_code":"9902414","kana_pref":"ﾔﾏｶﾞﾀｹﾝ","kana_city":"ﾔﾏｶﾞﾀｼ","kana_address":"ｺﾄﾌﾞｷﾁｮｳ","pref":"山形県","city":"山形市","address":"寿町"},
{"zip_code":"9900035","kana_pref":"ﾔﾏｶﾞﾀｹﾝ","kana_city":"ﾔﾏｶﾞﾀｼ","kana_address":"ｺﾆﾀﾞﾏﾁ","pref":"山形県","city":"山形市","address":"小荷駄町"},
{"zip_code":"9902234","kana_pref":"ﾔﾏｶﾞﾀｹﾝ","kana_city":"ﾔﾏｶﾞﾀｼ","kana_address":"ｺﾓｲｼ","pref":"山形県","city":"山形市","address":"こも石"},
{"zip_code":"9900038","kana_pref":"ﾔﾏｶﾞﾀｹﾝ","kana_city":"ﾔﾏｶﾞﾀｼ","kana_address":"ｻｲﾜｲﾁｮｳ","pref":"山形県","city":"山形市","address":"幸町"},
{"zip_code":"9902333","kana_pref":"ﾔﾏｶﾞﾀｹﾝ","kana_city":"ﾔﾏｶﾞﾀｼ","kana_address":"ｻﾞｵｳｲｲﾀﾞ","pref":"山形県","city":"山形市","address":"蔵王飯田"},
{"zip_code":"9902303","kana_pref":"ﾔﾏｶﾞﾀｹﾝ","kana_city":"ﾔﾏｶﾞﾀｼ","kana_address":"ｻﾞｵｳｳﾜﾉ","pref":"山形県","city":"山形市","address":"蔵王上野"},
{"zip_code":"9902301","kana_pref":"ﾔﾏｶﾞﾀｹﾝ","kana_city":"ﾔﾏｶﾞﾀｼ","kana_address":"ｻﾞｵｳｵﾝｾﾝ","pref":"山形県","city":"山形市","address":"蔵王温泉"},
{"zip_code":"9902334","kana_pref":"ﾔﾏｶﾞﾀｹﾝ","kana_city":"ﾔﾏｶﾞﾀｼ","kana_address":"ｻﾞｵｳﾅﾘｻﾜ","pref":"山形県","city":"山形市","address":"蔵王成沢"},
{"zip_code":"9902305","kana_pref":"ﾔﾏｶﾞﾀｹﾝ","kana_city":"ﾔﾏｶﾞﾀｼ","kana_address":"ｻﾞｵｳﾊﾝｺﾞｳ","pref":"山形県","city":"山形市","address":"蔵王半郷"},
{"zip_code":"9902302","kana_pref":"ﾔﾏｶﾞﾀｹﾝ","kana_city":"ﾔﾏｶﾞﾀｼ","kana_address":"ｻﾞｵｳﾎｯﾀ","pref":"山形県","city":"山形市","address":"蔵王堀田"},
{"zip_code":"9902338","kana_pref":"ﾔﾏｶﾞﾀｹﾝ","kana_city":"ﾔﾏｶﾞﾀｼ","kana_address":"ｻﾞｵｳﾏﾂｶﾞｵｶ","pref":"山形県","city":"山形市","address":"蔵王松ケ丘"},
{"zip_code":"9902337","kana_pref":"ﾔﾏｶﾞﾀｹﾝ","kana_city":"ﾔﾏｶﾞﾀｼ","kana_address":"ｻﾞｵｳﾆｼﾅﾘｻﾜ","pref":"山形県","city":"山形市","address":"蔵王西成沢"},
{"zip_code":"9902335","kana_pref":"ﾔﾏｶﾞﾀｹﾝ","kana_city":"ﾔﾏｶﾞﾀｼ","kana_address":"ｻﾞｵｳﾐﾅﾐﾅﾘｻﾜ","pref":"山形県","city":"山形市","address":"蔵王南成沢"},
{"zip_code":"9902304","kana_pref":"ﾔﾏｶﾞﾀｹﾝ","kana_city":"ﾔﾏｶﾞﾀｼ","kana_address":"ｻﾞｵｳﾔﾏﾀﾞ","pref":"山形県","city":"山形市","address":"蔵王山田"},
{"zip_code":"9900003","kana_pref":"ﾔﾏｶﾞﾀｹﾝ","kana_city":"ﾔﾏｶﾞﾀｼ","kana_address":"ｻｵﾄﾒ","pref":"山形県","city":"山形市","address":"早乙女"},
{"zip_code":"9900819","kana_pref":"ﾔﾏｶﾞﾀｹﾝ","kana_city":"ﾔﾏｶﾞﾀｼ","kana_address":"ｻｶｲﾀﾞﾏﾁ","pref":"山形県","city":"山形市","address":"境田町"},
{"zip_code":"9900077","kana_pref":"ﾔﾏｶﾞﾀｹﾝ","kana_city":"ﾔﾏｶﾞﾀｼ","kana_address":"ｻｶｴﾊﾞﾗ","pref":"山形県","city":"山形市","address":"栄原"},
{"zip_code":"9900824","kana_pref":"ﾔﾏｶﾞﾀｹﾝ","kana_city":"ﾔﾏｶﾞﾀｼ","kana_address":"ｻｶﾅﾏﾁ","pref":"山形県","city":"山形市","address":"肴町"},
{"zip_code":"9902376","kana_pref":"ﾔﾏｶﾞﾀｹﾝ","kana_city":"ﾔﾏｶﾞﾀｼ","kana_address":"ｻｸﾗｶﾞｵｶ","pref":"山形県","city":"山形市","address":"桜ケ丘"},
{"zip_code":"9902323","kana_pref":"ﾔﾏｶﾞﾀｹﾝ","kana_city":"ﾔﾏｶﾞﾀｼ","kana_address":"ｻｸﾗﾀﾞﾋｶﾞｼ","pref":"山形県","city":"山形市","address":"桜田東"},
{"zip_code":"9902321","kana_pref":"ﾔﾏｶﾞﾀｹﾝ","kana_city":"ﾔﾏｶﾞﾀｼ","kana_address":"ｻｸﾗﾀﾞﾆｼ","pref":"山形県","city":"山形市","address":"桜田西"},
{"zip_code":"9902322","kana_pref":"ﾔﾏｶﾞﾀｹﾝ","kana_city":"ﾔﾏｶﾞﾀｼ","kana_address":"ｻｸﾗﾀﾞﾐﾅﾐ","pref":"山形県","city":"山形市","address":"桜田南"},
{"zip_code":"9900045","kana_pref":"ﾔﾏｶﾞﾀｹﾝ","kana_city":"ﾔﾏｶﾞﾀｼ","kana_address":"ｻｸﾗﾁｮｳ","pref":"山形県","city":"山形市","address":"桜町"},
{"zip_code":"9900898","kana_pref":"ﾔﾏｶﾞﾀｹﾝ","kana_city":"ﾔﾏｶﾞﾀｼ","kana_address":"ｻﾝｼｬ","pref":"山形県","city":"山形市","address":"三社"},
{"zip_code":"9900846","kana_pref":"ﾔﾏｶﾞﾀｹﾝ","kana_city":"ﾔﾏｶﾞﾀｼ","kana_address":"ｼｶﾏ","pref":"山形県","city":"山形市","address":"志鎌"},
{"zip_code":"9900868","kana_pref":"ﾔﾏｶﾞﾀｹﾝ","kana_city":"ﾔﾏｶﾞﾀｼ","kana_address":"ｼﾄﾀﾞ","pref":"山形県","city":"山形市","address":"志戸田"},
{"zip_code":"9902173","kana_pref":"ﾔﾏｶﾞﾀｹﾝ","kana_city":"ﾔﾏｶﾞﾀｼ","kana_address":"ｼﾌﾞｴ","pref":"山形県","city":"山形市","address":"渋江"},
{"zip_code":"9900870","kana_pref":"ﾔﾏｶﾞﾀｹﾝ","kana_city":"ﾔﾏｶﾞﾀｼ","kana_address":"ｼﾏ","pref":"山形県","city":"山形市","address":"島"},
{"zip_code":"9900885","kana_pref":"ﾔﾏｶﾞﾀｹﾝ","kana_city":"ﾔﾏｶﾞﾀｼ","kana_address":"ｼﾏｷﾀ","pref":"山形県","city":"山形市","address":"嶋北"},
{"zip_code":"9900886","kana_pref":"ﾔﾏｶﾞﾀｹﾝ","kana_city":"ﾔﾏｶﾞﾀｼ","kana_address":"ｼﾏﾐﾅﾐ","pref":"山形県","city":"山形市","address":"嶋南"},
{"zip_code":"9900858","kana_pref":"ﾔﾏｶﾞﾀｹﾝ","kana_city":"ﾔﾏｶﾞﾀｼ","kana_address":"ｼﾓｸﾇｷﾞｻﾞﾜ","pref":"山形県","city":"山形市","address":"下椹沢"},
{"zip_code":"9900823","kana_pref":"ﾔﾏｶﾞﾀｹﾝ","kana_city":"ﾔﾏｶﾞﾀｼ","kana_address":"ｼﾓｼﾞｮｳﾏﾁ","pref":"山形県","city":"山形市","address":"下条町"},
{"zip_code":"9902385","kana_pref":"ﾔﾏｶﾞﾀｹﾝ","kana_city":"ﾔﾏｶﾞﾀｼ","kana_address":"ｼﾓｿﾘﾀﾞ","pref":"山形県","city":"山形市","address":"下反田"},
{"zip_code":"9900809","kana_pref":"ﾔﾏｶﾞﾀｹﾝ","kana_city":"ﾔﾏｶﾞﾀｼ","kana_address":"ｼﾓﾀﾞ","pref":"山形県","city":"山形市","address":"下田"},
{"zip_code":"9902232","kana_pref":"ﾔﾏｶﾞﾀｹﾝ","kana_city":"ﾔﾏｶﾞﾀｼ","kana_address":"ｼﾓﾋｶﾞｼﾔﾏ","pref":"山形県","city":"山形市","address":"下東山"},
{"zip_code":"9900018","kana_pref":"ﾔﾏｶﾞﾀｹﾝ","kana_city":"ﾔﾏｶﾞﾀｼ","kana_address":"ｼﾓﾎｳｻﾞﾜ","pref":"山形県","city":"山形市","address":"下宝沢"},
{"zip_code":"9902215","kana_pref":"ﾔﾏｶﾞﾀｹﾝ","kana_city":"ﾔﾏｶﾞﾀｼ","kana_address":"ｼﾓﾔﾅｷﾞ","pref":"山形県","city":"山形市","address":"下柳"},
{"zip_code":"9900005","kana_pref":"ﾔﾏｶﾞﾀｹﾝ","kana_city":"ﾔﾏｶﾞﾀｼ","kana_address":"ｼﾓﾔﾝﾍﾞﾏﾁ","pref":"山形県","city":"山形市","address":"下山家町"},
{"zip_code":"9900012","kana_pref":"ﾔﾏｶﾞﾀｹﾝ","kana_city":"ﾔﾏｶﾞﾀｼ","kana_address":"ｼｬｶﾄﾞｳ","pref":"山形県","city":"山形市","address":"釈迦堂"},
{"zip_code":"9902211","kana_pref":"ﾔﾏｶﾞﾀｹﾝ","kana_city":"ﾔﾏｶﾞﾀｼ","kana_address":"ｼﾞｭｳﾓﾝｼﾞ","pref":"山形県","city":"山形市","address":"十文字"},
{"zip_code":"9900827","kana_pref":"ﾔﾏｶﾞﾀｹﾝ","kana_city":"ﾔﾏｶﾞﾀｼ","kana_address":"ｼﾞｮｳﾅﾝﾏﾁ","pref":"山形県","city":"山形市","address":"城南町"},
{"zip_code":"9900825","kana_pref":"ﾔﾏｶﾞﾀｹﾝ","kana_city":"ﾔﾏｶﾞﾀｼ","kana_address":"ｼﾞｮｳﾎｸﾏﾁ","pref":"山形県","city":"山形市","address":"城北町"},
{"zip_code":"9902381","kana_pref":"ﾔﾏｶﾞﾀｹﾝ","kana_city":"ﾔﾏｶﾞﾀｼ","kana_address":"ｼﾞｮｳﾐｮｳｼﾞ","pref":"山形県","city":"山形市","address":"常明寺"},
{"zip_code":"9900807","kana_pref":"ﾔﾏｶﾞﾀｹﾝ","kana_city":"ﾔﾏｶﾞﾀｼ","kana_address":"ｼﾗｶﾜ","pref":"山形県","city":"山形市","address":"白川"},
{"zip_code":"9900832","kana_pref":"ﾔﾏｶﾞﾀｹﾝ","kana_city":"ﾔﾏｶﾞﾀｼ","kana_address":"ｼﾛﾆｼﾏﾁ","pref":"山形県","city":"山形市","address":"城西町"},
{"zip_code":"9902343","kana_pref":"ﾔﾏｶﾞﾀｹﾝ","kana_city":"ﾔﾏｶﾞﾀｼ","kana_address":"ｼﾛﾓﾘ","pref":"山形県","city":"山形市","address":"城森"},
{"zip_code":"9902164","kana_pref":"ﾔﾏｶﾞﾀｹﾝ","kana_city":"ﾔﾏｶﾞﾀｼ","kana_address":"ｼﾝｶｲ","pref":"山形県","city":"山形市","address":"新開"},
{"zip_code":"9900864","kana_pref":"ﾔﾏｶﾞﾀｹﾝ","kana_city":"ﾔﾏｶﾞﾀｼ","kana_address":"ｼﾞﾝﾊﾞ","pref":"山形県","city":"山形市","address":"陣場"},
{"zip_code":"9900882","kana_pref":"ﾔﾏｶﾞﾀｹﾝ","kana_city":"ﾔﾏｶﾞﾀｼ","kana_address":"ｼﾞﾝﾊﾞｼﾝﾃﾞﾝ","pref":"山形県","city":"山形市","address":"陣場新田"},
{"zip_code":"9900860","kana_pref":"ﾔﾏｶﾞﾀｹﾝ","kana_city":"ﾔﾏｶﾞﾀｼ","kana_address":"ｼﾞﾝﾊﾞﾐﾅﾐ","pref":"山形県","city":"山形市","address":"陣場南"},
{"zip_code":"9902494","kana_pref":"ﾔﾏｶﾞﾀｹﾝ","kana_city":"ﾔﾏｶﾞﾀｼ","kana_address":"ｽｴﾋﾛﾁｮｳ","pref":"山形県","city":"山形市","address":"末広町"},
{"zip_code":"9902362","kana_pref":"ﾔﾏｶﾞﾀｹﾝ","kana_city":"ﾔﾏｶﾞﾀｼ","kana_address":"ｽｹﾞｻﾜ","pref":"山形県","city":"山形市","address":"菅沢"},
{"zip_code":"9902367","kana_pref":"ﾔﾏｶﾞﾀｹﾝ","kana_city":"ﾔﾏｶﾞﾀｼ","kana_address":"ｽｹﾞｻﾜﾉｵｶ","pref":"山形県","city":"山形市","address":"すげさわの丘"},
{"zip_code":"9900884","kana_pref":"ﾔﾏｶﾞﾀｹﾝ","kana_city":"ﾔﾏｶﾞﾀｼ","kana_address":"ｽｼｱﾗｲ","pref":"山形県","city":"山形市","address":"鮨洗"},
{"zip_code":"9900062","kana_pref":"ﾔﾏｶﾞﾀｹﾝ","kana_city":"ﾔﾏｶﾞﾀｼ","kana_address":"ｽｽﾞｶﾜﾏﾁ","pref":"山形県","city":"山形市","address":"鈴川町"},
{"zip_code":"9900847","kana_pref":"ﾔﾏｶﾞﾀｹﾝ","kana_city":"ﾔﾏｶﾞﾀｼ","kana_address":"ｽﾅﾀﾞ","pref":"山形県","city":"山形市","address":"砂田"},
{"zip_code":"9900854","kana_pref":"ﾔﾏｶﾞﾀｹﾝ","kana_city":"ﾔﾏｶﾞﾀｼ","kana_address":"ｽﾅﾂﾞｶ","pref":"山形県","city":"山形市","address":"砂塚"},
{"zip_code":"9900033","kana_pref":"ﾔﾏｶﾞﾀｹﾝ","kana_city":"ﾔﾏｶﾞﾀｼ","kana_address":"ｽﾜﾏﾁ","pref":"山形県","city":"山形市","address":"諏訪町"},
{"zip_code":"9900016","kana_pref":"ﾔﾏｶﾞﾀｹﾝ","kana_city":"ﾔﾏｶﾞﾀｼ","kana_address":"ｾｷｻﾞﾜ","pref":"山形県","city":"山形市","address":"関沢"},
{"zip_code":"9900881","kana_pref":"ﾔﾏｶﾞﾀｹﾝ","kana_city":"ﾔﾏｶﾞﾀｼ","kana_address":"ｾﾅﾐ","pref":"山形県","city":"山形市","address":"瀬波"},
{"zip_code":"9902216","kana_pref":"ﾔﾏｶﾞﾀｹﾝ","kana_city":"ﾔﾏｶﾞﾀｼ","kana_address":"ｾﾝｶﾞﾘ","pref":"山形県","city":"山形市","address":"千刈"},
{"zip_code":"9902227","kana_pref":"ﾔﾏｶﾞﾀｹﾝ","kana_city":"ﾔﾏｶﾞﾀｼ","kana_address":"ｾﾝｺﾞｸ","pref":"山形県","city":"山形市","address":"千石"},
{"zip_code":"9902172","kana_pref":"ﾔﾏｶﾞﾀｹﾝ","kana_city":"ﾔﾏｶﾞﾀｼ","kana_address":"ｾﾝｼﾞｭﾄﾞｳ","pref":"山形県","city":"山形市","address":"千手堂"},
{"zip_code":"9900008","kana_pref":"ﾔﾏｶﾞﾀｹﾝ","kana_city":"ﾔﾏｶﾞﾀｼ","kana_address":"ｿｳﾂｷｼﾝﾁｮｳ","pref":"山形県","city":"山形市","address":"双月新町"},
{"zip_code":"9900065","kana_pref":"ﾔﾏｶﾞﾀｹﾝ","kana_city":"ﾔﾏｶﾞﾀｼ","kana_address":"ｿｳﾂｷﾏﾁ","pref":"山形県","city":"山形市","address":"双月町"},
{"zip_code":"9902378","kana_pref":"ﾔﾏｶﾞﾀｹﾝ","kana_city":"ﾔﾏｶﾞﾀｼ","kana_address":"ｿﾘﾏﾁ","pref":"山形県","city":"山形市","address":"反町"},
{"zip_code":"9902364","kana_pref":"ﾔﾏｶﾞﾀｹﾝ","kana_city":"ﾔﾏｶﾞﾀｼ","kana_address":"ﾀﾞｲｼﾄﾞｳ","pref":"山形県","city":"山形市","address":"大師堂"},
{"zip_code":"9900073","kana_pref":"ﾔﾏｶﾞﾀｹﾝ","kana_city":"ﾔﾏｶﾞﾀｼ","kana_address":"ﾀﾞｲﾉﾒ","pref":"山形県","city":"山形市","address":"大野目"},
{"zip_code":"9902346","kana_pref":"ﾔﾏｶﾞﾀｹﾝ","kana_city":"ﾔﾏｶﾞﾀｼ","kana_address":"ﾀｶｷﾞ","pref":"山形県","city":"山形市","address":"高木"},
{"zip_code":"9902242","kana_pref":"ﾔﾏｶﾞﾀｹﾝ","kana_city":"ﾔﾏｶﾞﾀｼ","kana_address":"ﾀｶｻﾜ","pref":"山形県","city":"山形市","address":"高沢"},
{"zip_code":"9900808","kana_pref":"ﾔﾏｶﾞﾀｹﾝ","kana_city":"ﾔﾏｶﾞﾀｼ","kana_address":"ﾀｶﾀﾞ","pref":"山形県","city":"山形市","address":"高田"},
{"zip_code":"9902464","kana_pref":"ﾔﾏｶﾞﾀｹﾝ","kana_city":"ﾔﾏｶﾞﾀｼ","kana_address":"ﾀｶﾄﾞｳ","pref":"山形県","city":"山形市","address":"高堂"},
{"zip_code":"9900002","kana_pref":"ﾔﾏｶﾞﾀｹﾝ","kana_city":"ﾔﾏｶﾞﾀｼ","kana_address":"ﾀｶﾊﾗﾏﾁ","pref":"山形県","city":"山形市","address":"高原町"},
{"zip_code":"9902382","kana_pref":"ﾔﾏｶﾞﾀｹﾝ","kana_city":"ﾔﾏｶﾞﾀｼ","kana_address":"ﾀｷﾉﾋﾗ","pref":"山形県","city":"山形市","address":"滝平"},
{"zip_code":"9902251","kana_pref":"ﾔﾏｶﾞﾀｹﾝ","kana_city":"ﾔﾏｶﾞﾀｼ","kana_address":"ﾀﾁﾔｶﾞﾜ","pref":"山形県","city":"山形市","address":"立谷川"},
{"zip_code":"9902163","kana_pref":"ﾔﾏｶﾞﾀｹﾝ","kana_city":"ﾔﾏｶﾞﾀｼ","kana_address":"ﾀﾞﾃｼﾞｮｳ","pref":"山形県","city":"山形市","address":"伊達城"},
{"zip_code":"9900805","kana_pref":"ﾔﾏｶﾞﾀｹﾝ","kana_city":"ﾔﾏｶﾞﾀｼ","kana_address":"ﾀﾞﾝﾉﾏｴ","pref":"山形県","city":"山形市","address":"壇野前"},
{"zip_code":"9902224","kana_pref":"ﾔﾏｶﾞﾀｹﾝ","kana_city":"ﾔﾏｶﾞﾀｼ","kana_address":"ﾁｶﾀﾞ","pref":"山形県","city":"山形市","address":"近田"},
{"zip_code":"9900812","kana_pref":"ﾔﾏｶﾞﾀｹﾝ","kana_city":"ﾔﾏｶﾞﾀｼ","kana_address":"ﾁﾄｾ","pref":"山形県","city":"山形市","address":"千歳"},
{"zip_code":"9900855","kana_pref":"ﾔﾏｶﾞﾀｹﾝ","kana_city":"ﾔﾏｶﾞﾀｼ","kana_address":"ﾁﾖﾀﾞ","pref":"山形県","city":"山形市","address":"千代田"},
{"zip_code":"9902315","kana_pref":"ﾔﾏｶﾞﾀｹﾝ","kana_city":"ﾔﾏｶﾞﾀｼ","kana_address":"ﾂｶﾞﾈｻﾞﾜ","pref":"山形県","city":"山形市","address":"津金沢"},
{"zip_code":"9902405","kana_pref":"ﾔﾏｶﾞﾀｹﾝ","kana_city":"ﾔﾏｶﾞﾀｼ","kana_address":"ﾂﾁｻﾞｶ","pref":"山形県","city":"山形市","address":"土坂"},
{"zip_code":"9900814","kana_pref":"ﾔﾏｶﾞﾀｹﾝ","kana_city":"ﾔﾏｶﾞﾀｼ","kana_address":"ﾂﾁﾄﾞｲ","pref":"山形県","city":"山形市","address":"土樋"},
{"zip_code":"9902492","kana_pref":"ﾔﾏｶﾞﾀｹﾝ","kana_city":"ﾔﾏｶﾞﾀｼ","kana_address":"ﾃｯﾎﾟｳﾏﾁ","pref":"山形県","city":"山形市","address":"鉄砲町"},
{"zip_code":"9902213","kana_pref":"ﾔﾏｶﾞﾀｹﾝ","kana_city":"ﾔﾏｶﾞﾀｼ","kana_address":"ﾃﾗﾆｼ","pref":"山形県","city":"山形市","address":"寺西"},
{"zip_code":"9900867","kana_pref":"ﾔﾏｶﾞﾀｹﾝ","kana_city":"ﾔﾏｶﾞﾀｼ","kana_address":"ﾃﾝｼﾞﾝﾀﾞｲ","pref":"山形県","city":"山形市","address":"天神台"},
{"zip_code":"9900801","kana_pref":"ﾔﾏｶﾞﾀｹﾝ","kana_city":"ﾔﾏｶﾞﾀｼ","kana_address":"ﾃﾝｼﾞﾝﾁｮｳ","pref":"山形県","city":"山形市","address":"天神町"},
{"zip_code":"9900031","kana_pref":"ﾔﾏｶﾞﾀｹﾝ","kana_city":"ﾔﾏｶﾞﾀｼ","kana_address":"ﾄｳｶﾏﾁ","pref":"山形県","city":"山形市","address":"十日町"},
{"zip_code":"9900806","kana_pref":"ﾔﾏｶﾞﾀｹﾝ","kana_city":"ﾔﾏｶﾞﾀｼ","kana_address":"ﾄｳｼﾞﾔｼｷ","pref":"山形県","city":"山形市","address":"藤治屋敷"},
{"zip_code":"9902223","kana_pref":"ﾔﾏｶﾞﾀｹﾝ","kana_city":"ﾔﾏｶﾞﾀｼ","kana_address":"ﾄｳﾉﾏｴ","pref":"山形県","city":"山形市","address":"塔の前"},
{"zip_code":"9900051","kana_pref":"ﾔﾏｶﾞﾀｹﾝ","kana_city":"ﾔﾏｶﾞﾀｼ","kana_address":"ﾄﾞｳﾏﾁ","pref":"山形県","city":"山形市","address":"銅町"},
{"zip_code":"9900871","kana_pref":"ﾔﾏｶﾞﾀｹﾝ","kana_city":"ﾔﾏｶﾞﾀｼ","kana_address":"ﾄﾞｳﾔｸﾞﾁ","pref":"山形県","city":"山形市","address":"銅谷口"},
{"zip_code":"9902345","kana_pref":"ﾔﾏｶﾞﾀｹﾝ","kana_city":"ﾔﾏｶﾞﾀｼ","kana_address":"ﾄｶﾞﾐﾀﾞｲ","pref":"山形県","city":"山形市","address":"富神台"},
{"zip_code":"9902342","kana_pref":"ﾔﾏｶﾞﾀｹﾝ","kana_city":"ﾔﾏｶﾞﾀｼ","kana_address":"ﾄｶﾞﾐﾏｴ","pref":"山形県","city":"山形市","address":"富神前"},
{"zip_code":"9902361","kana_pref":"ﾔﾏｶﾞﾀｹﾝ","kana_city":"ﾔﾏｶﾞﾀｼ","kana_address":"ﾄﾞﾒｷ","pref":"山形県","city":"山形市","address":"百目鬼"},
{"zip_code":"9902463","kana_pref":"ﾔﾏｶﾞﾀｹﾝ","kana_city":"ﾔﾏｶﾞﾀｼ","kana_address":"ﾄﾐﾉｼﾞｭｳ","pref":"山形県","city":"山形市","address":"富の中"},
{"zip_code":"9900815","kana_pref":"ﾔﾏｶﾞﾀｹﾝ","kana_city":"ﾔﾏｶﾞﾀｼ","kana_address":"ﾄﾖｺﾞｼ","pref":"山形県","city":"山形市","address":"樋越"},
{"zip_code":"9902433","kana_pref":"ﾔﾏｶﾞﾀｹﾝ","kana_city":"ﾔﾏｶﾞﾀｼ","kana_address":"ﾄﾘｲｶﾞｵｶ","pref":"山形県","city":"山形市","address":"鳥居ケ丘"},
{"zip_code":"9902422","kana_pref":"ﾔﾏｶﾞﾀｹﾝ","kana_city":"ﾔﾏｶﾞﾀｼ","kana_address":"ﾅｶｻｸﾗﾀﾞ","pref":"山形県","city":"山形市","address":"中桜田"},
{"zip_code":"9902235","kana_pref":"ﾔﾏｶﾞﾀｹﾝ","kana_city":"ﾔﾏｶﾞﾀｼ","kana_address":"ﾅｶｻﾞﾄ","pref":"山形県","city":"山形市","address":"中里"},
{"zip_code":"9900849","kana_pref":"ﾔﾏｶﾞﾀｹﾝ","kana_city":"ﾔﾏｶﾞﾀｼ","kana_address":"ﾅｶﾇﾏ","pref":"山形県","city":"山形市","address":"中沼"},
{"zip_code":"9900892","kana_pref":"ﾔﾏｶﾞﾀｹﾝ","kana_city":"ﾔﾏｶﾞﾀｼ","kana_address":"ﾅｶﾉ","pref":"山形県","city":"山形市","address":"中野"},
{"zip_code":"9902175","kana_pref":"ﾔﾏｶﾞﾀｹﾝ","kana_city":"ﾔﾏｶﾞﾀｼ","kana_address":"ﾅｶﾉﾒ","pref":"山形県","city":"山形市","address":"中野目"},
{"zip_code":"9902477","kana_pref":"ﾔﾏｶﾞﾀｹﾝ","kana_city":"ﾔﾏｶﾞﾀｼ","kana_address":"ﾅｶﾞﾅﾜｼﾛ","pref":"山形県","city":"山形市","address":"長苗代"},
{"zip_code":"9900811","kana_pref":"ﾔﾏｶﾞﾀｹﾝ","kana_city":"ﾔﾏｶﾞﾀｼ","kana_address":"ﾅｶﾞﾏﾁ","pref":"山形県","city":"山形市","address":"長町"},
{"zip_code":"9902171","kana_pref":"ﾔﾏｶﾞﾀｹﾝ","kana_city":"ﾔﾏｶﾞﾀｼ","kana_address":"ﾅﾅｳﾗ","pref":"山形県","city":"山形市","address":"七浦"},
{"zip_code":"9900804","kana_pref":"ﾔﾏｶﾞﾀｹﾝ","kana_city":"ﾔﾏｶﾞﾀｼ","kana_address":"ﾅﾅｼﾞｭｳｶﾞﾘ","pref":"山形県","city":"山形市","address":"七十刈"},
{"zip_code":"9900042","kana_pref":"ﾔﾏｶﾞﾀｹﾝ","kana_city":"ﾔﾏｶﾞﾀｼ","kana_address":"ﾅﾇｶﾏﾁ","pref":"山形県","city":"山形市","address":"七日町"},
{"zip_code":"9902386","kana_pref":"ﾔﾏｶﾞﾀｹﾝ","kana_city":"ﾔﾏｶﾞﾀｼ","kana_address":"ﾅﾐﾔﾅｷﾞ","pref":"山形県","city":"山形市","address":"並柳"},
{"zip_code":"9900014","kana_pref":"ﾔﾏｶﾞﾀｹﾝ","kana_city":"ﾔﾏｶﾞﾀｼ","kana_address":"ﾅﾒｶﾜ","pref":"山形県","city":"山形市","address":"滑川"},
{"zip_code":"9902339","kana_pref":"ﾔﾏｶﾞﾀｹﾝ","kana_city":"ﾔﾏｶﾞﾀｼ","kana_address":"ﾅﾘｻﾜﾆｼ","pref":"山形県","city":"山形市","address":"成沢西"},
{"zip_code":"9900891","kana_pref":"ﾔﾏｶﾞﾀｹﾝ","kana_city":"ﾔﾏｶﾞﾀｼ","kana_address":"ﾅﾘﾔｽ","pref":"山形県","city":"山形市","address":"成安"},
{"zip_code":"9902445","kana_pref":"ﾔﾏｶﾞﾀｹﾝ","kana_city":"ﾔﾏｶﾞﾀｼ","kana_address":"ﾅﾝｴｲﾁｮｳ","pref":"山形県","city":"山形市","address":"南栄町"},
{"zip_code":"9902355","kana_pref":"ﾔﾏｶﾞﾀｹﾝ","kana_city":"ﾔﾏｶﾞﾀｼ","kana_address":"ﾆｲﾀﾞ","pref":"山形県","city":"山形市","address":"二位田"},
{"zip_code":"9900015","kana_pref":"ﾔﾏｶﾞﾀｹﾝ","kana_city":"ﾔﾏｶﾞﾀｼ","kana_address":"ﾆｲﾔﾏ","pref":"山形県","city":"山形市","address":"新山"},
{"zip_code":"9900862","kana_pref":"ﾔﾏｶﾞﾀｹﾝ","kana_city":"ﾔﾏｶﾞﾀｼ","kana_address":"ﾆｼｴﾏﾀ","pref":"山形県","city":"山形市","address":"西江俣"},
{"zip_code":"9900056","kana_pref":"ﾔﾏｶﾞﾀｹﾝ","kana_city":"ﾔﾏｶﾞﾀｼ","kana_address":"ﾆｼｷﾁｮｳ","pref":"山形県","city":"山形市","address":"錦町"},
{"zip_code":"9902226","kana_pref":"ﾔﾏｶﾞﾀｹﾝ","kana_city":"ﾔﾏｶﾞﾀｼ","kana_address":"ﾆｼｺﾞｼ","pref":"山形県","city":"山形市","address":"西越"},
{"zip_code":"9900853","kana_pref":"ﾔﾏｶﾞﾀｹﾝ","kana_city":"ﾔﾏｶﾞﾀｼ","kana_address":"ﾆｼｻﾞｷ","pref":"山形県","city":"山形市","address":"西崎"},
{"zip_code":"9900831","kana_pref":"ﾔﾏｶﾞﾀｹﾝ","kana_city":"ﾔﾏｶﾞﾀｼ","kana_address":"ﾆｼﾀ","pref":"山形県","city":"山形市","address":"西田"},
{"zip_code":"9900893","kana_pref":"ﾔﾏｶﾞﾀｹﾝ","kana_city":"ﾔﾏｶﾞﾀｼ","kana_address":"ﾆｼﾅｶﾉ","pref":"山形県","city":"山形市","address":"西中野"},
{"zip_code":"9900859","kana_pref":"ﾔﾏｶﾞﾀｹﾝ","kana_city":"ﾔﾏｶﾞﾀｼ","kana_address":"ﾆｼﾊﾗ","pref":"山形県","city":"山形市","address":"西原"},
{"zip_code":"9900844","kana_pref":"ﾔﾏｶﾞﾀｹﾝ","kana_city":"ﾔﾏｶﾞﾀｼ","kana_address":"ﾆｼﾐﾀﾞ","pref":"山形県","city":"山形市","address":"西見田"},
{"zip_code":"9902474","kana_pref":"ﾔﾏｶﾞﾀｹﾝ","kana_city":"ﾔﾏｶﾞﾀｼ","kana_address":"ﾇﾏｷﾞ","pref":"山形県","city":"山形市","address":"沼木"},
{"zip_code":"9900007","kana_pref":"ﾔﾏｶﾞﾀｹﾝ","kana_city":"ﾔﾏｶﾞﾀｼ","kana_address":"ﾇﾏﾉﾍﾞﾏﾁ","pref":"山形県","city":"山形市","address":"沼の辺町"},
{"zip_code":"9902174","kana_pref":"ﾔﾏｶﾞﾀｹﾝ","kana_city":"ﾔﾏｶﾞﾀｼ","kana_address":"ﾊｲﾂﾞｶ","pref":"山形県","city":"山形市","address":"灰塚"},
{"zip_code":"9902446","kana_pref":"ﾔﾏｶﾞﾀｹﾝ","kana_city":"ﾔﾏｶﾞﾀｼ","kana_address":"ﾊｸｻﾝ","pref":"山形県","city":"山形市","address":"白山"},
{"zip_code":"9902471","kana_pref":"ﾔﾏｶﾞﾀｹﾝ","kana_city":"ﾔﾏｶﾞﾀｼ","kana_address":"ﾊｸﾞﾛﾄﾞｳ","pref":"山形県","city":"山形市","address":"羽黒堂"},
{"zip_code":"9900865","kana_pref":"ﾔﾏｶﾞﾀｹﾝ","kana_city":"ﾔﾏｶﾞﾀｼ","kana_address":"ﾊﾞｼﾞｮｳﾀﾞｲ","pref":"山形県","city":"山形市","address":"馬上台"},
{"zip_code":"9902363","kana_pref":"ﾔﾏｶﾞﾀｹﾝ","kana_city":"ﾔﾏｶﾞﾀｼ","kana_address":"ﾊｾﾄﾞｳ","pref":"山形県","city":"山形市","address":"長谷堂"},
{"zip_code":"9900047","kana_pref":"ﾔﾏｶﾞﾀｹﾝ","kana_city":"ﾔﾏｶﾞﾀｼ","kana_address":"ﾊﾀｺﾞﾏﾁ","pref":"山形県","city":"山形市","address":"旅篭町"},
{"zip_code":"9900872","kana_pref":"ﾔﾏｶﾞﾀｹﾝ","kana_city":"ﾔﾏｶﾞﾀｼ","kana_address":"ﾊﾁﾏﾝﾏｴ","pref":"山形県","city":"山形市","address":"八幡前"},
{"zip_code":"9902404","kana_pref":"ﾔﾏｶﾞﾀｹﾝ","kana_city":"ﾔﾏｶﾞﾀｼ","kana_address":"ﾊﾁﾓﾘ","pref":"山形県","city":"山形市","address":"八森"},
{"zip_code":"9902225","kana_pref":"ﾔﾏｶﾞﾀｹﾝ","kana_city":"ﾔﾏｶﾞﾀｼ","kana_address":"ﾊﾅｵｶ","pref":"山形県","city":"山形市","address":"花岡"},
{"zip_code":"9900067","kana_pref":"ﾔﾏｶﾞﾀｹﾝ","kana_city":"ﾔﾏｶﾞﾀｼ","kana_address":"ﾊﾅﾀﾃ","pref":"山形県","city":"山形市","address":"花楯"},
{"zip_code":"9900072","kana_pref":"ﾔﾏｶﾞﾀｹﾝ","kana_city":"ﾔﾏｶﾞﾀｼ","kana_address":"ﾊﾏｻﾞｷ","pref":"山形県","city":"山形市","address":"浜崎"},
{"zip_code":"9902423","kana_pref":"ﾔﾏｶﾞﾀｹﾝ","kana_city":"ﾔﾏｶﾞﾀｼ","kana_address":"ﾋｶﾞｼｱｵﾀ","pref":"山形県","city":"山形市","address":"東青田"},
{"zip_code":"9900899","kana_pref":"ﾔﾏｶﾞﾀｹﾝ","kana_city":"ﾔﾏｶﾞﾀｼ","kana_address":"ﾋｶﾞｼｶｺﾞﾉﾏﾁ","pref":"山形県","city":"山形市","address":"東篭野町"},
{"zip_code":"9900869","kana_pref":"ﾔﾏｶﾞﾀｹﾝ","kana_city":"ﾔﾏｶﾞﾀｼ","kana_address":"ﾋｶﾞｼｼﾄﾀﾞ","pref":"山形県","city":"山形市","address":"東志戸田"},
{"zip_code":"9900897","kana_pref":"ﾔﾏｶﾞﾀｹﾝ","kana_city":"ﾔﾏｶﾞﾀｼ","kana_address":"ﾋｶﾞｼﾀﾞ","pref":"山形県","city":"山形市","address":"東田"},
{"zip_code":"9902354","kana_pref":"ﾔﾏｶﾞﾀｹﾝ","kana_city":"ﾔﾏｶﾞﾀｼ","kana_address":"ﾋｶﾞｼﾆｲﾀﾞ","pref":"山形県","city":"山形市","address":"東二位田"},
{"zip_code":"9900034","kana_pref":"ﾔﾏｶﾞﾀｹﾝ","kana_city":"ﾔﾏｶﾞﾀｼ","kana_address":"ﾋｶﾞｼﾊﾗﾏﾁ","pref":"山形県","city":"山形市","address":"東原町"},
{"zip_code":"9902308","kana_pref":"ﾔﾏｶﾞﾀｹﾝ","kana_city":"ﾔﾏｶﾞﾀｼ","kana_address":"ﾋｶﾞｼﾊﾝｺﾞｳ","pref":"山形県","city":"山形市","address":"東半郷"},
{"zip_code":"9902375","kana_pref":"ﾔﾏｶﾞﾀｹﾝ","kana_city":"ﾔﾏｶﾞﾀｼ","kana_address":"ﾋｶﾞｼﾌﾙﾀﾞﾃ","pref":"山形県","city":"山形市","address":"東古館"},
{"zip_code":"9900022","kana_pref":"ﾔﾏｶﾞﾀｹﾝ","kana_city":"ﾔﾏｶﾞﾀｼ","kana_address":"ﾋｶﾞｼﾔﾏｶﾞﾀ","pref":"山形県","city":"山形市","address":"東山形"},
{"zip_code":"9900813","kana_pref":"ﾔﾏｶﾞﾀｹﾝ","kana_city":"ﾔﾏｶﾞﾀｼ","kana_address":"ﾋﾉｷﾁｮｳ","pref":"山形県","city":"山形市","address":"桧町"},
{"zip_code":"9900076","kana_pref":"ﾔﾏｶﾞﾀｹﾝ","kana_city":"ﾔﾏｶﾞﾀｼ","kana_address":"ﾋﾗｸﾎﾞ","pref":"山形県","city":"山形市","address":"平久保"},
{"zip_code":"9902401","kana_pref":"ﾔﾏｶﾞﾀｹﾝ","kana_city":"ﾔﾏｶﾞﾀｼ","kana_address":"ﾋﾗｼﾐｽﾞ","pref":"山形県","city":"山形市","address":"平清水"},
{"zip_code":"9902462","kana_pref":"ﾔﾏｶﾞﾀｹﾝ","kana_city":"ﾔﾏｶﾞﾀｼ","kana_address":"ﾌｶﾏﾁ","pref":"山形県","city":"山形市","address":"深町"},
{"zip_code":"9902377","kana_pref":"ﾔﾏｶﾞﾀｹﾝ","kana_city":"ﾔﾏｶﾞﾀｼ","kana_address":"ﾌｼﾞｻﾜｶﾞﾜ","pref":"山形県","city":"山形市","address":"藤沢川"},
{"zip_code":"9900828","kana_pref":"ﾔﾏｶﾞﾀｹﾝ","kana_city":"ﾔﾏｶﾞﾀｼ","kana_address":"ﾌﾀﾊﾞﾁｮｳ","pref":"山形県","city":"山形市","address":"双葉町"},
{"zip_code":"9900894","kana_pref":"ﾔﾏｶﾞﾀｹﾝ","kana_city":"ﾔﾏｶﾞﾀｼ","kana_address":"ﾌﾅﾏﾁ","pref":"山形県","city":"山形市","address":"船町"},
{"zip_code":"9902374","kana_pref":"ﾔﾏｶﾞﾀｹﾝ","kana_city":"ﾔﾏｶﾞﾀｼ","kana_address":"ﾌﾙﾀﾞﾃ","pref":"山形県","city":"山形市","address":"古館"},
{"zip_code":"9900857","kana_pref":"ﾔﾏｶﾞﾀｹﾝ","kana_city":"ﾔﾏｶﾞﾀｼ","kana_address":"ﾍｲﾀﾞ","pref":"山形県","city":"山形市","address":"平田"},
{"zip_code":"9900013","kana_pref":"ﾔﾏｶﾞﾀｹﾝ","kana_city":"ﾔﾏｶﾞﾀｼ","kana_address":"ﾎﾞｳﾊﾞﾗﾏﾁ","pref":"山形県","city":"山形市","address":"防原町"},
{"zip_code":"9900001","kana_pref":"ﾔﾏｶﾞﾀｹﾝ","kana_city":"ﾔﾏｶﾞﾀｼ","kana_address":"ﾎﾂﾞﾐ","pref":"山形県","city":"山形市","address":"穂積"},
{"zip_code":"9900043","kana_pref":"ﾔﾏｶﾞﾀｹﾝ","kana_city":"ﾔﾏｶﾞﾀｼ","kana_address":"ﾎﾝﾁｮｳ","pref":"山形県","city":"山形市","address":"本町"},
{"zip_code":"9902352","kana_pref":"ﾔﾏｶﾞﾀｹﾝ","kana_city":"ﾔﾏｶﾞﾀｼ","kana_address":"ﾏｴｱｶｼ","pref":"山形県","city":"山形市","address":"前明石"},
{"zip_code":"9902411","kana_pref":"ﾔﾏｶﾞﾀｹﾝ","kana_city":"ﾔﾏｶﾞﾀｼ","kana_address":"ﾏｴﾀﾏﾁ","pref":"山形県","city":"山形市","address":"前田町"},
{"zip_code":"9902473","kana_pref":"ﾔﾏｶﾞﾀｹﾝ","kana_city":"ﾔﾏｶﾞﾀｼ","kana_address":"ﾏﾂｴｲ","pref":"山形県","city":"山形市","address":"松栄"},
{"zip_code":"9900023","kana_pref":"ﾔﾏｶﾞﾀｹﾝ","kana_city":"ﾔﾏｶﾞﾀｼ","kana_address":"ﾏﾂﾅﾐ","pref":"山形県","city":"山形市","address":"松波"},
{"zip_code":"9902313","kana_pref":"ﾔﾏｶﾞﾀｹﾝ","kana_city":"ﾔﾏｶﾞﾀｼ","kana_address":"ﾏﾂﾊﾞﾗ","pref":"山形県","city":"山形市","address":"松原"},
{"zip_code":"9902431","kana_pref":"ﾔﾏｶﾞﾀｹﾝ","kana_city":"ﾔﾏｶﾞﾀｼ","kana_address":"ﾏﾂﾐﾁｮｳ","pref":"山形県","city":"山形市","address":"松見町"},
{"zip_code":"9902412","kana_pref":"ﾔﾏｶﾞﾀｹﾝ","kana_city":"ﾔﾏｶﾞﾀｼ","kana_address":"ﾏﾂﾔﾏ","pref":"山形県","city":"山形市","address":"松山"},
{"zip_code":"9900810","kana_pref":"ﾔﾏｶﾞﾀｹﾝ","kana_city":"ﾔﾏｶﾞﾀｼ","kana_address":"ﾏﾐｶﾞｻｷ","pref":"山形県","city":"山形市","address":"馬見ケ崎"},
{"zip_code":"9900803","kana_pref":"ﾔﾏｶﾞﾀｹﾝ","kana_city":"ﾔﾏｶﾞﾀｼ","kana_address":"ﾐｻｷ","pref":"山形県","city":"山形市","address":"見崎"},
{"zip_code":"9900802","kana_pref":"ﾔﾏｶﾞﾀｹﾝ","kana_city":"ﾔﾏｶﾞﾀｼ","kana_address":"ﾐｻｷｶﾜﾗ","pref":"山形県","city":"山形市","address":"見崎川原"},
{"zip_code":"9900036","kana_pref":"ﾔﾏｶﾞﾀｹﾝ","kana_city":"ﾔﾏｶﾞﾀｼ","kana_address":"ﾐｯｶﾏﾁ","pref":"山形県","city":"山形市","address":"三日町"},
{"zip_code":"9900041","kana_pref":"ﾔﾏｶﾞﾀｹﾝ","kana_city":"ﾔﾏｶﾞﾀｼ","kana_address":"ﾐﾄﾞﾘﾁｮｳ","pref":"山形県","city":"山形市","address":"緑町"},
{"zip_code":"9902441","kana_pref":"ﾔﾏｶﾞﾀｹﾝ","kana_city":"ﾔﾏｶﾞﾀｼ","kana_address":"ﾐﾅﾐ1ﾊﾞﾝﾁｮｳ","pref":"山形県","city":"山形市","address":"南一番町"},
{"zip_code":"9902442","kana_pref":"ﾔﾏｶﾞﾀｹﾝ","kana_city":"ﾔﾏｶﾞﾀｼ","kana_address":"ﾐﾅﾐ2ﾊﾞﾝﾁｮｳ","pref":"山形県","city":"山形市","address":"南二番町"},
{"zip_code":"9902443","kana_pref":"ﾔﾏｶﾞﾀｹﾝ","kana_city":"ﾔﾏｶﾞﾀｼ","kana_address":"ﾐﾅﾐ3ﾊﾞﾝﾁｮｳ","pref":"山形県","city":"山形市","address":"南三番町"},
{"zip_code":"9902444","kana_pref":"ﾔﾏｶﾞﾀｹﾝ","kana_city":"ﾔﾏｶﾞﾀｼ","kana_address":"ﾐﾅﾐ4ﾊﾞﾝﾁｮｳ","pref":"山形県","city":"山形市","address":"南四番町"},
{"zip_code":"9900836","kana_pref":"ﾔﾏｶﾞﾀｹﾝ","kana_city":"ﾔﾏｶﾞﾀｼ","kana_address":"ﾐﾅﾐｲｼｾﾞｷ","pref":"山形県","city":"山形市","address":"南石関"},
{"zip_code":"9900879","kana_pref":"ﾔﾏｶﾞﾀｹﾝ","kana_city":"ﾔﾏｶﾞﾀｼ","kana_address":"ﾐﾅﾐｼﾄﾀﾞ","pref":"山形県","city":"山形市","address":"南志戸田"},
{"zip_code":"9902461","kana_pref":"ﾔﾏｶﾞﾀｹﾝ","kana_city":"ﾔﾏｶﾞﾀｼ","kana_address":"ﾐﾅﾐﾀﾞﾃ","pref":"山形県","city":"山形市","address":"南館"},
{"zip_code":"9902465","kana_pref":"ﾔﾏｶﾞﾀｹﾝ","kana_city":"ﾔﾏｶﾞﾀｼ","kana_address":"ﾐﾅﾐﾀﾞﾃﾆｼ","pref":"山形県","city":"山形市","address":"南館西"},
{"zip_code":"9902413","kana_pref":"ﾔﾏｶﾞﾀｹﾝ","kana_city":"ﾔﾏｶﾞﾀｼ","kana_address":"ﾐﾅﾐﾊﾗﾏﾁ","pref":"山形県","city":"山形市","address":"南原町"},
{"zip_code":"9902306","kana_pref":"ﾔﾏｶﾞﾀｹﾝ","kana_city":"ﾔﾏｶﾞﾀｼ","kana_address":"ﾐﾅﾐﾊﾝｺﾞｳ","pref":"山形県","city":"山形市","address":"南半郷"},
{"zip_code":"9902312","kana_pref":"ﾔﾏｶﾞﾀｹﾝ","kana_city":"ﾔﾏｶﾞﾀｼ","kana_address":"ﾐﾅﾐﾏﾂﾊﾞﾗ","pref":"山形県","city":"山形市","address":"南松原"},
{"zip_code":"9902372","kana_pref":"ﾔﾏｶﾞﾀｹﾝ","kana_city":"ﾔﾏｶﾞﾀｼ","kana_address":"ﾐﾉﾘｶﾞｵｶ","pref":"山形県","city":"山形市","address":"みのりが丘"},
{"zip_code":"9902493","kana_pref":"ﾔﾏｶﾞﾀｹﾝ","kana_city":"ﾔﾏｶﾞﾀｼ","kana_address":"ﾐﾊﾀﾁｮｳ","pref":"山形県","city":"山形市","address":"美畑町"},
{"zip_code":"9900848","kana_pref":"ﾔﾏｶﾞﾀｹﾝ","kana_city":"ﾔﾏｶﾞﾀｼ","kana_address":"ﾐﾔｳﾗ","pref":"山形県","city":"山形市","address":"宮浦"},
{"zip_code":"9900057","kana_pref":"ﾔﾏｶﾞﾀｹﾝ","kana_city":"ﾔﾏｶﾞﾀｼ","kana_address":"ﾐﾔﾏﾁ","pref":"山形県","city":"山形市","address":"宮町"},
{"zip_code":"9900011","kana_pref":"ﾔﾏｶﾞﾀｹﾝ","kana_city":"ﾔﾏｶﾞﾀｼ","kana_address":"ﾐｮｳｹﾝｼﾞ","pref":"山形県","city":"山形市","address":"妙見寺"},
{"zip_code":"9902472","kana_pref":"ﾔﾏｶﾞﾀｹﾝ","kana_city":"ﾔﾏｶﾞﾀｼ","kana_address":"ﾐｮｳｼﾞﾝﾏｴ","pref":"山形県","city":"山形市","address":"明神前"},
{"zip_code":"9900054","kana_pref":"ﾔﾏｶﾞﾀｹﾝ","kana_city":"ﾔﾏｶﾞﾀｼ","kana_address":"ﾑｲｶﾏﾁ","pref":"山形県","city":"山形市","address":"六日町"},
{"zip_code":"9900895","kana_pref":"ﾔﾏｶﾞﾀｹﾝ","kana_city":"ﾔﾏｶﾞﾀｼ","kana_address":"ﾑｶｲｼﾝﾃﾞﾝ","pref":"山形県","city":"山形市","address":"向新田"},
{"zip_code":"9902371","kana_pref":"ﾔﾏｶﾞﾀｹﾝ","kana_city":"ﾔﾏｶﾞﾀｼ","kana_address":"ﾑﾗｷｻﾞﾜ","pref":"山形県","city":"山形市","address":"村木沢"},
{"zip_code":"9902447","kana_pref":"ﾔﾏｶﾞﾀｹﾝ","kana_city":"ﾔﾏｶﾞﾀｼ","kana_address":"ﾓﾄｷ","pref":"山形県","city":"山形市","address":"元木"},
{"zip_code":"9902342","kana_pref":"ﾔﾏｶﾞﾀｹﾝ","kana_city":"ﾔﾏｶﾞﾀｼ","kana_address":"ﾓﾝﾃﾞﾝ","pref":"山形県","city":"山形市","address":"門伝"},
{"zip_code":"9902314","kana_pref":"ﾔﾏｶﾞﾀｹﾝ","kana_city":"ﾔﾏｶﾞﾀｼ","kana_address":"ﾔｶﾞｼﾜ","pref":"山形県","city":"山形市","address":"谷柏"},
{"zip_code":"9900053","kana_pref":"ﾔﾏｶﾞﾀｹﾝ","kana_city":"ﾔﾏｶﾞﾀｼ","kana_address":"ﾔｸｼﾏﾁ","pref":"山形県","city":"山形市","address":"薬師町"},
{"zip_code":"9902366","kana_pref":"ﾔﾏｶﾞﾀｹﾝ","kana_city":"ﾔﾏｶﾞﾀｼ","kana_address":"ﾔﾁﾏｴ","pref":"山形県","city":"山形市","address":"谷地前"},
{"zip_code":"9900835","kana_pref":"ﾔﾏｶﾞﾀｹﾝ","kana_city":"ﾔﾏｶﾞﾀｼ","kana_address":"ﾔﾖｲ","pref":"山形県","city":"山形市","address":"やよい"},
{"zip_code":"9900006","kana_pref":"ﾔﾏｶﾞﾀｹﾝ","kana_city":"ﾔﾏｶﾞﾀｼ","kana_address":"ﾔﾝﾍﾞﾎﾝﾁｮｳ","pref":"山形県","city":"山形市","address":"山家本町"},
{"zip_code":"9900063","kana_pref":"ﾔﾏｶﾞﾀｹﾝ","kana_city":"ﾔﾏｶﾞﾀｼ","kana_address":"ﾔﾝﾍﾞﾏﾁ","pref":"山形県","city":"山形市","address":"山家町"},
{"zip_code":"9900037","kana_pref":"ﾔﾏｶﾞﾀｹﾝ","kana_city":"ﾔﾏｶﾞﾀｼ","kana_address":"ﾖｳｶﾏﾁ","pref":"山形県","city":"山形市","address":"八日町"},
{"zip_code":"9900866","kana_pref":"ﾔﾏｶﾞﾀｹﾝ","kana_city":"ﾔﾏｶﾞﾀｼ","kana_address":"ﾖｺｲ","pref":"山形県","city":"山形市","address":"横井"},
{"zip_code":"9900843","kana_pref":"ﾔﾏｶﾞﾀｹﾝ","kana_city":"ﾔﾏｶﾞﾀｼ","kana_address":"ﾖｺﾐﾁ","pref":"山形県","city":"山形市","address":"横道"},
{"zip_code":"9902383","kana_pref":"ﾔﾏｶﾞﾀｹﾝ","kana_city":"ﾔﾏｶﾞﾀｼ","kana_address":"ﾖｼｻﾞﾜ","pref":"山形県","city":"山形市","address":"芳沢"},
{"zip_code":"9900074","kana_pref":"ﾔﾏｶﾞﾀｹﾝ","kana_city":"ﾔﾏｶﾞﾀｼ","kana_address":"ﾖｼﾉ","pref":"山形県","city":"山形市","address":"芳野"},
{"zip_code":"9900883","kana_pref":"ﾔﾏｶﾞﾀｹﾝ","kana_city":"ﾔﾏｶﾞﾀｼ","kana_address":"ﾖｼﾉｼﾞｭｸ","pref":"山形県","city":"山形市","address":"吉野宿"},
{"zip_code":"9902451","kana_pref":"ﾔﾏｶﾞﾀｹﾝ","kana_city":"ﾔﾏｶﾞﾀｼ","kana_address":"ﾖｼﾊﾗ","pref":"山形県","city":"山形市","address":"吉原"},
{"zip_code":"9902455","kana_pref":"ﾔﾏｶﾞﾀｹﾝ","kana_city":"ﾔﾏｶﾞﾀｼ","kana_address":"ﾖｼﾊﾗﾐﾅﾐ","pref":"山形県","city":"山形市","address":"吉原南"},
{"zip_code":"9900071","kana_pref":"ﾔﾏｶﾞﾀｹﾝ","kana_city":"ﾔﾏｶﾞﾀｼ","kana_address":"ﾘｭｳﾂｳｾﾝﾀｰ","pref":"山形県","city":"山形市","address":"流通センター"},
{"zip_code":"9902373","kana_pref":"ﾔﾏｶﾞﾀｹﾝ","kana_city":"ﾔﾏｶﾞﾀｼ","kana_address":"ﾜｶｷﾞ","pref":"山形県","city":"山形市","address":"若木"},
{"zip_code":"9902495","kana_pref":"ﾔﾏｶﾞﾀｹﾝ","kana_city":"ﾔﾏｶﾞﾀｼ","kana_address":"ﾜｶﾊﾞﾁｮｳ","pref":"山形県","city":"山形市","address":"若葉町"},
{"zip_code":"9902453","kana_pref":"ﾔﾏｶﾞﾀｹﾝ","kana_city":"ﾔﾏｶﾞﾀｼ","kana_address":"ﾜｶﾐﾔ","pref":"山形県","city":"山形市","address":"若宮"},
{"zip_code":"9900064","kana_pref":"ﾔﾏｶﾞﾀｹﾝ","kana_city":"ﾔﾏｶﾞﾀｼ","kana_address":"ﾜｺﾞｳﾏﾁ","pref":"山形県","city":"山形市","address":"和合町"},
{"zip_code":"9900502","kana_pref":"ﾔﾏｶﾞﾀｹﾝ","kana_city":"ｻｶﾞｴｼ","kana_address":"ｻﾁｳ","pref":"山形県","city":"寒河江市","address":"幸生"},
{"zip_code":"9900511","kana_pref":"ﾔﾏｶﾞﾀｹﾝ","kana_city":"ｻｶﾞｴｼ","kana_address":"ｼﾞｵﾝｼﾞ","pref":"山形県","city":"寒河江市","address":"慈恩寺"},
{"zip_code":"9900505","kana_pref":"ﾔﾏｶﾞﾀｹﾝ","kana_city":"ｻｶﾞｴｼ","kana_address":"ｼﾗｲﾜ","pref":"山形県","city":"寒河江市","address":"白岩"},
{"zip_code":"9900522","kana_pref":"ﾔﾏｶﾞﾀｹﾝ","kana_city":"ｻｶﾞｴｼ","kana_address":"ｾｲｽｹｼﾝﾃﾞﾝ","pref":"山形県","city":"寒河江市","address":"清助新田"},
{"zip_code":"9900524","kana_pref":"ﾔﾏｶﾞﾀｹﾝ","kana_city":"ｻｶﾞｴｼ","kana_address":"ﾀｶﾏﾂ","pref":"山形県","city":"寒河江市","address":"高松"},
{"zip_code":"9900503","kana_pref":"ﾔﾏｶﾞﾀｹﾝ","kana_city":"ｻｶﾞｴｼ","kana_address":"ﾀｼﾛ","pref":"山形県","city":"寒河江市","address":"田代"},
{"zip_code":"9900561","kana_pref":"ﾔﾏｶﾞﾀｹﾝ","kana_city":"ｻｶﾞｴｼ","kana_address":"ﾁｭｳｵｳｺｳｷﾞｮｳﾀﾞﾝﾁ","pref":"山形県","city":"寒河江市","address":"中央工業団地"},
{"zip_code":"9900504","kana_pref":"ﾔﾏｶﾞﾀｹﾝ","kana_city":"ｻｶﾞｴｼ","kana_address":"ﾄﾒﾊﾞ","pref":"山形県","city":"寒河江市","address":"留場"},
{"zip_code":"9900513","kana_pref":"ﾔﾏｶﾞﾀｹﾝ","kana_city":"ｻｶﾞｴｼ","kana_address":"ﾋﾜﾀﾞ","pref":"山形県","city":"寒河江市","address":"日和田"},
{"zip_code":"9900512","kana_pref":"ﾔﾏｶﾞﾀｹﾝ","kana_city":"ｻｶﾞｴｼ","kana_address":"ﾐﾉﾜ","pref":"山形県","city":"寒河江市","address":"箕輪"},
{"zip_code":"9900501","kana_pref":"ﾔﾏｶﾞﾀｹﾝ","kana_city":"ｻｶﾞｴｼ","kana_address":"ﾐﾔｳﾁ","pref":"山形県","city":"寒河江市","address":"宮内"},
{"zip_code":"9900523","kana_pref":"ﾔﾏｶﾞﾀｹﾝ","kana_city":"ｻｶﾞｴｼ","kana_address":"ﾔｸﾜ","pref":"山形県","city":"寒河江市","address":"八鍬"},
{"zip_code":"9900521","kana_pref":"ﾔﾏｶﾞﾀｹﾝ","kana_city":"ｻｶﾞｴｼ","kana_address":"ﾔｻﾜ","pref":"山形県","city":"寒河江市","address":"谷沢"},
{"zip_code":"9900525","kana_pref":"ﾔﾏｶﾞﾀｹﾝ","kana_city":"ｻｶﾞｴｼ","kana_address":"ﾖﾅｻﾞ","pref":"山形県","city":"寒河江市","address":"米沢"},
{"zip_code":"9900300","kana_pref":"ﾔﾏｶﾞﾀｹﾝ","kana_city":"ﾋｶﾞｼﾑﾗﾔﾏｸﾞﾝﾔﾏﾉﾍﾞﾏﾁ","kana_address":"","pref":"山形県","city":"東村山郡山辺町","address":""},
{"zip_code":"9900311","kana_pref":"ﾔﾏｶﾞﾀｹﾝ","kana_city":"ﾋｶﾞｼﾑﾗﾔﾏｸﾞﾝﾔﾏﾉﾍﾞﾏﾁ","kana_address":"ｵｳﾐ","pref":"山形県","city":"東村山郡山辺町","address":"近江"},
{"zip_code":"9900323","kana_pref":"ﾔﾏｶﾞﾀｹﾝ","kana_city":"ﾋｶﾞｼﾑﾗﾔﾏｸﾞﾝﾔﾏﾉﾍﾞﾏﾁ","kana_address":"ｵｵﾂｶ","pref":"山形県","city":"東村山郡山辺町","address":"大塚"},
{"zip_code":"9900331","kana_pref":"ﾔﾏｶﾞﾀｹﾝ","kana_city":"ﾋｶﾞｼﾑﾗﾔﾏｸﾞﾝﾔﾏﾉﾍﾞﾏﾁ","kana_address":"ｵｵﾃﾗ","pref":"山形県","city":"東村山郡山辺町","address":"大寺"},
{"zip_code":"9900341","kana_pref":"ﾔﾏｶﾞﾀｹﾝ","kana_city":"ﾋｶﾞｼﾑﾗﾔﾏｸﾞﾝﾔﾏﾉﾍﾞﾏﾁ","kana_address":"ｵｵﾜﾗﾋﾞ","pref":"山形県","city":"東村山郡山辺町","address":"大蕨"},
{"zip_code":"9900332","kana_pref":"ﾔﾏｶﾞﾀｹﾝ","kana_city":"ﾋｶﾞｼﾑﾗﾔﾏｸﾞﾝﾔﾏﾉﾍﾞﾏﾁ","kana_address":"ｷﾀｶﾞｷ","pref":"山形県","city":"東村山郡山辺町","address":"北垣"},
{"zip_code":"9900352","kana_pref":"ﾔﾏｶﾞﾀｹﾝ","kana_city":"ﾋｶﾞｼﾑﾗﾔﾏｸﾞﾝﾔﾏﾉﾍﾞﾏﾁ","kana_address":"ｷﾀｻｸ","pref":"山形県","city":"東村山郡山辺町","address":"北作"},
{"zip_code":"9900342","kana_pref":"ﾔﾏｶﾞﾀｹﾝ","kana_city":"ﾋｶﾞｼﾑﾗﾔﾏｸﾞﾝﾔﾏﾉﾍﾞﾏﾁ","kana_address":"ｷﾀﾔﾏ","pref":"山形県","city":"東村山郡山辺町","address":"北山"},
{"zip_code":"9900333","kana_pref":"ﾔﾏｶﾞﾀｹﾝ","kana_city":"ﾋｶﾞｼﾑﾗﾔﾏｸﾞﾝﾔﾏﾉﾍﾞﾏﾁ","kana_address":"ｽｷﾞｼﾀ","pref":"山形県","city":"東村山郡山辺町","address":"杉下"},
{"zip_code":"9900321","kana_pref":"ﾔﾏｶﾞﾀｹﾝ","kana_city":"ﾋｶﾞｼﾑﾗﾔﾏｸﾞﾝﾔﾏﾉﾍﾞﾏﾁ","kana_address":"ﾈｷﾞﾜ","pref":"山形県","city":"東村山郡山辺町","address":"根際"},
{"zip_code":"9900361","kana_pref":"ﾔﾏｶﾞﾀｹﾝ","kana_city":"ﾋｶﾞｼﾑﾗﾔﾏｸﾞﾝﾔﾏﾉﾍﾞﾏﾁ","kana_address":"ﾊﾀﾔ","pref":"山形県","city":"東村山郡山辺町","address":"畑谷"},
{"zip_code":"9900312","kana_pref":"ﾔﾏｶﾞﾀｹﾝ","kana_city":"ﾋｶﾞｼﾑﾗﾔﾏｸﾞﾝﾔﾏﾉﾍﾞﾏﾁ","kana_address":"ﾐｶﾜｼﾞﾘ","pref":"山形県","city":"東村山郡山辺町","address":"三河尻"},
{"zip_code":"9900302","kana_pref":"ﾔﾏｶﾞﾀｹﾝ","kana_city":"ﾋｶﾞｼﾑﾗﾔﾏｸﾞﾝﾔﾏﾉﾍﾞﾏﾁ","kana_address":"ﾐﾄﾞﾘｶﾞｵｶ","pref":"山形県","city":"東村山郡山辺町","address":"緑ケ丘"},
{"zip_code":"9900351","kana_pref":"ﾔﾏｶﾞﾀｹﾝ","kana_city":"ﾋｶﾞｼﾑﾗﾔﾏｸﾞﾝﾔﾏﾉﾍﾞﾏﾁ","kana_address":"ﾔﾅｻﾞﾜ","pref":"山形県","city":"東村山郡山辺町","address":"簗沢"},
{"zip_code":"9900301","kana_pref":"ﾔﾏｶﾞﾀｹﾝ","kana_city":"ﾋｶﾞｼﾑﾗﾔﾏｸﾞﾝﾔﾏﾉﾍﾞﾏﾁ","kana_address":"ﾔﾏﾉﾍﾞ","pref":"山形県","city":"東村山郡山辺町","address":"山辺"},
{"zip_code":"9900322","kana_pref":"ﾔﾏｶﾞﾀｹﾝ","kana_city":"ﾋｶﾞｼﾑﾗﾔﾏｸﾞﾝﾔﾏﾉﾍﾞﾏﾁ","kana_address":"ﾖｳｶﾞｲ","pref":"山形県","city":"東村山郡山辺町","address":"要害"},
{"zip_code":"9900400","kana_pref":"ﾔﾏｶﾞﾀｹﾝ","kana_city":"ﾋｶﾞｼﾑﾗﾔﾏｸﾞﾝﾅｶﾔﾏﾏﾁ","kana_address":"","pref":"山形県","city":"東村山郡中山町","address":""},
{"zip_code":"9900411","kana_pref":"ﾔﾏｶﾞﾀｹﾝ","kana_city":"ﾋｶﾞｼﾑﾗﾔﾏｸﾞﾝﾅｶﾔﾏﾏﾁ","kana_address":"ｱｵﾊﾞ","pref":"山形県","city":"東村山郡中山町","address":"あおば"},
{"zip_code":"9900402","kana_pref":"ﾔﾏｶﾞﾀｹﾝ","kana_city":"ﾋｶﾞｼﾑﾗﾔﾏｸﾞﾝﾅｶﾔﾏﾏﾁ","kana_address":"ｲｽﾞﾐ","pref":"山形県","city":"東村山郡中山町","address":"いずみ"},
{"zip_code":"9900408","kana_pref":"ﾔﾏｶﾞﾀｹﾝ","kana_city":"ﾋｶﾞｼﾑﾗﾔﾏｸﾞﾝﾅｶﾔﾏﾏﾁ","kana_address":"ｵｶ","pref":"山形県","city":"東村山郡中山町","address":"岡"},
{"zip_code":"9900405","kana_pref":"ﾔﾏｶﾞﾀｹﾝ","kana_city":"ﾋｶﾞｼﾑﾗﾔﾏｸﾞﾝﾅｶﾔﾏﾏﾁ","kana_address":"ｶﾈｻﾞﾜ","pref":"山形県","city":"東村山郡中山町","address":"金沢"},
{"zip_code":"9900409","kana_pref":"ﾔﾏｶﾞﾀｹﾝ","kana_city":"ﾋｶﾞｼﾑﾗﾔﾏｸﾞﾝﾅｶﾔﾏﾏﾁ","kana_address":"ｺｼｵ","pref":"山形県","city":"東村山郡中山町","address":"小塩"},
{"zip_code":"9900403","kana_pref":"ﾔﾏｶﾞﾀｹﾝ","kana_city":"ﾋｶﾞｼﾑﾗﾔﾏｸﾞﾝﾅｶﾔﾏﾏﾁ","kana_address":"ﾀﾞﾙﾏｼﾞ","pref":"山形県","city":"東村山郡中山町","address":"達磨寺"},
{"zip_code":"9900407","kana_pref":"ﾔﾏｶﾞﾀｹﾝ","kana_city":"ﾋｶﾞｼﾑﾗﾔﾏｸﾞﾝﾅｶﾔﾏﾏﾁ","kana_address":"ﾂﾁﾊｼ","pref":"山形県","city":"東村山郡中山町","address":"土橋"},
{"zip_code":"9900401","kana_pref":"ﾔﾏｶﾞﾀｹﾝ","kana_city":"ﾋｶﾞｼﾑﾗﾔﾏｸﾞﾝﾅｶﾔﾏﾏﾁ","kana_address":"ﾅｶﾞｻｷ","pref":"山形県","city":"東村山郡中山町","address":"長崎"},
{"zip_code":"9900404","kana_pref":"ﾔﾏｶﾞﾀｹﾝ","kana_city":"ﾋｶﾞｼﾑﾗﾔﾏｸﾞﾝﾅｶﾔﾏﾏﾁ","kana_address":"ﾑｺｳｼﾝﾃﾞﾝ","pref":"山形県","city":"東村山郡中山町","address":"向新田"},
{"zip_code":"9900406","kana_pref":"ﾔﾏｶﾞﾀｹﾝ","kana_city":"ﾋｶﾞｼﾑﾗﾔﾏｸﾞﾝﾅｶﾔﾏﾏﾁ","kana_address":"ﾔﾅｷﾞｻﾜ","pref":"山形県","city":"東村山郡中山町","address":"柳沢"},
{"zip_code":"9900700","kana_pref":"ﾔﾏｶﾞﾀｹﾝ","kana_city":"ﾆｼﾑﾗﾔﾏｸﾞﾝﾆｼｶﾜﾏﾁ","kana_address":"","pref":"山形県","city":"西村山郡西川町","address":""},
{"zip_code":"9900714","kana_pref":"ﾔﾏｶﾞﾀｹﾝ","kana_city":"ﾆｼﾑﾗﾔﾏｸﾞﾝﾆｼｶﾜﾏﾁ","kana_address":"ｲﾘﾏ","pref":"山形県","city":"西村山郡西川町","address":"入間"},
{"zip_code":"9900743","kana_pref":"ﾔﾏｶﾞﾀｹﾝ","kana_city":"ﾆｼﾑﾗﾔﾏｸﾞﾝﾆｼｶﾜﾏﾁ","kana_address":"ｲﾜﾈｻﾞﾜ","pref":"山形県","city":"西村山郡西川町","address":"岩根沢"},
{"zip_code":"9900721","kana_pref":"ﾔﾏｶﾞﾀｹﾝ","kana_city":"ﾆｼﾑﾗﾔﾏｸﾞﾝﾆｼｶﾜﾏﾁ","kana_address":"ｵｵｲｻﾜ","pref":"山形県","city":"西村山郡西川町","address":"大井沢"},
{"zip_code":"9900702","kana_pref":"ﾔﾏｶﾞﾀｹﾝ","kana_city":"ﾆｼﾑﾗﾔﾏｸﾞﾝﾆｼｶﾜﾏﾁ","kana_address":"ｶｲｼｭｳ","pref":"山形県","city":"西村山郡西川町","address":"海味"},
{"zip_code":"9900734","kana_pref":"ﾔﾏｶﾞﾀｹﾝ","kana_city":"ﾆｼﾑﾗﾔﾏｸﾞﾝﾆｼｶﾜﾏﾁ","kana_address":"ｼﾂﾞ","pref":"山形県","city":"西村山郡西川町","address":"志津"},
{"zip_code":"9900732","kana_pref":"ﾔﾏｶﾞﾀｹﾝ","kana_city":"ﾆｼﾑﾗﾔﾏｸﾞﾝﾆｼｶﾜﾏﾁ","kana_address":"ｽﾅｺﾞｾｷ","pref":"山形県","city":"西村山郡西川町","address":"砂子関"},
{"zip_code":"9900731","kana_pref":"ﾔﾏｶﾞﾀｹﾝ","kana_city":"ﾆｼﾑﾗﾔﾏｸﾞﾝﾆｼｶﾜﾏﾁ","kana_address":"ﾂｷｵｶ","pref":"山形県","city":"西村山郡西川町","address":"月岡"},
{"zip_code":"9900733","kana_pref":"ﾔﾏｶﾞﾀｹﾝ","kana_city":"ﾆｼﾑﾗﾔﾏｸﾞﾝﾆｼｶﾜﾏﾁ","kana_address":"ﾂｷﾔﾏｻﾞﾜ","pref":"山形県","city":"西村山郡西川町","address":"月山沢"},
{"zip_code":"9900741","kana_pref":"ﾔﾏｶﾞﾀｹﾝ","kana_city":"ﾆｼﾑﾗﾔﾏｸﾞﾝﾆｼｶﾜﾏﾁ","kana_address":"ﾂﾅﾄﾘ","pref":"山形県","city":"西村山郡西川町","address":"綱取"},
{"zip_code":"9900713","kana_pref":"ﾔﾏｶﾞﾀｹﾝ","kana_city":"ﾆｼﾑﾗﾔﾏｸﾞﾝﾆｼｶﾜﾏﾁ","kana_address":"ﾇﾏﾔﾏ","pref":"山形県","city":"西村山郡西川町","address":"沼山"},
{"zip_code":"9900712","kana_pref":"ﾔﾏｶﾞﾀｹﾝ","kana_city":"ﾆｼﾑﾗﾔﾏｸﾞﾝﾆｼｶﾜﾏﾁ","kana_address":"ﾊﾗ","pref":"山形県","city":"西村山郡西川町","address":"原"},
{"zip_code":"9900735","kana_pref":"ﾔﾏｶﾞﾀｹﾝ","kana_city":"ﾆｼﾑﾗﾔﾏｸﾞﾝﾆｼｶﾜﾏﾁ","kana_address":"ﾎﾝﾄﾞｳｼﾞ","pref":"山形県","city":"西村山郡西川町","address":"本道寺"},
{"zip_code":"9900703","kana_pref":"ﾔﾏｶﾞﾀｹﾝ","kana_city":"ﾆｼﾑﾗﾔﾏｸﾞﾝﾆｼｶﾜﾏﾁ","kana_address":"ﾏｻﾞﾜ","pref":"山形県","city":"西村山郡西川町","address":"間沢"},
{"zip_code":"9900742","kana_pref":"ﾔﾏｶﾞﾀｹﾝ","kana_city":"ﾆｼﾑﾗﾔﾏｸﾞﾝﾆｼｶﾜﾏﾁ","kana_address":"ﾐｽﾞｻﾜ","pref":"山形県","city":"西村山郡西川町","address":"水沢"},
{"zip_code":"9900701","kana_pref":"ﾔﾏｶﾞﾀｹﾝ","kana_city":"ﾆｼﾑﾗﾔﾏｸﾞﾝﾆｼｶﾜﾏﾁ","kana_address":"ﾑﾂｱｲ","pref":"山形県","city":"西村山郡西川町","address":"睦合"},
{"zip_code":"9900711","kana_pref":"ﾔﾏｶﾞﾀｹﾝ","kana_city":"ﾆｼﾑﾗﾔﾏｸﾞﾝﾆｼｶﾜﾏﾁ","kana_address":"ﾖｼｶﾜ","pref":"山形県","city":"西村山郡西川町","address":"吉川"},
{"zip_code":"9901400","kana_pref":"ﾔﾏｶﾞﾀｹﾝ","kana_city":"ﾆｼﾑﾗﾔﾏｸﾞﾝｱｻﾋﾏﾁ","kana_address":"","pref":"山形県","city":"西村山郡朝日町","address":""},
{"zip_code":"9901441","kana_pref":"ﾔﾏｶﾞﾀｹﾝ","kana_city":"ﾆｼﾑﾗﾔﾏｸﾞﾝｱｻﾋﾏﾁ","kana_address":"ｱﾗｼﾞｭｸ","pref":"山形県","city":"西村山郡朝日町","address":"新宿"},
{"zip_code":"9901303","kana_pref":"ﾔﾏｶﾞﾀｹﾝ","kana_city":"ﾆｼﾑﾗﾔﾏｸﾞﾝｱｻﾋﾏﾁ","kana_address":"ｳﾏｶﾞﾐ","pref":"山形県","city":"西村山郡朝日町","address":"馬神"},
{"zip_code":"9901306","kana_pref":"ﾔﾏｶﾞﾀｹﾝ","kana_city":"ﾆｼﾑﾗﾔﾏｸﾞﾝｱｻﾋﾏﾁ","kana_address":"ｵｵｸﾞﾚﾔﾏ","pref":"山形県","city":"西村山郡朝日町","address":"大暮山"},
{"zip_code":"9901431","kana_pref":"ﾔﾏｶﾞﾀｹﾝ","kana_city":"ﾆｼﾑﾗﾔﾏｸﾞﾝｱｻﾋﾏﾁ","kana_address":"ｵｵﾀｷ","pref":"山形県","city":"西村山郡朝日町","address":"大滝"},
{"zip_code":"9901305","kana_pref":"ﾔﾏｶﾞﾀｹﾝ","kana_city":"ﾆｼﾑﾗﾔﾏｸﾞﾝｱｻﾋﾏﾁ","kana_address":"ｵｵﾇﾏ","pref":"山形県","city":"西村山郡朝日町","address":"大沼"},
{"zip_code":"9901562","kana_pref":"ﾔﾏｶﾞﾀｹﾝ","kana_city":"ﾆｼﾑﾗﾔﾏｸﾞﾝｱｻﾋﾏﾁ","kana_address":"ｵｵﾌﾅｷﾞ","pref":"山形県","city":"西村山郡朝日町","address":"大船木"},
{"zip_code":"9901304","kana_pref":"ﾔﾏｶﾞﾀｹﾝ","kana_city":"ﾆｼﾑﾗﾔﾏｸﾞﾝｱｻﾋﾏﾁ","kana_address":"ｵｵﾔ","pref":"山形県","city":"西村山郡朝日町","address":"大谷"},
{"zip_code":"9901422","kana_pref":"ﾔﾏｶﾞﾀｹﾝ","kana_city":"ﾆｼﾑﾗﾔﾏｸﾞﾝｱｻﾋﾏﾁ","kana_address":"ｵｸﾘﾊｼ","pref":"山形県","city":"西村山郡朝日町","address":"送橋"},
{"zip_code":"9901432","kana_pref":"ﾔﾏｶﾞﾀｹﾝ","kana_city":"ﾆｼﾑﾗﾔﾏｸﾞﾝｱｻﾋﾏﾁ","kana_address":"ｶﾐｺﾞｳ","pref":"山形県","city":"西村山郡朝日町","address":"上郷"},
{"zip_code":"9901571","kana_pref":"ﾔﾏｶﾞﾀｹﾝ","kana_city":"ﾆｼﾑﾗﾔﾏｸﾞﾝｱｻﾋﾏﾁ","kana_address":"ｺｸｽﾍﾞ","pref":"山形県","city":"西村山郡朝日町","address":"石須部"},
{"zip_code":"9901563","kana_pref":"ﾔﾏｶﾞﾀｹﾝ","kana_city":"ﾆｼﾑﾗﾔﾏｸﾞﾝｱｻﾋﾏﾁ","kana_address":"ｺﾝﾍﾟｲ","pref":"山形県","city":"西村山郡朝日町","address":"今平"},
{"zip_code":"9901444","kana_pref":"ﾔﾏｶﾞﾀｹﾝ","kana_city":"ﾆｼﾑﾗﾔﾏｸﾞﾝｱｻﾋﾏﾁ","kana_address":"ｼﾉｻﾜ","pref":"山形県","city":"西村山郡朝日町","address":"四ノ沢"},
{"zip_code":"9901423","kana_pref":"ﾔﾏｶﾞﾀｹﾝ","kana_city":"ﾆｼﾑﾗﾔﾏｸﾞﾝｱｻﾋﾏﾁ","kana_address":"ｼﾓｱｼｻﾞﾜ","pref":"山形県","city":"西村山郡朝日町","address":"下芦沢"},
{"zip_code":"9901574","kana_pref":"ﾔﾏｶﾞﾀｹﾝ","kana_city":"ﾆｼﾑﾗﾔﾏｸﾞﾝｱｻﾋﾏﾁ","kana_address":"ｼﾗｸﾗ","pref":"山形県","city":"西村山郡朝日町","address":"白倉"},
{"zip_code":"9901433","kana_pref":"ﾔﾏｶﾞﾀｹﾝ","kana_city":"ﾆｼﾑﾗﾔﾏｸﾞﾝｱｻﾋﾏﾁ","kana_address":"ｽｷﾞﾔﾏ","pref":"山形県","city":"西村山郡朝日町","address":"杉山"},
{"zip_code":"9901573","kana_pref":"ﾔﾏｶﾞﾀｹﾝ","kana_city":"ﾆｼﾑﾗﾔﾏｸﾞﾝｱｻﾋﾏﾁ","kana_address":"ﾀﾃｷ","pref":"山形県","city":"西村山郡朝日町","address":"立木"},
{"zip_code":"9901302","kana_pref":"ﾔﾏｶﾞﾀｹﾝ","kana_city":"ﾆｼﾑﾗﾔﾏｸﾞﾝｱｻﾋﾏﾁ","kana_address":"ﾀﾏﾉｲ","pref":"山形県","city":"西村山郡朝日町","address":"玉ノ井"},
{"zip_code":"9901572","kana_pref":"ﾔﾏｶﾞﾀｹﾝ","kana_city":"ﾆｼﾑﾗﾔﾏｸﾞﾝｱｻﾋﾏﾁ","kana_address":"ﾀﾛｳ","pref":"山形県","city":"西村山郡朝日町","address":"太郎"},
{"zip_code":"9901552","kana_pref":"ﾔﾏｶﾞﾀｹﾝ","kana_city":"ﾆｼﾑﾗﾔﾏｸﾞﾝｱｻﾋﾏﾁ","kana_address":"ﾄｷﾜ","pref":"山形県","city":"西村山郡朝日町","address":"常盤"},
{"zip_code":"9901301","kana_pref":"ﾔﾏｶﾞﾀｹﾝ","kana_city":"ﾆｼﾑﾗﾔﾏｸﾞﾝｱｻﾋﾏﾁ","kana_address":"ﾅｶｻﾞﾜ","pref":"山形県","city":"西村山郡朝日町","address":"中沢"},
{"zip_code":"9901553","kana_pref":"ﾔﾏｶﾞﾀｹﾝ","kana_city":"ﾆｼﾑﾗﾔﾏｸﾞﾝｱｻﾋﾏﾁ","kana_address":"ﾅｶﾞﾇﾏ","pref":"山形県","city":"西村山郡朝日町","address":"長沼"},
{"zip_code":"9901421","kana_pref":"ﾔﾏｶﾞﾀｹﾝ","kana_city":"ﾆｼﾑﾗﾔﾏｸﾞﾝｱｻﾋﾏﾁ","kana_address":"ﾌﾙﾏｷﾞ","pref":"山形県","city":"西村山郡朝日町","address":"古槇"},
{"zip_code":"9901561","kana_pref":"ﾔﾏｶﾞﾀｹﾝ","kana_city":"ﾆｼﾑﾗﾔﾏｸﾞﾝｱｻﾋﾏﾁ","kana_address":"ﾏﾂﾎﾄﾞ","pref":"山形県","city":"西村山郡朝日町","address":"松程"},
{"zip_code":"9901424","kana_pref":"ﾔﾏｶﾞﾀｹﾝ","kana_city":"ﾆｼﾑﾗﾔﾏｸﾞﾝｱｻﾋﾏﾁ","kana_address":"ﾐｽﾞﾓﾄ","pref":"山形県","city":"西村山郡朝日町","address":"水本"},
{"zip_code":"9901551","kana_pref":"ﾔﾏｶﾞﾀｹﾝ","kana_city":"ﾆｼﾑﾗﾔﾏｸﾞﾝｱｻﾋﾏﾁ","kana_address":"ﾐﾅｶ","pref":"山形県","city":"西村山郡朝日町","address":"三中"},
{"zip_code":"9901442","kana_pref":"ﾔﾏｶﾞﾀｹﾝ","kana_city":"ﾆｼﾑﾗﾔﾏｸﾞﾝｱｻﾋﾏﾁ","kana_address":"ﾐﾔｼﾞｭｸ","pref":"山形県","city":"西村山郡朝日町","address":"宮宿"},
{"zip_code":"9901443","kana_pref":"ﾔﾏｶﾞﾀｹﾝ","kana_city":"ﾆｼﾑﾗﾔﾏｸﾞﾝｱｻﾋﾏﾁ","kana_address":"ﾕｷﾀﾆ","pref":"山形県","city":"西村山郡朝日町","address":"雪谷"},
{"zip_code":"9901411","kana_pref":"ﾔﾏｶﾞﾀｹﾝ","kana_city":"ﾆｼﾑﾗﾔﾏｸﾞﾝｱｻﾋﾏﾁ","kana_address":"ﾜｺﾞｳ","pref":"山形県","city":"西村山郡朝日町","address":"和合"},
{"zip_code":"9901100","kana_pref":"ﾔﾏｶﾞﾀｹﾝ","kana_city":"ﾆｼﾑﾗﾔﾏｸﾞﾝｵｵｴﾏﾁ","kana_address":"","pref":"山形県","city":"西村山郡大江町","address":""},
{"zip_code":"9901101","kana_pref":"ﾔﾏｶﾞﾀｹﾝ","kana_city":"ﾆｼﾑﾗﾔﾏｸﾞﾝｵｵｴﾏﾁ","kana_address":"ｱﾃﾗｻﾞﾜ","pref":"山形県","city":"西村山郡大江町","address":"左沢"},
{"zip_code":"9901122","kana_pref":"ﾔﾏｶﾞﾀｹﾝ","kana_city":"ﾆｼﾑﾗﾔﾏｸﾞﾝｵｵｴﾏﾁ","kana_address":"ｵｵﾐ","pref":"山形県","city":"西村山郡大江町","address":"小見"},
{"zip_code":"9901131","kana_pref":"ﾔﾏｶﾞﾀｹﾝ","kana_city":"ﾆｼﾑﾗﾔﾏｸﾞﾝｵｵｴﾏﾁ","kana_address":"ｵｷﾞﾉ","pref":"山形県","city":"西村山郡大江町","address":"荻野"},
{"zip_code":"9901152","kana_pref":"ﾔﾏｶﾞﾀｹﾝ","kana_city":"ﾆｼﾑﾗﾔﾏｸﾞﾝｵｵｴﾏﾁ","kana_address":"ｶｵﾖｼｺｳ","pref":"山形県","city":"西村山郡大江町","address":"顔好甲"},
{"zip_code":"9901153","kana_pref":"ﾔﾏｶﾞﾀｹﾝ","kana_city":"ﾆｼﾑﾗﾔﾏｸﾞﾝｵｵｴﾏﾁ","kana_address":"ｶｵﾖｼｵﾂ","pref":"山形県","city":"西村山郡大江町","address":"顔好乙"},
{"zip_code":"9901276","kana_pref":"ﾔﾏｶﾞﾀｹﾝ","kana_city":"ﾆｼﾑﾗﾔﾏｸﾞﾝｵｵｴﾏﾁ","kana_address":"ｸﾛﾓﾘ","pref":"山形県","city":"西村山郡大江町","address":"黒森"},
{"zip_code":"9901141","kana_pref":"ﾔﾏｶﾞﾀｹﾝ","kana_city":"ﾆｼﾑﾗﾔﾏｸﾞﾝｵｵｴﾏﾁ","kana_address":"ｺｼﾞｭｳﾅ","pref":"山形県","city":"西村山郡大江町","address":"小釿"},
{"zip_code":"9901273","kana_pref":"ﾔﾏｶﾞﾀｹﾝ","kana_city":"ﾆｼﾑﾗﾔﾏｸﾞﾝｵｵｴﾏﾁ","kana_address":"ｺｾｲ","pref":"山形県","city":"西村山郡大江町","address":"小清"},
{"zip_code":"9901142","kana_pref":"ﾔﾏｶﾞﾀｹﾝ","kana_city":"ﾆｼﾑﾗﾔﾏｸﾞﾝｵｵｴﾏﾁ","kana_address":"ｻﾞｲﾓｸ","pref":"山形県","city":"西村山郡大江町","address":"材木"},
{"zip_code":"9901275","kana_pref":"ﾔﾏｶﾞﾀｹﾝ","kana_city":"ﾆｼﾑﾗﾔﾏｸﾞﾝｵｵｴﾏﾁ","kana_address":"ｻﾜｸﾞﾁ","pref":"山形県","city":"西村山郡大江町","address":"沢口"},
{"zip_code":"9901113","kana_pref":"ﾔﾏｶﾞﾀｹﾝ","kana_city":"ﾆｼﾑﾗﾔﾏｸﾞﾝｵｵｴﾏﾁ","kana_address":"ｻﾝｺﾞｳｺｳ","pref":"山形県","city":"西村山郡大江町","address":"三郷甲"},
{"zip_code":"9901112","kana_pref":"ﾔﾏｶﾞﾀｹﾝ","kana_city":"ﾆｼﾑﾗﾔﾏｸﾞﾝｵｵｴﾏﾁ","kana_address":"ｻﾝｺﾞｳｵﾂ","pref":"山形県","city":"西村山郡大江町","address":"三郷乙"},
{"zip_code":"9901111","kana_pref":"ﾔﾏｶﾞﾀｹﾝ","kana_city":"ﾆｼﾑﾗﾔﾏｸﾞﾝｵｵｴﾏﾁ","kana_address":"ｻﾝｺﾞｳﾍｲ","pref":"山形県","city":"西村山郡大江町","address":"三郷丙"},
{"zip_code":"9901133","kana_pref":"ﾔﾏｶﾞﾀｹﾝ","kana_city":"ﾆｼﾑﾗﾔﾏｸﾞﾝｵｵｴﾏﾁ","kana_address":"ｼｵﾉﾀｲﾗ","pref":"山形県","city":"西村山郡大江町","address":"塩ノ平"},
{"zip_code":"9901144","kana_pref":"ﾔﾏｶﾞﾀｹﾝ","kana_city":"ﾆｼﾑﾗﾔﾏｸﾞﾝｵｵｴﾏﾁ","kana_address":"ｼﾞｭｳﾊﾂｻｲｺｳ","pref":"山形県","city":"西村山郡大江町","address":"十八才甲"},
{"zip_code":"9901145","kana_pref":"ﾔﾏｶﾞﾀｹﾝ","kana_city":"ﾆｼﾑﾗﾔﾏｸﾞﾝｵｵｴﾏﾁ","kana_address":"ｼﾞｭｳﾊﾂｻｲｵﾂ","pref":"山形県","city":"西村山郡大江町","address":"十八才乙"},
{"zip_code":"9901271","kana_pref":"ﾔﾏｶﾞﾀｹﾝ","kana_city":"ﾆｼﾑﾗﾔﾏｸﾞﾝｵｵｴﾏﾁ","kana_address":"ﾂｷﾇﾉ","pref":"山形県","city":"西村山郡大江町","address":"月布"},
{"zip_code":"9901132","kana_pref":"ﾔﾏｶﾞﾀｹﾝ","kana_city":"ﾆｼﾑﾗﾔﾏｸﾞﾝｵｵｴﾏﾁ","kana_address":"ﾄﾞｳﾔｼｷ","pref":"山形県","city":"西村山郡大江町","address":"堂屋敷"},
{"zip_code":"9901134","kana_pref":"ﾔﾏｶﾞﾀｹﾝ","kana_city":"ﾆｼﾑﾗﾔﾏｸﾞﾝｵｵｴﾏﾁ","kana_address":"ﾄｺﾛﾌﾞ","pref":"山形県","city":"西村山郡大江町","address":"所部"},
{"zip_code":"9901114","kana_pref":"ﾔﾏｶﾞﾀｹﾝ","kana_city":"ﾆｼﾑﾗﾔﾏｸﾞﾝｵｵｴﾏﾁ","kana_address":"ﾄﾐｻﾞﾜ","pref":"山形県","city":"西村山郡大江町","address":"富沢"},
{"zip_code":"9901146","kana_pref":"ﾔﾏｶﾞﾀｹﾝ","kana_city":"ﾆｼﾑﾗﾔﾏｸﾞﾝｵｵｴﾏﾁ","kana_address":"ﾅﾗﾔﾏ","pref":"山形県","city":"西村山郡大江町","address":"楢山"},
{"zip_code":"9901272","kana_pref":"ﾔﾏｶﾞﾀｹﾝ","kana_city":"ﾆｼﾑﾗﾔﾏｸﾞﾝｵｵｴﾏﾁ","kana_address":"ﾇｸﾐ","pref":"山形県","city":"西村山郡大江町","address":"貫見"},
{"zip_code":"9901143","kana_pref":"ﾔﾏｶﾞﾀｹﾝ","kana_city":"ﾆｼﾑﾗﾔﾏｸﾞﾝｵｵｴﾏﾁ","kana_address":"ﾊｼｶﾐ","pref":"山形県","city":"西村山郡大江町","address":"橋上"},
{"zip_code":"9901161","kana_pref":"ﾔﾏｶﾞﾀｹﾝ","kana_city":"ﾆｼﾑﾗﾔﾏｸﾞﾝｵｵｴﾏﾁ","kana_address":"ﾊﾗﾀﾞ","pref":"山形県","city":"西村山郡大江町","address":"原田"},
{"zip_code":"9901121","kana_pref":"ﾔﾏｶﾞﾀｹﾝ","kana_city":"ﾆｼﾑﾗﾔﾏｸﾞﾝｵｵｴﾏﾁ","kana_address":"ﾌｼﾞﾀ","pref":"山形県","city":"西村山郡大江町","address":"藤田"},
{"zip_code":"9901154","kana_pref":"ﾔﾏｶﾞﾀｹﾝ","kana_city":"ﾆｼﾑﾗﾔﾏｸﾞﾝｵｵｴﾏﾁ","kana_address":"ﾎﾝｺﾞｳｺｳ","pref":"山形県","city":"西村山郡大江町","address":"本郷甲"},
{"zip_code":"9901151","kana_pref":"ﾔﾏｶﾞﾀｹﾝ","kana_city":"ﾆｼﾑﾗﾔﾏｸﾞﾝｵｵｴﾏﾁ","kana_address":"ﾎﾝｺﾞｳｵﾂ","pref":"山形県","city":"西村山郡大江町","address":"本郷乙"},
{"zip_code":"9901164","kana_pref":"ﾔﾏｶﾞﾀｹﾝ","kana_city":"ﾆｼﾑﾗﾔﾏｸﾞﾝｵｵｴﾏﾁ","kana_address":"ﾎﾝｺﾞｳﾍｲ","pref":"山形県","city":"西村山郡大江町","address":"本郷丙"},
{"zip_code":"9901163","kana_pref":"ﾔﾏｶﾞﾀｹﾝ","kana_city":"ﾆｼﾑﾗﾔﾏｸﾞﾝｵｵｴﾏﾁ","kana_address":"ﾎﾝｺﾞｳﾃｲ","pref":"山形県","city":"西村山郡大江町","address":"本郷丁"},
{"zip_code":"9901165","kana_pref":"ﾔﾏｶﾞﾀｹﾝ","kana_city":"ﾆｼﾑﾗﾔﾏｸﾞﾝｵｵｴﾏﾁ","kana_address":"ﾎﾝｺﾞｳﾎﾞ","pref":"山形県","city":"西村山郡大江町","address":"本郷戊"},
{"zip_code":"9901162","kana_pref":"ﾔﾏｶﾞﾀｹﾝ","kana_city":"ﾆｼﾑﾗﾔﾏｸﾞﾝｵｵｴﾏﾁ","kana_address":"ﾎﾝｺﾞｳｷ","pref":"山形県","city":"西村山郡大江町","address":"本郷己"},
{"zip_code":"9901274","kana_pref":"ﾔﾏｶﾞﾀｹﾝ","kana_city":"ﾆｼﾑﾗﾔﾏｸﾞﾝｵｵｴﾏﾁ","kana_address":"ﾔﾅｶﾞﾜ","pref":"山形県","city":"西村山郡大江町","address":"柳川"}]}