{"zip_code":[
{"zip_code":"9920000","kana_pref":"ﾔﾏｶﾞﾀｹﾝ","kana_city":"ﾖﾈｻﾞﾜｼ","kana_address":"","pref":"山形県","city":"米沢市","address":""},
{"zip_code":"9920032","kana_pref":"ﾔﾏｶﾞﾀｹﾝ","kana_city":"ﾖﾈｻﾞﾜｼ","kana_address":"ｱｲｵｲﾁｮｳ","pref":"山形県","city":"米沢市","address":"相生町"},
{"zip_code":"9921406","kana_pref":"ﾔﾏｶﾞﾀｹﾝ","kana_city":"ﾖﾈｻﾞﾜｼ","kana_address":"ｱｶｸｽﾞﾚ","pref":"山形県","city":"米沢市","address":"赤崩"},
{"zip_code":"9921206","kana_pref":"ﾔﾏｶﾞﾀｹﾝ","kana_city":"ﾖﾈｻﾞﾜｼ","kana_address":"ｱｶｸｽﾞﾚ","pref":"山形県","city":"米沢市","address":"赤崩"},
{"zip_code":"9920075","kana_pref":"ﾔﾏｶﾞﾀｹﾝ","kana_city":"ﾖﾈｻﾞﾜｼ","kana_address":"ｱｶｼﾊﾞﾏﾁ","pref":"山形県","city":"米沢市","address":"赤芝町"},
{"zip_code":"9920112","kana_pref":"ﾔﾏｶﾞﾀｹﾝ","kana_city":"ﾖﾈｻﾞﾜｼ","kana_address":"ｱｻｶﾞﾜ","pref":"山形県","city":"米沢市","address":"浅川"},
{"zip_code":"9920115","kana_pref":"ﾔﾏｶﾞﾀｹﾝ","kana_city":"ﾖﾈｻﾞﾜｼ","kana_address":"ｱｽﾞｻｶﾞﾜ","pref":"山形県","city":"米沢市","address":"梓川"},
{"zip_code":"9920034","kana_pref":"ﾔﾏｶﾞﾀｹﾝ","kana_city":"ﾖﾈｻﾞﾜｼ","kana_address":"ｱﾂﾞﾏﾁｮｳ","pref":"山形県","city":"米沢市","address":"吾妻町"},
{"zip_code":"9920119","kana_pref":"ﾔﾏｶﾞﾀｹﾝ","kana_city":"ﾖﾈｻﾞﾜｼ","kana_address":"ｱﾙｶﾃﾞｨｱ","pref":"山形県","city":"米沢市","address":"アルカディア"},
{"zip_code":"9920063","kana_pref":"ﾔﾏｶﾞﾀｹﾝ","kana_city":"ﾖﾈｻﾞﾜｼ","kana_address":"ｲｽﾞﾐﾏﾁ","pref":"山形県","city":"米沢市","address":"泉町"},
{"zip_code":"9921331","kana_pref":"ﾔﾏｶﾞﾀｹﾝ","kana_city":"ﾖﾈｻﾞﾜｼ","kana_address":"ｲﾀﾔ","pref":"山形県","city":"米沢市","address":"板谷"},
{"zip_code":"9921583","kana_pref":"ﾔﾏｶﾞﾀｹﾝ","kana_city":"ﾖﾈｻﾞﾜｼ","kana_address":"ｲﾘﾀｻﾞﾜ","pref":"山形県","city":"米沢市","address":"入田沢"},
{"zip_code":"9920027","kana_pref":"ﾔﾏｶﾞﾀｹﾝ","kana_city":"ﾖﾈｻﾞﾜｼ","kana_address":"ｴｷﾏｴ","pref":"山形県","city":"米沢市","address":"駅前"},
{"zip_code":"9921204","kana_pref":"ﾔﾏｶﾞﾀｹﾝ","kana_city":"ﾖﾈｻﾞﾜｼ","kana_address":"ｵｵｺﾞﾔ","pref":"山形県","city":"米沢市","address":"大小屋"},
{"zip_code":"9921203","kana_pref":"ﾔﾏｶﾞﾀｹﾝ","kana_city":"ﾖﾈｻﾞﾜｼ","kana_address":"ｵｵｻﾜ","pref":"山形県","city":"米沢市","address":"大沢"},
{"zip_code":"9921303","kana_pref":"ﾔﾏｶﾞﾀｹﾝ","kana_city":"ﾖﾈｻﾞﾜｼ","kana_address":"ｵｵｻﾜ","pref":"山形県","city":"米沢市","address":"大沢"},
{"zip_code":"9920035","kana_pref":"ﾔﾏｶﾞﾀｹﾝ","kana_city":"ﾖﾈｻﾞﾜｼ","kana_address":"ｵｵﾀﾏﾁ","pref":"山形県","city":"米沢市","address":"太田町"},
{"zip_code":"9921462","kana_pref":"ﾔﾏｶﾞﾀｹﾝ","kana_city":"ﾖﾈｻﾞﾜｼ","kana_address":"ｵｵﾀﾞｲﾗ","pref":"山形県","city":"米沢市","address":"大平"},
{"zip_code":"9920031","kana_pref":"ﾔﾏｶﾞﾀｹﾝ","kana_city":"ﾖﾈｻﾞﾜｼ","kana_address":"ｵｵﾏﾁ","pref":"山形県","city":"米沢市","address":"大町"},
{"zip_code":"9920076","kana_pref":"ﾔﾏｶﾞﾀｹﾝ","kana_city":"ﾖﾈｻﾞﾜｼ","kana_address":"ｵﾉｶﾞﾜﾏﾁ","pref":"山形県","city":"米沢市","address":"小野川町"},
{"zip_code":"9920014","kana_pref":"ﾔﾏｶﾞﾀｹﾝ","kana_city":"ﾖﾈｻﾞﾜｼ","kana_address":"ｶｼﾞﾏﾁ","pref":"山形県","city":"米沢市","address":"鍛冶町"},
{"zip_code":"9920044","kana_pref":"ﾔﾏｶﾞﾀｹﾝ","kana_city":"ﾖﾈｻﾞﾜｼ","kana_address":"ｶｽｶﾞ","pref":"山形県","city":"米沢市","address":"春日"},
{"zip_code":"9920012","kana_pref":"ﾔﾏｶﾞﾀｹﾝ","kana_city":"ﾖﾈｻﾞﾜｼ","kana_address":"ｶﾅｲｹ","pref":"山形県","city":"米沢市","address":"金池"},
{"zip_code":"9920118","kana_pref":"ﾔﾏｶﾞﾀｹﾝ","kana_city":"ﾖﾈｻﾞﾜｼ","kana_address":"ｶﾐﾆｲﾀﾞ","pref":"山形県","city":"米沢市","address":"上新田"},
{"zip_code":"9920117","kana_pref":"ﾔﾏｶﾞﾀｹﾝ","kana_city":"ﾖﾈｻﾞﾜｼ","kana_address":"ｶﾜｲ","pref":"山形県","city":"米沢市","address":"川井"},
{"zip_code":"9920016","kana_pref":"ﾔﾏｶﾞﾀｹﾝ","kana_city":"ﾖﾈｻﾞﾜｼ","kana_address":"ｶﾜｲｺｳｼﾞ","pref":"山形県","city":"米沢市","address":"川井小路"},
{"zip_code":"9921582","kana_pref":"ﾔﾏｶﾞﾀｹﾝ","kana_city":"ﾖﾈｻﾞﾜｼ","kana_address":"ｶﾝﾊﾞﾗ","pref":"山形県","city":"米沢市","address":"神原"},
{"zip_code":"9920058","kana_pref":"ﾔﾏｶﾞﾀｹﾝ","kana_city":"ﾖﾈｻﾞﾜｼ","kana_address":"ｷﾊﾞﾏﾁ","pref":"山形県","city":"米沢市","address":"木場町"},
{"zip_code":"9920114","kana_pref":"ﾔﾏｶﾞﾀｹﾝ","kana_city":"ﾖﾈｻﾞﾜｼ","kana_address":"ｷﾜﾀﾞ","pref":"山形県","city":"米沢市","address":"木和田"},
{"zip_code":"9921581","kana_pref":"ﾔﾏｶﾞﾀｹﾝ","kana_city":"ﾖﾈｻﾞﾜｼ","kana_address":"ｸﾁﾀｻﾞﾜ","pref":"山形県","city":"米沢市","address":"口田沢"},
{"zip_code":"9920003","kana_pref":"ﾔﾏｶﾞﾀｹﾝ","kana_city":"ﾖﾈｻﾞﾜｼ","kana_address":"ｸﾎﾞﾀﾏﾁｸﾎﾞﾀ","pref":"山形県","city":"米沢市","address":"窪田町窪田"},
{"zip_code":"9920004","kana_pref":"ﾔﾏｶﾞﾀｹﾝ","kana_city":"ﾖﾈｻﾞﾜｼ","kana_address":"ｸﾎﾞﾀﾏﾁｺｾﾞ","pref":"山形県","city":"米沢市","address":"窪田町小瀬"},
{"zip_code":"9920001","kana_pref":"ﾔﾏｶﾞﾀｹﾝ","kana_city":"ﾖﾈｻﾞﾜｼ","kana_address":"ｸﾎﾞﾀﾏﾁﾋｶﾞｼｴﾏﾀ","pref":"山形県","city":"米沢市","address":"窪田町東江股"},
{"zip_code":"9920005","kana_pref":"ﾔﾏｶﾞﾀｹﾝ","kana_city":"ﾖﾈｻﾞﾜｼ","kana_address":"ｸﾎﾞﾀﾏﾁﾌｼﾞｲｽﾞﾐ","pref":"山形県","city":"米沢市","address":"窪田町藤泉"},
{"zip_code":"9920002","kana_pref":"ﾔﾏｶﾞﾀｹﾝ","kana_city":"ﾖﾈｻﾞﾜｼ","kana_address":"ｸﾎﾞﾀﾏﾁﾔﾉﾒ","pref":"山形県","city":"米沢市","address":"窪田町矢野目"},
{"zip_code":"9920055","kana_pref":"ﾔﾏｶﾞﾀｹﾝ","kana_city":"ﾖﾈｻﾞﾜｼ","kana_address":"ｺﾞﾋﾞｮｳ","pref":"山形県","city":"米沢市","address":"御廟"},
{"zip_code":"9920013","kana_pref":"ﾔﾏｶﾞﾀｹﾝ","kana_city":"ﾖﾈｻﾞﾜｼ","kana_address":"ｻｶｴﾏﾁ","pref":"山形県","city":"米沢市","address":"栄町"},
{"zip_code":"9920017","kana_pref":"ﾔﾏｶﾞﾀｹﾝ","kana_city":"ﾖﾈｻﾞﾜｼ","kana_address":"ｻｸﾗｷﾞﾁｮｳ","pref":"山形県","city":"米沢市","address":"桜木町"},
{"zip_code":"9921443","kana_pref":"ﾔﾏｶﾞﾀｹﾝ","kana_city":"ﾖﾈｻﾞﾜｼ","kana_address":"ｻｻﾉ","pref":"山形県","city":"米沢市","address":"笹野"},
{"zip_code":"9921445","kana_pref":"ﾔﾏｶﾞﾀｹﾝ","kana_city":"ﾖﾈｻﾞﾜｼ","kana_address":"ｻｻﾉﾎﾝﾁｮｳ","pref":"山形県","city":"米沢市","address":"笹野本町"},
{"zip_code":"9921441","kana_pref":"ﾔﾏｶﾞﾀｹﾝ","kana_city":"ﾖﾈｻﾞﾜｼ","kana_address":"ｻｻﾉﾏﾁ","pref":"山形県","city":"米沢市","address":"笹野町"},
{"zip_code":"9920042","kana_pref":"ﾔﾏｶﾞﾀｹﾝ","kana_city":"ﾖﾈｻﾞﾜｼ","kana_address":"ｼｵｲﾏﾁｼｵﾉ","pref":"山形県","city":"米沢市","address":"塩井町塩野"},
{"zip_code":"9920041","kana_pref":"ﾔﾏｶﾞﾀｹﾝ","kana_city":"ﾖﾈｻﾞﾜｼ","kana_address":"ｼｵｲﾏﾁﾐﾔｲ","pref":"山形県","city":"米沢市","address":"塩井町宮井"},
{"zip_code":"9920043","kana_pref":"ﾔﾏｶﾞﾀｹﾝ","kana_city":"ﾖﾈｻﾞﾜｼ","kana_address":"ｼｵﾉ","pref":"山形県","city":"米沢市","address":"塩野"},
{"zip_code":"9920046","kana_pref":"ﾔﾏｶﾞﾀｹﾝ","kana_city":"ﾖﾈｻﾞﾜｼ","kana_address":"ｼﾉﾌﾞﾏﾁ","pref":"山形県","city":"米沢市","address":"信夫町"},
{"zip_code":"9920081","kana_pref":"ﾔﾏｶﾞﾀｹﾝ","kana_city":"ﾖﾈｻﾞﾜｼ","kana_address":"ｼﾓｺｽｹﾞ","pref":"山形県","city":"米沢市","address":"下小菅"},
{"zip_code":"9920111","kana_pref":"ﾔﾏｶﾞﾀｹﾝ","kana_city":"ﾖﾈｻﾞﾜｼ","kana_address":"ｼﾓﾆｲﾀﾞ","pref":"山形県","city":"米沢市","address":"下新田"},
{"zip_code":"9920023","kana_pref":"ﾔﾏｶﾞﾀｹﾝ","kana_city":"ﾖﾈｻﾞﾜｼ","kana_address":"ｼﾓﾊﾅｻﾞﾜ","pref":"山形県","city":"米沢市","address":"下花沢"},
{"zip_code":"9920054","kana_pref":"ﾔﾏｶﾞﾀｹﾝ","kana_city":"ﾖﾈｻﾞﾜｼ","kana_address":"ｼﾞｮｳｾｲ","pref":"山形県","city":"米沢市","address":"城西"},
{"zip_code":"9920038","kana_pref":"ﾔﾏｶﾞﾀｹﾝ","kana_city":"ﾖﾈｻﾞﾜｼ","kana_address":"ｼﾞｮｳﾅﾝ","pref":"山形県","city":"米沢市","address":"城南"},
{"zip_code":"9920051","kana_pref":"ﾔﾏｶﾞﾀｹﾝ","kana_city":"ﾖﾈｻﾞﾜｼ","kana_address":"ｼﾞｮｳﾎｸ","pref":"山形県","city":"米沢市","address":"城北"},
{"zip_code":"9921444","kana_pref":"ﾔﾏｶﾞﾀｹﾝ","kana_city":"ﾖﾈｻﾞﾜｼ","kana_address":"ｼｮﾌﾞﾂﾏﾁ","pref":"山形県","city":"米沢市","address":"諸仏町"},
{"zip_code":"9920064","kana_pref":"ﾔﾏｶﾞﾀｹﾝ","kana_city":"ﾖﾈｻﾞﾜｼ","kana_address":"ｽｷﾞﾉﾒﾏﾁ","pref":"山形県","city":"米沢市","address":"杉の目町"},
{"zip_code":"9921461","kana_pref":"ﾔﾏｶﾞﾀｹﾝ","kana_city":"ﾖﾈｻﾞﾜｼ","kana_address":"ｽﾓﾓﾔﾏ","pref":"山形県","city":"米沢市","address":"李山"},
{"zip_code":"9921472","kana_pref":"ﾔﾏｶﾞﾀｹﾝ","kana_city":"ﾖﾈｻﾞﾜｼ","kana_address":"ｾｷ","pref":"山形県","city":"米沢市","address":"関"},
{"zip_code":"9921205","kana_pref":"ﾔﾏｶﾞﾀｹﾝ","kana_city":"ﾖﾈｻﾞﾜｼ","kana_address":"ｾｷﾈ","pref":"山形県","city":"米沢市","address":"関根"},
{"zip_code":"9921473","kana_pref":"ﾔﾏｶﾞﾀｹﾝ","kana_city":"ﾖﾈｻﾞﾜｼ","kana_address":"ｾｷﾏﾁ","pref":"山形県","city":"米沢市","address":"関町"},
{"zip_code":"9920116","kana_pref":"ﾔﾏｶﾞﾀｹﾝ","kana_city":"ﾖﾈｻﾞﾜｼ","kana_address":"ﾀｹｲ","pref":"山形県","city":"米沢市","address":"竹井"},
{"zip_code":"9920015","kana_pref":"ﾔﾏｶﾞﾀｹﾝ","kana_city":"ﾖﾈｻﾞﾜｼ","kana_address":"ﾀﾂﾏﾁ","pref":"山形県","city":"米沢市","address":"立町"},
{"zip_code":"9921471","kana_pref":"ﾔﾏｶﾞﾀｹﾝ","kana_city":"ﾖﾈｻﾞﾜｼ","kana_address":"ﾀﾃｲｼ","pref":"山形県","city":"米沢市","address":"立石"},
{"zip_code":"9920072","kana_pref":"ﾔﾏｶﾞﾀｹﾝ","kana_city":"ﾖﾈｻﾞﾜｼ","kana_address":"ﾀﾃﾔﾏ","pref":"山形県","city":"米沢市","address":"舘山"},
{"zip_code":"9920071","kana_pref":"ﾔﾏｶﾞﾀｹﾝ","kana_city":"ﾖﾈｻﾞﾜｼ","kana_address":"ﾀﾃﾔﾏﾔｺﾞﾏﾁ","pref":"山形県","city":"米沢市","address":"舘山矢子町"},
{"zip_code":"9920045","kana_pref":"ﾔﾏｶﾞﾀｹﾝ","kana_city":"ﾖﾈｻﾞﾜｼ","kana_address":"ﾁｭｳｵｳ","pref":"山形県","city":"米沢市","address":"中央"},
{"zip_code":"9921474","kana_pref":"ﾔﾏｶﾞﾀｹﾝ","kana_city":"ﾖﾈｻﾞﾜｼ","kana_address":"ﾂﾅｷﾞ","pref":"山形県","city":"米沢市","address":"綱木"},
{"zip_code":"9920066","kana_pref":"ﾔﾏｶﾞﾀｹﾝ","kana_city":"ﾖﾈｻﾞﾜｼ","kana_address":"ﾄｵﾔﾏﾏﾁ","pref":"山形県","city":"米沢市","address":"遠山町"},
{"zip_code":"9920025","kana_pref":"ﾔﾏｶﾞﾀｹﾝ","kana_city":"ﾖﾈｻﾞﾜｼ","kana_address":"ﾄｵﾘﾏﾁ","pref":"山形県","city":"米沢市","address":"通町"},
{"zip_code":"9920047","kana_pref":"ﾔﾏｶﾞﾀｹﾝ","kana_city":"ﾖﾈｻﾞﾜｼ","kana_address":"ﾄｸﾏﾁ","pref":"山形県","city":"米沢市","address":"徳町"},
{"zip_code":"9921446","kana_pref":"ﾔﾏｶﾞﾀｹﾝ","kana_city":"ﾖﾈｻﾞﾜｼ","kana_address":"ﾅｵｴｾｷﾃｲ","pref":"山形県","city":"米沢市","address":"直江石堤"},
{"zip_code":"9920056","kana_pref":"ﾔﾏｶﾞﾀｹﾝ","kana_city":"ﾖﾈｻﾞﾜｼ","kana_address":"ﾅｵｴﾁｮｳ","pref":"山形県","city":"米沢市","address":"直江町"},
{"zip_code":"9920011","kana_pref":"ﾔﾏｶﾞﾀｹﾝ","kana_city":"ﾖﾈｻﾞﾜｼ","kana_address":"ﾅｶﾀﾞﾏﾁ","pref":"山形県","city":"米沢市","address":"中田町"},
{"zip_code":"9920113","kana_pref":"ﾔﾏｶﾞﾀｹﾝ","kana_city":"ﾖﾈｻﾞﾜｼ","kana_address":"ﾅｶﾞﾃ","pref":"山形県","city":"米沢市","address":"長手"},
{"zip_code":"9920057","kana_pref":"ﾔﾏｶﾞﾀｹﾝ","kana_city":"ﾖﾈｻﾞﾜｼ","kana_address":"ﾅﾙｼﾏﾏﾁ","pref":"山形県","city":"米沢市","address":"成島町"},
{"zip_code":"9920059","kana_pref":"ﾔﾏｶﾞﾀｹﾝ","kana_city":"ﾖﾈｻﾞﾜｼ","kana_address":"ﾆｼｵｵﾄﾞｵﾘ","pref":"山形県","city":"米沢市","address":"西大通"},
{"zip_code":"9921128","kana_pref":"ﾔﾏｶﾞﾀｹﾝ","kana_city":"ﾖﾈｻﾞﾜｼ","kana_address":"ﾊﾁﾏﾝﾊﾟﾗ","pref":"山形県","city":"米沢市","address":"八幡原"},
{"zip_code":"9920021","kana_pref":"ﾔﾏｶﾞﾀｹﾝ","kana_city":"ﾖﾈｻﾞﾜｼ","kana_address":"ﾊﾅｻﾞﾜ","pref":"山形県","city":"米沢市","address":"花沢"},
{"zip_code":"9920022","kana_pref":"ﾔﾏｶﾞﾀｹﾝ","kana_city":"ﾖﾈｻﾞﾜｼ","kana_address":"ﾊﾅｻﾞﾜﾁｮｳ","pref":"山形県","city":"米沢市","address":"花沢町"},
{"zip_code":"9921127","kana_pref":"ﾔﾏｶﾞﾀｹﾝ","kana_city":"ﾖﾈｻﾞﾜｼ","kana_address":"ﾊﾞﾝｾｲﾁｮｳｳｼﾓﾘ","pref":"山形県","city":"米沢市","address":"万世町牛森"},
{"zip_code":"9921125","kana_pref":"ﾔﾏｶﾞﾀｹﾝ","kana_city":"ﾖﾈｻﾞﾜｼ","kana_address":"ﾊﾞﾝｾｲﾁｮｳｶﾀｺ","pref":"山形県","city":"米沢市","address":"万世町片子"},
{"zip_code":"9921124","kana_pref":"ﾔﾏｶﾞﾀｹﾝ","kana_city":"ﾖﾈｻﾞﾜｼ","kana_address":"ﾊﾞﾝｾｲﾁｮｳｶﾅﾔ","pref":"山形県","city":"米沢市","address":"万世町金谷"},
{"zip_code":"9921121","kana_pref":"ﾔﾏｶﾞﾀｹﾝ","kana_city":"ﾖﾈｻﾞﾜｼ","kana_address":"ﾊﾞﾝｾｲﾁｮｳｶﾘﾔｽ","pref":"山形県","city":"米沢市","address":"万世町刈安"},
{"zip_code":"9921123","kana_pref":"ﾔﾏｶﾞﾀｹﾝ","kana_city":"ﾖﾈｻﾞﾜｼ","kana_address":"ﾊﾞﾝｾｲﾁｮｳｸﾜﾔﾏ","pref":"山形県","city":"米沢市","address":"万世町桑山"},
{"zip_code":"9921122","kana_pref":"ﾔﾏｶﾞﾀｹﾝ","kana_city":"ﾖﾈｻﾞﾜｼ","kana_address":"ﾊﾞﾝｾｲﾁｮｳｽﾞｻﾔﾏ","pref":"山形県","city":"米沢市","address":"万世町梓山"},
{"zip_code":"9921201","kana_pref":"ﾔﾏｶﾞﾀｹﾝ","kana_city":"ﾖﾈｻﾞﾜｼ","kana_address":"ﾊﾞﾝｾｲﾁｮｳﾀﾂｻﾞﾜ","pref":"山形県","city":"米沢市","address":"万世町立沢"},
{"zip_code":"9921126","kana_pref":"ﾔﾏｶﾞﾀｹﾝ","kana_city":"ﾖﾈｻﾞﾜｼ","kana_address":"ﾊﾞﾝｾｲﾁｮｳﾄﾞｳﾓﾘ","pref":"山形県","city":"米沢市","address":"万世町堂森"},
{"zip_code":"9920026","kana_pref":"ﾔﾏｶﾞﾀｹﾝ","kana_city":"ﾖﾈｻﾞﾜｼ","kana_address":"ﾋｶﾞｼ","pref":"山形県","city":"米沢市","address":"東"},
{"zip_code":"9920024","kana_pref":"ﾔﾏｶﾞﾀｹﾝ","kana_city":"ﾖﾈｻﾞﾜｼ","kana_address":"ﾋｶﾞｼｵｵﾄﾞｵﾘ","pref":"山形県","city":"米沢市","address":"東大通"},
{"zip_code":"9920087","kana_pref":"ﾔﾏｶﾞﾀｹﾝ","kana_city":"ﾖﾈｻﾞﾜｼ","kana_address":"ﾋﾛﾊﾀﾏﾁｵｵｻﾜ","pref":"山形県","city":"米沢市","address":"広幡町大沢"},
{"zip_code":"9920085","kana_pref":"ﾔﾏｶﾞﾀｹﾝ","kana_city":"ﾖﾈｻﾞﾜｼ","kana_address":"ﾋﾛﾊﾀﾏﾁｵｷﾅｶ","pref":"山形県","city":"米沢市","address":"広幡町沖仲"},
{"zip_code":"9920082","kana_pref":"ﾔﾏｶﾞﾀｹﾝ","kana_city":"ﾖﾈｻﾞﾜｼ","kana_address":"ﾋﾛﾊﾀﾏﾁｵﾔﾏﾀﾞ","pref":"山形県","city":"米沢市","address":"広幡町小山田"},
{"zip_code":"9920084","kana_pref":"ﾔﾏｶﾞﾀｹﾝ","kana_city":"ﾖﾈｻﾞﾜｼ","kana_address":"ﾋﾛﾊﾀﾏﾁｶﾐｺｽｹﾞ","pref":"山形県","city":"米沢市","address":"広幡町上小菅"},
{"zip_code":"9920086","kana_pref":"ﾔﾏｶﾞﾀｹﾝ","kana_city":"ﾖﾈｻﾞﾜｼ","kana_address":"ﾋﾛﾊﾀﾏﾁｷｮｳﾂﾞｶ","pref":"山形県","city":"米沢市","address":"広幡町京塚"},
{"zip_code":"9920083","kana_pref":"ﾔﾏｶﾞﾀｹﾝ","kana_city":"ﾖﾈｻﾞﾜｼ","kana_address":"ﾋﾛﾊﾀﾏﾁﾅﾙｼﾏ","pref":"山形県","city":"米沢市","address":"広幡町成島"},
{"zip_code":"9920073","kana_pref":"ﾔﾏｶﾞﾀｹﾝ","kana_city":"ﾖﾈｻﾞﾜｼ","kana_address":"ﾌﾞｷﾔｼｷﾏﾁ","pref":"山形県","city":"米沢市","address":"吹屋敷町"},
{"zip_code":"9920036","kana_pref":"ﾔﾏｶﾞﾀｹﾝ","kana_city":"ﾖﾈｻﾞﾜｼ","kana_address":"ﾌｸﾀﾞ","pref":"山形県","city":"米沢市","address":"福田"},
{"zip_code":"9920033","kana_pref":"ﾔﾏｶﾞﾀｹﾝ","kana_city":"ﾖﾈｻﾞﾜｼ","kana_address":"ﾌｸﾀﾞﾏﾁ","pref":"山形県","city":"米沢市","address":"福田町"},
{"zip_code":"9920065","kana_pref":"ﾔﾏｶﾞﾀｹﾝ","kana_city":"ﾖﾈｻﾞﾜｼ","kana_address":"ﾌﾙｼﾀﾞﾏﾁ","pref":"山形県","city":"米沢市","address":"古志田町"},
{"zip_code":"9921442","kana_pref":"ﾔﾏｶﾞﾀｹﾝ","kana_city":"ﾖﾈｻﾞﾜｼ","kana_address":"ﾎｳｾﾝﾏﾁ","pref":"山形県","city":"米沢市","address":"芳泉町"},
{"zip_code":"9920061","kana_pref":"ﾔﾏｶﾞﾀｹﾝ","kana_city":"ﾖﾈｻﾞﾜｼ","kana_address":"ﾎﾘｶﾜﾁｮｳ","pref":"山形県","city":"米沢市","address":"堀川町"},
{"zip_code":"9920037","kana_pref":"ﾔﾏｶﾞﾀｹﾝ","kana_city":"ﾖﾈｻﾞﾜｼ","kana_address":"ﾎﾝﾁｮｳ","pref":"山形県","city":"米沢市","address":"本町"},
{"zip_code":"9920053","kana_pref":"ﾔﾏｶﾞﾀｹﾝ","kana_city":"ﾖﾈｻﾞﾜｼ","kana_address":"ﾏﾂｶﾞｻｷ","pref":"山形県","city":"米沢市","address":"松が岬"},
{"zip_code":"9920052","kana_pref":"ﾔﾏｶﾞﾀｹﾝ","kana_city":"ﾖﾈｻﾞﾜｼ","kana_address":"ﾏﾙﾉｳﾁ","pref":"山形県","city":"米沢市","address":"丸の内"},
{"zip_code":"9921202","kana_pref":"ﾔﾏｶﾞﾀｹﾝ","kana_city":"ﾖﾈｻﾞﾜｼ","kana_address":"ﾐｻﾜ","pref":"山形県","city":"米沢市","address":"三沢"},
{"zip_code":"9921453","kana_pref":"ﾔﾏｶﾞﾀｹﾝ","kana_city":"ﾖﾈｻﾞﾜｼ","kana_address":"ﾐﾅﾐﾊﾗｲｼｶﾞｷﾏﾁ","pref":"山形県","city":"米沢市","address":"南原石垣町"},
{"zip_code":"9921455","kana_pref":"ﾔﾏｶﾞﾀｹﾝ","kana_city":"ﾖﾈｻﾞﾜｼ","kana_address":"ﾐﾅﾐﾊﾗｲﾅﾜｼﾛﾏﾁ","pref":"山形県","city":"米沢市","address":"南原猪苗代町"},
{"zip_code":"9921451","kana_pref":"ﾔﾏｶﾞﾀｹﾝ","kana_city":"ﾖﾈｻﾞﾜｼ","kana_address":"ﾐﾅﾐﾊﾗｻｻﾉﾏﾁ","pref":"山形県","city":"米沢市","address":"南原笹野町"},
{"zip_code":"9921454","kana_pref":"ﾔﾏｶﾞﾀｹﾝ","kana_city":"ﾖﾈｻﾞﾜｼ","kana_address":"ﾐﾅﾐﾊﾗｼﾝﾏﾁ","pref":"山形県","city":"米沢市","address":"南原新町"},
{"zip_code":"9921452","kana_pref":"ﾔﾏｶﾞﾀｹﾝ","kana_city":"ﾖﾈｻﾞﾜｼ","kana_address":"ﾐﾅﾐﾊﾗﾖｺﾎﾞﾘﾏﾁ","pref":"山形県","city":"米沢市","address":"南原横堀町"},
{"zip_code":"9920039","kana_pref":"ﾔﾏｶﾞﾀｹﾝ","kana_city":"ﾖﾈｻﾞﾜｼ","kana_address":"ﾓﾝﾄｳﾏﾁ","pref":"山形県","city":"米沢市","address":"門東町"},
{"zip_code":"9920077","kana_pref":"ﾔﾏｶﾞﾀｹﾝ","kana_city":"ﾖﾈｻﾞﾜｼ","kana_address":"ﾔﾅｻﾞﾜ","pref":"山形県","city":"米沢市","address":"簗沢"},
{"zip_code":"9920074","kana_pref":"ﾔﾏｶﾞﾀｹﾝ","kana_city":"ﾖﾈｻﾞﾜｼ","kana_address":"ﾔﾗｲ","pref":"山形県","city":"米沢市","address":"矢来"},
{"zip_code":"9920062","kana_pref":"ﾔﾏｶﾞﾀｹﾝ","kana_city":"ﾖﾈｻﾞﾜｼ","kana_address":"ﾘﾝｾﾝｼﾞ","pref":"山形県","city":"米沢市","address":"林泉寺"},
{"zip_code":"9920091","kana_pref":"ﾔﾏｶﾞﾀｹﾝ","kana_city":"ﾖﾈｻﾞﾜｼ","kana_address":"ﾛｸｺﾞｳﾏﾁｷﾘﾊﾞﾗ","pref":"山形県","city":"米沢市","address":"六郷町桐原"},
{"zip_code":"9920094","kana_pref":"ﾔﾏｶﾞﾀｹﾝ","kana_city":"ﾖﾈｻﾞﾜｼ","kana_address":"ﾛｸｺﾞｳﾏﾁﾄﾄﾞﾛｷ","pref":"山形県","city":"米沢市","address":"六郷町轟"},
{"zip_code":"9920096","kana_pref":"ﾔﾏｶﾞﾀｹﾝ","kana_city":"ﾖﾈｻﾞﾜｼ","kana_address":"ﾛｸｺﾞｳﾏﾁﾅｶﾞﾊｼ","pref":"山形県","city":"米沢市","address":"六郷町長橋"},
{"zip_code":"9920092","kana_pref":"ﾔﾏｶﾞﾀｹﾝ","kana_city":"ﾖﾈｻﾞﾜｼ","kana_address":"ﾛｸｺﾞｳﾏﾁﾆｼｴﾏﾀ","pref":"山形県","city":"米沢市","address":"六郷町西江股"},
{"zip_code":"9920093","kana_pref":"ﾔﾏｶﾞﾀｹﾝ","kana_city":"ﾖﾈｻﾞﾜｼ","kana_address":"ﾛｸｺﾞｳﾏﾁﾆｼﾌｼﾞｲｽﾞﾐ","pref":"山形県","city":"米沢市","address":"六郷町西藤泉"},
{"zip_code":"9920095","kana_pref":"ﾔﾏｶﾞﾀｹﾝ","kana_city":"ﾖﾈｻﾞﾜｼ","kana_address":"ﾛｸｺﾞｳﾏﾁﾋﾄﾂｳﾙｼ","pref":"山形県","city":"米沢市","address":"六郷町一漆"},
{"zip_code":"9920473","kana_pref":"ﾔﾏｶﾞﾀｹﾝ","kana_city":"ﾅﾝﾖｳｼ","kana_address":"ｲｹｸﾞﾛ","pref":"山形県","city":"南陽市","address":"池黒"},
{"zip_code":"9920474","kana_pref":"ﾔﾏｶﾞﾀｹﾝ","kana_city":"ﾅﾝﾖｳｼ","kana_address":"ｳﾙｼﾔﾏ","pref":"山形県","city":"南陽市","address":"漆山"},
{"zip_code":"9920582","kana_pref":"ﾔﾏｶﾞﾀｹﾝ","kana_city":"ﾅﾝﾖｳｼ","kana_address":"ｵｷﾞ","pref":"山形県","city":"南陽市","address":"荻"},
{"zip_code":"9920471","kana_pref":"ﾔﾏｶﾞﾀｹﾝ","kana_city":"ﾅﾝﾖｳｼ","kana_address":"ｶﾈﾔﾏ","pref":"山形県","city":"南陽市","address":"金山"},
{"zip_code":"9920581","kana_pref":"ﾔﾏｶﾞﾀｹﾝ","kana_city":"ﾅﾝﾖｳｼ","kana_address":"ｺﾀｷ","pref":"山形県","city":"南陽市","address":"小滝"},
{"zip_code":"9920583","kana_pref":"ﾔﾏｶﾞﾀｹﾝ","kana_city":"ﾅﾝﾖｳｼ","kana_address":"ｼﾓｵｷﾞ","pref":"山形県","city":"南陽市","address":"下荻"},
{"zip_code":"9920476","kana_pref":"ﾔﾏｶﾞﾀｹﾝ","kana_city":"ﾅﾝﾖｳｼ","kana_address":"ｽﾅﾂﾞｶ","pref":"山形県","city":"南陽市","address":"砂塚"},
{"zip_code":"9920478","kana_pref":"ﾔﾏｶﾞﾀｹﾝ","kana_city":"ﾅﾝﾖｳｼ","kana_address":"ﾀｹﾊﾗ","pref":"山形県","city":"南陽市","address":"竹原"},
{"zip_code":"9920584","kana_pref":"ﾔﾏｶﾞﾀｹﾝ","kana_city":"ﾅﾝﾖｳｼ","kana_address":"ﾀﾛｳ","pref":"山形県","city":"南陽市","address":"太郎"},
{"zip_code":"9920475","kana_pref":"ﾔﾏｶﾞﾀｹﾝ","kana_city":"ﾅﾝﾖｳｼ","kana_address":"ﾊﾈﾂｷ","pref":"山形県","city":"南陽市","address":"羽付"},
{"zip_code":"9920472","kana_pref":"ﾔﾏｶﾞﾀｹﾝ","kana_city":"ﾅﾝﾖｳｼ","kana_address":"ﾐﾔｳﾁ","pref":"山形県","city":"南陽市","address":"宮内"},
{"zip_code":"9920477","kana_pref":"ﾔﾏｶﾞﾀｹﾝ","kana_city":"ﾅﾝﾖｳｼ","kana_address":"ﾘﾝｺﾞｳ","pref":"山形県","city":"南陽市","address":"梨郷"},
{"zip_code":"9920479","kana_pref":"ﾔﾏｶﾞﾀｹﾝ","kana_city":"ﾅﾝﾖｳｼ","kana_address":"ﾜﾀﾞ","pref":"山形県","city":"南陽市","address":"和田"},
{"zip_code":"9920300","kana_pref":"ﾔﾏｶﾞﾀｹﾝ","kana_city":"ﾋｶﾞｼｵｷﾀﾏｸﾞﾝﾀｶﾊﾀﾏﾁ","kana_address":"","pref":"山形県","city":"東置賜郡高畠町","address":""},
{"zip_code":"9920332","kana_pref":"ﾔﾏｶﾞﾀｹﾝ","kana_city":"ﾋｶﾞｼｵｷﾀﾏｸﾞﾝﾀｶﾊﾀﾏﾁ","kana_address":"ｱｲﾉﾓﾘ","pref":"山形県","city":"東置賜郡高畠町","address":"相森"},
{"zip_code":"9920302","kana_pref":"ﾔﾏｶﾞﾀｹﾝ","kana_city":"ﾋｶﾞｼｵｷﾀﾏｸﾞﾝﾀｶﾊﾀﾏﾁ","kana_address":"ｱｸﾂ","pref":"山形県","city":"東置賜郡高畠町","address":"安久津"},
{"zip_code":"9920315","kana_pref":"ﾔﾏｶﾞﾀｹﾝ","kana_city":"ﾋｶﾞｼｵｷﾀﾏｸﾞﾝﾀｶﾊﾀﾏﾁ","kana_address":"ｲｽﾞﾐｵｶ","pref":"山形県","city":"東置賜郡高畠町","address":"泉岡"},
{"zip_code":"9920334","kana_pref":"ﾔﾏｶﾞﾀｹﾝ","kana_city":"ﾋｶﾞｼｵｷﾀﾏｸﾞﾝﾀｶﾊﾀﾏﾁ","kana_address":"ｲｯﾎﾟﾝﾔﾅｷﾞ","pref":"山形県","city":"東置賜郡高畠町","address":"一本柳"},
{"zip_code":"9920324","kana_pref":"ﾔﾏｶﾞﾀｹﾝ","kana_city":"ﾋｶﾞｼｵｷﾀﾏｸﾞﾝﾀｶﾊﾀﾏﾁ","kana_address":"ｲﾘｭｳﾀﾞ","pref":"山形県","city":"東置賜郡高畠町","address":"入生田"},
{"zip_code":"9920333","kana_pref":"ﾔﾏｶﾞﾀｹﾝ","kana_city":"ﾋｶﾞｼｵｷﾀﾏｸﾞﾝﾀｶﾊﾀﾏﾁ","kana_address":"ｶｼﾜｷﾞﾒ","pref":"山形県","city":"東置賜郡高畠町","address":"柏木目"},
{"zip_code":"9920311","kana_pref":"ﾔﾏｶﾞﾀｹﾝ","kana_city":"ﾋｶﾞｼｵｷﾀﾏｸﾞﾝﾀｶﾊﾀﾏﾁ","kana_address":"ｶﾅﾊﾞﾗ","pref":"山形県","city":"東置賜郡高畠町","address":"金原"},
{"zip_code":"9920261","kana_pref":"ﾔﾏｶﾞﾀｹﾝ","kana_city":"ﾋｶﾞｼｵｷﾀﾏｸﾞﾝﾀｶﾊﾀﾏﾁ","kana_address":"ｶﾐﾜﾀﾞ","pref":"山形県","city":"東置賜郡高畠町","address":"上和田"},
{"zip_code":"9920321","kana_pref":"ﾔﾏｶﾞﾀｹﾝ","kana_city":"ﾋｶﾞｼｵｷﾀﾏｸﾞﾝﾀｶﾊﾀﾏﾁ","kana_address":"ｶﾒｵｶ","pref":"山形県","city":"東置賜郡高畠町","address":"亀岡"},
{"zip_code":"9920335","kana_pref":"ﾔﾏｶﾞﾀｹﾝ","kana_city":"ﾋｶﾞｼｵｷﾀﾏｸﾞﾝﾀｶﾊﾀﾏﾁ","kana_address":"ｶﾜﾇﾏ","pref":"山形県","city":"東置賜郡高畠町","address":"川沼"},
{"zip_code":"9920313","kana_pref":"ﾔﾏｶﾞﾀｹﾝ","kana_city":"ﾋｶﾞｼｵｷﾀﾏｸﾞﾝﾀｶﾊﾀﾏﾁ","kana_address":"ｺｳﾔｽ","pref":"山形県","city":"東置賜郡高畠町","address":"高安"},
{"zip_code":"9920312","kana_pref":"ﾔﾏｶﾞﾀｹﾝ","kana_city":"ﾋｶﾞｼｵｷﾀﾏｸﾞﾝﾀｶﾊﾀﾏﾁ","kana_address":"ｺｺﾞｵﾘﾔﾏ","pref":"山形県","city":"東置賜郡高畠町","address":"小郡山"},
{"zip_code":"9920265","kana_pref":"ﾔﾏｶﾞﾀｹﾝ","kana_city":"ﾋｶﾞｼｵｷﾀﾏｸﾞﾝﾀｶﾊﾀﾏﾁ","kana_address":"ｻｻﾞﾜ","pref":"山形県","city":"東置賜郡高畠町","address":"佐沢"},
{"zip_code":"9920331","kana_pref":"ﾔﾏｶﾞﾀｹﾝ","kana_city":"ﾋｶﾞｼｵｷﾀﾏｸﾞﾝﾀｶﾊﾀﾏﾁ","kana_address":"ｻﾝｼﾞｮﾉﾒ","pref":"山形県","city":"東置賜郡高畠町","address":"三条目"},
{"zip_code":"9920314","kana_pref":"ﾔﾏｶﾞﾀｹﾝ","kana_city":"ﾋｶﾞｼｵｷﾀﾏｸﾞﾝﾀｶﾊﾀﾏﾁ","kana_address":"ｼｵﾉﾓﾘ","pref":"山形県","city":"東置賜郡高畠町","address":"塩森"},
{"zip_code":"9920263","kana_pref":"ﾔﾏｶﾞﾀｹﾝ","kana_city":"ﾋｶﾞｼｵｷﾀﾏｸﾞﾝﾀｶﾊﾀﾏﾁ","kana_address":"ｼﾓﾜﾀﾞ","pref":"山形県","city":"東置賜郡高畠町","address":"下和田"},
{"zip_code":"9920351","kana_pref":"ﾔﾏｶﾞﾀｹﾝ","kana_city":"ﾋｶﾞｼｵｷﾀﾏｸﾞﾝﾀｶﾊﾀﾏﾁ","kana_address":"ﾀｶﾊﾀ","pref":"山形県","city":"東置賜郡高畠町","address":"高畠"},
{"zip_code":"9920342","kana_pref":"ﾔﾏｶﾞﾀｹﾝ","kana_city":"ﾋｶﾞｼｵｷﾀﾏｸﾞﾝﾀｶﾊﾀﾏﾁ","kana_address":"ﾀｹﾉﾓﾘ","pref":"山形県","city":"東置賜郡高畠町","address":"竹森"},
{"zip_code":"9920323","kana_pref":"ﾔﾏｶﾞﾀｹﾝ","kana_city":"ﾋｶﾞｼｵｷﾀﾏｸﾞﾝﾀｶﾊﾀﾏﾁ","kana_address":"ﾂﾕﾌｼﾞ","pref":"山形県","city":"東置賜郡高畠町","address":"露藤"},
{"zip_code":"9920341","kana_pref":"ﾔﾏｶﾞﾀｹﾝ","kana_city":"ﾋｶﾞｼｵｷﾀﾏｸﾞﾝﾀｶﾊﾀﾏﾁ","kana_address":"ﾄｷｻﾞﾜ","pref":"山形県","city":"東置賜郡高畠町","address":"時沢"},
{"zip_code":"9920352","kana_pref":"ﾔﾏｶﾞﾀｹﾝ","kana_city":"ﾋｶﾞｼｵｷﾀﾏｸﾞﾝﾀｶﾊﾀﾏﾁ","kana_address":"ﾅｶｻﾞﾄ","pref":"山形県","city":"東置賜郡高畠町","address":"中里"},
{"zip_code":"9920322","kana_pref":"ﾔﾏｶﾞﾀｹﾝ","kana_city":"ﾋｶﾞｼｵｷﾀﾏｸﾞﾝﾀｶﾊﾀﾏﾁ","kana_address":"ﾅｶｼﾞﾏ","pref":"山形県","city":"東置賜郡高畠町","address":"中島"},
{"zip_code":"9920301","kana_pref":"ﾔﾏｶﾞﾀｹﾝ","kana_city":"ﾋｶﾞｼｵｷﾀﾏｸﾞﾝﾀｶﾊﾀﾏﾁ","kana_address":"ﾆｲｼﾞｭｸ","pref":"山形県","city":"東置賜郡高畠町","address":"二井宿"},
{"zip_code":"9920343","kana_pref":"ﾔﾏｶﾞﾀｹﾝ","kana_city":"ﾋｶﾞｼｵｷﾀﾏｸﾞﾝﾀｶﾊﾀﾏﾁ","kana_address":"ﾈｷﾞｼ","pref":"山形県","city":"東置賜郡高畠町","address":"根岸"},
{"zip_code":"9920264","kana_pref":"ﾔﾏｶﾞﾀｹﾝ","kana_city":"ﾋｶﾞｼｵｷﾀﾏｸﾞﾝﾀｶﾊﾀﾏﾁ","kana_address":"ﾊﾞﾄｳ","pref":"山形県","city":"東置賜郡高畠町","address":"馬頭"},
{"zip_code":"9920344","kana_pref":"ﾔﾏｶﾞﾀｹﾝ","kana_city":"ﾋｶﾞｼｵｷﾀﾏｸﾞﾝﾀｶﾊﾀﾏﾁ","kana_address":"ﾌｶﾇﾏ","pref":"山形県","city":"東置賜郡高畠町","address":"深沼"},
{"zip_code":"9920325","kana_pref":"ﾔﾏｶﾞﾀｹﾝ","kana_city":"ﾋｶﾞｼｵｷﾀﾏｸﾞﾝﾀｶﾊﾀﾏﾁ","kana_address":"ﾌﾅﾊﾞｼ","pref":"山形県","city":"東置賜郡高畠町","address":"船橋"},
{"zip_code":"9920262","kana_pref":"ﾔﾏｶﾞﾀｹﾝ","kana_city":"ﾋｶﾞｼｵｷﾀﾏｸﾞﾝﾀｶﾊﾀﾏﾁ","kana_address":"ﾓﾄﾜﾀﾞ","pref":"山形県","city":"東置賜郡高畠町","address":"元和田"},
{"zip_code":"9920602","kana_pref":"ﾔﾏｶﾞﾀｹﾝ","kana_city":"ﾋｶﾞｼｵｷﾀﾏｸﾞﾝｶﾜﾆｼﾏﾁ","kana_address":"ｵｵﾂｶ","pref":"山形県","city":"東置賜郡川西町","address":"大塚"},
{"zip_code":"9920601","kana_pref":"ﾔﾏｶﾞﾀｹﾝ","kana_city":"ﾋｶﾞｼｵｷﾀﾏｸﾞﾝｶﾜﾆｼﾏﾁ","kana_address":"ﾆｼｵｵﾂｶ","pref":"山形県","city":"東置賜郡川西町","address":"西大塚"},
{"zip_code":"9920603","kana_pref":"ﾔﾏｶﾞﾀｹﾝ","kana_city":"ﾋｶﾞｼｵｷﾀﾏｸﾞﾝｶﾜﾆｼﾏﾁ","kana_address":"ﾋｶﾞｼｵｵﾂｶ","pref":"山形県","city":"東置賜郡川西町","address":"東大塚"},
{"zip_code":"9920800","kana_pref":"ﾔﾏｶﾞﾀｹﾝ","kana_city":"ﾆｼｵｷﾀﾏｸﾞﾝｼﾗﾀｶﾏﾁ","kana_address":"","pref":"山形県","city":"西置賜郡白鷹町","address":""},
{"zip_code":"9920852","kana_pref":"ﾔﾏｶﾞﾀｹﾝ","kana_city":"ﾆｼｵｷﾀﾏｸﾞﾝｼﾗﾀｶﾏﾁ","kana_address":"ｱｻﾀﾞﾁ","pref":"山形県","city":"西置賜郡白鷹町","address":"浅立"},
{"zip_code":"9920771","kana_pref":"ﾔﾏｶﾞﾀｹﾝ","kana_city":"ﾆｼｵｷﾀﾏｸﾞﾝｼﾗﾀｶﾏﾁ","kana_address":"ｱﾕｶｲ","pref":"山形県","city":"西置賜郡白鷹町","address":"鮎貝"},
{"zip_code":"9920831","kana_pref":"ﾔﾏｶﾞﾀｹﾝ","kana_city":"ﾆｼｵｷﾀﾏｸﾞﾝｼﾗﾀｶﾏﾁ","kana_address":"ｱﾗﾄｺｳ","pref":"山形県","city":"西置賜郡白鷹町","address":"荒砥甲"},
{"zip_code":"9920832","kana_pref":"ﾔﾏｶﾞﾀｹﾝ","kana_city":"ﾆｼｵｷﾀﾏｸﾞﾝｼﾗﾀｶﾏﾁ","kana_address":"ｱﾗﾄｵﾂ","pref":"山形県","city":"西置賜郡白鷹町","address":"荒砥乙"},
{"zip_code":"9920861","kana_pref":"ﾔﾏｶﾞﾀｹﾝ","kana_city":"ﾆｼｵｷﾀﾏｸﾞﾝｼﾗﾀｶﾏﾁ","kana_address":"ｵｵｾ","pref":"山形県","city":"西置賜郡白鷹町","address":"大瀬"},
{"zip_code":"9920775","kana_pref":"ﾔﾏｶﾞﾀｹﾝ","kana_city":"ﾆｼｵｷﾀﾏｸﾞﾝｼﾗﾀｶﾏﾁ","kana_address":"ｸﾛｶﾞﾓ","pref":"山形県","city":"西置賜郡白鷹町","address":"黒鴨"},
{"zip_code":"9920841","kana_pref":"ﾔﾏｶﾞﾀｹﾝ","kana_city":"ﾆｼｵｷﾀﾏｸﾞﾝｼﾗﾀｶﾏﾁ","kana_address":"ｸﾛﾌｼﾞ","pref":"山形県","city":"西置賜郡白鷹町","address":"畔藤"},
{"zip_code":"9920864","kana_pref":"ﾔﾏｶﾞﾀｹﾝ","kana_city":"ﾆｼｵｷﾀﾏｸﾞﾝｼﾗﾀｶﾏﾁ","kana_address":"ｻﾉﾊﾗ","pref":"山形県","city":"西置賜郡白鷹町","address":"佐野原"},
{"zip_code":"9920862","kana_pref":"ﾔﾏｶﾞﾀｹﾝ","kana_city":"ﾆｼｵｷﾀﾏｸﾞﾝｼﾗﾀｶﾏﾁ","kana_address":"ｼﾓﾔﾏ","pref":"山形県","city":"西置賜郡白鷹町","address":"下山"},
{"zip_code":"9920821","kana_pref":"ﾔﾏｶﾞﾀｹﾝ","kana_city":"ﾆｼｵｷﾀﾏｸﾞﾝｼﾗﾀｶﾏﾁ","kana_address":"ｼﾞｭｳｵｳ","pref":"山形県","city":"西置賜郡白鷹町","address":"十王"},
{"zip_code":"9920863","kana_pref":"ﾔﾏｶﾞﾀｹﾝ","kana_city":"ﾆｼｵｷﾀﾏｸﾞﾝｼﾗﾀｶﾏﾁ","kana_address":"ｼｮｳﾌﾞ","pref":"山形県","city":"西置賜郡白鷹町","address":"菖蒲"},
{"zip_code":"9920778","kana_pref":"ﾔﾏｶﾞﾀｹﾝ","kana_city":"ﾆｼｵｷﾀﾏｸﾞﾝｼﾗﾀｶﾏﾁ","kana_address":"ﾀｶｵｶ","pref":"山形県","city":"西置賜郡白鷹町","address":"高岡"},
{"zip_code":"9920773","kana_pref":"ﾔﾏｶﾞﾀｹﾝ","kana_city":"ﾆｼｵｷﾀﾏｸﾞﾝｼﾗﾀｶﾏﾁ","kana_address":"ﾀｶﾀﾞﾏ","pref":"山形県","city":"西置賜郡白鷹町","address":"高玉"},
{"zip_code":"9920812","kana_pref":"ﾔﾏｶﾞﾀｹﾝ","kana_city":"ﾆｼｵｷﾀﾏｸﾞﾝｼﾗﾀｶﾏﾁ","kana_address":"ﾀｷﾉ","pref":"山形県","city":"西置賜郡白鷹町","address":"滝野"},
{"zip_code":"9920777","kana_pref":"ﾔﾏｶﾞﾀｹﾝ","kana_city":"ﾆｼｵｷﾀﾏｸﾞﾝｼﾗﾀｶﾏﾁ","kana_address":"ﾄﾁｸﾎﾞ","pref":"山形県","city":"西置賜郡白鷹町","address":"栃窪"},
{"zip_code":"9920802","kana_pref":"ﾔﾏｶﾞﾀｹﾝ","kana_city":"ﾆｼｵｷﾀﾏｸﾞﾝｼﾗﾀｶﾏﾁ","kana_address":"ﾅｶﾔﾏ","pref":"山形県","city":"西置賜郡白鷹町","address":"中山"},
{"zip_code":"9920811","kana_pref":"ﾔﾏｶﾞﾀｹﾝ","kana_city":"ﾆｼｵｷﾀﾏｸﾞﾝｼﾗﾀｶﾏﾁ","kana_address":"ﾊｷﾞﾉ","pref":"山形県","city":"西置賜郡白鷹町","address":"萩野"},
{"zip_code":"9920801","kana_pref":"ﾔﾏｶﾞﾀｹﾝ","kana_city":"ﾆｼｵｷﾀﾏｸﾞﾝｼﾗﾀｶﾏﾁ","kana_address":"ﾊﾘｭｳ","pref":"山形県","city":"西置賜郡白鷹町","address":"針生"},
{"zip_code":"9920851","kana_pref":"ﾔﾏｶﾞﾀｹﾝ","kana_city":"ﾆｼｵｷﾀﾏｸﾞﾝｼﾗﾀｶﾏﾁ","kana_address":"ﾋﾛﾉ","pref":"山形県","city":"西置賜郡白鷹町","address":"広野"},
{"zip_code":"9920779","kana_pref":"ﾔﾏｶﾞﾀｹﾝ","kana_city":"ﾆｼｵｷﾀﾏｸﾞﾝｼﾗﾀｶﾏﾁ","kana_address":"ﾐﾉﾜﾀﾞ","pref":"山形県","city":"西置賜郡白鷹町","address":"箕和田"},
{"zip_code":"9920776","kana_pref":"ﾔﾏｶﾞﾀｹﾝ","kana_city":"ﾆｼｵｷﾀﾏｸﾞﾝｼﾗﾀｶﾏﾁ","kana_address":"ﾐﾔﾏ","pref":"山形県","city":"西置賜郡白鷹町","address":"深山"},
{"zip_code":"9920774","kana_pref":"ﾔﾏｶﾞﾀｹﾝ","kana_city":"ﾆｼｵｷﾀﾏｸﾞﾝｼﾗﾀｶﾏﾁ","kana_address":"ﾔﾏｸﾞﾁ","pref":"山形県","city":"西置賜郡白鷹町","address":"山口"},
{"zip_code":"9920772","kana_pref":"ﾔﾏｶﾞﾀｹﾝ","kana_city":"ﾆｼｵｷﾀﾏｸﾞﾝｼﾗﾀｶﾏﾁ","kana_address":"ﾖｺﾀｼﾞﾘ","pref":"山形県","city":"西置賜郡白鷹町","address":"横田尻"}]}