{"zip_code":[
{"zip_code":"9930000","kana_pref":"ﾔﾏｶﾞﾀｹﾝ","kana_city":"ﾅｶﾞｲｼ","kana_address":"","pref":"山形県","city":"長井市","address":""},
{"zip_code":"9930022","kana_pref":"ﾔﾏｶﾞﾀｹﾝ","kana_city":"ﾅｶﾞｲｼ","kana_address":"ｱｼｻﾞﾜ","pref":"山形県","city":"長井市","address":"芦沢"},
{"zip_code":"9930006","kana_pref":"ﾔﾏｶﾞﾀｹﾝ","kana_city":"ﾅｶﾞｲｼ","kana_address":"ｱﾗﾏﾁ","pref":"山形県","city":"長井市","address":"あら町"},
{"zip_code":"9930072","kana_pref":"ﾔﾏｶﾞﾀｹﾝ","kana_city":"ﾅｶﾞｲｼ","kana_address":"ｲｶｶﾞﾜ","pref":"山形県","city":"長井市","address":"五十川"},
{"zip_code":"9930031","kana_pref":"ﾔﾏｶﾞﾀｹﾝ","kana_city":"ﾅｶﾞｲｼ","kana_address":"ｲｽﾞﾐ","pref":"山形県","city":"長井市","address":"泉"},
{"zip_code":"9930033","kana_pref":"ﾔﾏｶﾞﾀｹﾝ","kana_city":"ﾅｶﾞｲｼ","kana_address":"ｲﾏｲｽﾞﾐ","pref":"山形県","city":"長井市","address":"今泉"},
{"zip_code":"9930034","kana_pref":"ﾔﾏｶﾞﾀｹﾝ","kana_city":"ﾅｶﾞｲｼ","kana_address":"ｳﾀﾏﾙ","pref":"山形県","city":"長井市","address":"歌丸"},
{"zip_code":"9930083","kana_pref":"ﾔﾏｶﾞﾀｹﾝ","kana_city":"ﾅｶﾞｲｼ","kana_address":"ｵｵﾏﾁ","pref":"山形県","city":"長井市","address":"大町"},
{"zip_code":"9930005","kana_pref":"ﾔﾏｶﾞﾀｹﾝ","kana_city":"ﾅｶﾞｲｼ","kana_address":"ｶﾀﾀﾏﾁ","pref":"山形県","city":"長井市","address":"片田町"},
{"zip_code":"9930021","kana_pref":"ﾔﾏｶﾞﾀｹﾝ","kana_city":"ﾅｶﾞｲｼ","kana_address":"ｶﾐｲｻｻﾞﾜ","pref":"山形県","city":"長井市","address":"上伊佐沢"},
{"zip_code":"9930032","kana_pref":"ﾔﾏｶﾞﾀｹﾝ","kana_city":"ﾅｶﾞｲｼ","kana_address":"ｶﾜｲ","pref":"山形県","city":"長井市","address":"河井"},
{"zip_code":"9930062","kana_pref":"ﾔﾏｶﾞﾀｹﾝ","kana_city":"ﾅｶﾞｲｼ","kana_address":"ｶﾜﾗｻﾞﾜ","pref":"山形県","city":"長井市","address":"川原沢"},
{"zip_code":"9930064","kana_pref":"ﾔﾏｶﾞﾀｹﾝ","kana_city":"ﾅｶﾞｲｼ","kana_address":"ｶﾝｼﾞﾝﾀﾞｲ","pref":"山形県","city":"長井市","address":"勧進代"},
{"zip_code":"9930063","kana_pref":"ﾔﾏｶﾞﾀｹﾝ","kana_city":"ﾅｶﾞｲｼ","kana_address":"ｸｻｵｶ","pref":"山形県","city":"長井市","address":"草岡"},
{"zip_code":"9930041","kana_pref":"ﾔﾏｶﾞﾀｹﾝ","kana_city":"ﾅｶﾞｲｼ","kana_address":"ｸﾉﾓﾄ","pref":"山形県","city":"長井市","address":"九野本"},
{"zip_code":"9930014","kana_pref":"ﾔﾏｶﾞﾀｹﾝ","kana_city":"ﾅｶﾞｲｼ","kana_address":"ｺｲﾃﾞ","pref":"山形県","city":"長井市","address":"小出"},
{"zip_code":"9930085","kana_pref":"ﾔﾏｶﾞﾀｹﾝ","kana_city":"ﾅｶﾞｲｼ","kana_address":"ｺｳﾔﾁｮｳ","pref":"山形県","city":"長井市","address":"高野町"},
{"zip_code":"9930051","kana_pref":"ﾔﾏｶﾞﾀｹﾝ","kana_city":"ﾅｶﾞｲｼ","kana_address":"ｻｲﾜｲﾁｮｳ","pref":"山形県","city":"長井市","address":"幸町"},
{"zip_code":"9930084","kana_pref":"ﾔﾏｶﾞﾀｹﾝ","kana_city":"ﾅｶﾞｲｼ","kana_address":"ｻｶｴﾏﾁ","pref":"山形県","city":"長井市","address":"栄町"},
{"zip_code":"9930054","kana_pref":"ﾔﾏｶﾞﾀｹﾝ","kana_city":"ﾅｶﾞｲｼ","kana_address":"ｼﾐｽﾞﾁｮｳ","pref":"山形県","city":"長井市","address":"清水町"},
{"zip_code":"9930023","kana_pref":"ﾔﾏｶﾞﾀｹﾝ","kana_city":"ﾅｶﾞｲｼ","kana_address":"ｼﾓｲｻｻﾞﾜ","pref":"山形県","city":"長井市","address":"下伊佐沢"},
{"zip_code":"9930071","kana_pref":"ﾔﾏｶﾞﾀｹﾝ","kana_city":"ﾅｶﾞｲｼ","kana_address":"ｼﾛｳｻｷﾞ","pref":"山形県","city":"長井市","address":"白兎"},
{"zip_code":"9930052","kana_pref":"ﾔﾏｶﾞﾀｹﾝ","kana_city":"ﾅｶﾞｲｼ","kana_address":"ｼﾝﾏﾁ","pref":"山形県","city":"長井市","address":"新町"},
{"zip_code":"9930004","kana_pref":"ﾔﾏｶﾞﾀｹﾝ","kana_city":"ﾅｶﾞｲｼ","kana_address":"ｼﾝﾒｲﾁｮｳ","pref":"山形県","city":"長井市","address":"神明町"},
{"zip_code":"9930016","kana_pref":"ﾔﾏｶﾞﾀｹﾝ","kana_city":"ﾅｶﾞｲｼ","kana_address":"ﾀﾞｲﾏﾁ","pref":"山形県","city":"長井市","address":"台町"},
{"zip_code":"9930013","kana_pref":"ﾔﾏｶﾞﾀｹﾝ","kana_city":"ﾅｶﾞｲｼ","kana_address":"ﾀﾃﾏﾁﾐﾅﾐ","pref":"山形県","city":"長井市","address":"館町南"},
{"zip_code":"9930011","kana_pref":"ﾔﾏｶﾞﾀｹﾝ","kana_city":"ﾅｶﾞｲｼ","kana_address":"ﾀﾃﾏﾁｷﾀ","pref":"山形県","city":"長井市","address":"館町北"},
{"zip_code":"9930061","kana_pref":"ﾔﾏｶﾞﾀｹﾝ","kana_city":"ﾅｶﾞｲｼ","kana_address":"ﾃﾗｲｽﾞﾐ","pref":"山形県","city":"長井市","address":"寺泉"},
{"zip_code":"9930086","kana_pref":"ﾔﾏｶﾞﾀｹﾝ","kana_city":"ﾅｶﾞｲｼ","kana_address":"ﾄｵｶﾏﾁ","pref":"山形県","city":"長井市","address":"十日町"},
{"zip_code":"9930035","kana_pref":"ﾔﾏｶﾞﾀｹﾝ","kana_city":"ﾅｶﾞｲｼ","kana_address":"ﾄｷﾆﾜ","pref":"山形県","city":"長井市","address":"時庭"},
{"zip_code":"9930024","kana_pref":"ﾔﾏｶﾞﾀｹﾝ","kana_city":"ﾅｶﾞｲｼ","kana_address":"ﾅｶｲｻｻﾞﾜ","pref":"山形県","city":"長井市","address":"中伊佐沢"},
{"zip_code":"9930053","kana_pref":"ﾔﾏｶﾞﾀｹﾝ","kana_city":"ﾅｶﾞｲｼ","kana_address":"ﾅｶﾐﾁ","pref":"山形県","city":"長井市","address":"中道"},
{"zip_code":"9930075","kana_pref":"ﾔﾏｶﾞﾀｹﾝ","kana_city":"ﾅｶﾞｲｼ","kana_address":"ﾅﾘﾀ","pref":"山形県","city":"長井市","address":"成田"},
{"zip_code":"9930017","kana_pref":"ﾔﾏｶﾞﾀｹﾝ","kana_city":"ﾅｶﾞｲｼ","kana_address":"ﾊﾅﾂﾞｸﾘﾏﾁ","pref":"山形県","city":"長井市","address":"花作町"},
{"zip_code":"9930003","kana_pref":"ﾔﾏｶﾞﾀｹﾝ","kana_city":"ﾅｶﾞｲｼ","kana_address":"ﾋｶﾞｼﾏﾁ","pref":"山形県","city":"長井市","address":"東町"},
{"zip_code":"9930012","kana_pref":"ﾔﾏｶﾞﾀｹﾝ","kana_city":"ﾅｶﾞｲｼ","kana_address":"ﾋﾉﾃﾞﾁｮｳ","pref":"山形県","city":"長井市","address":"日の出町"},
{"zip_code":"9930042","kana_pref":"ﾔﾏｶﾞﾀｹﾝ","kana_city":"ﾅｶﾞｲｼ","kana_address":"ﾋﾗﾔﾏ","pref":"山形県","city":"長井市","address":"平山"},
{"zip_code":"9930082","kana_pref":"ﾔﾏｶﾞﾀｹﾝ","kana_city":"ﾅｶﾞｲｼ","kana_address":"ﾌﾅﾊﾞ","pref":"山形県","city":"長井市","address":"舟場"},
{"zip_code":"9930001","kana_pref":"ﾔﾏｶﾞﾀｹﾝ","kana_city":"ﾅｶﾞｲｼ","kana_address":"ﾏﾏﾉｳｴ","pref":"山形県","city":"長井市","address":"ままの上"},
{"zip_code":"9930081","kana_pref":"ﾔﾏｶﾞﾀｹﾝ","kana_city":"ﾅｶﾞｲｼ","kana_address":"ﾐﾄﾞﾘﾁｮｳ","pref":"山形県","city":"長井市","address":"緑町"},
{"zip_code":"9930074","kana_pref":"ﾔﾏｶﾞﾀｹﾝ","kana_city":"ﾅｶﾞｲｼ","kana_address":"ﾐﾔ","pref":"山形県","city":"長井市","address":"宮"},
{"zip_code":"9930007","kana_pref":"ﾔﾏｶﾞﾀｹﾝ","kana_city":"ﾅｶﾞｲｼ","kana_address":"ﾓﾄﾏﾁ","pref":"山形県","city":"長井市","address":"本町"},
{"zip_code":"9930073","kana_pref":"ﾔﾏｶﾞﾀｹﾝ","kana_city":"ﾅｶﾞｲｼ","kana_address":"ﾓﾘ","pref":"山形県","city":"長井市","address":"森"},
{"zip_code":"9930002","kana_pref":"ﾔﾏｶﾞﾀｹﾝ","kana_city":"ﾅｶﾞｲｼ","kana_address":"ﾔｼﾛﾏﾁ","pref":"山形県","city":"長井市","address":"屋城町"},
{"zip_code":"9930087","kana_pref":"ﾔﾏｶﾞﾀｹﾝ","kana_city":"ﾅｶﾞｲｼ","kana_address":"ﾖｺﾏﾁ","pref":"山形県","city":"長井市","address":"横町"},
{"zip_code":"9930015","kana_pref":"ﾔﾏｶﾞﾀｹﾝ","kana_city":"ﾅｶﾞｲｼ","kana_address":"ﾖﾂﾔ","pref":"山形県","city":"長井市","address":"四ツ谷"}]}