{"zip_code":[
{"zip_code":"9940000","kana_pref":"ﾔﾏｶﾞﾀｹﾝ","kana_city":"ﾃﾝﾄﾞｳｼ","kana_address":"","pref":"山形県","city":"天童市","address":""},
{"zip_code":"9940054","kana_pref":"ﾔﾏｶﾞﾀｹﾝ","kana_city":"ﾃﾝﾄﾞｳｼ","kana_address":"ｱﾗﾔ","pref":"山形県","city":"天童市","address":"荒谷"},
{"zip_code":"9940057","kana_pref":"ﾔﾏｶﾞﾀｹﾝ","kana_city":"ﾃﾝﾄﾞｳｼ","kana_address":"ｲｼﾄﾞﾘｲ","pref":"山形県","city":"天童市","address":"石鳥居"},
{"zip_code":"9940015","kana_pref":"ﾔﾏｶﾞﾀｹﾝ","kana_city":"ﾃﾝﾄﾞｳｼ","kana_address":"ｲｽﾞﾐﾁｮｳ","pref":"山形県","city":"天童市","address":"泉町"},
{"zip_code":"9940041","kana_pref":"ﾔﾏｶﾞﾀｹﾝ","kana_city":"ﾃﾝﾄﾞｳｼ","kana_address":"ｲﾂｶﾏﾁ","pref":"山形県","city":"天童市","address":"五日町"},
{"zip_code":"9940078","kana_pref":"ﾔﾏｶﾞﾀｹﾝ","kana_city":"ﾃﾝﾄﾞｳｼ","kana_address":"ｲﾏﾏﾁ","pref":"山形県","city":"天童市","address":"今町"},
{"zip_code":"9940047","kana_pref":"ﾔﾏｶﾞﾀｹﾝ","kana_city":"ﾃﾝﾄﾞｳｼ","kana_address":"ｴｷﾆｼ","pref":"山形県","city":"天童市","address":"駅西"},
{"zip_code":"9940013","kana_pref":"ﾔﾏｶﾞﾀｹﾝ","kana_city":"ﾃﾝﾄﾞｳｼ","kana_address":"ｵｲﾉﾓﾘ","pref":"山形県","city":"天童市","address":"老野森"},
{"zip_code":"9940007","kana_pref":"ﾔﾏｶﾞﾀｹﾝ","kana_city":"ﾃﾝﾄﾞｳｼ","kana_address":"ｵｵｼﾐｽﾞ","pref":"山形県","city":"天童市","address":"大清水"},
{"zip_code":"9940079","kana_pref":"ﾔﾏｶﾞﾀｹﾝ","kana_city":"ﾃﾝﾄﾞｳｼ","kana_address":"ｵｵﾏﾁ","pref":"山形県","city":"天童市","address":"大町"},
{"zip_code":"9940003","kana_pref":"ﾔﾏｶﾞﾀｹﾝ","kana_city":"ﾃﾝﾄﾞｳｼ","kana_address":"ｶｼﾜｷﾞﾁｮｳ","pref":"山形県","city":"天童市","address":"柏木町"},
{"zip_code":"9940024","kana_pref":"ﾔﾏｶﾞﾀｹﾝ","kana_city":"ﾃﾝﾄﾞｳｼ","kana_address":"ｶﾏﾀ","pref":"山形県","city":"天童市","address":"鎌田"},
{"zip_code":"9940025","kana_pref":"ﾔﾏｶﾞﾀｹﾝ","kana_city":"ﾃﾝﾄﾞｳｼ","kana_address":"ｶﾏﾀﾎﾝﾁｮｳ","pref":"山形県","city":"天童市","address":"鎌田本町"},
{"zip_code":"9940053","kana_pref":"ﾔﾏｶﾞﾀｹﾝ","kana_city":"ﾃﾝﾄﾞｳｼ","kana_address":"ｶﾐｵｷﾞﾉﾄ","pref":"山形県","city":"天童市","address":"上荻野戸"},
{"zip_code":"9940103","kana_pref":"ﾔﾏｶﾞﾀｹﾝ","kana_city":"ﾃﾝﾄﾞｳｼ","kana_address":"ｶﾜﾗｺﾞ","pref":"山形県","city":"天童市","address":"川原子"},
{"zip_code":"9940011","kana_pref":"ﾔﾏｶﾞﾀｹﾝ","kana_city":"ﾃﾝﾄﾞｳｼ","kana_address":"ｷﾀｸﾉﾓﾄ","pref":"山形県","city":"天童市","address":"北久野本"},
{"zip_code":"9940042","kana_pref":"ﾔﾏｶﾞﾀｹﾝ","kana_city":"ﾃﾝﾄﾞｳｼ","kana_address":"ｷﾀﾒ","pref":"山形県","city":"天童市","address":"北目"},
{"zip_code":"9940012","kana_pref":"ﾔﾏｶﾞﾀｹﾝ","kana_city":"ﾃﾝﾄﾞｳｼ","kana_address":"ｸﾉﾓﾄ","pref":"山形県","city":"天童市","address":"久野本"},
{"zip_code":"9940077","kana_pref":"ﾔﾏｶﾞﾀｹﾝ","kana_city":"ﾃﾝﾄﾞｳｼ","kana_address":"ｸﾎﾞﾉﾒ","pref":"山形県","city":"天童市","address":"窪野目"},
{"zip_code":"9940075","kana_pref":"ﾔﾏｶﾞﾀｹﾝ","kana_city":"ﾃﾝﾄﾞｳｼ","kana_address":"ｸﾗｿﾞｳ","pref":"山形県","city":"天童市","address":"蔵増"},
{"zip_code":"9940028","kana_pref":"ﾔﾏｶﾞﾀｹﾝ","kana_city":"ﾃﾝﾄﾞｳｼ","kana_address":"ｸﾜﾉﾏﾁ","pref":"山形県","city":"天童市","address":"鍬ノ町"},
{"zip_code":"9940032","kana_pref":"ﾔﾏｶﾞﾀｹﾝ","kana_city":"ﾃﾝﾄﾞｳｼ","kana_address":"ｺｳｼﾞ","pref":"山形県","city":"天童市","address":"小路"},
{"zip_code":"9940004","kana_pref":"ﾔﾏｶﾞﾀｹﾝ","kana_city":"ﾃﾝﾄﾞｳｼ","kana_address":"ｺｾｷ","pref":"山形県","city":"天童市","address":"小関"},
{"zip_code":"9940027","kana_pref":"ﾔﾏｶﾞﾀｹﾝ","kana_city":"ﾃﾝﾄﾞｳｼ","kana_address":"ｻｸﾗﾏﾁ","pref":"山形県","city":"天童市","address":"桜町"},
{"zip_code":"9940052","kana_pref":"ﾔﾏｶﾞﾀｹﾝ","kana_city":"ﾃﾝﾄﾞｳｼ","kana_address":"ｼﾓｵｷﾞﾉﾄ","pref":"山形県","city":"天童市","address":"下荻野戸"},
{"zip_code":"9940065","kana_pref":"ﾔﾏｶﾞﾀｹﾝ","kana_city":"ﾃﾝﾄﾞｳｼ","kana_address":"ｼｮｳｹﾞ","pref":"山形県","city":"天童市","address":"清池"},
{"zip_code":"9940069","kana_pref":"ﾔﾏｶﾞﾀｹﾝ","kana_city":"ﾃﾝﾄﾞｳｼ","kana_address":"ｼｮｳｹﾞﾋｶﾞｼ","pref":"山形県","city":"天童市","address":"清池東"},
{"zip_code":"9940005","kana_pref":"ﾔﾏｶﾞﾀｹﾝ","kana_city":"ﾃﾝﾄﾞｳｼ","kana_address":"ﾀｶｷﾞ","pref":"山形県","city":"天童市","address":"高木"},
{"zip_code":"9940068","kana_pref":"ﾔﾏｶﾞﾀｹﾝ","kana_city":"ﾃﾝﾄﾞｳｼ","kana_address":"ﾀｶﾀﾞﾏ","pref":"山形県","city":"天童市","address":"高擶"},
{"zip_code":"9940076","kana_pref":"ﾔﾏｶﾞﾀｹﾝ","kana_city":"ﾃﾝﾄﾞｳｼ","kana_address":"ﾀｶﾉﾍﾞ","pref":"山形県","city":"天童市","address":"高野辺"},
{"zip_code":"9940046","kana_pref":"ﾔﾏｶﾞﾀｹﾝ","kana_city":"ﾃﾝﾄﾞｳｼ","kana_address":"ﾀﾂﾞﾙﾁｮｳ","pref":"山形県","city":"天童市","address":"田鶴町"},
{"zip_code":"9940104","kana_pref":"ﾔﾏｶﾞﾀｹﾝ","kana_city":"ﾃﾝﾄﾞｳｼ","kana_address":"ﾀﾑｷﾞﾉ","pref":"山形県","city":"天童市","address":"田麦野"},
{"zip_code":"9940072","kana_pref":"ﾔﾏｶﾞﾀｹﾝ","kana_city":"ﾃﾝﾄﾞｳｼ","kana_address":"ﾂｶﾉﾒ","pref":"山形県","city":"天童市","address":"塚野目"},
{"zip_code":"9940073","kana_pref":"ﾔﾏｶﾞﾀｹﾝ","kana_city":"ﾃﾝﾄﾞｳｼ","kana_address":"ﾃﾗﾂﾞ","pref":"山形県","city":"天童市","address":"寺津"},
{"zip_code":"9940031","kana_pref":"ﾔﾏｶﾞﾀｹﾝ","kana_city":"ﾃﾝﾄﾞｳｼ","kana_address":"ﾃﾝﾄﾞｳﾅｶ","pref":"山形県","city":"天童市","address":"天童中"},
{"zip_code":"9940023","kana_pref":"ﾔﾏｶﾞﾀｹﾝ","kana_city":"ﾃﾝﾄﾞｳｼ","kana_address":"ﾄｳｾﾞﾝｼﾞ","pref":"山形県","city":"天童市","address":"東善寺"},
{"zip_code":"9940074","kana_pref":"ﾔﾏｶﾞﾀｹﾝ","kana_city":"ﾃﾝﾄﾞｳｼ","kana_address":"ﾄｳﾅｲｼﾝﾃﾞﾝ","pref":"山形県","city":"天童市","address":"藤内新田"},
{"zip_code":"9940102","kana_pref":"ﾔﾏｶﾞﾀｹﾝ","kana_city":"ﾃﾝﾄﾞｳｼ","kana_address":"ﾄﾞｳﾏﾝ","pref":"山形県","city":"天童市","address":"道満"},
{"zip_code":"9940064","kana_pref":"ﾔﾏｶﾞﾀｹﾝ","kana_city":"ﾃﾝﾄﾞｳｼ","kana_address":"ﾅｶｻﾞﾄ","pref":"山形県","city":"天童市","address":"中里"},
{"zip_code":"9940045","kana_pref":"ﾔﾏｶﾞﾀｹﾝ","kana_city":"ﾃﾝﾄﾞｳｼ","kana_address":"ﾅｶﾏﾁ","pref":"山形県","city":"天童市","address":"仲町"},
{"zip_code":"9940066","kana_pref":"ﾔﾏｶﾞﾀｹﾝ","kana_city":"ﾃﾝﾄﾞｳｼ","kana_address":"ﾅｶﾞｵｶ","pref":"山形県","city":"天童市","address":"長岡"},
{"zip_code":"9940062","kana_pref":"ﾔﾏｶﾞﾀｹﾝ","kana_city":"ﾃﾝﾄﾞｳｼ","kana_address":"ﾅｶﾞｵｶｷﾀ","pref":"山形県","city":"天童市","address":"長岡北"},
{"zip_code":"9940051","kana_pref":"ﾔﾏｶﾞﾀｹﾝ","kana_city":"ﾃﾝﾄﾞｳｼ","kana_address":"ﾅﾗｻﾞﾜ","pref":"山形県","city":"天童市","address":"奈良沢"},
{"zip_code":"9940006","kana_pref":"ﾔﾏｶﾞﾀｹﾝ","kana_city":"ﾃﾝﾄﾞｳｼ","kana_address":"ﾅﾘｳ","pref":"山形県","city":"天童市","address":"成生"},
{"zip_code":"9940014","kana_pref":"ﾔﾏｶﾞﾀｹﾝ","kana_city":"ﾃﾝﾄﾞｳｼ","kana_address":"ﾇｶﾂﾞｶ","pref":"山形県","city":"天童市","address":"糠塚"},
{"zip_code":"9940022","kana_pref":"ﾔﾏｶﾞﾀｹﾝ","kana_city":"ﾃﾝﾄﾞｳｼ","kana_address":"ﾇｸﾂﾞ","pref":"山形県","city":"天童市","address":"貫津"},
{"zip_code":"9940067","kana_pref":"ﾔﾏｶﾞﾀｹﾝ","kana_city":"ﾃﾝﾄﾞｳｼ","kana_address":"ﾊｶﾞ","pref":"山形県","city":"天童市","address":"芳賀"},
{"zip_code":"9940055","kana_pref":"ﾔﾏｶﾞﾀｹﾝ","kana_city":"ﾃﾝﾄﾞｳｼ","kana_address":"ﾊﾗﾏﾁ","pref":"山形県","city":"天童市","address":"原町"},
{"zip_code":"9940001","kana_pref":"ﾔﾏｶﾞﾀｹﾝ","kana_city":"ﾃﾝﾄﾞｳｼ","kana_address":"ﾊﾞﾝﾀﾞｲ","pref":"山形県","city":"天童市","address":"万代"},
{"zip_code":"9940016","kana_pref":"ﾔﾏｶﾞﾀｹﾝ","kana_city":"ﾃﾝﾄﾞｳｼ","kana_address":"ﾋｶﾞｼｸﾉﾓﾄ","pref":"山形県","city":"天童市","address":"東久野本"},
{"zip_code":"9940063","kana_pref":"ﾔﾏｶﾞﾀｹﾝ","kana_city":"ﾃﾝﾄﾞｳｼ","kana_address":"ﾋｶﾞｼﾅｶﾞｵｶ","pref":"山形県","city":"天童市","address":"東長岡"},
{"zip_code":"9940061","kana_pref":"ﾔﾏｶﾞﾀｹﾝ","kana_city":"ﾃﾝﾄﾞｳｼ","kana_address":"ﾋｶﾞｼﾊｶﾞ","pref":"山形県","city":"天童市","address":"東芳賀"},
{"zip_code":"9940026","kana_pref":"ﾔﾏｶﾞﾀｹﾝ","kana_city":"ﾃﾝﾄﾞｳｼ","kana_address":"ﾋｶﾞｼﾎﾝﾁｮｳ","pref":"山形県","city":"天童市","address":"東本町"},
{"zip_code":"9940044","kana_pref":"ﾔﾏｶﾞﾀｹﾝ","kana_city":"ﾃﾝﾄﾞｳｼ","kana_address":"ﾋﾄｲﾁﾏﾁ","pref":"山形県","city":"天童市","address":"一日町"},
{"zip_code":"9940056","kana_pref":"ﾔﾏｶﾞﾀｹﾝ","kana_city":"ﾃﾝﾄﾞｳｼ","kana_address":"ﾎｼﾇﾉ","pref":"山形県","city":"天童市","address":"干布"},
{"zip_code":"9940034","kana_pref":"ﾔﾏｶﾞﾀｹﾝ","kana_city":"ﾃﾝﾄﾞｳｼ","kana_address":"ﾎﾝﾁｮｳ","pref":"山形県","city":"天童市","address":"本町"},
{"zip_code":"9940048","kana_pref":"ﾔﾏｶﾞﾀｹﾝ","kana_city":"ﾃﾝﾄﾞｳｼ","kana_address":"ﾏｼﾞﾘｴ","pref":"山形県","city":"天童市","address":"交り江"},
{"zip_code":"9940043","kana_pref":"ﾔﾏｶﾞﾀｹﾝ","kana_city":"ﾃﾝﾄﾞｳｼ","kana_address":"ﾏﾂｼﾛﾁｮｳ","pref":"山形県","city":"天童市","address":"松城町"},
{"zip_code":"9940002","kana_pref":"ﾔﾏｶﾞﾀｹﾝ","kana_city":"ﾃﾝﾄﾞｳｼ","kana_address":"ﾐﾀﾞﾚｶﾞﾜ","pref":"山形県","city":"天童市","address":"乱川"},
{"zip_code":"9940033","kana_pref":"ﾔﾏｶﾞﾀｹﾝ","kana_city":"ﾃﾝﾄﾞｳｼ","kana_address":"ﾐｯｶﾏﾁ","pref":"山形県","city":"天童市","address":"三日町"},
{"zip_code":"9940081","kana_pref":"ﾔﾏｶﾞﾀｹﾝ","kana_city":"ﾃﾝﾄﾞｳｼ","kana_address":"ﾐﾅﾐｵﾊﾞﾀ","pref":"山形県","city":"天童市","address":"南小畑"},
{"zip_code":"9940049","kana_pref":"ﾔﾏｶﾞﾀｹﾝ","kana_city":"ﾃﾝﾄﾞｳｼ","kana_address":"ﾐﾅﾐﾏﾁ","pref":"山形県","city":"天童市","address":"南町"},
{"zip_code":"9940071","kana_pref":"ﾔﾏｶﾞﾀｹﾝ","kana_city":"ﾃﾝﾄﾞｳｼ","kana_address":"ﾔﾉﾒ","pref":"山形県","city":"天童市","address":"矢野目"},
{"zip_code":"9940101","kana_pref":"ﾔﾏｶﾞﾀｹﾝ","kana_city":"ﾃﾝﾄﾞｳｼ","kana_address":"ﾔﾏｸﾞﾁ","pref":"山形県","city":"天童市","address":"山口"},
{"zip_code":"9940021","kana_pref":"ﾔﾏｶﾞﾀｹﾝ","kana_city":"ﾃﾝﾄﾞｳｼ","kana_address":"ﾔﾏﾓﾄ","pref":"山形県","city":"天童市","address":"山元"}]}