{"zip_code":[
{"zip_code":"9950000","kana_pref":"ﾔﾏｶﾞﾀｹﾝ","kana_city":"ﾑﾗﾔﾏｼ","kana_address":"","pref":"山形県","city":"村山市","address":""},
{"zip_code":"9950002","kana_pref":"ﾔﾏｶﾞﾀｹﾝ","kana_city":"ﾑﾗﾔﾏｼ","kana_address":"ｲｻｻﾞﾜ","pref":"山形県","city":"村山市","address":"五十沢"},
{"zip_code":"9950204","kana_pref":"ﾔﾏｶﾞﾀｹﾝ","kana_city":"ﾑﾗﾔﾏｼ","kana_address":"ｲﾅｸﾀﾞｼ","pref":"山形県","city":"村山市","address":"稲下"},
{"zip_code":"9950113","kana_pref":"ﾔﾏｶﾞﾀｹﾝ","kana_city":"ﾑﾗﾔﾏｼ","kana_address":"ｲﾜﾉ","pref":"山形県","city":"村山市","address":"岩野"},
{"zip_code":"9950038","kana_pref":"ﾔﾏｶﾞﾀｹﾝ","kana_city":"ﾑﾗﾔﾏｼ","kana_address":"ｴｷﾆｼ","pref":"山形県","city":"村山市","address":"駅西"},
{"zip_code":"9950111","kana_pref":"ﾔﾏｶﾞﾀｹﾝ","kana_city":"ﾑﾗﾔﾏｼ","kana_address":"ｵｵｸﾎﾞ","pref":"山形県","city":"村山市","address":"大久保"},
{"zip_code":"9950203","kana_pref":"ﾔﾏｶﾞﾀｹﾝ","kana_city":"ﾑﾗﾔﾏｼ","kana_address":"ｵｵﾏｷ","pref":"山形県","city":"村山市","address":"大槇"},
{"zip_code":"9950054","kana_pref":"ﾔﾏｶﾞﾀｹﾝ","kana_city":"ﾑﾗﾔﾏｼ","kana_address":"ｵｵﾖﾄﾞ","pref":"山形県","city":"村山市","address":"大淀"},
{"zip_code":"9950004","kana_pref":"ﾔﾏｶﾞﾀｹﾝ","kana_city":"ﾑﾗﾔﾏｼ","kana_address":"ｶﾅﾔ","pref":"山形県","city":"村山市","address":"金谷"},
{"zip_code":"9950041","kana_pref":"ﾔﾏｶﾞﾀｹﾝ","kana_city":"ﾑﾗﾔﾏｼ","kana_address":"ｶﾜｼﾏ","pref":"山形県","city":"村山市","address":"河島"},
{"zip_code":"9950056","kana_pref":"ﾔﾏｶﾞﾀｹﾝ","kana_city":"ﾑﾗﾔﾏｼ","kana_address":"ｶﾜｼﾏﾔﾏ","pref":"山形県","city":"村山市","address":"河島山"},
{"zip_code":"9950209","kana_pref":"ﾔﾏｶﾞﾀｹﾝ","kana_city":"ﾑﾗﾔﾏｼ","kana_address":"ｺﾞﾃﾝ","pref":"山形県","city":"村山市","address":"碁点"},
{"zip_code":"9950202","kana_pref":"ﾔﾏｶﾞﾀｹﾝ","kana_city":"ﾑﾗﾔﾏｼ","kana_address":"ｼﾛﾄﾘ","pref":"山形県","city":"村山市","address":"白鳥"},
{"zip_code":"9950042","kana_pref":"ﾔﾏｶﾞﾀｹﾝ","kana_city":"ﾑﾗﾔﾏｼ","kana_address":"ｽｷﾞｼﾏ","pref":"山形県","city":"村山市","address":"杉島"},
{"zip_code":"9950051","kana_pref":"ﾔﾏｶﾞﾀｹﾝ","kana_city":"ﾑﾗﾔﾏｼ","kana_address":"ﾀｻﾞﾜ","pref":"山形県","city":"村山市","address":"田沢"},
{"zip_code":"9950025","kana_pref":"ﾔﾏｶﾞﾀｹﾝ","kana_city":"ﾑﾗﾔﾏｼ","kana_address":"ﾀﾃｵｶ","pref":"山形県","city":"村山市","address":"楯岡"},
{"zip_code":"9950032","kana_pref":"ﾔﾏｶﾞﾀｹﾝ","kana_city":"ﾑﾗﾔﾏｼ","kana_address":"ﾀﾃｵｶｱﾗﾏﾁ","pref":"山形県","city":"村山市","address":"楯岡荒町"},
{"zip_code":"9950034","kana_pref":"ﾔﾏｶﾞﾀｹﾝ","kana_city":"ﾑﾗﾔﾏｼ","kana_address":"ﾀﾃｵｶｲﾂｶﾏﾁ","pref":"山形県","city":"村山市","address":"楯岡五日町"},
{"zip_code":"9950031","kana_pref":"ﾔﾏｶﾞﾀｹﾝ","kana_city":"ﾑﾗﾔﾏｼ","kana_address":"ﾀﾃｵｶｵｵｻﾜｶﾞﾜ","pref":"山形県","city":"村山市","address":"楯岡大沢川"},
{"zip_code":"9950011","kana_pref":"ﾔﾏｶﾞﾀｹﾝ","kana_city":"ﾑﾗﾔﾏｼ","kana_address":"ﾀﾃｵｶｷﾀﾏﾁ","pref":"山形県","city":"村山市","address":"楯岡北町"},
{"zip_code":"9950018","kana_pref":"ﾔﾏｶﾞﾀｹﾝ","kana_city":"ﾑﾗﾔﾏｼ","kana_address":"ﾀﾃｵｶｼﾝﾀｶﾀﾞ","pref":"山形県","city":"村山市","address":"楯岡新高田"},
{"zip_code":"9950033","kana_pref":"ﾔﾏｶﾞﾀｹﾝ","kana_city":"ﾑﾗﾔﾏｼ","kana_address":"ﾀﾃｵｶｼﾝﾏﾁ","pref":"山形県","city":"村山市","address":"楯岡新町"},
{"zip_code":"9950021","kana_pref":"ﾔﾏｶﾞﾀｹﾝ","kana_city":"ﾑﾗﾔﾏｼ","kana_address":"ﾀﾃｵｶﾀﾃ","pref":"山形県","city":"村山市","address":"楯岡楯"},
{"zip_code":"9950037","kana_pref":"ﾔﾏｶﾞﾀｹﾝ","kana_city":"ﾑﾗﾔﾏｼ","kana_address":"ﾀﾃｵｶﾀﾜﾗﾏﾁ","pref":"山形県","city":"村山市","address":"楯岡俵町"},
{"zip_code":"9950014","kana_pref":"ﾔﾏｶﾞﾀｹﾝ","kana_city":"ﾑﾗﾔﾏｼ","kana_address":"ﾀﾃｵｶﾂﾙｶﾞﾁｮｳ","pref":"山形県","city":"村山市","address":"楯岡鶴ケ町"},
{"zip_code":"9950017","kana_pref":"ﾔﾏｶﾞﾀｹﾝ","kana_city":"ﾑﾗﾔﾏｼ","kana_address":"ﾀﾃｵｶﾄｵｶﾏﾁ","pref":"山形県","city":"村山市","address":"楯岡十日町"},
{"zip_code":"9950036","kana_pref":"ﾔﾏｶﾞﾀｹﾝ","kana_city":"ﾑﾗﾔﾏｼ","kana_address":"ﾀﾃｵｶﾅｶﾏﾁ","pref":"山形県","city":"村山市","address":"楯岡中町"},
{"zip_code":"9950022","kana_pref":"ﾔﾏｶﾞﾀｹﾝ","kana_city":"ﾑﾗﾔﾏｼ","kana_address":"ﾀﾃｵｶﾊﾞﾊﾞ","pref":"山形県","city":"村山市","address":"楯岡馬場"},
{"zip_code":"9950023","kana_pref":"ﾔﾏｶﾞﾀｹﾝ","kana_city":"ﾑﾗﾔﾏｼ","kana_address":"ﾀﾃｵｶﾋｶﾞｼｻﾞﾜ","pref":"山形県","city":"村山市","address":"楯岡東沢"},
{"zip_code":"9950024","kana_pref":"ﾔﾏｶﾞﾀｹﾝ","kana_city":"ﾑﾗﾔﾏｼ","kana_address":"ﾀﾃｵｶﾌｴﾀﾞ","pref":"山形県","city":"村山市","address":"楯岡笛田"},
{"zip_code":"9950015","kana_pref":"ﾔﾏｶﾞﾀｹﾝ","kana_city":"ﾑﾗﾔﾏｼ","kana_address":"ﾀﾃｵｶﾌﾂｶﾏﾁ","pref":"山形県","city":"村山市","address":"楯岡二日町"},
{"zip_code":"9950016","kana_pref":"ﾔﾏｶﾞﾀｹﾝ","kana_city":"ﾑﾗﾔﾏｼ","kana_address":"ﾀﾃｵｶﾐｿｶﾏﾁ","pref":"山形県","city":"村山市","address":"楯岡晦日町"},
{"zip_code":"9950013","kana_pref":"ﾔﾏｶﾞﾀｹﾝ","kana_city":"ﾑﾗﾔﾏｼ","kana_address":"ﾀﾃｵｶﾕｻﾞﾜ","pref":"山形県","city":"村山市","address":"楯岡湯沢"},
{"zip_code":"9950005","kana_pref":"ﾔﾏｶﾞﾀｹﾝ","kana_city":"ﾑﾗﾔﾏｼ","kana_address":"ﾀﾓﾔﾏ","pref":"山形県","city":"村山市","address":"たも山"},
{"zip_code":"9950205","kana_pref":"ﾔﾏｶﾞﾀｹﾝ","kana_city":"ﾑﾗﾔﾏｼ","kana_address":"ﾀﾙｲｼ","pref":"山形県","city":"村山市","address":"樽石"},
{"zip_code":"9950035","kana_pref":"ﾔﾏｶﾞﾀｹﾝ","kana_city":"ﾑﾗﾔﾏｼ","kana_address":"ﾁｭｳｵｳ","pref":"山形県","city":"村山市","address":"中央"},
{"zip_code":"9950201","kana_pref":"ﾔﾏｶﾞﾀｹﾝ","kana_city":"ﾑﾗﾔﾏｼ","kana_address":"ﾁｮｳｾﾞﾝｼﾞ","pref":"山形県","city":"村山市","address":"長善寺"},
{"zip_code":"9950001","kana_pref":"ﾔﾏｶﾞﾀｹﾝ","kana_city":"ﾑﾗﾔﾏｼ","kana_address":"ﾄﾁｳﾀﾞ","pref":"山形県","city":"村山市","address":"土生田"},
{"zip_code":"9950208","kana_pref":"ﾔﾏｶﾞﾀｹﾝ","kana_city":"ﾑﾗﾔﾏｼ","kana_address":"ﾄﾐﾅﾐ","pref":"山形県","city":"村山市","address":"富並"},
{"zip_code":"9950055","kana_pref":"ﾔﾏｶﾞﾀｹﾝ","kana_city":"ﾑﾗﾔﾏｼ","kana_address":"ﾅｶﾞｼﾏ","pref":"山形県","city":"村山市","address":"長島"},
{"zip_code":"9950052","kana_pref":"ﾔﾏｶﾞﾀｹﾝ","kana_city":"ﾑﾗﾔﾏｼ","kana_address":"ﾅﾄﾘ","pref":"山形県","city":"村山市","address":"名取"},
{"zip_code":"9950053","kana_pref":"ﾔﾏｶﾞﾀｹﾝ","kana_city":"ﾑﾗﾔﾏｼ","kana_address":"ﾆｼｺﾞｳ","pref":"山形県","city":"村山市","address":"西郷"},
{"zip_code":"9950006","kana_pref":"ﾔﾏｶﾞﾀｹﾝ","kana_city":"ﾑﾗﾔﾏｼ","kana_address":"ﾊﾔｼｻﾞｷ","pref":"山形県","city":"村山市","address":"林崎"},
{"zip_code":"9950003","kana_pref":"ﾔﾏｶﾞﾀｹﾝ","kana_city":"ﾑﾗﾔﾏｼ","kana_address":"ﾓﾄｲｲﾀﾞ","pref":"山形県","city":"村山市","address":"本飯田"},
{"zip_code":"9950206","kana_pref":"ﾔﾏｶﾞﾀｹﾝ","kana_city":"ﾑﾗﾔﾏｼ","kana_address":"ﾔﾏﾉｳﾁ","pref":"山形県","city":"村山市","address":"山の内"},
{"zip_code":"9950207","kana_pref":"ﾔﾏｶﾞﾀｹﾝ","kana_city":"ﾑﾗﾔﾏｼ","kana_address":"ﾕｷﾉｶﾝﾉﾝｺﾞｳ","pref":"山形県","city":"村山市","address":"雪の観音郷"},
{"zip_code":"9950012","kana_pref":"ﾔﾏｶﾞﾀｹﾝ","kana_city":"ﾑﾗﾔﾏｼ","kana_address":"ﾕｻﾞﾜ","pref":"山形県","city":"村山市","address":"湯沢"},
{"zip_code":"9950112","kana_pref":"ﾔﾏｶﾞﾀｹﾝ","kana_city":"ﾑﾗﾔﾏｼ","kana_address":"ﾕﾉｻﾜ","pref":"山形県","city":"村山市","address":"湯野沢"}]}