{"zip_code":[
{"zip_code":"9960000","kana_pref":"ﾔﾏｶﾞﾀｹﾝ","kana_city":"ｼﾝｼﾞｮｳｼ","kana_address":"","pref":"山形県","city":"新庄市","address":""},
{"zip_code":"9960078","kana_pref":"ﾔﾏｶﾞﾀｹﾝ","kana_city":"ｼﾝｼﾞｮｳｼ","kana_address":"ｱﾗﾏﾁ","pref":"山形県","city":"新庄市","address":"新町"},
{"zip_code":"9960086","kana_pref":"ﾔﾏｶﾞﾀｹﾝ","kana_city":"ｼﾝｼﾞｮｳｼ","kana_address":"ｲｼｶﾜﾏﾁ","pref":"山形県","city":"新庄市","address":"石川町"},
{"zip_code":"9960001","kana_pref":"ﾔﾏｶﾞﾀｹﾝ","kana_city":"ｼﾝｼﾞｮｳｼ","kana_address":"ｲﾂｶﾏﾁ","pref":"山形県","city":"新庄市","address":"五日町"},
{"zip_code":"9960084","kana_pref":"ﾔﾏｶﾞﾀｹﾝ","kana_city":"ｼﾝｼﾞｮｳｼ","kana_address":"ｵｵﾃﾏﾁ","pref":"山形県","city":"新庄市","address":"大手町"},
{"zip_code":"9960026","kana_pref":"ﾔﾏｶﾞﾀｹﾝ","kana_city":"ｼﾝｼﾞｮｳｼ","kana_address":"ｵｵﾏﾁ","pref":"山形県","city":"新庄市","address":"大町"},
{"zip_code":"9960023","kana_pref":"ﾔﾏｶﾞﾀｹﾝ","kana_city":"ｼﾝｼﾞｮｳｼ","kana_address":"ｵｷﾉﾏﾁ","pref":"山形県","city":"新庄市","address":"沖の町"},
{"zip_code":"9960074","kana_pref":"ﾔﾏｶﾞﾀｹﾝ","kana_city":"ｼﾝｼﾞｮｳｼ","kana_address":"ｵﾀﾞｼﾏ","pref":"山形県","city":"新庄市","address":"小田島"},
{"zip_code":"9960071","kana_pref":"ﾔﾏｶﾞﾀｹﾝ","kana_city":"ｼﾝｼﾞｮｳｼ","kana_address":"ｵﾀﾞｼﾏﾏﾁ","pref":"山形県","city":"新庄市","address":"小田島町"},
{"zip_code":"9960002","kana_pref":"ﾔﾏｶﾞﾀｹﾝ","kana_city":"ｼﾝｼﾞｮｳｼ","kana_address":"ｶﾅｻﾞﾜ","pref":"山形県","city":"新庄市","address":"金沢"},
{"zip_code":"9960032","kana_pref":"ﾔﾏｶﾞﾀｹﾝ","kana_city":"ｼﾝｼﾞｮｳｼ","kana_address":"ｶﾐｶﾈｻﾞﾜﾏﾁ","pref":"山形県","city":"新庄市","address":"上金沢町"},
{"zip_code":"9960082","kana_pref":"ﾔﾏｶﾞﾀｹﾝ","kana_city":"ｼﾝｼﾞｮｳｼ","kana_address":"ｷﾀﾏﾁ","pref":"山形県","city":"新庄市","address":"北町"},
{"zip_code":"9960073","kana_pref":"ﾔﾏｶﾞﾀｹﾝ","kana_city":"ｼﾝｼﾞｮｳｼ","kana_address":"ｻｶｴﾏﾁ","pref":"山形県","city":"新庄市","address":"栄町"},
{"zip_code":"9960033","kana_pref":"ﾔﾏｶﾞﾀｹﾝ","kana_city":"ｼﾝｼﾞｮｳｼ","kana_address":"ｼﾓｶﾈｻﾞﾜﾏﾁ","pref":"山形県","city":"新庄市","address":"下金沢町"},
{"zip_code":"9960034","kana_pref":"ﾔﾏｶﾞﾀｹﾝ","kana_city":"ｼﾝｼﾞｮｳｼ","kana_address":"ｼﾓﾀﾞﾏﾁ","pref":"山形県","city":"新庄市","address":"下田町"},
{"zip_code":"9960077","kana_pref":"ﾔﾏｶﾞﾀｹﾝ","kana_city":"ｼﾝｼﾞｮｳｼ","kana_address":"ｼﾞｮｳﾅﾝﾏﾁ","pref":"山形県","city":"新庄市","address":"城南町"},
{"zip_code":"9960076","kana_pref":"ﾔﾏｶﾞﾀｹﾝ","kana_city":"ｼﾝｼﾞｮｳｼ","kana_address":"ｼﾛﾆｼﾏﾁ","pref":"山形県","city":"新庄市","address":"城西町"},
{"zip_code":"9960031","kana_pref":"ﾔﾏｶﾞﾀｹﾝ","kana_city":"ｼﾝｼﾞｮｳｼ","kana_address":"ｽｴﾋﾛﾏﾁ","pref":"山形県","city":"新庄市","address":"末広町"},
{"zip_code":"9960022","kana_pref":"ﾔﾏｶﾞﾀｹﾝ","kana_city":"ｼﾝｼﾞｮｳｼ","kana_address":"ｽﾐﾖｼﾏﾁ","pref":"山形県","city":"新庄市","address":"住吉町"},
{"zip_code":"9960079","kana_pref":"ﾔﾏｶﾞﾀｹﾝ","kana_city":"ｼﾝｼﾞｮｳｼ","kana_address":"ｾﾝﾓﾝﾁｮｳ","pref":"山形県","city":"新庄市","address":"千門町"},
{"zip_code":"9960024","kana_pref":"ﾔﾏｶﾞﾀｹﾝ","kana_city":"ｼﾝｼﾞｮｳｼ","kana_address":"ﾀﾓﾝﾏﾁ","pref":"山形県","city":"新庄市","address":"多門町"},
{"zip_code":"9960052","kana_pref":"ﾔﾏｶﾞﾀｹﾝ","kana_city":"ｼﾝｼﾞｮｳｼ","kana_address":"ﾂﾉｻﾞﾜ","pref":"山形県","city":"新庄市","address":"角沢"},
{"zip_code":"9960035","kana_pref":"ﾔﾏｶﾞﾀｹﾝ","kana_city":"ｼﾝｼﾞｮｳｼ","kana_address":"ﾃｯﾎﾟｳﾏﾁ","pref":"山形県","city":"新庄市","address":"鉄砲町"},
{"zip_code":"9960091","kana_pref":"ﾔﾏｶﾞﾀｹﾝ","kana_city":"ｼﾝｼﾞｮｳｼ","kana_address":"ﾄｵｶﾏﾁ","pref":"山形県","city":"新庄市","address":"十日町"},
{"zip_code":"9960021","kana_pref":"ﾔﾏｶﾞﾀｹﾝ","kana_city":"ｼﾝｼﾞｮｳｼ","kana_address":"ﾄｷﾊﾏﾁ","pref":"山形県","city":"新庄市","address":"常葉町"},
{"zip_code":"9960061","kana_pref":"ﾔﾏｶﾞﾀｹﾝ","kana_city":"ｼﾝｼﾞｮｳｼ","kana_address":"ﾄﾋﾞﾀ","pref":"山形県","city":"新庄市","address":"飛田"},
{"zip_code":"9960041","kana_pref":"ﾔﾏｶﾞﾀｹﾝ","kana_city":"ｼﾝｼﾞｮｳｼ","kana_address":"ﾄﾘｺﾞｴ","pref":"山形県","city":"新庄市","address":"鳥越"},
{"zip_code":"9960081","kana_pref":"ﾔﾏｶﾞﾀｹﾝ","kana_city":"ｼﾝｼﾞｮｳｼ","kana_address":"ﾅｶﾐﾁﾏﾁ","pref":"山形県","city":"新庄市","address":"中道町"},
{"zip_code":"9960054","kana_pref":"ﾔﾏｶﾞﾀｹﾝ","kana_city":"ｼﾝｼﾞｮｳｼ","kana_address":"ﾆｹﾝ","pref":"山形県","city":"新庄市","address":"仁間"},
{"zip_code":"9960087","kana_pref":"ﾔﾏｶﾞﾀｹﾝ","kana_city":"ｼﾝｼﾞｮｳｼ","kana_address":"ﾇﾏﾀ","pref":"山形県","city":"新庄市","address":"沼田"},
{"zip_code":"9960083","kana_pref":"ﾔﾏｶﾞﾀｹﾝ","kana_city":"ｼﾝｼﾞｮｳｼ","kana_address":"ﾇﾏﾀﾏﾁ","pref":"山形県","city":"新庄市","address":"沼田町"},
{"zip_code":"9960028","kana_pref":"ﾔﾏｶﾞﾀｹﾝ","kana_city":"ｼﾝｼﾞｮｳｼ","kana_address":"ﾊﾞﾝﾊﾞﾁｮｳ","pref":"山形県","city":"新庄市","address":"万場町"},
{"zip_code":"9960011","kana_pref":"ﾔﾏｶﾞﾀｹﾝ","kana_city":"ｼﾝｼﾞｮｳｼ","kana_address":"ﾋｶﾞｼﾔﾁﾀﾏﾁ","pref":"山形県","city":"新庄市","address":"東谷地田町"},
{"zip_code":"9960088","kana_pref":"ﾔﾏｶﾞﾀｹﾝ","kana_city":"ｼﾝｼﾞｮｳｼ","kana_address":"ﾋﾉｷﾁｮｳ","pref":"山形県","city":"新庄市","address":"桧町"},
{"zip_code":"9960053","kana_pref":"ﾔﾏｶﾞﾀｹﾝ","kana_city":"ｼﾝｼﾞｮｳｼ","kana_address":"ﾌｸﾀﾞ","pref":"山形県","city":"新庄市","address":"福田"},
{"zip_code":"9960085","kana_pref":"ﾔﾏｶﾞﾀｹﾝ","kana_city":"ｼﾝｼﾞｮｳｼ","kana_address":"ﾎﾘﾊﾞﾀﾏﾁ","pref":"山形県","city":"新庄市","address":"堀端町"},
{"zip_code":"9960027","kana_pref":"ﾔﾏｶﾞﾀｹﾝ","kana_city":"ｼﾝｼﾞｮｳｼ","kana_address":"ﾎﾝﾏﾁ","pref":"山形県","city":"新庄市","address":"本町"},
{"zip_code":"9960111","kana_pref":"ﾔﾏｶﾞﾀｹﾝ","kana_city":"ｼﾝｼﾞｮｳｼ","kana_address":"ﾏｽｶﾞﾀ","pref":"山形県","city":"新庄市","address":"升形"},
{"zip_code":"9960051","kana_pref":"ﾔﾏｶﾞﾀｹﾝ","kana_city":"ｼﾝｼﾞｮｳｼ","kana_address":"ﾏﾂﾓﾄ","pref":"山形県","city":"新庄市","address":"松本"},
{"zip_code":"9960072","kana_pref":"ﾔﾏｶﾞﾀｹﾝ","kana_city":"ｼﾝｼﾞｮｳｼ","kana_address":"ﾐﾔｳﾁﾏﾁ","pref":"山形県","city":"新庄市","address":"宮内町"},
{"zip_code":"9960112","kana_pref":"ﾔﾏｶﾞﾀｹﾝ","kana_city":"ｼﾝｼﾞｮｳｼ","kana_address":"ﾓﾄｱｲｶｲ","pref":"山形県","city":"新庄市","address":"本合海"},
{"zip_code":"9960075","kana_pref":"ﾔﾏｶﾞﾀｹﾝ","kana_city":"ｼﾝｼﾞｮｳｼ","kana_address":"ﾖｺｳﾁﾏﾁ","pref":"山形県","city":"新庄市","address":"横打町"},
{"zip_code":"9960025","kana_pref":"ﾔﾏｶﾞﾀｹﾝ","kana_city":"ｼﾝｼﾞｮｳｼ","kana_address":"ﾜｶﾊﾞﾏﾁ","pref":"山形県","city":"新庄市","address":"若葉町"},
{"zip_code":"9960200","kana_pref":"ﾔﾏｶﾞﾀｹﾝ","kana_city":"ﾓｶﾞﾐｸﾞﾝｵｵｸﾗﾑﾗ","kana_address":"","pref":"山形県","city":"最上郡大蔵村","address":""},
{"zip_code":"9960211","kana_pref":"ﾔﾏｶﾞﾀｹﾝ","kana_city":"ﾓｶﾞﾐｸﾞﾝｵｵｸﾗﾑﾗ","kana_address":"ｱｲｶｲ","pref":"山形県","city":"最上郡大蔵村","address":"合海"},
{"zip_code":"9960213","kana_pref":"ﾔﾏｶﾞﾀｹﾝ","kana_city":"ﾓｶﾞﾐｸﾞﾝｵｵｸﾗﾑﾗ","kana_address":"ｱｶﾏﾂ","pref":"山形県","city":"最上郡大蔵村","address":"赤松"},
{"zip_code":"9960212","kana_pref":"ﾔﾏｶﾞﾀｹﾝ","kana_city":"ﾓｶﾞﾐｸﾞﾝｵｵｸﾗﾑﾗ","kana_address":"ｼﾐｽﾞ","pref":"山形県","city":"最上郡大蔵村","address":"清水"},
{"zip_code":"9960301","kana_pref":"ﾔﾏｶﾞﾀｹﾝ","kana_city":"ﾓｶﾞﾐｸﾞﾝｵｵｸﾗﾑﾗ","kana_address":"ﾐﾅﾐﾔﾏ","pref":"山形県","city":"最上郡大蔵村","address":"南山"},
{"zip_code":"9960201","kana_pref":"ﾔﾏｶﾞﾀｹﾝ","kana_city":"ﾓｶﾞﾐｸﾞﾝｵｵｸﾗﾑﾗ","kana_address":"ﾐﾅﾐﾔﾏ","pref":"山形県","city":"最上郡大蔵村","address":"南山"}]}