{"zip_code":[
{"zip_code":"9970000","kana_pref":"ﾔﾏｶﾞﾀｹﾝ","kana_city":"ﾂﾙｵｶｼ","kana_address":"","pref":"山形県","city":"鶴岡市","address":""},
{"zip_code":"9970832","kana_pref":"ﾔﾏｶﾞﾀｹﾝ","kana_city":"ﾂﾙｵｶｼ","kana_address":"ｱｵﾔｷﾞﾁｮｳ","pref":"山形県","city":"鶴岡市","address":"青柳町"},
{"zip_code":"9971205","kana_pref":"ﾔﾏｶﾞﾀｹﾝ","kana_city":"ﾂﾙｵｶｼ","kana_address":"ｱﾌﾞﾗﾄ","pref":"山形県","city":"鶴岡市","address":"油戸"},
{"zip_code":"9970051","kana_pref":"ﾔﾏｶﾞﾀｹﾝ","kana_city":"ﾂﾙｵｶｼ","kana_address":"ｱﾗｲｷｮｳﾃﾞﾝ","pref":"山形県","city":"鶴岡市","address":"荒井京田"},
{"zip_code":"9970621","kana_pref":"ﾔﾏｶﾞﾀｹﾝ","kana_city":"ﾂﾙｵｶｼ","kana_address":"ｱﾗｻﾜ","pref":"山形県","city":"鶴岡市","address":"荒沢"},
{"zip_code":"9970057","kana_pref":"ﾔﾏｶﾞﾀｹﾝ","kana_city":"ﾂﾙｵｶｼ","kana_address":"ｱﾝﾀﾝ","pref":"山形県","city":"鶴岡市","address":"安丹"},
{"zip_code":"9970755","kana_pref":"ﾔﾏｶﾞﾀｹﾝ","kana_city":"ﾂﾙｵｶｼ","kana_address":"ｲｻｺﾞﾀﾞﾆ","pref":"山形県","city":"鶴岡市","address":"砂谷"},
{"zip_code":"9970033","kana_pref":"ﾔﾏｶﾞﾀｹﾝ","kana_city":"ﾂﾙｵｶｼ","kana_address":"ｲｽﾞﾐﾏﾁ","pref":"山形県","city":"鶴岡市","address":"泉町"},
{"zip_code":"9970802","kana_pref":"ﾔﾏｶﾞﾀｹﾝ","kana_city":"ﾂﾙｵｶｼ","kana_address":"ｲｾﾊﾗﾏﾁ","pref":"山形県","city":"鶴岡市","address":"伊勢原町"},
{"zip_code":"9970803","kana_pref":"ﾔﾏｶﾞﾀｹﾝ","kana_city":"ﾂﾙｵｶｼ","kana_address":"ｲｾﾖｺｳﾁ","pref":"山形県","city":"鶴岡市","address":"伊勢横内"},
{"zip_code":"9970331","kana_pref":"ﾔﾏｶﾞﾀｹﾝ","kana_city":"ﾂﾙｵｶｼ","kana_address":"ｲﾀｲｶﾞﾜ","pref":"山形県","city":"鶴岡市","address":"板井川"},
{"zip_code":"9970834","kana_pref":"ﾔﾏｶﾞﾀｹﾝ","kana_city":"ﾂﾙｵｶｼ","kana_address":"ｲﾅｵｲ","pref":"山形県","city":"鶴岡市","address":"稲生"},
{"zip_code":"9970842","kana_pref":"ﾔﾏｶﾞﾀｹﾝ","kana_city":"ﾂﾙｵｶｼ","kana_address":"ｲﾉｵｶ","pref":"山形県","city":"鶴岡市","address":"井岡"},
{"zip_code":"9971206","kana_pref":"ﾔﾏｶﾞﾀｹﾝ","kana_city":"ﾂﾙｵｶｼ","kana_address":"ｲﾏｲｽﾞﾐ","pref":"山形県","city":"鶴岡市","address":"今泉"},
{"zip_code":"9971125","kana_pref":"ﾔﾏｶﾞﾀｹﾝ","kana_city":"ﾂﾙｵｶｼ","kana_address":"ｳﾏﾏﾁ","pref":"山形県","city":"鶴岡市","address":"馬町"},
{"zip_code":"9970403","kana_pref":"ﾔﾏｶﾞﾀｹﾝ","kana_city":"ﾂﾙｵｶｼ","kana_address":"ｴｯﾁｭｳﾔﾏ","pref":"山形県","city":"鶴岡市","address":"越中山"},
{"zip_code":"9970823","kana_pref":"ﾔﾏｶﾞﾀｹﾝ","kana_city":"ﾂﾙｵｶｼ","kana_address":"ｴﾋﾞｼﾞﾏﾏﾁ","pref":"山形県","city":"鶴岡市","address":"海老島町"},
{"zip_code":"9970531","kana_pref":"ﾔﾏｶﾞﾀｹﾝ","kana_city":"ﾂﾙｵｶｼ","kana_address":"ｵｵｱﾐ","pref":"山形県","city":"鶴岡市","address":"大網"},
{"zip_code":"9970047","kana_pref":"ﾔﾏｶﾞﾀｹﾝ","kana_city":"ﾂﾙｵｶｼ","kana_address":"ｵｵﾂｶﾏﾁ","pref":"山形県","city":"鶴岡市","address":"大塚町"},
{"zip_code":"9970622","kana_pref":"ﾔﾏｶﾞﾀｹﾝ","kana_city":"ﾂﾙｵｶｼ","kana_address":"ｵｵﾄﾘ","pref":"山形県","city":"鶴岡市","address":"大鳥"},
{"zip_code":"9970831","kana_pref":"ﾔﾏｶﾞﾀｹﾝ","kana_city":"ﾂﾙｵｶｼ","kana_address":"ｵｵﾆｼﾏﾁ","pref":"山形県","city":"鶴岡市","address":"大西町"},
{"zip_code":"9970414","kana_pref":"ﾔﾏｶﾞﾀｹﾝ","kana_city":"ﾂﾙｵｶｼ","kana_address":"ｵｵﾊﾞﾘ","pref":"山形県","city":"鶴岡市","address":"大針"},
{"zip_code":"9971124","kana_pref":"ﾔﾏｶﾞﾀｹﾝ","kana_city":"ﾂﾙｵｶｼ","kana_address":"ｵｵﾔﾏ","pref":"山形県","city":"鶴岡市","address":"大山"},
{"zip_code":"9971121","kana_pref":"ﾔﾏｶﾞﾀｹﾝ","kana_city":"ﾂﾙｵｶｼ","kana_address":"ｵｵﾔﾏ","pref":"山形県","city":"鶴岡市","address":"大山"},
{"zip_code":"9970854","kana_pref":"ﾔﾏｶﾞﾀｹﾝ","kana_city":"ﾂﾙｵｶｼ","kana_address":"ｵｵﾖﾄﾞｶﾜ","pref":"山形県","city":"鶴岡市","address":"大淀川"},
{"zip_code":"9970843","kana_pref":"ﾔﾏｶﾞﾀｹﾝ","kana_city":"ﾂﾙｵｶｼ","kana_address":"ｵｶﾔﾏ","pref":"山形県","city":"鶴岡市","address":"岡山"},
{"zip_code":"9970806","kana_pref":"ﾔﾏｶﾞﾀｹﾝ","kana_city":"ﾂﾙｵｶｼ","kana_address":"ｵｶﾞﾜﾗ","pref":"山形県","city":"鶴岡市","address":"遠賀原"},
{"zip_code":"9971116","kana_pref":"ﾔﾏｶﾞﾀｹﾝ","kana_city":"ﾂﾙｵｶｼ","kana_address":"ｵﾓﾉﾔﾏ","pref":"山形県","city":"鶴岡市","address":"面野山"},
{"zip_code":"9970052","kana_pref":"ﾔﾏｶﾞﾀｹﾝ","kana_city":"ﾂﾙｵｶｼ","kana_address":"ｶｸｶﾞﾝｼﾞ","pref":"山形県","city":"鶴岡市","address":"覚岸寺"},
{"zip_code":"9970036","kana_pref":"ﾔﾏｶﾞﾀｹﾝ","kana_city":"ﾂﾙｵｶｼ","kana_address":"ｶﾁｭｳｼﾝﾏﾁ","pref":"山形県","city":"鶴岡市","address":"家中新町"},
{"zip_code":"9970343","kana_pref":"ﾔﾏｶﾞﾀｹﾝ","kana_city":"ﾂﾙｵｶｼ","kana_address":"ｶﾂﾗｱﾗﾏﾀ","pref":"山形県","city":"鶴岡市","address":"桂荒俣"},
{"zip_code":"9970365","kana_pref":"ﾔﾏｶﾞﾀｹﾝ","kana_city":"ﾂﾙｵｶｼ","kana_address":"ｶﾅﾔ","pref":"山形県","city":"鶴岡市","address":"金谷"},
{"zip_code":"9971203","kana_pref":"ﾔﾏｶﾞﾀｹﾝ","kana_city":"ﾂﾙｵｶｼ","kana_address":"ｶﾈｻﾞﾜ","pref":"山形県","city":"鶴岡市","address":"金沢"},
{"zip_code":"9970847","kana_pref":"ﾔﾏｶﾞﾀｹﾝ","kana_city":"ﾂﾙｵｶｼ","kana_address":"ｶﾐｼﾐｽﾞ","pref":"山形県","city":"鶴岡市","address":"上清水"},
{"zip_code":"9970623","kana_pref":"ﾔﾏｶﾞﾀｹﾝ","kana_city":"ﾂﾙｵｶｼ","kana_address":"ｶﾐﾀｻﾞﾜ","pref":"山形県","city":"鶴岡市","address":"上田沢"},
{"zip_code":"9970405","kana_pref":"ﾔﾏｶﾞﾀｹﾝ","kana_city":"ﾂﾙｵｶｼ","kana_address":"ｶﾐﾅｶﾞﾜ","pref":"山形県","city":"鶴岡市","address":"上名川"},
{"zip_code":"9970032","kana_pref":"ﾔﾏｶﾞﾀｹﾝ","kana_city":"ﾂﾙｵｶｼ","kana_address":"ｶﾐﾊﾀﾏﾁ","pref":"山形県","city":"鶴岡市","address":"上畑町"},
{"zip_code":"9970346","kana_pref":"ﾔﾏｶﾞﾀｹﾝ","kana_city":"ﾂﾙｵｶｼ","kana_address":"ｶﾐﾔﾏｿﾞｴ","pref":"山形県","city":"鶴岡市","address":"上山添"},
{"zip_code":"9970367","kana_pref":"ﾔﾏｶﾞﾀｹﾝ","kana_city":"ﾂﾙｵｶｼ","kana_address":"ｶﾐﾔﾏﾔ","pref":"山形県","city":"鶴岡市","address":"上山谷"},
{"zip_code":"9971204","kana_pref":"ﾔﾏｶﾞﾀｹﾝ","kana_city":"ﾂﾙｵｶｼ","kana_address":"ｶﾓ","pref":"山形県","city":"鶴岡市","address":"加茂"},
{"zip_code":"9970805","kana_pref":"ﾔﾏｶﾞﾀｹﾝ","kana_city":"ﾂﾙｵｶｼ","kana_address":"ｶﾞﾛｳﾊﾞﾔｼ","pref":"山形県","city":"鶴岡市","address":"我老林"},
{"zip_code":"9970053","kana_pref":"ﾔﾏｶﾞﾀｹﾝ","kana_city":"ﾂﾙｵｶｼ","kana_address":"ｷﾀｷｮｳﾃﾞﾝ","pref":"山形県","city":"鶴岡市","address":"北京田"},
{"zip_code":"9970022","kana_pref":"ﾔﾏｶﾞﾀｹﾝ","kana_city":"ﾂﾙｵｶｼ","kana_address":"ｷﾘｿﾞｴﾏﾁ","pref":"山形県","city":"鶴岡市","address":"切添町"},
{"zip_code":"9970411","kana_pref":"ﾔﾏｶﾞﾀｹﾝ","kana_city":"ﾂﾙｵｶｼ","kana_address":"ｸﾏｲﾃﾞ","pref":"山形県","city":"鶴岡市","address":"熊出"},
{"zip_code":"9970624","kana_pref":"ﾔﾏｶﾞﾀｹﾝ","kana_city":"ﾂﾙｵｶｼ","kana_address":"ｸﾗｻﾜ","pref":"山形県","city":"鶴岡市","address":"倉沢"},
{"zip_code":"9970311","kana_pref":"ﾔﾏｶﾞﾀｹﾝ","kana_city":"ﾂﾙｵｶｼ","kana_address":"ｸﾛｶﾜ","pref":"山形県","city":"鶴岡市","address":"黒川"},
{"zip_code":"9970005","kana_pref":"ﾔﾏｶﾞﾀｹﾝ","kana_city":"ﾂﾙｵｶｼ","kana_address":"ｺｷｮｳﾃﾞﾝ","pref":"山形県","city":"鶴岡市","address":"小京田"},
{"zip_code":"9970363","kana_pref":"ﾔﾏｶﾞﾀｹﾝ","kana_city":"ﾂﾙｵｶｼ","kana_address":"ｺﾄﾌﾞｷ","pref":"山形県","city":"鶴岡市","address":"寿"},
{"zip_code":"9970825","kana_pref":"ﾔﾏｶﾞﾀｹﾝ","kana_city":"ﾂﾙｵｶｼ","kana_address":"ｺﾏｷﾞﾊﾗﾏﾁ","pref":"山形県","city":"鶴岡市","address":"小真木原町"},
{"zip_code":"9970853","kana_pref":"ﾔﾏｶﾞﾀｹﾝ","kana_city":"ﾂﾙｵｶｼ","kana_address":"ｺﾖﾄﾞｶﾜ","pref":"山形県","city":"鶴岡市","address":"小淀川"},
{"zip_code":"9970804","kana_pref":"ﾔﾏｶﾞﾀｹﾝ","kana_city":"ﾂﾙｵｶｼ","kana_address":"ｻｲﾄｳｶﾞﾜﾗ","pref":"山形県","city":"鶴岡市","address":"斎藤川原"},
{"zip_code":"9970757","kana_pref":"ﾔﾏｶﾞﾀｹﾝ","kana_city":"ﾂﾙｵｶｼ","kana_address":"ｻｶﾉｼﾀ","pref":"山形県","city":"鶴岡市","address":"坂野下"},
{"zip_code":"9970861","kana_pref":"ﾔﾏｶﾞﾀｹﾝ","kana_city":"ﾂﾙｵｶｼ","kana_address":"ｻｸﾗｼﾝﾏﾁ","pref":"山形県","city":"鶴岡市","address":"桜新町"},
{"zip_code":"9970821","kana_pref":"ﾔﾏｶﾞﾀｹﾝ","kana_city":"ﾂﾙｵｶｼ","kana_address":"ｻﾝｺｳﾁｮｳ","pref":"山形県","city":"鶴岡市","address":"三光町"},
{"zip_code":"9970342","kana_pref":"ﾔﾏｶﾞﾀｹﾝ","kana_city":"ﾂﾙｵｶｼ","kana_address":"ｻﾝｾﾞﾝｶﾞﾘ","pref":"山形県","city":"鶴岡市","address":"三千刈"},
{"zip_code":"9970028","kana_pref":"ﾔﾏｶﾞﾀｹﾝ","kana_city":"ﾂﾙｵｶｼ","kana_address":"ｻﾝﾉｳﾏﾁ","pref":"山形県","city":"鶴岡市","address":"山王町"},
{"zip_code":"9970848","kana_pref":"ﾔﾏｶﾞﾀｹﾝ","kana_city":"ﾂﾙｵｶｼ","kana_address":"ｼﾐｽﾞｼﾝﾃﾞﾝ","pref":"山形県","city":"鶴岡市","address":"清水新田"},
{"zip_code":"9971117","kana_pref":"ﾔﾏｶﾞﾀｹﾝ","kana_city":"ﾂﾙｵｶｼ","kana_address":"ｼﾓｶﾞﾜ","pref":"山形県","city":"鶴岡市","address":"下川"},
{"zip_code":"9971133","kana_pref":"ﾔﾏｶﾞﾀｹﾝ","kana_city":"ﾂﾙｵｶｼ","kana_address":"ｼﾓｺｳﾔ","pref":"山形県","city":"鶴岡市","address":"下興屋"},
{"zip_code":"9971134","kana_pref":"ﾔﾏｶﾞﾀｹﾝ","kana_city":"ﾂﾙｵｶｼ","kana_address":"ｼﾓｺﾅｶ","pref":"山形県","city":"鶴岡市","address":"下小中"},
{"zip_code":"9970845","kana_pref":"ﾔﾏｶﾞﾀｹﾝ","kana_city":"ﾂﾙｵｶｼ","kana_address":"ｼﾓｼﾐｽﾞ","pref":"山形県","city":"鶴岡市","address":"下清水"},
{"zip_code":"9970625","kana_pref":"ﾔﾏｶﾞﾀｹﾝ","kana_city":"ﾂﾙｵｶｼ","kana_address":"ｼﾓﾀｻﾞﾜ","pref":"山形県","city":"鶴岡市","address":"下田沢"},
{"zip_code":"9970404","kana_pref":"ﾔﾏｶﾞﾀｹﾝ","kana_city":"ﾂﾙｵｶｼ","kana_address":"ｼﾓﾅｶﾞﾜ","pref":"山形県","city":"鶴岡市","address":"下名川"},
{"zip_code":"9970341","kana_pref":"ﾔﾏｶﾞﾀｹﾝ","kana_city":"ﾂﾙｵｶｼ","kana_address":"ｼﾓﾔﾏｿﾞｴ","pref":"山形県","city":"鶴岡市","address":"下山添"},
{"zip_code":"9970351","kana_pref":"ﾔﾏｶﾞﾀｹﾝ","kana_city":"ﾂﾙｵｶｼ","kana_address":"ｼｮｳﾌｸｼﾞ","pref":"山形県","city":"鶴岡市","address":"勝福寺"},
{"zip_code":"9970814","kana_pref":"ﾔﾏｶﾞﾀｹﾝ","kana_city":"ﾂﾙｵｶｼ","kana_address":"ｼﾞｮｳﾅﾝﾏﾁ","pref":"山形県","city":"鶴岡市","address":"城南町"},
{"zip_code":"9970041","kana_pref":"ﾔﾏｶﾞﾀｹﾝ","kana_city":"ﾂﾙｵｶｼ","kana_address":"ｼﾞｮｳﾎｸﾏﾁ","pref":"山形県","city":"鶴岡市","address":"城北町"},
{"zip_code":"9970368","kana_pref":"ﾔﾏｶﾞﾀｹﾝ","kana_city":"ﾂﾙｵｶｼ","kana_address":"ｼｮｳﾘｭｳｼﾞ","pref":"山形県","city":"鶴岡市","address":"青龍寺"},
{"zip_code":"9970754","kana_pref":"ﾔﾏｶﾞﾀｹﾝ","kana_city":"ﾂﾙｵｶｼ","kana_address":"ｼｮｳﾚﾝｼﾞ","pref":"山形県","city":"鶴岡市","address":"少連寺"},
{"zip_code":"9970027","kana_pref":"ﾔﾏｶﾞﾀｹﾝ","kana_city":"ﾂﾙｵｶｼ","kana_address":"ｼｮｳﾜﾏﾁ","pref":"山形県","city":"鶴岡市","address":"昭和町"},
{"zip_code":"9970841","kana_pref":"ﾔﾏｶﾞﾀｹﾝ","kana_city":"ﾂﾙｵｶｼ","kana_address":"ｼﾗﾔﾏ","pref":"山形県","city":"鶴岡市","address":"白山"},
{"zip_code":"9970044","kana_pref":"ﾔﾏｶﾞﾀｹﾝ","kana_city":"ﾂﾙｵｶｼ","kana_address":"ｼﾝｶｲﾏﾁ","pref":"山形県","city":"鶴岡市","address":"新海町"},
{"zip_code":"9970852","kana_pref":"ﾔﾏｶﾞﾀｹﾝ","kana_city":"ﾂﾙｵｶｼ","kana_address":"ｼﾝｻｲﾌﾞ","pref":"山形県","city":"鶴岡市","address":"新斎部"},
{"zip_code":"9970811","kana_pref":"ﾔﾏｶﾞﾀｹﾝ","kana_city":"ﾂﾙｵｶｼ","kana_address":"ｼﾝﾒｲﾁｮｳ","pref":"山形県","city":"鶴岡市","address":"神明町"},
{"zip_code":"9970015","kana_pref":"ﾔﾏｶﾞﾀｹﾝ","kana_city":"ﾂﾙｵｶｼ","kana_address":"ｽｴﾋﾛﾏﾁ","pref":"山形県","city":"鶴岡市","address":"末広町"},
{"zip_code":"9970415","kana_pref":"ﾔﾏｶﾞﾀｹﾝ","kana_city":"ﾂﾙｵｶｼ","kana_address":"ｽﾅｶﾞﾜ","pref":"山形県","city":"鶴岡市","address":"砂川"},
{"zip_code":"9970839","kana_pref":"ﾔﾏｶﾞﾀｹﾝ","kana_city":"ﾂﾙｵｶｼ","kana_address":"ｽﾅﾀﾞﾏﾁ","pref":"山形県","city":"鶴岡市","address":"砂田町"},
{"zip_code":"9970758","kana_pref":"ﾔﾏｶﾞﾀｹﾝ","kana_city":"ﾂﾙｵｶｼ","kana_address":"ｾｷﾈ","pref":"山形県","city":"鶴岡市","address":"関根"},
{"zip_code":"9970813","kana_pref":"ﾔﾏｶﾞﾀｹﾝ","kana_city":"ﾂﾙｵｶｼ","kana_address":"ｾﾝｺﾞｸﾏﾁ","pref":"山形県","city":"鶴岡市","address":"千石町"},
{"zip_code":"9970026","kana_pref":"ﾔﾏｶﾞﾀｹﾝ","kana_city":"ﾂﾙｵｶｼ","kana_address":"ﾀﾞｲﾄｳﾏﾁ","pref":"山形県","city":"鶴岡市","address":"大東町"},
{"zip_code":"9970049","kana_pref":"ﾔﾏｶﾞﾀｹﾝ","kana_city":"ﾂﾙｵｶｼ","kana_address":"ﾀﾞｲﾌﾞﾏﾁ","pref":"山形県","city":"鶴岡市","address":"大部町"},
{"zip_code":"9970117","kana_pref":"ﾔﾏｶﾞﾀｹﾝ","kana_city":"ﾂﾙｵｶｼ","kana_address":"ﾀﾞｲﾎｳｼﾞ","pref":"山形県","city":"鶴岡市","address":"大宝寺"},
{"zip_code":"9970017","kana_pref":"ﾔﾏｶﾞﾀｹﾝ","kana_city":"ﾂﾙｵｶｼ","kana_address":"ﾀﾞｲﾎｳｼﾞ","pref":"山形県","city":"鶴岡市","address":"大宝寺"},
{"zip_code":"9970369","kana_pref":"ﾔﾏｶﾞﾀｹﾝ","kana_city":"ﾂﾙｵｶｼ","kana_address":"ﾀｶｻｶ","pref":"山形県","city":"鶴岡市","address":"高坂"},
{"zip_code":"9970054","kana_pref":"ﾔﾏｶﾞﾀｹﾝ","kana_city":"ﾂﾙｵｶｼ","kana_address":"ﾀｶﾀﾞ","pref":"山形県","city":"鶴岡市","address":"高田"},
{"zip_code":"9970011","kana_pref":"ﾔﾏｶﾞﾀｹﾝ","kana_city":"ﾂﾙｵｶｼ","kana_address":"ﾀｶﾗﾀﾞ","pref":"山形県","city":"鶴岡市","address":"宝田"},
{"zip_code":"9970021","kana_pref":"ﾔﾏｶﾞﾀｹﾝ","kana_city":"ﾂﾙｵｶｼ","kana_address":"ﾀｶﾗﾏﾁ","pref":"山形県","city":"鶴岡市","address":"宝町"},
{"zip_code":"9970753","kana_pref":"ﾔﾏｶﾞﾀｹﾝ","kana_city":"ﾂﾙｵｶｼ","kana_address":"ﾀｶﾞﾜ","pref":"山形県","city":"鶴岡市","address":"田川"},
{"zip_code":"9970364","kana_pref":"ﾔﾏｶﾞﾀｹﾝ","kana_city":"ﾂﾙｵｶｼ","kana_address":"ﾀｷｻﾞﾜ","pref":"山形県","city":"鶴岡市","address":"滝沢"},
{"zip_code":"9970302","kana_pref":"ﾔﾏｶﾞﾀｹﾝ","kana_city":"ﾂﾙｵｶｼ","kana_address":"ﾀｼﾛ","pref":"山形県","city":"鶴岡市","address":"田代"},
{"zip_code":"9970366","kana_pref":"ﾔﾏｶﾞﾀｹﾝ","kana_city":"ﾂﾙｵｶｼ","kana_address":"ﾀﾆｻﾀﾞ","pref":"山形県","city":"鶴岡市","address":"谷定"},
{"zip_code":"9970532","kana_pref":"ﾔﾏｶﾞﾀｹﾝ","kana_city":"ﾂﾙｵｶｼ","kana_address":"ﾀﾑｷﾞﾏﾀ","pref":"山形県","city":"鶴岡市","address":"田麦俣"},
{"zip_code":"9970303","kana_pref":"ﾔﾏｶﾞﾀｹﾝ","kana_city":"ﾂﾙｵｶｼ","kana_address":"ﾀﾗﾉｷﾀﾞｲ","pref":"山形県","city":"鶴岡市","address":"たらのき代"},
{"zip_code":"9970014","kana_pref":"ﾔﾏｶﾞﾀｹﾝ","kana_city":"ﾂﾙｵｶｼ","kana_address":"ﾀﾞｲﾎｳｼﾞﾏﾁ","pref":"山形県","city":"鶴岡市","address":"大宝寺町"},
{"zip_code":"9971114","kana_pref":"ﾔﾏｶﾞﾀｹﾝ","kana_city":"ﾂﾙｵｶｼ","kana_address":"ﾁﾔｽｷｮｳﾃﾞﾝ","pref":"山形県","city":"鶴岡市","address":"千安京田"},
{"zip_code":"9970812","kana_pref":"ﾔﾏｶﾞﾀｹﾝ","kana_city":"ﾂﾙｵｶｼ","kana_address":"ﾁｮｳｼﾞｬﾏﾁ","pref":"山形県","city":"鶴岡市","address":"長者町"},
{"zip_code":"9970024","kana_pref":"ﾔﾏｶﾞﾀｹﾝ","kana_city":"ﾂﾙｵｶｼ","kana_address":"ﾁｮｳﾖｳﾏﾁ","pref":"山形県","city":"鶴岡市","address":"朝暘町"},
{"zip_code":"9970019","kana_pref":"ﾔﾏｶﾞﾀｹﾝ","kana_city":"ﾂﾙｵｶｼ","kana_address":"ﾁﾜﾗ","pref":"山形県","city":"鶴岡市","address":"茅原"},
{"zip_code":"9970018","kana_pref":"ﾔﾏｶﾞﾀｹﾝ","kana_city":"ﾂﾙｵｶｼ","kana_address":"ﾁﾜﾗﾏﾁ","pref":"山形県","city":"鶴岡市","address":"茅原町"},
{"zip_code":"9971115","kana_pref":"ﾔﾏｶﾞﾀｹﾝ","kana_city":"ﾂﾙｵｶｼ","kana_address":"ﾂｼﾞｺｳﾔ","pref":"山形県","city":"鶴岡市","address":"辻興屋"},
{"zip_code":"9970836","kana_pref":"ﾔﾏｶﾞﾀｹﾝ","kana_city":"ﾂﾙｵｶｼ","kana_address":"ﾃﾗﾀﾞ","pref":"山形県","city":"鶴岡市","address":"寺田"},
{"zip_code":"9970012","kana_pref":"ﾔﾏｶﾞﾀｹﾝ","kana_city":"ﾂﾙｵｶｼ","kana_address":"ﾄﾞｳｶﾞﾀ","pref":"山形県","city":"鶴岡市","address":"道形"},
{"zip_code":"9970013","kana_pref":"ﾔﾏｶﾞﾀｹﾝ","kana_city":"ﾂﾙｵｶｼ","kana_address":"ﾄﾞｳｶﾞﾀﾏﾁ","pref":"山形県","city":"鶴岡市","address":"道形町"},
{"zip_code":"9970333","kana_pref":"ﾔﾏｶﾞﾀｹﾝ","kana_city":"ﾂﾙｵｶｼ","kana_address":"ﾄｷﾜｷﾞ","pref":"山形県","city":"鶴岡市","address":"常盤木"},
{"zip_code":"9971132","kana_pref":"ﾔﾏｶﾞﾀｹﾝ","kana_city":"ﾂﾙｵｶｼ","kana_address":"ﾄﾁﾔ","pref":"山形県","city":"鶴岡市","address":"栃屋"},
{"zip_code":"9970815","kana_pref":"ﾔﾏｶﾞﾀｹﾝ","kana_city":"ﾂﾙｵｶｼ","kana_address":"ﾄﾉｼﾞﾏ","pref":"山形県","city":"鶴岡市","address":"外内島"},
{"zip_code":"9971122","kana_pref":"ﾔﾏｶﾞﾀｹﾝ","kana_city":"ﾂﾙｵｶｼ","kana_address":"ﾄﾓｴ","pref":"山形県","city":"鶴岡市","address":"友江"},
{"zip_code":"9971123","kana_pref":"ﾔﾏｶﾞﾀｹﾝ","kana_city":"ﾂﾙｵｶｼ","kana_address":"ﾄﾓｴﾏﾁ","pref":"山形県","city":"鶴岡市","address":"友江町"},
{"zip_code":"9970007","kana_pref":"ﾔﾏｶﾞﾀｹﾝ","kana_city":"ﾂﾙｵｶｼ","kana_address":"ﾄﾖﾀﾞ","pref":"山形県","city":"鶴岡市","address":"豊田"},
{"zip_code":"9970023","kana_pref":"ﾔﾏｶﾞﾀｹﾝ","kana_city":"ﾂﾙｵｶｼ","kana_address":"ﾄﾘｲﾏﾁ","pref":"山形県","city":"鶴岡市","address":"鳥居町"},
{"zip_code":"9970808","kana_pref":"ﾔﾏｶﾞﾀｹﾝ","kana_city":"ﾂﾙｵｶｼ","kana_address":"ﾅｴﾂﾞ","pref":"山形県","city":"鶴岡市","address":"苗津"},
{"zip_code":"9970809","kana_pref":"ﾔﾏｶﾞﾀｹﾝ","kana_city":"ﾂﾙｵｶｼ","kana_address":"ﾅｴﾂﾞﾏﾁ","pref":"山形県","city":"鶴岡市","address":"苗津町"},
{"zip_code":"9970009","kana_pref":"ﾔﾏｶﾞﾀｹﾝ","kana_city":"ﾂﾙｵｶｼ","kana_address":"ﾅｶｷｮｳﾃﾞﾝ","pref":"山形県","city":"鶴岡市","address":"中京田"},
{"zip_code":"9970846","kana_pref":"ﾔﾏｶﾞﾀｹﾝ","kana_city":"ﾂﾙｵｶｼ","kana_address":"ﾅｶｼﾐｽﾞ","pref":"山形県","city":"鶴岡市","address":"中清水"},
{"zip_code":"9970345","kana_pref":"ﾔﾏｶﾞﾀｹﾝ","kana_city":"ﾂﾙｵｶｼ","kana_address":"ﾅｶﾀﾞ","pref":"山形県","city":"鶴岡市","address":"中田"},
{"zip_code":"9971135","kana_pref":"ﾔﾏｶﾞﾀｹﾝ","kana_city":"ﾂﾙｵｶｼ","kana_address":"ﾅｶﾀﾞﾃ","pref":"山形県","city":"鶴岡市","address":"中楯"},
{"zip_code":"9970056","kana_pref":"ﾔﾏｶﾞﾀｹﾝ","kana_city":"ﾂﾙｵｶｼ","kana_address":"ﾅｶﾉｷｮｳﾃﾞﾝ","pref":"山形県","city":"鶴岡市","address":"中野京田"},
{"zip_code":"9970401","kana_pref":"ﾔﾏｶﾞﾀｹﾝ","kana_city":"ﾂﾙｵｶｼ","kana_address":"ﾅｶﾉｼﾝﾃﾞﾝ","pref":"山形県","city":"鶴岡市","address":"中野新田"},
{"zip_code":"9970362","kana_pref":"ﾔﾏｶﾞﾀｹﾝ","kana_city":"ﾂﾙｵｶｼ","kana_address":"ﾅｶﾊｼ","pref":"山形県","city":"鶴岡市","address":"中橋"},
{"zip_code":"9970413","kana_pref":"ﾔﾏｶﾞﾀｹﾝ","kana_city":"ﾂﾙｵｶｼ","kana_address":"ﾅﾒｻﾞﾜ","pref":"山形県","city":"鶴岡市","address":"行沢"},
{"zip_code":"9971113","kana_pref":"ﾔﾏｶﾞﾀｹﾝ","kana_city":"ﾂﾙｵｶｼ","kana_address":"ﾅｶﾞｻｷ","pref":"山形県","city":"鶴岡市","address":"長崎"},
{"zip_code":"9970042","kana_pref":"ﾔﾏｶﾞﾀｹﾝ","kana_city":"ﾂﾙｵｶｼ","kana_address":"ﾆｲｶﾞﾀﾏﾁ","pref":"山形県","city":"鶴岡市","address":"新形町"},
{"zip_code":"9970332","kana_pref":"ﾔﾏｶﾞﾀｹﾝ","kana_city":"ﾂﾙｵｶｼ","kana_address":"ﾆｼｱﾗﾔ","pref":"山形県","city":"鶴岡市","address":"西荒屋"},
{"zip_code":"9970323","kana_pref":"ﾔﾏｶﾞﾀｹﾝ","kana_city":"ﾂﾙｵｶｼ","kana_address":"ﾆｼｶﾀﾔ","pref":"山形県","city":"鶴岡市","address":"西片屋"},
{"zip_code":"9970031","kana_pref":"ﾔﾏｶﾞﾀｹﾝ","kana_city":"ﾂﾙｵｶｼ","kana_address":"ﾆｼｷﾏﾁ","pref":"山形県","city":"鶴岡市","address":"錦町"},
{"zip_code":"9970055","kana_pref":"ﾔﾏｶﾞﾀｹﾝ","kana_city":"ﾂﾙｵｶｼ","kana_address":"ﾆｼｷｮｳﾃﾞﾝ","pref":"山形県","city":"鶴岡市","address":"西京田"},
{"zip_code":"9970045","kana_pref":"ﾔﾏｶﾞﾀｹﾝ","kana_city":"ﾂﾙｵｶｼ","kana_address":"ﾆｼｼﾝｻｲﾏﾁ","pref":"山形県","city":"鶴岡市","address":"西新斎町"},
{"zip_code":"9971112","kana_pref":"ﾔﾏｶﾞﾀｹﾝ","kana_city":"ﾂﾙｵｶｼ","kana_address":"ﾆｼﾇﾏ","pref":"山形県","city":"鶴岡市","address":"西沼"},
{"zip_code":"9970851","kana_pref":"ﾔﾏｶﾞﾀｹﾝ","kana_city":"ﾂﾙｵｶｼ","kana_address":"ﾇﾉﾒ","pref":"山形県","city":"鶴岡市","address":"布目"},
{"zip_code":"9970819","kana_pref":"ﾔﾏｶﾞﾀｹﾝ","kana_city":"ﾂﾙｵｶｼ","kana_address":"ﾉｿﾞﾐﾏﾁ","pref":"山形県","city":"鶴岡市","address":"のぞみ町"},
{"zip_code":"9970167","kana_pref":"ﾔﾏｶﾞﾀｹﾝ","kana_city":"ﾂﾙｵｶｼ","kana_address":"ﾊｸﾞﾛﾏﾁｱｶｶﾞﾜ","pref":"山形県","city":"鶴岡市","address":"羽黒町赤川"},
{"zip_code":"9970141","kana_pref":"ﾔﾏｶﾞﾀｹﾝ","kana_city":"ﾂﾙｵｶｼ","kana_address":"ﾊｸﾞﾛﾏﾁｱﾗｶﾜ","pref":"山形県","city":"鶴岡市","address":"羽黒町荒川"},
{"zip_code":"9970155","kana_pref":"ﾔﾏｶﾞﾀｹﾝ","kana_city":"ﾂﾙｵｶｼ","kana_address":"ﾊｸﾞﾛﾏﾁｲｼﾉｼﾝﾃﾞﾝ","pref":"山形県","city":"鶴岡市","address":"羽黒町石野新田"},
{"zip_code":"9970123","kana_pref":"ﾔﾏｶﾞﾀｹﾝ","kana_city":"ﾂﾙｵｶｼ","kana_address":"ﾊｸﾞﾛﾏﾁｲﾁﾉﾔﾏ","pref":"山形県","city":"鶴岡市","address":"羽黒町市野山"},
{"zip_code":"9970152","kana_pref":"ﾔﾏｶﾞﾀｹﾝ","kana_city":"ﾂﾙｵｶｼ","kana_address":"ﾊｸﾞﾛﾏﾁｲﾉﾏﾀｼﾝﾃﾞﾝ","pref":"山形県","city":"鶴岡市","address":"羽黒町猪俣新田"},
{"zip_code":"9970157","kana_pref":"ﾔﾏｶﾞﾀｹﾝ","kana_city":"ﾂﾙｵｶｼ","kana_address":"ﾊｸﾞﾛﾏﾁｳｼﾛﾀﾞ","pref":"山形県","city":"鶴岡市","address":"羽黒町後田"},
{"zip_code":"9970142","kana_pref":"ﾔﾏｶﾞﾀｹﾝ","kana_city":"ﾂﾙｵｶｼ","kana_address":"ﾊｸﾞﾛﾏﾁｳﾜﾉｼﾝﾃﾞﾝ","pref":"山形県","city":"鶴岡市","address":"羽黒町上野新田"},
{"zip_code":"9970122","kana_pref":"ﾔﾏｶﾞﾀｹﾝ","kana_city":"ﾂﾙｵｶｼ","kana_address":"ﾊｸﾞﾛﾏﾁｵｵｸﾞﾁ","pref":"山形県","city":"鶴岡市","address":"羽黒町大口"},
{"zip_code":"9970161","kana_pref":"ﾔﾏｶﾞﾀｹﾝ","kana_city":"ﾂﾙｵｶｼ","kana_address":"ﾊｸﾞﾛﾏﾁｵｻｴｸﾞﾁ","pref":"山形県","city":"鶴岡市","address":"羽黒町押口"},
{"zip_code":"9970108","kana_pref":"ﾔﾏｶﾞﾀｹﾝ","kana_city":"ﾂﾙｵｶｼ","kana_address":"ﾊｸﾞﾛﾏﾁｶﾅﾓﾘﾒ","pref":"山形県","city":"鶴岡市","address":"羽黒町金森目"},
{"zip_code":"9970163","kana_pref":"ﾔﾏｶﾞﾀｹﾝ","kana_city":"ﾂﾙｵｶｼ","kana_address":"ﾊｸﾞﾛﾏﾁｶﾘﾔﾉﾒ","pref":"山形県","city":"鶴岡市","address":"羽黒町狩谷野目"},
{"zip_code":"9970131","kana_pref":"ﾔﾏｶﾞﾀｹﾝ","kana_city":"ﾂﾙｵｶｼ","kana_address":"ﾊｸﾞﾛﾏﾁｶﾜﾀﾞｲ","pref":"山形県","city":"鶴岡市","address":"羽黒町川代"},
{"zip_code":"9970105","kana_pref":"ﾔﾏｶﾞﾀｹﾝ","kana_city":"ﾂﾙｵｶｼ","kana_address":"ﾊｸﾞﾛﾏﾁｶﾜﾂﾗ","pref":"山形県","city":"鶴岡市","address":"羽黒町川行"},
{"zip_code":"9970151","kana_pref":"ﾔﾏｶﾞﾀｹﾝ","kana_city":"ﾂﾙｵｶｼ","kana_address":"ﾊｸﾞﾛﾏﾁｸﾛｾ","pref":"山形県","city":"鶴岡市","address":"羽黒町黒瀬"},
{"zip_code":"9970107","kana_pref":"ﾔﾏｶﾞﾀｹﾝ","kana_city":"ﾂﾙｵｶｼ","kana_address":"ﾊｸﾞﾛﾏﾁｺﾏｽｶﾞﾜ","pref":"山形県","city":"鶴岡市","address":"羽黒町小増川"},
{"zip_code":"9970104","kana_pref":"ﾔﾏｶﾞﾀｹﾝ","kana_city":"ﾂﾙｵｶｼ","kana_address":"ﾊｸﾞﾛﾏﾁｻｶﾉｼﾀ","pref":"山形県","city":"鶴岡市","address":"羽黒町坂ノ下"},
{"zip_code":"9970127","kana_pref":"ﾔﾏｶﾞﾀｹﾝ","kana_city":"ﾂﾙｵｶｼ","kana_address":"ﾊｸﾞﾛﾏﾁｼﾞｭｳﾓﾝｼﾞ","pref":"山形県","city":"鶴岡市","address":"羽黒町十文字"},
{"zip_code":"9970125","kana_pref":"ﾔﾏｶﾞﾀｹﾝ","kana_city":"ﾂﾙｵｶｼ","kana_address":"ﾊｸﾞﾛﾏﾁｾﾝﾄﾞｳ","pref":"山形県","city":"鶴岡市","address":"羽黒町仙道"},
{"zip_code":"9970106","kana_pref":"ﾔﾏｶﾞﾀｹﾝ","kana_city":"ﾂﾙｵｶｼ","kana_address":"ﾊｸﾞﾛﾏﾁｿﾒｺｳﾔ","pref":"山形県","city":"鶴岡市","address":"羽黒町染興屋"},
{"zip_code":"9970153","kana_pref":"ﾔﾏｶﾞﾀｹﾝ","kana_city":"ﾂﾙｵｶｼ","kana_address":"ﾊｸﾞﾛﾏﾁﾀｶﾃﾞﾗ","pref":"山形県","city":"鶴岡市","address":"羽黒町高寺"},
{"zip_code":"9970121","kana_pref":"ﾔﾏｶﾞﾀｹﾝ","kana_city":"ﾂﾙｵｶｼ","kana_address":"ﾊｸﾞﾛﾏﾁﾀﾏｶﾞﾜ","pref":"山形県","city":"鶴岡市","address":"羽黒町玉川"},
{"zip_code":"9970211","kana_pref":"ﾔﾏｶﾞﾀｹﾝ","kana_city":"ﾂﾙｵｶｼ","kana_address":"ﾊｸﾞﾛﾏﾁﾄｳｹﾞ","pref":"山形県","city":"鶴岡市","address":"羽黒町手向"},
{"zip_code":"9970103","kana_pref":"ﾔﾏｶﾞﾀｹﾝ","kana_city":"ﾂﾙｵｶｼ","kana_address":"ﾊｸﾞﾛﾏﾁﾄﾉ","pref":"山形県","city":"鶴岡市","address":"羽黒町戸野"},
{"zip_code":"9970165","kana_pref":"ﾔﾏｶﾞﾀｹﾝ","kana_city":"ﾂﾙｵｶｼ","kana_address":"ﾊｸﾞﾛﾏﾁﾄﾐｻﾞﾜ","pref":"山形県","city":"鶴岡市","address":"羽黒町富沢"},
{"zip_code":"9970102","kana_pref":"ﾔﾏｶﾞﾀｹﾝ","kana_city":"ﾂﾙｵｶｼ","kana_address":"ﾊｸﾞﾛﾏﾁﾅｶｻﾞﾄ","pref":"山形県","city":"鶴岡市","address":"羽黒町中里"},
{"zip_code":"9970126","kana_pref":"ﾔﾏｶﾞﾀｹﾝ","kana_city":"ﾂﾙｵｶｼ","kana_address":"ﾊｸﾞﾛﾏﾁﾉｱﾗﾏﾁ","pref":"山形県","city":"鶴岡市","address":"羽黒町野荒町"},
{"zip_code":"9970143","kana_pref":"ﾔﾏｶﾞﾀｹﾝ","kana_city":"ﾂﾙｵｶｼ","kana_address":"ﾊｸﾞﾛﾏﾁﾉﾀﾞ","pref":"山形県","city":"鶴岡市","address":"羽黒町野田"},
{"zip_code":"9970164","kana_pref":"ﾔﾏｶﾞﾀｹﾝ","kana_city":"ﾂﾙｵｶｼ","kana_address":"ﾊｸﾞﾛﾏﾁﾋﾙﾀﾞ","pref":"山形県","city":"鶴岡市","address":"羽黒町昼田"},
{"zip_code":"9970162","kana_pref":"ﾔﾏｶﾞﾀｹﾝ","kana_city":"ﾂﾙｵｶｼ","kana_address":"ﾊｸﾞﾛﾏﾁﾎｿﾔ","pref":"山形県","city":"鶴岡市","address":"羽黒町細谷"},
{"zip_code":"9970124","kana_pref":"ﾔﾏｶﾞﾀｹﾝ","kana_city":"ﾂﾙｵｶｼ","kana_address":"ﾊｸﾞﾛﾏﾁﾏｽｶﾜｼﾝﾃﾞﾝ","pref":"山形県","city":"鶴岡市","address":"羽黒町増川新田"},
{"zip_code":"9970101","kana_pref":"ﾔﾏｶﾞﾀｹﾝ","kana_city":"ﾂﾙｵｶｼ","kana_address":"ﾊｸﾞﾛﾏﾁﾏﾁﾔ","pref":"山形県","city":"鶴岡市","address":"羽黒町町屋"},
{"zip_code":"9970156","kana_pref":"ﾔﾏｶﾞﾀｹﾝ","kana_city":"ﾂﾙｵｶｼ","kana_address":"ﾊｸﾞﾛﾏﾁﾏﾂｵ","pref":"山形県","city":"鶴岡市","address":"羽黒町松尾"},
{"zip_code":"9970158","kana_pref":"ﾔﾏｶﾞﾀｹﾝ","kana_city":"ﾂﾙｵｶｼ","kana_address":"ﾊｸﾞﾛﾏﾁﾏﾂｶﾞｵｶ","pref":"山形県","city":"鶴岡市","address":"羽黒町松ケ岡"},
{"zip_code":"9970154","kana_pref":"ﾔﾏｶﾞﾀｹﾝ","kana_city":"ﾂﾙｵｶｼ","kana_address":"ﾊｸﾞﾛﾏﾁﾏﾜﾀﾘﾉｳﾁｼﾓ","pref":"山形県","city":"鶴岡市","address":"羽黒町馬渡ノ内下"},
{"zip_code":"9970166","kana_pref":"ﾔﾏｶﾞﾀｹﾝ","kana_city":"ﾂﾙｵｶｼ","kana_address":"ﾊｸﾞﾛﾏﾁﾐﾂﾊｼ","pref":"山形県","city":"鶴岡市","address":"羽黒町三ツ橋"},
{"zip_code":"9970035","kana_pref":"ﾔﾏｶﾞﾀｹﾝ","kana_city":"ﾂﾙｵｶｼ","kana_address":"ﾊﾞﾊﾞﾁｮｳ","pref":"山形県","city":"鶴岡市","address":"馬場町"},
{"zip_code":"9970058","kana_pref":"ﾔﾏｶﾞﾀｹﾝ","kana_city":"ﾂﾙｵｶｼ","kana_address":"ﾊﾔｼｻﾞｷ","pref":"山形県","city":"鶴岡市","address":"林崎"},
{"zip_code":"9971111","kana_pref":"ﾔﾏｶﾞﾀｹﾝ","kana_city":"ﾂﾙｵｶｼ","kana_address":"ﾊﾞﾗｼﾝﾃﾞﾝ","pref":"山形県","city":"鶴岡市","address":"茨新田"},
{"zip_code":"9970002","kana_pref":"ﾔﾏｶﾞﾀｹﾝ","kana_city":"ﾂﾙｵｶｼ","kana_address":"ﾊﾘﾏ","pref":"山形県","city":"鶴岡市","address":"播磨"},
{"zip_code":"9970835","kana_pref":"ﾔﾏｶﾞﾀｹﾝ","kana_city":"ﾂﾙｵｶｼ","kana_address":"ﾊﾞﾝﾃﾞﾝ","pref":"山形県","city":"鶴岡市","address":"番田"},
{"zip_code":"9970824","kana_pref":"ﾔﾏｶﾞﾀｹﾝ","kana_city":"ﾂﾙｵｶｼ","kana_address":"ﾋｴ","pref":"山形県","city":"鶴岡市","address":"日枝"},
{"zip_code":"9970344","kana_pref":"ﾔﾏｶﾞﾀｹﾝ","kana_city":"ﾂﾙｵｶｼ","kana_address":"ﾋｶﾞｼｱﾗﾔ","pref":"山形県","city":"鶴岡市","address":"東荒屋"},
{"zip_code":"9970402","kana_pref":"ﾔﾏｶﾞﾀｹﾝ","kana_city":"ﾂﾙｵｶｼ","kana_address":"ﾋｶﾞｼｲﾜﾓﾄ","pref":"山形県","city":"鶴岡市","address":"東岩本"},
{"zip_code":"9970043","kana_pref":"ﾔﾏｶﾞﾀｹﾝ","kana_city":"ﾂﾙｵｶｼ","kana_address":"ﾋｶﾞｼｼﾝｻｲﾏﾁ","pref":"山形県","city":"鶴岡市","address":"東新斎町"},
{"zip_code":"9970801","kana_pref":"ﾔﾏｶﾞﾀｹﾝ","kana_city":"ﾂﾙｵｶｼ","kana_address":"ﾋｶﾞｼﾊﾗﾏﾁ","pref":"山形県","city":"鶴岡市","address":"東原町"},
{"zip_code":"9970756","kana_pref":"ﾔﾏｶﾞﾀｹﾝ","kana_city":"ﾂﾙｵｶｼ","kana_address":"ﾋｶﾞｼﾒ","pref":"山形県","city":"鶴岡市","address":"東目"},
{"zip_code":"9971131","kana_pref":"ﾔﾏｶﾞﾀｹﾝ","kana_city":"ﾂﾙｵｶｼ","kana_address":"ﾋｼﾂﾞ","pref":"山形県","city":"鶴岡市","address":"菱津"},
{"zip_code":"9970025","kana_pref":"ﾔﾏｶﾞﾀｹﾝ","kana_city":"ﾂﾙｵｶｼ","kana_address":"ﾋﾉﾃﾞ","pref":"山形県","city":"鶴岡市","address":"日出"},
{"zip_code":"9970029","kana_pref":"ﾔﾏｶﾞﾀｹﾝ","kana_city":"ﾂﾙｵｶｼ","kana_address":"ﾋﾖｼﾏﾁ","pref":"山形県","city":"鶴岡市","address":"日吉町"},
{"zip_code":"9970016","kana_pref":"ﾔﾏｶﾞﾀｹﾝ","kana_city":"ﾂﾙｵｶｼ","kana_address":"ﾋﾖﾘﾀﾞﾏﾁ","pref":"山形県","city":"鶴岡市","address":"日和田町"},
{"zip_code":"9970008","kana_pref":"ﾔﾏｶﾞﾀｹﾝ","kana_city":"ﾂﾙｵｶｼ","kana_address":"ﾋﾗﾀ","pref":"山形県","city":"鶴岡市","address":"平田"},
{"zip_code":"9970006","kana_pref":"ﾔﾏｶﾞﾀｹﾝ","kana_city":"ﾂﾙｵｶｼ","kana_address":"ﾌｸﾀﾞ","pref":"山形県","city":"鶴岡市","address":"福田"},
{"zip_code":"9970751","kana_pref":"ﾔﾏｶﾞﾀｹﾝ","kana_city":"ﾂﾙｵｶｼ","kana_address":"ﾌｼﾞｻﾜ","pref":"山形県","city":"鶴岡市","address":"藤沢"},
{"zip_code":"9970822","kana_pref":"ﾔﾏｶﾞﾀｹﾝ","kana_city":"ﾂﾙｵｶｼ","kana_address":"ﾌﾀﾊﾞﾁｮｳ","pref":"山形県","city":"鶴岡市","address":"双葉町"},
{"zip_code":"9970816","kana_pref":"ﾔﾏｶﾞﾀｹﾝ","kana_city":"ﾂﾙｵｶｼ","kana_address":"ﾌﾐｿﾞﾉﾏﾁ","pref":"山形県","city":"鶴岡市","address":"文園町"},
{"zip_code":"9970048","kana_pref":"ﾔﾏｶﾞﾀｹﾝ","kana_city":"ﾂﾙｵｶｼ","kana_address":"ﾍｲｷｮｳﾃﾞﾝ","pref":"山形県","city":"鶴岡市","address":"平京田"},
{"zip_code":"9971156","kana_pref":"ﾔﾏｶﾞﾀｹﾝ","kana_city":"ﾂﾙｵｶｼ","kana_address":"ﾍｲｾｲﾏﾁ","pref":"山形県","city":"鶴岡市","address":"平成町"},
{"zip_code":"9970003","kana_pref":"ﾔﾏｶﾞﾀｹﾝ","kana_city":"ﾂﾙｵｶｼ","kana_address":"ﾎｳﾀﾞｼ","pref":"山形県","city":"鶴岡市","address":"文下"},
{"zip_code":"9970321","kana_pref":"ﾔﾏｶﾞﾀｹﾝ","kana_city":"ﾂﾙｵｶｼ","kana_address":"ﾎｳﾔ","pref":"山形県","city":"鶴岡市","address":"宝谷"},
{"zip_code":"9970862","kana_pref":"ﾔﾏｶﾞﾀｹﾝ","kana_city":"ﾂﾙｵｶｼ","kana_address":"ﾎﾅﾐﾏﾁ","pref":"山形県","city":"鶴岡市","address":"ほなみ町"},
{"zip_code":"9970412","kana_pref":"ﾔﾏｶﾞﾀｹﾝ","kana_city":"ﾂﾙｵｶｼ","kana_address":"ﾎﾝｺﾞｳ","pref":"山形県","city":"鶴岡市","address":"本郷"},
{"zip_code":"9970034","kana_pref":"ﾔﾏｶﾞﾀｹﾝ","kana_city":"ﾂﾙｵｶｼ","kana_address":"ﾎﾝﾁｮｳ","pref":"山形県","city":"鶴岡市","address":"本町"},
{"zip_code":"9970004","kana_pref":"ﾔﾏｶﾞﾀｹﾝ","kana_city":"ﾂﾙｵｶｼ","kana_address":"ﾎﾝﾃﾞﾝ","pref":"山形県","city":"鶴岡市","address":"本田"},
{"zip_code":"9970626","kana_pref":"ﾔﾏｶﾞﾀｹﾝ","kana_city":"ﾂﾙｵｶｼ","kana_address":"ﾏﾂｻﾞﾜ","pref":"山形県","city":"鶴岡市","address":"松沢"},
{"zip_code":"9970322","kana_pref":"ﾔﾏｶﾞﾀｹﾝ","kana_city":"ﾂﾙｵｶｼ","kana_address":"ﾏﾂﾈ","pref":"山形県","city":"鶴岡市","address":"松根"},
{"zip_code":"9970334","kana_pref":"ﾔﾏｶﾞﾀｹﾝ","kana_city":"ﾂﾙｵｶｼ","kana_address":"ﾏﾙｵｶ","pref":"山形県","city":"鶴岡市","address":"丸岡"},
{"zip_code":"9970301","kana_pref":"ﾔﾏｶﾞﾀｹﾝ","kana_city":"ﾂﾙｵｶｼ","kana_address":"ﾏﾜﾀﾘ","pref":"山形県","city":"鶴岡市","address":"馬渡"},
{"zip_code":"9970857","kana_pref":"ﾔﾏｶﾞﾀｹﾝ","kana_city":"ﾂﾙｵｶｼ","kana_address":"ﾐｻｷﾏﾁ","pref":"山形県","city":"鶴岡市","address":"美咲町"},
{"zip_code":"9970837","kana_pref":"ﾔﾏｶﾞﾀｹﾝ","kana_city":"ﾂﾙｵｶｼ","kana_address":"ﾐﾁﾀﾞﾏﾁ","pref":"山形県","city":"鶴岡市","address":"道田町"},
{"zip_code":"9970046","kana_pref":"ﾔﾏｶﾞﾀｹﾝ","kana_city":"ﾂﾙｵｶｼ","kana_address":"ﾐﾄﾞﾘﾏﾁ","pref":"山形県","city":"鶴岡市","address":"みどり町"},
{"zip_code":"9970826","kana_pref":"ﾔﾏｶﾞﾀｹﾝ","kana_city":"ﾂﾙｵｶｼ","kana_address":"ﾐﾊﾗﾏﾁ","pref":"山形県","city":"鶴岡市","address":"美原町"},
{"zip_code":"9971202","kana_pref":"ﾔﾏｶﾞﾀｹﾝ","kana_city":"ﾂﾙｵｶｼ","kana_address":"ﾐﾔｻﾞﾜ","pref":"山形県","city":"鶴岡市","address":"宮沢"},
{"zip_code":"9970818","kana_pref":"ﾔﾏｶﾞﾀｹﾝ","kana_city":"ﾂﾙｵｶｼ","kana_address":"ﾐﾜﾏﾁ","pref":"山形県","city":"鶴岡市","address":"三和町"},
{"zip_code":"9970361","kana_pref":"ﾔﾏｶﾞﾀｹﾝ","kana_city":"ﾂﾙｵｶｼ","kana_address":"ﾐﾝﾃﾞﾝ","pref":"山形県","city":"鶴岡市","address":"民田"},
{"zip_code":"9970817","kana_pref":"ﾔﾏｶﾞﾀｹﾝ","kana_city":"ﾂﾙｵｶｼ","kana_address":"ﾑﾂﾐﾏﾁ","pref":"山形県","city":"鶴岡市","address":"睦町"},
{"zip_code":"9970844","kana_pref":"ﾔﾏｶﾞﾀｹﾝ","kana_city":"ﾂﾙｵｶｼ","kana_address":"ﾓﾘｶﾀ","pref":"山形県","city":"鶴岡市","address":"森片"},
{"zip_code":"9970807","kana_pref":"ﾔﾏｶﾞﾀｹﾝ","kana_city":"ﾂﾙｵｶｼ","kana_address":"ﾔﾂｺﾞｳﾔ","pref":"山形県","city":"鶴岡市","address":"八ツ興屋"},
{"zip_code":"9970833","kana_pref":"ﾔﾏｶﾞﾀｹﾝ","kana_city":"ﾂﾙｵｶｼ","kana_address":"ﾔﾅｷﾞﾀﾞ","pref":"山形県","city":"鶴岡市","address":"柳田"},
{"zip_code":"9970855","kana_pref":"ﾔﾏｶﾞﾀｹﾝ","kana_city":"ﾂﾙｵｶｼ","kana_address":"ﾔﾊﾞｾ","pref":"山形県","city":"鶴岡市","address":"矢馳"},
{"zip_code":"9970856","kana_pref":"ﾔﾏｶﾞﾀｹﾝ","kana_city":"ﾂﾙｵｶｼ","kana_address":"ﾔﾏﾀﾞ","pref":"山形県","city":"鶴岡市","address":"山田"},
{"zip_code":"9970752","kana_pref":"ﾔﾏｶﾞﾀｹﾝ","kana_city":"ﾂﾙｵｶｼ","kana_address":"ﾕﾀｶﾞﾜ","pref":"山形県","city":"鶴岡市","address":"湯田川"},
{"zip_code":"9970001","kana_pref":"ﾔﾏｶﾞﾀｹﾝ","kana_city":"ﾂﾙｵｶｼ","kana_address":"ﾕﾉｻﾜ","pref":"山形県","city":"鶴岡市","address":"湯野沢"},
{"zip_code":"9971201","kana_pref":"ﾔﾏｶﾞﾀｹﾝ","kana_city":"ﾂﾙｵｶｼ","kana_address":"ﾕﾉﾊﾏ","pref":"山形県","city":"鶴岡市","address":"湯野浜"},
{"zip_code":"9970827","kana_pref":"ﾔﾏｶﾞﾀｹﾝ","kana_city":"ﾂﾙｵｶｼ","kana_address":"ﾖｳｺｳﾏﾁ","pref":"山形県","city":"鶴岡市","address":"陽光町"},
{"zip_code":"9970010","kana_pref":"ﾔﾏｶﾞﾀｹﾝ","kana_city":"ﾂﾙｵｶｼ","kana_address":"ﾖｹｲﾏﾁ","pref":"山形県","city":"鶴岡市","address":"余慶町"},
{"zip_code":"9970838","kana_pref":"ﾔﾏｶﾞﾀｹﾝ","kana_city":"ﾂﾙｵｶｼ","kana_address":"ﾖﾄﾞｶﾜﾏﾁ","pref":"山形県","city":"鶴岡市","address":"淀川町"},
{"zip_code":"9970037","kana_pref":"ﾔﾏｶﾞﾀｹﾝ","kana_city":"ﾂﾙｵｶｼ","kana_address":"ﾜｶﾊﾞﾏﾁ","pref":"山形県","city":"鶴岡市","address":"若葉町"},
{"zip_code":"9971300","kana_pref":"ﾔﾏｶﾞﾀｹﾝ","kana_city":"ﾋｶﾞｼﾀｶﾞﾜｸﾞﾝﾐｶﾜﾏﾁ","kana_address":"","pref":"山形県","city":"東田川郡三川町","address":""},
{"zip_code":"9971311","kana_pref":"ﾔﾏｶﾞﾀｹﾝ","kana_city":"ﾋｶﾞｼﾀｶﾞﾜｸﾞﾝﾐｶﾜﾏﾁ","kana_address":"ｱｵﾔﾏ","pref":"山形県","city":"東田川郡三川町","address":"青山"},
{"zip_code":"9971316","kana_pref":"ﾔﾏｶﾞﾀｹﾝ","kana_city":"ﾋｶﾞｼﾀｶﾞﾜｸﾞﾝﾐｶﾜﾏﾁ","kana_address":"ｲﾉｺ","pref":"山形県","city":"東田川郡三川町","address":"猪子"},
{"zip_code":"9971321","kana_pref":"ﾔﾏｶﾞﾀｹﾝ","kana_city":"ﾋｶﾞｼﾀｶﾞﾜｸﾞﾝﾐｶﾜﾏﾁ","kana_address":"ｵｼｷﾘｼﾝﾃﾞﾝ","pref":"山形県","city":"東田川郡三川町","address":"押切新田"},
{"zip_code":"9971313","kana_pref":"ﾔﾏｶﾞﾀｹﾝ","kana_city":"ﾋｶﾞｼﾀｶﾞﾜｸﾞﾝﾐｶﾜﾏﾁ","kana_address":"ｶｸﾀﾌﾀｸﾁ","pref":"山形県","city":"東田川郡三川町","address":"角田二口"},
{"zip_code":"9971336","kana_pref":"ﾔﾏｶﾞﾀｹﾝ","kana_city":"ﾋｶﾞｼﾀｶﾞﾜｸﾞﾝﾐｶﾜﾏﾁ","kana_address":"ｶﾄｳ","pref":"山形県","city":"東田川郡三川町","address":"加藤"},
{"zip_code":"9971315","kana_pref":"ﾔﾏｶﾞﾀｹﾝ","kana_city":"ﾋｶﾞｼﾀｶﾞﾜｸﾞﾝﾐｶﾜﾏﾁ","kana_address":"ｶﾝﾊﾞﾅ","pref":"山形県","city":"東田川郡三川町","address":"神花"},
{"zip_code":"9971337","kana_pref":"ﾔﾏｶﾞﾀｹﾝ","kana_city":"ﾋｶﾞｼﾀｶﾞﾜｸﾞﾝﾐｶﾜﾏﾁ","kana_address":"ｼｮｳｼｬｸ","pref":"山形県","city":"東田川郡三川町","address":"小尺"},
{"zip_code":"9971331","kana_pref":"ﾔﾏｶﾞﾀｹﾝ","kana_city":"ﾋｶﾞｼﾀｶﾞﾜｸﾞﾝﾐｶﾜﾏﾁ","kana_address":"ｽｹｶﾞﾜ","pref":"山形県","city":"東田川郡三川町","address":"助川"},
{"zip_code":"9971312","kana_pref":"ﾔﾏｶﾞﾀｹﾝ","kana_city":"ﾋｶﾞｼﾀｶﾞﾜｸﾞﾝﾐｶﾜﾏﾁ","kana_address":"ｾﾞﾝﾅﾐ","pref":"山形県","city":"東田川郡三川町","address":"善阿弥"},
{"zip_code":"9971334","kana_pref":"ﾔﾏｶﾞﾀｹﾝ","kana_city":"ﾋｶﾞｼﾀｶﾞﾜｸﾞﾝﾐｶﾜﾏﾁ","kana_address":"ﾀｹﾊﾗﾀﾞ","pref":"山形県","city":"東田川郡三川町","address":"竹原田"},
{"zip_code":"9971332","kana_pref":"ﾔﾏｶﾞﾀｹﾝ","kana_city":"ﾋｶﾞｼﾀｶﾞﾜｸﾞﾝﾐｶﾜﾏﾁ","kana_address":"ﾂﾂﾐﾉ","pref":"山形県","city":"東田川郡三川町","address":"堤野"},
{"zip_code":"9971322","kana_pref":"ﾔﾏｶﾞﾀｹﾝ","kana_city":"ﾋｶﾞｼﾀｶﾞﾜｸﾞﾝﾐｶﾜﾏﾁ","kana_address":"ﾄﾞｸﾞﾁ","pref":"山形県","city":"東田川郡三川町","address":"土口"},
{"zip_code":"9971317","kana_pref":"ﾔﾏｶﾞﾀｹﾝ","kana_city":"ﾋｶﾞｼﾀｶﾞﾜｸﾞﾝﾐｶﾜﾏﾁ","kana_address":"ﾅﾘﾀｼﾝﾃﾞﾝ","pref":"山形県","city":"東田川郡三川町","address":"成田新田"},
{"zip_code":"9971314","kana_pref":"ﾔﾏｶﾞﾀｹﾝ","kana_city":"ﾋｶﾞｼﾀｶﾞﾜｸﾞﾝﾐｶﾜﾏﾁ","kana_address":"ﾋｶﾞｼﾇﾏ","pref":"山形県","city":"東田川郡三川町","address":"東沼"},
{"zip_code":"9971335","kana_pref":"ﾔﾏｶﾞﾀｹﾝ","kana_city":"ﾋｶﾞｼﾀｶﾞﾜｸﾞﾝﾐｶﾜﾏﾁ","kana_address":"ﾋｼﾇﾏ","pref":"山形県","city":"東田川郡三川町","address":"菱沼"},
{"zip_code":"9971333","kana_pref":"ﾔﾏｶﾞﾀｹﾝ","kana_city":"ﾋｶﾞｼﾀｶﾞﾜｸﾞﾝﾐｶﾜﾏﾁ","kana_address":"ﾖｺｳﾁ","pref":"山形県","city":"東田川郡三川町","address":"横内"},
{"zip_code":"9971338","kana_pref":"ﾔﾏｶﾞﾀｹﾝ","kana_city":"ﾋｶﾞｼﾀｶﾞﾜｸﾞﾝﾐｶﾜﾏﾁ","kana_address":"ﾖｺｶﾜ","pref":"山形県","city":"東田川郡三川町","address":"横川"},
{"zip_code":"9971339","kana_pref":"ﾔﾏｶﾞﾀｹﾝ","kana_city":"ﾋｶﾞｼﾀｶﾞﾜｸﾞﾝﾐｶﾜﾏﾁ","kana_address":"ﾖｺｶﾜｼﾝﾃﾞﾝ","pref":"山形県","city":"東田川郡三川町","address":"横川新田"},
{"zip_code":"9971301","kana_pref":"ﾔﾏｶﾞﾀｹﾝ","kana_city":"ﾋｶﾞｼﾀｶﾞﾜｸﾞﾝﾐｶﾜﾏﾁ","kana_address":"ﾖｺﾔﾏ","pref":"山形県","city":"東田川郡三川町","address":"横山"}]}