{"zip_code":[
{"zip_code":"9980000","kana_pref":"ﾔﾏｶﾞﾀｹﾝ","kana_city":"ｻｶﾀｼ","kana_address":"","pref":"山形県","city":"酒田市","address":""},
{"zip_code":"9980032","kana_pref":"ﾔﾏｶﾞﾀｹﾝ","kana_city":"ｻｶﾀｼ","kana_address":"ｱｲｵｲﾁｮｳ","pref":"山形県","city":"酒田市","address":"相生町"},
{"zip_code":"9980828","kana_pref":"ﾔﾏｶﾞﾀｹﾝ","kana_city":"ｻｶﾀｼ","kana_address":"ｱｷﾎﾁｮｳ","pref":"山形県","city":"酒田市","address":"あきほ町"},
{"zip_code":"9980862","kana_pref":"ﾔﾏｶﾞﾀｹﾝ","kana_city":"ｻｶﾀｼ","kana_address":"ｱｹﾎﾞﾉﾁｮｳ","pref":"山形県","city":"酒田市","address":"曙町"},
{"zip_code":"9980021","kana_pref":"ﾔﾏｶﾞﾀｹﾝ","kana_city":"ｻｶﾀｼ","kana_address":"ｱｻﾋｼﾝﾏﾁ","pref":"山形県","city":"酒田市","address":"旭新町"},
{"zip_code":"9980875","kana_pref":"ﾔﾏｶﾞﾀｹﾝ","kana_city":"ｻｶﾀｼ","kana_address":"ｱｽﾞﾏﾁｮｳ","pref":"山形県","city":"酒田市","address":"東町"},
{"zip_code":"9980055","kana_pref":"ﾔﾏｶﾞﾀｹﾝ","kana_city":"ｻｶﾀｼ","kana_address":"ｲｲﾓﾘﾔﾏ","pref":"山形県","city":"酒田市","address":"飯森山"},
{"zip_code":"9980018","kana_pref":"ﾔﾏｶﾞﾀｹﾝ","kana_city":"ｻｶﾀｼ","kana_address":"ｲｽﾞﾐﾁｮｳ","pref":"山形県","city":"酒田市","address":"泉町"},
{"zip_code":"9980046","kana_pref":"ﾔﾏｶﾞﾀｹﾝ","kana_city":"ｻｶﾀｼ","kana_address":"ｲﾁﾊﾞﾝﾁｮｳ","pref":"山形県","city":"酒田市","address":"一番町"},
{"zip_code":"9980836","kana_pref":"ﾔﾏｶﾞﾀｹﾝ","kana_city":"ｻｶﾀｼ","kana_address":"ｲﾘﾌﾈﾁｮｳ","pref":"山形県","city":"酒田市","address":"入船町"},
{"zip_code":"9980022","kana_pref":"ﾔﾏｶﾞﾀｹﾝ","kana_city":"ｻｶﾀｼ","kana_address":"ｴｷﾋｶﾞｼ","pref":"山形県","city":"酒田市","address":"駅東"},
{"zip_code":"9980802","kana_pref":"ﾔﾏｶﾞﾀｹﾝ","kana_city":"ｻｶﾀｼ","kana_address":"ｵｲｼ","pref":"山形県","city":"酒田市","address":"生石"},
{"zip_code":"9980877","kana_pref":"ﾔﾏｶﾞﾀｹﾝ","kana_city":"ｻｶﾀｼ","kana_address":"ｵｵﾀｼﾝﾃﾞﾝ","pref":"山形県","city":"酒田市","address":"大多新田"},
{"zip_code":"9980803","kana_pref":"ﾔﾏｶﾞﾀｹﾝ","kana_city":"ｻｶﾀｼ","kana_address":"ｵｵﾂｷｼﾝﾃﾞﾝ","pref":"山形県","city":"酒田市","address":"大槻新田"},
{"zip_code":"9980816","kana_pref":"ﾔﾏｶﾞﾀｹﾝ","kana_city":"ｻｶﾀｼ","kana_address":"ｵｵﾉｼﾝﾃﾞﾝ","pref":"山形県","city":"酒田市","address":"大野新田"},
{"zip_code":"9980064","kana_pref":"ﾔﾏｶﾞﾀｹﾝ","kana_city":"ｻｶﾀｼ","kana_address":"ｵｵﾊﾏ","pref":"山形県","city":"酒田市","address":"大浜"},
{"zip_code":"9980859","kana_pref":"ﾔﾏｶﾞﾀｹﾝ","kana_city":"ｻｶﾀｼ","kana_address":"ｵｵﾏﾁ","pref":"山形県","city":"酒田市","address":"大町"},
{"zip_code":"9980822","kana_pref":"ﾔﾏｶﾞﾀｹﾝ","kana_city":"ｻｶﾀｼ","kana_address":"ｵｵﾐﾔ","pref":"山形県","city":"酒田市","address":"大宮"},
{"zip_code":"9980824","kana_pref":"ﾔﾏｶﾞﾀｹﾝ","kana_city":"ｻｶﾀｼ","kana_address":"ｵｵﾐﾔﾁｮｳ","pref":"山形県","city":"酒田市","address":"大宮町"},
{"zip_code":"9980871","kana_pref":"ﾔﾏｶﾞﾀｹﾝ","kana_city":"ｻｶﾀｼ","kana_address":"ｵｷﾞｼﾞﾏ","pref":"山形県","city":"酒田市","address":"荻島"},
{"zip_code":"9980024","kana_pref":"ﾔﾏｶﾞﾀｹﾝ","kana_city":"ｻｶﾀｼ","kana_address":"ｵﾅﾘﾁｮｳ","pref":"山形県","city":"酒田市","address":"御成町"},
{"zip_code":"9980823","kana_pref":"ﾔﾏｶﾞﾀｹﾝ","kana_city":"ｻｶﾀｼ","kana_address":"ｵﾛｼﾏﾁ","pref":"山形県","city":"酒田市","address":"卸町"},
{"zip_code":"9980818","kana_pref":"ﾔﾏｶﾞﾀｹﾝ","kana_city":"ｻｶﾀｼ","kana_address":"ｶﾞﾂﾎﾞｾﾞｷ","pref":"山形県","city":"酒田市","address":"勝保関"},
{"zip_code":"9980042","kana_pref":"ﾔﾏｶﾞﾀｹﾝ","kana_city":"ｻｶﾀｼ","kana_address":"ｶﾐﾎﾝﾁｮｳ","pref":"山形県","city":"酒田市","address":"上本町"},
{"zip_code":"9980011","kana_pref":"ﾔﾏｶﾞﾀｹﾝ","kana_city":"ｻｶﾀｼ","kana_address":"ｶﾐﾔｽﾁｮｳ","pref":"山形県","city":"酒田市","address":"上安町"},
{"zip_code":"9980842","kana_pref":"ﾔﾏｶﾞﾀｹﾝ","kana_city":"ｻｶﾀｼ","kana_address":"ｶﾒｶﾞｻｷ","pref":"山形県","city":"酒田市","address":"亀ケ崎"},
{"zip_code":"9980027","kana_pref":"ﾔﾏｶﾞﾀｹﾝ","kana_city":"ｻｶﾀｼ","kana_address":"ｷﾀｲﾏﾏﾁ","pref":"山形県","city":"酒田市","address":"北今町"},
{"zip_code":"9980028","kana_pref":"ﾔﾏｶﾞﾀｹﾝ","kana_city":"ｻｶﾀｼ","kana_address":"ｷﾀｻﾞﾄﾁｮｳ","pref":"山形県","city":"酒田市","address":"北里町"},
{"zip_code":"9980801","kana_pref":"ﾔﾏｶﾞﾀｹﾝ","kana_city":"ｻｶﾀｼ","kana_address":"ｷﾀｻﾞﾜ","pref":"山形県","city":"酒田市","address":"北沢"},
{"zip_code":"9980865","kana_pref":"ﾔﾏｶﾞﾀｹﾝ","kana_city":"ｻｶﾀｼ","kana_address":"ｷﾀｼﾝﾊﾞｼ","pref":"山形県","city":"酒田市","address":"北新橋"},
{"zip_code":"9980062","kana_pref":"ﾔﾏｶﾞﾀｹﾝ","kana_city":"ｻｶﾀｼ","kana_address":"ｷﾀｼﾝﾏﾁ","pref":"山形県","city":"酒田市","address":"北新町"},
{"zip_code":"9980016","kana_pref":"ﾔﾏｶﾞﾀｹﾝ","kana_city":"ｻｶﾀｼ","kana_address":"ｷﾀｾﾝﾆﾁﾁｮｳ","pref":"山形県","city":"酒田市","address":"北千日町"},
{"zip_code":"9980015","kana_pref":"ﾔﾏｶﾞﾀｹﾝ","kana_city":"ｻｶﾀｼ","kana_address":"ｷﾀｾﾝﾆﾁﾄﾞｳﾏｴ","pref":"山形県","city":"酒田市","address":"北千日堂前"},
{"zip_code":"9980072","kana_pref":"ﾔﾏｶﾞﾀｹﾝ","kana_city":"ｻｶﾀｼ","kana_address":"ｷﾀﾊﾏﾁｮｳ","pref":"山形県","city":"酒田市","address":"北浜町"},
{"zip_code":"9980102","kana_pref":"ﾔﾏｶﾞﾀｹﾝ","kana_city":"ｻｶﾀｼ","kana_address":"ｷｮｳﾃﾞﾝ","pref":"山形県","city":"酒田市","address":"京田"},
{"zip_code":"9980827","kana_pref":"ﾔﾏｶﾞﾀｹﾝ","kana_city":"ｻｶﾀｼ","kana_address":"ｸｻｶﾘﾔﾁ","pref":"山形県","city":"酒田市","address":"草刈谷地"},
{"zip_code":"9980817","kana_pref":"ﾔﾏｶﾞﾀｹﾝ","kana_city":"ｻｶﾀｼ","kana_address":"ｸﾏﾃｼﾞﾏ","pref":"山形県","city":"酒田市","address":"熊手島"},
{"zip_code":"9980819","kana_pref":"ﾔﾏｶﾞﾀｹﾝ","kana_city":"ｻｶﾀｼ","kana_address":"ｸﾏﾉﾀﾞ","pref":"山形県","city":"酒田市","address":"熊野田"},
{"zip_code":"9980111","kana_pref":"ﾔﾏｶﾞﾀｹﾝ","kana_city":"ｻｶﾀｼ","kana_address":"ｸﾛﾓﾘ","pref":"山形県","city":"酒田市","address":"黒森"},
{"zip_code":"9980878","kana_pref":"ﾔﾏｶﾞﾀｹﾝ","kana_city":"ｻｶﾀｼ","kana_address":"ｺｱﾗ","pref":"山形県","city":"酒田市","address":"こあら"},
{"zip_code":"9980876","kana_pref":"ﾔﾏｶﾞﾀｹﾝ","kana_city":"ｻｶﾀｼ","kana_address":"ｺｱﾗｼﾝﾃﾞﾝ","pref":"山形県","city":"酒田市","address":"古荒新田"},
{"zip_code":"9980104","kana_pref":"ﾔﾏｶﾞﾀｹﾝ","kana_city":"ｻｶﾀｼ","kana_address":"ｺｳｴｲﾁｮｳ","pref":"山形県","city":"酒田市","address":"広栄町"},
{"zip_code":"9980852","kana_pref":"ﾔﾏｶﾞﾀｹﾝ","kana_city":"ｻｶﾀｼ","kana_address":"ｺｶﾞﾈﾁｮｳ","pref":"山形県","city":"酒田市","address":"こがね町"},
{"zip_code":"9980035","kana_pref":"ﾔﾏｶﾞﾀｹﾝ","kana_city":"ｻｶﾀｼ","kana_address":"ｺﾄﾌﾞｷﾁｮｳ","pref":"山形県","city":"酒田市","address":"寿町"},
{"zip_code":"9980815","kana_pref":"ﾔﾏｶﾞﾀｹﾝ","kana_city":"ｻｶﾀｼ","kana_address":"ｺﾏｷﾞ","pref":"山形県","city":"酒田市","address":"小牧"},
{"zip_code":"9980814","kana_pref":"ﾔﾏｶﾞﾀｹﾝ","kana_city":"ｻｶﾀｼ","kana_address":"ｺﾏｷﾞｼﾝﾃﾞﾝ","pref":"山形県","city":"酒田市","address":"小牧新田"},
{"zip_code":"9980071","kana_pref":"ﾔﾏｶﾞﾀｹﾝ","kana_city":"ｻｶﾀｼ","kana_address":"ｺﾐﾅﾄﾁｮｳ","pref":"山形県","city":"酒田市","address":"古湊町"},
{"zip_code":"9980023","kana_pref":"ﾔﾏｶﾞﾀｹﾝ","kana_city":"ｻｶﾀｼ","kana_address":"ｻｲﾜｲﾁｮｳ","pref":"山形県","city":"酒田市","address":"幸町"},
{"zip_code":"9980806","kana_pref":"ﾔﾏｶﾞﾀｹﾝ","kana_city":"ｻｶﾀｼ","kana_address":"ｻｶｲｺｳﾔ","pref":"山形県","city":"酒田市","address":"境興野"},
{"zip_code":"9980003","kana_pref":"ﾔﾏｶﾞﾀｹﾝ","kana_city":"ｻｶﾀｼ","kana_address":"ｻｶｲｼﾝﾃﾞﾝ","pref":"山形県","city":"酒田市","address":"酒井新田"},
{"zip_code":"9980026","kana_pref":"ﾔﾏｶﾞﾀｹﾝ","kana_city":"ｻｶﾀｼ","kana_address":"ｻｶｴﾁｮｳ","pref":"山形県","city":"酒田市","address":"栄町"},
{"zip_code":"9980101","kana_pref":"ﾔﾏｶﾞﾀｹﾝ","kana_city":"ｻｶﾀｼ","kana_address":"ｻｶﾉﾍﾞｼﾝﾃﾞﾝ","pref":"山形県","city":"酒田市","address":"坂野辺新田"},
{"zip_code":"9980838","kana_pref":"ﾔﾏｶﾞﾀｹﾝ","kana_city":"ｻｶﾀｼ","kana_address":"ｻﾝｷｮﾏﾁ","pref":"山形県","city":"酒田市","address":"山居町"},
{"zip_code":"9980837","kana_pref":"ﾔﾏｶﾞﾀｹﾝ","kana_city":"ｻｶﾀｼ","kana_address":"ｼﾀｾ","pref":"山形県","city":"酒田市","address":"下瀬"},
{"zip_code":"9980012","kana_pref":"ﾔﾏｶﾞﾀｹﾝ","kana_city":"ｻｶﾀｼ","kana_address":"ｼﾓﾔｽﾁｮｳ","pref":"山形県","city":"酒田市","address":"下安町"},
{"zip_code":"9980114","kana_pref":"ﾔﾏｶﾞﾀｹﾝ","kana_city":"ｻｶﾀｼ","kana_address":"ｼﾞｭｳﾘﾂﾞｶ","pref":"山形県","city":"酒田市","address":"十里塚"},
{"zip_code":"9980864","kana_pref":"ﾔﾏｶﾞﾀｹﾝ","kana_city":"ｻｶﾀｼ","kana_address":"ｼﾝﾊﾞｼ","pref":"山形県","city":"酒田市","address":"新橋"},
{"zip_code":"9980854","kana_pref":"ﾔﾏｶﾞﾀｹﾝ","kana_city":"ｻｶﾀｼ","kana_address":"ｽｴﾋﾛﾁｮｳ","pref":"山形県","city":"酒田市","address":"末広町"},
{"zip_code":"9980029","kana_pref":"ﾔﾏｶﾞﾀｹﾝ","kana_city":"ｻｶﾀｼ","kana_address":"ｽﾐﾖｼﾁｮｳ","pref":"山形県","city":"酒田市","address":"住吉町"},
{"zip_code":"9980805","kana_pref":"ﾔﾏｶﾞﾀｹﾝ","kana_city":"ｻｶﾀｼ","kana_address":"ｾｷ","pref":"山形県","city":"酒田市","address":"関"},
{"zip_code":"9980843","kana_pref":"ﾔﾏｶﾞﾀｹﾝ","kana_city":"ｻｶﾀｼ","kana_address":"ｾﾝｺﾞｸﾁｮｳ","pref":"山形県","city":"酒田市","address":"千石町"},
{"zip_code":"9980014","kana_pref":"ﾔﾏｶﾞﾀｹﾝ","kana_city":"ｻｶﾀｼ","kana_address":"ｾﾝﾆﾁﾁｮｳ","pref":"山形県","city":"酒田市","address":"千日町"},
{"zip_code":"9980075","kana_pref":"ﾔﾏｶﾞﾀｹﾝ","kana_city":"ｻｶﾀｼ","kana_address":"ﾀｶｻｺﾞ","pref":"山形県","city":"酒田市","address":"高砂"},
{"zip_code":"9980051","kana_pref":"ﾔﾏｶﾞﾀｹﾝ","kana_city":"ｻｶﾀｼ","kana_address":"ﾀｶﾐﾀﾞｲ","pref":"山形県","city":"酒田市","address":"高見台"},
{"zip_code":"9980033","kana_pref":"ﾔﾏｶﾞﾀｹﾝ","kana_city":"ｻｶﾀｼ","kana_address":"ﾁｭｳｵｳﾋｶﾞｼﾏﾁ","pref":"山形県","city":"酒田市","address":"中央東町"},
{"zip_code":"9980034","kana_pref":"ﾔﾏｶﾞﾀｹﾝ","kana_city":"ｻｶﾀｼ","kana_address":"ﾁｭｳｵｳﾆｼﾏﾁ","pref":"山形県","city":"酒田市","address":"中央西町"},
{"zip_code":"9980873","kana_pref":"ﾔﾏｶﾞﾀｹﾝ","kana_city":"ｻｶﾀｼ","kana_address":"ﾂﾁｻﾞｷ","pref":"山形県","city":"酒田市","address":"土崎"},
{"zip_code":"9980835","kana_pref":"ﾔﾏｶﾞﾀｹﾝ","kana_city":"ｻｶﾀｼ","kana_address":"ﾂﾂﾐﾁｮｳ","pref":"山形県","city":"酒田市","address":"堤町"},
{"zip_code":"9980811","kana_pref":"ﾔﾏｶﾞﾀｹﾝ","kana_city":"ｻｶﾀｼ","kana_address":"ﾃｸﾞﾗﾀﾞ","pref":"山形県","city":"酒田市","address":"手蔵田"},
{"zip_code":"9980856","kana_pref":"ﾔﾏｶﾞﾀｹﾝ","kana_city":"ｻｶﾀｼ","kana_address":"ﾄｳｴｲﾁｮｳ","pref":"山形県","city":"酒田市","address":"東栄町"},
{"zip_code":"9980281","kana_pref":"ﾔﾏｶﾞﾀｹﾝ","kana_city":"ｻｶﾀｼ","kana_address":"ﾄﾋﾞｼﾏ","pref":"山形県","city":"酒田市","address":"飛島"},
{"zip_code":"9980004","kana_pref":"ﾔﾏｶﾞﾀｹﾝ","kana_city":"ｻｶﾀｼ","kana_address":"ﾄﾖｻﾄ","pref":"山形県","city":"酒田市","address":"豊里"},
{"zip_code":"9980872","kana_pref":"ﾔﾏｶﾞﾀｹﾝ","kana_city":"ｻｶﾀｼ","kana_address":"ﾅｶﾉｼﾝﾃﾞﾝ","pref":"山形県","city":"酒田市","address":"中野新田"},
{"zip_code":"9980044","kana_pref":"ﾔﾏｶﾞﾀｹﾝ","kana_city":"ｻｶﾀｼ","kana_address":"ﾅｶﾏﾁ","pref":"山形県","city":"酒田市","address":"中町"},
{"zip_code":"9980041","kana_pref":"ﾔﾏｶﾞﾀｹﾝ","kana_city":"ｻｶﾀｼ","kana_address":"ﾆｲﾀﾞﾏﾁ","pref":"山形県","city":"酒田市","address":"新井田町"},
{"zip_code":"9980103","kana_pref":"ﾔﾏｶﾞﾀｹﾝ","kana_city":"ｻｶﾀｼ","kana_address":"ﾆｼｷﾁｮｳ","pref":"山形県","city":"酒田市","address":"錦町"},
{"zip_code":"9980017","kana_pref":"ﾔﾏｶﾞﾀｹﾝ","kana_city":"ｻｶﾀｼ","kana_address":"ﾆｼﾉﾏﾁ","pref":"山形県","city":"酒田市","address":"西野町"},
{"zip_code":"9980829","kana_pref":"ﾔﾏｶﾞﾀｹﾝ","kana_city":"ｻｶﾀｼ","kana_address":"ﾆｽｹﾔﾁ","pref":"山形県","city":"酒田市","address":"仁助谷地"},
{"zip_code":"9980045","kana_pref":"ﾔﾏｶﾞﾀｹﾝ","kana_city":"ｻｶﾀｼ","kana_address":"ﾆﾊﾞﾝﾁｮｳ","pref":"山形県","city":"酒田市","address":"二番町"},
{"zip_code":"9980826","kana_pref":"ﾔﾏｶﾞﾀｹﾝ","kana_city":"ｻｶﾀｼ","kana_address":"ﾊﾂｾ","pref":"山形県","city":"酒田市","address":"初瀬"},
{"zip_code":"9980031","kana_pref":"ﾔﾏｶﾞﾀｹﾝ","kana_city":"ｻｶﾀｼ","kana_address":"ﾊﾏﾀﾞ","pref":"山形県","city":"酒田市","address":"浜田"},
{"zip_code":"9980112","kana_pref":"ﾔﾏｶﾞﾀｹﾝ","kana_city":"ｻｶﾀｼ","kana_address":"ﾊﾏﾅｶ","pref":"山形県","city":"酒田市","address":"浜中"},
{"zip_code":"9980074","kana_pref":"ﾔﾏｶﾞﾀｹﾝ","kana_city":"ｻｶﾀｼ","kana_address":"ﾊﾏﾏﾂﾁｮｳ","pref":"山形県","city":"酒田市","address":"浜松町"},
{"zip_code":"9980813","kana_pref":"ﾔﾏｶﾞﾀｹﾝ","kana_city":"ｻｶﾀｼ","kana_address":"ﾊﾞﾗﾉｼﾝﾃﾞﾝ","pref":"山形県","city":"酒田市","address":"茨野新田"},
{"zip_code":"9980061","kana_pref":"ﾔﾏｶﾞﾀｹﾝ","kana_city":"ｻｶﾀｼ","kana_address":"ﾋｶﾘｶﾞｵｶ","pref":"山形県","city":"酒田市","address":"光ケ丘"},
{"zip_code":"9980013","kana_pref":"ﾔﾏｶﾞﾀｹﾝ","kana_city":"ｻｶﾀｼ","kana_address":"ﾋｶﾞｼｲｽﾞﾐﾁｮｳ","pref":"山形県","city":"酒田市","address":"東泉町"},
{"zip_code":"9980851","kana_pref":"ﾔﾏｶﾞﾀｹﾝ","kana_city":"ｻｶﾀｼ","kana_address":"ﾋｶﾞｼｵｵﾏﾁ","pref":"山形県","city":"酒田市","address":"東大町"},
{"zip_code":"9980855","kana_pref":"ﾔﾏｶﾞﾀｹﾝ","kana_city":"ｻｶﾀｼ","kana_address":"ﾋｶﾞｼﾅｶﾉｸﾁﾏﾁ","pref":"山形県","city":"酒田市","address":"東中の口町"},
{"zip_code":"9980831","kana_pref":"ﾔﾏｶﾞﾀｹﾝ","kana_city":"ｻｶﾀｼ","kana_address":"ﾋｶﾞｼﾘｮｳｳﾁｮｳ","pref":"山形県","city":"酒田市","address":"東両羽町"},
{"zip_code":"9980863","kana_pref":"ﾔﾏｶﾞﾀｹﾝ","kana_city":"ｻｶﾀｼ","kana_address":"ﾋﾉﾃﾞﾁｮｳ","pref":"山形県","city":"酒田市","address":"日の出町"},
{"zip_code":"9980037","kana_pref":"ﾔﾏｶﾞﾀｹﾝ","kana_city":"ｻｶﾀｼ","kana_address":"ﾋﾖｼﾁｮｳ","pref":"山形県","city":"酒田市","address":"日吉町"},
{"zip_code":"9980113","kana_pref":"ﾔﾏｶﾞﾀｹﾝ","kana_city":"ｻｶﾀｼ","kana_address":"ﾋﾛｵｶｼﾝﾃﾞﾝ","pref":"山形県","city":"酒田市","address":"広岡新田"},
{"zip_code":"9980125","kana_pref":"ﾔﾏｶﾞﾀｹﾝ","kana_city":"ｻｶﾀｼ","kana_address":"ﾋﾛﾉ","pref":"山形県","city":"酒田市","address":"広野"},
{"zip_code":"9980105","kana_pref":"ﾔﾏｶﾞﾀｹﾝ","kana_city":"ｻｶﾀｼ","kana_address":"ﾋﾛﾉｼﾝﾃﾞﾝ","pref":"山形県","city":"酒田市","address":"広野新田"},
{"zip_code":"9980002","kana_pref":"ﾔﾏｶﾞﾀｹﾝ","kana_city":"ｻｶﾀｼ","kana_address":"ﾌｼﾞﾂｶ","pref":"山形県","city":"酒田市","address":"藤塚"},
{"zip_code":"9980861","kana_pref":"ﾔﾏｶﾞﾀｹﾝ","kana_city":"ｻｶﾀｼ","kana_address":"ﾌｼﾞﾐﾁｮｳ","pref":"山形県","city":"酒田市","address":"富士見町"},
{"zip_code":"9980036","kana_pref":"ﾔﾏｶﾞﾀｹﾝ","kana_city":"ｻｶﾀｼ","kana_address":"ﾌﾅﾊﾞﾁｮｳ","pref":"山形県","city":"酒田市","address":"船場町"},
{"zip_code":"9980001","kana_pref":"ﾔﾏｶﾞﾀｹﾝ","kana_city":"ｻｶﾀｼ","kana_address":"ﾎﾂﾞﾐ","pref":"山形県","city":"酒田市","address":"穂積"},
{"zip_code":"9980812","kana_pref":"ﾔﾏｶﾞﾀｹﾝ","kana_city":"ｻｶﾀｼ","kana_address":"ﾎﾝｶﾞﾜ","pref":"山形県","city":"酒田市","address":"本川"},
{"zip_code":"9980043","kana_pref":"ﾔﾏｶﾞﾀｹﾝ","kana_city":"ｻｶﾀｼ","kana_address":"ﾎﾝﾁｮｳ","pref":"山形県","city":"酒田市","address":"本町"},
{"zip_code":"9980841","kana_pref":"ﾔﾏｶﾞﾀｹﾝ","kana_city":"ｻｶﾀｼ","kana_address":"ﾏﾂﾊﾞﾗﾐﾅﾐ","pref":"山形県","city":"酒田市","address":"松原南"},
{"zip_code":"9980073","kana_pref":"ﾔﾏｶﾞﾀｹﾝ","kana_city":"ｻｶﾀｼ","kana_address":"ﾏﾂﾐﾁｮｳ","pref":"山形県","city":"酒田市","address":"松美町"},
{"zip_code":"9980853","kana_pref":"ﾔﾏｶﾞﾀｹﾝ","kana_city":"ｻｶﾀｼ","kana_address":"ﾐｽﾞﾎ","pref":"山形県","city":"酒田市","address":"みずほ"},
{"zip_code":"9980052","kana_pref":"ﾔﾏｶﾞﾀｹﾝ","kana_city":"ｻｶﾀｼ","kana_address":"ﾐﾄﾞﾘｶﾞｵｶ","pref":"山形県","city":"酒田市","address":"緑ケ丘"},
{"zip_code":"9980858","kana_pref":"ﾔﾏｶﾞﾀｹﾝ","kana_city":"ｻｶﾀｼ","kana_address":"ﾐﾄﾞﾘﾁｮｳ","pref":"山形県","city":"酒田市","address":"緑町"},
{"zip_code":"9980063","kana_pref":"ﾔﾏｶﾞﾀｹﾝ","kana_city":"ｻｶﾀｼ","kana_address":"ﾐﾅﾐｼﾝﾏﾁ","pref":"山形県","city":"酒田市","address":"南新町"},
{"zip_code":"9980025","kana_pref":"ﾔﾏｶﾞﾀｹﾝ","kana_city":"ｻｶﾀｼ","kana_address":"ﾐﾅﾐｾﾝﾆﾁﾁｮｳ","pref":"山形県","city":"酒田市","address":"南千日町"},
{"zip_code":"9980005","kana_pref":"ﾔﾏｶﾞﾀｹﾝ","kana_city":"ｻｶﾀｼ","kana_address":"ﾐﾔｳﾐ","pref":"山形県","city":"酒田市","address":"宮海"},
{"zip_code":"9980054","kana_pref":"ﾔﾏｶﾞﾀｹﾝ","kana_city":"ｻｶﾀｼ","kana_address":"ﾐﾔﾉｳﾗ","pref":"山形県","city":"酒田市","address":"宮野浦"},
{"zip_code":"9980821","kana_pref":"ﾔﾏｶﾞﾀｹﾝ","kana_city":"ｻｶﾀｼ","kana_address":"ﾕｽﾙﾍﾞ","pref":"山形県","city":"酒田市","address":"遊摺部"},
{"zip_code":"9980006","kana_pref":"ﾔﾏｶﾞﾀｹﾝ","kana_city":"ｻｶﾀｼ","kana_address":"ﾕﾀｶ","pref":"山形県","city":"酒田市","address":"ゆたか"},
{"zip_code":"9980804","kana_pref":"ﾔﾏｶﾞﾀｹﾝ","kana_city":"ｻｶﾀｼ","kana_address":"ﾖｺﾀﾞｲ","pref":"山形県","city":"酒田市","address":"横代"},
{"zip_code":"9980874","kana_pref":"ﾔﾏｶﾞﾀｹﾝ","kana_city":"ｻｶﾀｼ","kana_address":"ﾖﾂｺﾞﾔ","pref":"山形県","city":"酒田市","address":"四ツ興野"},
{"zip_code":"9980832","kana_pref":"ﾔﾏｶﾞﾀｹﾝ","kana_city":"ｻｶﾀｼ","kana_address":"ﾘｮｳｳﾁｮｳ","pref":"山形県","city":"酒田市","address":"両羽町"},
{"zip_code":"9980834","kana_pref":"ﾔﾏｶﾞﾀｹﾝ","kana_city":"ｻｶﾀｼ","kana_address":"ﾜｶﾀｹﾁｮｳ","pref":"山形県","city":"酒田市","address":"若竹町"},
{"zip_code":"9980857","kana_pref":"ﾔﾏｶﾞﾀｹﾝ","kana_city":"ｻｶﾀｼ","kana_address":"ﾜｶﾊﾏﾁｮｳ","pref":"山形県","city":"酒田市","address":"若浜町"},
{"zip_code":"9980833","kana_pref":"ﾔﾏｶﾞﾀｹﾝ","kana_city":"ｻｶﾀｼ","kana_address":"ﾜｶﾊﾗﾁｮｳ","pref":"山形県","city":"酒田市","address":"若原町"},
{"zip_code":"9980053","kana_pref":"ﾔﾏｶﾞﾀｹﾝ","kana_city":"ｻｶﾀｼ","kana_address":"ﾜｶﾐﾔﾁｮｳ","pref":"山形県","city":"酒田市","address":"若宮町"}]}